{"type": "FeatureCollection", "features": [{"type": "Feature", "geometry": {"type": "Polygon", "coordinates": [[[79.606, 24.1452], [79.606, 24.1451], [79.6056, 24.1447], [79.6055, 24.1446], [79.6054, 24.1446], [79.6054, 24.1444], [79.6053, 24.1442], [79.6054, 24.144], [79.6054, 24.1439], [79.6055, 24.1439], [79.6056, 24.1439], [79.6057, 24.1439], [79.6058, 24.144], [79.606, 24.1439], [79.6062, 24.1439], [79.6065, 24.1438], [79.6069, 24.1437], [79.6071, 24.1436], [79.6075, 24.1435], [79.6077, 24.1433], [79.6079, 24.1432], [79.608, 24.1432], [79.6081, 24.1431], [79.6086, 24.1428], [79.6095, 24.1422], [79.6103, 24.1417], [79.6105, 24.1416], [79.6103, 24.1414], [79.6102, 24.1414], [79.6101, 24.1412], [79.6098, 24.1408], [79.6095, 24.1405], [79.6094, 24.1404], [79.6093, 24.1402], [79.6091, 24.14], [79.609, 24.1398], [79.6089, 24.1398], [79.6088, 24.1396], [79.6085, 24.1393], [79.6081, 24.139], [79.608, 24.1389], [79.6077, 24.1386], [79.6075, 24.1384], [79.6074, 24.1383], [79.6073, 24.1382], [79.6071, 24.138], [79.607, 24.1379], [79.6067, 24.1376], [79.6066, 24.1375], [79.6065, 24.1374], [79.6063, 24.1372], [79.6062, 24.1371], [79.6061, 24.137], [79.6059, 24.1369], [79.6059, 24.1368], [79.6058, 24.1368], [79.6058, 24.1367], [79.6057, 24.1365], [79.6056, 24.1363], [79.6053, 24.136], [79.6051, 24.1357], [79.6051, 24.1356], [79.6049, 24.1356], [79.6048, 24.1357], [79.6047, 24.1357], [79.6044, 24.1356], [79.6043, 24.1356], [79.6042, 24.1356], [79.6041, 24.1357], [79.604, 24.1358], [79.6039, 24.1358], [79.6038, 24.1358], [79.6038, 24.1359], [79.6037, 24.1359], [79.6036, 24.136], [79.6033, 24.1362], [79.6033, 24.1363], [79.6032, 24.1363], [79.6028, 24.1365], [79.6028, 24.1366], [79.6027, 24.1366], [79.6027, 24.1367], [79.6026, 24.1367], [79.6025, 24.1368], [79.6024, 24.1369], [79.6023, 24.137], [79.6023, 24.1371], [79.6022, 24.1371], [79.6022, 24.1372], [79.6021, 24.1372], [79.602, 24.1373], [79.6019, 24.1374], [79.6018, 24.1375], [79.6017, 24.1375], [79.6017, 24.1376], [79.6018, 24.1378], [79.6019, 24.1379], [79.602, 24.138], [79.6019, 24.1381], [79.6017, 24.1382], [79.6017, 24.1383], [79.6018, 24.1384], [79.6019, 24.1385], [79.6019, 24.1386], [79.602, 24.1387], [79.6021, 24.1387], [79.6021, 24.1388], [79.6022, 24.1389], [79.6023, 24.1389], [79.6023, 24.1388], [79.6024, 24.1389], [79.6024, 24.139], [79.6025, 24.139], [79.6026, 24.1391], [79.6028, 24.1391], [79.6029, 24.1391], [79.6029, 24.1392], [79.603, 24.1394], [79.6029, 24.1394], [79.6029, 24.1395], [79.6029, 24.1396], [79.603, 24.1396], [79.6031, 24.1396], [79.6032, 24.1398], [79.603, 24.14], [79.6028, 24.1402], [79.6025, 24.1404], [79.6024, 24.1404], [79.6021, 24.1407], [79.6016, 24.141], [79.6015, 24.141], [79.6015, 24.1411], [79.6017, 24.1415], [79.6019, 24.1418], [79.6022, 24.1422], [79.6026, 24.1427], [79.6029, 24.143], [79.603, 24.1433], [79.6034, 24.1436], [79.6034, 24.1437], [79.6035, 24.1438], [79.6036, 24.1439], [79.6037, 24.144], [79.6038, 24.1441], [79.6039, 24.1442], [79.6039, 24.1443], [79.6041, 24.1444], [79.6042, 24.1446], [79.6042, 24.1447], [79.6043, 24.1448], [79.6044, 24.1449], [79.6047, 24.1451], [79.6048, 24.1452], [79.6048, 24.1453], [79.6053, 24.1457], [79.606, 24.1452]]]}, "properties": {"objectid": 35124, "statename": "Madhya Pradesh", "statecode": "23", "districtname": null, "districtcode": "428", "ulbname": "Hatta", "ulbcode": "802164", "wardname": "", "wardcode": "1", "id": null, "status": "APPROVED", "misglobalid": null, "approved_by": null, "createdate": 1636711928000, "updateddate": 1642856051000, "globalid": null, "gisglobalid": "e6b29510-ecff-46b6-9429-30f8ed74b00a", "remark": "", "st_area(shape)": 4.752221546942794e-05, "st_perimeter(shape)": 0.032351391755713485}}, {"type": "Feature", "geometry": {"type": "Polygon", "coordinates": [[[79.6031, 24.1396], [79.603, 24.1396], [79.6029, 24.1396], [79.6029, 24.1395], [79.6029, 24.1394], [79.603, 24.1394], [79.6029, 24.1392], [79.6029, 24.1391], [79.6028, 24.1391], [79.6026, 24.1391], [79.6025, 24.139], [79.6024, 24.139], [79.6024, 24.1389], [79.6023, 24.1388], [79.6023, 24.1389], [79.6022, 24.1389], [79.6021, 24.1388], [79.6021, 24.1387], [79.602, 24.1387], [79.6019, 24.1386], [79.6018, 24.1384], [79.6017, 24.1383], [79.6017, 24.1382], [79.6019, 24.1381], [79.602, 24.138], [79.6019, 24.1379], [79.6018, 24.1378], [79.6017, 24.1376], [79.6017, 24.1375], [79.6015, 24.1373], [79.6014, 24.1372], [79.6013, 24.1371], [79.6012, 24.137], [79.6011, 24.1369], [79.601, 24.1368], [79.6009, 24.1368], [79.6009, 24.1367], [79.6008, 24.1366], [79.6008, 24.1365], [79.6007, 24.1365], [79.6006, 24.1364], [79.6006, 24.1363], [79.6005, 24.1363], [79.6004, 24.1363], [79.6004, 24.1362], [79.6003, 24.1362], [79.6003, 24.1361], [79.6002, 24.136], [79.6001, 24.136], [79.6, 24.1359], [79.5999, 24.1358], [79.5999, 24.1357], [79.5998, 24.1357], [79.5998, 24.1356], [79.5997, 24.1356], [79.5996, 24.1356], [79.5996, 24.1357], [79.5995, 24.1357], [79.5992, 24.1358], [79.5992, 24.1359], [79.5989, 24.136], [79.5989, 24.1361], [79.5989, 24.1362], [79.5988, 24.1363], [79.5987, 24.1363], [79.5987, 24.1362], [79.5986, 24.1363], [79.5985, 24.1364], [79.5985, 24.1365], [79.5987, 24.1369], [79.5989, 24.1372], [79.5989, 24.1373], [79.5991, 24.1376], [79.5992, 24.1376], [79.5993, 24.1377], [79.5994, 24.1378], [79.5995, 24.1379], [79.5995, 24.138], [79.5996, 24.1382], [79.5998, 24.1388], [79.5999, 24.1389], [79.6, 24.139], [79.6, 24.1391], [79.6001, 24.1391], [79.6004, 24.1396], [79.6007, 24.14], [79.6009, 24.1402], [79.6009, 24.1404], [79.6011, 24.1405], [79.6013, 24.1406], [79.6014, 24.1407], [79.6015, 24.1408], [79.6015, 24.1409], [79.6015, 24.141], [79.6016, 24.141], [79.6021, 24.1407], [79.6024, 24.1404], [79.6025, 24.1404], [79.6028, 24.1402], [79.603, 24.14], [79.6032, 24.1398], [79.6031, 24.1397], [79.6031, 24.1396]]]}, "properties": {"objectid": 35125, "statename": "Madhya Pradesh", "statecode": "23", "districtname": null, "districtcode": "428", "ulbname": "Hatta", "ulbcode": "802164", "wardname": "", "wardcode": "2", "id": null, "status": "APPROVED", "misglobalid": null, "approved_by": null, "createdate": 1636711942000, "updateddate": 1642856059000, "globalid": null, "gisglobalid": "f7884e6b-c421-4292-be12-a3de83552672", "remark": "", "st_area(shape)": 1.0826261786001628e-05, "st_perimeter(shape)": 0.016214547831093967}}, {"type": "Feature", "geometry": {"type": "Polygon", "coordinates": [[[79.6018, 24.1375], [79.6019, 24.1374], [79.602, 24.1373], [79.6021, 24.1372], [79.6022, 24.1371], [79.6023, 24.1371], [79.6023, 24.137], [79.6024, 24.1369], [79.6025, 24.1368], [79.6026, 24.1367], [79.6027, 24.1366], [79.6028, 24.1366], [79.6028, 24.1365], [79.6032, 24.1363], [79.6033, 24.1362], [79.6036, 24.136], [79.6037, 24.1359], [79.6038, 24.1359], [79.6038, 24.1358], [79.6039, 24.1358], [79.604, 24.1358], [79.6041, 24.1357], [79.6042, 24.1356], [79.6043, 24.1356], [79.6044, 24.1356], [79.6044, 24.1354], [79.6044, 24.1353], [79.6043, 24.1352], [79.6043, 24.1351], [79.6043, 24.135], [79.6041, 24.1348], [79.6039, 24.1345], [79.6038, 24.1343], [79.6038, 24.1342], [79.6037, 24.1342], [79.6035, 24.1343], [79.6034, 24.1343], [79.6034, 24.1344], [79.6033, 24.1344], [79.6034, 24.1345], [79.6032, 24.1345], [79.6031, 24.1345], [79.6029, 24.1347], [79.6028, 24.1347], [79.6028, 24.1346], [79.6027, 24.1347], [79.6027, 24.1346], [79.6026, 24.1346], [79.6026, 24.1347], [79.6025, 24.1347], [79.6024, 24.1347], [79.6023, 24.1348], [79.6023, 24.1347], [79.6022, 24.1348], [79.6021, 24.1348], [79.602, 24.1349], [79.602, 24.135], [79.6019, 24.135], [79.6018, 24.1351], [79.6017, 24.1352], [79.6016, 24.1353], [79.6015, 24.1354], [79.6014, 24.1355], [79.6013, 24.1356], [79.6012, 24.1356], [79.6012, 24.1357], [79.6011, 24.1357], [79.6011, 24.1358], [79.601, 24.1358], [79.6009, 24.1358], [79.6008, 24.1358], [79.6007, 24.1358], [79.6006, 24.1359], [79.6004, 24.136], [79.6003, 24.136], [79.6002, 24.136], [79.6003, 24.1361], [79.6003, 24.1362], [79.6004, 24.1362], [79.6004, 24.1363], [79.6005, 24.1363], [79.6006, 24.1363], [79.6006, 24.1364], [79.6007, 24.1365], [79.6008, 24.1365], [79.6008, 24.1366], [79.6009, 24.1367], [79.6009, 24.1368], [79.601, 24.1368], [79.6011, 24.1369], [79.6012, 24.137], [79.6013, 24.1371], [79.6014, 24.1372], [79.6015, 24.1373], [79.6017, 24.1375], [79.6018, 24.1375]]]}, "properties": {"objectid": 35126, "statename": "Madhya Pradesh", "statecode": "23", "districtname": null, "districtcode": "428", "ulbname": "Hatta", "ulbcode": "802164", "wardname": "", "wardcode": "3", "id": null, "status": "APPROVED", "misglobalid": null, "approved_by": null, "createdate": 1636711957000, "updateddate": 1642856067000, "globalid": null, "gisglobalid": "3e444dca-b3a3-491b-8339-ca04e053e5da", "remark": "", "st_area(shape)": 6.370492941917326e-06, "st_perimeter(shape)": 0.011430081053972486}}, {"type": "Feature", "geometry": {"type": "Polygon", "coordinates": [[[79.6004, 24.136], [79.6006, 24.1359], [79.6007, 24.1358], [79.6008, 24.1358], [79.6009, 24.1358], [79.601, 24.1358], [79.6011, 24.1358], [79.6011, 24.1357], [79.6012, 24.1357], [79.6012, 24.1356], [79.6013, 24.1356], [79.6014, 24.1355], [79.6015, 24.1354], [79.6016, 24.1353], [79.6017, 24.1352], [79.6018, 24.1351], [79.6019, 24.135], [79.602, 24.135], [79.602, 24.1349], [79.6021, 24.1348], [79.6022, 24.1348], [79.6023, 24.1347], [79.6023, 24.1348], [79.6024, 24.1347], [79.6025, 24.1347], [79.6026, 24.1347], [79.6026, 24.1346], [79.6027, 24.1346], [79.6027, 24.1347], [79.6028, 24.1346], [79.6028, 24.1347], [79.6029, 24.1347], [79.6031, 24.1345], [79.6032, 24.1345], [79.6034, 24.1345], [79.6033, 24.1344], [79.6034, 24.1344], [79.6034, 24.1343], [79.6035, 24.1343], [79.6037, 24.1342], [79.6037, 24.1341], [79.6036, 24.1341], [79.6035, 24.134], [79.6032, 24.1339], [79.6031, 24.1339], [79.603, 24.1337], [79.6029, 24.1336], [79.6028, 24.1335], [79.6028, 24.1334], [79.6026, 24.1332], [79.6025, 24.1333], [79.6023, 24.133], [79.6021, 24.1331], [79.6019, 24.1332], [79.6018, 24.1332], [79.6015, 24.1333], [79.6014, 24.1333], [79.6013, 24.1333], [79.6012, 24.1333], [79.6012, 24.1334], [79.6012, 24.1333], [79.6011, 24.1333], [79.601, 24.1333], [79.6009, 24.1333], [79.6006, 24.1333], [79.6006, 24.1336], [79.6006, 24.1338], [79.6006, 24.1339], [79.6006, 24.134], [79.6007, 24.1341], [79.6008, 24.1342], [79.6009, 24.1343], [79.6011, 24.1345], [79.6012, 24.1347], [79.6013, 24.1347], [79.6012, 24.1348], [79.601, 24.1349], [79.601, 24.1348], [79.6008, 24.1348], [79.6009, 24.1349], [79.6009, 24.135], [79.6008, 24.135], [79.6008, 24.1351], [79.6007, 24.1351], [79.6006, 24.1352], [79.6005, 24.1352], [79.6003, 24.1353], [79.6003, 24.1352], [79.6002, 24.1353], [79.6002, 24.1354], [79.6004, 24.1354], [79.6004, 24.1355], [79.6005, 24.1356], [79.6005, 24.1357], [79.6004, 24.1358], [79.6004, 24.1359], [79.6003, 24.1359], [79.6003, 24.136], [79.6004, 24.136]]]}, "properties": {"objectid": 34750, "statename": "Madhya Pradesh", "statecode": "23", "districtname": null, "districtcode": "428", "ulbname": "Hatta", "ulbcode": "802164", "wardname": "", "wardcode": "4", "id": null, "status": "APPROVED", "misglobalid": null, "approved_by": null, "createdate": 1636711974000, "updateddate": 1642856074000, "globalid": null, "gisglobalid": "063c8c10-b8a7-40ac-b806-8aa035eac145", "remark": "", "st_area(shape)": 4.5853793196259466e-06, "st_perimeter(shape)": 0.012411841412643456}}, {"type": "Feature", "geometry": {"type": "Polygon", "coordinates": [[[79.5986, 24.1363], [79.5987, 24.1362], [79.5987, 24.1363], [79.5988, 24.1363], [79.5989, 24.1362], [79.5989, 24.1361], [79.5989, 24.136], [79.5992, 24.1359], [79.5992, 24.1358], [79.5995, 24.1357], [79.5996, 24.1357], [79.5996, 24.1356], [79.5997, 24.1356], [79.5998, 24.1356], [79.5998, 24.1357], [79.5999, 24.1357], [79.5999, 24.1358], [79.6, 24.1359], [79.6001, 24.136], [79.6002, 24.136], [79.6003, 24.136], [79.6003, 24.1359], [79.6004, 24.1359], [79.6004, 24.1358], [79.6005, 24.1357], [79.6005, 24.1356], [79.6004, 24.1355], [79.6004, 24.1354], [79.6002, 24.1354], [79.6002, 24.1353], [79.6003, 24.1352], [79.6003, 24.1353], [79.6004, 24.1353], [79.6005, 24.1352], [79.6006, 24.1352], [79.6007, 24.1351], [79.6008, 24.1351], [79.6008, 24.135], [79.6009, 24.135], [79.6009, 24.1349], [79.6008, 24.1349], [79.6008, 24.1348], [79.601, 24.1348], [79.601, 24.1349], [79.6012, 24.1348], [79.6013, 24.1347], [79.6012, 24.1347], [79.6011, 24.1345], [79.601, 24.1345], [79.6009, 24.1343], [79.6008, 24.1342], [79.6007, 24.1341], [79.6006, 24.134], [79.6006, 24.1339], [79.6006, 24.1338], [79.6006, 24.1337], [79.6006, 24.1336], [79.6006, 24.1333], [79.6005, 24.1333], [79.6002, 24.1334], [79.6001, 24.1334], [79.6, 24.1334], [79.5998, 24.1334], [79.5997, 24.1334], [79.5995, 24.1335], [79.5994, 24.1335], [79.5994, 24.1336], [79.5992, 24.1337], [79.5991, 24.1337], [79.5989, 24.1338], [79.5986, 24.134], [79.5986, 24.1341], [79.5987, 24.1342], [79.5987, 24.1343], [79.5988, 24.1343], [79.5988, 24.1344], [79.5989, 24.1345], [79.599, 24.1347], [79.5989, 24.1348], [79.5988, 24.1349], [79.5986, 24.1349], [79.5983, 24.1351], [79.5981, 24.1351], [79.598, 24.1352], [79.598, 24.1353], [79.5979, 24.1353], [79.5977, 24.1354], [79.5978, 24.1355], [79.5979, 24.1356], [79.5979, 24.1357], [79.598, 24.1358], [79.598, 24.1359], [79.5981, 24.1359], [79.5983, 24.1361], [79.5983, 24.1362], [79.5984, 24.1363], [79.5985, 24.1364], [79.5986, 24.1363]]]}, "properties": {"objectid": 35788, "statename": "Madhya Pradesh", "statecode": "23", "districtname": null, "districtcode": "428", "ulbname": "Hatta", "ulbcode": "802164", "wardname": "", "wardcode": "5", "id": null, "status": "APPROVED", "misglobalid": null, "approved_by": null, "createdate": 1636712006000, "updateddate": 1642856084000, "globalid": null, "gisglobalid": "7abfe4b8-04a0-4cad-ad9d-232f432ce9e3", "remark": "", "st_area(shape)": 5.519816217841447e-06, "st_perimeter(shape)": 0.013031023091219082}}, {"type": "Feature", "geometry": {"type": "Polygon", "coordinates": [[[79.5964, 24.1319], [79.5965, 24.1319], [79.5964, 24.1318], [79.5965, 24.1318], [79.5965, 24.1317], [79.5964, 24.1317], [79.5962, 24.1318], [79.5961, 24.1318], [79.5961, 24.1319], [79.596, 24.1319], [79.5959, 24.132], [79.5959, 24.1321], [79.5959, 24.1322], [79.596, 24.1324], [79.5961, 24.1326], [79.596, 24.1327], [79.5959, 24.1327], [79.5959, 24.1328], [79.5958, 24.1329], [79.5958, 24.133], [79.5955, 24.1329], [79.5955, 24.133], [79.5955, 24.1331], [79.5955, 24.1332], [79.5955, 24.1333], [79.5954, 24.1334], [79.5955, 24.1334], [79.5957, 24.1336], [79.5961, 24.1338], [79.5962, 24.1339], [79.5963, 24.134], [79.5964, 24.1341], [79.5965, 24.1341], [79.5966, 24.1341], [79.5966, 24.1342], [79.5967, 24.1342], [79.5968, 24.1342], [79.5968, 24.1343], [79.5969, 24.1345], [79.597, 24.1346], [79.5972, 24.1349], [79.5972, 24.135], [79.5973, 24.135], [79.5974, 24.135], [79.5974, 24.1351], [79.5977, 24.1354], [79.5979, 24.1353], [79.598, 24.1353], [79.598, 24.1352], [79.5981, 24.1351], [79.5983, 24.1351], [79.5986, 24.1349], [79.5988, 24.1349], [79.5989, 24.1348], [79.599, 24.1347], [79.5989, 24.1345], [79.5988, 24.1344], [79.5988, 24.1343], [79.5987, 24.1343], [79.5987, 24.1342], [79.5986, 24.1341], [79.5986, 24.134], [79.5984, 24.1338], [79.5984, 24.1337], [79.5983, 24.1337], [79.5983, 24.1336], [79.5982, 24.1335], [79.5981, 24.1334], [79.598, 24.1333], [79.5978, 24.133], [79.5977, 24.1328], [79.5976, 24.1327], [79.5976, 24.1326], [79.5974, 24.1325], [79.5974, 24.1324], [79.5973, 24.1324], [79.5972, 24.1322], [79.5971, 24.1323], [79.5971, 24.1322], [79.597, 24.1322], [79.5969, 24.1323], [79.5969, 24.1324], [79.5968, 24.1324], [79.5967, 24.1324], [79.5967, 24.1323], [79.5966, 24.1323], [79.5964, 24.132], [79.5964, 24.1319], [79.5963, 24.1319], [79.5964, 24.1319]]]}, "properties": {"objectid": 35789, "statename": "Madhya Pradesh", "statecode": "23", "districtname": null, "districtcode": "428", "ulbname": "Hatta", "ulbcode": "802164", "wardname": "", "wardcode": "6", "id": null, "status": "APPROVED", "misglobalid": null, "approved_by": null, "createdate": 1636712030000, "updateddate": 1642856093000, "globalid": null, "gisglobalid": "b42f2462-7378-42d2-92d7-fd6bc218ebdc", "remark": "", "st_area(shape)": 6.0257503140954944e-06, "st_perimeter(shape)": 0.012205515776482226}}, {"type": "Feature", "geometry": {"type": "Polygon", "coordinates": [[[79.5967, 24.1324], [79.5968, 24.1324], [79.5969, 24.1324], [79.5969, 24.1323], [79.597, 24.1322], [79.5971, 24.1322], [79.5971, 24.1323], [79.5972, 24.1322], [79.5973, 24.1324], [79.5974, 24.1324], [79.5974, 24.1325], [79.5976, 24.1326], [79.5976, 24.1327], [79.5977, 24.1328], [79.5978, 24.133], [79.598, 24.1333], [79.5981, 24.1334], [79.5982, 24.1335], [79.5983, 24.1336], [79.5983, 24.1337], [79.5984, 24.1337], [79.5984, 24.1338], [79.5986, 24.134], [79.5989, 24.1338], [79.5991, 24.1337], [79.5992, 24.1337], [79.5994, 24.1336], [79.5994, 24.1335], [79.5995, 24.1335], [79.5997, 24.1334], [79.5998, 24.1334], [79.6, 24.1334], [79.6001, 24.1334], [79.6002, 24.1334], [79.6005, 24.1333], [79.6004, 24.1332], [79.6003, 24.133], [79.6002, 24.1328], [79.6001, 24.1327], [79.6001, 24.1326], [79.6002, 24.1326], [79.6003, 24.1325], [79.6003, 24.1324], [79.6003, 24.1322], [79.6003, 24.1321], [79.6002, 24.1322], [79.6002, 24.1321], [79.6001, 24.1321], [79.6001, 24.132], [79.6001, 24.1319], [79.5998, 24.132], [79.5996, 24.1321], [79.5994, 24.1322], [79.5993, 24.1321], [79.5991, 24.1319], [79.599, 24.1318], [79.599, 24.1319], [79.5989, 24.1319], [79.5989, 24.1318], [79.5988, 24.1317], [79.5987, 24.1317], [79.5986, 24.1317], [79.5985, 24.1316], [79.5984, 24.1315], [79.5984, 24.1316], [79.5982, 24.1316], [79.5981, 24.1316], [79.598, 24.1316], [79.598, 24.1315], [79.5979, 24.1315], [79.5978, 24.1314], [79.5977, 24.1315], [79.5977, 24.1316], [79.5978, 24.1316], [79.5977, 24.1316], [79.5976, 24.1317], [79.5976, 24.1318], [79.5975, 24.1318], [79.5973, 24.1318], [79.5972, 24.1317], [79.597, 24.1319], [79.5969, 24.1318], [79.5968, 24.1317], [79.5967, 24.1316], [79.5966, 24.1315], [79.5964, 24.1316], [79.5964, 24.1317], [79.5965, 24.1317], [79.5965, 24.1318], [79.5964, 24.1318], [79.5965, 24.1319], [79.5964, 24.1319], [79.5963, 24.1319], [79.5964, 24.1319], [79.5964, 24.132], [79.5966, 24.1323], [79.5967, 24.1323], [79.5967, 24.1324]]]}, "properties": {"objectid": 34751, "statename": "Madhya Pradesh", "statecode": "23", "districtname": null, "districtcode": "428", "ulbname": "Hatta", "ulbcode": "802164", "wardname": "", "wardcode": "7", "id": null, "status": "APPROVED", "misglobalid": null, "approved_by": null, "createdate": 1636712046000, "updateddate": 1642856101000, "globalid": null, "gisglobalid": "a021dcad-2e43-4588-aaf4-10a470ee5105", "remark": "", "st_area(shape)": 5.204055790875595e-06, "st_perimeter(shape)": 0.012754977647422864}}, {"type": "Feature", "geometry": {"type": "Polygon", "coordinates": [[[79.601, 24.1304], [79.6011, 24.1305], [79.601, 24.1305], [79.601, 24.1306], [79.6009, 24.1307], [79.6007, 24.1307], [79.6007, 24.1306], [79.6006, 24.1306], [79.6006, 24.1305], [79.6006, 24.1304], [79.6005, 24.1304], [79.6004, 24.1304], [79.6003, 24.1305], [79.6002, 24.1305], [79.6001, 24.1305], [79.6, 24.1305], [79.5998, 24.1305], [79.5998, 24.1307], [79.5999, 24.1308], [79.5999, 24.1309], [79.5999, 24.131], [79.6, 24.1311], [79.6001, 24.1311], [79.6002, 24.1311], [79.6003, 24.1311], [79.6003, 24.1312], [79.6004, 24.1313], [79.6004, 24.1315], [79.6004, 24.1316], [79.6005, 24.1316], [79.6005, 24.1317], [79.6005, 24.1319], [79.6003, 24.1319], [79.6002, 24.1319], [79.6001, 24.1319], [79.6001, 24.132], [79.6001, 24.1321], [79.6002, 24.1321], [79.6002, 24.1322], [79.6003, 24.1321], [79.6003, 24.1322], [79.6003, 24.1324], [79.6003, 24.1325], [79.6002, 24.1326], [79.6001, 24.1326], [79.6001, 24.1327], [79.6002, 24.1328], [79.6003, 24.133], [79.6004, 24.1332], [79.6005, 24.1333], [79.6006, 24.1333], [79.6008, 24.1333], [79.6009, 24.1333], [79.601, 24.1333], [79.6011, 24.1333], [79.6012, 24.1333], [79.6012, 24.1334], [79.6012, 24.1333], [79.6013, 24.1333], [79.6014, 24.1333], [79.6015, 24.1333], [79.6018, 24.1332], [79.6019, 24.1332], [79.6021, 24.1331], [79.6023, 24.133], [79.6024, 24.133], [79.6025, 24.133], [79.6025, 24.1329], [79.6025, 24.1328], [79.6024, 24.1327], [79.6023, 24.1325], [79.6022, 24.1323], [79.6021, 24.1321], [79.6021, 24.132], [79.602, 24.1319], [79.602, 24.1318], [79.6019, 24.1316], [79.6018, 24.1316], [79.6017, 24.1313], [79.6017, 24.1312], [79.6017, 24.1311], [79.6017, 24.131], [79.6016, 24.131], [79.6016, 24.1309], [79.6015, 24.1309], [79.6014, 24.1308], [79.6013, 24.1307], [79.6012, 24.1306], [79.6012, 24.1305], [79.6011, 24.1304], [79.6011, 24.1303], [79.6011, 24.1302], [79.601, 24.1302], [79.601, 24.1303], [79.6011, 24.1303], [79.601, 24.1303], [79.601, 24.1304]]]}, "properties": {"objectid": 33209, "statename": "Madhya Pradesh", "statecode": "23", "districtname": null, "districtcode": "428", "ulbname": "Hatta", "ulbcode": "802164", "wardname": "", "wardcode": "8", "id": null, "status": "APPROVED", "misglobalid": null, "approved_by": null, "createdate": 1636712086000, "updateddate": 1642856110000, "globalid": null, "gisglobalid": "a4d05a01-1ec5-4976-b766-7f32ccadca43", "remark": "", "st_area(shape)": 4.873344060218592e-06, "st_perimeter(shape)": 0.01190503049895817}}, {"type": "Feature", "geometry": {"type": "Polygon", "coordinates": [[[79.6033, 24.13], [79.6032, 24.13], [79.6031, 24.13], [79.603, 24.13], [79.6032, 24.1305], [79.6033, 24.1309], [79.6034, 24.1315], [79.6036, 24.132], [79.6037, 24.1324], [79.6032, 24.1326], [79.6028, 24.1328], [79.6025, 24.133], [79.6024, 24.133], [79.6023, 24.133], [79.6025, 24.1333], [79.6026, 24.1332], [79.6028, 24.1334], [79.6028, 24.1335], [79.6029, 24.1336], [79.603, 24.1337], [79.6031, 24.1339], [79.6032, 24.1339], [79.6035, 24.134], [79.6036, 24.1341], [79.6037, 24.1341], [79.6037, 24.1342], [79.6038, 24.1342], [79.6038, 24.1343], [79.6039, 24.1345], [79.6041, 24.1348], [79.6043, 24.135], [79.6043, 24.1351], [79.6043, 24.1352], [79.6044, 24.1353], [79.6044, 24.1354], [79.6044, 24.1356], [79.6047, 24.1357], [79.6048, 24.1357], [79.6049, 24.1356], [79.6051, 24.1356], [79.6053, 24.136], [79.6057, 24.1365], [79.6058, 24.1367], [79.6058, 24.1368], [79.6059, 24.1368], [79.6059, 24.1369], [79.6061, 24.137], [79.6063, 24.1372], [79.6065, 24.1374], [79.6067, 24.1376], [79.607, 24.1379], [79.6074, 24.1383], [79.6077, 24.1386], [79.6081, 24.139], [79.6085, 24.1393], [79.6088, 24.1396], [79.6089, 24.1398], [79.609, 24.1398], [79.6091, 24.14], [79.6093, 24.1402], [79.6094, 24.1404], [79.6095, 24.1405], [79.6098, 24.1408], [79.6101, 24.1412], [79.6103, 24.1414], [79.6105, 24.1417], [79.6109, 24.142], [79.6114, 24.1425], [79.6117, 24.1427], [79.6118, 24.1428], [79.612, 24.1429], [79.6123, 24.1431], [79.6126, 24.1434], [79.6129, 24.1436], [79.6131, 24.1437], [79.6134, 24.1438], [79.6139, 24.1441], [79.6141, 24.1442], [79.6143, 24.1443], [79.6146, 24.1445], [79.6148, 24.1446], [79.615, 24.1447], [79.6152, 24.1449], [79.6157, 24.1452], [79.616, 24.1454], [79.6164, 24.1457], [79.6166, 24.1459], [79.6168, 24.146], [79.6172, 24.1464], [79.6174, 24.1465], [79.6175, 24.1465], [79.6175, 24.1464], [79.6176, 24.1464], [79.6176, 24.1463], [79.6177, 24.1463], [79.6177, 24.1462], [79.6177, 24.1461], [79.6177, 24.146], [79.6176, 24.1459], [79.6176, 24.1458], [79.6176, 24.1457], [79.6175, 24.1457], [79.6174, 24.1456], [79.6173, 24.1455], [79.6173, 24.1454], [79.6172, 24.1454], [79.6171, 24.1454], [79.617, 24.1454], [79.617, 24.1453], [79.6169, 24.1453], [79.6169, 24.1452], [79.6169, 24.1451], [79.617, 24.1451], [79.617, 24.145], [79.6171, 24.145], [79.6172, 24.145], [79.6173, 24.1449], [79.6174, 24.1449], [79.6175, 24.1449], [79.6175, 24.145], [79.6176, 24.1449], [79.6176, 24.145], [79.6177, 24.145], [79.6178, 24.1451], [79.6178, 24.1452], [79.6179, 24.1452], [79.6179, 24.1453], [79.6179, 24.1454], [79.6179, 24.1455], [79.618, 24.1455], [79.6181, 24.1455], [79.6181, 24.1456], [79.6182, 24.1456], [79.6182, 24.1455], [79.6183, 24.1455], [79.6184, 24.1455], [79.6184, 24.1454], [79.6185, 24.1454], [79.6185, 24.1453], [79.6186, 24.1452], [79.6186, 24.1451], [79.6185, 24.145], [79.6185, 24.1449], [79.6185, 24.1448], [79.6184, 24.1448], [79.6184, 24.1447], [79.6183, 24.1447], [79.6183, 24.1446], [79.6182, 24.1445], [79.6182, 24.1444], [79.6182, 24.1443], [79.6181, 24.1443], [79.618, 24.1443], [79.6179, 24.1443], [79.6178, 24.1443], [79.6178, 24.1444], [79.6178, 24.1445], [79.6178, 24.1446], [79.6177, 24.1446], [79.6176, 24.1446], [79.6176, 24.1445], [79.6175, 24.1445], [79.6175, 24.1444], [79.6174, 24.1444], [79.6174, 24.1443], [79.6174, 24.1442], [79.6175, 24.1442], [79.6175, 24.1441], [79.6175, 24.144], [79.6176, 24.144], [79.6177, 24.144], [79.6178, 24.144], [79.6179, 24.144], [79.618, 24.144], [79.6181, 24.144], [79.6182, 24.144], [79.6183, 24.144], [79.6184, 24.1441], [79.6185, 24.1442], [79.6186, 24.1442], [79.6186, 24.1443], [79.6187, 24.1443], [79.6188, 24.1443], [79.6188, 24.1442], [79.6189, 24.1442], [79.6189, 24.1441], [79.6189, 24.144], [79.6189, 24.1439], [79.619, 24.1439], [79.619, 24.1438], [79.619, 24.1437], [79.6191, 24.1437], [79.6191, 24.1436], [79.6192, 24.1436], [79.6192, 24.1435], [79.6192, 24.1434], [79.6191, 24.1434], [79.6191, 24.1433], [79.6191, 24.1432], [79.619, 24.1432], [79.619, 24.1431], [79.6191, 24.1431], [79.6191, 24.143], [79.6191, 24.1429], [79.619, 24.1429], [79.619, 24.1428], [79.6191, 24.1428], [79.6192, 24.1428], [79.6193, 24.1428], [79.6193, 24.1427], [79.6194, 24.1427], [79.6194, 24.1426], [79.6195, 24.1426], [79.6195, 24.1425], [79.6196, 24.1425], [79.6196, 24.1424], [79.6197, 24.1424], [79.6198, 24.1423], [79.6199, 24.1423], [79.62, 24.1423], [79.62, 24.1422], [79.6201, 24.1422], [79.6202, 24.1422], [79.6202, 24.1421], [79.6203, 24.1421], [79.6203, 24.142], [79.6203, 24.1419], [79.6203, 24.1418], [79.6203, 24.1417], [79.6204, 24.1417], [79.6204, 24.1416], [79.6204, 24.1415], [79.6205, 24.1415], [79.6206, 24.1415], [79.6206, 24.1414], [79.6205, 24.1413], [79.6206, 24.1412], [79.6205, 24.1412], [79.6205, 24.1411], [79.6203, 24.141], [79.6198, 24.1408], [79.6197, 24.1407], [79.6196, 24.1406], [79.6196, 24.1405], [79.6196, 24.1404], [79.6196, 24.14], [79.6196, 24.1396], [79.6196, 24.1393], [79.6197, 24.139], [79.6197, 24.1384], [79.6198, 24.1376], [79.6198, 24.1375], [79.6198, 24.1374], [79.6197, 24.1375], [79.6195, 24.1375], [79.6194, 24.1375], [79.6192, 24.1375], [79.6191, 24.1375], [79.6189, 24.1376], [79.6186, 24.1376], [79.6183, 24.1376], [79.618, 24.1376], [79.6177, 24.1376], [79.6174, 24.1376], [79.6171, 24.1377], [79.6169, 24.1377], [79.6167, 24.1377], [79.6165, 24.1378], [79.6163, 24.1378], [79.6162, 24.1379], [79.6161, 24.1379], [79.616, 24.1379], [79.6156, 24.1379], [79.6152, 24.138], [79.6151, 24.1379], [79.6151, 24.1374], [79.6149, 24.1365], [79.6143, 24.1366], [79.6139, 24.1367], [79.6138, 24.1367], [79.6137, 24.1367], [79.6135, 24.1367], [79.6129, 24.1367], [79.6125, 24.1367], [79.6119, 24.1366], [79.6114, 24.1365], [79.6109, 24.1364], [79.6107, 24.1364], [79.6105, 24.1363], [79.6104, 24.1363], [79.6103, 24.1362], [79.6102, 24.1362], [79.6101, 24.1361], [79.6101, 24.136], [79.6101, 24.1354], [79.6101, 24.1352], [79.61, 24.1353], [79.6099, 24.1353], [79.6097, 24.1354], [79.6094, 24.1355], [79.6092, 24.1356], [79.6089, 24.1356], [79.6088, 24.1357], [79.6087, 24.1357], [79.6087, 24.1356], [79.6084, 24.135], [79.6083, 24.135], [79.6084, 24.135], [79.6083, 24.1349], [79.6083, 24.1348], [79.6082, 24.1348], [79.6081, 24.1349], [79.608, 24.1349], [79.6076, 24.1344], [79.6075, 24.1343], [79.6075, 24.1342], [79.6074, 24.1341], [79.6073, 24.1336], [79.6072, 24.1335], [79.6071, 24.1331], [79.607, 24.1328], [79.6069, 24.1326], [79.6068, 24.1326], [79.6068, 24.1325], [79.6067, 24.1325], [79.6067, 24.1326], [79.6066, 24.1326], [79.6065, 24.1327], [79.6064, 24.1327], [79.6063, 24.1327], [79.6062, 24.1327], [79.6061, 24.1327], [79.6058, 24.1328], [79.6056, 24.1328], [79.6055, 24.1322], [79.6055, 24.1321], [79.6054, 24.132], [79.6049, 24.1314], [79.6049, 24.1313], [79.6052, 24.1311], [79.6052, 24.131], [79.6051, 24.1302], [79.6051, 24.1301], [79.605, 24.13], [79.605, 24.1298], [79.6049, 24.1297], [79.6049, 24.1295], [79.6048, 24.1293], [79.6048, 24.1291], [79.6048, 24.129], [79.6047, 24.1291], [79.6047, 24.1292], [79.6047, 24.1291], [79.6046, 24.129], [79.6042, 24.1293], [79.6042, 24.1294], [79.6041, 24.1294], [79.604, 24.1295], [79.6039, 24.1296], [79.6039, 24.1295], [79.6038, 24.1296], [79.6037, 24.1296], [79.6037, 24.1297], [79.6036, 24.1297], [79.6036, 24.1298], [79.6035, 24.1298], [79.6035, 24.1299], [79.6034, 24.1299], [79.6034, 24.13], [79.6034, 24.1301], [79.6033, 24.13]]]}, "properties": {"objectid": 33651, "statename": "Madhya Pradesh", "statecode": "23", "districtname": null, "districtcode": "428", "ulbname": "Hatta", "ulbcode": "802164", "wardname": "", "wardcode": "9", "id": null, "status": "APPROVED", "misglobalid": null, "approved_by": null, "createdate": 1636712168000, "updateddate": 1642856119000, "globalid": null, "gisglobalid": "2bfcb90f-a93c-4bb8-8216-12798f37bb05", "remark": "", "st_area(shape)": 9.955433818499387e-05, "st_perimeter(shape)": 0.06701182229242304}}, {"type": "Feature", "geometry": {"type": "Polygon", "coordinates": [[[79.6005, 24.1285], [79.6005, 24.1284], [79.6005, 24.1283], [79.6005, 24.1282], [79.6005, 24.1281], [79.6005, 24.128], [79.6005, 24.1279], [79.6004, 24.1277], [79.6004, 24.1276], [79.6005, 24.1275], [79.6003, 24.1275], [79.6001, 24.1275], [79.6, 24.1275], [79.5998, 24.1274], [79.5997, 24.1274], [79.5996, 24.1274], [79.5995, 24.1274], [79.5993, 24.1275], [79.5992, 24.1276], [79.5991, 24.1276], [79.5991, 24.1277], [79.599, 24.1278], [79.5989, 24.1278], [79.5991, 24.128], [79.5991, 24.1281], [79.5992, 24.1281], [79.5992, 24.1282], [79.5993, 24.1282], [79.5994, 24.1282], [79.5995, 24.1283], [79.5996, 24.1284], [79.5994, 24.1285], [79.5994, 24.1286], [79.5994, 24.1287], [79.5994, 24.1288], [79.5993, 24.1289], [79.5993, 24.129], [79.5992, 24.1291], [79.599, 24.1293], [79.5988, 24.1294], [79.5988, 24.1295], [79.5986, 24.1296], [79.5985, 24.1297], [79.5983, 24.1299], [79.5981, 24.13], [79.5979, 24.1302], [79.598, 24.1303], [79.5981, 24.1303], [79.5983, 24.1302], [79.5986, 24.1301], [79.5987, 24.1301], [79.5988, 24.1301], [79.5989, 24.1301], [79.599, 24.13], [79.5991, 24.13], [79.5992, 24.13], [79.5993, 24.13], [79.5993, 24.1299], [79.5994, 24.1299], [79.5997, 24.1298], [79.5998, 24.1298], [79.5999, 24.1298], [79.6, 24.1298], [79.6001, 24.1297], [79.6003, 24.1297], [79.6006, 24.1296], [79.6008, 24.1295], [79.6008, 24.1294], [79.6007, 24.1293], [79.6007, 24.1292], [79.6006, 24.1292], [79.6006, 24.1291], [79.6006, 24.129], [79.6006, 24.1289], [79.6005, 24.1289], [79.6005, 24.1288], [79.6005, 24.1287], [79.6005, 24.1286], [79.6005, 24.1285]]]}, "properties": {"objectid": 35128, "statename": "Madhya Pradesh", "statecode": "23", "districtname": null, "districtcode": "428", "ulbname": "Hatta", "ulbcode": "802164", "wardname": "", "wardcode": "10", "id": null, "status": "APPROVED", "misglobalid": null, "approved_by": null, "createdate": 1636712278000, "updateddate": 1642856127000, "globalid": null, "gisglobalid": "ed5a9983-0103-460b-bd5b-349d12d17794", "remark": "", "st_area(shape)": 3.6477673164035363e-06, "st_perimeter(shape)": 0.010426268726706918}}, {"type": "Feature", "geometry": {"type": "Polygon", "coordinates": [[[79.601, 24.1304], [79.601, 24.1303], [79.6011, 24.1303], [79.601, 24.1303], [79.601, 24.1302], [79.6011, 24.1302], [79.601, 24.13], [79.601, 24.1299], [79.6009, 24.1297], [79.6009, 24.1296], [79.6008, 24.1296], [79.6008, 24.1295], [79.6006, 24.1296], [79.6003, 24.1297], [79.6001, 24.1297], [79.5999, 24.1298], [79.5998, 24.1298], [79.5997, 24.1298], [79.5994, 24.1299], [79.5993, 24.1299], [79.5993, 24.13], [79.5992, 24.13], [79.5991, 24.13], [79.599, 24.13], [79.5989, 24.1301], [79.5988, 24.1301], [79.5987, 24.1301], [79.5986, 24.1301], [79.5983, 24.1302], [79.5981, 24.1303], [79.598, 24.1303], [79.598, 24.1304], [79.5981, 24.1307], [79.5982, 24.1308], [79.5984, 24.1311], [79.5986, 24.1314], [79.5986, 24.1315], [79.5987, 24.1315], [79.5988, 24.1316], [79.599, 24.1317], [79.599, 24.1318], [79.5991, 24.1319], [79.5993, 24.1321], [79.5994, 24.1322], [79.5996, 24.1321], [79.5998, 24.132], [79.6001, 24.1319], [79.6002, 24.1319], [79.6003, 24.1319], [79.6005, 24.1319], [79.6005, 24.1317], [79.6005, 24.1316], [79.6004, 24.1316], [79.6004, 24.1315], [79.6004, 24.1313], [79.6003, 24.1312], [79.6003, 24.1311], [79.6002, 24.1311], [79.6001, 24.1311], [79.6, 24.1311], [79.5999, 24.131], [79.5999, 24.1309], [79.5999, 24.1308], [79.5998, 24.1307], [79.5998, 24.1305], [79.6, 24.1305], [79.6001, 24.1305], [79.6002, 24.1305], [79.6003, 24.1305], [79.6004, 24.1304], [79.6005, 24.1304], [79.6006, 24.1304], [79.6006, 24.1305], [79.6006, 24.1306], [79.6007, 24.1306], [79.6007, 24.1307], [79.6009, 24.1307], [79.601, 24.1306], [79.601, 24.1305], [79.6011, 24.1305], [79.601, 24.1304]]]}, "properties": {"objectid": 34753, "statename": "Madhya Pradesh", "statecode": "23", "districtname": null, "districtcode": "428", "ulbname": "Hatta", "ulbcode": "802164", "wardname": "", "wardcode": "11", "id": null, "status": "APPROVED", "misglobalid": null, "approved_by": null, "createdate": 1636712297000, "updateddate": 1642856138000, "globalid": null, "gisglobalid": "21a807c7-e1e6-44c8-bd38-8fb1a831a8be", "remark": "", "st_area(shape)": 4.342846972840132e-06, "st_perimeter(shape)": 0.011493167259828182}}, {"type": "Feature", "geometry": {"type": "Polygon", "coordinates": [[[79.5962, 24.129], [79.5962, 24.1294], [79.5962, 24.1298], [79.5963, 24.13], [79.5963, 24.1301], [79.5965, 24.1303], [79.5967, 24.1305], [79.5968, 24.1306], [79.5969, 24.1307], [79.5969, 24.1308], [79.5967, 24.1309], [79.5966, 24.131], [79.5965, 24.1311], [79.5965, 24.1312], [79.5965, 24.1313], [79.5965, 24.1314], [79.5966, 24.1315], [79.5967, 24.1316], [79.5968, 24.1317], [79.5969, 24.1318], [79.597, 24.1319], [79.5972, 24.1317], [79.5973, 24.1318], [79.5975, 24.1318], [79.5976, 24.1318], [79.5976, 24.1317], [79.5977, 24.1316], [79.5978, 24.1316], [79.5977, 24.1316], [79.5977, 24.1315], [79.5978, 24.1314], [79.5979, 24.1315], [79.598, 24.1315], [79.598, 24.1316], [79.5981, 24.1316], [79.5982, 24.1316], [79.5984, 24.1316], [79.5984, 24.1315], [79.5985, 24.1316], [79.5986, 24.1317], [79.5987, 24.1317], [79.5988, 24.1317], [79.5989, 24.1318], [79.5989, 24.1319], [79.599, 24.1319], [79.599, 24.1318], [79.599, 24.1317], [79.5988, 24.1316], [79.5987, 24.1315], [79.5986, 24.1315], [79.5986, 24.1314], [79.5984, 24.1311], [79.5982, 24.1308], [79.5981, 24.1307], [79.598, 24.1304], [79.598, 24.1303], [79.5979, 24.1302], [79.5981, 24.13], [79.5983, 24.1299], [79.5985, 24.1297], [79.5986, 24.1296], [79.5988, 24.1295], [79.5988, 24.1294], [79.599, 24.1293], [79.5992, 24.1291], [79.5993, 24.129], [79.5993, 24.1289], [79.5994, 24.1288], [79.5994, 24.1287], [79.5994, 24.1286], [79.5994, 24.1285], [79.5996, 24.1284], [79.5995, 24.1283], [79.5994, 24.1282], [79.5993, 24.1282], [79.5992, 24.1282], [79.5992, 24.1281], [79.5991, 24.1281], [79.5991, 24.128], [79.5989, 24.1278], [79.5988, 24.1278], [79.5987, 24.1278], [79.5986, 24.1278], [79.5985, 24.1277], [79.5984, 24.1277], [79.5983, 24.1277], [79.5982, 24.1276], [79.5981, 24.1275], [79.598, 24.1275], [79.5979, 24.1275], [79.5978, 24.1276], [79.5977, 24.1276], [79.5976, 24.1276], [79.5976, 24.1277], [79.5975, 24.1277], [79.5975, 24.1278], [79.5974, 24.1278], [79.5974, 24.1279], [79.5973, 24.1279], [79.5972, 24.1279], [79.5972, 24.128], [79.5971, 24.128], [79.5971, 24.1281], [79.597, 24.1281], [79.5969, 24.1282], [79.5969, 24.1283], [79.5968, 24.1283], [79.5968, 24.1284], [79.5967, 24.1285], [79.5967, 24.1286], [79.5966, 24.1286], [79.5965, 24.1287], [79.5965, 24.1288], [79.5964, 24.1288], [79.5963, 24.1288], [79.5963, 24.1289], [79.5962, 24.1289], [79.5961, 24.1289], [79.596, 24.1289], [79.596, 24.1288], [79.596, 24.1289], [79.596, 24.129], [79.5961, 24.129], [79.5962, 24.129]]]}, "properties": {"objectid": 34754, "statename": "Madhya Pradesh", "statecode": "23", "districtname": null, "districtcode": "428", "ulbname": "Hatta", "ulbcode": "802164", "wardname": "", "wardcode": "12", "id": null, "status": "APPROVED", "misglobalid": null, "approved_by": null, "createdate": 1636712313000, "updateddate": 1642856154000, "globalid": null, "gisglobalid": "024e18d2-fa76-40a2-b6f2-c2f4d3519433", "remark": "", "st_area(shape)": 8.638025848107806e-06, "st_perimeter(shape)": 0.015549418101207984}}, {"type": "Feature", "geometry": {"type": "Polygon", "coordinates": [[[79.596, 24.1288], [79.5959, 24.1289], [79.5958, 24.1289], [79.5958, 24.1288], [79.5957, 24.1288], [79.5956, 24.1288], [79.5956, 24.1287], [79.5955, 24.1287], [79.5954, 24.1287], [79.5954, 24.1286], [79.5953, 24.1286], [79.5953, 24.1285], [79.5952, 24.1285], [79.5951, 24.1284], [79.5952, 24.1283], [79.5952, 24.1282], [79.5952, 24.1281], [79.5951, 24.1281], [79.5951, 24.128], [79.5951, 24.1279], [79.5952, 24.1279], [79.5952, 24.1278], [79.5952, 24.1277], [79.5951, 24.1277], [79.5951, 24.1276], [79.595, 24.1276], [79.5949, 24.1276], [79.5949, 24.1275], [79.5948, 24.1275], [79.5947, 24.1274], [79.5946, 24.1274], [79.5945, 24.1273], [79.5944, 24.1273], [79.5944, 24.1272], [79.5943, 24.1272], [79.5942, 24.1272], [79.5941, 24.1271], [79.594, 24.1271], [79.5939, 24.1271], [79.5939, 24.127], [79.5938, 24.127], [79.5937, 24.1269], [79.5937, 24.1268], [79.5937, 24.1267], [79.5937, 24.1266], [79.5936, 24.1266], [79.5936, 24.1265], [79.5935, 24.1266], [79.5934, 24.1265], [79.5935, 24.1264], [79.5935, 24.1263], [79.5934, 24.1262], [79.5934, 24.1261], [79.5934, 24.126], [79.5934, 24.1259], [79.5934, 24.1258], [79.5933, 24.1257], [79.5933, 24.1256], [79.5933, 24.1255], [79.5933, 24.1254], [79.5933, 24.1253], [79.5932, 24.1253], [79.5932, 24.1252], [79.5932, 24.1251], [79.5932, 24.125], [79.5931, 24.125], [79.5931, 24.1249], [79.593, 24.1249], [79.593, 24.1248], [79.5929, 24.1248], [79.5929, 24.1247], [79.5928, 24.1247], [79.5927, 24.1247], [79.5926, 24.1246], [79.5925, 24.1246], [79.5925, 24.1247], [79.5924, 24.1247], [79.5923, 24.1247], [79.5923, 24.1246], [79.5922, 24.1246], [79.5922, 24.1245], [79.5921, 24.1244], [79.5921, 24.1243], [79.5921, 24.1242], [79.592, 24.1241], [79.592, 24.124], [79.592, 24.1239], [79.5919, 24.1239], [79.5919, 24.1238], [79.5919, 24.1237], [79.5918, 24.1237], [79.5918, 24.1236], [79.5917, 24.1236], [79.5916, 24.1235], [79.5915, 24.1235], [79.5914, 24.1235], [79.5913, 24.1235], [79.5912, 24.1234], [79.5912, 24.1233], [79.5911, 24.1233], [79.5911, 24.1232], [79.591, 24.1232], [79.591, 24.1231], [79.5909, 24.1231], [79.5909, 24.123], [79.5908, 24.123], [79.5908, 24.1229], [79.5907, 24.1228], [79.5907, 24.1227], [79.5906, 24.1227], [79.5905, 24.1226], [79.5905, 24.1225], [79.5904, 24.1225], [79.5904, 24.1224], [79.5903, 24.1224], [79.5903, 24.1223], [79.5902, 24.1223], [79.5902, 24.1222], [79.5901, 24.1221], [79.59, 24.122], [79.5899, 24.122], [79.5899, 24.1219], [79.5899, 24.1218], [79.5898, 24.1217], [79.5898, 24.1216], [79.5898, 24.1215], [79.5897, 24.1214], [79.5897, 24.1213], [79.5896, 24.1213], [79.5896, 24.1212], [79.5895, 24.1212], [79.5894, 24.1212], [79.5893, 24.1212], [79.5892, 24.1212], [79.5891, 24.1212], [79.5891, 24.1213], [79.589, 24.1213], [79.5889, 24.1213], [79.5888, 24.1213], [79.5888, 24.1212], [79.5887, 24.1212], [79.5887, 24.1211], [79.5886, 24.1211], [79.5885, 24.1211], [79.5884, 24.1211], [79.5883, 24.1211], [79.5883, 24.121], [79.5882, 24.121], [79.5881, 24.121], [79.5881, 24.1211], [79.588, 24.1211], [79.5879, 24.1211], [79.5878, 24.1211], [79.5878, 24.121], [79.5877, 24.121], [79.5877, 24.1209], [79.5876, 24.1209], [79.5876, 24.1208], [79.5875, 24.1207], [79.5874, 24.1207], [79.5873, 24.1207], [79.5872, 24.1207], [79.5872, 24.1206], [79.5871, 24.1206], [79.5871, 24.1205], [79.587, 24.1204], [79.587, 24.1203], [79.5869, 24.1203], [79.5868, 24.1202], [79.5867, 24.1202], [79.5866, 24.1202], [79.5865, 24.1202], [79.5864, 24.1202], [79.5863, 24.1202], [79.5863, 24.1203], [79.5862, 24.1203], [79.5862, 24.1202], [79.5861, 24.1202], [79.586, 24.1201], [79.5859, 24.12], [79.5858, 24.12], [79.5858, 24.1199], [79.5857, 24.12], [79.5856, 24.12], [79.5855, 24.12], [79.5854, 24.12], [79.5853, 24.12], [79.5852, 24.12], [79.5851, 24.12], [79.585, 24.12], [79.5849, 24.12], [79.5849, 24.1199], [79.5848, 24.1199], [79.5847, 24.1199], [79.5846, 24.1199], [79.5846, 24.1198], [79.5845, 24.1198], [79.5845, 24.1197], [79.5844, 24.1197], [79.5844, 24.1196], [79.5843, 24.1196], [79.5842, 24.1196], [79.5841, 24.1196], [79.5841, 24.1197], [79.584, 24.1197], [79.5839, 24.1197], [79.5838, 24.1197], [79.5837, 24.1197], [79.5836, 24.1196], [79.5835, 24.1196], [79.5834, 24.1196], [79.5833, 24.1196], [79.5832, 24.1196], [79.5831, 24.1196], [79.583, 24.1196], [79.5829, 24.1196], [79.5828, 24.1196], [79.5828, 24.1197], [79.5827, 24.1198], [79.5826, 24.1198], [79.5825, 24.1198], [79.5824, 24.1198], [79.5823, 24.1198], [79.5822, 24.1198], [79.5821, 24.1198], [79.582, 24.1198], [79.5819, 24.1198], [79.5818, 24.1197], [79.5817, 24.1197], [79.5816, 24.1197], [79.5815, 24.1197], [79.5814, 24.1197], [79.5814, 24.1198], [79.5815, 24.12], [79.5815, 24.1201], [79.5815, 24.1202], [79.5815, 24.1205], [79.5816, 24.1206], [79.5815, 24.1206], [79.5813, 24.1205], [79.5812, 24.1205], [79.5811, 24.1205], [79.581, 24.1205], [79.5809, 24.1204], [79.5808, 24.1204], [79.5807, 24.1203], [79.5806, 24.1203], [79.5804, 24.1203], [79.5804, 24.1202], [79.5803, 24.1202], [79.5802, 24.1202], [79.5801, 24.1201], [79.58, 24.12], [79.5799, 24.12], [79.5798, 24.1199], [79.5797, 24.1199], [79.5797, 24.1198], [79.5796, 24.1198], [79.5797, 24.1197], [79.5797, 24.1195], [79.5797, 24.1193], [79.5796, 24.1192], [79.5792, 24.1191], [79.5789, 24.119], [79.5785, 24.1189], [79.5781, 24.1187], [79.578, 24.1187], [79.5779, 24.1186], [79.5778, 24.1186], [79.5778, 24.1184], [79.5778, 24.1182], [79.5778, 24.118], [79.5778, 24.1179], [79.5777, 24.1179], [79.5773, 24.1178], [79.5772, 24.1178], [79.5771, 24.1178], [79.5769, 24.1178], [79.5768, 24.1178], [79.5767, 24.1179], [79.5767, 24.118], [79.5768, 24.1182], [79.5769, 24.1184], [79.5769, 24.1188], [79.5769, 24.1189], [79.5769, 24.119], [79.5768, 24.119], [79.5767, 24.119], [79.5766, 24.1191], [79.5763, 24.1192], [79.5759, 24.1194], [79.5755, 24.1194], [79.5749, 24.1195], [79.5748, 24.1195], [79.5746, 24.1196], [79.5743, 24.1197], [79.5741, 24.1198], [79.574, 24.1198], [79.574, 24.1197], [79.5739, 24.1197], [79.5738, 24.1196], [79.5737, 24.1196], [79.5736, 24.1196], [79.5735, 24.1195], [79.5732, 24.1195], [79.5731, 24.1194], [79.573, 24.1193], [79.5727, 24.119], [79.5727, 24.1189], [79.5726, 24.1189], [79.5724, 24.1189], [79.5722, 24.119], [79.5722, 24.1189], [79.5722, 24.1188], [79.5721, 24.1187], [79.5721, 24.1186], [79.5721, 24.1184], [79.572, 24.1182], [79.5719, 24.1179], [79.5719, 24.1178], [79.572, 24.1176], [79.572, 24.1175], [79.5718, 24.1174], [79.5715, 24.1172], [79.5713, 24.117], [79.5711, 24.1167], [79.571, 24.1163], [79.5706, 24.1157], [79.5703, 24.1152], [79.5702, 24.1151], [79.5701, 24.1149], [79.57, 24.1149], [79.5699, 24.1149], [79.5698, 24.1151], [79.5696, 24.1152], [79.5695, 24.1154], [79.5694, 24.1154], [79.5693, 24.1154], [79.5692, 24.1155], [79.5691, 24.1155], [79.569, 24.1155], [79.5689, 24.1157], [79.5688, 24.1158], [79.5687, 24.1158], [79.5686, 24.1159], [79.5684, 24.1159], [79.5683, 24.1159], [79.5682, 24.116], [79.5682, 24.1161], [79.5682, 24.1164], [79.5683, 24.1165], [79.5686, 24.1169], [79.5687, 24.117], [79.5687, 24.1171], [79.5686, 24.1173], [79.5685, 24.1174], [79.5682, 24.1177], [79.5681, 24.1177], [79.568, 24.1177], [79.5674, 24.1173], [79.5663, 24.1168], [79.5661, 24.1167], [79.566, 24.1166], [79.566, 24.1167], [79.5658, 24.1168], [79.5657, 24.1169], [79.5657, 24.117], [79.5657, 24.1171], [79.5656, 24.1171], [79.5656, 24.1172], [79.5655, 24.1173], [79.5653, 24.1173], [79.5652, 24.1174], [79.5651, 24.1175], [79.565, 24.1176], [79.565, 24.1178], [79.5649, 24.1179], [79.5649, 24.118], [79.5649, 24.1181], [79.5649, 24.1182], [79.5648, 24.1183], [79.5647, 24.1184], [79.5646, 24.1184], [79.5645, 24.1184], [79.5644, 24.1184], [79.5643, 24.1184], [79.5642, 24.1185], [79.5642, 24.1186], [79.5642, 24.1187], [79.5642, 24.1188], [79.5643, 24.1188], [79.5643, 24.1189], [79.5643, 24.119], [79.5642, 24.119], [79.5641, 24.119], [79.564, 24.119], [79.564, 24.1189], [79.5639, 24.1189], [79.5638, 24.1189], [79.5637, 24.1189], [79.5636, 24.119], [79.5636, 24.1191], [79.5636, 24.1192], [79.5636, 24.1193], [79.5637, 24.1193], [79.5638, 24.1193], [79.5639, 24.1193], [79.564, 24.1193], [79.5641, 24.1193], [79.5641, 24.1194], [79.5641, 24.1195], [79.564, 24.1196], [79.564, 24.1197], [79.564, 24.1198], [79.564, 24.1199], [79.5639, 24.1199], [79.5639, 24.12], [79.5638, 24.1201], [79.5638, 24.1202], [79.5638, 24.1203], [79.5639, 24.1204], [79.564, 24.1205], [79.5641, 24.1205], [79.5642, 24.1206], [79.5642, 24.1208], [79.5643, 24.121], [79.5643, 24.1211], [79.5643, 24.1212], [79.5642, 24.1213], [79.5641, 24.1214], [79.564, 24.1213], [79.5639, 24.1213], [79.5639, 24.1214], [79.5639, 24.1215], [79.5639, 24.1216], [79.5639, 24.1219], [79.5639, 24.1221], [79.5638, 24.1222], [79.5636, 24.1223], [79.5633, 24.1224], [79.5632, 24.1224], [79.563, 24.1224], [79.5629, 24.1224], [79.5629, 24.1225], [79.5629, 24.1227], [79.563, 24.1232], [79.5631, 24.1238], [79.5633, 24.1243], [79.5633, 24.1244], [79.5632, 24.1244], [79.5632, 24.1245], [79.5633, 24.1246], [79.5634, 24.1246], [79.5634, 24.1247], [79.5635, 24.1253], [79.5636, 24.1255], [79.5637, 24.1256], [79.5638, 24.1258], [79.5639, 24.126], [79.564, 24.1263], [79.5641, 24.1264], [79.5643, 24.1267], [79.5643, 24.1268], [79.5644, 24.1269], [79.5644, 24.127], [79.5645, 24.1273], [79.5647, 24.1276], [79.565, 24.1282], [79.5653, 24.1285], [79.5655, 24.1287], [79.5658, 24.1289], [79.5663, 24.1292], [79.5665, 24.1293], [79.5668, 24.1294], [79.5674, 24.1295], [79.5675, 24.1295], [79.5676, 24.1295], [79.5677, 24.1295], [79.5679, 24.1295], [79.5682, 24.1294], [79.5692, 24.1293], [79.5694, 24.1293], [79.5695, 24.1293], [79.5696, 24.1293], [79.5697, 24.1293], [79.5697, 24.1292], [79.5698, 24.1291], [79.5699, 24.1291], [79.5701, 24.1292], [79.5702, 24.1292], [79.5703, 24.1292], [79.5713, 24.1289], [79.5718, 24.1288], [79.5723, 24.1286], [79.5725, 24.1286], [79.5729, 24.1286], [79.5739, 24.1286], [79.5753, 24.1284], [79.5762, 24.1282], [79.5771, 24.1281], [79.5782, 24.1278], [79.5783, 24.1278], [79.5784, 24.1278], [79.5785, 24.1278], [79.5786, 24.1277], [79.5787, 24.1277], [79.5789, 24.1276], [79.5789, 24.1275], [79.579, 24.1275], [79.5795, 24.1274], [79.5799, 24.1274], [79.5801, 24.1274], [79.5803, 24.1274], [79.5806, 24.1275], [79.5807, 24.1275], [79.5809, 24.1276], [79.5812, 24.1276], [79.5814, 24.1277], [79.5816, 24.1277], [79.5818, 24.1277], [79.5819, 24.1278], [79.582, 24.1278], [79.5822, 24.1278], [79.5828, 24.128], [79.583, 24.128], [79.5832, 24.1281], [79.5834, 24.1282], [79.5837, 24.1283], [79.5839, 24.1284], [79.5844, 24.1285], [79.5847, 24.1287], [79.5849, 24.1287], [79.5854, 24.1288], [79.5855, 24.1289], [79.5857, 24.129], [79.5858, 24.1291], [79.5861, 24.1292], [79.5863, 24.1292], [79.5863, 24.1293], [79.5864, 24.1293], [79.5868, 24.1294], [79.5869, 24.1294], [79.5869, 24.1295], [79.587, 24.1295], [79.5871, 24.1295], [79.5871, 24.1296], [79.5872, 24.1296], [79.5873, 24.1297], [79.5874, 24.1297], [79.5875, 24.1298], [79.5876, 24.1298], [79.5877, 24.1299], [79.5878, 24.1299], [79.5879, 24.13], [79.588, 24.1301], [79.5881, 24.1301], [79.5882, 24.1302], [79.5883, 24.1302], [79.5883, 24.1303], [79.5884, 24.1303], [79.5885, 24.1303], [79.5886, 24.1304], [79.5887, 24.1305], [79.5888, 24.1305], [79.5889, 24.1306], [79.589, 24.1306], [79.5891, 24.1306], [79.5892, 24.1306], [79.5893, 24.1306], [79.5894, 24.1307], [79.5895, 24.1307], [79.5896, 24.1307], [79.5897, 24.1307], [79.5897, 24.1308], [79.5898, 24.1308], [79.5899, 24.1309], [79.59, 24.1309], [79.5901, 24.1309], [79.5901, 24.131], [79.5902, 24.131], [79.5903, 24.131], [79.5904, 24.1311], [79.5905, 24.1311], [79.5906, 24.1311], [79.5907, 24.1312], [79.5908, 24.1312], [79.5909, 24.1313], [79.591, 24.1313], [79.5911, 24.1313], [79.5912, 24.1313], [79.5912, 24.1314], [79.5913, 24.1314], [79.5914, 24.1314], [79.5915, 24.1315], [79.5916, 24.1316], [79.5917, 24.1316], [79.5918, 24.1317], [79.5919, 24.1317], [79.592, 24.1318], [79.5921, 24.1318], [79.5922, 24.1318], [79.5923, 24.1318], [79.5923, 24.1319], [79.5924, 24.1319], [79.5925, 24.1319], [79.5926, 24.132], [79.5927, 24.132], [79.5927, 24.1321], [79.5928, 24.1321], [79.5929, 24.1322], [79.593, 24.1322], [79.593, 24.1323], [79.5931, 24.1323], [79.5932, 24.1323], [79.5933, 24.1324], [79.5934, 24.1324], [79.5935, 24.1325], [79.5936, 24.1325], [79.5937, 24.1325], [79.5937, 24.1326], [79.5938, 24.1326], [79.5938, 24.1327], [79.5939, 24.1327], [79.5939, 24.1328], [79.594, 24.1328], [79.5941, 24.1328], [79.5942, 24.1328], [79.5943, 24.1329], [79.5944, 24.1329], [79.5945, 24.1329], [79.5945, 24.133], [79.5946, 24.133], [79.5947, 24.1331], [79.5948, 24.1331], [79.5949, 24.1331], [79.595, 24.1332], [79.5951, 24.1332], [79.5951, 24.1333], [79.5952, 24.1333], [79.5953, 24.1334], [79.5954, 24.1334], [79.5955, 24.1333], [79.5955, 24.1332], [79.5955, 24.1331], [79.5955, 24.133], [79.5955, 24.1329], [79.5958, 24.133], [79.5958, 24.1329], [79.5959, 24.1328], [79.5959, 24.1327], [79.596, 24.1327], [79.5961, 24.1326], [79.596, 24.1324], [79.5959, 24.1322], [79.5959, 24.1321], [79.5959, 24.132], [79.596, 24.1319], [79.5961, 24.1319], [79.5961, 24.1318], [79.5962, 24.1318], [79.5964, 24.1316], [79.5966, 24.1315], [79.5965, 24.1314], [79.5965, 24.1313], [79.5965, 24.1312], [79.5965, 24.1311], [79.5966, 24.131], [79.5967, 24.1309], [79.5969, 24.1308], [79.5969, 24.1307], [79.5968, 24.1306], [79.5967, 24.1305], [79.5965, 24.1303], [79.5963, 24.1301], [79.5963, 24.13], [79.5962, 24.1298], [79.5962, 24.1294], [79.5962, 24.129], [79.5961, 24.129], [79.596, 24.129], [79.596, 24.1289], [79.596, 24.1288]]]}, "properties": {"objectid": 35129, "statename": "Madhya Pradesh", "statecode": "23", "districtname": null, "districtcode": "428", "ulbname": "Hatta", "ulbcode": "802164", "wardname": "", "wardcode": "13", "id": null, "status": "APPROVED", "misglobalid": null, "approved_by": null, "createdate": 1636712320000, "updateddate": 1642856167000, "globalid": null, "gisglobalid": "3e8c0014-8acd-4cf7-90c9-ec3ab902e4e0", "remark": "", "st_area(shape)": 0.0002997190644349645, "st_perimeter(shape)": 0.10019693679233063}}, {"type": "Feature", "geometry": {"type": "Polygon", "coordinates": [[[79.5934, 24.1265], [79.5935, 24.1266], [79.5936, 24.1265], [79.5936, 24.1266], [79.5937, 24.1266], [79.5937, 24.1267], [79.5937, 24.1268], [79.5937, 24.1269], [79.5938, 24.127], [79.5939, 24.127], [79.5939, 24.1271], [79.594, 24.1271], [79.5941, 24.1271], [79.5942, 24.1272], [79.5943, 24.1272], [79.5944, 24.1272], [79.5944, 24.1273], [79.5945, 24.1273], [79.5946, 24.1274], [79.5947, 24.1274], [79.5948, 24.1275], [79.5949, 24.1275], [79.5949, 24.1276], [79.595, 24.1276], [79.5951, 24.1276], [79.5951, 24.1277], [79.5952, 24.1277], [79.5952, 24.1278], [79.5952, 24.1279], [79.5951, 24.1279], [79.5951, 24.128], [79.5951, 24.1281], [79.5952, 24.1281], [79.5952, 24.1282], [79.5952, 24.1283], [79.5951, 24.1284], [79.5952, 24.1285], [79.5953, 24.1285], [79.5953, 24.1286], [79.5954, 24.1286], [79.5954, 24.1287], [79.5955, 24.1287], [79.5956, 24.1287], [79.5956, 24.1288], [79.5957, 24.1288], [79.5958, 24.1288], [79.5958, 24.1289], [79.5959, 24.1289], [79.596, 24.1288], [79.596, 24.1289], [79.5961, 24.1289], [79.5962, 24.1289], [79.5963, 24.1289], [79.5963, 24.1288], [79.5964, 24.1288], [79.5965, 24.1288], [79.5965, 24.1287], [79.5966, 24.1286], [79.5967, 24.1286], [79.5967, 24.1285], [79.5968, 24.1284], [79.5968, 24.1283], [79.5969, 24.1283], [79.5969, 24.1282], [79.597, 24.1281], [79.5971, 24.1281], [79.5971, 24.128], [79.5972, 24.128], [79.5972, 24.1279], [79.5973, 24.1279], [79.5974, 24.1279], [79.5974, 24.1278], [79.5975, 24.1278], [79.5975, 24.1277], [79.5976, 24.1277], [79.5976, 24.1276], [79.5977, 24.1276], [79.5978, 24.1276], [79.5979, 24.1275], [79.598, 24.1275], [79.5981, 24.1275], [79.5982, 24.1276], [79.5983, 24.1277], [79.5984, 24.1277], [79.5985, 24.1277], [79.5986, 24.1278], [79.5987, 24.1278], [79.5988, 24.1278], [79.5989, 24.1278], [79.599, 24.1278], [79.5991, 24.1277], [79.5991, 24.1276], [79.5992, 24.1276], [79.5993, 24.1275], [79.5995, 24.1274], [79.5996, 24.1274], [79.5997, 24.1274], [79.5998, 24.1274], [79.6, 24.1275], [79.6001, 24.1275], [79.6003, 24.1275], [79.6005, 24.1275], [79.6007, 24.1274], [79.6007, 24.1273], [79.6008, 24.1273], [79.6009, 24.1272], [79.601, 24.1271], [79.6012, 24.127], [79.6015, 24.1269], [79.6016, 24.1268], [79.6017, 24.1268], [79.6017, 24.1267], [79.6017, 24.1266], [79.6018, 24.1266], [79.6018, 24.1264], [79.6019, 24.1263], [79.6019, 24.1262], [79.6019, 24.1261], [79.6019, 24.126], [79.6019, 24.1259], [79.6019, 24.1258], [79.6017, 24.1256], [79.6017, 24.1255], [79.6015, 24.1252], [79.6013, 24.125], [79.6013, 24.1249], [79.6012, 24.1249], [79.6011, 24.1248], [79.601, 24.1247], [79.6009, 24.1246], [79.6007, 24.1245], [79.6005, 24.1243], [79.6, 24.1239], [79.5998, 24.1238], [79.5995, 24.1235], [79.5993, 24.1235], [79.5993, 24.1234], [79.5992, 24.1234], [79.599, 24.1233], [79.5989, 24.1233], [79.5987, 24.1232], [79.5983, 24.1231], [79.5978, 24.123], [79.5974, 24.123], [79.5971, 24.1229], [79.597, 24.1229], [79.5969, 24.1228], [79.5968, 24.1228], [79.5966, 24.1227], [79.5965, 24.1227], [79.5964, 24.1226], [79.5962, 24.1223], [79.5961, 24.1222], [79.5958, 24.1219], [79.5957, 24.1218], [79.5957, 24.1217], [79.5956, 24.1216], [79.5956, 24.1215], [79.5955, 24.1211], [79.5952, 24.1203], [79.5951, 24.12], [79.595, 24.1197], [79.5949, 24.1194], [79.5948, 24.1192], [79.5948, 24.1191], [79.5944, 24.1178], [79.5942, 24.1173], [79.5941, 24.1172], [79.594, 24.117], [79.5939, 24.117], [79.5937, 24.1168], [79.5932, 24.1162], [79.5929, 24.1158], [79.5922, 24.115], [79.5918, 24.1146], [79.5917, 24.1146], [79.5916, 24.1148], [79.5909, 24.1149], [79.5908, 24.1149], [79.5907, 24.115], [79.5906, 24.115], [79.5904, 24.1151], [79.5903, 24.1151], [79.5901, 24.1151], [79.5898, 24.1151], [79.5894, 24.115], [79.5893, 24.1151], [79.5892, 24.1151], [79.5889, 24.1152], [79.5889, 24.1153], [79.5889, 24.1154], [79.5888, 24.1154], [79.5888, 24.1155], [79.5887, 24.1155], [79.5886, 24.1156], [79.5885, 24.1157], [79.5885, 24.1158], [79.5884, 24.1158], [79.5884, 24.1159], [79.5884, 24.116], [79.5883, 24.1161], [79.5883, 24.1162], [79.5882, 24.1163], [79.5881, 24.1164], [79.588, 24.1164], [79.5879, 24.1165], [79.5879, 24.1166], [79.5879, 24.1167], [79.5879, 24.1168], [79.5879, 24.1169], [79.588, 24.1169], [79.5881, 24.1169], [79.5882, 24.1169], [79.5883, 24.1169], [79.5884, 24.117], [79.5884, 24.1171], [79.5884, 24.1172], [79.5883, 24.1172], [79.5883, 24.1173], [79.5882, 24.1173], [79.5881, 24.1173], [79.5881, 24.1174], [79.588, 24.1174], [79.588, 24.1175], [79.588, 24.1176], [79.588, 24.1177], [79.5881, 24.1178], [79.5882, 24.1178], [79.5883, 24.1179], [79.5884, 24.1179], [79.5884, 24.118], [79.5885, 24.118], [79.5886, 24.118], [79.5887, 24.118], [79.5888, 24.118], [79.5888, 24.1179], [79.5889, 24.1179], [79.5889, 24.1178], [79.589, 24.1178], [79.5891, 24.1178], [79.5892, 24.1178], [79.5893, 24.1178], [79.5893, 24.1179], [79.5894, 24.118], [79.5894, 24.1181], [79.5894, 24.1182], [79.5894, 24.1183], [79.5894, 24.1184], [79.5893, 24.1184], [79.5893, 24.1185], [79.5893, 24.1186], [79.5892, 24.1186], [79.5892, 24.1187], [79.5891, 24.1187], [79.5891, 24.1188], [79.5891, 24.1189], [79.5889, 24.1189], [79.5888, 24.119], [79.5884, 24.119], [79.5883, 24.1191], [79.5882, 24.1192], [79.5881, 24.1193], [79.5881, 24.1194], [79.5879, 24.1198], [79.5879, 24.1199], [79.5877, 24.12], [79.5875, 24.12], [79.5874, 24.12], [79.5873, 24.12], [79.5873, 24.1201], [79.5872, 24.1202], [79.5871, 24.1202], [79.587, 24.1203], [79.587, 24.1204], [79.5871, 24.1205], [79.5871, 24.1206], [79.5872, 24.1206], [79.5872, 24.1207], [79.5873, 24.1207], [79.5874, 24.1207], [79.5875, 24.1207], [79.5876, 24.1208], [79.5876, 24.1209], [79.5877, 24.1209], [79.5877, 24.121], [79.5878, 24.121], [79.5878, 24.1211], [79.5879, 24.1211], [79.588, 24.1211], [79.5881, 24.1211], [79.5881, 24.121], [79.5882, 24.121], [79.5883, 24.121], [79.5883, 24.1211], [79.5884, 24.1211], [79.5885, 24.1211], [79.5886, 24.1211], [79.5887, 24.1211], [79.5887, 24.1212], [79.5888, 24.1212], [79.5888, 24.1213], [79.5889, 24.1213], [79.589, 24.1213], [79.5891, 24.1213], [79.5891, 24.1212], [79.5892, 24.1212], [79.5893, 24.1212], [79.5894, 24.1212], [79.5895, 24.1212], [79.5896, 24.1212], [79.5896, 24.1213], [79.5897, 24.1213], [79.5897, 24.1214], [79.5898, 24.1215], [79.5898, 24.1216], [79.5898, 24.1217], [79.5899, 24.1218], [79.5899, 24.1219], [79.5899, 24.122], [79.59, 24.122], [79.5901, 24.1221], [79.5902, 24.1222], [79.5902, 24.1223], [79.5903, 24.1223], [79.5903, 24.1224], [79.5904, 24.1224], [79.5904, 24.1225], [79.5905, 24.1225], [79.5905, 24.1226], [79.5906, 24.1227], [79.5907, 24.1227], [79.5907, 24.1228], [79.5908, 24.1229], [79.5908, 24.123], [79.5909, 24.123], [79.5909, 24.1231], [79.591, 24.1231], [79.591, 24.1232], [79.5911, 24.1232], [79.5911, 24.1233], [79.5912, 24.1233], [79.5912, 24.1234], [79.5913, 24.1235], [79.5914, 24.1235], [79.5915, 24.1235], [79.5916, 24.1235], [79.5917, 24.1236], [79.5918, 24.1236], [79.5918, 24.1237], [79.5919, 24.1237], [79.5919, 24.1238], [79.5919, 24.1239], [79.592, 24.1239], [79.592, 24.124], [79.592, 24.1241], [79.5921, 24.1242], [79.5921, 24.1243], [79.5921, 24.1244], [79.5922, 24.1245], [79.5922, 24.1246], [79.5923, 24.1246], [79.5923, 24.1247], [79.5924, 24.1247], [79.5925, 24.1247], [79.5925, 24.1246], [79.5926, 24.1246], [79.5927, 24.1247], [79.5928, 24.1247], [79.5929, 24.1247], [79.5929, 24.1248], [79.593, 24.1248], [79.593, 24.1249], [79.5931, 24.1249], [79.5931, 24.125], [79.5932, 24.125], [79.5932, 24.1251], [79.5932, 24.1252], [79.5932, 24.1253], [79.5933, 24.1253], [79.5933, 24.1254], [79.5933, 24.1255], [79.5933, 24.1256], [79.5933, 24.1257], [79.5934, 24.1258], [79.5934, 24.1259], [79.5934, 24.126], [79.5934, 24.1261], [79.5934, 24.1262], [79.5935, 24.1263], [79.5935, 24.1264], [79.5934, 24.1265]]]}, "properties": {"objectid": 34755, "statename": "Madhya Pradesh", "statecode": "23", "districtname": null, "districtcode": "428", "ulbname": "Hatta", "ulbcode": "802164", "wardname": "", "wardcode": "14", "id": null, "status": "APPROVED", "misglobalid": null, "approved_by": null, "createdate": 1636712337000, "updateddate": 1642856179000, "globalid": null, "gisglobalid": "61b11326-7ef6-4280-b81d-e176869740f0", "remark": "", "st_area(shape)": 8.64173571210807e-05, "st_perimeter(shape)": 0.04986538595681691}}, {"type": "Feature", "geometry": {"type": "Polygon", "coordinates": [[[79.6005, 24.1283], [79.6005, 24.1284], [79.6005, 24.1285], [79.6005, 24.1286], [79.6005, 24.1287], [79.6005, 24.1288], [79.6005, 24.1289], [79.6006, 24.1289], [79.6006, 24.129], [79.6006, 24.1291], [79.6006, 24.1292], [79.6007, 24.1292], [79.6007, 24.1293], [79.6008, 24.1294], [79.6008, 24.1295], [79.6008, 24.1296], [79.6009, 24.1296], [79.6009, 24.1297], [79.601, 24.1299], [79.601, 24.13], [79.6011, 24.1302], [79.6011, 24.1303], [79.6011, 24.1304], [79.6012, 24.1305], [79.6012, 24.1306], [79.6013, 24.1307], [79.6014, 24.1308], [79.6015, 24.1309], [79.6016, 24.1309], [79.6016, 24.131], [79.6017, 24.131], [79.6017, 24.1311], [79.6017, 24.1312], [79.6017, 24.1313], [79.6018, 24.1316], [79.6019, 24.1316], [79.602, 24.1318], [79.602, 24.1319], [79.6021, 24.132], [79.6021, 24.1321], [79.6022, 24.1323], [79.6023, 24.1325], [79.6024, 24.1327], [79.6025, 24.1328], [79.6025, 24.1329], [79.6027, 24.1329], [79.6028, 24.1328], [79.6032, 24.1326], [79.6037, 24.1324], [79.6036, 24.1322], [79.6036, 24.1321], [79.6036, 24.132], [79.6034, 24.1315], [79.6033, 24.1312], [79.6033, 24.1309], [79.6032, 24.1307], [79.6032, 24.1305], [79.6031, 24.1302], [79.603, 24.13], [79.6031, 24.13], [79.6032, 24.13], [79.6033, 24.13], [79.6034, 24.1301], [79.6034, 24.13], [79.6034, 24.1299], [79.6035, 24.1299], [79.6035, 24.1298], [79.6036, 24.1298], [79.6036, 24.1297], [79.6037, 24.1297], [79.6037, 24.1296], [79.6038, 24.1296], [79.6039, 24.1295], [79.6039, 24.1296], [79.604, 24.1295], [79.6041, 24.1294], [79.6042, 24.1294], [79.6042, 24.1293], [79.6046, 24.129], [79.6047, 24.1291], [79.6047, 24.1292], [79.6047, 24.1291], [79.6048, 24.129], [79.6047, 24.129], [79.6048, 24.129], [79.6049, 24.1289], [79.605, 24.1288], [79.6051, 24.1288], [79.6053, 24.1287], [79.6054, 24.1287], [79.6055, 24.1286], [79.6056, 24.1286], [79.6057, 24.1285], [79.6059, 24.1285], [79.6063, 24.1284], [79.6064, 24.1284], [79.6067, 24.1284], [79.6069, 24.1284], [79.6069, 24.1285], [79.607, 24.1285], [79.6071, 24.1285], [79.6079, 24.1284], [79.6082, 24.1283], [79.6082, 24.1287], [79.6086, 24.1285], [79.6092, 24.1281], [79.6097, 24.128], [79.6097, 24.1277], [79.6097, 24.1276], [79.6097, 24.1275], [79.6098, 24.1274], [79.6097, 24.1274], [79.6097, 24.1273], [79.6097, 24.1272], [79.6097, 24.1271], [79.6096, 24.127], [79.6096, 24.1269], [79.6095, 24.1268], [79.6095, 24.1267], [79.6095, 24.1266], [79.6096, 24.1266], [79.6096, 24.1265], [79.6097, 24.1265], [79.6098, 24.1265], [79.61, 24.1265], [79.61, 24.1264], [79.61, 24.1263], [79.61, 24.1261], [79.6099, 24.1262], [79.6099, 24.126], [79.6099, 24.1259], [79.6099, 24.1258], [79.6099, 24.1257], [79.6098, 24.1256], [79.6096, 24.125], [79.6096, 24.1249], [79.6096, 24.1248], [79.6095, 24.1247], [79.6094, 24.1247], [79.6093, 24.1247], [79.6093, 24.1246], [79.6092, 24.1245], [79.6091, 24.1242], [79.6091, 24.124], [79.609, 24.1239], [79.6089, 24.1238], [79.6087, 24.1237], [79.6085, 24.1237], [79.6083, 24.1237], [79.6082, 24.1237], [79.6082, 24.1238], [79.6081, 24.1238], [79.608, 24.1239], [79.6079, 24.1239], [79.6078, 24.1239], [79.6077, 24.1239], [79.6076, 24.1239], [79.6075, 24.1239], [79.6074, 24.1238], [79.6073, 24.1238], [79.6073, 24.1237], [79.6072, 24.1237], [79.6071, 24.1236], [79.6071, 24.1235], [79.607, 24.1235], [79.607, 24.1234], [79.6069, 24.1234], [79.6068, 24.1234], [79.6067, 24.1234], [79.6066, 24.1233], [79.6066, 24.1232], [79.6065, 24.1232], [79.6064, 24.1232], [79.6063, 24.1232], [79.6062, 24.1232], [79.6062, 24.1233], [79.6061, 24.1233], [79.6061, 24.1232], [79.606, 24.1232], [79.606, 24.1231], [79.6059, 24.1231], [79.6058, 24.1231], [79.6058, 24.1232], [79.6057, 24.1233], [79.6057, 24.1234], [79.6057, 24.1235], [79.6056, 24.1235], [79.6056, 24.1236], [79.6055, 24.1236], [79.6054, 24.1236], [79.6053, 24.1236], [79.6053, 24.1235], [79.6053, 24.1234], [79.6054, 24.1234], [79.6054, 24.1233], [79.6054, 24.1232], [79.6055, 24.1232], [79.6055, 24.1231], [79.6055, 24.123], [79.6056, 24.123], [79.6056, 24.1229], [79.6056, 24.1228], [79.6056, 24.1227], [79.6055, 24.1227], [79.6054, 24.1227], [79.6053, 24.1226], [79.6053, 24.1225], [79.6053, 24.1224], [79.6054, 24.1223], [79.6054, 24.1222], [79.6054, 24.1221], [79.6053, 24.1221], [79.6053, 24.122], [79.6053, 24.1219], [79.6052, 24.1219], [79.6051, 24.1219], [79.605, 24.1219], [79.605, 24.1218], [79.6049, 24.1218], [79.6048, 24.1218], [79.6047, 24.1218], [79.6047, 24.1219], [79.6046, 24.1219], [79.6045, 24.1219], [79.6044, 24.1219], [79.6043, 24.1219], [79.6041, 24.1218], [79.604, 24.1218], [79.6039, 24.1219], [79.6038, 24.1219], [79.6037, 24.1219], [79.6035, 24.1219], [79.6034, 24.122], [79.6033, 24.1221], [79.6033, 24.1222], [79.6032, 24.1222], [79.6031, 24.1224], [79.603, 24.1225], [79.603, 24.1226], [79.6029, 24.1229], [79.6029, 24.123], [79.6029, 24.1231], [79.6028, 24.1231], [79.6027, 24.1232], [79.6027, 24.1233], [79.6026, 24.1234], [79.6025, 24.1233], [79.6024, 24.1233], [79.6022, 24.1232], [79.6019, 24.1231], [79.6017, 24.1231], [79.6015, 24.1231], [79.6014, 24.1231], [79.6012, 24.123], [79.6011, 24.1229], [79.6009, 24.1223], [79.6007, 24.1219], [79.6005, 24.1211], [79.6003, 24.1203], [79.6004, 24.1203], [79.6002, 24.1197], [79.6002, 24.1195], [79.6001, 24.1194], [79.6001, 24.1193], [79.6, 24.1193], [79.6, 24.1192], [79.6, 24.1191], [79.6, 24.119], [79.5999, 24.1189], [79.5999, 24.1188], [79.5999, 24.1187], [79.5999, 24.1186], [79.5998, 24.1185], [79.5998, 24.1184], [79.5998, 24.1183], [79.5998, 24.1182], [79.5998, 24.1181], [79.5998, 24.118], [79.5998, 24.1179], [79.5998, 24.1178], [79.5999, 24.1178], [79.5999, 24.1177], [79.5999, 24.1176], [79.6, 24.1176], [79.5999, 24.1175], [79.5998, 24.1173], [79.5996, 24.1172], [79.5993, 24.1171], [79.5994, 24.1162], [79.5984, 24.116], [79.5978, 24.1159], [79.5976, 24.1159], [79.5974, 24.1159], [79.5973, 24.116], [79.5971, 24.116], [79.5969, 24.1161], [79.5966, 24.1161], [79.5965, 24.1162], [79.5964, 24.1162], [79.5963, 24.1162], [79.5963, 24.1161], [79.5962, 24.1161], [79.5961, 24.1161], [79.5958, 24.1161], [79.5952, 24.1161], [79.5942, 24.1161], [79.5942, 24.1144], [79.5942, 24.1139], [79.5942, 24.1136], [79.5941, 24.1132], [79.594, 24.1131], [79.594, 24.113], [79.5939, 24.113], [79.5938, 24.1131], [79.5918, 24.1146], [79.5922, 24.115], [79.5929, 24.1158], [79.5932, 24.1162], [79.5937, 24.1168], [79.5939, 24.117], [79.594, 24.117], [79.5941, 24.1172], [79.5942, 24.1173], [79.5944, 24.1178], [79.5948, 24.1191], [79.5948, 24.1192], [79.5949, 24.1194], [79.595, 24.1197], [79.5951, 24.12], [79.5952, 24.1203], [79.5955, 24.1211], [79.5956, 24.1215], [79.5956, 24.1216], [79.5957, 24.1217], [79.5957, 24.1218], [79.5958, 24.1219], [79.5961, 24.1222], [79.5962, 24.1223], [79.5964, 24.1226], [79.5965, 24.1227], [79.5966, 24.1227], [79.5968, 24.1228], [79.5969, 24.1228], [79.597, 24.1229], [79.5971, 24.1229], [79.5974, 24.123], [79.5978, 24.123], [79.5983, 24.1231], [79.5987, 24.1232], [79.5989, 24.1233], [79.599, 24.1233], [79.5992, 24.1234], [79.5993, 24.1234], [79.5993, 24.1235], [79.5995, 24.1235], [79.5998, 24.1238], [79.6, 24.1239], [79.6005, 24.1243], [79.6007, 24.1245], [79.6009, 24.1246], [79.601, 24.1247], [79.6011, 24.1248], [79.6012, 24.1249], [79.6013, 24.1249], [79.6013, 24.125], [79.6015, 24.1252], [79.6017, 24.1255], [79.6017, 24.1256], [79.6019, 24.1258], [79.6019, 24.1259], [79.6019, 24.126], [79.6019, 24.1261], [79.6019, 24.1262], [79.6019, 24.1263], [79.6018, 24.1264], [79.6018, 24.1266], [79.6017, 24.1266], [79.6017, 24.1267], [79.6017, 24.1268], [79.6016, 24.1268], [79.6015, 24.1269], [79.6012, 24.127], [79.601, 24.1271], [79.6009, 24.1272], [79.6008, 24.1273], [79.6007, 24.1273], [79.6007, 24.1274], [79.6005, 24.1275], [79.6004, 24.1276], [79.6004, 24.1277], [79.6005, 24.1279], [79.6005, 24.128], [79.6005, 24.1281], [79.6005, 24.1282], [79.6005, 24.1283]]]}, "properties": {"objectid": 35790, "statename": "Madhya Pradesh", "statecode": "23", "districtname": null, "districtcode": "428", "ulbname": "Hatta", "ulbcode": "802164", "wardname": "", "wardcode": "15", "id": null, "status": "APPROVED", "misglobalid": null, "approved_by": null, "createdate": 1636712359000, "updateddate": 1642856191000, "globalid": null, "gisglobalid": "ca151f02-ce75-4aed-a957-5a2ffe427ecc", "remark": "", "st_area(shape)": 9.848427383667965e-05, "st_perimeter(shape)": 0.07226788155054219}}]}
