{"type":"Topology","arcs":[[[81921,84821],[-7655,-16607],[12704,-5357]],[[86970,62857],[-6678,-8393],[-9283,3393],[-5863,-10715]],[[65146,47142],[-3420,1786]],[[61726,48928],[-3909,12321]],[[57817,61249],[326,2500]],[[58143,63749],[814,10893]],[[58957,74642],[17752,13750],[5212,-3571]],[[96579,53749],[-9609,9108]],[[81921,84821],[15798,-7143],[2280,-13750],[-3420,-10179]],[[96579,53749],[-6352,-15535],[-22150,-11250]],[[68077,26964],[-3094,14286]],[[64983,41250],[163,357]],[[65146,41607],[0,5535]],[[68077,26964],[-10097,-5714]],[[57980,21250],[-814,15000]],[[57166,36250],[7817,5000]],[[57980,21250],[-3095,-10000]],[[54885,11250],[163,15535]],[[55048,26785],[-1303,6072]],[[53745,32857],[2118,3214]],[[55863,36071],[1303,179]],[[55048,26785],[-5374,1965]],[[49674,28750],[1466,4821]],[[51140,33571],[2605,-714]],[[54885,11250],[-5048,-8036],[-18404,-3214]],[[31433,0],[18241,28750]],[[31433,0],[-9446,8750]],[[21987,8750],[17101,4464],[8143,12857]],[[47231,26071],[0,6607]],[[47231,32678],[3909,893]],[[34853,33035],[5212,-4821]],[[40065,28214],[7166,-2143]],[[21987,8750],[-1629,25357]],[[20358,34107],[14495,-1072]],[[40065,28214],[0,4286]],[[40065,32500],[814,2857]],[[40879,35357],[6352,-2679]],[[34853,33035],[5212,-535]],[[44951,43035],[-2606,-5357]],[[42345,37678],[-1466,-2321]],[[20358,34107],[163,8214],[16938,179]],[[37459,42500],[7492,535]],[[14169,81428],[8306,-15179]],[[22475,66249],[-9772,-15357],[18893,-3214]],[[31596,47678],[6840,1429]],[[38436,49107],[-977,-6607]],[[20358,34107],[-17752,6250],[-2606,7678],[814,25000],[13355,8393]],[[25407,64107],[5700,-11608]],[[31107,52499],[489,-4821]],[[22475,66249],[2932,-2142]],[[58143,63749],[-4235,-7678]],[[53908,56071],[-3583,-179]],[[50325,55892],[-3746,2143]],[[46579,58035],[-21172,6072]],[[14169,81428],[11564,18571],[7654,-357],[10261,-9643],[7166,-14821],[8143,-536]],[[57817,61249],[-977,-12321]],[[56840,48928],[-2606,-536]],[[54234,48392],[-326,7679]],[[61726,48928],[-1955,-3750]],[[59771,45178],[-3420,714]],[[56351,45892],[489,3036]],[[65146,41607],[-4723,535]],[[60423,42142],[-652,3036]],[[57166,36250],[3257,5892]],[[55863,36071],[325,7143]],[[56188,43214],[163,2678]],[[51140,33571],[977,4107]],[[52117,37678],[1140,5714]],[[53257,43392],[2931,-178]],[[50000,38392],[2117,-714]],[[42345,37678],[7655,714]],[[47882,44464],[2118,-6072]],[[44951,43035],[977,2500]],[[45928,45535],[1954,-1071]],[[38436,49107],[7492,-3572]],[[50162,46071],[-162,-2143]],[[50000,43928],[-2118,536]],[[31107,52499],[19055,-6428]],[[46579,58035],[2118,-5357]],[[48697,52678],[1954,-3928]],[[50651,48750],[-489,-2679]],[[50325,55892],[-1628,-3214]],[[54234,48392],[-3583,358]],[[53257,43392],[-3257,536]]],"transform":{"scale":[6.140061400613197e-7,5.6000560005601e-7],"translate":[79.4423,18.2659]},"objects":{"wards":{"type":"GeometryCollection","geometries":[{"arcs":[[0,1,2,3,4,5,6]],"type":"Polygon","properties":{"objectid":50437,"statename":"Telanagana","statecode":"36","districtname":"Karimnagar","districtcode":"534","ulbname":"Jammikunta","ulbcode":"900016","wardname":"1","wardcode":"1","id":null,"status":"APPROVED","misglobalid":null,"approved_by":null,"createdate":1639742175000,"updateddate":1641295031000,"globalid":null,"gisglobalid":"3b66c2c4-8e0e-4c38-8bf2-b134d9263adc","remark":"","st_area(shape)":0.00021549692166081936,"st_perimeter(shape)":0.07599090840394544}},{"arcs":[[7,-1,8]],"type":"Polygon","properties":{"objectid":52046,"statename":"Telanagana","statecode":"36","districtname":"Karimnagar","districtcode":"534","ulbname":"Jammikunta","ulbcode":"900016","wardname":"2","wardcode":"2","id":null,"status":"APPROVED","misglobalid":null,"approved_by":null,"createdate":1639742175000,"updateddate":1641295038000,"globalid":null,"gisglobalid":"dc81476f-f0e2-439e-a273-2cff07880f4d","remark":"","st_area(shape)":0.00014175537896704113,"st_perimeter(shape)":0.05384634038571918}},{"arcs":[[9,10,11,12,-2,-8]],"type":"Polygon","properties":{"objectid":50762,"statename":"Telanagana","statecode":"36","districtname":"Karimnagar","districtcode":"534","ulbname":"Jammikunta","ulbcode":"900016","wardname":"3","wardcode":"3","id":null,"status":"APPROVED","misglobalid":null,"approved_by":null,"createdate":1639742175000,"updateddate":1641295050000,"globalid":null,"gisglobalid":"4558b1d7-9546-4e4e-a460-9a13446daa02","remark":"","st_area(shape)":0.0002238182217864811,"st_perimeter(shape)":0.06559674496083345}},{"arcs":[[-11,13,14,15]],"type":"Polygon","properties":{"objectid":52354,"statename":"Telanagana","statecode":"36","districtname":"Karimnagar","districtcode":"534","ulbname":"Jammikunta","ulbcode":"900016","wardname":"4","wardcode":"4","id":null,"status":"APPROVED","misglobalid":null,"approved_by":null,"createdate":1639742175000,"updateddate":1641295056000,"globalid":null,"gisglobalid":"d76a71ca-03cd-43f2-a9a2-2efe88a16a59","remark":"","st_area(shape)":0.00004035803103932567,"st_perimeter(shape)":0.0347099761476899}},{"arcs":[[16,17,18,19,20,-15]],"type":"Polygon","properties":{"objectid":52717,"statename":"Telanagana","statecode":"36","districtname":"Karimnagar","districtcode":"534","ulbname":"Jammikunta","ulbcode":"900016","wardname":"5","wardcode":"5","id":null,"status":"APPROVED","misglobalid":null,"approved_by":null,"createdate":1639742165000,"updateddate":1641295062000,"globalid":null,"gisglobalid":"e39543f7-c11e-4dad-9d1d-eb313efaa8bf","remark":"","st_area(shape)":0.00002519512860502809,"st_perimeter(shape)":0.031051513470093873}},{"arcs":[[-19,21,22,23]],"type":"Polygon","properties":{"objectid":52043,"statename":"Telanagana","statecode":"36","districtname":"Karimnagar","districtcode":"534","ulbname":"Jammikunta","ulbcode":"900016","wardname":"6","wardcode":"6","id":null,"status":"APPROVED","misglobalid":null,"approved_by":null,"createdate":1639742175000,"updateddate":1641295068000,"globalid":null,"gisglobalid":"400df0a0-1548-451f-83d2-5c8a9b0604df","remark":"","st_area(shape)":0.000008207104571592467,"st_perimeter(shape)":0.012126555305147457}},{"arcs":[[-18,24,25,-22]],"type":"Polygon","properties":{"objectid":51575,"statename":"Telanagana","statecode":"36","districtname":"Karimnagar","districtcode":"534","ulbname":"Jammikunta","ulbcode":"900016","wardname":"7","wardcode":"7","id":null,"status":"APPROVED","misglobalid":null,"approved_by":null,"createdate":1639742175000,"updateddate":1641295074000,"globalid":null,"gisglobalid":"dbee6c0e-f6c4-4993-aca9-d7ec77fd200f","remark":"","st_area(shape)":0.00010873778129507392,"st_perimeter(shape)":0.05065844700240325}},{"arcs":[[-23,-26,26,27,28,29]],"type":"Polygon","properties":{"objectid":51576,"statename":"Telanagana","statecode":"36","districtname":"Karimnagar","districtcode":"534","ulbname":"Jammikunta","ulbcode":"900016","wardname":"8","wardcode":"8","id":null,"status":"APPROVED","misglobalid":null,"approved_by":null,"createdate":1639742165000,"updateddate":1641295079000,"globalid":null,"gisglobalid":"6d47e793-8f49-4d40-8ae2-a35c04e7cba6","remark":"","st_area(shape)":0.00006125407995353298,"st_perimeter(shape)":0.05942270813626995}},{"arcs":[[30,31,-28,32,33]],"type":"Polygon","properties":{"objectid":51165,"statename":"Telanagana","statecode":"36","districtname":"Karimnagar","districtcode":"534","ulbname":"Jammikunta","ulbcode":"900016","wardname":"9","wardcode":"9","id":null,"status":"APPROVED","misglobalid":null,"approved_by":null,"createdate":1639742175000,"updateddate":1641295088000,"globalid":null,"gisglobalid":"9004a3a5-754d-4c17-b8c8-a6339d12cfea","remark":"","st_area(shape)":0.00014178141558563159,"st_perimeter(shape)":0.056001684302507244}},{"arcs":[[-29,-32,34,35,36]],"type":"Polygon","properties":{"objectid":52718,"statename":"Telanagana","statecode":"36","districtname":"Karimnagar","districtcode":"534","ulbname":"Jammikunta","ulbcode":"900016","wardname":"10","wardcode":"10","id":null,"status":"APPROVED","misglobalid":null,"approved_by":null,"createdate":1639742165000,"updateddate":1641295094000,"globalid":null,"gisglobalid":"00fa95d2-6da3-4350-9bfa-5e73dbd77cce","remark":"","st_area(shape)":0.00001823377780439556,"st_perimeter(shape)":0.017609181631418377}},{"arcs":[[-35,-31,37]],"type":"Polygon","properties":{"objectid":52040,"statename":"Telanagana","statecode":"36","districtname":"Karimnagar","districtcode":"534","ulbname":"Jammikunta","ulbcode":"900016","wardname":"11","wardcode":"11","id":null,"status":"APPROVED","misglobalid":null,"approved_by":null,"createdate":1639742175000,"updateddate":1641295099000,"globalid":null,"gisglobalid":"fa3b207b-de00-4866-b499-2b73425ed99c","remark":"","st_area(shape)":0.000010489668857125292,"st_perimeter(shape)":0.013258215886636579}},{"arcs":[[38,39,-36,-38,-34,40,41]],"type":"Polygon","properties":{"objectid":52715,"statename":"Telanagana","statecode":"36","districtname":"Karimnagar","districtcode":"534","ulbname":"Jammikunta","ulbcode":"900016","wardname":"12","wardcode":"12","id":null,"status":"APPROVED","misglobalid":null,"approved_by":null,"createdate":1639742175000,"updateddate":1641295105000,"globalid":null,"gisglobalid":"e5f79fed-4ebf-4b67-801d-3d34f8ee1e31","remark":"","st_area(shape)":0.00007203263183771926,"st_perimeter(shape)":0.043309109751567924}},{"arcs":[[42,43,44,45,-41,46]],"type":"Polygon","properties":{"objectid":51167,"statename":"Telanagana","statecode":"36","districtname":"Karimnagar","districtcode":"534","ulbname":"Jammikunta","ulbcode":"900016","wardname":"13","wardcode":"13","id":null,"status":"APPROVED","misglobalid":null,"approved_by":null,"createdate":1639742175000,"updateddate":1641295112000,"globalid":null,"gisglobalid":"469bd764-9ee0-4b44-aa73-24a94a5f2eb8","remark":"","st_area(shape)":0.00028993245597177744,"st_perimeter(shape)":0.1037780368473747}},{"arcs":[[47,48,-44,49]],"type":"Polygon","properties":{"objectid":50436,"statename":"Telanagana","statecode":"36","districtname":"Karimnagar","districtcode":"534","ulbname":"Jammikunta","ulbcode":"900016","wardname":"14","wardcode":"14","id":null,"status":"APPROVED","misglobalid":null,"approved_by":null,"createdate":1639742175000,"updateddate":1641295119000,"globalid":null,"gisglobalid":"149e709d-c586-4159-920d-396c473ef288","remark":"","st_area(shape)":0.00006745367234725643,"st_perimeter(shape)":0.04076996037143971}},{"arcs":[[-6,50,51,52,53,-50,-43,54]],"type":"Polygon","properties":{"objectid":52358,"statename":"Telanagana","statecode":"36","districtname":"Karimnagar","districtcode":"534","ulbname":"Jammikunta","ulbcode":"900016","wardname":"15","wardcode":"15","id":null,"status":"APPROVED","misglobalid":null,"approved_by":null,"createdate":1639742175000,"updateddate":1641295129000,"globalid":null,"gisglobalid":"62d90d4e-4b9c-4a46-a950-de84f2bac10b","remark":"","st_area(shape)":0.0003702450551926763,"st_perimeter(shape)":0.0917732241972921}},{"arcs":[[-5,55,56,57,-51]],"type":"Polygon","properties":{"objectid":50434,"statename":"Telanagana","statecode":"36","districtname":"Karimnagar","districtcode":"534","ulbname":"Jammikunta","ulbcode":"900016","wardname":"16","wardcode":"16","id":null,"status":"APPROVED","misglobalid":null,"approved_by":null,"createdate":1639742175000,"updateddate":1641295137000,"globalid":null,"gisglobalid":"1357d696-34b6-4acd-b25f-c488b2e0591a","remark":"","st_area(shape)":0.000020532122861596608,"st_perimeter(shape)":0.026043783762828617}},{"arcs":[[58,59,60,-56,-4]],"type":"Polygon","properties":{"objectid":51577,"statename":"Telanagana","statecode":"36","districtname":"Karimnagar","districtcode":"534","ulbname":"Jammikunta","ulbcode":"900016","wardname":"17","wardcode":"17","id":null,"status":"APPROVED","misglobalid":null,"approved_by":null,"createdate":1639742175000,"updateddate":1641295154000,"globalid":null,"gisglobalid":"509b5a2c-6f2c-4249-8760-83d357fba5ae","remark":"","st_area(shape)":0.000023163713234766778,"st_perimeter(shape)":0.02293214304333805}},{"arcs":[[-13,61,62,-59,-3]],"type":"Polygon","properties":{"objectid":52356,"statename":"Telanagana","statecode":"36","districtname":"Karimnagar","districtcode":"534","ulbname":"Jammikunta","ulbcode":"900016","wardname":"18","wardcode":"18","id":null,"status":"APPROVED","misglobalid":null,"approved_by":null,"createdate":1639742175000,"updateddate":1641295163000,"globalid":null,"gisglobalid":"028ff562-9ad0-4ad9-b4f7-e87992fb6ed9","remark":"","st_area(shape)":0.000013092523459318298,"st_perimeter(shape)":0.014932594745725988}},{"arcs":[[-12,-16,63,-62]],"type":"Polygon","properties":{"objectid":50433,"statename":"Telanagana","statecode":"36","districtname":"Karimnagar","districtcode":"534","ulbname":"Jammikunta","ulbcode":"900016","wardname":"19","wardcode":"19","id":null,"status":"APPROVED","misglobalid":null,"approved_by":null,"createdate":1639742175000,"updateddate":1641295170000,"globalid":null,"gisglobalid":"850196d2-660d-4750-9303-2ab8edb67ef2","remark":"","st_area(shape)":0.000009286086833627962,"st_perimeter(shape)":0.015298389026336894}},{"arcs":[[-64,-21,64,65,-60,-63]],"type":"Polygon","properties":{"objectid":50002,"statename":"Telanagana","statecode":"36","districtname":"Karimnagar","districtcode":"534","ulbname":"Jammikunta","ulbcode":"900016","wardname":"20","wardcode":"20","id":null,"status":"APPROVED","misglobalid":null,"approved_by":null,"createdate":1639742165000,"updateddate":1641295177000,"globalid":null,"gisglobalid":"0a137cc5-cc15-4987-be6d-3430f1e14d68","remark":"","st_area(shape)":0.000009157914654544318,"st_perimeter(shape)":0.015626760796533284}},{"arcs":[[-65,-20,-24,66,67,68]],"type":"Polygon","properties":{"objectid":52042,"statename":"Telanagana","statecode":"36","districtname":"Karimnagar","districtcode":"534","ulbname":"Jammikunta","ulbcode":"900016","wardname":"21","wardcode":"21","id":null,"status":"APPROVED","misglobalid":null,"approved_by":null,"createdate":1639742175000,"updateddate":1641295184000,"globalid":null,"gisglobalid":"b9c9c55b-dfc8-451a-ada3-bfdadc557146","remark":"","st_area(shape)":0.000011440322373524286,"st_perimeter(shape)":0.015826475245182308}},{"arcs":[[69,-67,-30,-37,-40,70]],"type":"Polygon","properties":{"objectid":50001,"statename":"Telanagana","statecode":"36","districtname":"Karimnagar","districtcode":"534","ulbname":"Jammikunta","ulbcode":"900016","wardname":"22","wardcode":"22","id":null,"status":"APPROVED","misglobalid":null,"approved_by":null,"createdate":1639742175000,"updateddate":1641295194000,"globalid":null,"gisglobalid":"a7cd82a6-7476-46e3-ae42-c71da6230320","remark":"","st_area(shape)":0.00001558124149775756,"st_perimeter(shape)":0.019867014432613635}},{"arcs":[[71,-71,-39,72,73]],"type":"Polygon","properties":{"objectid":52716,"statename":"Telanagana","statecode":"36","districtname":"Karimnagar","districtcode":"534","ulbname":"Jammikunta","ulbcode":"900016","wardname":"23","wardcode":"23","id":null,"status":"APPROVED","misglobalid":null,"approved_by":null,"createdate":1639742165000,"updateddate":1641295203000,"globalid":null,"gisglobalid":"f8b88cf9-9906-4b04-af6a-a9f3d862cc85","remark":"","st_area(shape)":0.000008377804606774089,"st_perimeter(shape)":0.01909708886104073}},{"arcs":[[-73,-42,-46,74]],"type":"Polygon","properties":{"objectid":51578,"statename":"Telanagana","statecode":"36","districtname":"Karimnagar","districtcode":"534","ulbname":"Jammikunta","ulbcode":"900016","wardname":"24","wardcode":"24","id":null,"status":"APPROVED","misglobalid":null,"approved_by":null,"createdate":1639742165000,"updateddate":1641295210000,"globalid":null,"gisglobalid":"ceee189b-04fc-4ca7-b485-b1945e0359cb","remark":"","st_area(shape)":0.000013612607781874108,"st_perimeter(shape)":0.01636819465471747}},{"arcs":[[75,76,-74,-75,-45,-49,77]],"type":"Polygon","properties":{"objectid":51580,"statename":"Telanagana","statecode":"36","districtname":"Karimnagar","districtcode":"534","ulbname":"Jammikunta","ulbcode":"900016","wardname":"25","wardcode":"25","id":null,"status":"APPROVED","misglobalid":null,"approved_by":null,"createdate":1639742165000,"updateddate":1641295220000,"globalid":null,"gisglobalid":"de0bed11-c55d-4d25-a25a-c38a9ae62717","remark":"","st_area(shape)":0.00002029179522567682,"st_perimeter(shape)":0.030107502547504293}},{"arcs":[[78,79,80,-78,-48,-54]],"type":"Polygon","properties":{"objectid":52355,"statename":"Telanagana","statecode":"36","districtname":"Karimnagar","districtcode":"534","ulbname":"Jammikunta","ulbcode":"900016","wardname":"26","wardcode":"26","id":null,"status":"APPROVED","misglobalid":null,"approved_by":null,"createdate":1639742175000,"updateddate":1641295230000,"globalid":null,"gisglobalid":"f8fd2310-4f2c-40e4-bf96-0a9969712afe","remark":"","st_area(shape)":0.00007774926539220306,"st_perimeter(shape)":0.04841768839548562}},{"arcs":[[81,-79,-53]],"type":"Polygon","properties":{"objectid":52045,"statename":"Telanagana","statecode":"36","districtname":"Karimnagar","districtcode":"534","ulbname":"Jammikunta","ulbcode":"900016","wardname":"27","wardcode":"27","id":null,"status":"APPROVED","misglobalid":null,"approved_by":null,"createdate":1639742175000,"updateddate":1641295244000,"globalid":null,"gisglobalid":"5723e867-84e2-4442-acce-26f73f16bac1","remark":"","st_area(shape)":0.000006543595845464581,"st_perimeter(shape)":0.010889220842567635}},{"arcs":[[82,-80,-82,-52,-58]],"type":"Polygon","properties":{"objectid":52041,"statename":"Telanagana","statecode":"36","districtname":"Karimnagar","districtcode":"534","ulbname":"Jammikunta","ulbcode":"900016","wardname":"28","wardcode":"28","id":null,"status":"APPROVED","misglobalid":null,"approved_by":null,"createdate":1639742175000,"updateddate":1641295251000,"globalid":null,"gisglobalid":"f4419f7d-2c56-4cc0-b7f6-89929b4c6d10","remark":"","st_area(shape)":0.000012864203672937007,"st_perimeter(shape)":0.015102440731734213}},{"arcs":[[-66,-69,83,-76,-81,-83,-57,-61]],"type":"Polygon","properties":{"objectid":52044,"statename":"Telanagana","statecode":"36","districtname":"Karimnagar","districtcode":"534","ulbname":"Jammikunta","ulbcode":"900016","wardname":"29","wardcode":"29","id":null,"status":"APPROVED","misglobalid":null,"approved_by":null,"createdate":1639742165000,"updateddate":1641295258000,"globalid":null,"gisglobalid":"9a0b067c-2457-42c4-8ce3-be6de191e00b","remark":"","st_area(shape)":0.000010670088327755034,"st_perimeter(shape)":0.013499435206068161}},{"arcs":[[-84,-68,-70,-72,-77]],"type":"Polygon","properties":{"objectid":52714,"statename":"Telanagana","statecode":"36","districtname":"Karimnagar","districtcode":"534","ulbname":"Jammikunta","ulbcode":"900016","wardname":"30","wardcode":"30","id":null,"status":"APPROVED","misglobalid":null,"approved_by":null,"createdate":1639742175000,"updateddate":1641295266000,"globalid":null,"gisglobalid":"59291bba-4f0a-4a13-b7bd-8436059c4aaf","remark":"","st_area(shape)":0.000009378555970628324,"st_perimeter(shape)":0.013269460931108677}}]}}}