{"type": "FeatureCollection", "features": [{"type": "Feature", "geometry": {"type": "Polygon", "coordinates": [[[79.1939, 23.9091], [79.1943, 23.9089], [79.1948, 23.9088], [79.1952, 23.9086], [79.1956, 23.9084], [79.1959, 23.9083], [79.1962, 23.9082], [79.1964, 23.9081], [79.1966, 23.908], [79.1969, 23.908], [79.1969, 23.9079], [79.1967, 23.9075], [79.1975, 23.9074], [79.1976, 23.9074], [79.1979, 23.9074], [79.1979, 23.9073], [79.1978, 23.907], [79.1978, 23.9071], [79.1977, 23.9071], [79.1977, 23.907], [79.1979, 23.907], [79.198, 23.907], [79.1981, 23.9069], [79.198, 23.9068], [79.198, 23.9067], [79.1986, 23.9065], [79.1983, 23.9056], [79.199, 23.9053], [79.199, 23.9054], [79.1992, 23.9058], [79.1992, 23.9059], [79.1993, 23.9059], [79.1993, 23.906], [79.1994, 23.906], [79.1997, 23.9061], [79.1998, 23.9061], [79.2, 23.906], [79.2003, 23.9059], [79.201, 23.9055], [79.2016, 23.9052], [79.2018, 23.9051], [79.202, 23.9051], [79.2022, 23.9051], [79.2025, 23.9052], [79.2027, 23.9053], [79.2028, 23.9052], [79.2027, 23.9051], [79.2028, 23.905], [79.2029, 23.9049], [79.203, 23.9049], [79.2032, 23.9049], [79.2033, 23.9049], [79.2034, 23.905], [79.2036, 23.9051], [79.2037, 23.9051], [79.2038, 23.905], [79.2038, 23.9049], [79.2046, 23.9046], [79.2053, 23.9044], [79.2058, 23.9043], [79.206, 23.9042], [79.2061, 23.9042], [79.2063, 23.9042], [79.2065, 23.9041], [79.2066, 23.9041], [79.2067, 23.9041], [79.207, 23.9039], [79.2071, 23.9039], [79.2073, 23.9039], [79.2075, 23.9039], [79.2078, 23.9039], [79.2079, 23.9039], [79.2081, 23.9038], [79.2082, 23.9038], [79.2083, 23.9039], [79.2085, 23.9039], [79.2087, 23.904], [79.2089, 23.904], [79.2091, 23.9041], [79.2092, 23.9041], [79.2093, 23.904], [79.2094, 23.9042], [79.2095, 23.9042], [79.2096, 23.9043], [79.2097, 23.9043], [79.2098, 23.9043], [79.2099, 23.9043], [79.21, 23.9043], [79.21, 23.9044], [79.21, 23.9045], [79.2101, 23.9045], [79.2101, 23.9044], [79.2102, 23.9044], [79.2102, 23.9043], [79.2103, 23.9043], [79.2104, 23.9044], [79.2105, 23.9045], [79.2106, 23.9046], [79.2107, 23.9046], [79.2108, 23.9045], [79.211, 23.9045], [79.2111, 23.9045], [79.2112, 23.9045], [79.2113, 23.9045], [79.2114, 23.9045], [79.2115, 23.9045], [79.2115, 23.9046], [79.2116, 23.9045], [79.2117, 23.9045], [79.2118, 23.9044], [79.2118, 23.9043], [79.2118, 23.9042], [79.2119, 23.9042], [79.212, 23.9042], [79.2121, 23.9042], [79.2121, 23.9043], [79.2122, 23.9042], [79.2122, 23.9041], [79.2122, 23.904], [79.2122, 23.9039], [79.2123, 23.9038], [79.2124, 23.9038], [79.2125, 23.9038], [79.2126, 23.9038], [79.2127, 23.9037], [79.2129, 23.9037], [79.2129, 23.9036], [79.213, 23.9035], [79.2131, 23.9035], [79.2132, 23.9035], [79.2134, 23.9035], [79.2136, 23.9036], [79.2138, 23.9036], [79.2139, 23.9037], [79.214, 23.9037], [79.2142, 23.9037], [79.2144, 23.9038], [79.2146, 23.9038], [79.2147, 23.9037], [79.2148, 23.9037], [79.2149, 23.9038], [79.215, 23.9038], [79.2153, 23.904], [79.2156, 23.9042], [79.2158, 23.9043], [79.2159, 23.9043], [79.216, 23.9042], [79.2161, 23.9042], [79.2162, 23.9042], [79.2163, 23.9042], [79.2164, 23.9042], [79.2165, 23.9042], [79.2166, 23.9042], [79.2166, 23.9043], [79.2166, 23.9044], [79.2166, 23.9045], [79.2167, 23.9046], [79.2168, 23.9046], [79.2169, 23.9046], [79.217, 23.9047], [79.2171, 23.9047], [79.2171, 23.9048], [79.2171, 23.9049], [79.2172, 23.9049], [79.2173, 23.9049], [79.2174, 23.9049], [79.2174, 23.905], [79.2175, 23.905], [79.2175, 23.9051], [79.2176, 23.9051], [79.2177, 23.9051], [79.2178, 23.9051], [79.2179, 23.9052], [79.2179, 23.9053], [79.218, 23.9053], [79.2181, 23.9052], [79.2183, 23.9051], [79.2184, 23.9051], [79.2184, 23.905], [79.2184, 23.9051], [79.2185, 23.9051], [79.2185, 23.9052], [79.2185, 23.9053], [79.2185, 23.9054], [79.2186, 23.9054], [79.2187, 23.9054], [79.2188, 23.9054], [79.2188, 23.9055], [79.2188, 23.9056], [79.2189, 23.9056], [79.219, 23.9056], [79.2191, 23.9057], [79.2192, 23.9057], [79.2193, 23.9057], [79.2193, 23.9056], [79.2194, 23.9056], [79.2195, 23.9056], [79.2196, 23.9057], [79.2197, 23.9058], [79.2198, 23.9059], [79.2199, 23.9059], [79.2199, 23.906], [79.2199, 23.9059], [79.22, 23.9059], [79.2201, 23.9059], [79.2202, 23.906], [79.2203, 23.906], [79.2204, 23.906], [79.2205, 23.9059], [79.2206, 23.9059], [79.2207, 23.9059], [79.2208, 23.9059], [79.2209, 23.9059], [79.2209, 23.906], [79.221, 23.906], [79.221, 23.9061], [79.221, 23.9062], [79.2211, 23.9062], [79.2211, 23.9061], [79.2212, 23.9061], [79.2213, 23.9061], [79.2213, 23.906], [79.2214, 23.906], [79.2215, 23.906], [79.2215, 23.9061], [79.2215, 23.9062], [79.2214, 23.9062], [79.2215, 23.9062], [79.2215, 23.9063], [79.2214, 23.9063], [79.2213, 23.9063], [79.2213, 23.9064], [79.2212, 23.9064], [79.2212, 23.9065], [79.2211, 23.9065], [79.2211, 23.9066], [79.2212, 23.9066], [79.2212, 23.9067], [79.2212, 23.9068], [79.2213, 23.9068], [79.2214, 23.9068], [79.2215, 23.9068], [79.2216, 23.9068], [79.2216, 23.9067], [79.2217, 23.9067], [79.2217, 23.9066], [79.2218, 23.9066], [79.2218, 23.9067], [79.2219, 23.9068], [79.222, 23.9068], [79.222, 23.9069], [79.222, 23.907], [79.2221, 23.907], [79.2221, 23.9071], [79.2222, 23.9071], [79.2222, 23.9072], [79.2223, 23.9072], [79.2223, 23.9073], [79.2224, 23.9073], [79.2225, 23.9073], [79.2225, 23.9072], [79.2225, 23.9071], [79.2226, 23.9071], [79.2227, 23.9071], [79.2228, 23.9071], [79.2229, 23.9071], [79.2229, 23.907], [79.223, 23.907], [79.223, 23.9068], [79.223, 23.9067], [79.223, 23.9066], [79.2231, 23.9065], [79.2231, 23.9066], [79.2232, 23.9066], [79.2233, 23.9066], [79.2233, 23.9065], [79.2234, 23.9065], [79.2235, 23.9065], [79.2235, 23.9066], [79.2235, 23.9067], [79.2235, 23.9068], [79.2235, 23.9069], [79.2236, 23.9069], [79.2236, 23.907], [79.2237, 23.907], [79.2238, 23.9069], [79.2238, 23.9068], [79.2238, 23.9067], [79.2238, 23.9066], [79.2237, 23.9066], [79.2237, 23.9065], [79.2237, 23.9064], [79.2238, 23.9063], [79.2239, 23.9063], [79.224, 23.9063], [79.224, 23.9062], [79.224, 23.9061], [79.2239, 23.906], [79.2239, 23.9059], [79.224, 23.9059], [79.2241, 23.9058], [79.2242, 23.9057], [79.2243, 23.9058], [79.2243, 23.9059], [79.2244, 23.9059], [79.2245, 23.9059], [79.2245, 23.906], [79.2246, 23.906], [79.2247, 23.906], [79.2247, 23.9059], [79.2248, 23.9059], [79.2249, 23.9058], [79.2249, 23.9057], [79.2249, 23.9056], [79.2249, 23.9055], [79.2249, 23.9054], [79.225, 23.9053], [79.2251, 23.9052], [79.2252, 23.9052], [79.2253, 23.9052], [79.2253, 23.9051], [79.2255, 23.905], [79.2256, 23.905], [79.2257, 23.905], [79.2257, 23.9049], [79.2258, 23.9049], [79.2259, 23.9049], [79.226, 23.9048], [79.2259, 23.9048], [79.2259, 23.9047], [79.2259, 23.9046], [79.2259, 23.9045], [79.2258, 23.9045], [79.2258, 23.9044], [79.2258, 23.9043], [79.2258, 23.9042], [79.2258, 23.9041], [79.2259, 23.9041], [79.226, 23.9041], [79.2261, 23.9041], [79.2262, 23.9041], [79.2263, 23.9041], [79.2264, 23.9042], [79.2265, 23.9042], [79.2266, 23.9042], [79.2267, 23.9042], [79.2268, 23.9042], [79.2269, 23.9042], [79.227, 23.9043], [79.227, 23.9044], [79.2271, 23.9044], [79.2271, 23.9043], [79.2272, 23.9043], [79.2272, 23.9042], [79.2273, 23.9042], [79.2274, 23.9043], [79.2275, 23.9043], [79.2276, 23.9043], [79.2277, 23.9042], [79.2278, 23.9042], [79.2279, 23.9042], [79.2279, 23.9043], [79.228, 23.9043], [79.2281, 23.9043], [79.2282, 23.9043], [79.2283, 23.9044], [79.2283, 23.9045], [79.2283, 23.9046], [79.2283, 23.9047], [79.2284, 23.9047], [79.2285, 23.9047], [79.2286, 23.9048], [79.2287, 23.9048], [79.2288, 23.9048], [79.2289, 23.9048], [79.229, 23.9048], [79.229, 23.9047], [79.229, 23.9046], [79.229, 23.9045], [79.229, 23.9044], [79.2291, 23.9044], [79.2292, 23.9044], [79.2292, 23.9043], [79.2293, 23.9043], [79.2294, 23.9043], [79.2295, 23.9043], [79.2296, 23.9043], [79.2296, 23.9042], [79.2297, 23.9042], [79.2297, 23.9043], [79.2298, 23.9043], [79.2298, 23.9044], [79.2299, 23.9044], [79.2299, 23.9045], [79.23, 23.9045], [79.2301, 23.9045], [79.2301, 23.9044], [79.2302, 23.9044], [79.2303, 23.9044], [79.2303, 23.9043], [79.2302, 23.9042], [79.2303, 23.9041], [79.2304, 23.904], [79.2305, 23.904], [79.2305, 23.9039], [79.2306, 23.9039], [79.2306, 23.904], [79.2307, 23.904], [79.2307, 23.9041], [79.2306, 23.9041], [79.2306, 23.9042], [79.2305, 23.9042], [79.2305, 23.9043], [79.2305, 23.9044], [79.2305, 23.9045], [79.2306, 23.9045], [79.2306, 23.9046], [79.2306, 23.9047], [79.2307, 23.9048], [79.2307, 23.9049], [79.2308, 23.905], [79.2309, 23.9051], [79.231, 23.9051], [79.231, 23.905], [79.2311, 23.905], [79.2312, 23.905], [79.2313, 23.9051], [79.2314, 23.9052], [79.2314, 23.9053], [79.2314, 23.9054], [79.2315, 23.9054], [79.2316, 23.9055], [79.2317, 23.9054], [79.2317, 23.9055], [79.2318, 23.9055], [79.2318, 23.9056], [79.2318, 23.9057], [79.2319, 23.9057], [79.232, 23.9057], [79.2321, 23.9057], [79.2321, 23.9056], [79.2321, 23.9055], [79.2322, 23.9055], [79.2323, 23.9055], [79.2323, 23.9054], [79.2324, 23.9054], [79.2324, 23.9053], [79.2324, 23.9052], [79.2323, 23.9052], [79.2323, 23.9051], [79.2322, 23.9051], [79.2321, 23.9051], [79.232, 23.9051], [79.2319, 23.9051], [79.2318, 23.9051], [79.2318, 23.905], [79.2318, 23.9049], [79.2318, 23.9048], [79.2317, 23.9047], [79.2317, 23.9046], [79.2317, 23.9045], [79.2316, 23.9044], [79.2315, 23.9043], [79.2315, 23.9042], [79.2314, 23.9041], [79.2313, 23.9041], [79.2313, 23.904], [79.2312, 23.9039], [79.2311, 23.9038], [79.2311, 23.9037], [79.2311, 23.9036], [79.2311, 23.9035], [79.2311, 23.9034], [79.2311, 23.9033], [79.2312, 23.9033], [79.2313, 23.9033], [79.2314, 23.9033], [79.2314, 23.9034], [79.2315, 23.9034], [79.2316, 23.9035], [79.2317, 23.9035], [79.2317, 23.9036], [79.2318, 23.9036], [79.2318, 23.9037], [79.2319, 23.9037], [79.2319, 23.9038], [79.232, 23.9038], [79.2321, 23.9038], [79.2322, 23.9038], [79.2322, 23.9039], [79.2323, 23.9039], [79.2323, 23.904], [79.2324, 23.9041], [79.2325, 23.9041], [79.2326, 23.9041], [79.2327, 23.9041], [79.2328, 23.904], [79.233, 23.9038], [79.2331, 23.9038], [79.2332, 23.9036], [79.2333, 23.9035], [79.2334, 23.9035], [79.2335, 23.9036], [79.2335, 23.9037], [79.2336, 23.9038], [79.2336, 23.9039], [79.2337, 23.904], [79.2338, 23.9041], [79.2339, 23.9041], [79.234, 23.9042], [79.2341, 23.9042], [79.2342, 23.9042], [79.2344, 23.9042], [79.2347, 23.9042], [79.2348, 23.9042], [79.2349, 23.9041], [79.235, 23.9041], [79.2352, 23.9041], [79.2353, 23.9041], [79.2354, 23.904], [79.2355, 23.904], [79.2356, 23.9039], [79.2356, 23.9038], [79.2355, 23.9038], [79.2354, 23.9037], [79.2353, 23.9037], [79.2352, 23.9037], [79.2352, 23.9036], [79.2351, 23.9036], [79.235, 23.9035], [79.2348, 23.9034], [79.2346, 23.9031], [79.2345, 23.9031], [79.2345, 23.903], [79.2346, 23.903], [79.2346, 23.9029], [79.2347, 23.9029], [79.2348, 23.9029], [79.2349, 23.9029], [79.235, 23.9029], [79.2351, 23.9029], [79.2352, 23.9029], [79.2352, 23.9028], [79.2352, 23.9027], [79.2351, 23.9027], [79.2351, 23.9026], [79.235, 23.9026], [79.235, 23.9025], [79.2349, 23.9024], [79.2349, 23.9023], [79.2349, 23.9022], [79.2349, 23.9021], [79.2349, 23.902], [79.235, 23.902], [79.2351, 23.902], [79.2351, 23.9019], [79.2352, 23.9019], [79.2352, 23.9018], [79.2352, 23.9017], [79.2353, 23.9017], [79.2354, 23.9017], [79.2355, 23.9016], [79.2356, 23.9016], [79.2357, 23.9016], [79.2357, 23.9015], [79.2358, 23.9014], [79.2358, 23.9013], [79.2358, 23.9012], [79.2358, 23.9011], [79.2357, 23.901], [79.2357, 23.9009], [79.2356, 23.9008], [79.2355, 23.9007], [79.2354, 23.9007], [79.2353, 23.9007], [79.2353, 23.9006], [79.2353, 23.9005], [79.2352, 23.9005], [79.2352, 23.9004], [79.2353, 23.9004], [79.2353, 23.9005], [79.2354, 23.9005], [79.2354, 23.9006], [79.2355, 23.9006], [79.2355, 23.9007], [79.2356, 23.9007], [79.2357, 23.9007], [79.2357, 23.9008], [79.2358, 23.9009], [79.2359, 23.9009], [79.236, 23.9009], [79.2361, 23.9009], [79.2362, 23.9008], [79.2363, 23.9008], [79.2363, 23.9007], [79.2364, 23.9007], [79.2365, 23.9007], [79.2366, 23.9007], [79.2367, 23.9007], [79.2368, 23.9007], [79.2369, 23.9008], [79.237, 23.9008], [79.2371, 23.9008], [79.2371, 23.9007], [79.2371, 23.9006], [79.237, 23.9005], [79.237, 23.9004], [79.237, 23.9003], [79.237, 23.9002], [79.2371, 23.9002], [79.2371, 23.9001], [79.2372, 23.9001], [79.2372, 23.9002], [79.2373, 23.9002], [79.2374, 23.9003], [79.2375, 23.9003], [79.2375, 23.9004], [79.2376, 23.9004], [79.2377, 23.9004], [79.2378, 23.9004], [79.2379, 23.9004], [79.238, 23.9004], [79.2381, 23.9004], [79.2381, 23.9003], [79.238, 23.9003], [79.2379, 23.9003], [79.2378, 23.9003], [79.2377, 23.9003], [79.2377, 23.9002], [79.2376, 23.9001], [79.2376, 23.9], [79.2376, 23.8999], [79.2377, 23.8999], [79.2377, 23.8998], [79.2378, 23.8998], [79.2378, 23.8997], [79.2379, 23.8996], [79.238, 23.8996], [79.238, 23.8995], [79.2381, 23.8995], [79.2382, 23.8994], [79.2382, 23.8993], [79.2383, 23.8993], [79.2383, 23.8992], [79.2384, 23.8992], [79.2384, 23.8991], [79.2384, 23.899], [79.2384, 23.8989], [79.2384, 23.8988], [79.2384, 23.8987], [79.2384, 23.8986], [79.2384, 23.8985], [79.2384, 23.8984], [79.2384, 23.8983], [79.2383, 23.8983], [79.2382, 23.8982], [79.2381, 23.8982], [79.2381, 23.8981], [79.2381, 23.898], [79.238, 23.8979], [79.238, 23.8978], [79.2379, 23.8978], [79.2378, 23.8977], [79.2377, 23.8977], [79.2376, 23.8976], [79.2375, 23.8976], [79.2374, 23.8976], [79.2373, 23.8976], [79.2372, 23.8976], [79.2372, 23.8975], [79.2373, 23.8974], [79.2374, 23.8973], [79.2375, 23.8973], [79.2376, 23.8972], [79.2376, 23.8971], [79.2376, 23.897], [79.2376, 23.8968], [79.2376, 23.8965], [79.2376, 23.8964], [79.2376, 23.8962], [79.2376, 23.8961], [79.2377, 23.8961], [79.2378, 23.896], [79.2379, 23.896], [79.238, 23.896], [79.2381, 23.896], [79.2381, 23.8961], [79.2381, 23.8962], [79.2381, 23.8963], [79.2382, 23.8963], [79.2383, 23.8964], [79.2384, 23.8964], [79.2385, 23.8963], [79.2386, 23.8963], [79.2386, 23.8962], [79.2387, 23.896], [79.2387, 23.8959], [79.2388, 23.8959], [79.2389, 23.8959], [79.2389, 23.8958], [79.2389, 23.8957], [79.2388, 23.8956], [79.2388, 23.8955], [79.2388, 23.8954], [79.2388, 23.8953], [79.2388, 23.8952], [79.2388, 23.8951], [79.2389, 23.895], [79.2389, 23.8949], [79.2388, 23.8949], [79.2388, 23.8948], [79.2388, 23.8947], [79.2388, 23.8946], [79.2389, 23.8946], [79.2389, 23.8945], [79.2391, 23.8945], [79.2392, 23.8945], [79.2393, 23.8944], [79.2395, 23.8944], [79.2396, 23.8943], [79.2398, 23.8943], [79.2399, 23.8943], [79.2399, 23.8944], [79.24, 23.8944], [79.24, 23.8945], [79.2401, 23.8946], [79.2401, 23.8947], [79.2401, 23.8948], [79.2401, 23.8949], [79.2401, 23.895], [79.2401, 23.8951], [79.2401, 23.8952], [79.2402, 23.8952], [79.2403, 23.8952], [79.2404, 23.8951], [79.2406, 23.8951], [79.2406, 23.895], [79.2407, 23.8949], [79.2408, 23.8948], [79.2408, 23.8947], [79.2409, 23.8946], [79.241, 23.8946], [79.241, 23.8945], [79.2411, 23.8945], [79.2412, 23.8944], [79.2413, 23.8944], [79.2414, 23.8943], [79.2415, 23.8943], [79.2416, 23.8942], [79.2417, 23.8942], [79.2417, 23.8941], [79.2417, 23.894], [79.2416, 23.894], [79.2416, 23.8939], [79.2415, 23.8939], [79.2414, 23.8939], [79.2415, 23.8939], [79.2416, 23.8939], [79.2416, 23.8938], [79.2416, 23.8937], [79.2416, 23.8936], [79.2417, 23.8936], [79.2417, 23.8937], [79.2417, 23.8938], [79.2417, 23.8939], [79.2418, 23.8939], [79.2419, 23.8939], [79.242, 23.8939], [79.2421, 23.8939], [79.2421, 23.894], [79.2422, 23.8941], [79.2423, 23.8942], [79.2424, 23.8942], [79.2425, 23.8942], [79.2426, 23.8942], [79.2427, 23.8942], [79.2428, 23.8941], [79.2429, 23.894], [79.2429, 23.8939], [79.243, 23.8938], [79.2431, 23.8937], [79.2432, 23.8937], [79.2433, 23.8937], [79.2434, 23.8937], [79.2434, 23.8938], [79.2434, 23.8939], [79.2435, 23.894], [79.2435, 23.8941], [79.2436, 23.8941], [79.2437, 23.8941], [79.2439, 23.894], [79.244, 23.8939], [79.2442, 23.8938], [79.2443, 23.8937], [79.2444, 23.8935], [79.2445, 23.8935], [79.2446, 23.8934], [79.2447, 23.8934], [79.2448, 23.8934], [79.245, 23.8934], [79.2451, 23.8935], [79.2452, 23.8935], [79.2453, 23.8935], [79.2454, 23.8935], [79.2455, 23.8935], [79.2456, 23.8935], [79.2457, 23.8935], [79.2458, 23.8935], [79.2459, 23.8935], [79.246, 23.8935], [79.2461, 23.8935], [79.2462, 23.8935], [79.2463, 23.8935], [79.2464, 23.8934], [79.2465, 23.8933], [79.2467, 23.8932], [79.2468, 23.8932], [79.2469, 23.8931], [79.247, 23.893], [79.2471, 23.893], [79.2472, 23.8929], [79.2473, 23.8929], [79.2473, 23.8928], [79.2473, 23.8927], [79.2474, 23.8926], [79.2473, 23.8925], [79.2472, 23.8925], [79.2471, 23.8926], [79.247, 23.8927], [79.2469, 23.8928], [79.2468, 23.8928], [79.2467, 23.8929], [79.2466, 23.893], [79.2464, 23.893], [79.2463, 23.8931], [79.2461, 23.8931], [79.246, 23.8931], [79.2459, 23.8931], [79.2458, 23.8931], [79.2457, 23.8931], [79.2456, 23.893], [79.2455, 23.893], [79.2455, 23.8929], [79.2454, 23.8929], [79.2453, 23.8929], [79.2452, 23.8929], [79.2451, 23.8928], [79.245, 23.8928], [79.2449, 23.8926], [79.2448, 23.8926], [79.2447, 23.8925], [79.2446, 23.8925], [79.2446, 23.8924], [79.2445, 23.8924], [79.2445, 23.8923], [79.2444, 23.8923], [79.2444, 23.8921], [79.2444, 23.892], [79.2443, 23.8919], [79.2443, 23.8918], [79.2443, 23.8917], [79.2443, 23.8916], [79.2443, 23.8914], [79.2444, 23.8913], [79.2444, 23.8912], [79.2443, 23.8911], [79.2443, 23.891], [79.2443, 23.8909], [79.2443, 23.8908], [79.2443, 23.8907], [79.2443, 23.8906], [79.2443, 23.8905], [79.2443, 23.8904], [79.2443, 23.8903], [79.2443, 23.8902], [79.2443, 23.8901], [79.2443, 23.89], [79.2443, 23.8898], [79.2443, 23.8897], [79.2443, 23.8896], [79.2443, 23.8895], [79.2443, 23.8894], [79.2443, 23.8893], [79.2443, 23.8892], [79.2443, 23.8891], [79.2443, 23.889], [79.2443, 23.8889], [79.2442, 23.8889], [79.2442, 23.8888], [79.2443, 23.8888], [79.2443, 23.8887], [79.2443, 23.8886], [79.2443, 23.8885], [79.2442, 23.8885], [79.2442, 23.8884], [79.2441, 23.8883], [79.2441, 23.8882], [79.2441, 23.8881], [79.244, 23.888], [79.244, 23.8879], [79.244, 23.8878], [79.2439, 23.8876], [79.2439, 23.8875], [79.2439, 23.8874], [79.2439, 23.8872], [79.2438, 23.8872], [79.2438, 23.8871], [79.2437, 23.887], [79.2436, 23.887], [79.2435, 23.887], [79.2434, 23.887], [79.2434, 23.8871], [79.2433, 23.8871], [79.2432, 23.8871], [79.2432, 23.8872], [79.2431, 23.8872], [79.2432, 23.8871], [79.2432, 23.887], [79.2432, 23.8869], [79.2431, 23.8869], [79.2431, 23.8868], [79.243, 23.8868], [79.243, 23.8869], [79.2428, 23.887], [79.2428, 23.8871], [79.2427, 23.8871], [79.2427, 23.8872], [79.2426, 23.8872], [79.2425, 23.8872], [79.2425, 23.8871], [79.2424, 23.887], [79.2424, 23.8869], [79.2424, 23.8868], [79.2423, 23.8868], [79.2423, 23.8867], [79.2422, 23.8867], [79.2422, 23.8866], [79.2421, 23.8866], [79.2421, 23.8865], [79.242, 23.8865], [79.2419, 23.8865], [79.2417, 23.8864], [79.2417, 23.8863], [79.2416, 23.8862], [79.2415, 23.8861], [79.2414, 23.886], [79.2413, 23.8859], [79.2411, 23.8856], [79.241, 23.8856], [79.2409, 23.8856], [79.2408, 23.8856], [79.2407, 23.8856], [79.2406, 23.8856], [79.2405, 23.8855], [79.2404, 23.8855], [79.2403, 23.8856], [79.2402, 23.8856], [79.2398, 23.8856], [79.2397, 23.8856], [79.2394, 23.8857], [79.2392, 23.8858], [79.2392, 23.8859], [79.239, 23.8859], [79.2389, 23.886], [79.2388, 23.886], [79.2387, 23.8861], [79.2386, 23.8862], [79.2385, 23.8863], [79.2384, 23.8864], [79.2382, 23.8866], [79.2381, 23.8867], [79.2379, 23.8867], [79.2376, 23.8867], [79.237, 23.8867], [79.2368, 23.8867], [79.2368, 23.8868], [79.2368, 23.8869], [79.2368, 23.887], [79.2368, 23.8871], [79.236, 23.8874], [79.2358, 23.8875], [79.2357, 23.8874], [79.2356, 23.8874], [79.2355, 23.8874], [79.2353, 23.8875], [79.235, 23.8875], [79.2343, 23.8876], [79.2341, 23.8877], [79.234, 23.8877], [79.2339, 23.8876], [79.2338, 23.8876], [79.2336, 23.8877], [79.2335, 23.8877], [79.2334, 23.8878], [79.2333, 23.8879], [79.2334, 23.8881], [79.2334, 23.8882], [79.2334, 23.8884], [79.2334, 23.8885], [79.2333, 23.8887], [79.2332, 23.8887], [79.2328, 23.8888], [79.2323, 23.8888], [79.2322, 23.8888], [79.2322, 23.8889], [79.2322, 23.8892], [79.2322, 23.8893], [79.2321, 23.8894], [79.232, 23.8895], [79.2319, 23.8895], [79.2317, 23.8895], [79.2316, 23.8895], [79.2316, 23.8894], [79.2314, 23.8894], [79.2313, 23.8894], [79.2311, 23.8895], [79.2308, 23.8896], [79.2304, 23.8896], [79.2302, 23.8896], [79.2299, 23.8896], [79.2293, 23.8898], [79.2292, 23.8899], [79.2291, 23.89], [79.229, 23.8901], [79.229, 23.8902], [79.2289, 23.8905], [79.2288, 23.8906], [79.2287, 23.8906], [79.2286, 23.8906], [79.2286, 23.8905], [79.2286, 23.8904], [79.2285, 23.8904], [79.2285, 23.8903], [79.2285, 23.8902], [79.2285, 23.8901], [79.2284, 23.8901], [79.2283, 23.8901], [79.2283, 23.8902], [79.2283, 23.8903], [79.2283, 23.8904], [79.2284, 23.8904], [79.2284, 23.8905], [79.2284, 23.8906], [79.2284, 23.8907], [79.2284, 23.8908], [79.2284, 23.8909], [79.2283, 23.8909], [79.2283, 23.8908], [79.2281, 23.891], [79.2281, 23.8911], [79.228, 23.8911], [79.228, 23.8912], [79.2281, 23.8914], [79.2281, 23.8917], [79.2283, 23.8917], [79.2284, 23.892], [79.2271, 23.8924], [79.2264, 23.8926], [79.2255, 23.8928], [79.2241, 23.8931], [79.2234, 23.8933], [79.2227, 23.8935], [79.222, 23.8937], [79.2211, 23.8939], [79.2203, 23.8941], [79.2198, 23.8942], [79.2191, 23.8944], [79.2184, 23.8946], [79.2179, 23.8948], [79.2174, 23.8949], [79.2168, 23.8951], [79.216, 23.8953], [79.2153, 23.8954], [79.2143, 23.8957], [79.214, 23.8957], [79.2135, 23.8959], [79.2132, 23.8959], [79.2127, 23.8961], [79.2123, 23.8962], [79.2119, 23.8963], [79.2118, 23.8963], [79.2117, 23.8964], [79.2116, 23.8964], [79.2114, 23.8965], [79.2113, 23.8966], [79.2112, 23.8967], [79.2108, 23.8971], [79.2103, 23.8976], [79.21, 23.8979], [79.2098, 23.898], [79.2097, 23.8981], [79.2096, 23.8981], [79.2099, 23.8989], [79.2092, 23.8991], [79.2082, 23.8994], [79.207, 23.8999], [79.2061, 23.9002], [79.2049, 23.9006], [79.2039, 23.901], [79.2026, 23.9016], [79.2015, 23.902], [79.2002, 23.9026], [79.2001, 23.9026], [79.1992, 23.903], [79.1991, 23.903], [79.1979, 23.9035], [79.1968, 23.904], [79.1966, 23.9041], [79.1965, 23.9042], [79.1963, 23.9038], [79.1962, 23.9038], [79.1962, 23.9037], [79.1961, 23.9037], [79.196, 23.9037], [79.1959, 23.9037], [79.1955, 23.9039], [79.1954, 23.9039], [79.1953, 23.9039], [79.1952, 23.9038], [79.1951, 23.9037], [79.195, 23.9037], [79.195, 23.9036], [79.1949, 23.9036], [79.1948, 23.9034], [79.1947, 23.9031], [79.1946, 23.9029], [79.1945, 23.9026], [79.1944, 23.9025], [79.1942, 23.9026], [79.1939, 23.9027], [79.1938, 23.9028], [79.1935, 23.9029], [79.1932, 23.9031], [79.193, 23.9032], [79.1929, 23.9032], [79.1928, 23.9032], [79.1927, 23.9032], [79.1924, 23.9032], [79.1918, 23.9033], [79.1913, 23.9033], [79.1909, 23.9033], [79.191, 23.9034], [79.1912, 23.9036], [79.1913, 23.9037], [79.1914, 23.9038], [79.1916, 23.9041], [79.1917, 23.9043], [79.1918, 23.9044], [79.1919, 23.9045], [79.1918, 23.9045], [79.1917, 23.9046], [79.1917, 23.9047], [79.1918, 23.9047], [79.1918, 23.9048], [79.1916, 23.905], [79.1918, 23.9052], [79.1917, 23.9052], [79.1913, 23.9054], [79.1911, 23.9055], [79.1904, 23.9058], [79.1899, 23.906], [79.1896, 23.9061], [79.189, 23.9063], [79.1891, 23.9067], [79.1891, 23.9068], [79.189, 23.9069], [79.1889, 23.9069], [79.1885, 23.907], [79.1885, 23.9071], [79.1886, 23.9071], [79.1887, 23.9071], [79.1888, 23.9071], [79.1889, 23.9071], [79.189, 23.9071], [79.189, 23.9072], [79.1891, 23.9074], [79.1891, 23.9075], [79.1892, 23.9075], [79.1893, 23.9075], [79.1894, 23.9075], [79.1894, 23.9074], [79.1896, 23.9073], [79.1897, 23.9073], [79.1898, 23.9073], [79.19, 23.9074], [79.1901, 23.9075], [79.1902, 23.9076], [79.1903, 23.9076], [79.1904, 23.9077], [79.1905, 23.9077], [79.1907, 23.9077], [79.1908, 23.9078], [79.1908, 23.9079], [79.1908, 23.908], [79.1908, 23.9082], [79.1908, 23.9084], [79.1907, 23.9084], [79.1906, 23.9085], [79.1905, 23.9086], [79.1904, 23.9086], [79.1903, 23.9087], [79.1903, 23.9088], [79.1903, 23.9089], [79.1903, 23.909], [79.1905, 23.9091], [79.1906, 23.9091], [79.1908, 23.9091], [79.1909, 23.9091], [79.1911, 23.909], [79.1912, 23.909], [79.1913, 23.909], [79.1914, 23.909], [79.1915, 23.9091], [79.1915, 23.9092], [79.1915, 23.9094], [79.1914, 23.9095], [79.1918, 23.9095], [79.192, 23.9095], [79.1923, 23.9094], [79.1926, 23.9094], [79.1932, 23.9092], [79.1939, 23.9091]]]}, "properties": {"objectid": 34788, "statename": "Madhya Pradesh", "statecode": "23", "districtname": null, "districtcode": "428", "ulbname": "Patharia", "ulbcode": "802165", "wardname": "", "wardcode": "1", "id": null, "status": "APPROVED", "misglobalid": null, "approved_by": null, "createdate": 1636715434000, "updateddate": 1642856284000, "globalid": null, "gisglobalid": "d338c472-a753-423d-ba40-35321c747515", "remark": "", "st_area(shape)": 0.00047387528328526933, "st_perimeter(shape)": 0.18305102662317338}}, {"type": "Feature", "geometry": {"type": "Polygon", "coordinates": [[[79.1968, 23.904], [79.1979, 23.9035], [79.1991, 23.903], [79.1989, 23.9028], [79.1988, 23.9028], [79.1988, 23.9027], [79.1987, 23.9027], [79.1987, 23.9026], [79.1987, 23.9025], [79.1986, 23.9023], [79.1985, 23.9022], [79.1985, 23.9021], [79.1984, 23.9021], [79.1984, 23.902], [79.1983, 23.9019], [79.1982, 23.9018], [79.1982, 23.9017], [79.1982, 23.9018], [79.1981, 23.9019], [79.198, 23.9019], [79.1979, 23.902], [79.1977, 23.902], [79.1976, 23.902], [79.1975, 23.902], [79.1974, 23.9021], [79.1973, 23.9021], [79.1972, 23.9022], [79.197, 23.9022], [79.1968, 23.9023], [79.1965, 23.9024], [79.1962, 23.9025], [79.1961, 23.9026], [79.196, 23.9026], [79.1958, 23.9027], [79.1956, 23.9027], [79.1954, 23.9028], [79.1949, 23.9031], [79.1948, 23.9031], [79.1947, 23.9031], [79.1948, 23.9034], [79.1949, 23.9036], [79.195, 23.9036], [79.195, 23.9037], [79.1951, 23.9037], [79.1952, 23.9038], [79.1953, 23.9039], [79.1954, 23.9039], [79.1955, 23.9039], [79.1959, 23.9037], [79.196, 23.9037], [79.1961, 23.9037], [79.1962, 23.9037], [79.1962, 23.9038], [79.1963, 23.9038], [79.1965, 23.9042], [79.1966, 23.9041], [79.1968, 23.904]]]}, "properties": {"objectid": 35423, "statename": "Madhya Pradesh", "statecode": "23", "districtname": null, "districtcode": "428", "ulbname": "Patharia", "ulbcode": "802165", "wardname": "", "wardcode": "2", "id": null, "status": "APPROVED", "misglobalid": null, "approved_by": null, "createdate": 1636715450000, "updateddate": 1642856293000, "globalid": null, "gisglobalid": "6a7e3731-b5f0-4ce3-8544-fa9c4610a754", "remark": "", "st_area(shape)": 5.322744185651215e-06, "st_perimeter(shape)": 0.010658275481182013}}, {"type": "Feature", "geometry": {"type": "Polygon", "coordinates": [[[79.1949, 23.9031], [79.1954, 23.9028], [79.1956, 23.9027], [79.1958, 23.9027], [79.196, 23.9026], [79.1961, 23.9026], [79.1962, 23.9025], [79.1965, 23.9024], [79.1968, 23.9023], [79.197, 23.9022], [79.1972, 23.9022], [79.1973, 23.9021], [79.1974, 23.9021], [79.1975, 23.902], [79.1976, 23.902], [79.1977, 23.902], [79.1979, 23.902], [79.198, 23.9019], [79.1981, 23.9019], [79.1982, 23.9018], [79.1982, 23.9017], [79.1982, 23.9018], [79.1983, 23.9019], [79.1984, 23.902], [79.1984, 23.9021], [79.1985, 23.9021], [79.1985, 23.9022], [79.1986, 23.9023], [79.1987, 23.9025], [79.1987, 23.9026], [79.1987, 23.9027], [79.1988, 23.9027], [79.1988, 23.9028], [79.1989, 23.9028], [79.1991, 23.903], [79.1992, 23.903], [79.2001, 23.9026], [79.1998, 23.9019], [79.1996, 23.9018], [79.1996, 23.9017], [79.1995, 23.9016], [79.1994, 23.9016], [79.1993, 23.9015], [79.1991, 23.9011], [79.1988, 23.9009], [79.1988, 23.9008], [79.1987, 23.9008], [79.1987, 23.9007], [79.1986, 23.9006], [79.1985, 23.9007], [79.1984, 23.9007], [79.1983, 23.9007], [79.1982, 23.9008], [79.1981, 23.9008], [79.1981, 23.9009], [79.198, 23.9009], [79.1979, 23.9009], [79.1979, 23.901], [79.1978, 23.9009], [79.1977, 23.9009], [79.1977, 23.901], [79.1977, 23.9011], [79.1976, 23.9011], [79.1975, 23.9011], [79.1976, 23.9012], [79.1975, 23.9012], [79.1974, 23.9012], [79.1972, 23.9011], [79.1971, 23.9011], [79.1969, 23.901], [79.1968, 23.901], [79.1967, 23.901], [79.1965, 23.9012], [79.1965, 23.9013], [79.1964, 23.9013], [79.1963, 23.9014], [79.1962, 23.9014], [79.1961, 23.9015], [79.196, 23.9015], [79.1958, 23.9016], [79.1957, 23.9016], [79.1954, 23.9017], [79.1953, 23.9016], [79.1952, 23.9016], [79.195, 23.9017], [79.1949, 23.9017], [79.1949, 23.9015], [79.1941, 23.9018], [79.1943, 23.9021], [79.1944, 23.9025], [79.1945, 23.9026], [79.1946, 23.9029], [79.1947, 23.9031], [79.1948, 23.9031], [79.1949, 23.9031]]]}, "properties": {"objectid": 35154, "statename": "Madhya Pradesh", "statecode": "23", "districtname": null, "districtcode": "428", "ulbname": "Patharia", "ulbcode": "802165", "wardname": "", "wardcode": "3", "id": null, "status": "APPROVED", "misglobalid": null, "approved_by": null, "createdate": 1636715462000, "updateddate": 1642856301000, "globalid": null, "gisglobalid": "2ac93953-eddd-40fb-893b-3e44758cd56e", "remark": "", "st_area(shape)": 6.915933432383072e-06, "st_perimeter(shape)": 0.01617503887525787}}, {"type": "Feature", "geometry": {"type": "Polygon", "coordinates": [[[79.1941, 23.9018], [79.1949, 23.9015], [79.1949, 23.9017], [79.195, 23.9017], [79.1952, 23.9016], [79.1953, 23.9016], [79.1954, 23.9017], [79.1957, 23.9016], [79.1958, 23.9016], [79.196, 23.9015], [79.1961, 23.9015], [79.1962, 23.9014], [79.1963, 23.9014], [79.1964, 23.9013], [79.1965, 23.9013], [79.1965, 23.9012], [79.1967, 23.901], [79.1968, 23.901], [79.1969, 23.901], [79.1971, 23.9011], [79.1972, 23.9011], [79.1974, 23.9012], [79.1975, 23.9012], [79.1976, 23.9012], [79.1975, 23.9011], [79.1976, 23.9011], [79.1977, 23.9011], [79.1977, 23.901], [79.1977, 23.9009], [79.1979, 23.9007], [79.1978, 23.9006], [79.1977, 23.9005], [79.1976, 23.9006], [79.1976, 23.9005], [79.1975, 23.9004], [79.1974, 23.9004], [79.1973, 23.9003], [79.1973, 23.9002], [79.1974, 23.9002], [79.1974, 23.9001], [79.1974, 23.9], [79.1974, 23.8999], [79.1974, 23.8998], [79.1974, 23.8996], [79.1959, 23.8996], [79.1955, 23.8997], [79.1954, 23.8997], [79.1953, 23.8997], [79.1951, 23.8997], [79.1949, 23.8998], [79.1946, 23.8998], [79.1943, 23.8999], [79.1938, 23.9], [79.1938, 23.9001], [79.1938, 23.9002], [79.1938, 23.9003], [79.1937, 23.9004], [79.1937, 23.9005], [79.1939, 23.9011], [79.194, 23.9016], [79.1941, 23.9017], [79.1941, 23.9018]]]}, "properties": {"objectid": 34789, "statename": "Madhya Pradesh", "statecode": "23", "districtname": null, "districtcode": "428", "ulbname": "Patharia", "ulbcode": "802165", "wardname": "", "wardcode": "4", "id": null, "status": "APPROVED", "misglobalid": null, "approved_by": null, "createdate": 1636715474000, "updateddate": 1642856309000, "globalid": null, "gisglobalid": "eb407f1c-bbf4-441c-adbb-e50535b75d66", "remark": "", "st_area(shape)": 6.394758861589233e-06, "st_perimeter(shape)": 0.011737396799929568}}, {"type": "Feature", "geometry": {"type": "Polygon", "coordinates": [[[79.2015, 23.902], [79.2026, 23.9016], [79.2039, 23.901], [79.2049, 23.9006], [79.2061, 23.9002], [79.207, 23.8999], [79.2082, 23.8994], [79.2092, 23.8991], [79.2099, 23.8989], [79.2096, 23.8981], [79.2095, 23.8981], [79.2094, 23.8981], [79.209, 23.8979], [79.2082, 23.8976], [79.2079, 23.8975], [79.2076, 23.8973], [79.2075, 23.8973], [79.2074, 23.8973], [79.2073, 23.8973], [79.2072, 23.8973], [79.2071, 23.8973], [79.207, 23.8973], [79.2069, 23.8973], [79.2068, 23.8974], [79.2067, 23.8974], [79.2065, 23.8975], [79.2061, 23.8976], [79.2061, 23.8975], [79.2059, 23.8969], [79.2059, 23.8968], [79.2058, 23.8968], [79.2057, 23.8968], [79.2048, 23.8969], [79.2045, 23.8964], [79.2045, 23.8963], [79.2044, 23.8963], [79.2042, 23.8964], [79.2036, 23.8965], [79.2033, 23.8965], [79.2031, 23.8966], [79.2032, 23.8971], [79.2023, 23.8973], [79.202, 23.8974], [79.2019, 23.8973], [79.2019, 23.8972], [79.2018, 23.8972], [79.2017, 23.8971], [79.2015, 23.8969], [79.2014, 23.8968], [79.2013, 23.8968], [79.2012, 23.8967], [79.2011, 23.8966], [79.201, 23.8966], [79.2006, 23.8965], [79.2005, 23.8965], [79.2004, 23.8965], [79.2003, 23.8965], [79.2002, 23.8966], [79.2001, 23.8966], [79.2, 23.8967], [79.1999, 23.8968], [79.1998, 23.8969], [79.1998, 23.897], [79.1998, 23.8971], [79.1998, 23.8972], [79.1999, 23.8972], [79.1999, 23.8974], [79.2, 23.8977], [79.2001, 23.8978], [79.2002, 23.8979], [79.2002, 23.898], [79.2003, 23.898], [79.2004, 23.8981], [79.2005, 23.8982], [79.2006, 23.8984], [79.2006, 23.8985], [79.2007, 23.8985], [79.2007, 23.8986], [79.2008, 23.8989], [79.2009, 23.899], [79.201, 23.8991], [79.2011, 23.8991], [79.2012, 23.8991], [79.2012, 23.8992], [79.2013, 23.8992], [79.2014, 23.8992], [79.2015, 23.8992], [79.2015, 23.8993], [79.2014, 23.8993], [79.2013, 23.8993], [79.2013, 23.8994], [79.2014, 23.8994], [79.2012, 23.8995], [79.201, 23.8995], [79.2009, 23.8995], [79.2007, 23.8994], [79.2005, 23.8993], [79.2001, 23.8991], [79.1999, 23.8991], [79.1995, 23.899], [79.1991, 23.8988], [79.1989, 23.8988], [79.1986, 23.8987], [79.1984, 23.8986], [79.1981, 23.8985], [79.198, 23.8984], [79.1979, 23.8984], [79.1973, 23.8981], [79.1967, 23.8978], [79.1966, 23.8978], [79.1965, 23.8977], [79.1964, 23.8977], [79.1961, 23.8976], [79.196, 23.8975], [79.1957, 23.8974], [79.1952, 23.8973], [79.1951, 23.8974], [79.1951, 23.8975], [79.1951, 23.8976], [79.195, 23.8976], [79.195, 23.8977], [79.195, 23.8978], [79.195, 23.8979], [79.195, 23.898], [79.1951, 23.898], [79.1951, 23.8981], [79.1952, 23.8981], [79.1952, 23.8982], [79.1955, 23.8987], [79.1952, 23.8989], [79.1951, 23.8989], [79.1951, 23.899], [79.1952, 23.8994], [79.1954, 23.8994], [79.1954, 23.8995], [79.1955, 23.8995], [79.1955, 23.8996], [79.1954, 23.8996], [79.1954, 23.8997], [79.1955, 23.8997], [79.1959, 23.8996], [79.1974, 23.8996], [79.1974, 23.8998], [79.1974, 23.8999], [79.1974, 23.9], [79.1974, 23.9001], [79.1974, 23.9002], [79.1973, 23.9002], [79.1973, 23.9003], [79.1974, 23.9004], [79.1975, 23.9004], [79.1975, 23.9005], [79.1976, 23.9005], [79.1976, 23.9006], [79.1977, 23.9005], [79.1978, 23.9006], [79.1979, 23.9007], [79.1978, 23.9008], [79.1977, 23.9009], [79.1978, 23.9009], [79.1979, 23.901], [79.1979, 23.9009], [79.198, 23.9009], [79.1981, 23.9009], [79.1981, 23.9008], [79.1982, 23.9008], [79.1983, 23.9007], [79.1984, 23.9007], [79.1985, 23.9007], [79.1986, 23.9006], [79.1987, 23.9007], [79.1987, 23.9008], [79.1988, 23.9008], [79.1988, 23.9009], [79.1991, 23.9011], [79.1993, 23.9015], [79.1994, 23.9016], [79.1995, 23.9016], [79.1996, 23.9017], [79.1996, 23.9018], [79.1998, 23.9019], [79.2001, 23.9026], [79.2002, 23.9026], [79.2015, 23.902]]]}, "properties": {"objectid": 35155, "statename": "Madhya Pradesh", "statecode": "23", "districtname": null, "districtcode": "428", "ulbname": "Patharia", "ulbcode": "802165", "wardname": "", "wardcode": "5", "id": null, "status": "APPROVED", "misglobalid": null, "approved_by": null, "createdate": 1636715487000, "updateddate": 1642856316000, "globalid": null, "gisglobalid": "0ff1dc21-5b6f-46ea-86cb-cb3369952c11", "remark": "", "st_area(shape)": 4.4584813626532e-05, "st_perimeter(shape)": 0.0444375825090284}}, {"type": "Feature", "geometry": {"type": "Polygon", "coordinates": [[[79.1955, 23.8996], [79.1955, 23.8995], [79.1954, 23.8995], [79.1954, 23.8994], [79.1952, 23.8994], [79.1951, 23.899], [79.1951, 23.8989], [79.1952, 23.8989], [79.1955, 23.8987], [79.1952, 23.8982], [79.1952, 23.8981], [79.1951, 23.8981], [79.1951, 23.898], [79.195, 23.898], [79.195, 23.8979], [79.195, 23.8978], [79.195, 23.8977], [79.195, 23.8976], [79.1951, 23.8976], [79.1951, 23.8975], [79.1951, 23.8974], [79.1952, 23.8973], [79.1951, 23.8973], [79.195, 23.8973], [79.1947, 23.8973], [79.1946, 23.8973], [79.1945, 23.8974], [79.1945, 23.8973], [79.1944, 23.8972], [79.1943, 23.8972], [79.1942, 23.8969], [79.1941, 23.8969], [79.194, 23.8968], [79.1938, 23.8967], [79.1937, 23.8967], [79.1937, 23.8965], [79.1936, 23.8965], [79.1936, 23.8966], [79.1935, 23.8967], [79.1934, 23.8968], [79.1934, 23.8969], [79.1933, 23.897], [79.1934, 23.897], [79.1934, 23.8971], [79.1935, 23.8973], [79.1935, 23.8974], [79.1935, 23.8976], [79.1936, 23.8977], [79.1936, 23.8979], [79.1937, 23.8981], [79.1937, 23.8982], [79.1937, 23.8983], [79.1938, 23.8985], [79.1938, 23.8986], [79.1939, 23.8988], [79.1939, 23.8989], [79.1939, 23.899], [79.194, 23.8992], [79.194, 23.8993], [79.1939, 23.8994], [79.1939, 23.8997], [79.1939, 23.8999], [79.1938, 23.8999], [79.1938, 23.9], [79.1943, 23.8999], [79.1946, 23.8998], [79.1949, 23.8998], [79.1951, 23.8997], [79.1953, 23.8997], [79.1954, 23.8997], [79.1954, 23.8996], [79.1955, 23.8996]]]}, "properties": {"objectid": 35156, "statename": "Madhya Pradesh", "statecode": "23", "districtname": null, "districtcode": "428", "ulbname": "Patharia", "ulbcode": "802165", "wardname": "", "wardcode": "6", "id": null, "status": "APPROVED", "misglobalid": null, "approved_by": null, "createdate": 1636715508000, "updateddate": 1642856325000, "globalid": null, "gisglobalid": "014027a7-30f3-455c-80d2-8138e9931f07", "remark": "", "st_area(shape)": 4.188612416620642e-06, "st_perimeter(shape)": 0.010766107826357356}}, {"type": "Feature", "geometry": {"type": "Polygon", "coordinates": [[[79.201, 23.8995], [79.2012, 23.8995], [79.2014, 23.8994], [79.2013, 23.8994], [79.2013, 23.8993], [79.2014, 23.8993], [79.2015, 23.8993], [79.2015, 23.8992], [79.2014, 23.8992], [79.2013, 23.8992], [79.2012, 23.8992], [79.2012, 23.8991], [79.2011, 23.8991], [79.201, 23.8991], [79.2009, 23.899], [79.2008, 23.8989], [79.2007, 23.8986], [79.2007, 23.8985], [79.2006, 23.8985], [79.2006, 23.8984], [79.2005, 23.8982], [79.2004, 23.8981], [79.2003, 23.898], [79.2002, 23.898], [79.2002, 23.8979], [79.2001, 23.8978], [79.2, 23.8977], [79.1999, 23.8974], [79.1999, 23.8972], [79.1998, 23.8972], [79.1998, 23.8971], [79.1998, 23.897], [79.1998, 23.8969], [79.1999, 23.8968], [79.2, 23.8967], [79.2001, 23.8966], [79.2002, 23.8966], [79.2003, 23.8965], [79.2004, 23.8965], [79.2005, 23.8965], [79.2006, 23.8965], [79.201, 23.8966], [79.2011, 23.8966], [79.2012, 23.8967], [79.2013, 23.8968], [79.2014, 23.8968], [79.2015, 23.8969], [79.2017, 23.8971], [79.2018, 23.8972], [79.2019, 23.8972], [79.2019, 23.8973], [79.202, 23.8974], [79.2023, 23.8973], [79.2032, 23.8971], [79.2031, 23.8966], [79.2033, 23.8965], [79.2036, 23.8965], [79.2042, 23.8964], [79.2044, 23.8963], [79.2045, 23.8963], [79.2045, 23.8964], [79.2048, 23.8969], [79.2057, 23.8968], [79.2058, 23.8968], [79.2059, 23.8968], [79.2059, 23.8969], [79.2061, 23.8975], [79.2061, 23.8976], [79.2065, 23.8975], [79.2067, 23.8974], [79.2068, 23.8974], [79.2069, 23.8973], [79.207, 23.8973], [79.2071, 23.8973], [79.2072, 23.8973], [79.2073, 23.8973], [79.2074, 23.8973], [79.2075, 23.8973], [79.2076, 23.8973], [79.2079, 23.8975], [79.2082, 23.8976], [79.209, 23.8979], [79.2094, 23.8981], [79.2095, 23.8981], [79.2096, 23.8981], [79.2097, 23.8981], [79.2098, 23.898], [79.21, 23.8979], [79.2103, 23.8976], [79.2108, 23.8971], [79.2112, 23.8967], [79.2113, 23.8966], [79.2114, 23.8965], [79.2116, 23.8964], [79.2115, 23.8964], [79.2114, 23.8963], [79.2114, 23.8962], [79.2115, 23.8961], [79.2116, 23.896], [79.2117, 23.8959], [79.2117, 23.8958], [79.2118, 23.8957], [79.2118, 23.8956], [79.2117, 23.8955], [79.2117, 23.8954], [79.2116, 23.8953], [79.2116, 23.8952], [79.2115, 23.8952], [79.2115, 23.8951], [79.2113, 23.8949], [79.211, 23.8947], [79.2107, 23.8945], [79.2106, 23.8944], [79.2104, 23.8944], [79.2102, 23.8945], [79.21, 23.8945], [79.2098, 23.8946], [79.2097, 23.8946], [79.2097, 23.8945], [79.2096, 23.8944], [79.2095, 23.8944], [79.2095, 23.8945], [79.2094, 23.8945], [79.2091, 23.8946], [79.2089, 23.8946], [79.2088, 23.8946], [79.2088, 23.8947], [79.2087, 23.8947], [79.2087, 23.8948], [79.2086, 23.8948], [79.2083, 23.8948], [79.208, 23.8949], [79.2079, 23.8949], [79.2079, 23.8948], [79.2078, 23.8948], [79.2077, 23.8948], [79.2076, 23.8948], [79.2075, 23.8948], [79.2074, 23.8946], [79.2073, 23.8946], [79.2071, 23.8945], [79.207, 23.8944], [79.2069, 23.8943], [79.2067, 23.894], [79.2066, 23.8939], [79.2066, 23.8937], [79.2066, 23.8935], [79.2066, 23.8932], [79.2065, 23.893], [79.2065, 23.8928], [79.2064, 23.8927], [79.2063, 23.8927], [79.2061, 23.8928], [79.2058, 23.8929], [79.2057, 23.8929], [79.2057, 23.8928], [79.2057, 23.8927], [79.2057, 23.8926], [79.2059, 23.8924], [79.206, 23.8922], [79.2059, 23.8922], [79.206, 23.8921], [79.2061, 23.8919], [79.2062, 23.8919], [79.2061, 23.8919], [79.2061, 23.8918], [79.206, 23.8918], [79.206, 23.8919], [79.2059, 23.8918], [79.2058, 23.8918], [79.2057, 23.8918], [79.2057, 23.8919], [79.2056, 23.8919], [79.2055, 23.8919], [79.2054, 23.8919], [79.2053, 23.8919], [79.2052, 23.892], [79.205, 23.8921], [79.2048, 23.8921], [79.2047, 23.8922], [79.2045, 23.8923], [79.2042, 23.8923], [79.204, 23.8924], [79.2039, 23.8924], [79.2038, 23.8923], [79.2037, 23.8922], [79.2036, 23.8922], [79.2035, 23.8922], [79.2033, 23.8922], [79.2031, 23.8923], [79.203, 23.8923], [79.2029, 23.8923], [79.2028, 23.8923], [79.2027, 23.8924], [79.2026, 23.8925], [79.2025, 23.8927], [79.2023, 23.893], [79.2022, 23.8932], [79.2021, 23.8933], [79.202, 23.8933], [79.2018, 23.8933], [79.2014, 23.8934], [79.2012, 23.8935], [79.2009, 23.8935], [79.2007, 23.8936], [79.2006, 23.8936], [79.2005, 23.8936], [79.2004, 23.8935], [79.2003, 23.8935], [79.2002, 23.8935], [79.2001, 23.8935], [79.1999, 23.8935], [79.1997, 23.8935], [79.1996, 23.8935], [79.1993, 23.8935], [79.1992, 23.8936], [79.199, 23.8936], [79.1989, 23.8936], [79.1988, 23.8936], [79.1985, 23.8936], [79.1984, 23.8936], [79.1983, 23.8937], [79.1982, 23.8937], [79.1981, 23.8937], [79.198, 23.8937], [79.1979, 23.8937], [79.1979, 23.8938], [79.1978, 23.8938], [79.1978, 23.8939], [79.1978, 23.894], [79.1977, 23.8941], [79.1976, 23.8941], [79.1975, 23.8941], [79.1974, 23.8941], [79.1973, 23.8941], [79.1972, 23.8941], [79.1971, 23.8941], [79.197, 23.8941], [79.1969, 23.8941], [79.1968, 23.8941], [79.1968, 23.8942], [79.1967, 23.8943], [79.1967, 23.8944], [79.1966, 23.8945], [79.1965, 23.8945], [79.1963, 23.8946], [79.1962, 23.8947], [79.1961, 23.8948], [79.196, 23.8948], [79.1959, 23.8947], [79.1958, 23.8946], [79.1957, 23.8946], [79.1957, 23.8945], [79.1956, 23.8946], [79.1955, 23.8946], [79.1952, 23.8946], [79.1951, 23.8947], [79.1951, 23.8949], [79.1948, 23.895], [79.1946, 23.895], [79.1945, 23.895], [79.1945, 23.8949], [79.1943, 23.895], [79.1942, 23.895], [79.1941, 23.895], [79.194, 23.895], [79.1939, 23.895], [79.1938, 23.8949], [79.1938, 23.895], [79.1938, 23.8951], [79.1937, 23.8951], [79.1937, 23.8952], [79.1937, 23.8953], [79.1936, 23.8953], [79.1936, 23.8955], [79.1936, 23.8956], [79.1936, 23.8957], [79.1936, 23.8958], [79.1937, 23.8958], [79.1937, 23.8959], [79.1937, 23.896], [79.1937, 23.8961], [79.1936, 23.8962], [79.1934, 23.8962], [79.1933, 23.8963], [79.1932, 23.8963], [79.1931, 23.8963], [79.193, 23.8963], [79.193, 23.8964], [79.1931, 23.8966], [79.1932, 23.8967], [79.1932, 23.8968], [79.1933, 23.897], [79.1934, 23.8969], [79.1934, 23.8968], [79.1935, 23.8967], [79.1936, 23.8966], [79.1936, 23.8965], [79.1937, 23.8965], [79.1937, 23.8967], [79.1938, 23.8967], [79.194, 23.8968], [79.1941, 23.8969], [79.1942, 23.8969], [79.1943, 23.8972], [79.1944, 23.8972], [79.1945, 23.8973], [79.1945, 23.8974], [79.1946, 23.8973], [79.1947, 23.8973], [79.195, 23.8973], [79.1951, 23.8973], [79.1952, 23.8973], [79.1957, 23.8974], [79.196, 23.8975], [79.1961, 23.8976], [79.1964, 23.8977], [79.1965, 23.8977], [79.1966, 23.8978], [79.1967, 23.8978], [79.1973, 23.8981], [79.1979, 23.8984], [79.198, 23.8984], [79.1981, 23.8985], [79.1984, 23.8986], [79.1986, 23.8987], [79.1989, 23.8988], [79.1991, 23.8988], [79.1995, 23.899], [79.1999, 23.8991], [79.2001, 23.8991], [79.2005, 23.8993], [79.2007, 23.8994], [79.2009, 23.8995], [79.201, 23.8995]]]}, "properties": {"objectid": 35157, "statename": "Madhya Pradesh", "statecode": "23", "districtname": null, "districtcode": "428", "ulbname": "Patharia", "ulbcode": "802165", "wardname": "", "wardcode": "7", "id": null, "status": "APPROVED", "misglobalid": null, "approved_by": null, "createdate": 1636715521000, "updateddate": 1642856334000, "globalid": null, "gisglobalid": "2c73d4a0-9370-4b94-bcaa-da6785fb161b", "remark": "", "st_area(shape)": 6.629139768222776e-05, "st_perimeter(shape)": 0.054926560320377744}}, {"type": "Feature", "geometry": {"type": "Polygon", "coordinates": [[[79.1938, 23.895], [79.1938, 23.8949], [79.1939, 23.895], [79.194, 23.895], [79.1941, 23.895], [79.1942, 23.895], [79.1943, 23.895], [79.1945, 23.8949], [79.1945, 23.895], [79.1946, 23.895], [79.1948, 23.895], [79.1951, 23.8949], [79.1951, 23.8947], [79.1952, 23.8946], [79.1955, 23.8946], [79.1956, 23.8946], [79.1957, 23.8945], [79.1957, 23.8946], [79.1958, 23.8946], [79.1959, 23.8947], [79.196, 23.8948], [79.1961, 23.8948], [79.1962, 23.8947], [79.1963, 23.8946], [79.1965, 23.8945], [79.1966, 23.8945], [79.1967, 23.8944], [79.1967, 23.8943], [79.1968, 23.8942], [79.1968, 23.8941], [79.1969, 23.8941], [79.197, 23.8941], [79.1971, 23.8941], [79.1972, 23.8941], [79.1973, 23.8941], [79.1974, 23.8941], [79.1975, 23.8941], [79.1976, 23.8941], [79.1977, 23.8941], [79.1978, 23.894], [79.1978, 23.8939], [79.1978, 23.8938], [79.1979, 23.8938], [79.1979, 23.8937], [79.198, 23.8937], [79.1981, 23.8937], [79.1982, 23.8937], [79.1983, 23.8937], [79.1984, 23.8936], [79.1985, 23.8936], [79.1988, 23.8936], [79.1989, 23.8936], [79.199, 23.8936], [79.1992, 23.8936], [79.1993, 23.8935], [79.1996, 23.8935], [79.1997, 23.8935], [79.1999, 23.8935], [79.2001, 23.8935], [79.2002, 23.8935], [79.2003, 23.8935], [79.2004, 23.8935], [79.2005, 23.8936], [79.2006, 23.8936], [79.2007, 23.8936], [79.2009, 23.8935], [79.2012, 23.8935], [79.2014, 23.8934], [79.2018, 23.8933], [79.202, 23.8933], [79.2021, 23.8933], [79.2022, 23.8932], [79.2023, 23.893], [79.2025, 23.8927], [79.2026, 23.8925], [79.2027, 23.8924], [79.2028, 23.8923], [79.2029, 23.8923], [79.203, 23.8923], [79.2031, 23.8923], [79.2033, 23.8922], [79.2035, 23.8922], [79.2036, 23.8922], [79.2037, 23.8922], [79.2038, 23.8923], [79.2039, 23.8924], [79.204, 23.8924], [79.2042, 23.8923], [79.2045, 23.8923], [79.2047, 23.8922], [79.2048, 23.8921], [79.205, 23.8921], [79.2052, 23.892], [79.2053, 23.8919], [79.2054, 23.8919], [79.2055, 23.8919], [79.2056, 23.8919], [79.2057, 23.8919], [79.2057, 23.8918], [79.2058, 23.8918], [79.2059, 23.8918], [79.206, 23.8919], [79.206, 23.8918], [79.2061, 23.8918], [79.2061, 23.8919], [79.2062, 23.8919], [79.2062, 23.8918], [79.2063, 23.8917], [79.2063, 23.8916], [79.2064, 23.8915], [79.2064, 23.8914], [79.2064, 23.8913], [79.2063, 23.8912], [79.2063, 23.891], [79.2062, 23.8909], [79.2062, 23.8908], [79.2062, 23.8907], [79.2062, 23.8906], [79.2062, 23.8905], [79.2063, 23.8903], [79.2064, 23.8901], [79.2064, 23.8898], [79.2065, 23.8897], [79.2065, 23.8896], [79.2066, 23.8894], [79.2067, 23.8893], [79.2067, 23.8892], [79.2068, 23.8891], [79.2069, 23.889], [79.2069, 23.8889], [79.207, 23.8888], [79.2069, 23.8888], [79.2068, 23.8888], [79.2064, 23.8889], [79.2062, 23.8889], [79.2059, 23.889], [79.2057, 23.8891], [79.2053, 23.8893], [79.205, 23.8896], [79.2046, 23.8897], [79.2044, 23.8898], [79.2042, 23.8898], [79.2041, 23.8898], [79.204, 23.8898], [79.2039, 23.8897], [79.2038, 23.8897], [79.2036, 23.8898], [79.2033, 23.8898], [79.203, 23.8899], [79.2027, 23.8899], [79.2024, 23.89], [79.2021, 23.8901], [79.2019, 23.8902], [79.2017, 23.8902], [79.2016, 23.8903], [79.2015, 23.8903], [79.201, 23.8906], [79.2008, 23.8907], [79.2007, 23.8908], [79.2006, 23.8908], [79.2005, 23.8908], [79.2004, 23.8909], [79.2003, 23.8909], [79.2001, 23.891], [79.1999, 23.891], [79.1998, 23.891], [79.1997, 23.891], [79.1995, 23.891], [79.199, 23.8912], [79.1986, 23.8913], [79.1983, 23.8913], [79.198, 23.8914], [79.1978, 23.8915], [79.1972, 23.8916], [79.1969, 23.8917], [79.1965, 23.8918], [79.1963, 23.8918], [79.1961, 23.8919], [79.196, 23.892], [79.1959, 23.8921], [79.1956, 23.8922], [79.1953, 23.8924], [79.195, 23.8927], [79.1948, 23.8928], [79.1947, 23.8929], [79.1946, 23.893], [79.1945, 23.893], [79.1945, 23.8931], [79.1944, 23.8933], [79.1943, 23.8933], [79.1942, 23.8934], [79.1941, 23.8934], [79.194, 23.8934], [79.1939, 23.8935], [79.1936, 23.8935], [79.1935, 23.8935], [79.1933, 23.8936], [79.1932, 23.8936], [79.1931, 23.8936], [79.1929, 23.8935], [79.1928, 23.8935], [79.1927, 23.8935], [79.1926, 23.8935], [79.1926, 23.8934], [79.1925, 23.8934], [79.1924, 23.8933], [79.1923, 23.8932], [79.1922, 23.8932], [79.1922, 23.8931], [79.1921, 23.8931], [79.1921, 23.893], [79.192, 23.893], [79.1921, 23.8934], [79.1922, 23.8936], [79.1922, 23.8938], [79.1923, 23.8939], [79.1923, 23.8941], [79.1924, 23.8943], [79.1924, 23.8944], [79.1924, 23.8945], [79.1925, 23.8946], [79.1925, 23.8948], [79.1926, 23.8949], [79.1926, 23.8951], [79.1927, 23.8954], [79.1928, 23.8958], [79.1929, 23.8959], [79.1929, 23.8961], [79.193, 23.8962], [79.193, 23.8963], [79.1931, 23.8963], [79.1932, 23.8963], [79.1933, 23.8963], [79.1934, 23.8962], [79.1936, 23.8962], [79.1937, 23.8961], [79.1937, 23.896], [79.1937, 23.8959], [79.1937, 23.8958], [79.1936, 23.8958], [79.1936, 23.8957], [79.1936, 23.8956], [79.1936, 23.8955], [79.1936, 23.8953], [79.1937, 23.8953], [79.1937, 23.8952], [79.1937, 23.8951], [79.1938, 23.8951], [79.1938, 23.895]]]}, "properties": {"objectid": 35158, "statename": "Madhya Pradesh", "statecode": "23", "districtname": null, "districtcode": "428", "ulbname": "Patharia", "ulbcode": "802165", "wardname": "", "wardcode": "8", "id": null, "status": "APPROVED", "misglobalid": null, "approved_by": null, "createdate": 1636715531000, "updateddate": 1642856343000, "globalid": null, "gisglobalid": "09baa35b-67bd-40b8-a527-b500d151f2dc", "remark": "", "st_area(shape)": 3.5194067214142694e-05, "st_perimeter(shape)": 0.03949439223514716}}, {"type": "Feature", "geometry": {"type": "Polygon", "coordinates": [[[79.1864, 23.8948], [79.1873, 23.8947], [79.1874, 23.8948], [79.1879, 23.8944], [79.188, 23.8943], [79.1881, 23.8943], [79.1882, 23.8943], [79.1884, 23.8942], [79.1885, 23.8941], [79.1887, 23.894], [79.1888, 23.894], [79.189, 23.894], [79.1891, 23.8939], [79.1894, 23.8939], [79.1895, 23.8939], [79.1896, 23.8939], [79.1897, 23.8939], [79.1898, 23.8939], [79.1898, 23.8938], [79.1899, 23.8938], [79.1902, 23.8938], [79.1903, 23.8938], [79.1903, 23.8937], [79.1904, 23.8937], [79.1905, 23.8937], [79.1906, 23.8937], [79.1907, 23.8937], [79.1908, 23.8937], [79.191, 23.8937], [79.1911, 23.8936], [79.1913, 23.8936], [79.1915, 23.8936], [79.1916, 23.8936], [79.1917, 23.8936], [79.1918, 23.8935], [79.1918, 23.8936], [79.1918, 23.8937], [79.1918, 23.8938], [79.1918, 23.8939], [79.1918, 23.8941], [79.1918, 23.8943], [79.1918, 23.8944], [79.1918, 23.8946], [79.1921, 23.8945], [79.1922, 23.8945], [79.1922, 23.8944], [79.1923, 23.8944], [79.1924, 23.8944], [79.1924, 23.8943], [79.1923, 23.8941], [79.1923, 23.8939], [79.1922, 23.8938], [79.1922, 23.8936], [79.1921, 23.8934], [79.192, 23.893], [79.1921, 23.893], [79.1921, 23.8931], [79.1922, 23.8931], [79.1922, 23.8932], [79.1923, 23.8932], [79.1924, 23.8933], [79.1925, 23.8934], [79.1926, 23.8934], [79.1926, 23.8935], [79.1927, 23.8935], [79.1928, 23.8935], [79.1929, 23.8935], [79.1931, 23.8936], [79.1932, 23.8936], [79.1933, 23.8936], [79.1935, 23.8935], [79.1936, 23.8935], [79.1939, 23.8935], [79.194, 23.8934], [79.1941, 23.8934], [79.1942, 23.8934], [79.1943, 23.8933], [79.1944, 23.8933], [79.1945, 23.8931], [79.1945, 23.893], [79.1946, 23.893], [79.1947, 23.8929], [79.1948, 23.8928], [79.195, 23.8927], [79.1953, 23.8924], [79.1956, 23.8922], [79.1959, 23.8921], [79.196, 23.892], [79.1961, 23.8919], [79.1963, 23.8918], [79.1965, 23.8918], [79.1969, 23.8917], [79.1972, 23.8916], [79.1978, 23.8915], [79.198, 23.8914], [79.1983, 23.8913], [79.1986, 23.8913], [79.199, 23.8912], [79.1995, 23.891], [79.1997, 23.891], [79.1998, 23.891], [79.1999, 23.891], [79.2001, 23.891], [79.2003, 23.8909], [79.2004, 23.8909], [79.2005, 23.8908], [79.2006, 23.8908], [79.2007, 23.8908], [79.2008, 23.8907], [79.201, 23.8906], [79.2015, 23.8903], [79.2016, 23.8903], [79.2017, 23.8902], [79.2019, 23.8902], [79.2021, 23.8901], [79.2024, 23.89], [79.2027, 23.8899], [79.203, 23.8899], [79.2033, 23.8898], [79.2036, 23.8898], [79.2038, 23.8897], [79.2039, 23.8897], [79.204, 23.8898], [79.2041, 23.8898], [79.2042, 23.8898], [79.2044, 23.8898], [79.2046, 23.8897], [79.205, 23.8896], [79.2053, 23.8893], [79.2057, 23.8891], [79.2059, 23.889], [79.2062, 23.8889], [79.2064, 23.8889], [79.2068, 23.8888], [79.2069, 23.8888], [79.207, 23.8888], [79.2071, 23.8886], [79.2071, 23.8885], [79.2072, 23.8884], [79.2072, 23.8883], [79.2073, 23.8883], [79.2073, 23.8882], [79.2074, 23.8882], [79.2075, 23.8882], [79.2076, 23.8882], [79.2077, 23.8881], [79.2079, 23.888], [79.2083, 23.8878], [79.2084, 23.8878], [79.2085, 23.8878], [79.2086, 23.8876], [79.2086, 23.8875], [79.2087, 23.8875], [79.2087, 23.8874], [79.2088, 23.8873], [79.2087, 23.8872], [79.2087, 23.887], [79.2087, 23.8869], [79.2087, 23.8868], [79.2088, 23.8867], [79.209, 23.8866], [79.2091, 23.8866], [79.2092, 23.8866], [79.2092, 23.8865], [79.2093, 23.8865], [79.2093, 23.8864], [79.2093, 23.8863], [79.2094, 23.8861], [79.2095, 23.8859], [79.2096, 23.8857], [79.2097, 23.8855], [79.2099, 23.8853], [79.21, 23.8851], [79.2102, 23.8848], [79.2102, 23.8847], [79.2101, 23.8844], [79.2101, 23.8843], [79.2103, 23.8842], [79.2104, 23.8841], [79.2105, 23.8839], [79.2105, 23.8838], [79.2105, 23.8837], [79.2105, 23.8836], [79.2104, 23.8833], [79.2102, 23.8832], [79.2101, 23.8831], [79.21, 23.883], [79.2099, 23.8829], [79.2098, 23.8828], [79.2098, 23.8827], [79.2097, 23.8826], [79.2098, 23.8824], [79.2098, 23.8822], [79.2098, 23.882], [79.2098, 23.8819], [79.2097, 23.8818], [79.2096, 23.8817], [79.2095, 23.8817], [79.2094, 23.8816], [79.2093, 23.8814], [79.2092, 23.8814], [79.2086, 23.8816], [79.2085, 23.8816], [79.2076, 23.8805], [79.2075, 23.8806], [79.2073, 23.8807], [79.2072, 23.8807], [79.2071, 23.8807], [79.207, 23.8807], [79.2069, 23.8807], [79.2069, 23.8806], [79.2069, 23.8805], [79.2068, 23.8804], [79.2067, 23.8804], [79.2066, 23.8804], [79.2065, 23.8804], [79.2065, 23.8803], [79.2065, 23.8802], [79.2064, 23.8801], [79.2064, 23.88], [79.2065, 23.88], [79.2065, 23.8799], [79.2064, 23.8798], [79.2063, 23.8798], [79.2062, 23.8798], [79.2062, 23.8799], [79.2062, 23.88], [79.2062, 23.8799], [79.2061, 23.8799], [79.206, 23.8799], [79.206, 23.88], [79.2059, 23.88], [79.2058, 23.88], [79.2058, 23.8801], [79.2057, 23.8801], [79.2056, 23.8801], [79.2055, 23.8801], [79.2055, 23.8802], [79.2055, 23.8803], [79.2054, 23.8803], [79.2053, 23.8803], [79.2052, 23.8804], [79.2051, 23.8804], [79.205, 23.8804], [79.2049, 23.8804], [79.2048, 23.8804], [79.2047, 23.8804], [79.2046, 23.8804], [79.2046, 23.8805], [79.2046, 23.8806], [79.2045, 23.8806], [79.2044, 23.8806], [79.2043, 23.8807], [79.2042, 23.8808], [79.2041, 23.8809], [79.204, 23.8809], [79.204, 23.8808], [79.2039, 23.8807], [79.2039, 23.8806], [79.2039, 23.8805], [79.2039, 23.8804], [79.2038, 23.8803], [79.2037, 23.8802], [79.2037, 23.8801], [79.2037, 23.88], [79.2036, 23.88], [79.2036, 23.8799], [79.2035, 23.8799], [79.2034, 23.8799], [79.2034, 23.88], [79.2035, 23.88], [79.2035, 23.8801], [79.2034, 23.8801], [79.2033, 23.8801], [79.2031, 23.88], [79.203, 23.88], [79.2027, 23.8798], [79.2026, 23.8798], [79.2025, 23.8798], [79.2025, 23.8799], [79.2025, 23.88], [79.2026, 23.88], [79.2026, 23.8801], [79.2026, 23.8802], [79.2027, 23.8802], [79.2027, 23.8803], [79.2026, 23.8803], [79.2025, 23.8803], [79.2025, 23.8804], [79.2024, 23.8804], [79.2023, 23.8805], [79.2023, 23.8806], [79.2022, 23.8807], [79.2021, 23.8807], [79.2021, 23.8806], [79.2021, 23.8805], [79.2021, 23.8804], [79.202, 23.8804], [79.2019, 23.8804], [79.2018, 23.8803], [79.2017, 23.8803], [79.2016, 23.8803], [79.2015, 23.8803], [79.2014, 23.8803], [79.2014, 23.8804], [79.2014, 23.8805], [79.2013, 23.8806], [79.2012, 23.8806], [79.2011, 23.8806], [79.201, 23.8806], [79.2009, 23.8806], [79.2008, 23.8806], [79.2007, 23.8806], [79.2007, 23.8807], [79.2007, 23.8808], [79.2006, 23.8808], [79.2005, 23.8808], [79.2005, 23.8809], [79.2004, 23.8809], [79.2003, 23.8809], [79.2002, 23.8809], [79.2001, 23.8809], [79.2001, 23.8808], [79.2, 23.8808], [79.2, 23.8807], [79.1999, 23.8807], [79.1998, 23.8806], [79.1997, 23.8806], [79.1997, 23.8805], [79.1997, 23.8804], [79.1996, 23.8804], [79.1994, 23.8803], [79.1993, 23.8803], [79.1992, 23.8803], [79.1991, 23.8803], [79.199, 23.8803], [79.199, 23.8804], [79.1989, 23.8804], [79.1989, 23.8805], [79.1989, 23.8806], [79.1988, 23.8808], [79.1989, 23.8809], [79.1988, 23.881], [79.1987, 23.881], [79.1985, 23.881], [79.1984, 23.8811], [79.1982, 23.8812], [79.1979, 23.8813], [79.1979, 23.8814], [79.1978, 23.8816], [79.1977, 23.8817], [79.1976, 23.8818], [79.1975, 23.8819], [79.1973, 23.8821], [79.1972, 23.8822], [79.197, 23.8824], [79.1969, 23.8824], [79.1968, 23.8824], [79.1967, 23.8825], [79.1967, 23.8826], [79.1966, 23.8826], [79.1964, 23.8826], [79.1963, 23.8826], [79.1962, 23.8827], [79.1962, 23.8828], [79.1962, 23.8829], [79.1962, 23.883], [79.1963, 23.8831], [79.1962, 23.8831], [79.1962, 23.8832], [79.1961, 23.8832], [79.1961, 23.8833], [79.196, 23.8833], [79.196, 23.8834], [79.1959, 23.8834], [79.1958, 23.8834], [79.1957, 23.8834], [79.1956, 23.8834], [79.1955, 23.8834], [79.1954, 23.8834], [79.1953, 23.8834], [79.1952, 23.8834], [79.1951, 23.8834], [79.195, 23.8835], [79.1949, 23.8835], [79.1949, 23.8836], [79.1949, 23.8837], [79.195, 23.8837], [79.195, 23.8838], [79.195, 23.8839], [79.1949, 23.8839], [79.1947, 23.884], [79.1946, 23.884], [79.1945, 23.884], [79.1945, 23.8841], [79.1944, 23.8842], [79.1944, 23.8843], [79.1943, 23.8843], [79.1943, 23.8844], [79.1942, 23.8844], [79.1941, 23.8844], [79.194, 23.8844], [79.1939, 23.8844], [79.1938, 23.8844], [79.1938, 23.8843], [79.1937, 23.8841], [79.1936, 23.8841], [79.1936, 23.884], [79.1935, 23.884], [79.1934, 23.884], [79.1933, 23.8843], [79.1932, 23.8844], [79.193, 23.8844], [79.1928, 23.8844], [79.1923, 23.8844], [79.1921, 23.8844], [79.192, 23.8843], [79.1919, 23.8843], [79.1918, 23.8839], [79.1917, 23.8837], [79.1914, 23.8836], [79.1913, 23.8835], [79.191, 23.8834], [79.1908, 23.8833], [79.1898, 23.8822], [79.1895, 23.882], [79.1893, 23.8819], [79.1885, 23.8817], [79.1877, 23.8815], [79.1874, 23.8815], [79.1865, 23.8815], [79.186, 23.8817], [79.1852, 23.8821], [79.1848, 23.8823], [79.1837, 23.8809], [79.1836, 23.8808], [79.1828, 23.8814], [79.1824, 23.8816], [79.1822, 23.8818], [79.1821, 23.8819], [79.182, 23.8819], [79.182, 23.882], [79.1819, 23.882], [79.1817, 23.8821], [79.1811, 23.8824], [79.1809, 23.8826], [79.1807, 23.8827], [79.1803, 23.8829], [79.18, 23.8832], [79.1795, 23.8835], [79.1792, 23.8836], [79.1791, 23.8837], [79.179, 23.8838], [79.1789, 23.8842], [79.1789, 23.8844], [79.1789, 23.8846], [79.1789, 23.8847], [79.1785, 23.885], [79.1785, 23.8851], [79.1785, 23.8852], [79.1785, 23.8853], [79.1784, 23.8854], [79.1784, 23.8855], [79.1783, 23.8855], [79.1782, 23.8855], [79.1777, 23.8857], [79.1769, 23.886], [79.1763, 23.8862], [79.1762, 23.8862], [79.1761, 23.8862], [79.1761, 23.8861], [79.176, 23.8859], [79.1759, 23.8858], [79.1758, 23.8857], [79.1757, 23.8858], [79.1754, 23.8859], [79.1752, 23.886], [79.175, 23.8861], [79.1748, 23.8862], [79.1746, 23.8862], [79.1744, 23.8863], [79.1743, 23.8863], [79.174, 23.8865], [79.1739, 23.8865], [79.1737, 23.8865], [79.1736, 23.8865], [79.1733, 23.8866], [79.1729, 23.8865], [79.1726, 23.8865], [79.1724, 23.8864], [79.1723, 23.8864], [79.172, 23.8864], [79.1718, 23.8864], [79.1716, 23.8863], [79.1713, 23.8863], [79.171, 23.8862], [79.1705, 23.8862], [79.1702, 23.8862], [79.1699, 23.8862], [79.1697, 23.8861], [79.1696, 23.8861], [79.1693, 23.8861], [79.1691, 23.8861], [79.169, 23.8861], [79.1683, 23.8862], [79.1678, 23.8862], [79.1676, 23.8862], [79.1672, 23.8864], [79.1669, 23.8864], [79.1664, 23.8867], [79.1663, 23.8867], [79.1662, 23.8867], [79.1661, 23.8867], [79.166, 23.8866], [79.1656, 23.8867], [79.1654, 23.8868], [79.1652, 23.8869], [79.1652, 23.887], [79.1653, 23.8871], [79.1653, 23.8873], [79.1652, 23.8873], [79.1651, 23.8873], [79.165, 23.8872], [79.1649, 23.8872], [79.1648, 23.8872], [79.1647, 23.8872], [79.1645, 23.8873], [79.1644, 23.8873], [79.1642, 23.8872], [79.1641, 23.8872], [79.164, 23.8872], [79.1639, 23.8872], [79.1638, 23.8872], [79.1636, 23.8872], [79.1632, 23.8873], [79.1629, 23.8873], [79.1628, 23.8874], [79.1627, 23.8874], [79.1626, 23.8875], [79.1624, 23.8875], [79.1623, 23.8876], [79.1622, 23.8876], [79.162, 23.8877], [79.1619, 23.8877], [79.1618, 23.8878], [79.1617, 23.8878], [79.1617, 23.8877], [79.1616, 23.8877], [79.1612, 23.8875], [79.1611, 23.8875], [79.161, 23.8876], [79.1609, 23.8876], [79.1609, 23.8875], [79.1607, 23.8875], [79.1607, 23.8876], [79.1607, 23.8877], [79.1606, 23.8877], [79.1605, 23.8877], [79.1602, 23.8878], [79.1601, 23.8878], [79.1599, 23.8879], [79.1598, 23.888], [79.1597, 23.8882], [79.1596, 23.8885], [79.1596, 23.889], [79.1596, 23.8897], [79.1595, 23.8903], [79.1594, 23.8913], [79.1592, 23.8928], [79.1622, 23.8926], [79.1623, 23.8926], [79.1626, 23.8925], [79.1629, 23.8925], [79.163, 23.8924], [79.1631, 23.8924], [79.1631, 23.8922], [79.1632, 23.8921], [79.1633, 23.8922], [79.1633, 23.8925], [79.1634, 23.8929], [79.1634, 23.8932], [79.1635, 23.8936], [79.1635, 23.8937], [79.1637, 23.8937], [79.1639, 23.8936], [79.1642, 23.8936], [79.1643, 23.8935], [79.1645, 23.8934], [79.1648, 23.8934], [79.1648, 23.8933], [79.1649, 23.8933], [79.1649, 23.8931], [79.165, 23.8927], [79.165, 23.8926], [79.165, 23.8925], [79.165, 23.8922], [79.165, 23.892], [79.1651, 23.892], [79.1652, 23.8919], [79.1654, 23.8917], [79.1656, 23.8916], [79.1657, 23.8915], [79.1658, 23.8915], [79.1659, 23.8914], [79.166, 23.8914], [79.1661, 23.8913], [79.1662, 23.8912], [79.1663, 23.8912], [79.1664, 23.8911], [79.1664, 23.891], [79.1663, 23.8909], [79.1663, 23.8908], [79.1664, 23.8908], [79.1664, 23.8907], [79.1666, 23.8908], [79.1667, 23.8908], [79.1668, 23.8908], [79.167, 23.8908], [79.1671, 23.8908], [79.1674, 23.8909], [79.1676, 23.891], [79.1678, 23.891], [79.1681, 23.891], [79.1684, 23.8911], [79.1686, 23.8911], [79.1689, 23.8912], [79.169, 23.8912], [79.1692, 23.8914], [79.1694, 23.8915], [79.1696, 23.8915], [79.1698, 23.8915], [79.17, 23.8915], [79.1702, 23.8915], [79.1704, 23.8915], [79.1705, 23.8915], [79.1706, 23.8914], [79.1708, 23.8914], [79.1709, 23.8914], [79.1713, 23.8915], [79.1716, 23.8915], [79.1718, 23.8915], [79.1721, 23.8915], [79.1723, 23.8915], [79.1725, 23.8915], [79.1729, 23.8915], [79.1732, 23.8916], [79.1734, 23.8917], [79.1738, 23.8917], [79.1741, 23.8918], [79.1744, 23.8918], [79.1747, 23.8918], [79.1749, 23.8917], [79.1753, 23.8917], [79.1754, 23.8917], [79.1757, 23.8918], [79.1761, 23.8918], [79.1764, 23.8919], [79.177, 23.892], [79.1774, 23.8921], [79.1777, 23.8922], [79.1781, 23.8923], [79.1786, 23.8925], [79.1788, 23.8926], [79.1794, 23.8928], [79.18, 23.8929], [79.1807, 23.8929], [79.1811, 23.893], [79.1814, 23.8931], [79.1819, 23.8933], [79.1823, 23.8934], [79.1826, 23.8935], [79.1827, 23.8936], [79.1829, 23.8938], [79.1832, 23.8939], [79.1834, 23.894], [79.1836, 23.8942], [79.184, 23.8944], [79.1846, 23.8946], [79.1853, 23.8947], [79.186, 23.8948], [79.1864, 23.8948]]]}, "properties": {"objectid": 34790, "statename": "Madhya Pradesh", "statecode": "23", "districtname": null, "districtcode": "428", "ulbname": "Patharia", "ulbcode": "802165", "wardname": "", "wardcode": "9", "id": null, "status": "APPROVED", "misglobalid": null, "approved_by": null, "createdate": 1636715543000, "updateddate": 1642856351000, "globalid": null, "gisglobalid": "4eb26bf4-ba89-495d-a897-b87d002b2b16", "remark": "", "st_area(shape)": 0.0004180826116222119, "st_perimeter(shape)": 0.13486560151901525}}, {"type": "Feature", "geometry": {"type": "Polygon", "coordinates": [[[79.1716, 23.9009], [79.1718, 23.9009], [79.172, 23.9008], [79.1721, 23.9008], [79.1724, 23.9008], [79.1727, 23.9007], [79.1728, 23.9006], [79.1729, 23.9007], [79.1729, 23.9008], [79.1728, 23.9009], [79.1729, 23.9009], [79.173, 23.9009], [79.1731, 23.9009], [79.1732, 23.9008], [79.1733, 23.9006], [79.1734, 23.9006], [79.1735, 23.9005], [79.1735, 23.9004], [79.1735, 23.9003], [79.1736, 23.9002], [79.1737, 23.9001], [79.1738, 23.9], [79.1739, 23.9], [79.1746, 23.8999], [79.1753, 23.8998], [79.1756, 23.8998], [79.1763, 23.8995], [79.1764, 23.8998], [79.1769, 23.8997], [79.1772, 23.8997], [79.1777, 23.8995], [79.178, 23.8994], [79.1787, 23.8992], [79.1789, 23.8992], [79.1791, 23.8992], [79.1792, 23.8992], [79.1793, 23.8992], [79.1794, 23.8992], [79.1796, 23.8992], [79.1803, 23.8991], [79.1809, 23.899], [79.1817, 23.8988], [79.1818, 23.8988], [79.1819, 23.8988], [79.182, 23.8988], [79.1821, 23.8988], [79.1823, 23.8988], [79.1833, 23.8987], [79.1852, 23.8984], [79.186, 23.8982], [79.1867, 23.8979], [79.1869, 23.8978], [79.1873, 23.8976], [79.1875, 23.8976], [79.1876, 23.8976], [79.1877, 23.8976], [79.1878, 23.8976], [79.1879, 23.8977], [79.188, 23.8977], [79.1881, 23.8977], [79.1882, 23.8977], [79.1883, 23.8977], [79.1884, 23.8975], [79.1885, 23.8974], [79.1885, 23.8973], [79.1886, 23.8973], [79.1887, 23.8972], [79.1888, 23.8972], [79.1889, 23.8972], [79.1901, 23.8975], [79.1902, 23.8975], [79.1903, 23.8975], [79.1903, 23.897], [79.1904, 23.897], [79.1904, 23.8969], [79.1904, 23.8968], [79.1905, 23.8967], [79.1905, 23.8966], [79.1905, 23.8965], [79.1905, 23.8964], [79.1905, 23.8963], [79.1905, 23.8962], [79.1905, 23.8959], [79.1905, 23.8958], [79.1906, 23.8957], [79.1907, 23.8957], [79.1909, 23.8957], [79.191, 23.8956], [79.1911, 23.8956], [79.1912, 23.8956], [79.1913, 23.8956], [79.1914, 23.8956], [79.1915, 23.8957], [79.1915, 23.8956], [79.1917, 23.8955], [79.1918, 23.8955], [79.1918, 23.8954], [79.1919, 23.8954], [79.1919, 23.8953], [79.192, 23.8953], [79.192, 23.8952], [79.1921, 23.8952], [79.1922, 23.8952], [79.1923, 23.8951], [79.1924, 23.8951], [79.1925, 23.895], [79.1926, 23.8949], [79.1925, 23.8948], [79.1925, 23.8946], [79.1924, 23.8945], [79.1924, 23.8944], [79.1923, 23.8944], [79.1922, 23.8944], [79.1922, 23.8945], [79.1921, 23.8945], [79.1918, 23.8946], [79.1918, 23.8944], [79.1918, 23.8943], [79.1918, 23.8941], [79.1918, 23.8939], [79.1918, 23.8938], [79.1918, 23.8937], [79.1918, 23.8936], [79.1918, 23.8935], [79.1917, 23.8936], [79.1916, 23.8936], [79.1915, 23.8936], [79.1913, 23.8936], [79.1911, 23.8936], [79.191, 23.8937], [79.1908, 23.8937], [79.1907, 23.8937], [79.1906, 23.8937], [79.1905, 23.8937], [79.1904, 23.8937], [79.1903, 23.8937], [79.1903, 23.8938], [79.1902, 23.8938], [79.1899, 23.8938], [79.1898, 23.8938], [79.1898, 23.8939], [79.1897, 23.8939], [79.1896, 23.8939], [79.1895, 23.8939], [79.1894, 23.8939], [79.1891, 23.8939], [79.189, 23.894], [79.1888, 23.894], [79.1887, 23.894], [79.1885, 23.8941], [79.1884, 23.8942], [79.1882, 23.8943], [79.1881, 23.8943], [79.188, 23.8943], [79.1879, 23.8944], [79.1874, 23.8948], [79.1873, 23.8947], [79.1864, 23.8948], [79.186, 23.8948], [79.1853, 23.8947], [79.1846, 23.8946], [79.184, 23.8944], [79.1836, 23.8942], [79.1834, 23.894], [79.1832, 23.8939], [79.1829, 23.8938], [79.1827, 23.8936], [79.1826, 23.8935], [79.1823, 23.8934], [79.1819, 23.8933], [79.1814, 23.8931], [79.1811, 23.893], [79.1807, 23.8929], [79.18, 23.8929], [79.1794, 23.8928], [79.1788, 23.8926], [79.1786, 23.8925], [79.1781, 23.8923], [79.1777, 23.8922], [79.1774, 23.8921], [79.177, 23.892], [79.1764, 23.8919], [79.1761, 23.8918], [79.1757, 23.8918], [79.1754, 23.8917], [79.1753, 23.8917], [79.1749, 23.8917], [79.1747, 23.8918], [79.1744, 23.8918], [79.1741, 23.8918], [79.1738, 23.8917], [79.1734, 23.8917], [79.1732, 23.8916], [79.1729, 23.8915], [79.1725, 23.8915], [79.1723, 23.8915], [79.1721, 23.8915], [79.1718, 23.8915], [79.1716, 23.8915], [79.1713, 23.8915], [79.1709, 23.8914], [79.1708, 23.8914], [79.1706, 23.8914], [79.1705, 23.8915], [79.1704, 23.8915], [79.1702, 23.8915], [79.17, 23.8915], [79.1698, 23.8915], [79.1696, 23.8915], [79.1694, 23.8915], [79.1692, 23.8914], [79.169, 23.8912], [79.1689, 23.8912], [79.1686, 23.8911], [79.1684, 23.8911], [79.1681, 23.891], [79.1678, 23.891], [79.1676, 23.891], [79.1674, 23.8909], [79.1671, 23.8908], [79.167, 23.8908], [79.1668, 23.8908], [79.1667, 23.8908], [79.1666, 23.8908], [79.1664, 23.8907], [79.1664, 23.8908], [79.1663, 23.8908], [79.1663, 23.8909], [79.1664, 23.891], [79.1664, 23.8911], [79.1663, 23.8912], [79.1662, 23.8912], [79.1661, 23.8913], [79.166, 23.8914], [79.1659, 23.8914], [79.1658, 23.8915], [79.1657, 23.8915], [79.1656, 23.8916], [79.1654, 23.8917], [79.1652, 23.8919], [79.1651, 23.892], [79.165, 23.892], [79.165, 23.8922], [79.165, 23.8925], [79.165, 23.8926], [79.165, 23.8927], [79.1649, 23.8931], [79.1649, 23.8933], [79.1648, 23.8933], [79.1648, 23.8934], [79.1645, 23.8934], [79.1643, 23.8935], [79.1642, 23.8936], [79.1639, 23.8936], [79.1637, 23.8937], [79.1635, 23.8937], [79.1635, 23.8936], [79.1634, 23.8932], [79.1634, 23.8929], [79.1633, 23.8925], [79.1633, 23.8922], [79.1632, 23.8921], [79.1631, 23.8922], [79.1631, 23.8924], [79.163, 23.8924], [79.1629, 23.8925], [79.1626, 23.8925], [79.1623, 23.8926], [79.1622, 23.8926], [79.1592, 23.8928], [79.1592, 23.8942], [79.1593, 23.896], [79.1593, 23.897], [79.1594, 23.897], [79.1594, 23.8971], [79.1596, 23.8972], [79.1597, 23.8972], [79.1598, 23.8972], [79.16, 23.8972], [79.1601, 23.8972], [79.1602, 23.8973], [79.1603, 23.8974], [79.1604, 23.8975], [79.1605, 23.8975], [79.1606, 23.8976], [79.1607, 23.8977], [79.1608, 23.8978], [79.1609, 23.8979], [79.161, 23.8979], [79.161, 23.8978], [79.161, 23.8977], [79.161, 23.8976], [79.1609, 23.8976], [79.1609, 23.8975], [79.1609, 23.8974], [79.161, 23.8972], [79.1611, 23.897], [79.1611, 23.8969], [79.1611, 23.8968], [79.1611, 23.8963], [79.1611, 23.8962], [79.1611, 23.8961], [79.1611, 23.896], [79.1612, 23.8959], [79.1613, 23.8959], [79.1614, 23.8959], [79.1616, 23.8959], [79.1617, 23.8959], [79.1621, 23.8961], [79.1622, 23.8962], [79.1622, 23.8963], [79.1622, 23.8964], [79.1622, 23.8965], [79.1624, 23.8965], [79.1626, 23.8966], [79.1627, 23.8966], [79.1628, 23.8966], [79.1631, 23.8969], [79.1633, 23.8971], [79.1634, 23.8972], [79.1635, 23.8974], [79.1635, 23.8975], [79.1635, 23.8976], [79.1636, 23.8977], [79.1637, 23.8979], [79.164, 23.8981], [79.1642, 23.8984], [79.1644, 23.8986], [79.1645, 23.8988], [79.1647, 23.8987], [79.1648, 23.8987], [79.165, 23.8987], [79.1651, 23.8987], [79.1653, 23.8987], [79.1653, 23.8988], [79.1654, 23.8989], [79.1654, 23.899], [79.1655, 23.899], [79.1657, 23.899], [79.1657, 23.8991], [79.1657, 23.8993], [79.1658, 23.8993], [79.1659, 23.8994], [79.166, 23.8994], [79.1662, 23.8996], [79.1663, 23.8998], [79.1663, 23.8999], [79.1663, 23.9], [79.1664, 23.9001], [79.1665, 23.9001], [79.1666, 23.9002], [79.1666, 23.9003], [79.1667, 23.9003], [79.1668, 23.9004], [79.1669, 23.9004], [79.1669, 23.9003], [79.1669, 23.9002], [79.1669, 23.9001], [79.1671, 23.9001], [79.1672, 23.9], [79.1672, 23.8999], [79.1673, 23.8998], [79.1674, 23.8997], [79.1677, 23.8996], [79.1679, 23.8995], [79.168, 23.8995], [79.1682, 23.8995], [79.1683, 23.8995], [79.1685, 23.8996], [79.1686, 23.8997], [79.1688, 23.8998], [79.1689, 23.8998], [79.169, 23.9], [79.1691, 23.9001], [79.1691, 23.9002], [79.169, 23.9003], [79.1691, 23.9003], [79.1691, 23.9004], [79.1692, 23.9005], [79.1698, 23.9007], [79.1701, 23.9008], [79.1705, 23.9009], [79.1706, 23.9009], [79.1708, 23.9009], [79.1708, 23.901], [79.1708, 23.9011], [79.171, 23.9011], [79.1714, 23.9009], [79.1716, 23.9009]]]}, "properties": {"objectid": 33231, "statename": "Madhya Pradesh", "statecode": "23", "districtname": null, "districtcode": "428", "ulbname": "Patharia", "ulbcode": "802165", "wardname": "", "wardcode": "10", "id": null, "status": "APPROVED", "misglobalid": null, "approved_by": null, "createdate": 1636715583000, "updateddate": 1642856361000, "globalid": null, "gisglobalid": "5cf07e45-0c2e-48b7-b5ed-8c43e7728262", "remark": "", "st_area(shape)": 0.00019627830480125613, "st_perimeter(shape)": 0.08628053373273263}}, {"type": "Feature", "geometry": {"type": "Polygon", "coordinates": [[[79.1929, 23.8963], [79.193, 23.8962], [79.1929, 23.8961], [79.1929, 23.8959], [79.1928, 23.8958], [79.1927, 23.8954], [79.1926, 23.8951], [79.1926, 23.8949], [79.1925, 23.895], [79.1924, 23.8951], [79.1923, 23.8951], [79.1922, 23.8952], [79.1921, 23.8952], [79.192, 23.8952], [79.192, 23.8953], [79.1919, 23.8953], [79.1919, 23.8954], [79.1918, 23.8954], [79.1918, 23.8955], [79.1917, 23.8955], [79.1915, 23.8956], [79.1915, 23.8957], [79.1914, 23.8956], [79.1913, 23.8956], [79.1912, 23.8956], [79.1911, 23.8956], [79.191, 23.8956], [79.1909, 23.8957], [79.1907, 23.8957], [79.1906, 23.8957], [79.1905, 23.8958], [79.1905, 23.8959], [79.1905, 23.8962], [79.1906, 23.8962], [79.1907, 23.8962], [79.1908, 23.8962], [79.1909, 23.8962], [79.191, 23.8963], [79.191, 23.8962], [79.1911, 23.8962], [79.1912, 23.8962], [79.1913, 23.8963], [79.1913, 23.8964], [79.1913, 23.8965], [79.1912, 23.8965], [79.1912, 23.8966], [79.1911, 23.8966], [79.191, 23.8966], [79.1909, 23.8967], [79.1908, 23.8968], [79.1908, 23.8969], [79.1907, 23.897], [79.1907, 23.8971], [79.1906, 23.8972], [79.1906, 23.8974], [79.1905, 23.8975], [79.1904, 23.8976], [79.1904, 23.8977], [79.1903, 23.8978], [79.1903, 23.898], [79.1903, 23.8981], [79.1905, 23.8982], [79.1907, 23.8982], [79.1909, 23.8982], [79.1911, 23.8982], [79.1911, 23.8981], [79.1912, 23.8981], [79.1913, 23.8981], [79.1912, 23.898], [79.1913, 23.8979], [79.1913, 23.8978], [79.1913, 23.8976], [79.1913, 23.8975], [79.1914, 23.8975], [79.1914, 23.8974], [79.1915, 23.8974], [79.1916, 23.8973], [79.1917, 23.8973], [79.1919, 23.8973], [79.1919, 23.8972], [79.1919, 23.8971], [79.192, 23.8971], [79.1921, 23.8971], [79.1922, 23.8971], [79.1922, 23.897], [79.1922, 23.8969], [79.1923, 23.8969], [79.1924, 23.8968], [79.1923, 23.8967], [79.1923, 23.8966], [79.1922, 23.8965], [79.1924, 23.8965], [79.1925, 23.8964], [79.1926, 23.8964], [79.1927, 23.8963], [79.1929, 23.8963]]]}, "properties": {"objectid": 35159, "statename": "Madhya Pradesh", "statecode": "23", "districtname": null, "districtcode": "428", "ulbname": "Patharia", "ulbcode": "802165", "wardname": "", "wardcode": "11", "id": null, "status": "APPROVED", "misglobalid": null, "approved_by": null, "createdate": 1636715682000, "updateddate": 1642856369000, "globalid": null, "gisglobalid": "24f1d0ea-aaa6-497e-9ba1-553ce4b8ef19", "remark": "", "st_area(shape)": 4.085012672874961e-06, "st_perimeter(shape)": 0.011547847315361898}}, {"type": "Feature", "geometry": {"type": "Polygon", "coordinates": [[[79.1937, 23.899], [79.1939, 23.8989], [79.1939, 23.8988], [79.1938, 23.8986], [79.1938, 23.8985], [79.1937, 23.8983], [79.1937, 23.8982], [79.1937, 23.8981], [79.1936, 23.8979], [79.1936, 23.8977], [79.1935, 23.8976], [79.1935, 23.8974], [79.1935, 23.8973], [79.1934, 23.8971], [79.1934, 23.897], [79.1933, 23.897], [79.1932, 23.8968], [79.1932, 23.8967], [79.1931, 23.8966], [79.193, 23.8964], [79.193, 23.8963], [79.193, 23.8962], [79.1929, 23.8963], [79.1927, 23.8963], [79.1926, 23.8964], [79.1925, 23.8964], [79.1924, 23.8965], [79.1922, 23.8965], [79.1923, 23.8966], [79.1923, 23.8967], [79.1924, 23.8968], [79.1923, 23.8969], [79.1922, 23.8969], [79.1922, 23.897], [79.1922, 23.8971], [79.1921, 23.8971], [79.192, 23.8971], [79.1919, 23.8971], [79.1919, 23.8972], [79.1919, 23.8973], [79.1917, 23.8973], [79.1916, 23.8973], [79.1915, 23.8974], [79.1914, 23.8974], [79.1914, 23.8975], [79.1913, 23.8975], [79.1913, 23.8976], [79.1913, 23.8978], [79.1913, 23.8979], [79.1912, 23.898], [79.1913, 23.8981], [79.1913, 23.8983], [79.1914, 23.8984], [79.1915, 23.8984], [79.1916, 23.8984], [79.1917, 23.8984], [79.1917, 23.8985], [79.1918, 23.8985], [79.1919, 23.8985], [79.1921, 23.8985], [79.1922, 23.8985], [79.1924, 23.8985], [79.1926, 23.8985], [79.1928, 23.8985], [79.1929, 23.8986], [79.1928, 23.8987], [79.1927, 23.8988], [79.1926, 23.8989], [79.1926, 23.899], [79.1926, 23.8991], [79.1925, 23.8992], [79.1925, 23.8994], [79.1925, 23.8995], [79.1924, 23.8996], [79.1924, 23.8997], [79.1925, 23.8997], [79.1928, 23.8996], [79.193, 23.8995], [79.193, 23.8994], [79.1931, 23.8994], [79.1932, 23.8994], [79.1932, 23.8993], [79.1933, 23.8993], [79.1933, 23.8992], [79.1934, 23.8992], [79.1934, 23.8991], [79.1936, 23.899], [79.1937, 23.899]]]}, "properties": {"objectid": 33664, "statename": "Madhya Pradesh", "statecode": "23", "districtname": null, "districtcode": "428", "ulbname": "Patharia", "ulbcode": "802165", "wardname": "", "wardcode": "12", "id": null, "status": "APPROVED", "misglobalid": null, "approved_by": null, "createdate": 1636715749000, "updateddate": 1642856382000, "globalid": null, "gisglobalid": "2b7224a4-d93b-419e-95c9-86d520a4eb7b", "remark": "", "st_area(shape)": 4.7472074919392895e-06, "st_perimeter(shape)": 0.011000376818743015}}, {"type": "Feature", "geometry": {"type": "Polygon", "coordinates": [[[79.1921, 23.8997], [79.1922, 23.8997], [79.1923, 23.8998], [79.1924, 23.8997], [79.1924, 23.8996], [79.1925, 23.8995], [79.1925, 23.8994], [79.1925, 23.8992], [79.1926, 23.8991], [79.1926, 23.899], [79.1926, 23.8989], [79.1927, 23.8988], [79.1928, 23.8987], [79.1929, 23.8986], [79.1928, 23.8985], [79.1926, 23.8985], [79.1924, 23.8985], [79.1922, 23.8985], [79.1921, 23.8985], [79.1919, 23.8985], [79.1918, 23.8985], [79.1917, 23.8985], [79.1917, 23.8984], [79.1916, 23.8984], [79.1915, 23.8984], [79.1914, 23.8984], [79.1913, 23.8983], [79.1913, 23.8981], [79.1912, 23.8981], [79.1911, 23.8981], [79.1911, 23.8982], [79.1909, 23.8982], [79.1907, 23.8982], [79.1905, 23.8982], [79.1903, 23.8981], [79.1903, 23.898], [79.1903, 23.8978], [79.1904, 23.8977], [79.1904, 23.8976], [79.1905, 23.8975], [79.1906, 23.8974], [79.1906, 23.8972], [79.1907, 23.8971], [79.1907, 23.897], [79.1908, 23.8969], [79.1908, 23.8968], [79.1909, 23.8967], [79.191, 23.8966], [79.1911, 23.8966], [79.1912, 23.8966], [79.1912, 23.8965], [79.1913, 23.8965], [79.1913, 23.8964], [79.1913, 23.8963], [79.1912, 23.8962], [79.1911, 23.8962], [79.191, 23.8962], [79.191, 23.8963], [79.1909, 23.8962], [79.1908, 23.8962], [79.1907, 23.8962], [79.1906, 23.8962], [79.1905, 23.8962], [79.1905, 23.8963], [79.1905, 23.8964], [79.1905, 23.8965], [79.1905, 23.8966], [79.1905, 23.8967], [79.1904, 23.8968], [79.1904, 23.8969], [79.1904, 23.897], [79.1903, 23.897], [79.1903, 23.8975], [79.1902, 23.8975], [79.1901, 23.8975], [79.1889, 23.8972], [79.1888, 23.8972], [79.1887, 23.8972], [79.1886, 23.8973], [79.1885, 23.8973], [79.1885, 23.8974], [79.1884, 23.8975], [79.1883, 23.8977], [79.1882, 23.8977], [79.1881, 23.8977], [79.188, 23.8977], [79.1879, 23.8977], [79.1878, 23.8976], [79.1877, 23.8976], [79.1876, 23.8976], [79.1875, 23.8976], [79.1873, 23.8976], [79.1869, 23.8978], [79.1867, 23.8979], [79.186, 23.8982], [79.1863, 23.899], [79.1868, 23.8989], [79.1869, 23.8989], [79.187, 23.8989], [79.1874, 23.8988], [79.1875, 23.8988], [79.1876, 23.8988], [79.1883, 23.8986], [79.1883, 23.8981], [79.1886, 23.898], [79.1886, 23.8979], [79.1888, 23.8979], [79.1891, 23.8979], [79.1892, 23.8979], [79.1894, 23.8979], [79.1896, 23.8979], [79.1899, 23.898], [79.19, 23.898], [79.1898, 23.8981], [79.1897, 23.8981], [79.1897, 23.8982], [79.1896, 23.8983], [79.1896, 23.8984], [79.1895, 23.8984], [79.1895, 23.8985], [79.1896, 23.8986], [79.1895, 23.8986], [79.1896, 23.8986], [79.1896, 23.8987], [79.1895, 23.8991], [79.1895, 23.8992], [79.1896, 23.8994], [79.1897, 23.8994], [79.1897, 23.8995], [79.1898, 23.8996], [79.1899, 23.8996], [79.1901, 23.8995], [79.1902, 23.8995], [79.1905, 23.8992], [79.1906, 23.8992], [79.1907, 23.8992], [79.1908, 23.8993], [79.1908, 23.8994], [79.1909, 23.8995], [79.191, 23.8996], [79.1911, 23.8996], [79.1912, 23.8997], [79.1913, 23.8997], [79.1914, 23.8998], [79.1915, 23.8998], [79.1917, 23.8998], [79.1918, 23.8997], [79.1919, 23.8997], [79.192, 23.8997], [79.1921, 23.8997]]]}, "properties": {"objectid": 33663, "statename": "Madhya Pradesh", "statecode": "23", "districtname": null, "districtcode": "428", "ulbname": "Patharia", "ulbcode": "802165", "wardname": "", "wardcode": "13", "id": null, "status": "APPROVED", "misglobalid": null, "approved_by": null, "createdate": 1636715618000, "updateddate": 1642856393000, "globalid": null, "gisglobalid": "e817b332-d040-4f61-bb80-7e926fc6a320", "remark": "", "st_area(shape)": 8.016501850566565e-06, "st_perimeter(shape)": 0.02342919897945122}}, {"type": "Feature", "geometry": {"type": "Polygon", "coordinates": [[[79.1768, 23.9016], [79.177, 23.9015], [79.1771, 23.9015], [79.1773, 23.9015], [79.1774, 23.9015], [79.1775, 23.9016], [79.1776, 23.9016], [79.1778, 23.9017], [79.178, 23.9018], [79.1784, 23.9019], [79.1786, 23.902], [79.1789, 23.902], [79.1793, 23.9021], [79.1794, 23.9021], [79.1796, 23.9021], [79.1797, 23.9021], [79.1798, 23.9021], [79.1799, 23.9021], [79.1801, 23.9021], [79.1804, 23.9022], [79.1806, 23.9022], [79.1808, 23.9022], [79.181, 23.9022], [79.1812, 23.9022], [79.1815, 23.9022], [79.1821, 23.9022], [79.1823, 23.9021], [79.1826, 23.9021], [79.1828, 23.9021], [79.1829, 23.9021], [79.1832, 23.9021], [79.1836, 23.902], [79.184, 23.9019], [79.1843, 23.9018], [79.1846, 23.9018], [79.1848, 23.9018], [79.185, 23.9017], [79.1852, 23.9017], [79.1856, 23.9016], [79.1858, 23.9015], [79.186, 23.9015], [79.1862, 23.9015], [79.1863, 23.9015], [79.1864, 23.9014], [79.1865, 23.9014], [79.1867, 23.9014], [79.1866, 23.9014], [79.1866, 23.9013], [79.1867, 23.9013], [79.1871, 23.9012], [79.1874, 23.9011], [79.1876, 23.9011], [79.1877, 23.9011], [79.1878, 23.9011], [79.1879, 23.901], [79.188, 23.901], [79.1881, 23.901], [79.1882, 23.901], [79.1883, 23.901], [79.1888, 23.9009], [79.1887, 23.9], [79.189, 23.9], [79.1889, 23.899], [79.189, 23.899], [79.189, 23.8989], [79.1891, 23.8989], [79.1891, 23.8988], [79.1892, 23.8988], [79.1893, 23.8988], [79.1895, 23.8987], [79.1895, 23.8986], [79.1896, 23.8986], [79.1895, 23.8985], [79.1895, 23.8984], [79.1896, 23.8984], [79.1896, 23.8983], [79.1897, 23.8982], [79.1897, 23.8981], [79.1898, 23.8981], [79.19, 23.898], [79.1899, 23.898], [79.1896, 23.8979], [79.1894, 23.8979], [79.1892, 23.8979], [79.1891, 23.8979], [79.1888, 23.8979], [79.1886, 23.8979], [79.1886, 23.898], [79.1883, 23.8981], [79.1883, 23.8986], [79.1876, 23.8988], [79.1875, 23.8988], [79.1874, 23.8988], [79.187, 23.8989], [79.1869, 23.8989], [79.1868, 23.8989], [79.1863, 23.899], [79.186, 23.8982], [79.1852, 23.8984], [79.1833, 23.8987], [79.1823, 23.8988], [79.1821, 23.8988], [79.182, 23.8988], [79.1819, 23.8988], [79.1818, 23.8988], [79.1817, 23.8988], [79.1809, 23.899], [79.1803, 23.8991], [79.1796, 23.8992], [79.1794, 23.8992], [79.1793, 23.8992], [79.1792, 23.8992], [79.1791, 23.8992], [79.1789, 23.8992], [79.1787, 23.8992], [79.178, 23.8994], [79.1777, 23.8995], [79.1772, 23.8997], [79.1769, 23.8997], [79.1764, 23.8998], [79.1763, 23.8995], [79.1756, 23.8998], [79.1753, 23.8998], [79.1746, 23.8999], [79.1739, 23.9], [79.1738, 23.9], [79.1737, 23.9001], [79.1736, 23.9002], [79.1735, 23.9003], [79.1735, 23.9004], [79.1735, 23.9005], [79.1734, 23.9006], [79.1733, 23.9006], [79.1732, 23.9008], [79.1731, 23.9009], [79.173, 23.9009], [79.1729, 23.9009], [79.1728, 23.9009], [79.1729, 23.9008], [79.1729, 23.9007], [79.1728, 23.9006], [79.1727, 23.9007], [79.1724, 23.9008], [79.1721, 23.9008], [79.172, 23.9008], [79.1718, 23.9009], [79.1716, 23.9009], [79.1714, 23.9009], [79.171, 23.9011], [79.1708, 23.9011], [79.1708, 23.901], [79.1708, 23.9009], [79.1706, 23.9009], [79.1705, 23.9009], [79.1701, 23.9008], [79.1698, 23.9007], [79.1692, 23.9005], [79.1691, 23.9004], [79.1691, 23.9003], [79.169, 23.9003], [79.1691, 23.9002], [79.1691, 23.9001], [79.169, 23.9], [79.1689, 23.8998], [79.1688, 23.8998], [79.1686, 23.8997], [79.1685, 23.8996], [79.1683, 23.8995], [79.1682, 23.8995], [79.168, 23.8995], [79.1679, 23.8995], [79.1677, 23.8996], [79.1674, 23.8997], [79.1673, 23.8998], [79.1672, 23.8999], [79.1672, 23.9], [79.1671, 23.9001], [79.1669, 23.9001], [79.1669, 23.9002], [79.1669, 23.9003], [79.1669, 23.9004], [79.1668, 23.9004], [79.1667, 23.9003], [79.1666, 23.9003], [79.1666, 23.9002], [79.1665, 23.9001], [79.1664, 23.9001], [79.1663, 23.9], [79.1663, 23.8999], [79.1663, 23.8998], [79.1662, 23.8996], [79.166, 23.8994], [79.1659, 23.8994], [79.1658, 23.8993], [79.1657, 23.8993], [79.1657, 23.8991], [79.1657, 23.899], [79.1655, 23.899], [79.1654, 23.899], [79.1654, 23.8989], [79.1653, 23.8988], [79.1653, 23.8987], [79.1651, 23.8987], [79.165, 23.8987], [79.1648, 23.8987], [79.1647, 23.8987], [79.1645, 23.8988], [79.1644, 23.8986], [79.1642, 23.8984], [79.164, 23.8981], [79.1637, 23.8979], [79.1636, 23.8977], [79.1635, 23.8976], [79.1635, 23.8975], [79.1635, 23.8974], [79.1634, 23.8972], [79.1633, 23.8971], [79.1631, 23.8969], [79.1628, 23.8966], [79.1627, 23.8966], [79.1626, 23.8966], [79.1624, 23.8965], [79.1622, 23.8965], [79.1622, 23.8964], [79.1622, 23.8963], [79.1622, 23.8962], [79.1621, 23.8961], [79.1617, 23.8959], [79.1616, 23.8959], [79.1614, 23.8959], [79.1613, 23.8959], [79.1612, 23.8959], [79.1611, 23.896], [79.1611, 23.8961], [79.1611, 23.8962], [79.1611, 23.8963], [79.1611, 23.8968], [79.1611, 23.8969], [79.1611, 23.897], [79.161, 23.8972], [79.1609, 23.8974], [79.1609, 23.8975], [79.1609, 23.8976], [79.161, 23.8976], [79.161, 23.8977], [79.161, 23.8978], [79.161, 23.8979], [79.1609, 23.898], [79.1609, 23.8981], [79.1611, 23.8983], [79.1613, 23.8986], [79.1614, 23.8987], [79.1614, 23.8989], [79.1615, 23.8991], [79.1616, 23.8992], [79.1617, 23.8995], [79.1618, 23.8997], [79.162, 23.9001], [79.1622, 23.9005], [79.1623, 23.9006], [79.1623, 23.9007], [79.1624, 23.9007], [79.1626, 23.9008], [79.163, 23.9009], [79.1632, 23.901], [79.1633, 23.901], [79.1634, 23.901], [79.1634, 23.9011], [79.1636, 23.9013], [79.1638, 23.9015], [79.164, 23.9016], [79.1642, 23.9018], [79.1643, 23.9019], [79.1644, 23.9019], [79.1645, 23.9019], [79.1647, 23.9019], [79.1648, 23.9018], [79.1649, 23.9016], [79.1651, 23.9015], [79.1652, 23.9014], [79.1653, 23.9014], [79.1657, 23.9014], [79.1659, 23.9014], [79.1661, 23.9014], [79.1662, 23.9014], [79.1663, 23.9014], [79.1664, 23.9014], [79.1665, 23.9014], [79.1665, 23.9015], [79.1666, 23.9015], [79.1667, 23.9015], [79.1669, 23.9015], [79.1671, 23.9015], [79.1673, 23.9014], [79.1674, 23.9015], [79.1675, 23.9015], [79.1676, 23.9015], [79.1679, 23.9015], [79.1682, 23.9016], [79.1686, 23.9017], [79.1691, 23.9018], [79.1696, 23.9018], [79.17, 23.9019], [79.1705, 23.902], [79.1711, 23.902], [79.1716, 23.9021], [79.1719, 23.9022], [79.1722, 23.9022], [79.1723, 23.9022], [79.1726, 23.9022], [79.1729, 23.9023], [79.1732, 23.9023], [79.1736, 23.9023], [79.1737, 23.9022], [79.174, 23.9022], [79.1742, 23.9022], [79.1743, 23.9022], [79.1744, 23.9022], [79.1746, 23.9021], [79.1749, 23.902], [79.1751, 23.902], [79.1753, 23.9019], [79.1755, 23.9019], [79.1757, 23.9019], [79.1759, 23.9018], [79.1761, 23.9018], [79.1763, 23.9018], [79.1765, 23.9017], [79.1767, 23.9016], [79.1768, 23.9016]]]}, "properties": {"objectid": 33232, "statename": "Madhya Pradesh", "statecode": "23", "districtname": null, "districtcode": "428", "ulbname": "Patharia", "ulbcode": "802165", "wardname": "", "wardcode": "14", "id": null, "status": "APPROVED", "misglobalid": null, "approved_by": null, "createdate": 1636715647000, "updateddate": 1642856410000, "globalid": null, "gisglobalid": "86c7f9f8-e32f-4b38-b070-d96f2d805df1", "remark": "", "st_area(shape)": 7.02276873706815e-05, "st_perimeter(shape)": 0.07169581674239339}}, {"type": "Feature", "geometry": {"type": "Polygon", "coordinates": [[[79.1798, 23.9097], [79.1806, 23.9085], [79.1811, 23.9089], [79.1812, 23.9089], [79.1819, 23.9089], [79.1828, 23.9088], [79.1829, 23.9088], [79.1832, 23.9083], [79.1839, 23.907], [79.1842, 23.9062], [79.1844, 23.9057], [79.1845, 23.9056], [79.1846, 23.9056], [79.1847, 23.9056], [79.1847, 23.9057], [79.1848, 23.9058], [79.1849, 23.9058], [79.185, 23.9058], [79.1851, 23.9058], [79.1851, 23.9057], [79.1852, 23.9057], [79.1852, 23.9056], [79.1853, 23.9056], [79.1854, 23.9055], [79.1855, 23.9055], [79.1856, 23.9055], [79.1857, 23.9055], [79.1858, 23.9056], [79.1859, 23.9056], [79.1861, 23.9057], [79.1862, 23.9057], [79.1863, 23.9057], [79.1865, 23.9057], [79.1866, 23.9057], [79.1867, 23.9057], [79.1867, 23.9056], [79.1868, 23.9056], [79.1868, 23.9055], [79.187, 23.9054], [79.1871, 23.9053], [79.1872, 23.9053], [79.1873, 23.9053], [79.1874, 23.9053], [79.1875, 23.9053], [79.1876, 23.9053], [79.1877, 23.9054], [79.1878, 23.9055], [79.1878, 23.9056], [79.1879, 23.9056], [79.1879, 23.9057], [79.1878, 23.9057], [79.1878, 23.9058], [79.1877, 23.9059], [79.1876, 23.9059], [79.1876, 23.906], [79.1876, 23.9061], [79.1877, 23.9062], [79.1878, 23.9063], [79.1879, 23.9063], [79.1879, 23.9064], [79.188, 23.9064], [79.1881, 23.9065], [79.1882, 23.9065], [79.1883, 23.9066], [79.1883, 23.9067], [79.1883, 23.9068], [79.1883, 23.9069], [79.1884, 23.907], [79.1885, 23.907], [79.1889, 23.9069], [79.189, 23.9069], [79.1891, 23.9068], [79.1891, 23.9067], [79.189, 23.9063], [79.1896, 23.9061], [79.1899, 23.906], [79.1904, 23.9058], [79.1911, 23.9055], [79.1913, 23.9054], [79.1917, 23.9052], [79.1918, 23.9052], [79.1916, 23.905], [79.1918, 23.9048], [79.1918, 23.9047], [79.1917, 23.9047], [79.1917, 23.9046], [79.1918, 23.9045], [79.1919, 23.9045], [79.1918, 23.9044], [79.1917, 23.9043], [79.1916, 23.9041], [79.1914, 23.9038], [79.1913, 23.9037], [79.1912, 23.9036], [79.191, 23.9034], [79.1909, 23.9033], [79.1913, 23.9033], [79.1918, 23.9033], [79.1924, 23.9032], [79.1927, 23.9032], [79.1928, 23.9032], [79.1929, 23.9032], [79.193, 23.9032], [79.1932, 23.9031], [79.1935, 23.9029], [79.1938, 23.9028], [79.1939, 23.9027], [79.1942, 23.9026], [79.1944, 23.9025], [79.1943, 23.9021], [79.1941, 23.9018], [79.1941, 23.9017], [79.194, 23.9016], [79.1939, 23.9011], [79.1937, 23.9005], [79.1937, 23.9004], [79.1938, 23.9003], [79.1938, 23.9002], [79.1938, 23.9001], [79.1938, 23.9], [79.1938, 23.8999], [79.1939, 23.8999], [79.1939, 23.8997], [79.1939, 23.8994], [79.194, 23.8993], [79.194, 23.8992], [79.1939, 23.899], [79.1939, 23.8989], [79.1937, 23.899], [79.1936, 23.899], [79.1934, 23.8991], [79.1934, 23.8992], [79.1933, 23.8992], [79.1933, 23.8993], [79.1932, 23.8993], [79.1932, 23.8994], [79.1931, 23.8994], [79.193, 23.8994], [79.193, 23.8995], [79.1928, 23.8996], [79.1925, 23.8997], [79.1924, 23.8997], [79.1923, 23.8998], [79.1922, 23.8997], [79.1921, 23.8997], [79.192, 23.8997], [79.1919, 23.8997], [79.1918, 23.8997], [79.1917, 23.8998], [79.1915, 23.8998], [79.1914, 23.8998], [79.1913, 23.8997], [79.1912, 23.8997], [79.1911, 23.8996], [79.191, 23.8996], [79.1909, 23.8995], [79.1908, 23.8994], [79.1908, 23.8993], [79.1907, 23.8992], [79.1906, 23.8992], [79.1905, 23.8992], [79.1902, 23.8995], [79.1901, 23.8995], [79.1899, 23.8996], [79.1898, 23.8996], [79.1897, 23.8995], [79.1897, 23.8994], [79.1896, 23.8994], [79.1895, 23.8992], [79.1895, 23.8991], [79.1896, 23.8987], [79.1896, 23.8986], [79.1895, 23.8986], [79.1895, 23.8987], [79.1893, 23.8988], [79.1892, 23.8988], [79.1891, 23.8988], [79.1891, 23.8989], [79.189, 23.8989], [79.189, 23.899], [79.1889, 23.899], [79.189, 23.9], [79.1887, 23.9], [79.1888, 23.9009], [79.1883, 23.901], [79.1882, 23.901], [79.1881, 23.901], [79.188, 23.901], [79.1879, 23.901], [79.1878, 23.9011], [79.1877, 23.9011], [79.1876, 23.9011], [79.1874, 23.9011], [79.1871, 23.9012], [79.1867, 23.9013], [79.1866, 23.9013], [79.1866, 23.9014], [79.1867, 23.9014], [79.1865, 23.9014], [79.1864, 23.9014], [79.1863, 23.9015], [79.1862, 23.9015], [79.186, 23.9015], [79.1858, 23.9015], [79.1856, 23.9016], [79.1852, 23.9017], [79.185, 23.9017], [79.1848, 23.9018], [79.1846, 23.9018], [79.1843, 23.9018], [79.184, 23.9019], [79.1836, 23.902], [79.1832, 23.9021], [79.1829, 23.9021], [79.1828, 23.9021], [79.1826, 23.9021], [79.1823, 23.9021], [79.1821, 23.9022], [79.1815, 23.9022], [79.1812, 23.9022], [79.181, 23.9022], [79.1808, 23.9022], [79.1806, 23.9022], [79.1804, 23.9022], [79.1801, 23.9021], [79.1799, 23.9021], [79.1798, 23.9021], [79.1797, 23.9021], [79.1796, 23.9021], [79.1794, 23.9021], [79.1793, 23.9021], [79.1789, 23.902], [79.1786, 23.902], [79.1784, 23.9019], [79.178, 23.9018], [79.1778, 23.9017], [79.1776, 23.9016], [79.1775, 23.9016], [79.1774, 23.9015], [79.1773, 23.9015], [79.1771, 23.9015], [79.177, 23.9015], [79.1768, 23.9016], [79.1767, 23.9016], [79.1765, 23.9017], [79.1763, 23.9018], [79.1761, 23.9018], [79.1759, 23.9018], [79.1757, 23.9019], [79.1755, 23.9019], [79.1753, 23.9019], [79.1751, 23.902], [79.1749, 23.902], [79.1746, 23.9021], [79.1744, 23.9022], [79.1743, 23.9022], [79.1742, 23.9022], [79.174, 23.9022], [79.1737, 23.9022], [79.1736, 23.9023], [79.1732, 23.9023], [79.1729, 23.9023], [79.1726, 23.9022], [79.1723, 23.9022], [79.1722, 23.9022], [79.1719, 23.9022], [79.1716, 23.9021], [79.1711, 23.902], [79.1705, 23.902], [79.17, 23.9019], [79.1696, 23.9018], [79.1691, 23.9018], [79.1686, 23.9017], [79.1682, 23.9016], [79.1679, 23.9015], [79.1676, 23.9015], [79.1675, 23.9015], [79.1674, 23.9015], [79.1673, 23.9014], [79.1671, 23.9015], [79.1669, 23.9015], [79.1667, 23.9015], [79.1666, 23.9015], [79.1665, 23.9015], [79.1665, 23.9014], [79.1664, 23.9014], [79.1663, 23.9014], [79.1662, 23.9014], [79.1661, 23.9014], [79.1659, 23.9014], [79.1657, 23.9014], [79.1653, 23.9014], [79.1652, 23.9014], [79.1651, 23.9015], [79.1649, 23.9016], [79.1648, 23.9018], [79.1647, 23.9019], [79.1645, 23.9019], [79.1644, 23.9019], [79.1643, 23.9019], [79.1642, 23.9018], [79.164, 23.9016], [79.1638, 23.9015], [79.1636, 23.9013], [79.1634, 23.9011], [79.1634, 23.901], [79.1633, 23.901], [79.1632, 23.901], [79.163, 23.9013], [79.1627, 23.9017], [79.1627, 23.9018], [79.1627, 23.9019], [79.1626, 23.902], [79.1626, 23.9022], [79.1626, 23.9023], [79.1625, 23.9023], [79.1624, 23.9024], [79.1623, 23.9025], [79.1622, 23.9025], [79.1623, 23.9026], [79.1624, 23.9027], [79.1625, 23.9027], [79.1626, 23.9027], [79.1626, 23.9028], [79.1627, 23.9028], [79.1627, 23.9029], [79.1628, 23.903], [79.1629, 23.903], [79.163, 23.903], [79.1631, 23.903], [79.1631, 23.9031], [79.1632, 23.9031], [79.1633, 23.9031], [79.1634, 23.9031], [79.1634, 23.9032], [79.1635, 23.9032], [79.1635, 23.9033], [79.1636, 23.9033], [79.1636, 23.9034], [79.1637, 23.9035], [79.1637, 23.9036], [79.1637, 23.9037], [79.1638, 23.9037], [79.1639, 23.9037], [79.164, 23.9037], [79.164, 23.9038], [79.1639, 23.9038], [79.1639, 23.9039], [79.1639, 23.904], [79.164, 23.904], [79.1641, 23.9041], [79.1642, 23.9042], [79.1642, 23.9043], [79.1643, 23.9044], [79.1644, 23.9045], [79.1644, 23.9046], [79.1644, 23.9047], [79.1645, 23.9047], [79.1646, 23.9047], [79.1647, 23.9047], [79.1648, 23.9047], [79.1648, 23.9046], [79.165, 23.9046], [79.1652, 23.9045], [79.1653, 23.9044], [79.1653, 23.9043], [79.1654, 23.9043], [79.1654, 23.9042], [79.1655, 23.9042], [79.1656, 23.9042], [79.1656, 23.9043], [79.1657, 23.9043], [79.1657, 23.9044], [79.1657, 23.9045], [79.1657, 23.9046], [79.1658, 23.9046], [79.1658, 23.9047], [79.1659, 23.9048], [79.166, 23.9048], [79.1661, 23.9048], [79.1661, 23.9049], [79.1662, 23.9049], [79.1662, 23.905], [79.1663, 23.905], [79.1664, 23.905], [79.1665, 23.905], [79.1666, 23.905], [79.1667, 23.905], [79.1667, 23.9051], [79.1668, 23.9051], [79.1669, 23.9051], [79.1669, 23.9052], [79.167, 23.9052], [79.167, 23.9053], [79.1671, 23.9053], [79.1672, 23.9054], [79.1673, 23.9054], [79.1674, 23.9054], [79.1675, 23.9053], [79.1676, 23.9053], [79.1676, 23.9052], [79.1677, 23.9052], [79.1678, 23.9051], [79.1679, 23.9051], [79.1679, 23.9052], [79.168, 23.9052], [79.168, 23.9053], [79.1681, 23.9054], [79.1682, 23.9054], [79.1682, 23.9055], [79.1683, 23.9055], [79.1683, 23.9054], [79.1684, 23.9054], [79.1684, 23.9053], [79.1684, 23.9052], [79.1684, 23.9051], [79.1685, 23.9051], [79.1686, 23.9051], [79.1687, 23.9052], [79.1688, 23.9053], [79.1689, 23.9053], [79.169, 23.9052], [79.169, 23.9051], [79.1691, 23.905], [79.1691, 23.9049], [79.1692, 23.9049], [79.1693, 23.9049], [79.1694, 23.9049], [79.1694, 23.905], [79.1694, 23.9051], [79.1695, 23.9052], [79.1696, 23.9052], [79.1696, 23.9053], [79.1697, 23.9053], [79.1698, 23.9052], [79.1699, 23.9052], [79.17, 23.9052], [79.1701, 23.9052], [79.1702, 23.9052], [79.1702, 23.9053], [79.1703, 23.9053], [79.1703, 23.9054], [79.1704, 23.9054], [79.1705, 23.9054], [79.1706, 23.9054], [79.1707, 23.9054], [79.1708, 23.9054], [79.1709, 23.9054], [79.171, 23.9054], [79.171, 23.9055], [79.171, 23.9056], [79.1711, 23.9056], [79.1712, 23.9056], [79.1713, 23.9056], [79.1714, 23.9056], [79.1715, 23.9055], [79.1716, 23.9054], [79.1717, 23.9054], [79.1718, 23.9054], [79.1718, 23.9055], [79.1719, 23.9057], [79.1719, 23.9058], [79.172, 23.9058], [79.172, 23.9059], [79.1721, 23.9059], [79.1722, 23.9059], [79.1723, 23.9059], [79.1725, 23.9059], [79.1726, 23.9059], [79.1727, 23.9059], [79.1728, 23.9059], [79.1729, 23.9059], [79.173, 23.9059], [79.1731, 23.9059], [79.1732, 23.9058], [79.1733, 23.9058], [79.1735, 23.9057], [79.1738, 23.9056], [79.1739, 23.9055], [79.174, 23.9055], [79.174, 23.9054], [79.1741, 23.9054], [79.1742, 23.9054], [79.1744, 23.9054], [79.1745, 23.9054], [79.1746, 23.9054], [79.1748, 23.9053], [79.1749, 23.9053], [79.175, 23.9052], [79.1752, 23.9064], [79.1764, 23.9063], [79.1765, 23.9063], [79.1769, 23.9063], [79.1771, 23.9063], [79.1774, 23.9069], [79.1772, 23.9069], [79.177, 23.907], [79.177, 23.9071], [79.177, 23.9072], [79.177, 23.9073], [79.177, 23.9076], [79.177, 23.9077], [79.177, 23.9078], [79.1771, 23.9081], [79.1775, 23.9085], [79.1798, 23.9097]]]}, "properties": {"objectid": 34793, "statename": "Madhya Pradesh", "statecode": "23", "districtname": null, "districtcode": "428", "ulbname": "Patharia", "ulbcode": "802165", "wardname": "", "wardcode": "15", "id": null, "status": "APPROVED", "misglobalid": null, "approved_by": null, "createdate": 1636715660000, "updateddate": 1642856422000, "globalid": null, "gisglobalid": "c87d13e1-a930-420a-b424-1ff51bea9fe5", "remark": "", "st_area(shape)": 0.00014401715502808835, "st_perimeter(shape)": 0.08993954374308842}}]}
