{"type":"Topology","arcs":[[[32017,72139],[-2193,0]],[[29824,72139],[-4386,-5473]],[[25438,66666],[-438,-1990]],[[25000,64676],[-2193,-2488]],[[22807,62188],[-14912,37811],[18859,-995],[5263,-26865]],[[48684,47263],[19736,-31343]],[[68420,15920],[7895,-14427],[-29824,-1493],[-39035,29353],[36842,14428],[4386,3482]],[[66666,34328],[1754,2985]],[[68420,37313],[5702,7463]],[[74122,44776],[7018,3980]],[[81140,48756],[18859,-21891],[-17105,-16417],[-14474,5472]],[[68420,15920],[-19736,31343]],[[48684,47263],[17982,-12935]],[[32894,72636],[10965,8955]],[[43859,81591],[0,-4477]],[[43859,77114],[439,-4478]],[[44298,72636],[-11404,0]],[[71929,65173],[14035,-14925],[-27631,5473]],[[58333,55721],[1754,1990]],[[60087,57711],[3070,-1990]],[[63157,55721],[8772,9452]],[[32894,72636],[3509,11443]],[[36403,84079],[7456,-2488]],[[43859,81591],[-10965,-8955]],[[0,60198],[50877,-8457],[-4386,-5970],[-39474,-15921],[-7017,30348]],[[81140,48756],[-7018,-3980]],[[74122,44776],[-5702,-7463]],[[66666,34328],[14474,14428]],[[32017,72139],[1316,-17413],[-32894,6467],[12719,15921],[9649,-14926]],[[25000,64676],[438,1990]],[[25438,66666],[4386,5473]],[[71929,65173],[-8772,-9452]],[[63157,55721],[-3070,1990]],[[58333,55721],[-14912,1492],[877,15423]],[[44298,72636],[1754,-2487]],[[46052,70149],[877,1990]],[[46929,72139],[439,497]],[[47368,72636],[877,995]],[[48245,73631],[2193,-1990]],[[50438,71641],[21491,-6468]],[[44298,72636],[-439,4478]],[[43859,77114],[5702,8457],[7017,-5472],[-6140,-8458]],[[48245,73631],[-877,-995]],[[46929,72139],[-877,-1990]]],"transform":{"scale":[2.280022800226952e-7,2.010020100200936e-7],"translate":[79.8927,26.4749]},"objects":{"wards":{"type":"GeometryCollection","geometries":[{"arcs":[[0,1,2,3,4]],"type":"Polygon","properties":{"objectid":147396,"statename":"Uttar Pradesh","statecode":"9","districtname":"","districtcode":"163","ulbname":"Np Rura","ulbcode":"800997","wardname":"Shubash Nagar","wardcode":"1","id":null,"status":"OPEN","misglobalid":null,"approved_by":null,"createdate":1644323688000,"updateddate":null,"globalid":null,"gisglobalid":"66Q4oKB4-lanl-Ps6P-RoP5-m4BQ6calmcP6","remark":"--","st_area(shape)":0.00003231630402505079,"st_perimeter(shape)":0.02470938946898365}},{"type":null,"properties":{"objectid":146656,"statename":"Uttar Pradesh","statecode":"9","districtname":"","districtcode":"163","ulbname":"Np Rura","ulbcode":"800997","wardname":"Ambidakar Nagar","wardcode":"2","id":null,"status":"OPEN","misglobalid":null,"approved_by":null,"createdate":1644323702000,"updateddate":null,"globalid":null,"gisglobalid":"454nPcQs-Rscl-PBQ4-R4aa-PasBPQdm4o6Q","remark":"--","st_area(shape)":0.000005467829680563323,"st_perimeter(shape)":0.010205316879896589}},{"arcs":[[5,6]],"type":"Polygon","properties":{"objectid":145415,"statename":"Uttar Pradesh","statecode":"9","districtname":"","districtcode":"163","ulbname":"Np Rura","ulbcode":"800997","wardname":"Ram Nagar","wardcode":"3","id":null,"status":"OPEN","misglobalid":null,"approved_by":null,"createdate":1644323714000,"updateddate":null,"globalid":null,"gisglobalid":"nnP44slP-Qana-PQa5-aQsl-o4Kn5oRBclQ5","remark":"--","st_area(shape)":0.00008161437846694106,"st_perimeter(shape)":0.043760734440373254}},{"arcs":[[7,8,9,10,11,12]],"type":"Polygon","properties":{"objectid":145416,"statename":"Uttar Pradesh","statecode":"9","districtname":"","districtcode":"163","ulbname":"Np Rura","ulbcode":"800997","wardname":"Shivaji Nagar","wardcode":"4","id":null,"status":"OPEN","misglobalid":null,"approved_by":null,"createdate":1644323738000,"updateddate":null,"globalid":null,"gisglobalid":"c6555Bca-RsPs-PslQ-slPn-6QaaacKRs4sP","remark":"--","st_area(shape)":0.00004531026940750763,"st_perimeter(shape)":0.036401236765142744}},{"arcs":[[13,14,15,16]],"type":"Polygon","properties":{"objectid":145417,"statename":"Uttar Pradesh","statecode":"9","districtname":"","districtcode":"163","ulbname":"Np Rura","ulbcode":"800997","wardname":"Sherganj","wardcode":"5","id":null,"status":"OPEN","misglobalid":null,"approved_by":null,"createdate":1644323753000,"updateddate":null,"globalid":null,"gisglobalid":"mR5dsddc-5m6s-PPs4-QPQl-so55BRRs6asa","remark":"--","st_area(shape)":0.000004550568651488816,"st_perimeter(shape)":0.010292246792701179}},{"arcs":[[17,18,19,20]],"type":"Polygon","properties":{"objectid":147397,"statename":"Uttar Pradesh","statecode":"9","districtname":"","districtcode":"163","ulbname":"Np Rura","ulbcode":"800997","wardname":"Station Ward","wardcode":"6","id":null,"status":"OPEN","misglobalid":null,"approved_by":null,"createdate":1644323767000,"updateddate":null,"globalid":null,"gisglobalid":"acPcKPaB-4Qaa-PPQB-Qold-lP4oosQKcnQs","remark":"--","st_area(shape)":0.000008722064422768813,"st_perimeter(shape)":0.01592720390933005}},{"arcs":[[21,22,23]],"type":"Polygon","properties":{"objectid":146254,"statename":"Uttar Pradesh","statecode":"9","districtname":"","districtcode":"163","ulbname":"Np Rura","ulbcode":"800997","wardname":"Bazar Ward","wardcode":"7","id":null,"status":"OPEN","misglobalid":null,"approved_by":null,"createdate":1644323779000,"updateddate":null,"globalid":null,"gisglobalid":"KBRPQnKK-KBRo-PmKK-s4Q5-cmdlPKdosKaa","remark":"--","st_area(shape)":0.0000035509059569465925,"st_perimeter(shape)":0.008166560804797213}},{"arcs":[[24]],"type":"Polygon","properties":{"objectid":146657,"statename":"Uttar Pradesh","statecode":"9","districtname":"","districtcode":"163","ulbname":"Np Rura","ulbcode":"800997","wardname":"Shahtri Nagar","wardcode":"8","id":null,"status":"OPEN","misglobalid":null,"approved_by":null,"createdate":1644323796000,"updateddate":null,"globalid":null,"gisglobalid":"dcoscdan-sBal-PKmd-ao6d-cdos56n54KKl","remark":"--","st_area(shape)":0.00003612360928040279,"st_perimeter(shape)":0.02917603782746696}},{"arcs":[[25,26,-8,27]],"type":"Polygon","properties":{"objectid":146658,"statename":"Uttar Pradesh","statecode":"9","districtname":"","districtcode":"163","ulbname":"Np Rura","ulbcode":"800997","wardname":"Bajrang Nagar","wardcode":"9","id":null,"status":"OPEN","misglobalid":null,"approved_by":null,"createdate":1644323814000,"updateddate":null,"globalid":null,"gisglobalid":"ssPnBK6m-646P-P6mn-QcdB-sQcmddnQ4Kls","remark":"--","st_area(shape)":0.000011774324825023701,"st_perimeter(shape)":0.01739892586834047}},{"arcs":[[28,-4,29,30,-1]],"type":"Polygon","properties":{"objectid":138675,"statename":"Uttar Pradesh","statecode":"9","districtname":"","districtcode":"163","ulbname":"Np Rura","ulbcode":"800997","wardname":"Ganesh Ganj","wardcode":"10","id":null,"status":"OPEN","misglobalid":null,"approved_by":null,"createdate":1644323829000,"updateddate":null,"globalid":null,"gisglobalid":"R66dRnBR-cQmB-PddK-RnPB-md5sKBnP5Pns","remark":"--","st_area(shape)":0.00001931545254794394,"st_perimeter(shape)":0.025871776506658378}},{"arcs":[[31,32,-19,33,34,35,36,37,38,39]],"type":"Polygon","properties":{"objectid":147018,"statename":"Uttar Pradesh","statecode":"9","districtname":"","districtcode":"163","ulbname":"Np Rura","ulbcode":"800997","wardname":"Jawahar Nagar","wardcode":"11","id":null,"status":"OPEN","misglobalid":null,"approved_by":null,"createdate":1644323854000,"updateddate":null,"globalid":null,"gisglobalid":"KPnd6ooa-msBa-PBBa-QQnc-alnosdmoQKsa","remark":"--","st_area(shape)":0.000024432710617672374,"st_perimeter(shape)":0.023053890397559448}},{"arcs":[[40,41,-39,42,-37,43,-35]],"type":"Polygon","properties":{"objectid":147398,"statename":"Uttar Pradesh","statecode":"9","districtname":"","districtcode":"163","ulbname":"Np Rura","ulbcode":"800997","wardname":"Gandhi Nagar","wardcode":"12","id":null,"status":"OPEN","misglobalid":null,"approved_by":null,"createdate":1644323870000,"updateddate":null,"globalid":null,"gisglobalid":"ml5mRa5Q-lo5B-PPod-a5ss-lm64nlP6mKdc","remark":"--","st_area(shape)":0.000004889343543417063,"st_perimeter(shape)":0.009596656559951613}}]}}}