{"type":"Topology","arcs":[[[28133,48703],[255,0],[1535,-2018]],[[29923,46685],[-512,-5475],[-3324,-2882],[-1535,-3746],[2046,-2594],[767,-9798],[-3836,288],[-3836,-2305],[-2813,-4323]],[[16880,15850],[-13044,2305],[-3324,2882]],[[512,21037],[1023,13545],[-1535,12103],[4604,2306],[1278,-1729],[8440,-577],[5115,1153]],[[19437,47838],[3069,-3458],[2813,576],[2814,3747]],[[19437,47838],[-511,3170]],[[18926,51008],[4859,1153],[4092,-2017]],[[27877,50144],[256,-1441]],[[28133,70893],[0,-12969],[1023,-3746],[-1279,-4034]],[[18926,51008],[-6650,2017],[512,10375],[10230,1153],[2046,5187],[3069,1153]],[[36828,65705],[-1790,-10951]],[[35038,54754],[-767,-4899]],[[34271,49855],[0,-1440]],[[34271,48415],[-512,288],[-511,0],[-512,576],[-1023,0],[0,-1729],[-1790,-865]],[[28133,70893],[4347,-4899],[4348,-289]],[[34015,47838],[-2558,-6340]],[[31457,41498],[-2046,-8069],[0,-9222],[12532,-23054]],[[41943,1153],[-7672,-1153],[-256,1441],[-7161,-576],[-8184,2305],[511,1441],[-6138,2882],[2558,2305],[1279,6052]],[[34271,48415],[-256,-577]],[[37851,40345],[768,0]],[[38619,40345],[1278,0]],[[39897,40345],[3325,-6051],[6650,-1153],[-512,-6628],[3069,-1153],[-1534,-8069],[1534,-288]],[[52429,17003],[-2046,-14698]],[[50383,2305],[-3069,-2017],[-5371,865]],[[31457,41498],[4604,577]],[[36061,42075],[1790,-1730]],[[38619,47262],[0,-288]],[[38619,46974],[-256,-1441]],[[38363,45533],[-2302,-3458]],[[34015,47838],[4604,-576]],[[34015,47838],[256,2017]],[[35038,54754],[512,-2305],[4092,0],[-1023,-5187]],[[42455,48703],[-767,-1441]],[[41688,47262],[-3069,-288]],[[36828,65705],[6138,-2593]],[[42966,63112],[-767,-4323],[1790,-2305],[-1534,-7781]],[[42966,63112],[8440,2593]],[[51406,65705],[-511,-7781],[7672,-864],[0,-3458],[-9974,-3458]],[[48593,50144],[-6138,-1441]],[[87723,63688],[-767,-9798],[1278,-10663],[-511,-5475]],[[87723,37752],[-9974,2305],[-6906,288],[-14322,2594]],[[56521,42939],[-8440,2594]],[[48081,45533],[512,4611]],[[51406,65705],[3836,5764],[10998,12680],[3836,9222],[6138,6628],[6394,-7781],[2046,-3746],[9463,-3170],[5882,-577],[-1535,-8069],[-255,-10086],[-10486,-2882]],[[48081,45533],[-3580,-865]],[[44501,44668],[-2813,2594]],[[44501,44668],[-6138,865]],[[61380,19596],[-1278,-2305],[-7673,-288]],[[39897,40345],[-1278,0]],[[38619,40345],[-768,0]],[[56521,42939],[-1023,-7204],[256,-6629],[2046,-288],[4859,-8357],[-1023,-865]],[[61636,19596],[-256,0]],[[61380,19596],[256,0]],[[87723,37752],[767,-577],[-3580,-21613],[-1023,0]],[[83887,15562],[-768,-3747],[-6138,289],[-767,-4323],[-3836,0]],[[72378,7781],[-3581,-865],[1279,-3746],[-14834,288],[-4859,-1153]]],"transform":{"scale":[3.9100391003900623e-7,3.470034700347088e-7],"translate":[80.0216,24.409800000000004]},"objects":{"wards":{"type":"GeometryCollection","geometries":[{"arcs":[[0,1,2,3,4]],"type":"Polygon","properties":{"objectid":37487,"statename":"Madhya Pradesh","statecode":"23","districtname":null,"districtcode":"426","ulbname":"Amanganj","ulbcode":"802151","wardname":"Bhagat Singh Ward","wardcode":"1","id":null,"status":"APPROVED","misglobalid":null,"approved_by":null,"createdate":1637130097000,"updateddate":1642858446000,"globalid":null,"gisglobalid":"f4af564a-e9d6-4cfa-8c07-01a0ccae14b0","remark":"","st_area(shape)":0.00010554945714480609,"st_perimeter(shape)":0.05732930531867014}},{"arcs":[[5,6,7,0,-1,-5]],"type":"Polygon","properties":{"objectid":37074,"statename":"Madhya Pradesh","statecode":"23","districtname":null,"districtcode":"426","ulbname":"Amanganj","ulbcode":"802151","wardname":"Subhash Ward","wardcode":"2","id":null,"status":"APPROVED","misglobalid":null,"approved_by":null,"createdate":1637130236000,"updateddate":1642858454000,"globalid":null,"gisglobalid":"afc018b5-6ce9-48ed-b0e0-77e6db6c5e54","remark":"","st_area(shape)":0.000005770441521455718,"st_perimeter(shape)":0.011602976686027368}},{"arcs":[[8,-7,9]],"type":"Polygon","properties":{"objectid":35365,"statename":"Madhya Pradesh","statecode":"23","districtname":null,"districtcode":"426","ulbname":"Amanganj","ulbcode":"802151","wardname":"Indira Ward","wardcode":"3","id":null,"status":"APPROVED","misglobalid":null,"approved_by":null,"createdate":1637130307000,"updateddate":1642858462000,"globalid":null,"gisglobalid":"335f2ea4-d880-4d0c-abec-641b9d4b7ab6","remark":"","st_area(shape)":0.000029988003513678353,"st_perimeter(shape)":0.026421937959384998}},{"arcs":[[10,11,12,13,-1,-8,-9,14]],"type":"Polygon","properties":{"objectid":35366,"statename":"Madhya Pradesh","statecode":"23","districtname":null,"districtcode":"426","ulbname":"Amanganj","ulbcode":"802151","wardname":"Jwala Devi Ward","wardcode":"4","id":null,"status":"APPROVED","misglobalid":null,"approved_by":null,"createdate":1637130401000,"updateddate":1642858468000,"globalid":null,"gisglobalid":"fb842820-a952-4a51-8ebe-31dded73dbb1","remark":"","st_area(shape)":0.000019545307874335015,"st_perimeter(shape)":0.023562824345883346}},{"arcs":[[15,16,17,-2,-14,18]],"type":"Polygon","properties":{"objectid":37075,"statename":"Madhya Pradesh","statecode":"23","districtname":null,"districtcode":"426","ulbname":"Amanganj","ulbcode":"802151","wardname":"Azad Ward","wardcode":"5","id":null,"status":"APPROVED","misglobalid":null,"approved_by":null,"createdate":1637130472000,"updateddate":1642858476000,"globalid":null,"gisglobalid":"c48b238b-e62f-4b20-9af1-a3b6035010d9","remark":"","st_area(shape)":0.00006381191107061092,"st_perimeter(shape)":0.0584311553509472}},{"arcs":[[19,20,21,22,23,-17,24,25]],"type":"Polygon","properties":{"objectid":37489,"statename":"Madhya Pradesh","statecode":"23","districtname":null,"districtcode":"426","ulbname":"Amanganj","ulbcode":"802151","wardname":"Ambedkar Ward","wardcode":"6","id":null,"status":"APPROVED","misglobalid":null,"approved_by":null,"createdate":1637130548000,"updateddate":1642858484000,"globalid":null,"gisglobalid":"52cba410-2270-42cb-9f87-5fefb5083f38","remark":"","st_area(shape)":0.00008769293758447657,"st_perimeter(shape)":0.04339402817504942}},{"arcs":[[26,27,28,-25,-16,29]],"type":"Polygon","properties":{"objectid":36081,"statename":"Madhya Pradesh","statecode":"23","districtname":null,"districtcode":"426","ulbname":"Amanganj","ulbcode":"802151","wardname":"Gandhi Ward","wardcode":"7","id":null,"status":"APPROVED","misglobalid":null,"approved_by":null,"createdate":1637130620000,"updateddate":1642858494000,"globalid":null,"gisglobalid":"9e89a182-5760-4995-8658-faf82e85f603","remark":"","st_area(shape)":0.0000037883100611790134,"st_perimeter(shape)":0.008816791009012082}},{"arcs":[[-30,30,-12,31]],"type":"Polygon","properties":{"objectid":36908,"statename":"Madhya Pradesh","statecode":"23","districtname":null,"districtcode":"426","ulbname":"Amanganj","ulbcode":"802151","wardname":"Sanjay Ward","wardcode":"8","id":null,"status":"APPROVED","misglobalid":null,"approved_by":null,"createdate":1637130691000,"updateddate":1642858503000,"globalid":null,"gisglobalid":"a477be49-1772-48a0-a396-47aa303c322a","remark":"","st_area(shape)":0.0000036358428991882834,"st_perimeter(shape)":0.008785286166620762}},{"arcs":[[32,33,-27,-32,-11,34,35]],"type":"Polygon","properties":{"objectid":36601,"statename":"Madhya Pradesh","statecode":"23","districtname":null,"districtcode":"426","ulbname":"Amanganj","ulbcode":"802151","wardname":"Balaji Ward","wardcode":"9","id":null,"status":"APPROVED","misglobalid":null,"approved_by":null,"createdate":1637130785000,"updateddate":1642858511000,"globalid":null,"gisglobalid":"d51a4ed5-d89b-444b-b093-2bbbb8d9de85","remark":"","st_area(shape)":0.000014670529918990098,"st_perimeter(shape)":0.02147390953439811}},{"arcs":[[36,37,38,-36]],"type":"Polygon","properties":{"objectid":37065,"statename":"Madhya Pradesh","statecode":"23","districtname":null,"districtcode":"426","ulbname":"Amanganj","ulbcode":"802151","wardname":"Kasturba Ward","wardcode":"10","id":null,"status":"APPROVED","misglobalid":null,"approved_by":null,"createdate":1637128877000,"updateddate":1642858520000,"globalid":null,"gisglobalid":"361ac304-cb7d-4b0c-9e01-10fa607523b5","remark":"","st_area(shape)":0.00002124976369727535,"st_perimeter(shape)":0.025043427222812945}},{"arcs":[[39,40,41,42,-38,43]],"type":"Polygon","properties":{"objectid":37482,"statename":"Madhya Pradesh","statecode":"23","districtname":null,"districtcode":"426","ulbname":"Amanganj","ulbcode":"802151","wardname":"Chhatrasal Ward","wardcode":"11","id":null,"status":"APPROVED","misglobalid":null,"approved_by":null,"createdate":1637128953000,"updateddate":1642858529000,"globalid":null,"gisglobalid":"055a4421-491c-4586-89a5-5cc2a9d4221e","remark":"","st_area(shape)":0.000249168480478306,"st_perimeter(shape)":0.07765511514579546}},{"arcs":[[-43,44,45,-33,-39]],"type":"Polygon","properties":{"objectid":37066,"statename":"Madhya Pradesh","statecode":"23","districtname":null,"districtcode":"426","ulbname":"Amanganj","ulbcode":"802151","wardname":"Nehru Ward","wardcode":"12","id":null,"status":"APPROVED","misglobalid":null,"approved_by":null,"createdate":1637129045000,"updateddate":1642858537000,"globalid":null,"gisglobalid":"8debbe4f-2c58-422f-a88a-465bbb468ad3","remark":"","st_area(shape)":0.000003066506220872959,"st_perimeter(shape)":0.009078637028357478}},{"arcs":[[-46,46,-28,-27,26,-34]],"type":"Polygon","properties":{"objectid":37850,"statename":"Madhya Pradesh","statecode":"23","districtname":null,"districtcode":"426","ulbname":"Amanganj","ulbcode":"802151","wardname":"Aman Singh Ward","wardcode":"13","id":null,"status":"APPROVED","misglobalid":null,"approved_by":null,"createdate":1637129143000,"updateddate":1642858549000,"globalid":null,"gisglobalid":"857589ac-b403-431d-8743-38618a654bf4","remark":"","st_area(shape)":0.0000016612363910070126,"st_perimeter(shape)":0.006542401934439845}},{"arcs":[[47,-22,48,49,-26,-29,-47,-45,-42,50,51,52,-53]],"type":"Polygon","properties":{"objectid":37067,"statename":"Madhya Pradesh","statecode":"23","districtname":null,"districtcode":"426","ulbname":"Amanganj","ulbcode":"802151","wardname":"Shastri Ward","wardcode":"14","id":null,"status":"APPROVED","misglobalid":null,"approved_by":null,"createdate":1637129234000,"updateddate":1642858562000,"globalid":null,"gisglobalid":"0c77afeb-5728-4296-a250-f58233bfc5c2","remark":"","st_area(shape)":0.00004272741539435187,"st_perimeter(shape)":0.0397514636505094}},{"arcs":[[52,-53,-52,-51,-41,53,54,55,-23,-48]],"type":"Polygon","properties":{"objectid":35358,"statename":"Madhya Pradesh","statecode":"23","districtname":null,"districtcode":"426","ulbname":"Amanganj","ulbcode":"802151","wardname":"Patel Ward","wardcode":"15","id":null,"status":"APPROVED","misglobalid":null,"approved_by":null,"createdate":1637129333000,"updateddate":1642858575000,"globalid":null,"gisglobalid":"62ad6393-c58e-40f0-9764-718cdd7d0d34","remark":"","st_area(shape)":0.0001404592994935009,"st_perimeter(shape)":0.061044172415884355}}]}}}