{"type": "FeatureCollection", "features": [{"type": "Feature", "geometry": {"type": "Polygon", "coordinates": [[[77.5309, 26.7593], [77.5288, 26.7527], [77.5262, 26.7518], [77.5256, 26.7517], [77.5252, 26.7519], [77.5254, 26.7526], [77.525, 26.7527], [77.5251, 26.7529], [77.5244, 26.7531], [77.5236, 26.7533], [77.5236, 26.7539], [77.5237, 26.7543], [77.5237, 26.7544], [77.5237, 26.7547], [77.5237, 26.755], [77.5238, 26.7556], [77.5238, 26.7559], [77.5239, 26.7562], [77.5239, 26.7569], [77.5241, 26.7584], [77.5243, 26.7603], [77.5244, 26.7614], [77.5244, 26.7621], [77.5245, 26.7629], [77.5246, 26.7636], [77.5246, 26.764], [77.5246, 26.7643], [77.5247, 26.7646], [77.5253, 26.7646], [77.526, 26.7644], [77.5303, 26.7621], [77.5312, 26.762], [77.5319, 26.7618], [77.5319, 26.7613], [77.5314, 26.7607], [77.5308, 26.7601], [77.5309, 26.7593]]]}, "properties": {"objectid": 247972, "statename": "Rajasthan", "statecode": "8", "districtname": "Dhaulpur", "districtcode": "106", "ulbname": "Baseri", "ulbcode": "900715", "wardname": "Ward 1", "wardcode": "1", "id": null, "status": "APPROVED", "misglobalid": null, "approved_by": null, "createdate": 1648209347000, "updateddate": 1648209368000, "globalid": null, "gisglobalid": "4cnoBnRc-mlQl-PcR6-Ra5a-m6dsPK4K4Qlo", "remark": "", "st_area(shape)": 6.93008735886672e-05, "st_perimeter(shape)": 0.03571070822799856}}, {"type": "Feature", "geometry": {"type": "Polygon", "coordinates": [[[77.5247, 26.7646], [77.5236, 26.7533], [77.5181, 26.7615], [77.5152, 26.7637], [77.5108, 26.7673], [77.5127, 26.7701], [77.5151, 26.7696], [77.5205, 26.7682], [77.5247, 26.7646]]]}, "properties": {"objectid": 247978, "statename": "Rajasthan", "statecode": "8", "districtname": "Dhaulpur", "districtcode": "106", "ulbname": "Baseri", "ulbcode": "900715", "wardname": "Ward 2", "wardcode": "2", "id": null, "status": "APPROVED", "misglobalid": null, "approved_by": null, "createdate": 1648210460000, "updateddate": 1648210472000, "globalid": null, "gisglobalid": "daosmB64-n6d4-Plcc-Q5BQ-RPmPns6lRKad", "remark": "", "st_area(shape)": 9.829341416944687e-05, "st_perimeter(shape)": 0.047321950329728385}}, {"type": "Feature", "geometry": {"type": "Polygon", "coordinates": [[[77.5123, 26.7695], [77.5108, 26.7673], [77.513, 26.7656], [77.5154, 26.7636], [77.5161, 26.763], [77.5181, 26.7615], [77.5193, 26.7597], [77.5205, 26.7579], [77.5212, 26.7569], [77.5223, 26.7552], [77.5208, 26.7545], [77.5188, 26.7544], [77.5155, 26.7545], [77.5108, 26.7556], [77.5074, 26.755], [77.5051, 26.7565], [77.5039, 26.7566], [77.5027, 26.7578], [77.5019, 26.7588], [77.5015, 26.7594], [77.502, 26.7607], [77.5027, 26.7622], [77.5014, 26.7631], [77.5022, 26.7646], [77.5078, 26.7686], [77.5088, 26.7689], [77.5088, 26.7691], [77.509, 26.7692], [77.509, 26.7693], [77.5093, 26.7692], [77.51, 26.7695], [77.5107, 26.7697], [77.5118, 26.77], [77.5123, 26.7695]]]}, "properties": {"objectid": 249522, "statename": "Rajasthan", "statecode": "8", "districtname": "Dhaulpur", "districtcode": "106", "ulbname": "Baseri", "ulbcode": "900715", "wardname": "Ward 3", "wardcode": "3", "id": null, "status": "APPROVED", "misglobalid": null, "approved_by": null, "createdate": 1648210535000, "updateddate": 1648210544000, "globalid": null, "gisglobalid": "coBm6R5l-B5lK-PQQc-Q4do-scoQalosR654", "remark": "", "st_area(shape)": 0.0001877057081765121, "st_perimeter(shape)": 0.06085954045350881}}, {"type": "Feature", "geometry": {"type": "Polygon", "coordinates": [[[77.5208, 26.7545], [77.5223, 26.7552], [77.5236, 26.7533], [77.5244, 26.7531], [77.5251, 26.7529], [77.525, 26.7527], [77.5254, 26.7526], [77.5252, 26.7519], [77.5256, 26.7517], [77.5262, 26.7518], [77.5275, 26.7523], [77.5365, 26.7493], [77.5365, 26.7494], [77.5367, 26.7494], [77.5367, 26.7493], [77.5369, 26.7492], [77.5367, 26.749], [77.5366, 26.7489], [77.5365, 26.7488], [77.5365, 26.7487], [77.5365, 26.7486], [77.5365, 26.7485], [77.5367, 26.7485], [77.5367, 26.7484], [77.5367, 26.7483], [77.5367, 26.7481], [77.5366, 26.748], [77.5366, 26.7479], [77.5365, 26.7478], [77.5365, 26.7477], [77.5363, 26.7475], [77.5362, 26.7474], [77.5361, 26.7475], [77.536, 26.7475], [77.536, 26.7474], [77.5359, 26.7473], [77.5359, 26.7472], [77.5359, 26.7471], [77.5357, 26.747], [77.5351, 26.7469], [77.5346, 26.7468], [77.5342, 26.7466], [77.5336, 26.7465], [77.5334, 26.7467], [77.5331, 26.7469], [77.5328, 26.7469], [77.5326, 26.7472], [77.5324, 26.7481], [77.5282, 26.7488], [77.5269, 26.7488], [77.5248, 26.7502], [77.5229, 26.7512], [77.5218, 26.7519], [77.521, 26.7523], [77.5208, 26.7545]]]}, "properties": {"objectid": 250753, "statename": "Rajasthan", "statecode": "8", "districtname": "Dhaulpur", "districtcode": "106", "ulbname": "Baseri", "ulbcode": "900715", "wardname": "Ward 4", "wardcode": "4", "id": null, "status": "APPROVED", "misglobalid": null, "approved_by": null, "createdate": 1648210598000, "updateddate": 1648210611000, "globalid": null, "gisglobalid": "PoQlo4sd-nRna-PKBo-soKd-5olcdllQcBKm", "remark": "", "st_area(shape)": 4.56111900660269e-05, "st_perimeter(shape)": 0.041616702119824656}}, {"type": "Feature", "geometry": {"type": "Polygon", "coordinates": [[[77.5336, 26.7465], [77.5334, 26.7464], [77.5331, 26.7463], [77.5323, 26.7459], [77.5321, 26.7457], [77.5319, 26.7456], [77.5317, 26.7454], [77.5316, 26.7452], [77.5314, 26.7451], [77.5307, 26.7449], [77.5304, 26.7445], [77.53, 26.7445], [77.5291, 26.7439], [77.5291, 26.7433], [77.5291, 26.7426], [77.5288, 26.7415], [77.5275, 26.7418], [77.5262, 26.7416], [77.524, 26.7419], [77.5226, 26.7418], [77.5209, 26.7418], [77.5207, 26.7413], [77.5207, 26.7405], [77.5205, 26.7403], [77.5208, 26.7399], [77.5213, 26.7395], [77.5209, 26.7392], [77.5206, 26.7386], [77.5201, 26.7378], [77.5161, 26.7376], [77.5143, 26.738], [77.521, 26.7523], [77.5218, 26.7519], [77.5229, 26.7512], [77.5239, 26.7507], [77.5247, 26.7502], [77.5259, 26.7494], [77.5269, 26.7488], [77.5271, 26.7488], [77.5282, 26.7488], [77.5324, 26.7481], [77.5326, 26.7472], [77.5328, 26.7469], [77.5331, 26.7469], [77.5334, 26.7467], [77.5336, 26.7465]]]}, "properties": {"objectid": 250754, "statename": "Rajasthan", "statecode": "8", "districtname": "Dhaulpur", "districtcode": "106", "ulbname": "Baseri", "ulbcode": "900715", "wardname": "Ward 5", "wardcode": "5", "id": null, "status": "APPROVED", "misglobalid": null, "approved_by": null, "createdate": 1648210734000, "updateddate": 1648210756000, "globalid": null, "gisglobalid": "oQRlmBR6-46Bl-PcRn-anRd-6nRloK6n6a56", "remark": "", "st_area(shape)": 0.0001291605890580408, "st_perimeter(shape)": 0.05699700975935866}}, {"type": "Feature", "geometry": {"type": "Polygon", "coordinates": [[[77.5333, 26.7464], [77.5334, 26.7464], [77.5336, 26.7453], [77.5335, 26.7452], [77.5335, 26.745], [77.5334, 26.7448], [77.5335, 26.7448], [77.5336, 26.7448], [77.5337, 26.7447], [77.5338, 26.7447], [77.5336, 26.7444], [77.5333, 26.7439], [77.533, 26.744], [77.5326, 26.7441], [77.5321, 26.7442], [77.5322, 26.7444], [77.5319, 26.7445], [77.5317, 26.7446], [77.5316, 26.7446], [77.5316, 26.7445], [77.5318, 26.7444], [77.5317, 26.7443], [77.5313, 26.7444], [77.531, 26.7444], [77.5308, 26.7445], [77.5306, 26.7445], [77.5304, 26.7445], [77.5307, 26.7449], [77.5311, 26.745], [77.5313, 26.7451], [77.5314, 26.7451], [77.5315, 26.7452], [77.5316, 26.7452], [77.5316, 26.7453], [77.5317, 26.7454], [77.5318, 26.7455], [77.5319, 26.7456], [77.532, 26.7457], [77.5321, 26.7458], [77.5323, 26.7459], [77.5325, 26.746], [77.5328, 26.7461], [77.5331, 26.7463], [77.5333, 26.7464]]]}, "properties": {"objectid": 247979, "statename": "Rajasthan", "statecode": "8", "districtname": "Dhaulpur", "districtcode": "106", "ulbname": "Baseri", "ulbcode": "900715", "wardname": "Ward 6", "wardcode": "6", "id": null, "status": "APPROVED", "misglobalid": null, "approved_by": null, "createdate": 1648210751000, "updateddate": 1648210772000, "globalid": null, "gisglobalid": "RmnnlRBl-oRR6-PoQ4-aRB5-6mKcRQQsdscs", "remark": "", "st_area(shape)": 4.034502960710285e-06, "st_perimeter(shape)": 0.010346474381757991}}, {"type": "Feature", "geometry": {"type": "Polygon", "coordinates": [[[77.533, 26.744], [77.5333, 26.7439], [77.5337, 26.7437], [77.534, 26.7437], [77.5343, 26.7436], [77.5346, 26.7434], [77.5344, 26.7428], [77.5343, 26.7424], [77.5342, 26.7421], [77.5341, 26.7415], [77.5339, 26.741], [77.5343, 26.7409], [77.5341, 26.7406], [77.5346, 26.7404], [77.5343, 26.7394], [77.5353, 26.7391], [77.5352, 26.7387], [77.5351, 26.7387], [77.5341, 26.7385], [77.534, 26.7381], [77.5342, 26.738], [77.5342, 26.7378], [77.5329, 26.738], [77.53, 26.738], [77.5285, 26.7379], [77.5271, 26.7379], [77.5228, 26.7375], [77.5201, 26.7378], [77.5203, 26.7381], [77.5205, 26.7384], [77.5206, 26.7387], [77.5208, 26.739], [77.5209, 26.7392], [77.5213, 26.7395], [77.5208, 26.7399], [77.5205, 26.7403], [77.5207, 26.7405], [77.5207, 26.7409], [77.5207, 26.7412], [77.5207, 26.7413], [77.5209, 26.7418], [77.5216, 26.7418], [77.5226, 26.7418], [77.524, 26.7419], [77.5262, 26.7416], [77.5275, 26.7418], [77.5288, 26.7415], [77.5291, 26.7426], [77.5291, 26.7433], [77.5291, 26.7439], [77.53, 26.7445], [77.5304, 26.7445], [77.5306, 26.7445], [77.5308, 26.7445], [77.531, 26.7444], [77.5313, 26.7444], [77.5316, 26.7443], [77.5317, 26.7443], [77.5318, 26.7444], [77.5316, 26.7445], [77.5316, 26.7446], [77.5317, 26.7446], [77.5318, 26.7445], [77.5322, 26.7444], [77.5321, 26.7442], [77.5324, 26.7442], [77.5327, 26.7441], [77.5329, 26.744], [77.533, 26.744]]]}, "properties": {"objectid": 249523, "statename": "Rajasthan", "statecode": "8", "districtname": "Dhaulpur", "districtcode": "106", "ulbname": "Baseri", "ulbcode": "900715", "wardname": "Ward 7", "wardcode": "7", "id": null, "status": "APPROVED", "misglobalid": null, "approved_by": null, "createdate": 1648210830000, "updateddate": 1648210851000, "globalid": null, "gisglobalid": "Pman6cK5-onBR-P4aK-RlRm-dPmnRRPa5Bdd", "remark": "", "st_area(shape)": 6.659491933856608e-05, "st_perimeter(shape)": 0.04417946104328913}}, {"type": "Feature", "geometry": {"type": "Polygon", "coordinates": [[[77.5352, 26.7387], [77.5365, 26.7387], [77.5377, 26.7388], [77.5387, 26.7388], [77.5402, 26.7389], [77.541, 26.7389], [77.5407, 26.7402], [77.5411, 26.7402], [77.5416, 26.7402], [77.5423, 26.7401], [77.5438, 26.74], [77.544, 26.7396], [77.5443, 26.7388], [77.5446, 26.7379], [77.5449, 26.7374], [77.5451, 26.7368], [77.5453, 26.7363], [77.5455, 26.7358], [77.5457, 26.7353], [77.5462, 26.7339], [77.5468, 26.7325], [77.5471, 26.7317], [77.5473, 26.7311], [77.5474, 26.7307], [77.5475, 26.7305], [77.5453, 26.7307], [77.5415, 26.7309], [77.5361, 26.731], [77.5346, 26.7307], [77.5332, 26.7309], [77.534, 26.7378], [77.5342, 26.7378], [77.5342, 26.738], [77.534, 26.7381], [77.5341, 26.7385], [77.5351, 26.7387], [77.5352, 26.7387]]]}, "properties": {"objectid": 249201, "statename": "Rajasthan", "statecode": "8", "districtname": "Dhaulpur", "districtcode": "106", "ulbname": "Baseri", "ulbcode": "900715", "wardname": "Ward 8", "wardcode": "8", "id": null, "status": "APPROVED", "misglobalid": null, "approved_by": null, "createdate": 1648210927000, "updateddate": 1648210998000, "globalid": null, "gisglobalid": "5B66lmln-6oca-Plco-asl5-n6PQoKQd6KPm", "remark": "", "st_area(shape)": 0.00010135959966967349, "st_perimeter(shape)": 0.04391368596627939}}, {"type": "Feature", "geometry": {"type": "Polygon", "coordinates": [[[77.5515, 26.7495], [77.5525, 26.7495], [77.5535, 26.7493], [77.5542, 26.7492], [77.5547, 26.7492], [77.5548, 26.7497], [77.5553, 26.7497], [77.5554, 26.7493], [77.5561, 26.7493], [77.5565, 26.7477], [77.5563, 26.7471], [77.5568, 26.7463], [77.5577, 26.7455], [77.5573, 26.7334], [77.5584, 26.7279], [77.5575, 26.7272], [77.5565, 26.7269], [77.5495, 26.7254], [77.5478, 26.7296], [77.5468, 26.7325], [77.5542, 26.7451], [77.5537, 26.7459], [77.5531, 26.7468], [77.5525, 26.7477], [77.5522, 26.7483], [77.5515, 26.7495]]]}, "properties": {"objectid": 250755, "statename": "Rajasthan", "statecode": "8", "districtname": "Dhaulpur", "districtcode": "106", "ulbname": "Baseri", "ulbcode": "900715", "wardname": "Ward 9", "wardcode": "9", "id": null, "status": "APPROVED", "misglobalid": null, "approved_by": null, "createdate": 1648210980000, "updateddate": 1648210988000, "globalid": null, "gisglobalid": "6l5oanQ5-5oP5-PKaP-Qosl-QllcmPoBolld", "remark": "", "st_area(shape)": 0.00016648380438850048, "st_perimeter(shape)": 0.06436146719638136}}, {"type": "Feature", "geometry": {"type": "Polygon", "coordinates": [[[77.5479, 26.7538], [77.5489, 26.7547], [77.5495, 26.7545], [77.551, 26.755], [77.5524, 26.7564], [77.5519, 26.7573], [77.5523, 26.7576], [77.5538, 26.758], [77.5552, 26.7572], [77.5546, 26.7563], [77.5539, 26.7551], [77.5525, 26.7528], [77.5521, 26.7516], [77.5513, 26.7525], [77.5512, 26.7528], [77.5497, 26.753], [77.5493, 26.7526], [77.5486, 26.7526], [77.5483, 26.7526], [77.5483, 26.7529], [77.5482, 26.7533], [77.548, 26.7535], [77.5479, 26.7538]]]}, "properties": {"objectid": 248786, "statename": "Rajasthan", "statecode": "8", "districtname": "Dhaulpur", "districtcode": "106", "ulbname": "Baseri", "ulbcode": "900715", "wardname": "Ward 10", "wardcode": "10", "id": null, "status": "APPROVED", "misglobalid": null, "approved_by": null, "createdate": 1648211056000, "updateddate": 1648211073000, "globalid": null, "gisglobalid": "6ol5Qsnd-PBlQ-P444-QsBB-KoK4mmBa4nP6", "remark": "", "st_area(shape)": 1.8181627975566903e-05, "st_perimeter(shape)": 0.022607194375577}}, {"type": "Feature", "geometry": {"type": "Polygon", "coordinates": [[[77.543, 26.7478], [77.5432, 26.7479], [77.5433, 26.7483], [77.5435, 26.7485], [77.5436, 26.7488], [77.5437, 26.7491], [77.5439, 26.7499], [77.5441, 26.7506], [77.5444, 26.7517], [77.5447, 26.7516], [77.5454, 26.7519], [77.5455, 26.7514], [77.5458, 26.7506], [77.5458, 26.7499], [77.5464, 26.7499], [77.5473, 26.7499], [77.5485, 26.7499], [77.5496, 26.7497], [77.5515, 26.7496], [77.5522, 26.7483], [77.5531, 26.7468], [77.5536, 26.746], [77.5542, 26.7451], [77.5532, 26.7434], [77.5485, 26.7354], [77.5468, 26.7325], [77.5438, 26.74], [77.5433, 26.7411], [77.5432, 26.7414], [77.5431, 26.7418], [77.5428, 26.7427], [77.5427, 26.7431], [77.5427, 26.7438], [77.5427, 26.7446], [77.5427, 26.745], [77.5427, 26.7454], [77.5429, 26.746], [77.5426, 26.7461], [77.5427, 26.7466], [77.5429, 26.7472], [77.543, 26.7478]]]}, "properties": {"objectid": 247980, "statename": "Rajasthan", "statecode": "8", "districtname": "Dhaulpur", "districtcode": "106", "ulbname": "Baseri", "ulbcode": "900715", "wardname": "Ward 11", "wardcode": "11", "id": null, "status": "APPROVED", "misglobalid": null, "approved_by": null, "createdate": 1648211126000, "updateddate": 1648211391000, "globalid": null, "gisglobalid": "KmR5adnK-l65l-P4la-aKQQ-PRsKd4cQ5Bdl", "remark": "", "st_area(shape)": 0.0001253089338057252, "st_perimeter(shape)": 0.04930068650661775}}, {"type": "Feature", "geometry": {"type": "Polygon", "coordinates": [[[77.5449, 26.7538], [77.5479, 26.7538], [77.548, 26.7535], [77.5482, 26.7533], [77.5483, 26.7529], [77.5483, 26.7526], [77.5486, 26.7526], [77.5493, 26.7526], [77.5497, 26.753], [77.5512, 26.7528], [77.5513, 26.7525], [77.5521, 26.7516], [77.5515, 26.7496], [77.5496, 26.7497], [77.5484, 26.7499], [77.5458, 26.7499], [77.5458, 26.7505], [77.5454, 26.7519], [77.5447, 26.7516], [77.5444, 26.7517], [77.5449, 26.7538]]]}, "properties": {"objectid": 254837, "statename": "Rajasthan", "statecode": "8", "districtname": "Dhaulpur", "districtcode": "106", "ulbname": "Baseri", "ulbcode": "900715", "wardname": "Ward 12", "wardcode": "12", "id": null, "status": "APPROVED", "misglobalid": null, "approved_by": null, "createdate": 1648628528000, "updateddate": 1648628553000, "globalid": null, "gisglobalid": "4o4al6mQ-BsR4-Pmm5-salB-RnBo554lKnRs", "remark": "", "st_area(shape)": 2.292310026421958e-05, "st_perimeter(shape)": 0.022026096777984353}}, {"type": "Feature", "geometry": {"type": "Polygon", "coordinates": [[[77.5349, 26.7723], [77.537, 26.7731], [77.5408, 26.7741], [77.5419, 26.773], [77.5414, 26.7711], [77.5411, 26.7641], [77.5437, 26.7607], [77.5456, 26.7599], [77.5461, 26.7597], [77.547, 26.7592], [77.5471, 26.7581], [77.5449, 26.7537], [77.5444, 26.7518], [77.5439, 26.7518], [77.5427, 26.7519], [77.5418, 26.7509], [77.5409, 26.7502], [77.5407, 26.7503], [77.5406, 26.7506], [77.5405, 26.7508], [77.5397, 26.7511], [77.5395, 26.7511], [77.5392, 26.7506], [77.5387, 26.7502], [77.5383, 26.7506], [77.5383, 26.751], [77.5384, 26.7514], [77.5385, 26.7518], [77.5384, 26.7524], [77.5384, 26.7525], [77.5389, 26.7526], [77.539, 26.7529], [77.5388, 26.7531], [77.5383, 26.7533], [77.5381, 26.7534], [77.5378, 26.7537], [77.5376, 26.7539], [77.5372, 26.754], [77.537, 26.7547], [77.5369, 26.7551], [77.5369, 26.7556], [77.5367, 26.7562], [77.5368, 26.7569], [77.5366, 26.7583], [77.5368, 26.7592], [77.5373, 26.7595], [77.5374, 26.7599], [77.5373, 26.7607], [77.5375, 26.7617], [77.5376, 26.7633], [77.5376, 26.7685], [77.5349, 26.7723]]]}, "properties": {"objectid": 249524, "statename": "Rajasthan", "statecode": "8", "districtname": "Dhaulpur", "districtcode": "106", "ulbname": "Baseri", "ulbcode": "900715", "wardname": "Ward 13", "wardcode": "13", "id": null, "status": "APPROVED", "misglobalid": null, "approved_by": null, "createdate": 1648212806000, "updateddate": 1648212836000, "globalid": null, "gisglobalid": "nBasclmK-dRma-PnKm-a5m4-PB5olson6cKc", "remark": "", "st_area(shape)": 0.00013863554380989706, "st_perimeter(shape)": 0.06514795977344359}}, {"type": "Feature", "geometry": {"type": "Polygon", "coordinates": [[[77.5367, 26.7506], [77.536, 26.7512], [77.5361, 26.7517], [77.5364, 26.7516], [77.5367, 26.7524], [77.5367, 26.753], [77.5367, 26.7532], [77.5368, 26.7533], [77.5369, 26.7533], [77.5371, 26.7534], [77.5373, 26.7534], [77.5373, 26.7536], [77.5373, 26.7538], [77.5376, 26.7538], [77.538, 26.7535], [77.5381, 26.7534], [77.5383, 26.7533], [77.539, 26.7529], [77.5389, 26.7527], [77.5384, 26.7526], [77.5384, 26.7524], [77.5385, 26.7519], [77.5384, 26.7514], [77.5383, 26.751], [77.5383, 26.7506], [77.5387, 26.7501], [77.539, 26.7499], [77.5391, 26.7497], [77.5392, 26.7494], [77.5394, 26.7493], [77.5396, 26.7491], [77.5398, 26.749], [77.5398, 26.7486], [77.5397, 26.7484], [77.5397, 26.7481], [77.5396, 26.7478], [77.5395, 26.7475], [77.539, 26.7475], [77.5386, 26.7475], [77.5383, 26.7474], [77.5382, 26.7474], [77.5379, 26.7475], [77.538, 26.7478], [77.538, 26.7479], [77.538, 26.7482], [77.538, 26.7486], [77.538, 26.7489], [77.5378, 26.7493], [77.5377, 26.7502], [77.5375, 26.7502], [77.5367, 26.7506]]]}, "properties": {"objectid": 248787, "statename": "Rajasthan", "statecode": "8", "districtname": "Dhaulpur", "districtcode": "106", "ulbname": "Baseri", "ulbcode": "900715", "wardname": "Ward 14", "wardcode": "14", "id": null, "status": "APPROVED", "misglobalid": null, "approved_by": null, "createdate": 1648461598000, "updateddate": 1648461628000, "globalid": null, "gisglobalid": "docKRcBn-Rlll-P5ad-aPl6-saR4lP6BoQ5m", "remark": "", "st_area(shape)": 1.0580178674689829e-05, "st_perimeter(shape)": 0.01840025120541676}}, {"type": "Feature", "geometry": {"type": "Polygon", "coordinates": [[[77.5379, 26.7475], [77.5377, 26.7475], [77.5375, 26.7476], [77.5372, 26.7476], [77.5371, 26.7476], [77.537, 26.7477], [77.5369, 26.7477], [77.5367, 26.7478], [77.5366, 26.7479], [77.5366, 26.748], [77.5367, 26.7482], [77.5367, 26.7484], [77.5367, 26.7485], [77.5365, 26.7485], [77.5365, 26.7486], [77.5365, 26.7487], [77.5365, 26.7488], [77.5366, 26.7489], [77.5367, 26.749], [77.5368, 26.7491], [77.5369, 26.7492], [77.5371, 26.7491], [77.5373, 26.7491], [77.5374, 26.7491], [77.5375, 26.7491], [77.5376, 26.7491], [77.5378, 26.7491], [77.5378, 26.7492], [77.5379, 26.7492], [77.5379, 26.749], [77.538, 26.7489], [77.538, 26.7486], [77.538, 26.7484], [77.538, 26.7483], [77.538, 26.748], [77.538, 26.7479], [77.538, 26.7477], [77.538, 26.7476], [77.5379, 26.7475]]]}, "properties": {"objectid": 252016, "statename": "Rajasthan", "statecode": "8", "districtname": "Dhaulpur", "districtcode": "106", "ulbname": "Baseri", "ulbcode": "900715", "wardname": "Ward 15", "wardcode": "15", "id": null, "status": "APPROVED", "misglobalid": null, "approved_by": null, "createdate": 1648461666000, "updateddate": 1648461724000, "globalid": null, "gisglobalid": "Ka6RoBRK-dBnn-PB6l-a5K4-dP5dcRsRo5BP", "remark": "", "st_area(shape)": 2.0293593808066977e-06, "st_perimeter(shape)": 0.005853644450790433}}, {"type": "Feature", "geometry": {"type": "Polygon", "coordinates": [[[77.5359, 26.7471], [77.5363, 26.7471], [77.5362, 26.7469], [77.5362, 26.7467], [77.5363, 26.7467], [77.5364, 26.7466], [77.5364, 26.7465], [77.5365, 26.7464], [77.5365, 26.7462], [77.5364, 26.7461], [77.5364, 26.7459], [77.5363, 26.7458], [77.5362, 26.7456], [77.5362, 26.7455], [77.5361, 26.7454], [77.5361, 26.7453], [77.5361, 26.7451], [77.536, 26.745], [77.5359, 26.745], [77.5357, 26.745], [77.5355, 26.745], [77.5354, 26.7448], [77.5348, 26.7449], [77.5347, 26.7445], [77.5343, 26.7446], [77.5342, 26.7446], [77.534, 26.7447], [77.5338, 26.7447], [77.5336, 26.7448], [77.5335, 26.7448], [77.5334, 26.7448], [77.5335, 26.745], [77.5335, 26.7452], [77.5336, 26.7453], [77.5334, 26.7464], [77.5336, 26.7465], [77.5338, 26.7465], [77.5342, 26.7466], [77.5346, 26.7468], [77.5348, 26.7468], [77.5352, 26.7469], [77.5357, 26.747], [77.5359, 26.7471]]]}, "properties": {"objectid": 250010, "statename": "Rajasthan", "statecode": "8", "districtname": "Dhaulpur", "districtcode": "106", "ulbname": "Baseri", "ulbcode": "900715", "wardname": "Ward 16", "wardcode": "16", "id": null, "status": "APPROVED", "misglobalid": null, "approved_by": null, "createdate": 1648211572000, "updateddate": 1648211591000, "globalid": null, "gisglobalid": "RmBP4c5m-s46s-Pscl-QsBc-BaonP4nQdB6a", "remark": "", "st_area(shape)": 5.697899842062147e-06, "st_perimeter(shape)": 0.010287112878556583}}, {"type": "Feature", "geometry": {"type": "Polygon", "coordinates": [[[77.5366, 26.7479], [77.5368, 26.7478], [77.5369, 26.7477], [77.5371, 26.7476], [77.5372, 26.7476], [77.5373, 26.7476], [77.5374, 26.7476], [77.5375, 26.7476], [77.5376, 26.7476], [77.5376, 26.7475], [77.5376, 26.7474], [77.5375, 26.7473], [77.5374, 26.7471], [77.5374, 26.7468], [77.5371, 26.7469], [77.5369, 26.7469], [77.5369, 26.7467], [77.5369, 26.7465], [77.5368, 26.7464], [77.5366, 26.7464], [77.5364, 26.7465], [77.5364, 26.7466], [77.5363, 26.7467], [77.5362, 26.7467], [77.5362, 26.7468], [77.5362, 26.7469], [77.5363, 26.7469], [77.5363, 26.7471], [77.5361, 26.7471], [77.536, 26.7471], [77.5359, 26.7471], [77.5359, 26.7472], [77.5359, 26.7473], [77.536, 26.7474], [77.536, 26.7475], [77.5361, 26.7475], [77.5362, 26.7474], [77.5363, 26.7475], [77.5364, 26.7476], [77.5365, 26.7477], [77.5365, 26.7478], [77.5366, 26.7479]]]}, "properties": {"objectid": 247981, "statename": "Rajasthan", "statecode": "8", "districtname": "Dhaulpur", "districtcode": "106", "ulbname": "Baseri", "ulbcode": "900715", "wardname": "Ward 17", "wardcode": "17", "id": null, "status": "APPROVED", "misglobalid": null, "approved_by": null, "createdate": 1648211659000, "updateddate": 1648211681000, "globalid": null, "gisglobalid": "P455dnl4-oPR5-Po54-RQsR-mR6RaBQ6mmll", "remark": "", "st_area(shape)": 1.337525442264905e-06, "st_perimeter(shape)": 0.0058058541172844695}}, {"type": "Feature", "geometry": {"type": "Polygon", "coordinates": [[[77.5365, 26.7387], [77.5352, 26.7387], [77.5353, 26.7391], [77.5343, 26.7394], [77.5346, 26.7404], [77.5341, 26.7406], [77.5343, 26.7409], [77.5339, 26.741], [77.5341, 26.7416], [77.5342, 26.7421], [77.5343, 26.7424], [77.5344, 26.7428], [77.5345, 26.743], [77.5345, 26.7432], [77.5346, 26.7434], [77.534, 26.7437], [77.5337, 26.7437], [77.5333, 26.7439], [77.5335, 26.7442], [77.5336, 26.7445], [77.5338, 26.7447], [77.534, 26.7446], [77.5342, 26.7446], [77.5343, 26.7446], [77.5347, 26.7445], [77.5348, 26.7449], [77.5354, 26.7448], [77.5355, 26.745], [77.5357, 26.745], [77.5359, 26.745], [77.536, 26.745], [77.5361, 26.7451], [77.5361, 26.7452], [77.5361, 26.7453], [77.5361, 26.7454], [77.5362, 26.7455], [77.5362, 26.7456], [77.5363, 26.7457], [77.5363, 26.7458], [77.5364, 26.7459], [77.5364, 26.7461], [77.5365, 26.7462], [77.5365, 26.7464], [77.5367, 26.7464], [77.5367, 26.7462], [77.5368, 26.7461], [77.5369, 26.7461], [77.537, 26.7461], [77.5374, 26.7459], [77.5377, 26.7459], [77.5378, 26.7458], [77.5382, 26.7457], [77.5381, 26.7452], [77.538, 26.7448], [77.5379, 26.7441], [77.5378, 26.7437], [77.5377, 26.7433], [77.5377, 26.7429], [77.5375, 26.7425], [77.5375, 26.7421], [77.5373, 26.7417], [77.5372, 26.7412], [77.5371, 26.7407], [77.5369, 26.7401], [77.5368, 26.7399], [77.5366, 26.7392], [77.5365, 26.7387]]]}, "properties": {"objectid": 248382, "statename": "Rajasthan", "statecode": "8", "districtname": "Dhaulpur", "districtcode": "106", "ulbname": "Baseri", "ulbcode": "900715", "wardname": "Ward 18", "wardcode": "18", "id": null, "status": "APPROVED", "misglobalid": null, "approved_by": null, "createdate": 1648211755000, "updateddate": 1648211769000, "globalid": null, "gisglobalid": "mdomndQd-5ln5-P6PR-sdlB-RPK6snBBoon6", "remark": "", "st_area(shape)": 2.0910237672654172e-05, "st_perimeter(shape)": 0.023392951595579147}}, {"type": "Feature", "geometry": {"type": "Polygon", "coordinates": [[[77.5395, 26.7475], [77.5394, 26.7472], [77.5391, 26.747], [77.5389, 26.7469], [77.5386, 26.7467], [77.5386, 26.7465], [77.5386, 26.7463], [77.5386, 26.7461], [77.5385, 26.7458], [77.5382, 26.7457], [77.5378, 26.7458], [77.5377, 26.7459], [77.5374, 26.7459], [77.537, 26.7461], [77.5369, 26.7461], [77.5368, 26.7461], [77.5367, 26.7462], [77.5367, 26.7464], [77.5368, 26.7464], [77.5369, 26.7465], [77.5369, 26.7466], [77.5369, 26.7469], [77.5374, 26.7468], [77.5374, 26.7471], [77.5375, 26.7472], [77.5375, 26.7473], [77.5376, 26.7474], [77.5376, 26.7476], [77.5377, 26.7475], [77.5378, 26.7475], [77.5379, 26.7475], [77.5382, 26.7474], [77.5386, 26.7474], [77.5391, 26.7475], [77.5394, 26.7475], [77.5395, 26.7475]]]}, "properties": {"objectid": 247982, "statename": "Rajasthan", "statecode": "8", "districtname": "Dhaulpur", "districtcode": "106", "ulbname": "Baseri", "ulbcode": "900715", "wardname": "Ward 19", "wardcode": "19", "id": null, "status": "APPROVED", "misglobalid": null, "approved_by": null, "createdate": 1648211818000, "updateddate": 1648211831000, "globalid": null, "gisglobalid": "oBB65K4B-RRcB-PKsK-R5mK-laKmocKaQmKP", "remark": "", "st_area(shape)": 2.856446008639537e-06, "st_perimeter(shape)": 0.00807019846075459}}, {"type": "Feature", "geometry": {"type": "Polygon", "coordinates": [[[77.5382, 26.7457], [77.5384, 26.7458], [77.5386, 26.7461], [77.5387, 26.7458], [77.5389, 26.7453], [77.5392, 26.7447], [77.5394, 26.7443], [77.5395, 26.7438], [77.5396, 26.7433], [77.5397, 26.7428], [77.5399, 26.742], [77.5402, 26.7413], [77.5407, 26.7404], [77.541, 26.7389], [77.5402, 26.7389], [77.5396, 26.7389], [77.5391, 26.7389], [77.5381, 26.7388], [77.5371, 26.7387], [77.5365, 26.7387], [77.5366, 26.7391], [77.5367, 26.7395], [77.5367, 26.7397], [77.5368, 26.7399], [77.5369, 26.7401], [77.537, 26.7405], [77.5371, 26.7407], [77.5372, 26.7412], [77.5373, 26.7417], [77.5375, 26.7422], [77.5376, 26.7427], [77.5377, 26.7429], [77.5377, 26.7433], [77.5378, 26.7437], [77.5379, 26.7441], [77.538, 26.7448], [77.5381, 26.7452], [77.5382, 26.7457]]]}, "properties": {"objectid": 248383, "statename": "Rajasthan", "statecode": "8", "districtname": "Dhaulpur", "districtcode": "106", "ulbname": "Baseri", "ulbcode": "900715", "wardname": "Ward 20", "wardcode": "20", "id": null, "status": "APPROVED", "misglobalid": null, "approved_by": null, "createdate": 1648211890000, "updateddate": 1648212267000, "globalid": null, "gisglobalid": "m4lsccnn-Qm5K-PBRm-Qll5-5cnRcKaBBomn", "remark": "", "st_area(shape)": 1.7340624276466045e-05, "st_perimeter(shape)": 0.01988970544638022}}, {"type": "Feature", "geometry": {"type": "Polygon", "coordinates": [[[77.5407, 26.7402], [77.5407, 26.7404], [77.5402, 26.7413], [77.5399, 26.742], [77.5397, 26.7428], [77.5396, 26.7433], [77.5395, 26.7438], [77.5394, 26.7443], [77.5393, 26.7444], [77.5392, 26.7447], [77.5389, 26.7453], [77.5391, 26.7453], [77.5394, 26.7453], [77.5399, 26.7452], [77.5401, 26.7451], [77.5407, 26.7452], [77.541, 26.7451], [77.5412, 26.7453], [77.5421, 26.7451], [77.542, 26.7446], [77.5427, 26.7446], [77.5427, 26.7438], [77.5428, 26.7427], [77.5431, 26.7418], [77.5433, 26.7413], [77.5438, 26.74], [77.5415, 26.7402], [77.5411, 26.7402], [77.5407, 26.7402]]]}, "properties": {"objectid": 247983, "statename": "Rajasthan", "statecode": "8", "districtname": "Dhaulpur", "districtcode": "106", "ulbname": "Baseri", "ulbcode": "900715", "wardname": "Ward 21", "wardcode": "21", "id": null, "status": "APPROVED", "misglobalid": null, "approved_by": null, "createdate": 1648211944000, "updateddate": 1648212255000, "globalid": null, "gisglobalid": "aP4ls6Pn-6Qsc-P6do-QR54-55KQ6Rc4od54", "remark": "", "st_area(shape)": 1.5735888066991897e-05, "st_perimeter(shape)": 0.017806789881744473}}, {"type": "Feature", "geometry": {"type": "Polygon", "coordinates": [[[77.5427, 26.7446], [77.542, 26.7446], [77.5421, 26.7451], [77.5412, 26.7453], [77.541, 26.7451], [77.5407, 26.7452], [77.5401, 26.7451], [77.5399, 26.7452], [77.5394, 26.7453], [77.5391, 26.7453], [77.5389, 26.7453], [77.5386, 26.7461], [77.5386, 26.7463], [77.5386, 26.7465], [77.5386, 26.7467], [77.5391, 26.747], [77.5394, 26.7472], [77.5395, 26.7475], [77.5398, 26.7476], [77.5399, 26.7476], [77.5401, 26.7477], [77.5404, 26.7478], [77.5407, 26.7479], [77.5411, 26.748], [77.5416, 26.748], [77.5417, 26.748], [77.5419, 26.7479], [77.542, 26.7479], [77.5422, 26.7479], [77.5425, 26.7479], [77.5426, 26.7479], [77.5427, 26.7479], [77.543, 26.7478], [77.5429, 26.7472], [77.5426, 26.7461], [77.5429, 26.746], [77.5428, 26.7457], [77.5427, 26.7454], [77.5427, 26.745], [77.5427, 26.7446]]]}, "properties": {"objectid": 248788, "statename": "Rajasthan", "statecode": "8", "districtname": "Dhaulpur", "districtcode": "106", "ulbname": "Baseri", "ulbcode": "900715", "wardname": "Ward 22", "wardcode": "22", "id": null, "status": "APPROVED", "misglobalid": null, "approved_by": null, "createdate": 1648212011000, "updateddate": 1648212246000, "globalid": null, "gisglobalid": "KRm4QRPQ-scsl-PdKo-amo5-l4dolmdsmKao", "remark": "", "st_area(shape)": 1.0571821195018816e-05, "st_perimeter(shape)": 0.014245366231248413}}, {"type": "Feature", "geometry": {"type": "Polygon", "coordinates": [[[77.5433, 26.7482], [77.5432, 26.7479], [77.543, 26.7478], [77.5425, 26.7479], [77.5421, 26.7479], [77.5415, 26.748], [77.5411, 26.748], [77.5408, 26.7479], [77.5403, 26.7477], [77.5398, 26.7476], [77.5395, 26.7475], [77.5396, 26.7478], [77.5396, 26.7479], [77.5397, 26.7482], [77.5397, 26.7483], [77.5397, 26.7484], [77.5398, 26.7487], [77.5398, 26.749], [77.54, 26.749], [77.5402, 26.749], [77.5404, 26.749], [77.5407, 26.7489], [77.5409, 26.7488], [77.5412, 26.7489], [77.5415, 26.7489], [77.5418, 26.749], [77.542, 26.749], [77.5422, 26.7491], [77.5425, 26.7492], [77.5427, 26.7492], [77.5429, 26.7492], [77.5431, 26.7492], [77.5433, 26.7492], [77.5435, 26.7491], [77.5437, 26.7491], [77.5437, 26.749], [77.5436, 26.7488], [77.5436, 26.7486], [77.5435, 26.7485], [77.5434, 26.7483], [77.5433, 26.7483], [77.5433, 26.7482]]]}, "properties": {"objectid": 248789, "statename": "Rajasthan", "statecode": "8", "districtname": "Dhaulpur", "districtcode": "106", "ulbname": "Baseri", "ulbcode": "900715", "wardname": "Ward 23", "wardcode": "23", "id": null, "status": "APPROVED", "misglobalid": null, "approved_by": null, "createdate": 1648212067000, "updateddate": 1648212234000, "globalid": null, "gisglobalid": "5n46PQPc-P44c-Plad-sdl6-6olKoc5d6s46", "remark": "", "st_area(shape)": 4.4258522478525416e-06, "st_perimeter(shape)": 0.010672243577702268}}, {"type": "Feature", "geometry": {"type": "Polygon", "coordinates": [[[77.5402, 26.749], [77.5404, 26.7493], [77.5406, 26.7495], [77.541, 26.7498], [77.5408, 26.7501], [77.5412, 26.7504], [77.5418, 26.7509], [77.5427, 26.7519], [77.544, 26.7518], [77.5444, 26.7517], [77.5443, 26.7514], [77.5441, 26.7508], [77.544, 26.7503], [77.5439, 26.75], [77.5438, 26.7494], [77.5437, 26.7491], [77.5435, 26.7491], [77.5434, 26.7491], [77.5433, 26.7492], [77.5431, 26.7492], [77.5429, 26.7492], [77.5427, 26.7492], [77.5425, 26.7492], [77.5422, 26.7491], [77.542, 26.749], [77.5418, 26.749], [77.5415, 26.7489], [77.5412, 26.7489], [77.5409, 26.7488], [77.5406, 26.7489], [77.5402, 26.749]]]}, "properties": {"objectid": 250756, "statename": "Rajasthan", "statecode": "8", "districtname": "Dhaulpur", "districtcode": "106", "ulbname": "Baseri", "ulbcode": "900715", "wardname": "Ward 24", "wardcode": "24", "id": null, "status": "APPROVED", "misglobalid": null, "approved_by": null, "createdate": 1648212116000, "updateddate": 1648212220000, "globalid": null, "gisglobalid": "cls6nnKn-Ksm5-PQ4o-snQ5-sm5oKRccca6K", "remark": "", "st_area(shape)": 7.5712890050713495e-06, "st_perimeter(shape)": 0.012089450810766117}}, {"type": "Feature", "geometry": {"type": "Polygon", "coordinates": [[[77.5387, 26.7502], [77.5392, 26.7506], [77.5395, 26.7511], [77.5397, 26.7511], [77.54, 26.751], [77.5405, 26.7508], [77.5406, 26.7507], [77.5408, 26.7503], [77.541, 26.7498], [77.5406, 26.7495], [77.5404, 26.7493], [77.5402, 26.749], [77.54, 26.749], [77.5398, 26.749], [77.5397, 26.7491], [77.5395, 26.7492], [77.5394, 26.7493], [77.5392, 26.7495], [77.5391, 26.7497], [77.5389, 26.7499], [77.5388, 26.7501], [77.5387, 26.7502]]]}, "properties": {"objectid": 250322, "statename": "Rajasthan", "statecode": "8", "districtname": "Dhaulpur", "districtcode": "106", "ulbname": "Baseri", "ulbcode": "900715", "wardname": "Ward 25", "wardcode": "25", "id": null, "status": "APPROVED", "misglobalid": null, "approved_by": null, "createdate": 1648212171000, "updateddate": 1648212197000, "globalid": null, "gisglobalid": "BdoKnncn-dKsa-Psaa-smco-4Bld65oRQdma", "remark": "", "st_area(shape)": 2.9030456825914512e-06, "st_perimeter(shape)": 0.00675018040447427}}]}
