{"type":"Topology","arcs":[[[50417,79505],[-3621,-6714]],[[46796,72791],[-3064,-6714]],[[43732,66077],[-1671,-9187]],[[42061,56890],[-1671,-7067]],[[40390,49823],[1671,-3534]],[[42061,46289],[-279,-2827]],[[41782,43462],[-278,-5653]],[[41504,37809],[1114,-707]],[[42618,37102],[1950,-1413]],[[44568,35689],[-557,-2827]],[[44011,32862],[-3900,1413]],[[40111,34275],[-10585,3534]],[[29526,37809],[-10585,4240]],[[18941,42049],[-8356,3180]],[[10585,45229],[-4178,1767]],[[6407,46996],[-3622,1767]],[[2785,48763],[-2785,4947],[3343,4947],[12813,6007],[5571,353],[3621,27915],[9471,7067],[9470,-11307],[7800,-3534],[-1672,-5653]],[[78272,90812],[-6964,-7774]],[[71308,83038],[-835,-6007]],[[70473,77031],[-7242,-10954]],[[63231,66077],[-3900,-1413]],[[59331,64664],[1393,-9188],[-5014,-4240]],[[55710,51236],[0,-15901]],[[55710,35335],[-9192,-1413]],[[46518,33922],[-1950,-353]],[[44568,33569],[-557,-707]],[[44011,32862],[557,2827]],[[44568,35689],[-1950,1413]],[[42618,37102],[-1114,707]],[[41504,37809],[278,5653]],[[41782,43462],[279,2827]],[[42061,46289],[-1671,3534]],[[40390,49823],[1671,7067]],[[42061,56890],[1671,9187]],[[43732,66077],[3064,6714]],[[46796,72791],[3621,6714]],[[50417,79505],[1950,6007],[-4735,7420],[11420,5654],[20334,-4594],[-278,-707],[-836,-2473]],[[64902,47703],[-5571,-11661]],[[59331,36042],[-3621,-707]],[[55710,35335],[0,15901]],[[59331,64664],[3900,1413]],[[63231,66077],[7242,10954]],[[71308,83038],[6964,7774]],[[78272,90812],[836,3180],[3064,-707],[6964,-1766],[4456,-1061],[0,-9187]],[[93592,81271],[-278,-6360]],[[93314,74911],[-1114,-8127]],[[92200,66784],[-4736,-3534]],[[87464,63250],[-3899,-7420]],[[83565,55830],[-11421,-3887]],[[72144,51943],[-4457,-1060],[-2785,-3180]],[[86072,28975],[-6964,0]],[[79108,28975],[-5014,353]],[[74094,29328],[-6685,8127]],[[67409,37455],[-4457,-353]],[[62952,37102],[-3064,-1060]],[[59888,36042],[-557,0]],[[59331,36042],[5571,11661]],[[64902,47703],[7242,4240]],[[72144,51943],[11421,3887]],[[87464,63250],[4736,3534]],[[93314,74911],[278,6360]],[[93592,81271],[0,6714],[4457,-1060],[1950,-5300],[-4735,-19788],[-8078,-18021],[-1114,-14841]],[[83565,15194],[-2229,1414]],[[81336,16608],[-5849,1413]],[[75487,18021],[-1114,-353]],[[74373,17668],[-836,-354]],[[73537,17314],[-1114,-706]],[[72423,16608],[0,353]],[[72423,16961],[278,1767]],[[72701,18728],[0,706]],[[72701,19434],[279,1060]],[[72980,20494],[278,1414]],[[73258,21908],[-835,2120]],[[72423,24028],[-557,0]],[[71866,24028],[-1672,0]],[[70194,24028],[557,1060]],[[70751,25088],[279,353]],[[71030,25441],[557,707]],[[71587,26148],[836,1060]],[[72423,27208],[557,707]],[[72980,27915],[278,707]],[[73258,28622],[836,706]],[[74094,29328],[5014,-353]],[[79108,28975],[6964,0]],[[86072,28975],[-2507,-13781]],[[63509,21555],[557,706]],[[64066,22261],[279,707]],[[64345,22968],[835,0]],[[65180,22968],[279,2120]],[[65459,25088],[1950,0]],[[67409,25088],[1393,3180]],[[68802,28268],[3621,-1060]],[[72423,27208],[-836,-1060]],[[71587,26148],[-557,-707]],[[71030,25441],[-279,-353]],[[70751,25088],[-557,-1060]],[[70194,24028],[1672,0]],[[71866,24028],[557,0]],[[72423,24028],[835,-2120]],[[73258,21908],[-278,-1414]],[[72980,20494],[-279,-1060]],[[72701,19434],[-557,0]],[[72144,19434],[-1114,354]],[[71030,19788],[-1950,0]],[[69080,19788],[-2507,0]],[[66573,19788],[-1393,0]],[[65180,19788],[-1114,-354]],[[64066,19434],[-1114,354]],[[62952,19788],[279,1060]],[[63231,20848],[278,707]],[[54038,26502],[3900,-354]],[[57938,26148],[557,354]],[[58495,26502],[557,1413]],[[59052,27915],[0,1060]],[[59052,28975],[0,1060]],[[59052,30035],[0,707]],[[59052,30742],[0,706]],[[59052,31448],[2507,-1060]],[[61559,30388],[1114,-353]],[[62673,30035],[4179,-1060]],[[66852,28975],[835,-353]],[[67687,28622],[836,0]],[[68523,28622],[279,-354]],[[67409,25088],[-1950,0]],[[65459,25088],[-279,-2120]],[[64345,22968],[-279,0]],[[64066,22968],[-835,353]],[[63231,23321],[-1393,354]],[[61838,23675],[-2229,706]],[[59609,24381],[-1114,354]],[[58495,24735],[-557,0]],[[57938,24735],[-3900,1767]],[[67409,37455],[6685,-8127]],[[74094,29328],[-836,-706]],[[73258,28622],[-278,-707]],[[72980,27915],[-557,-707]],[[68523,28622],[-836,0]],[[66852,28975],[-4179,1060]],[[61559,30388],[-2507,1060]],[[59052,31448],[-3621,0]],[[55431,31448],[-6964,-706]],[[48467,30742],[-557,0]],[[47910,30742],[-1671,-1767]],[[46239,28975],[-1393,3534]],[[44846,32509],[-278,1060]],[[44568,33569],[1950,353]],[[46518,33922],[9192,1413]],[[55710,35335],[3621,707]],[[59888,36042],[3064,1060]],[[62952,37102],[4457,353]],[[51810,27562],[-3343,3180]],[[55431,31448],[3621,0]],[[59052,30742],[0,-707]],[[59052,30035],[0,-1060]],[[59052,28975],[0,-1060]],[[58495,26502],[-557,-354]],[[54038,26502],[-278,0]],[[53760,26502],[-1950,1060]],[[49303,20141],[-557,353]],[[48746,20494],[-557,707]],[[48189,21201],[-1114,1414]],[[47075,22615],[278,706]],[[47353,23321],[-557,2474]],[[46796,25795],[0,353]],[[46796,26148],[-278,2120]],[[46518,28268],[-279,-353]],[[46239,27915],[0,1060]],[[46239,28975],[1671,1767]],[[47910,30742],[3900,-3180]],[[53760,26502],[-2786,-3534]],[[50974,22968],[0,-1060]],[[50974,21908],[279,-1414]],[[51253,20494],[-279,-1060]],[[50974,19434],[279,0]],[[51253,19434],[-279,-706]],[[50974,18728],[-278,353],[-557,353],[-836,707]],[[53760,26502],[4178,-1767]],[[57938,24735],[-278,-1060]],[[57660,23675],[-1672,706]],[[55988,24381],[-835,-353]],[[55153,24028],[278,-2473]],[[55431,21555],[279,-1061]],[[55710,20494],[-279,-2473]],[[55431,18021],[-557,-1060]],[[54874,16961],[-1950,1060]],[[52924,18021],[-1392,1060]],[[51532,19081],[-558,353]],[[50974,19434],[279,1060]],[[50974,21908],[0,1060]],[[58495,24735],[1114,-354]],[[59609,24381],[-278,-1413]],[[59331,22968],[278,-2474]],[[59609,20494],[558,-353]],[[60167,20141],[-558,-1413]],[[59609,18728],[-1392,-2120]],[[58217,16608],[-836,-1414]],[[57381,15194],[-2507,1767]],[[55431,18021],[279,2473]],[[55710,20494],[-279,1061]],[[55153,24028],[835,353]],[[55988,24381],[1672,-706]],[[57660,23675],[278,1060]],[[61838,23675],[1393,-354]],[[63231,23321],[835,-353]],[[64345,22968],[-279,-707]],[[64066,22261],[-557,-706]],[[63509,21555],[-278,-707]],[[63231,20848],[-279,-1060]],[[62952,19788],[0,-3534]],[[62952,16254],[557,-1060]],[[63509,15194],[-2785,-1413]],[[60724,13781],[0,353],[-836,0],[-1114,353]],[[58774,14487],[-1393,707]],[[57381,15194],[836,1414]],[[59609,18728],[558,1413]],[[60167,20141],[-558,353]],[[59609,20494],[-278,2474]],[[63509,15194],[-557,1060]],[[62952,19788],[1114,-354]],[[65180,19788],[1393,0]],[[66573,19788],[2507,0]],[[69080,19788],[1950,0]],[[71030,19788],[1114,-354]],[[72144,19434],[557,0]],[[72701,18728],[-278,-1767]],[[72423,16608],[-2229,-1060]],[[70194,15548],[-3064,-707]],[[67130,14841],[0,2827]],[[67130,17668],[-3064,353]],[[64066,18021],[-557,-1767]],[[63509,16254],[0,-1060]],[[67130,12014],[-6128,0]],[[61002,12014],[-1393,1413]],[[59609,13427],[3900,1767]],[[63509,15194],[0,1060]],[[63509,16254],[557,1767]],[[64066,18021],[3064,-353]],[[67130,17668],[0,-2827]],[[67130,14841],[3064,707]],[[70194,15548],[2229,1060]],[[73537,17314],[836,354]],[[74373,17668],[1114,353]],[[75487,18021],[5849,-1413]],[[83565,15194],[-5293,-4240],[-9470,-2120]],[[68802,8834],[-1672,3180]],[[57381,14841],[0,353]],[[57381,15194],[1393,-707]],[[58774,14487],[835,-353],[836,0],[279,-353]],[[60724,13781],[-1115,-354]],[[61002,12014],[6128,0]],[[67130,12014],[1672,-3180]],[[68802,8834],[-11978,-3887]],[[56824,4947],[-279,2473]],[[56545,7420],[836,7421]],[[52924,18021],[4457,-2827]],[[57381,14841],[-836,-7421]],[[56824,4947],[-8357,-2120]],[[48467,2827],[-278,707]],[[48189,3534],[-557,3180]],[[47632,6714],[0,2827]],[[47632,9541],[0,4240]],[[47632,13781],[1671,1413]],[[49303,15194],[1114,2827],[836,1413]],[[51253,19434],[279,-353]],[[51532,19081],[1392,-1060]],[[49303,20141],[1671,-1413]],[[50974,18728],[-1671,-3534]],[[49303,15194],[-3900,-3180]],[[45403,12014],[-1671,2473]],[[43732,14487],[-2228,2827]],[[41504,17314],[2785,2120]],[[44289,19434],[2786,3181]],[[48189,21201],[557,-707]],[[41504,17314],[2228,-2827]],[[43732,14487],[1671,-2473]],[[45403,12014],[2229,1767]],[[47632,9541],[0,-2827]],[[47632,6714],[557,-3180]],[[48467,2827],[-6963,-1767],[-4736,12367],[4736,3887]],[[45403,27915],[1115,353]],[[46518,28268],[278,-2120]],[[46796,25795],[557,-2474]],[[47075,22615],[-2786,-3181]],[[41504,17314],[-8635,-6713],[835,-7067],[-4456,-3534],[-6407,3887],[-1950,8480]],[[20891,12367],[836,1414]],[[21727,13781],[835,1060]],[[22562,14841],[836,353]],[[23398,15194],[1393,0]],[[24791,15194],[557,1767]],[[25348,16961],[0,353]],[[25348,17314],[278,2474]],[[25626,19788],[2229,0]],[[27855,19788],[0,2120]],[[27855,21908],[1114,1413]],[[28969,23321],[279,354]],[[29248,23675],[835,706]],[[30083,24381],[557,1060]],[[30640,25441],[279,354]],[[30919,25795],[0,353]],[[30919,26148],[0,1414]],[[30919,27562],[1114,706]],[[32033,28268],[279,354]],[[32312,28622],[1114,353]],[[33426,28975],[557,0]],[[33983,28975],[1114,353]],[[35097,29328],[1114,-706]],[[36211,28622],[1393,-707]],[[37604,27915],[1393,-707]],[[38997,27208],[557,-353]],[[39554,26855],[1671,-353]],[[41225,26502],[279,706]],[[41504,27208],[278,0]],[[41782,27208],[2229,354]],[[44011,27562],[1392,353]],[[44011,32862],[835,-353]],[[44846,32509],[1393,-3534]],[[46239,28975],[0,-707],[0,-353]],[[46239,27915],[-836,0]],[[45403,27915],[-1392,-353]],[[44011,27562],[-2229,-354]],[[41504,27208],[-279,-706]],[[41225,26502],[-1671,353]],[[39554,26855],[-557,353]],[[38997,27208],[-1393,707]],[[37604,27915],[-1393,707]],[[36211,28622],[-1114,706]],[[35097,29328],[-1114,-353]],[[33983,28975],[-557,0]],[[33426,28975],[-1114,-353]],[[32033,28268],[-1114,-706]],[[30919,27562],[0,-1414]],[[30919,25795],[-279,-354]],[[30640,25441],[-557,-1060]],[[30083,24381],[-835,-706]],[[28969,23321],[-1114,-1413]],[[27855,21908],[0,-2120]],[[27855,19788],[-2229,0]],[[25626,19788],[-278,-2474]],[[25348,16961],[-557,-1767]],[[24791,15194],[-1393,0]],[[23398,15194],[-836,-353]],[[22562,14841],[-835,-1060]],[[21727,13781],[-836,-1414]],[[20891,12367],[3064,24735],[-5014,353],[-8078,4241],[-8078,1766],[0,5301]],[[2785,48763],[3622,-1767]],[[6407,46996],[4178,-1767]],[[10585,45229],[8356,-3180]],[[18941,42049],[10585,-4240]],[[29526,37809],[10585,-3534]],[[40111,34275],[3900,-1413]]],"transform":{"scale":[3.590035900358808e-7,2.830028300283157e-7],"translate":[81.8411,20.9625]},"objects":{"wards":{"type":"GeometryCollection","geometries":[{"arcs":[[0,1,2,3,4,5,6,7,8,9,10,11,12,13,14,15,16]],"type":"Polygon","properties":{"objectid":43491,"statename":"Chhattisgarh","statecode":"22","districtname":null,"districtcode":"410","ulbname":"Gobra Nawapara","ulbcode":"802031","wardname":"Kachna Dhurwa Ward","wardcode":"1","id":null,"status":"APPROVED","misglobalid":null,"approved_by":null,"createdate":1638522717000,"updateddate":1643118609000,"globalid":null,"gisglobalid":"56f1bb94-8405-47f1-b54e-b231fe0e4a74","remark":"","st_area(shape)":0.0001666686617601649,"st_perimeter(shape)":0.06258745601144329}},{"arcs":[[17,18,19,20,21,22,23,24,25,26,27,28,29,30,31,32,33,34,35,36]],"type":"Polygon","properties":{"objectid":42990,"statename":"Chhattisgarh","statecode":"22","districtname":null,"districtcode":"410","ulbname":"Gobra Nawapara","ulbcode":"802031","wardname":"Tilak Ward","wardcode":"2","id":null,"status":"APPROVED","misglobalid":null,"approved_by":null,"createdate":1638523460000,"updateddate":1643118634000,"globalid":null,"gisglobalid":"922da672-8796-4886-bd79-b3d35a61d892","remark":"","st_area(shape)":0.00011881292798361182,"st_perimeter(shape)":0.057073710718924045}},{"arcs":[[37,38,39,-22,40,41,-19,42,43,44,45,46,47,48,49]],"type":"Polygon","properties":{"objectid":43504,"statename":"Chhattisgarh","statecode":"22","districtname":null,"districtcode":"410","ulbname":"Gobra Nawapara","ulbcode":"802031","wardname":"Bhagat Sing Ward","wardcode":"3","id":null,"status":"APPROVED","misglobalid":null,"approved_by":null,"createdate":1638523809000,"updateddate":1643118647000,"globalid":null,"gisglobalid":"b35f4419-10b3-4864-8317-b8ba813ad46a","remark":"","st_area(shape)":0.00010831130839465457,"st_perimeter(shape)":0.050066840236877234}},{"arcs":[[50,51,52,53,54,55,56,57,58,-48,59,-46,60,61]],"type":"Polygon","properties":{"objectid":42995,"statename":"Chhattisgarh","statecode":"22","districtname":null,"districtcode":"410","ulbname":"Gobra Nawapara","ulbcode":"802031","wardname":"Indira Ward","wardcode":"4","id":null,"status":"APPROVED","misglobalid":null,"approved_by":null,"createdate":1638524109000,"updateddate":1643118665000,"globalid":null,"gisglobalid":"b2a5c3fd-b8d8-42e0-98d9-b287e47232cb","remark":"","st_area(shape)":0.0000739415917573333,"st_perimeter(shape)":0.05137424761376927}},{"arcs":[[62,63,64,65,66,67,68,69,70,71,72,73,74,75,76,77,78,79,80,81,82,83,84]],"type":"Polygon","properties":{"objectid":42998,"statename":"Chhattisgarh","statecode":"22","districtname":null,"districtcode":"410","ulbname":"Gobra Nawapara","ulbcode":"802031","wardname":"Sant Vinoba Bhave Ward","wardcode":"5","id":null,"status":"APPROVED","misglobalid":null,"approved_by":null,"createdate":1638524405000,"updateddate":1643118681000,"globalid":null,"gisglobalid":"1a72764f-31fd-4bb0-a33d-7a8b19ed42e5","remark":"","st_area(shape)":0.000015377043520850215,"st_perimeter(shape)":0.017772686385391114}},{"arcs":[[85,86,87,88,89,90,91,92,93,94,95,96,97,98,99,100,101,102,103,104,105,106,107,108,109]],"type":"Polygon","properties":{"objectid":44004,"statename":"Chhattisgarh","statecode":"22","districtname":null,"districtcode":"410","ulbname":"Gobra Nawapara","ulbcode":"802031","wardname":"Shastri Ward","wardcode":"6","id":null,"status":"APPROVED","misglobalid":null,"approved_by":null,"createdate":1638606831000,"updateddate":1643118700000,"globalid":null,"gisglobalid":"05423a3a-456b-46f6-8084-5b27b1cdebcb","remark":"","st_area(shape)":0.000005519484393835129,"st_perimeter(shape)":0.011942699785394566}},{"arcs":[[110,111,112,113,114,115,116,117,118,119,120,121,122,-91,123,124,-88,125,126,127,128,129,130,131]],"type":"Polygon","properties":{"objectid":38203,"statename":"Chhattisgarh","statecode":"22","districtname":null,"districtcode":"410","ulbname":"Gobra Nawapara","ulbcode":"802031","wardname":"Sant Vivekanand Ward","wardcode":"7","id":null,"status":"APPROVED","misglobalid":null,"approved_by":null,"createdate":1638525049000,"updateddate":1643118726000,"globalid":null,"gisglobalid":"0e443282-930d-4b1b-80e6-676b9f7637c8","remark":"","st_area(shape)":0.000006282364914254446,"st_perimeter(shape)":0.013690154332630823}},{"arcs":[[132,133,134,135,-92,-123,136,-121,137,-119,138,139,140,141,142,143,144,145,146,147,-56,148,149]],"type":"Polygon","properties":{"objectid":43526,"statename":"Chhattisgarh","statecode":"22","districtname":null,"districtcode":"410","ulbname":"Gobra Nawapara","ulbcode":"802031","wardname":"Ghasidas Ward","wardcode":"8","id":null,"status":"APPROVED","misglobalid":null,"approved_by":null,"createdate":1638526563000,"updateddate":1643118746000,"globalid":null,"gisglobalid":"d853747e-86df-44cc-82e1-69f2a5c82d3e","remark":"","st_area(shape)":0.000015015130474814165,"st_perimeter(shape)":0.02351438981053273}},{"arcs":[[150,-141,151,-117,152,153,154,-113,155,-111,156,157]],"type":"Polygon","properties":{"objectid":43529,"statename":"Chhattisgarh","statecode":"22","districtname":null,"districtcode":"410","ulbname":"Gobra Nawapara","ulbcode":"802031","wardname":"Neharu Ward","wardcode":"9","id":null,"status":"APPROVED","misglobalid":null,"approved_by":null,"createdate":1638526733000,"updateddate":1643118764000,"globalid":null,"gisglobalid":"f20ca40f-3c36-4199-a5f9-e64faf7ff10c","remark":"","st_area(shape)":0.000003838647551128309,"st_perimeter(shape)":0.009850299543233947}},{"arcs":[[158,159,160,161,162,163,164,165,166,167,168,-158,169,170,171,172,173,174,175]],"type":"Polygon","properties":{"objectid":43028,"statename":"Chhattisgarh","statecode":"22","districtname":null,"districtcode":"410","ulbname":"Gobra Nawapara","ulbcode":"802031","wardname":"Rajiv Lochan Ward","wardcode":"10","id":null,"status":"APPROVED","misglobalid":null,"approved_by":null,"createdate":1638526879000,"updateddate":1643118781000,"globalid":null,"gisglobalid":"878fb692-b61c-473e-9b43-963ba8d461d9","remark":"","st_area(shape)":0.000004704336885161474,"st_perimeter(shape)":0.010339062381623697}},{"arcs":[[176,177,178,179,180,181,182,183,184,185,186,187,-172,188,-170]],"type":"Polygon","properties":{"objectid":43029,"statename":"Chhattisgarh","statecode":"22","districtname":null,"districtcode":"410","ulbname":"Gobra Nawapara","ulbcode":"802031","wardname":"Mahattama Gandhi Ward","wardcode":"11","id":null,"status":"APPROVED","misglobalid":null,"approved_by":null,"createdate":1638527096000,"updateddate":1643118799000,"globalid":null,"gisglobalid":"08a44a93-d23d-48a7-af80-89764e357bf8","remark":"","st_area(shape)":0.0000035721627487672906,"st_perimeter(shape)":0.009368557822052127}},{"arcs":[[189,190,191,192,193,194,195,196,-184,197,198,-181,199,200,201,-131]],"type":"Polygon","properties":{"objectid":43030,"statename":"Chhattisgarh","statecode":"22","districtname":null,"districtcode":"410","ulbname":"Gobra Nawapara","ulbcode":"802031","wardname":"Shree Ram Ward","wardcode":"12","id":null,"status":"APPROVED","misglobalid":null,"approved_by":null,"createdate":1638527253000,"updateddate":1643118825000,"globalid":null,"gisglobalid":"d1555ac1-e645-47cc-a3ed-07dcf15ba249","remark":"","st_area(shape)":0.00000321390841516103,"st_perimeter(shape)":0.008363599008730559}},{"arcs":[[-191,-129,202,203,-126,204,205,206,207,208,209,210,211,212,213,-195,214,215,216]],"type":"Polygon","properties":{"objectid":43533,"statename":"Chhattisgarh","statecode":"22","districtname":null,"districtcode":"410","ulbname":"Gobra Nawapara","ulbcode":"802031","wardname":"Satyanarayan Ward","wardcode":"13","id":null,"status":"APPROVED","misglobalid":null,"approved_by":null,"createdate":1638527460000,"updateddate":1643118851000,"globalid":null,"gisglobalid":"b88e6bb3-ecb1-4e61-8bbf-3277d05a024b","remark":"","st_area(shape)":0.000004017127773344877,"st_perimeter(shape)":0.009949613834350949}},{"arcs":[[217,-209,218,-107,219,220,221,222,223,-70,224,-68,225,226,227,228,229,230]],"type":"Polygon","properties":{"objectid":43534,"statename":"Chhattisgarh","statecode":"22","districtname":null,"districtcode":"410","ulbname":"Gobra Nawapara","ulbcode":"802031","wardname":"Radhakrishna Ward","wardcode":"14","id":null,"status":"APPROVED","misglobalid":null,"approved_by":null,"createdate":1638527969000,"updateddate":1643118888000,"globalid":null,"gisglobalid":"d04fc66d-e41a-414d-a137-b2ded218fb44","remark":"","st_area(shape)":0.000003287409002667103,"st_perimeter(shape)":0.010614227887656374}},{"arcs":[[231,232,233,234,235,236,237,238,239,-67,240,241,242,-63,243,244]],"type":"Polygon","properties":{"objectid":43033,"statename":"Chhattisgarh","statecode":"22","districtname":null,"districtcode":"410","ulbname":"Gobra Nawapara","ulbcode":"802031","wardname":"Kuleshwar Ward","wardcode":"15","id":null,"status":"APPROVED","misglobalid":null,"approved_by":null,"createdate":1638528265000,"updateddate":1643118912000,"globalid":null,"gisglobalid":"e0242b3c-42ce-4f19-93e0-476a35b05ba8","remark":"","st_area(shape)":0.000012367776753482308,"st_perimeter(shape)":0.020161451965226666}},{"arcs":[[245,246,247,248,-233,249,250,251,252,253]],"type":"Polygon","properties":{"objectid":43777,"statename":"Chhattisgarh","statecode":"22","districtname":null,"districtcode":"410","ulbname":"Gobra Nawapara","ulbcode":"802031","wardname":"Ravidas Ward","wardcode":"16","id":null,"status":"APPROVED","misglobalid":null,"approved_by":null,"createdate":1638528964000,"updateddate":1643118938000,"globalid":null,"gisglobalid":"bbc2d576-a40a-4edc-933a-1a04e78fae89","remark":"","st_area(shape)":0.000006818850171813554,"st_perimeter(shape)":0.012996440573738922}},{"arcs":[[254,-246,255,-253,256,257,258,259,260,261,262,263,264]],"type":"Polygon","properties":{"objectid":43537,"statename":"Chhattisgarh","statecode":"22","districtname":null,"districtcode":"410","ulbname":"Gobra Nawapara","ulbcode":"802031","wardname":"Bhikhamchand Ward","wardcode":"17","id":null,"status":"APPROVED","misglobalid":null,"approved_by":null,"createdate":1638528758000,"updateddate":1643118956000,"globalid":null,"gisglobalid":"2a1dc28b-f77d-40cb-ab93-fdae7c2b9ef4","remark":"","st_area(shape)":0.000012070039793177913,"st_perimeter(shape)":0.013711466812646693}},{"arcs":[[265,266,267,268,269,270,271,-161,272,-159]],"type":"Polygon","properties":{"objectid":43539,"statename":"Chhattisgarh","statecode":"22","districtname":null,"districtcode":"410","ulbname":"Gobra Nawapara","ulbcode":"802031","wardname":"Mata Koushliya Ward","wardcode":"18","id":null,"status":"APPROVED","misglobalid":null,"approved_by":null,"createdate":1638529110000,"updateddate":1643118979000,"globalid":null,"gisglobalid":"556c68c9-7f7d-4a33-a8e7-19d0f15130a7","remark":"","st_area(shape)":0.000005171889505177852,"st_perimeter(shape)":0.009245011546757257}},{"arcs":[[273,274,275,-261,276,277,-258,278]],"type":"Polygon","properties":{"objectid":43040,"statename":"Chhattisgarh","statecode":"22","districtname":null,"districtcode":"410","ulbname":"Gobra Nawapara","ulbcode":"802031","wardname":"Shitala Ward","wardcode":"19","id":null,"status":"APPROVED","misglobalid":null,"approved_by":null,"createdate":1638529250000,"updateddate":1643119025000,"globalid":null,"gisglobalid":"4385c00c-a486-43c0-a918-1a6b9b2f47c3","remark":"","st_area(shape)":0.00001186139180974528,"st_perimeter(shape)":0.014718645253754456}},{"arcs":[[279,280,-164,281,-162,282,-271,283,284,285,286,287,288,289,290,291,292,293,294,295,296,297,298,299,300,301,302,303,304,305,306,307,308,309,310,311,312,313]],"type":"Polygon","properties":{"objectid":43045,"statename":"Chhattisgarh","statecode":"22","districtname":null,"districtcode":"410","ulbname":"Gobra Nawapara","ulbcode":"802031","wardname":"Subhash Chand Ward","wardcode":"20","id":null,"status":"APPROVED","misglobalid":null,"approved_by":null,"createdate":1638529391000,"updateddate":1643119073000,"globalid":null,"gisglobalid":"7734e6bc-641d-4446-aca0-e2891e5bb9a1","remark":"","st_area(shape)":0.000038915663599632394,"st_perimeter(shape)":0.02951187115581235}},{"arcs":[[314,315,316,317,318,319,-312,320,321,322,323,324,325,326,327,328,-302,329,330,-299,331,332,333,-295,334,335,336,337,-290,338,339,340,341,342,343,344,345,346,347,348,349]],"type":"Polygon","properties":{"objectid":43543,"statename":"Chhattisgarh","statecode":"22","districtname":null,"districtcode":"410","ulbname":"Gobra Nawapara","ulbcode":"802031","wardname":"Sant Kabir Das Ward","wardcode":"21","id":null,"status":"APPROVED","misglobalid":null,"approved_by":null,"createdate":1638529536000,"updateddate":1643119118000,"globalid":null,"gisglobalid":"54d32f95-4f62-4b08-bbe1-5f7238f5c514","remark":"","st_area(shape)":0.000035555430742216615,"st_perimeter(shape)":0.046515130061939185}}]}}}