{"type":"Topology","arcs":[[[32643,52184],[-1592,-9709]],[[31051,42475],[-3504,2185]],[[27547,44660],[-955,-486]],[[26592,44174],[-6051,-1699]],[[20541,42475],[-478,243]],[[20063,42718],[-955,-2913]],[[19108,39805],[-1115,-3398],[-6847,0],[-1751,-4126],[-4777,5097],[-4459,-1699],[-159,21117],[4140,16019],[6529,-5097],[3025,728],[12420,-10680],[2230,-4126],[4299,-1456]],[[32643,52184],[3822,243]],[[36465,52427],[6687,-17233]],[[43152,35194],[-3980,-728]],[[39172,34466],[-637,2912]],[[38535,37378],[-956,1214]],[[37579,38592],[-6528,3883]],[[36465,52427],[3980,4611]],[[40445,57038],[478,-7767]],[[40923,49271],[3026,-8009]],[[43949,41262],[3821,-7282]],[[47770,33980],[319,-485]],[[48089,33495],[3184,-2670]],[[51273,30825],[-796,-1456]],[[50477,29369],[-5255,1456],[-2070,4369]],[[40445,57038],[1115,4369]],[[41560,61407],[3503,-8495]],[[45063,52912],[637,-485]],[[45700,52427],[159,-728]],[[45859,51699],[1115,-729]],[[46974,50970],[0,-728]],[[46974,50242],[-478,-728]],[[46496,49514],[-159,0]],[[46337,49514],[-5414,-243]],[[50955,60679],[-3662,-6796]],[[47293,53883],[-1593,-1456]],[[41560,61407],[955,2427],[11784,6311]],[[54299,70145],[-6847,-7282],[3503,-2184]],[[52866,55339],[-796,-728]],[[52070,54611],[-4777,-728]],[[50955,60679],[1911,-5340]],[[52070,54611],[796,728]],[[54299,70145],[1433,1699]],[[55732,71844],[2866,-728],[7484,4126]],[[66082,75242],[1274,971]],[[67356,76213],[796,485]],[[68152,76698],[319,-485]],[[68471,76213],[-797,-1214]],[[67674,74999],[-955,-971]],[[66719,74028],[-1751,-9708]],[[64968,64320],[-797,-971]],[[64171,63349],[-637,-243]],[[63534,63106],[-1114,-728]],[[62420,62378],[-796,-4854]],[[61624,57524],[-1115,-6311],[1433,-8738]],[[61942,42475],[-796,-242]],[[61146,42233],[-3662,3640]],[[57484,45873],[-3981,4369]],[[53503,50242],[-6210,3641]],[[64649,60922],[-159,-243]],[[64490,60679],[-796,-1699]],[[63694,58980],[-956,-971]],[[62738,58009],[-1114,-485]],[[62420,62378],[1114,728]],[[64171,63349],[797,971]],[[66719,74028],[955,971]],[[67674,74999],[797,1214]],[[68152,76698],[-796,-485]],[[67356,76213],[-1274,-971]],[[55732,71844],[12739,25000],[8758,-2913],[7006,6068],[2548,-4612],[-2867,-8009],[2389,-8981]],[[86305,78397],[-2389,-971]],[[83916,77426],[-2707,-5097]],[[81209,72329],[-1592,-3155]],[[79617,69174],[-5573,-4612]],[[74044,64562],[-1752,-1941]],[[72292,62621],[-1433,971]],[[70859,63592],[0,485]],[[70859,64077],[-478,485]],[[70381,64562],[-3343,-1213]],[[67038,63349],[-2389,-2427]],[[72292,62621],[-5095,-4612]],[[67197,58009],[-1433,2185]],[[65764,60194],[-1115,728]],[[64649,60922],[2389,2427]],[[67038,63349],[3343,1213]],[[70859,64077],[0,-485]],[[70063,44660],[-318,-728]],[[69745,43932],[-8121,13592]],[[62738,58009],[956,971]],[[64490,60679],[1274,-485]],[[67197,58009],[2707,-10679]],[[69904,47330],[159,-2670]],[[61146,42233],[-796,-486]],[[60350,41747],[-319,243]],[[60031,41990],[-6369,1942]],[[53662,43932],[159,-5583]],[[53821,38349],[-4140,486]],[[49681,38835],[0,3398]],[[49681,42233],[-2707,8009]],[[53503,50242],[3981,-4369]],[[49681,42233],[-1433,485]],[[48248,42718],[-796,0]],[[47452,42718],[-956,6796]],[[46337,49514],[-1274,3398]],[[45063,52912],[637,-485]],[[45859,51699],[1115,-729]],[[47452,42718],[-3503,-1456]],[[37738,38349],[-1910,-5340],[-6210,-5339]],[[29618,27670],[-6848,10436],[-3662,1699]],[[20063,42718],[478,-243]],[[26592,44174],[955,486]],[[37579,38592],[159,-243]],[[39172,34466],[5573,-7767]],[[44745,26699],[1751,-2427]],[[46496,24272],[-637,-1699],[-8439,-10194],[-5255,11650],[-2547,3641]],[[37738,38349],[797,-971]],[[50477,29369],[-5732,-2670]],[[49044,42475],[-318,-1213],[-319,-728],[0,-5340]],[[48407,35194],[-478,-1456]],[[47929,33738],[-159,242]],[[48248,42718],[796,-243]],[[49681,38835],[3025,-4612]],[[52706,34223],[0,-2184]],[[52706,32039],[-159,-486]],[[52547,31553],[-637,-971]],[[51910,30582],[-3503,4612]],[[49044,42475],[637,-242]],[[53821,38349],[796,-2670]],[[54617,35679],[-1911,-2912]],[[52706,32767],[0,1456]],[[53662,43932],[4458,-8253]],[[58120,35679],[-2547,-971]],[[55573,34708],[-956,971]],[[60190,41747],[-2070,-6068]],[[60031,41990],[159,-243]],[[69745,43932],[-478,-4127],[-6688,2670]],[[62579,42475],[-478,0]],[[62101,42475],[-159,0]],[[70063,44660],[-159,2670]],[[74044,64562],[5573,4612]],[[81209,72329],[2230,4127]],[[83439,76456],[4140,-18690],[-1115,-3640],[-8439,-2670],[-7962,-6796]],[[63534,9709],[-3344,16990]],[[60190,26699],[-159,971]],[[60031,27670],[3663,2427],[-1274,12378]],[[62420,42475],[159,0]],[[83439,76456],[477,970]],[[86305,78397],[9872,-36407],[3822,-16262],[-36465,-16019]],[[55573,34708],[-3026,-3155]],[[52706,32039],[0,728]],[[51910,30582],[-637,243]],[[48089,33495],[-160,243]],[[45700,22330],[8121,-10680]],[[53821,11650],[478,-1941]],[[54299,9709],[3662,-3156],[956,3641],[-797,5583]],[[58120,15777],[478,485]],[[58598,16262],[478,-8495]],[[59076,7767],[-159,-2913],[-3504,-728],[-8439,1456],[-3981,-5582],[-5732,12621],[8439,9709]],[[58598,16262],[-478,-485]],[[58120,15777],[-1592,-1214]],[[56528,14563],[-2707,-2913]],[[45700,22330],[796,1942]],[[50477,29369],[6688,-6311],[1433,-6796]],[[53821,11650],[2707,2913]],[[54299,9709],[-478,1941]],[[60031,27670],[159,-971]],[[63534,9709],[-4458,-1942]],[[60190,41747],[160,0]],[[62101,42475],[319,0]]],"transform":{"scale":[6.280062800627581e-7,4.1200412004119947e-7],"translate":[76.762,11.3315]},"objects":{"wards":{"type":"GeometryCollection","geometries":[{"arcs":[[0,1,2,3,4,5,6]],"type":"Polygon","properties":{"objectid":257228,"statename":"Tamil Nadu","statecode":"33","districtname":"The Nilgiris","districtcode":"611","ulbname":"Coonoor","ulbcode":"803570","wardname":"Ward 1","wardcode":"1","id":null,"status":"APPROVED","misglobalid":null,"approved_by":null,"createdate":1648710414000,"updateddate":1648721611000,"globalid":null,"gisglobalid":"RmB6PcdP-Bsac-PKRP-QPao-6a5d66dancKd","remark":"","st_area(shape)":0.0002042318900583918,"st_perimeter(shape)":0.06988650686371153}},{"arcs":[[-1,7,8,9,10,11,12]],"type":"Polygon","properties":{"objectid":256034,"statename":"Tamil Nadu","statecode":"33","districtname":"The Nilgiris","districtcode":"611","ulbname":"Coonoor","ulbcode":"803570","wardname":"Ward 2","wardcode":"2","id":null,"status":"APPROVED","misglobalid":null,"approved_by":null,"createdate":1648710638000,"updateddate":1648721678000,"globalid":null,"gisglobalid":"nnmo6RB5-Q6s5-P64K-accP-oQ5an6KaB5mQ","remark":"","st_area(shape)":0.000026498767549364432,"st_perimeter(shape)":0.026712765299338706}},{"arcs":[[-9,13,14,15,16,17,18,19,20]],"type":"Polygon","properties":{"objectid":257229,"statename":"Tamil Nadu","statecode":"33","districtname":"The Nilgiris","districtcode":"611","ulbname":"Coonoor","ulbcode":"803570","wardname":"Ward 3","wardcode":"3","id":null,"status":"APPROVED","misglobalid":null,"approved_by":null,"createdate":1648710879000,"updateddate":1648721765000,"globalid":null,"gisglobalid":"PdBKsRnB-ad4K-Pc64-Q6mo-oc5lmoRaKcml","remark":"","st_area(shape)":0.000023111329805242777,"st_perimeter(shape)":0.03457199621209809}},{"arcs":[[-15,21,22,23,24,25,26,27,28,29]],"type":"Polygon","properties":{"objectid":254881,"statename":"Tamil Nadu","statecode":"33","districtname":"The Nilgiris","districtcode":"611","ulbname":"Coonoor","ulbcode":"803570","wardname":"Ward 4","wardcode":"4","id":null,"status":"APPROVED","misglobalid":null,"approved_by":null,"createdate":1648711182000,"updateddate":1648721852000,"globalid":null,"gisglobalid":"ocRmod5B-4BQ4-PKPK-ads5-QRKldsRdBRPs","remark":"","st_area(shape)":0.000010859408279690366,"st_perimeter(shape)":0.015676097365381184}},{"arcs":[[30,31,-24,-23,32,33]],"type":"Polygon","properties":{"objectid":257230,"statename":"Tamil Nadu","statecode":"33","districtname":"The Nilgiris","districtcode":"611","ulbname":"Coonoor","ulbcode":"803570","wardname":"Ward 5","wardcode":"5","id":null,"status":"APPROVED","misglobalid":null,"approved_by":null,"createdate":1648711443000,"updateddate":1648721941000,"globalid":null,"gisglobalid":"5cBc6m5o-osBP-P5Q4-aRs5-cRQ4PPn4oKla","remark":"","st_area(shape)":0.00002006046621629005,"st_perimeter(shape)":0.02855840200159705}},{"arcs":[[34,35,-31,36]],"type":"Polygon","properties":{"objectid":257231,"statename":"Tamil Nadu","statecode":"33","districtname":"The Nilgiris","districtcode":"611","ulbname":"Coonoor","ulbcode":"803570","wardname":"Ward 6","wardcode":"6","id":null,"status":"APPROVED","misglobalid":null,"approved_by":null,"createdate":1648711643000,"updateddate":1648721997000,"globalid":null,"gisglobalid":"aaKllR6B-R4dd-Pcsm-Q4Bn-Po5BnlBKdQcn","remark":"","st_area(shape)":0.000006592489130231154,"st_perimeter(shape)":0.011941650574570702}},{"arcs":[[-36,37,-37,-34,38,39,40,41,42,43,44,45,46,47,48,49,50,51,52,53,54]],"type":"Polygon","properties":{"objectid":257232,"statename":"Tamil Nadu","statecode":"33","districtname":"The Nilgiris","districtcode":"611","ulbname":"Coonoor","ulbcode":"803570","wardname":"Ward 7","wardcode":"7","id":null,"status":"APPROVED","misglobalid":null,"approved_by":null,"createdate":1648711872000,"updateddate":1648722054000,"globalid":null,"gisglobalid":"noRBQnQl-R5cs-PmcB-QKoK-5lsmR66c6Rsa","remark":"","st_area(shape)":0.00007628688089556135,"st_perimeter(shape)":0.05839387486879515}},{"arcs":[[55,56,57,58,-50,59,-48,60,-46,61,62,-43,63,64,-40,65,66,67,68,69,70,71,72,73,74,75]],"type":"Polygon","properties":{"objectid":256035,"statename":"Tamil Nadu","statecode":"33","districtname":"The Nilgiris","districtcode":"611","ulbname":"Coonoor","ulbcode":"803570","wardname":"Ward 8","wardcode":"8","id":null,"status":"APPROVED","misglobalid":null,"approved_by":null,"createdate":1648712198000,"updateddate":1648722156000,"globalid":null,"gisglobalid":"sP5moPlK-oBcd-PQsm-aaa4-smPn5sdQ5KK6","remark":"","st_area(shape)":0.00016821423338862676,"st_perimeter(shape)":0.07226923804198603}},{"arcs":[[76,77,78,79,80,-74,81,-72]],"type":"Polygon","properties":{"objectid":256425,"statename":"Tamil Nadu","statecode":"33","districtname":"The Nilgiris","districtcode":"611","ulbname":"Coonoor","ulbcode":"803570","wardname":"Ward 9","wardcode":"9","id":null,"status":"APPROVED","misglobalid":null,"approved_by":null,"createdate":1648712271000,"updateddate":1648722207000,"globalid":null,"gisglobalid":"mlPdcdcn-lm4c-PndB-amoc-5Bm4ld6l5KKP","remark":"","st_area(shape)":0.000006071855091205948,"st_perimeter(shape)":0.011257638631580776}},{"arcs":[[82,83,-59,84,-57,85,-78,86,87]],"type":"Polygon","properties":{"objectid":256826,"statename":"Tamil Nadu","statecode":"33","districtname":"The Nilgiris","districtcode":"611","ulbname":"Coonoor","ulbcode":"803570","wardname":"Ward 10","wardcode":"10","id":null,"status":"APPROVED","misglobalid":null,"approved_by":null,"createdate":1648712386000,"updateddate":1648722273000,"globalid":null,"gisglobalid":"o6Bsdl64-d5KB-PB6s-QmoQ-6olKl5m6BBaB","remark":"","st_area(shape)":0.000014933887613097376,"st_perimeter(shape)":0.018975262325279633}},{"arcs":[[88,89,90,91,92,93,94,-27,-26,-25,-32,-55,95,-53]],"type":"Polygon","properties":{"objectid":257233,"statename":"Tamil Nadu","statecode":"33","districtname":"The Nilgiris","districtcode":"611","ulbname":"Coonoor","ulbcode":"803570","wardname":"Ward 11","wardcode":"11","id":null,"status":"APPROVED","misglobalid":null,"approved_by":null,"createdate":1648712491000,"updateddate":1648722375000,"globalid":null,"gisglobalid":"R6d4doa6-4dnK-Pdsn-sR4c-4KccmcdPmoao","remark":"","st_area(shape)":0.00002379393298266494,"st_perimeter(shape)":0.03296891670815469}},{"arcs":[[96,97,98,28,99,100,24,101,26,-95]],"type":"Polygon","properties":{"objectid":256036,"statename":"Tamil Nadu","statecode":"33","districtname":"The Nilgiris","districtcode":"611","ulbname":"Coonoor","ulbcode":"803570","wardname":"Ward 12","wardcode":"12","id":null,"status":"APPROVED","misglobalid":null,"approved_by":null,"createdate":1648712672000,"updateddate":1648722439000,"globalid":null,"gisglobalid":"Rda5madn-lR4s-P6ns-QRPc-45KmPmBcsnsm","remark":"","st_area(shape)":0.00000398459702642009,"st_perimeter(shape)":0.013313495034848905}},{"arcs":[[102,-16,-30,-29,-99]],"type":"Polygon","properties":{"objectid":257234,"statename":"Tamil Nadu","statecode":"33","districtname":"The Nilgiris","districtcode":"611","ulbname":"Coonoor","ulbcode":"803570","wardname":"Ward 13","wardcode":"13","id":null,"status":"APPROVED","misglobalid":null,"approved_by":null,"createdate":1648712802000,"updateddate":1648722515000,"globalid":null,"gisglobalid":"4nBmn4nd-cond-PQsR-Q4mo-lm4644n5RRR5","remark":"","st_area(shape)":0.000010939835758590272,"st_perimeter(shape)":0.014106214136184058}},{"arcs":[[103,104,-6,105,-4,106,-2,-13,107]],"type":"Polygon","properties":{"objectid":257235,"statename":"Tamil Nadu","statecode":"33","districtname":"The Nilgiris","districtcode":"611","ulbname":"Coonoor","ulbcode":"803570","wardname":"Ward 14","wardcode":"14","id":null,"status":"APPROVED","misglobalid":null,"approved_by":null,"createdate":1648712911000,"updateddate":1648722584000,"globalid":null,"gisglobalid":"Bd6BRm65-5mQQ-P4KP-QK6s-RP4m6nlol65B","remark":"","st_area(shape)":0.000041484693026906015,"st_perimeter(shape)":0.030684004010743254}},{"arcs":[[108,109,110,-104,111,-11]],"type":"Polygon","properties":{"objectid":257236,"statename":"Tamil Nadu","statecode":"33","districtname":"The Nilgiris","districtcode":"611","ulbname":"Coonoor","ulbcode":"803570","wardname":"Ward 15","wardcode":"15","id":null,"status":"APPROVED","misglobalid":null,"approved_by":null,"createdate":1648713223000,"updateddate":1648722657000,"globalid":null,"gisglobalid":"4Rs46QKR-5KKc-PnnP-sQss-cnlKR5Qonslc","remark":"","st_area(shape)":0.00005022574339471228,"st_perimeter(shape)":0.031867655357827235}},{"arcs":[[112,-109,-10,-21]],"type":"Polygon","properties":{"objectid":257237,"statename":"Tamil Nadu","statecode":"33","districtname":"The Nilgiris","districtcode":"611","ulbname":"Coonoor","ulbcode":"803570","wardname":"Ward 16","wardcode":"16","id":null,"status":"APPROVED","misglobalid":null,"approved_by":null,"createdate":1648713282000,"updateddate":1648722793000,"globalid":null,"gisglobalid":"d4nndc5d-6KK4-Pc6P-QK6K-cdR466soPQ4m","remark":"","st_area(shape)":0.00000981257914889459,"st_perimeter(shape)":0.01846093942441399}},{"arcs":[[113,114,115,-17,-103,-98,116]],"type":"Polygon","properties":{"objectid":257616,"statename":"Tamil Nadu","statecode":"33","districtname":"The Nilgiris","districtcode":"611","ulbname":"Coonoor","ulbcode":"803570","wardname":"Ward 17","wardcode":"17","id":null,"status":"APPROVED","misglobalid":null,"approved_by":null,"createdate":1648713360000,"updateddate":1648722839000,"globalid":null,"gisglobalid":"6ndRmP55-c555-Po64-QlPB-lPdolQn4a4l4","remark":"","st_area(shape)":0.0000047214126848580944,"st_perimeter(shape)":0.011954669474280356}},{"arcs":[[117,118,119,120,121,-114,122,-94]],"type":"Polygon","properties":{"objectid":256037,"statename":"Tamil Nadu","statecode":"33","districtname":"The Nilgiris","districtcode":"611","ulbname":"Coonoor","ulbcode":"803570","wardname":"Ward 18","wardcode":"18","id":null,"status":"APPROVED","misglobalid":null,"approved_by":null,"createdate":1648713437000,"updateddate":1648722935000,"globalid":null,"gisglobalid":"lcQdRnPK-Po5Q-PoPR-snl5-KKmc4aodm5Qm","remark":"","st_area(shape)":0.000004832146050012281,"st_perimeter(shape)":0.013976432520324994}},{"arcs":[[123,124,125,-118,-93]],"type":"Polygon","properties":{"objectid":256038,"statename":"Tamil Nadu","statecode":"33","districtname":"The Nilgiris","districtcode":"611","ulbname":"Coonoor","ulbcode":"803570","wardname":"Ward 19","wardcode":"19","id":null,"status":"APPROVED","misglobalid":null,"approved_by":null,"createdate":1648713515000,"updateddate":1648722983000,"globalid":null,"gisglobalid":"KdolcmKQ-4m56-PaoQ-Qmmo-Rmd6as6nQBoQ","remark":"","st_area(shape)":0.0000035444479173035414,"st_perimeter(shape)":0.010707442203499703}},{"arcs":[[-124,-92,126,127,128]],"type":"Polygon","properties":{"objectid":257238,"statename":"Tamil Nadu","statecode":"33","districtname":"The Nilgiris","districtcode":"611","ulbname":"Coonoor","ulbcode":"803570","wardname":"Ward 20","wardcode":"20","id":null,"status":"APPROVED","misglobalid":null,"approved_by":null,"createdate":1648713578000,"updateddate":1648723035000,"globalid":null,"gisglobalid":"asmPmP55-d4ds-P4o6-aBK5-QcdBaQlmo55P","remark":"","st_area(shape)":0.000003872413459040437,"st_perimeter(shape)":0.011398211200757175}},{"arcs":[[129,-127,-91,130]],"type":"Polygon","properties":{"objectid":257239,"statename":"Tamil Nadu","statecode":"33","districtname":"The Nilgiris","districtcode":"611","ulbname":"Coonoor","ulbcode":"803570","wardname":"Ward 21","wardcode":"21","id":null,"status":"APPROVED","misglobalid":null,"approved_by":null,"createdate":1648713645000,"updateddate":1648723086000,"globalid":null,"gisglobalid":"salcKmlB-d6oP-Plo6-a5sl-msRncd6nBcda","remark":"","st_area(shape)":0.000009237322815299844,"st_perimeter(shape)":0.01302023592283033}},{"arcs":[[131,132,133,-51,-84]],"type":"Polygon","properties":{"objectid":254882,"statename":"Tamil Nadu","statecode":"33","districtname":"The Nilgiris","districtcode":"611","ulbname":"Coonoor","ulbcode":"803570","wardname":"Ward 22","wardcode":"22","id":null,"status":"APPROVED","misglobalid":null,"approved_by":null,"createdate":1648713718000,"updateddate":1648723145000,"globalid":null,"gisglobalid":"d5aR55cm-6ndm-PnnP-QRsR-QmcalnRBaKll","remark":"","st_area(shape)":0.000021927955239403553,"st_perimeter(shape)":0.021604067373153433}},{"arcs":[[134,-87,-77,-71,135,-69,136,137]],"type":"Polygon","properties":{"objectid":254883,"statename":"Tamil Nadu","statecode":"33","districtname":"The Nilgiris","districtcode":"611","ulbname":"Coonoor","ulbcode":"803570","wardname":"Ward 23","wardcode":"23","id":null,"status":"APPROVED","misglobalid":null,"approved_by":null,"createdate":1648713845000,"updateddate":1648723240000,"globalid":null,"gisglobalid":"co55an4m-dlam-P6mK-R55l-BsnPodQn45QB","remark":"","st_area(shape)":0.00007970154782600235,"st_perimeter(shape)":0.0457624534969253}},{"arcs":[[138,139,140,141,-132,-83,-138,142,-67,143]],"type":"Polygon","properties":{"objectid":256041,"statename":"Tamil Nadu","statecode":"33","districtname":"The Nilgiris","districtcode":"611","ulbname":"Coonoor","ulbcode":"803570","wardname":"Ward 244","wardcode":"24","id":null,"status":"APPROVED","misglobalid":null,"approved_by":null,"createdate":1648714133000,"updateddate":1648723299000,"globalid":null,"gisglobalid":"Ks6doQ5o-mnQK-P5Kc-Rms5-sdlc6lso446P","remark":"","st_area(shape)":0.00030771895507654293,"st_perimeter(shape)":0.10403309407201079}},{"arcs":[[144,-120,145,-125,-129]],"type":"Polygon","properties":{"objectid":256042,"statename":"Tamil Nadu","statecode":"33","districtname":"The Nilgiris","districtcode":"611","ulbname":"Coonoor","ulbcode":"803570","wardname":"Ward 25","wardcode":"25","id":null,"status":"APPROVED","misglobalid":null,"approved_by":null,"createdate":1648714232000,"updateddate":1648724265000,"globalid":null,"gisglobalid":"K4osscBQ-omo5-PRcd-Q65l-aanRlaBmcooK","remark":"","st_area(shape)":0.0000013525487698183858,"st_perimeter(shape)":0.0057582459132761435}},{"arcs":[[146,-19,147,-115,-122]],"type":"Polygon","properties":{"objectid":257243,"statename":"Tamil Nadu","statecode":"33","districtname":"The Nilgiris","districtcode":"611","ulbname":"Coonoor","ulbcode":"803570","wardname":"Ward 26","wardcode":"26","id":null,"status":"APPROVED","misglobalid":null,"approved_by":null,"createdate":1648714301000,"updateddate":1648724312000,"globalid":null,"gisglobalid":"6nsP444K-osl4-Polc-RBdB-oBmmoQ46R5BR","remark":"","st_area(shape)":0.0000033056540150429087,"st_perimeter(shape)":0.007782332674590263}},{"arcs":[[148,149,150,151,152,153]],"type":"Polygon","properties":{"objectid":256426,"statename":"Tamil Nadu","statecode":"33","districtname":"The Nilgiris","districtcode":"611","ulbname":"Coonoor","ulbcode":"803570","wardname":"Ward 27","wardcode":"27","id":null,"status":"APPROVED","misglobalid":null,"approved_by":null,"createdate":1648714570000,"updateddate":1648724353000,"globalid":null,"gisglobalid":"Psm45Qsd-ss4s-PmcP-amPa-ss5cd4dKo6od","remark":"","st_area(shape)":0.00005777930007240519,"st_perimeter(shape)":0.04464186721415481}},{"arcs":[[154,155,156,-149,157,-110,-113,158]],"type":"Polygon","properties":{"objectid":256043,"statename":"Tamil Nadu","statecode":"33","districtname":"The Nilgiris","districtcode":"611","ulbname":"Coonoor","ulbcode":"803570","wardname":"Ward 28","wardcode":"28","id":null,"status":"APPROVED","misglobalid":null,"approved_by":null,"createdate":1648714629000,"updateddate":1648724422000,"globalid":null,"gisglobalid":"54mPocBK-64dQ-Pmns-Q6la-s64ns4BRRKKB","remark":"","st_area(shape)":0.00003383054493388346,"st_perimeter(shape)":0.026264847115458165}},{"arcs":[[159,-156,-151,160]],"type":"Polygon","properties":{"objectid":257246,"statename":"Tamil Nadu","statecode":"33","districtname":"The Nilgiris","districtcode":"611","ulbname":"Coonoor","ulbcode":"803570","wardname":"Ward 29","wardcode":"29","id":null,"status":"APPROVED","misglobalid":null,"approved_by":null,"createdate":1648714692000,"updateddate":1648724470000,"globalid":null,"gisglobalid":"aml46oKd-n4Pm-PooQ-a6QP-nPKK54K4cP5d","remark":"","st_area(shape)":0.000007547836051983671,"st_perimeter(shape)":0.01170071680189332}},{"arcs":[[-141,161,-139,162,-153,-159,-20,-147,-121,-145,-128,-130,163,-89,-52,-134,164]],"type":"Polygon","properties":{"objectid":256046,"statename":"Tamil Nadu","statecode":"33","districtname":"The Nilgiris","districtcode":"611","ulbname":"Coonoor","ulbcode":"803570","wardname":"Ward 30","wardcode":"30","id":null,"status":"APPROVED","misglobalid":null,"approved_by":null,"createdate":1648714830000,"updateddate":1648724512000,"globalid":null,"gisglobalid":"sQKQns4P-dQno-P6QQ-Qsc5-PlmBQs5PKlo4","remark":"","st_area(shape)":0.000053365905176080264,"st_perimeter(shape)":0.04723812211658746}}]}}}