{"type":"Topology","arcs":[[[31510,71552],[-803,-2177]],[[30707,69375],[-364,73]],[[30343,69448],[-365,0]],[[29978,69448],[-2115,-73]],[[27863,69375],[-584,0]],[[27279,69375],[-2042,0]],[[25237,69375],[-438,0]],[[24799,69375],[-7513,-2322],[-8169,1669],[-3355,1742],[-5762,1233]],[[0,71697],[1532,5661],[-219,5733],[802,1524],[9191,-944],[4595,1814],[1385,2976],[5763,-1815],[948,-2757],[4157,726],[2772,-944]],[[30926,83671],[146,-3773],[2772,0],[2917,-2250],[-510,-4717],[-73,0]],[[36178,72931],[-4596,-653]],[[31582,72278],[-72,-726]],[[39387,84977],[10576,-7764],[6054,-5951],[-365,-3483]],[[55652,67779],[-10211,-799],[-1678,436]],[[43763,67416],[-7002,1234]],[[36761,68650],[-583,4281]],[[30926,83671],[2991,-72],[1167,2177],[4303,-799]],[[56673,97749],[1240,-3193],[-1677,-2902],[1094,-8854],[1459,-3918],[510,-5298],[1970,-2612]],[[61269,70972],[729,-2468]],[[61998,68504],[-6346,-725]],[[39387,84977],[1240,581],[-1459,4862],[1240,3120],[-1313,3266],[13348,2830],[1167,-2395],[3063,508]],[[83442,83091],[-3355,-4209],[-2699,-1379],[-14150,-4790],[73,-1233]],[[63311,71480],[-2042,-508]],[[56673,97749],[4377,2250],[3355,-1379],[5762,-435],[7732,-6386],[5543,-8708]],[[93143,63062],[-6929,5588],[-4887,-654],[-4668,654],[-6346,-146],[-1240,2685],[-4741,-1596],[-1021,1887]],[[83442,83091],[1823,-8273],[3939,1161],[3720,-2032],[4960,-943],[2115,-1524],[-1532,-4935],[-2771,73],[-2553,-3556]],[[93143,63062],[1459,-2177],[-1678,-3266],[-1094,-5515],[-3866,-3048]],[[87964,49056],[-2334,2105],[-5033,2177],[1240,1741],[-1604,7983],[-8899,1524],[-5179,-1814]],[[66155,62772],[-4157,5732]],[[66155,62772],[-1823,1233],[-3793,-3773],[-4960,508],[-1823,-10378]],[[53756,50362],[-3209,3121]],[[50547,53483],[-6857,8998],[73,4935]],[[50547,53483],[-1313,72],[-6784,-3846]],[[42450,49709],[-1531,2685],[-5908,-3338]],[[35011,49056],[-3356,6676],[730,1597],[6418,3991],[-2042,7330]],[[31510,71552],[72,726]],[[36761,68650],[-5251,580],[1969,-9216],[-13056,-508],[-5252,-2105]],[[15171,57401],[-4230,7620],[-2699,3411],[-5033,218],[-3209,3047]],[[24799,69375],[438,0]],[[27279,69375],[584,0]],[[29978,69448],[365,0]],[[30343,69448],[364,-73]],[[35011,49056],[-6127,-2395],[-1970,-2540]],[[26914,44121],[-4887,3847],[-2261,3628],[-4668,943],[73,4862]],[[46097,46081],[-4595,-5298],[730,-4789],[-3574,-1306],[-4887,-5806],[-3501,-6604]],[[30270,22278],[-11233,5298],[-6564,363],[-6200,5878],[4668,-581],[5616,653],[8753,6967],[1604,3265]],[[42450,49709],[1605,-3048],[2042,-580]],[[54558,26995],[1094,-12626],[-146,-8273]],[[55506,6096],[-3792,2394],[-8097,-507],[-4303,7039],[-3282,3193],[656,1814],[-6418,2249]],[[46097,46081],[1532,-1524],[2772,-6822],[-4231,-217],[948,-3701],[7440,-6822]],[[53756,50362],[1021,-3846]],[[54777,46516],[146,-6096]],[[54923,40420],[219,-11683],[-584,-1742]],[[66155,62772],[1459,-6749]],[[67614,56023],[-5033,-871],[803,-4064]],[[63384,51088],[-4231,-218],[-73,-2032],[-4303,-2322]],[[87964,49056],[-7586,-6966],[1168,-7838]],[[81546,34252],[-2407,-72],[-5471,2540],[-4595,3773]],[[69073,40493],[-584,2758],[1459,5950],[-146,2758],[-2188,4064]],[[69073,40493],[-2845,-2322]],[[66228,38171],[-2844,12917]],[[66228,38171],[-3501,-218],[-219,3266],[-7585,-799]],[[81546,34252],[1167,-1524],[1239,-7402],[876,-653],[-219,-6168],[-6273,-4790],[-7731,-7256],[-1678,-4427],[-9044,-2032],[-4377,6096]]],"transform":{"scale":[0.0000013710137101371391,0.0000013780137801377873],"translate":[70.7251,22.2057]},"objects":{"wards":{"type":"GeometryCollection","geometries":[{"arcs":[[0,1,2,3,4,5,6,7,8,9,10,11]],"type":"Polygon","properties":{"objectid":54043,"statename":"Gujarat","statecode":"24","districtname":"Rajkot","districtcode":"476","ulbname":"Rajkot (M.Cop)","ulbcode":"802501","wardname":"1","wardcode":"1","id":null,"status":"APPROVED","misglobalid":null,"approved_by":"ULB Nodal Officer","createdate":1640003776000,"updateddate":1640008622000,"globalid":"4slPPQaR-5aoB-Pmll-QasR-lRss4naB5dol","gisglobalid":"286e6cb2-d01d-41fd-aa89-63b438b058f4","remark":"","st_area(shape)":0.0009862756676104621,"st_perimeter(shape)":0.15394080830060114}},{"arcs":[[12,13,14,15,-10,16]],"type":"Polygon","properties":{"objectid":125,"statename":"Gujarat","statecode":"24","districtname":"Rajkot","districtcode":"476","ulbname":"Rajkot (M.Cop)","ulbcode":"802501","wardname":"2","wardcode":"2","id":null,"status":"APPROVED","misglobalid":null,"approved_by":"ULB Nodal Officer","createdate":1640003776000,"updateddate":1640008666000,"globalid":"m6cRcKnQ-mo5c-PsRR-smQc-Q45d6lcQB4Pc","gisglobalid":"16c558df-3630-4cd5-8e14-708077d0bba6","remark":"","st_area(shape)":0.0004818033475969293,"st_perimeter(shape)":0.1274373599821069}},{"arcs":[[17,18,19,-13,20]],"type":"Polygon","properties":{"objectid":126,"statename":"Gujarat","statecode":"24","districtname":"Rajkot","districtcode":"476","ulbname":"Rajkot (M.Cop)","ulbcode":"802501","wardname":"3","wardcode":"3","id":null,"status":"APPROVED","misglobalid":null,"approved_by":"ULB Nodal Officer","createdate":1640003776000,"updateddate":1640008644000,"globalid":"oBmKdlsl-RQm6-P64l-QnB5-o4mdB5slodBK","gisglobalid":"d596e0e5-1264-417a-bb28-b2cb236f3cdc","remark":"","st_area(shape)":0.0007249874472279417,"st_perimeter(shape)":0.1417724816348912}},{"arcs":[[21,22,-18,23]],"type":"Polygon","properties":{"objectid":127,"statename":"Gujarat","statecode":"24","districtname":"Rajkot","districtcode":"476","ulbname":"Rajkot (M.Cop)","ulbcode":"802501","wardname":"4","wardcode":"4","id":null,"status":"APPROVED","misglobalid":null,"approved_by":"ULB Nodal Officer","createdate":1640003776000,"updateddate":1640008672000,"globalid":"B6a4d5Bo-QBRd-PRKd-sKod-Pmnc5nc66m55","gisglobalid":"577d0480-1695-4521-827b-c662d14126f3","remark":"","st_area(shape)":0.0009615131758591993,"st_perimeter(shape)":0.13741991098055342}},{"arcs":[[24,-22,25]],"type":"Polygon","properties":{"objectid":128,"statename":"Gujarat","statecode":"24","districtname":"Rajkot","districtcode":"476","ulbname":"Rajkot (M.Cop)","ulbcode":"802501","wardname":"5","wardcode":"5","id":null,"status":"APPROVED","misglobalid":null,"approved_by":"ULB Nodal Officer","createdate":1640003776000,"updateddate":1640008656000,"globalid":"PRBlmlKo-5dlQ-PsRQ-smPR-omllBmldBcBn","gisglobalid":"853378c9-c7b1-4a97-abd4-85e9d0328d9e","remark":"","st_area(shape)":0.0005451273551219686,"st_perimeter(shape)":0.13905201076377421}},{"arcs":[[26,27,28,-19,-23,-25]],"type":"Polygon","properties":{"objectid":129,"statename":"Gujarat","statecode":"24","districtname":"Rajkot","districtcode":"476","ulbname":"Rajkot (M.Cop)","ulbcode":"802501","wardname":"6","wardcode":"6","id":null,"status":"APPROVED","misglobalid":null,"approved_by":"ULB Nodal Officer","createdate":1640003776000,"updateddate":1640008744000,"globalid":"dslPmnm6-KKBR-PccB-Q464-BKKmKBo5o55d","gisglobalid":"0622ff86-22f6-443b-ab35-d8ecb8c4952a","remark":"","st_area(shape)":0.0005477434258881165,"st_perimeter(shape)":0.1464179257803725}},{"arcs":[[-29,29,30,31,-14,-20]],"type":"Polygon","properties":{"objectid":130,"statename":"Gujarat","statecode":"24","districtname":"Rajkot","districtcode":"476","ulbname":"Rajkot (M.Cop)","ulbcode":"802501","wardname":"7","wardcode":"7","id":null,"status":"APPROVED","misglobalid":null,"approved_by":"ULB Nodal Officer","createdate":1640003776000,"updateddate":1640008727000,"globalid":"modQRK44-KoK5-PPQ6-sd4s-5KBRBalcmas4","gisglobalid":"970c675c-d7f6-4bae-b437-9212822001c0","remark":"","st_area(shape)":0.000377071743608739,"st_perimeter(shape)":0.10268333226771248}},{"arcs":[[32,33,34,-15,-32]],"type":"Polygon","properties":{"objectid":131,"statename":"Gujarat","statecode":"24","districtname":"Rajkot","districtcode":"476","ulbname":"Rajkot (M.Cop)","ulbcode":"802501","wardname":"8","wardcode":"8","id":null,"status":"APPROVED","misglobalid":null,"approved_by":"ULB Nodal Officer","createdate":1640003776000,"updateddate":1640008713000,"globalid":"oRcBcaKm-PBoo-P4nK-snnP-6B6m4sQPBQ6n","gisglobalid":"fccbf9f6-752f-4685-afd5-b68d585195d2","remark":"","st_area(shape)":0.0003527356191964786,"st_perimeter(shape)":0.09367507792076457}},{"arcs":[[35,-11,-16,36,37,-8,38,-6,39,-4,40,41,-1]],"type":"Polygon","properties":{"objectid":132,"statename":"Gujarat","statecode":"24","districtname":"Rajkot","districtcode":"476","ulbname":"Rajkot (M.Cop)","ulbcode":"802501","wardname":"9","wardcode":"9","id":null,"status":"APPROVED","misglobalid":null,"approved_by":"ULB Nodal Officer","createdate":1640003776000,"updateddate":1640008651000,"globalid":"Kla5BQPB-PcaP-Pmdd-aKna-m45dsocoRBRK","gisglobalid":"e02fa577-6c38-4d76-9afb-76d7e809a145","remark":"","st_area(shape)":0.00041972849804100196,"st_perimeter(shape)":0.1506584402772437}},{"arcs":[[42,43,-37,-35]],"type":"Polygon","properties":{"objectid":133,"statename":"Gujarat","statecode":"24","districtname":"Rajkot","districtcode":"476","ulbname":"Rajkot (M.Cop)","ulbcode":"802501","wardname":"10","wardcode":"10","id":null,"status":"APPROVED","misglobalid":null,"approved_by":"ULB Nodal Officer","createdate":1640003776000,"updateddate":1640008750000,"globalid":"Pl5Psdla-P556-Pdol-Rsa4-oldBQ6QaddRa","gisglobalid":"0803d8c6-1a1b-497c-81db-4871a5ce8c5a","remark":"","st_area(shape)":0.0004663064458515398,"st_perimeter(shape)":0.12761584122163477}},{"arcs":[[44,45,-43,-34,46]],"type":"Polygon","properties":{"objectid":140,"statename":"Gujarat","statecode":"24","districtname":"Rajkot","districtcode":"476","ulbname":"Rajkot (M.Cop)","ulbcode":"802501","wardname":"11","wardcode":"11","id":null,"status":"APPROVED","misglobalid":null,"approved_by":"ULB Nodal Officer","createdate":1640003776000,"updateddate":1640008661000,"globalid":"45Pm4aPK-nnPd-PK4m-aB6R-lPosR4B6asas","gisglobalid":"f9bc5e57-d307-4859-af77-91a5aaee506e","remark":"","st_area(shape)":0.0009051153143064085,"st_perimeter(shape)":0.1573035502335316}},{"arcs":[[47,48,-45,49]],"type":"Polygon","properties":{"objectid":141,"statename":"Gujarat","statecode":"24","districtname":"Rajkot","districtcode":"476","ulbname":"Rajkot (M.Cop)","ulbcode":"802501","wardname":"12","wardcode":"12","id":null,"status":"APPROVED","misglobalid":null,"approved_by":"ULB Nodal Officer","createdate":1640003776000,"updateddate":1640008760000,"globalid":"n4mno5sn-cdcd-PKdl-Qosl-PKQQRlocnBdP","gisglobalid":"b3468551-4378-4256-b5e9-e031d8b3253b","remark":"","st_area(shape)":0.0010040091389821836,"st_perimeter(shape)":0.15871251314302887}},{"arcs":[[-31,50,51,52,-50,-47,-33]],"type":"Polygon","properties":{"objectid":138,"statename":"Gujarat","statecode":"24","districtname":"Rajkot","districtcode":"476","ulbname":"Rajkot (M.Cop)","ulbcode":"802501","wardname":"13","wardcode":"13","id":null,"status":"APPROVED","misglobalid":null,"approved_by":"ULB Nodal Officer","createdate":1640003776000,"updateddate":1640008720000,"globalid":"dmnlad6a-QnlB-P545-amRo-aPl4o6aBPRlB","gisglobalid":"df0a50c5-9fb5-4cee-850c-833d580c848e","remark":"","st_area(shape)":0.000328500946154887,"st_perimeter(shape)":0.10161481708800195}},{"arcs":[[53,54,55,-51,-30]],"type":"Polygon","properties":{"objectid":137,"statename":"Gujarat","statecode":"24","districtname":"Rajkot","districtcode":"476","ulbname":"Rajkot (M.Cop)","ulbcode":"802501","wardname":"14","wardcode":"14","id":null,"status":"APPROVED","misglobalid":null,"approved_by":"ULB Nodal Officer","createdate":1640003776000,"updateddate":1640008736000,"globalid":"ao65mBd4-6ca6-PKc6-a5ss-ssnPQBs6cKml","gisglobalid":"1eb19c6d-46eb-410a-ae9d-c376f596c04b","remark":"","st_area(shape)":0.00023487507210776632,"st_perimeter(shape)":0.08155238825828343}},{"arcs":[[56,57,58,-54,-28]],"type":"Polygon","properties":{"objectid":134,"statename":"Gujarat","statecode":"24","districtname":"Rajkot","districtcode":"476","ulbname":"Rajkot (M.Cop)","ulbcode":"802501","wardname":"15","wardcode":"15","id":null,"status":"APPROVED","misglobalid":null,"approved_by":"ULB Nodal Officer","createdate":1640003776000,"updateddate":1640008679000,"globalid":"46B56R4o-6PaQ-P6nm-R5nd-dPKmK5dnl45d","gisglobalid":"8aa1e76c-a363-4dcf-8341-d66561703694","remark":"","st_area(shape)":0.0007130159040995303,"st_perimeter(shape)":0.12860650628951867}},{"arcs":[[59,60,-55,-59]],"type":"Polygon","properties":{"objectid":135,"statename":"Gujarat","statecode":"24","districtname":"Rajkot","districtcode":"476","ulbname":"Rajkot (M.Cop)","ulbcode":"802501","wardname":"16","wardcode":"16","id":null,"status":"APPROVED","misglobalid":null,"approved_by":"ULB Nodal Officer","createdate":1640003776000,"updateddate":1640008631000,"globalid":"cRsKnd66-lmsn-Pm5c-slKo-aKnPosK4PcQs","gisglobalid":"2bd78be9-54b7-497c-9870-45b2045a3482","remark":"","st_area(shape)":0.00015922209537117964,"st_perimeter(shape)":0.06006190388027435}},{"arcs":[[61,-52,-56,-61]],"type":"Polygon","properties":{"objectid":136,"statename":"Gujarat","statecode":"24","districtname":"Rajkot","districtcode":"476","ulbname":"Rajkot (M.Cop)","ulbcode":"802501","wardname":"17","wardcode":"17","id":null,"status":"APPROVED","misglobalid":null,"approved_by":"ULB Nodal Officer","createdate":1640003776000,"updateddate":1640008685000,"globalid":"oPc5lldR-omRa-PP6B-smmQ-RRKPQ5lKnsmc","gisglobalid":"c1893e86-fea8-473a-b161-04f8f986bea7","remark":"","st_area(shape)":0.00018361333424410747,"st_perimeter(shape)":0.06495047771658283}},{"arcs":[[-60,-58,62,-48,-53,-62]],"type":"Polygon","properties":{"objectid":139,"statename":"Gujarat","statecode":"24","districtname":"Rajkot","districtcode":"476","ulbname":"Rajkot (M.Cop)","ulbcode":"802501","wardname":"18","wardcode":"18","id":null,"status":"APPROVED","misglobalid":null,"approved_by":"ULB Nodal Officer","createdate":1640003776000,"updateddate":1640008755000,"globalid":"ncQQdcPB-Klco-PlRa-soon-5KPRBm5KP4lc","gisglobalid":"02fe1519-755d-45bb-91b2-d6f62388d0b3","remark":"","st_area(shape)":0.0016678570350729934,"st_perimeter(shape)":0.18023889537003973}}]}}}