{"type":"Topology","arcs":[[[65941,90464],[-7004,1711]],[[58937,92175],[-7005,-1467]],[[51932,90708],[29951,9291],[14493,-23716],[-34782,-17359],[4347,31540]],[[58937,92175],[7004,-1711]],[[65941,90464],[-5072,-33496]],[[60869,56968],[-2415,-978]],[[58454,55990],[3381,18581],[-2898,17604]],[[58454,55990],[2173,-978]],[[60627,55012],[242,0]],[[60869,55012],[483,0]],[[61352,55012],[483,0]],[[61835,55012],[483,978]],[[62318,55990],[242,0]],[[62560,55990],[483,489]],[[63043,56479],[483,978]],[[63526,57457],[-1691,-6113],[-8212,2690],[4831,1956]],[[60627,55012],[242,1956]],[[60869,56968],[2657,489]],[[63043,56479],[-483,-489]],[[62318,55990],[-483,-978]],[[61352,55012],[-483,0]],[[65217,53789],[-483,-733]],[[64734,53056],[-242,3912],[4589,-1223],[2899,3668],[24396,16136],[3623,-22738],[-19082,-733],[-6522,-2445],[-9178,733],[0,3423]],[[65217,53789],[-483,-3667],[9903,-978],[5797,2689],[19565,489],[-4106,-25183],[-5556,2934],[-22222,18582],[-5797,-489],[2416,4890]],[[46376,40342],[-724,489]],[[45652,40831],[724,-489]],[[67874,37652],[21014,-13691],[-19323,-8069],[-1691,21760]],[[46376,40342],[725,-16381]],[[47101,23961],[-725,16381]],[[42512,38386],[-4590,-32518],[-22705,-5868],[-5797,26406],[10628,12958],[22464,-978]],[[51932,90708],[9662,-15892],[-15942,-33985]],[[45652,40831],[-242,12225],[725,978],[-8937,489],[0,1467]],[[37198,55990],[1932,244]],[[39130,56234],[-4106,11980]],[[35024,68214],[19565,10269],[-2657,12225]],[[0,55745],[42753,-2200],[1691,0],[-2415,-14670],[-21981,733],[-20048,16137]],[[35024,68214],[4106,-11980]],[[37198,55990],[-34783,1956],[46618,39364],[4590,-18582],[-18599,-10514]]],"transform":{"scale":[4.140041400413593e-7,4.0900409004090643e-7],"translate":[74.9655,30.948500000000003]},"objects":{"wards":{"type":"GeometryCollection","geometries":[{"arcs":[[0,1,2]],"type":"Polygon","properties":{"objectid":35408,"statename":"Punjab","statecode":"3","districtname":"Firozpur","districtcode":"43","ulbname":"Zira","ulbcode":"800205","wardname":"Basti Hazi Wali, Govt Primary School","wardcode":"1","id":null,"status":"APPROVED","misglobalid":null,"approved_by":null,"createdate":1640583031000,"updateddate":1640583058000,"globalid":null,"gisglobalid":"cdaQdKQd-6sla-Pc5s-QQ4Q-o5QP6Plna4dB","remark":"Approved Kml","st_area(shape)":0.0001651000540882563,"st_perimeter(shape)":0.06635915717988822}},{"arcs":[[3,4,5,6]],"type":"Polygon","properties":{"objectid":32106,"statename":"Punjab","statecode":"3","districtname":"Firozpur","districtcode":"43","ulbname":"Zira","ulbcode":"800205","wardname":"Basti Tibba, Wasti Shamsdin.","wardcode":"2","id":null,"status":"APPROVED","misglobalid":null,"approved_by":null,"createdate":1640583083000,"updateddate":1640583119000,"globalid":null,"gisglobalid":"clcPmsoP-Kd6n-Pcms-scPo-dl54omdsBasK","remark":"Approved Kml","st_area(shape)":0.00003753618744309476,"st_perimeter(shape)":0.03752006276963888}},{"arcs":[[7,8,9,10,11,12,13,14,15]],"type":"Polygon","properties":{"objectid":32105,"statename":"Punjab","statecode":"3","districtname":"Firozpur","districtcode":"43","ulbname":"Zira","ulbcode":"800205","wardname":"Mohalla Chah Berian, Sawan Mall School","wardcode":"3","id":null,"status":"APPROVED","misglobalid":null,"approved_by":null,"createdate":1640583144000,"updateddate":1640583165000,"globalid":null,"gisglobalid":"nKmKQRsc-4Rl6-Pmd4-QosK-d45Rmcsoo44R","remark":"Approved Kml","st_area(shape)":0.000007313996449666737,"st_perimeter(shape)":0.014175124175076508}},{"arcs":[[16,17,-15,18,-13,19,-11,20,-9]],"type":"Polygon","properties":{"objectid":35122,"statename":"Punjab","statecode":"3","districtname":"Firozpur","districtcode":"43","ulbname":"Zira","ulbcode":"800205","wardname":"Dhakka Basti, Gali Mata Da Mandir","wardcode":"4","id":null,"status":"APPROVED","misglobalid":null,"approved_by":null,"createdate":1640583180000,"updateddate":1640583208000,"globalid":null,"gisglobalid":"a4Pmd6P5-KmK6-PRPc-sos5-naloBmddn6R4","remark":"Approved Kml","st_area(shape)":0.0000034911450712923518,"st_perimeter(shape)":0.012744341181129082}},{"arcs":[[21,22]],"type":"Polygon","properties":{"objectid":55476,"statename":"Punjab","statecode":"3","districtname":"Firozpur","districtcode":"43","ulbname":"Zira","ulbcode":"800205","wardname":"Office Municipal Council Zira, Guruduwara Harnam Sar","wardcode":"5","id":null,"status":"APPROVED","misglobalid":null,"approved_by":null,"createdate":1643269510000,"updateddate":1643269600000,"globalid":null,"gisglobalid":"odscamd4-cloc-Pn4P-aBKR-QBPddQsKQasc","remark":"Approved","st_area(shape)":0.00008080360020532909,"st_perimeter(shape)":0.04475609886867294}},{"arcs":[[-22,23]],"type":"Polygon","properties":{"objectid":35121,"statename":"Punjab","statecode":"3","districtname":"Firozpur","districtcode":"43","ulbname":"Zira","ulbcode":"800205","wardname":"Police Station Sadar, Near Cold Store","wardcode":"6","id":null,"status":"APPROVED","misglobalid":null,"approved_by":null,"createdate":1640583276000,"updateddate":1640583293000,"globalid":null,"gisglobalid":"nndBmdcB-dsPl-Pamn-QQQs-dQaBaoc6aQ4R","remark":"Approved Kml","st_area(shape)":0.00008334078661420746,"st_perimeter(shape)":0.05194157391314924}},{"arcs":[[24,25]],"type":"Polygon","properties":{"objectid":34482,"statename":"Punjab","statecode":"3","districtname":"Firozpur","districtcode":"43","ulbname":"Zira","ulbcode":"800205","wardname":"Mohalla Kamboj, Civil Hospital","wardcode":"7","id":null,"status":"APPROVED","misglobalid":null,"approved_by":null,"createdate":1640583312000,"updateddate":1640583330000,"globalid":null,"gisglobalid":"RondR4d4-KnsR-P4sa-QldQ-Rl4lR4BRK6PR","remark":"Approved Kml","st_area(shape)":0.00002063975084820882,"st_perimeter(shape)":0.021879528632966622}},{"type":null,"properties":{"objectid":35119,"statename":"Punjab","statecode":"3","districtname":"Firozpur","districtcode":"43","ulbname":"Zira","ulbcode":"800205","wardname":"Mohalla Peer Bakash, Mohalla Mallian","wardcode":"8","id":null,"status":"APPROVED","misglobalid":null,"approved_by":null,"createdate":1640583344000,"updateddate":1640583365000,"globalid":null,"gisglobalid":"6BKoalKs-dQRB-Pcm6-Q4mo-ol6namclnnRc","remark":"Approved Kml","st_area(shape)":0.00002224763676512608,"st_perimeter(shape)":0.03078978277332006}},{"type":null,"properties":{"objectid":33208,"statename":"Punjab","statecode":"3","districtname":"Firozpur","districtcode":"43","ulbname":"Zira","ulbcode":"800205","wardname":"Old Sdm Office, Old Court Zira","wardcode":"9","id":null,"status":"APPROVED","misglobalid":null,"approved_by":null,"createdate":1640583381000,"updateddate":1640583397000,"globalid":null,"gisglobalid":"lPKaolPl-64nR-PlsQ-sKdo-nnmdQ5Q6Ran4","remark":"Approved Kml","st_area(shape)":0.00002378655833500553,"st_perimeter(shape)":0.03077343757688799}},{"arcs":[[26]],"type":"Polygon","properties":{"objectid":34744,"statename":"Punjab","statecode":"3","districtname":null,"districtcode":"43","ulbname":"Zira","ulbcode":"800205","wardname":"","wardcode":"10","id":null,"status":"APPROVED","misglobalid":null,"approved_by":"ULB Nodal Officer","createdate":1636711047000,"updateddate":1637136409000,"globalid":"B4KQlBsc-lR5c-PnRK-asK6-oR4KnBQsm6m4","gisglobalid":"d1b6b3fe-54e5-47c8-b2b2-ab0e0eb108be","remark":"This Map Approved By Ulb ","st_area(shape)":0.00005441208075973121,"st_perimeter(shape)":0.03078889058694001}},{"type":null,"properties":{"objectid":35118,"statename":"Punjab","statecode":"3","districtname":"Firozpur","districtcode":"43","ulbname":"Zira","ulbcode":"800205","wardname":"Guru Tegh Bahadur Nagar, Guruduwara Singh Sabha","wardcode":"11","id":null,"status":"APPROVED","misglobalid":null,"approved_by":null,"createdate":1640583474000,"updateddate":1640583487000,"globalid":null,"gisglobalid":"Klad5l4c-sRKl-PlPK-ssld-ld4ldBoaaBnP","remark":"Approved Kml","st_area(shape)":0.00004352118136042195,"st_perimeter(shape)":0.030236673712161485}},{"type":null,"properties":{"objectid":34481,"statename":"Punjab","statecode":"3","districtname":"Firozpur","districtcode":"43","ulbname":"Zira","ulbcode":"800205","wardname":"Basti Machian Wali","wardcode":"12","id":null,"status":"APPROVED","misglobalid":null,"approved_by":null,"createdate":1640583530000,"updateddate":1640583548000,"globalid":null,"gisglobalid":"KKB4laPo-KKda-PBld-admn-sdn5cKmda5al","remark":"Approved Kml","st_area(shape)":0.00003196009624507814,"st_perimeter(shape)":0.028210035968990202}},{"arcs":[[27,28]],"type":"Polygon","properties":{"objectid":35117,"statename":"Punjab","statecode":"3","districtname":"Firozpur","districtcode":"43","ulbname":"Zira","ulbcode":"800205","wardname":"Guruduwara Singh Sabha Road, Sen.Sec.Girl School","wardcode":"13","id":null,"status":"APPROVED","misglobalid":null,"approved_by":null,"createdate":1640583563000,"updateddate":1640583581000,"globalid":null,"gisglobalid":"4B6ndQs5-dcdK-P6RB-RdnK-cQna4sRalPna","remark":"Approved Kml","st_area(shape)":0.000018683257709738824,"st_perimeter(shape)":0.021166266609081042}},{"arcs":[[29]],"type":"Polygon","properties":{"objectid":34743,"statename":"Punjab","statecode":"3","districtname":"Firozpur","districtcode":"43","ulbname":"Zira","ulbcode":"800205","wardname":"Basti Nehro Par,Mohalla Gogoani","wardcode":"14","id":null,"status":"APPROVED","misglobalid":null,"approved_by":null,"createdate":1640583601000,"updateddate":1640583617000,"globalid":null,"gisglobalid":"a6B6dac5-dBnP-Pdma-a4R4-5cmlm45mmlB5","remark":"Approved Kml","st_area(shape)":0.00017890597944222644,"st_perimeter(shape)":0.0636464691903284}},{"arcs":[[30,31,32,33,34]],"type":"Polygon","properties":{"objectid":34742,"statename":"Punjab","statecode":"3","districtname":"Firozpur","districtcode":"43","ulbname":"Zira","ulbcode":"800205","wardname":"Peer Baba Mouzdeen, Sarabha Nagar","wardcode":"15","id":null,"status":"APPROVED","misglobalid":null,"approved_by":null,"createdate":1640583635000,"updateddate":1640583653000,"globalid":null,"gisglobalid":"Q6sRPBP4-ddll-Pals-sPn6-m44oQPd5mBs5","remark":"Approved Kml","st_area(shape)":0.00007195718361721226,"st_perimeter(shape)":0.06355956342537296}},{"arcs":[[35]],"type":"Polygon","properties":{"objectid":33650,"statename":"Punjab","statecode":"3","districtname":"Firozpur","districtcode":"43","ulbname":"Zira","ulbcode":"800205","wardname":"Basti Puran Singh Wali, Kacha Gadri Wala Road","wardcode":"16","id":null,"status":"APPROVED","misglobalid":null,"approved_by":null,"createdate":1640583683000,"updateddate":1640583700000,"globalid":null,"gisglobalid":"sRQBda4B-mRQn-PRlR-s4dQ-aao6Pnnsmoac","remark":"Approved Kml","st_area(shape)":0.00008724493782304174,"st_perimeter(shape)":0.04570633752120044}},{"arcs":[[36,-33,37]],"type":"Polygon","properties":{"objectid":33202,"statename":"Punjab","statecode":"3","districtname":"Firozpur","districtcode":"43","ulbname":"Zira","ulbcode":"800205","wardname":"Johal Nagar,Kalgidhar Nagar,Monga Colony,Adrash Nagar","wardcode":"17","id":null,"status":"APPROVED","misglobalid":null,"approved_by":null,"createdate":1640583718000,"updateddate":1640583747000,"globalid":null,"gisglobalid":"dQcns6Rl-ln5c-PR64-RPo5-mBPmcRanld5R","remark":"Approved Kml","st_area(shape)":0.00015158870148677665,"st_perimeter(shape)":0.06834331140849428}}]}}}