{"type":"Topology","arcs":[[[70816,61455],[204,-539]],[[71020,60916],[-408,-10512]],[[70612,50404],[-4694,1078]],[[65918,51482],[-1429,4313]],[[64489,55795],[2449,2695]],[[66938,58490],[3878,2965]],[[79387,60377],[-4082,19137],[-612,18329],[9184,2156],[612,-19137],[7551,-4313],[2653,-15364],[-15306,-808]],[[67142,78436],[9592,-5930]],[[76734,72506],[-5918,-5391]],[[70816,67115],[0,-1617]],[[70816,65498],[816,-4313]],[[71632,61185],[-612,-269]],[[71020,60916],[-613,2156]],[[70407,63072],[-1020,2156]],[[69387,65228],[-5918,540]],[[63469,65768],[3673,12668]],[[67142,78436],[-2041,-6469]],[[65101,71967],[-4081,-5391]],[[61020,66576],[-4286,1348]],[[56734,67924],[0,1887]],[[56734,69811],[5306,9973]],[[62040,79784],[5102,-1348]],[[56734,69811],[5306,9973]],[[56734,67924],[1021,-270]],[[57755,67654],[-205,-3234],[-612,-4313]],[[56938,60107],[-4285,0]],[[52653,60107],[-3878,3504]],[[48775,63611],[7959,6200]],[[59387,67115],[1633,-539]],[[65101,71967],[-1632,-6199]],[[63469,65768],[5918,-540]],[[70407,63072],[409,-1617]],[[66938,58490],[-5102,539]],[[61836,59029],[-3469,3235],[1020,4851]],[[76734,72506],[2653,-12129]],[[79387,60377],[5510,-10243]],[[84897,50134],[-6939,0]],[[77958,50134],[0,5930]],[[77958,56064],[-1632,6469]],[[76326,62533],[-4694,-1348]],[[70816,65498],[0,1617]],[[71020,60916],[5306,1617]],[[76326,62533],[1632,-6469]],[[77958,50134],[-816,0]],[[77142,50134],[-6530,270]],[[70612,50404],[408,10512]],[[57755,67654],[1632,-539]],[[61836,59029],[-816,-4313]],[[61020,54716],[-4694,1348],[-4490,1078]],[[51836,57142],[817,2965]],[[56938,60107],[817,7547]],[[51836,57142],[-816,-6199]],[[51020,50943],[-2245,12668]],[[51836,57142],[8572,-2156]],[[60408,54986],[-613,-5121]],[[59795,49865],[3266,-6200]],[[63061,43665],[-4082,-2965]],[[58979,40700],[-5102,-1347]],[[53877,39353],[-816,539]],[[53061,39892],[1428,5930]],[[54489,45822],[-4285,1347]],[[50204,47169],[816,3774]],[[61836,59029],[2653,-3234]],[[65918,51482],[4694,-1078]],[[70612,50404],[-817,-4313]],[[69795,46091],[612,-4312]],[[70407,41779],[-4285,808]],[[66122,42587],[-3061,1078]],[[59795,49865],[408,2426],[205,2695]],[[60408,54986],[612,-270]],[[61020,54716],[816,4313]],[[70407,49595],[409,0],[0,-2426],[816,0],[0,2157],[3877,-270],[2041,-539],[0,-7547]],[[77550,40970],[-7143,809]],[[69795,46091],[612,3504]],[[77958,40970],[-408,0]],[[70407,49595],[205,809]],[[70612,50404],[6530,-270]],[[84897,50134],[-6939,-9164]],[[89387,18868],[-816,808]],[[88571,19676],[-1429,2965]],[[87142,22641],[204,10512]],[[87346,33153],[5510,809]],[[92856,33962],[-612,1348]],[[92244,35310],[7755,-9973],[-10612,-6469]],[[92856,33962],[-5510,-809]],[[87142,22641],[1429,-2965]],[[89387,18868],[-7959,-13477]],[[81428,5391],[-8572,24258]],[[72856,29649],[4694,4313]],[[77550,33962],[204,3773]],[[77754,37735],[14490,-2425]],[[77958,40970],[-204,-3235]],[[77754,37735],[-3877,-2156]],[[73877,35579],[-3470,1078]],[[70407,36657],[-204,2426]],[[70203,39083],[-5918,539]],[[64285,39622],[-1837,-4851]],[[62448,34771],[-3877,1347]],[[58571,36118],[408,2426]],[[58979,38544],[0,2156]],[[66122,42587],[4285,-808]],[[70407,41779],[7551,-809]],[[58979,38544],[-408,-2426]],[[58571,36118],[-408,-2426]],[[58163,33692],[-5510,270]],[[52653,33962],[-2449,-8086]],[[50204,25876],[-409,0]],[[49795,25876],[-816,-1887]],[[48979,23989],[-816,-539]],[[48163,23450],[-408,809]],[[47755,24259],[5714,15363]],[[53469,39622],[408,-269]],[[53061,39892],[-6939,-1617]],[[46122,38275],[4082,8894]],[[54489,45822],[-1428,-5930]],[[51020,50943],[-816,-3774]],[[46122,38275],[-2245,-1887]],[[43877,36388],[-1837,2426]],[[42040,38814],[4694,13207],[4286,-1078]],[[27143,30997],[-5511,-11051],[-17346,0],[-4286,7008],[8163,12938],[18980,-8895]],[[43877,36388],[-1633,-2157]],[[42244,34231],[-3265,-5929]],[[38979,28302],[-4898,-11860]],[[34081,16442],[-4694,-2156]],[[29387,14286],[-7550,5660],[5306,11051]],[[27143,30997],[4693,5660],[10204,2157]],[[34081,16442],[3061,809],[1837,-3235]],[[38979,14016],[-3673,-3504]],[[35306,10512],[1020,-10512]],[[36326,0],[-6939,14286]],[[38979,28302],[2449,539]],[[41428,28841],[4694,-4043]],[[46122,24798],[1633,-539]],[[48163,23450],[-6735,-7008]],[[41428,16442],[-2449,-2426]],[[53061,39892],[408,-270]],[[46122,24798],[-4694,4043]],[[38979,28302],[3265,5929]],[[52653,33962],[3061,-270]],[[55714,33692],[-408,-5121]],[[55306,28571],[-409,-2426]],[[54897,26145],[-4285,-7547]],[[50612,18598],[204,7008]],[[50816,25606],[-612,270]],[[49795,25876],[1021,-270]],[[50612,18598],[-1225,-3504]],[[49387,15094],[-5510,-1617]],[[43877,13477],[-2449,2965]],[[41428,16442],[7551,7547]],[[43877,13477],[-1224,-5121]],[[42653,8356],[-6327,-8356]],[[35306,10512],[6122,5930]],[[49387,15094],[6123,-2965]],[[55510,12129],[-3470,-7816],[-9387,4043]],[[54285,25067],[4082,270]],[[58367,25337],[-612,-7817]],[[57755,17520],[2653,-4043]],[[60408,13477],[-4898,-1348]],[[50612,18598],[3673,6469]],[[55714,33692],[2449,0]],[[58163,33692],[408,-808]],[[58571,32884],[0,-3235]],[[58571,29649],[1224,-1617]],[[59795,28032],[613,-14555]],[[60408,13477],[-2653,4043]],[[57755,17520],[612,7817]],[[54285,25067],[612,1078]],[[54897,26145],[409,2426]],[[55306,28571],[408,5121]],[[58571,29649],[0,3235]],[[62448,34771],[3470,-12669]],[[65918,22102],[-5510,-8625]],[[60408,13477],[-613,14555]],[[64285,39622],[5918,-539]],[[70407,36657],[-4489,-14555]],[[73877,35579],[3673,-1617]],[[72856,29649],[-6938,-7547]],[[81428,5391],[-12449,5391],[4081,18059],[8368,-23450]]],"transform":{"scale":[4.900049000489244e-7,3.710037100371061e-7],"translate":[79.0403,12.2118]},"objects":{"wards":{"type":"GeometryCollection","geometries":[{"type":null,"properties":{"objectid":296740,"statename":"Tamil Nadu","statecode":"33","districtname":"Tiruvannamalai","districtcode":"606","ulbname":"Tiruvannamalai","ulbcode":"803422","wardname":"Ward 1","wardcode":"1","id":null,"status":"APPROVED","misglobalid":null,"approved_by":null,"createdate":1670590547000,"updateddate":1670697262000,"globalid":null,"gisglobalid":"5PPPlmP5-llnn-P6KP-ssoR-mPPBKa5RmPnl","remark":"","st_area(shape)":0.000022601784422416605,"st_perimeter(shape)":0.02536899308636858}},{"arcs":[[0,1,2,3,4,5]],"type":"Polygon","properties":{"objectid":297078,"statename":"Tamil Nadu","statecode":"33","districtname":"Tiruvannamalai","districtcode":"606","ulbname":"Tiruvannamalai","ulbcode":"803422","wardname":"Ward 12","wardcode":"2","id":null,"status":"APPROVED","misglobalid":null,"approved_by":null,"createdate":1670688146000,"updateddate":1670697303000,"globalid":null,"gisglobalid":"BndssBP5-d6R5-PnKB-QdKd-6ndoKdKPdPm5","remark":"","st_area(shape)":0.000008886326300120656,"st_perimeter(shape)":0.01383727209544891}},{"arcs":[[6]],"type":"Polygon","properties":{"objectid":297551,"statename":"Tamil Nadu","statecode":"33","districtname":"Tiruvannamalai","districtcode":"606","ulbname":"Tiruvannamalai","ulbcode":"803422","wardname":"Ward 3","wardcode":"3","id":null,"status":"APPROVED","misglobalid":null,"approved_by":null,"createdate":1670681739000,"updateddate":1670697324000,"globalid":null,"gisglobalid":"4md55PKs-PQQB-Plsl-QRsB-sl6om6KdPsl4","remark":"","st_area(shape)":0.00009773598059306156,"st_perimeter(shape)":0.04970871804057801}},{"arcs":[[7,8,9,10,11,12,13,14,15]],"type":"Polygon","properties":{"objectid":296748,"statename":"Tamil Nadu","statecode":"33","districtname":"Tiruvannamalai","districtcode":"606","ulbname":"Tiruvannamalai","ulbcode":"803422","wardname":"Ward 4","wardcode":"4","id":null,"status":"APPROVED","misglobalid":null,"approved_by":null,"createdate":1670597082000,"updateddate":1670697349000,"globalid":null,"gisglobalid":"R6anKRod-laRo-Poam-R5QB-PKs6Rsooll6c","remark":"","st_area(shape)":0.000022713467893814504,"st_perimeter(shape)":0.02378619490031615}},{"arcs":[[16,17,18,19,20,21]],"type":"Polygon","properties":{"objectid":296749,"statename":"Tamil Nadu","statecode":"33","districtname":"Tiruvannamalai","districtcode":"606","ulbname":"Tiruvannamalai","ulbcode":"803422","wardname":"Ward 5","wardcode":"5","id":null,"status":"APPROVED","misglobalid":null,"approved_by":null,"createdate":1670597152000,"updateddate":1670697368000,"globalid":null,"gisglobalid":"ncaloslm-56Qc-Plos-QBPR-a4sRsd65mRsQ","remark":"","st_area(shape)":0.00001623977477126857,"st_perimeter(shape)":0.017858652278491077}},{"arcs":[[-21,22]],"type":"Polygon","properties":{"objectid":297553,"statename":"Tamil Nadu","statecode":"33","districtname":"Tiruvannamalai","districtcode":"606","ulbname":"Tiruvannamalai","ulbcode":"803422","wardname":"Ward 6","wardcode":"6","id":null,"status":"APPROVED","misglobalid":null,"approved_by":null,"createdate":1670685660000,"updateddate":1670697113000,"globalid":null,"gisglobalid":"4adsQPa5-5dod-P654-RRK4-65l5BlcPoB6c","remark":"","st_area(shape)":0.000011574569212727911,"st_perimeter(shape)":0.023486045630764802}},{"arcs":[[-20,23,24,25,26,27]],"type":"Polygon","properties":{"objectid":297554,"statename":"Tamil Nadu","statecode":"33","districtname":"Tiruvannamalai","districtcode":"606","ulbname":"Tiruvannamalai","ulbcode":"803422","wardname":"Ward 7","wardcode":"7","id":null,"status":"APPROVED","misglobalid":null,"approved_by":null,"createdate":1670686985000,"updateddate":1670697409000,"globalid":null,"gisglobalid":"a4dsPKaa-l6s4-PQ4l-R6co-lmdPRnB55QRc","remark":"","st_area(shape)":0.000010224446983240106,"st_perimeter(shape)":0.014041111691218555}},{"arcs":[[28,-18,29,30,-14,31,-6,32,33]],"type":"Polygon","properties":{"objectid":296750,"statename":"Tamil Nadu","statecode":"33","districtname":"Tiruvannamalai","districtcode":"606","ulbname":"Tiruvannamalai","ulbcode":"803422","wardname":"Ward 8","wardcode":"8","id":null,"status":"APPROVED","misglobalid":null,"approved_by":null,"createdate":1670597402000,"updateddate":1670697449000,"globalid":null,"gisglobalid":"n4sP4o4P-5Kcd-PoB6-saBs-QQQnlmPoB4Pa","remark":"","st_area(shape)":0.000014459919699782877,"st_perimeter(shape)":0.021487234220648903}},{"arcs":[[34,35,36,37,38,39,-11,40,-9]],"type":"Polygon","properties":{"objectid":296751,"statename":"Tamil Nadu","statecode":"33","districtname":"Tiruvannamalai","districtcode":"606","ulbname":"Tiruvannamalai","ulbcode":"803422","wardname":"Ward 9","wardcode":"9","id":null,"status":"APPROVED","misglobalid":null,"approved_by":null,"createdate":1670597521000,"updateddate":1670697465000,"globalid":null,"gisglobalid":"4scBPRac-lBBB-PQaB-aaKc-B5P6ocn6B5ml","remark":"","st_area(shape)":0.0000190955099999227,"st_perimeter(shape)":0.026990391457334832}},{"arcs":[[41,42,-38,43,44,45]],"type":"Polygon","properties":{"objectid":296765,"statename":"Tamil Nadu","statecode":"33","districtname":"Tiruvannamalai","districtcode":"606","ulbname":"Tiruvannamalai","ulbcode":"803422","wardname":"Ward 11","wardcode":"11","id":null,"status":"APPROVED","misglobalid":null,"approved_by":null,"createdate":1670601380000,"updateddate":1670697479000,"globalid":null,"gisglobalid":"BBaaKsB5-aRlK-PnRR-Q6Kn-dQc55na5aPnQ","remark":"","st_area(shape)":0.000014451527635179586,"st_perimeter(shape)":0.014983339727647307}},{"arcs":[[46,-34,47,48,49,-26,50]],"type":"Polygon","properties":{"objectid":296764,"statename":"Tamil Nadu","statecode":"33","districtname":"Tiruvannamalai","districtcode":"606","ulbname":"Tiruvannamalai","ulbcode":"803422","wardname":"Ward 13","wardcode":"13","id":null,"status":"APPROVED","misglobalid":null,"approved_by":null,"createdate":1670601050000,"updateddate":1670697494000,"globalid":null,"gisglobalid":"B6an5Rns-s6mB-PlQd-alc6-6R46mnQB65ao","remark":"","st_area(shape)":0.000010159594529394605,"st_perimeter(shape)":0.01807688915856938}},{"arcs":[[-27,-50,51,52]],"type":"Polygon","properties":{"objectid":297555,"statename":"Tamil Nadu","statecode":"33","districtname":"Tiruvannamalai","districtcode":"606","ulbname":"Tiruvannamalai","ulbcode":"803422","wardname":"Ward 14","wardcode":"14","id":null,"status":"APPROVED","misglobalid":null,"approved_by":null,"createdate":1670688599000,"updateddate":1670697507000,"globalid":null,"gisglobalid":"maosodRa-cnB6-PBoB-Q6dd-RoQssR64RRnB","remark":"","st_area(shape)":0.000009208908061065822,"st_perimeter(shape)":0.012641316117860117}},{"arcs":[[53,54,55,56,57,58,59,60,61,-52]],"type":"Polygon","properties":{"objectid":296763,"statename":"Tamil Nadu","statecode":"33","districtname":"Tiruvannamalai","districtcode":"606","ulbname":"Tiruvannamalai","ulbcode":"803422","wardname":"Ward 15","wardcode":"15","id":null,"status":"APPROVED","misglobalid":null,"approved_by":null,"createdate":1670600099000,"updateddate":1670697517000,"globalid":null,"gisglobalid":"l4noRQ44-scoc-PQPQ-Rsld-R644PKK4snRR","remark":"","st_area(shape)":0.000023595948950707923,"st_perimeter(shape)":0.02592864489563138}},{"arcs":[[62,-4,63,64,65,66,67,-56,68,69,70]],"type":"Polygon","properties":{"objectid":296762,"statename":"Tamil Nadu","statecode":"33","districtname":"Tiruvannamalai","districtcode":"606","ulbname":"Tiruvannamalai","ulbcode":"803422","wardname":"Ward 15","wardcode":"16","id":null,"status":"APPROVED","misglobalid":null,"approved_by":null,"createdate":1670599909000,"updateddate":1670697529000,"globalid":null,"gisglobalid":"casm55Pm-c6sn-PmQd-RdnQ-6an4cBnnnsQo","remark":"","st_area(shape)":0.000021598646984112253,"st_perimeter(shape)":0.022363867851597927}},{"arcs":[[71,72,-66,73]],"type":"Polygon","properties":{"objectid":296759,"statename":"Tamil Nadu","statecode":"33","districtname":"Tiruvannamalai","districtcode":"606","ulbname":"Tiruvannamalai","ulbcode":"803422","wardname":"Ward 17","wardcode":"17","id":null,"status":"APPROVED","misglobalid":null,"approved_by":null,"createdate":1670598885000,"updateddate":1670697541000,"globalid":null,"gisglobalid":"cdllnQn6-B444-Po5o-Ql5c-B555KK5ls6cc","remark":"","st_area(shape)":0.000010111229379003627,"st_perimeter(shape)":0.014494292772151612}},{"arcs":[[74,-72,75,76,-44,-37,77]],"type":"Polygon","properties":{"objectid":296760,"statename":"Tamil Nadu","statecode":"33","districtname":"Tiruvannamalai","districtcode":"606","ulbname":"Tiruvannamalai","ulbcode":"803422","wardname":"Ward 18","wardcode":"18","id":null,"status":"APPROVED","misglobalid":null,"approved_by":null,"createdate":1670599070000,"updateddate":1670697556000,"globalid":null,"gisglobalid":"lc6lmPPa-lnRs-PnP6-sKPd-R45Q4d65dRKm","remark":"","st_area(shape)":0.000015638886341384936,"st_perimeter(shape)":0.030557798842458746}},{"arcs":[[78,79,80,81,82,83]],"type":"Polygon","properties":{"objectid":297556,"statename":"Tamil Nadu","statecode":"33","districtname":"Tiruvannamalai","districtcode":"606","ulbname":"Tiruvannamalai","ulbcode":"803422","wardname":"Ward 19","wardcode":"19","id":null,"status":"APPROVED","misglobalid":null,"approved_by":null,"createdate":1670689148000,"updateddate":1670697570000,"globalid":null,"gisglobalid":"BsdsPB5B-6dRP-PooP-Q5dm-4alRQKoBQmmo","remark":"","st_area(shape)":0.0000368926298175236,"st_perimeter(shape)":0.03526633054236902}},{"arcs":[[-83,84,-81,85,-79,86,87,88,89,90]],"type":"Polygon","properties":{"objectid":297557,"statename":"Tamil Nadu","statecode":"33","districtname":"Tiruvannamalai","districtcode":"606","ulbname":"Tiruvannamalai","ulbcode":"803422","wardname":"Ward 20","wardcode":"20","id":null,"status":"APPROVED","misglobalid":null,"approved_by":null,"createdate":1670689868000,"updateddate":1670697587000,"globalid":null,"gisglobalid":"BPmRPnnQ-QPBB-PccR-scoP-PsdaQKdB5ccm","remark":"","st_area(shape)":0.00006232725157186902,"st_perimeter(shape)":0.04719603379378688}},{"arcs":[[91,92,93,94,95,96,97,98,99,-57,-68,100,101]],"type":"Polygon","properties":{"objectid":297086,"statename":"Tamil Nadu","statecode":"33","districtname":"Tiruvannamalai","districtcode":"606","ulbname":"Tiruvannamalai","ulbcode":"803422","wardname":"Ward 21","wardcode":"21","id":null,"status":"APPROVED","misglobalid":null,"approved_by":null,"createdate":1670600527000,"updateddate":1670697601000,"globalid":null,"gisglobalid":"loBRPooP-dBcs-PoQR-saoc-Rcos5464od6m","remark":"","st_area(shape)":0.000016324739650606633,"st_perimeter(shape)":0.02644139629593151}},{"arcs":[[-100,102,103,104,105,106,107,108,109,110,111,-58]],"type":"Polygon","properties":{"objectid":296758,"statename":"Tamil Nadu","statecode":"33","districtname":"Tiruvannamalai","districtcode":"606","ulbname":"Tiruvannamalai","ulbcode":"803422","wardname":"Ward 22","wardcode":"22","id":null,"status":"APPROVED","misglobalid":null,"approved_by":null,"createdate":1670598763000,"updateddate":1670697618000,"globalid":null,"gisglobalid":"dKcPdn5P-4com-Pcmn-Rncs-cnPsQoP6a6ln","remark":"","st_area(shape)":0.000010173909603545351,"st_perimeter(shape)":0.020581587081610057}},{"arcs":[[112,113,-61,114]],"type":"Polygon","properties":{"objectid":296761,"statename":"Tamil Nadu","statecode":"33","districtname":"Tiruvannamalai","districtcode":"606","ulbname":"Tiruvannamalai","ulbcode":"803422","wardname":"Ward 23","wardcode":"23","id":null,"status":"APPROVED","misglobalid":null,"approved_by":null,"createdate":1670599157000,"updateddate":1670697630000,"globalid":null,"gisglobalid":"Ba4ld54K-cBlm-Pno5-RooR-dQlaom5KP6Qc","remark":"","st_area(shape)":0.000008904752796251864,"st_perimeter(shape)":0.01222167574310412}},{"arcs":[[115,-114,116,117,118]],"type":"Polygon","properties":{"objectid":297562,"statename":"Tamil Nadu","statecode":"33","districtname":"Tiruvannamalai","districtcode":"606","ulbname":"Tiruvannamalai","ulbcode":"803422","wardname":"Ward 24","wardcode":"24","id":null,"status":"APPROVED","misglobalid":null,"approved_by":null,"createdate":1670690544000,"updateddate":1670697644000,"globalid":null,"gisglobalid":"6RBoQl6R-sPoB-P5P4-RKsn-sRs4Rnnddodd","remark":"","st_area(shape)":0.000012522842628673764,"st_perimeter(shape)":0.016623233307225444}},{"arcs":[[119]],"type":"Polygon","properties":{"objectid":297564,"statename":"Tamil Nadu","statecode":"33","districtname":"Tiruvannamalai","districtcode":"606","ulbname":"Tiruvannamalai","ulbcode":"803422","wardname":"Ward 25","wardcode":"25","id":null,"status":"APPROVED","misglobalid":null,"approved_by":null,"createdate":1670691715000,"updateddate":1670697663000,"globalid":null,"gisglobalid":"5ndPQKsB-locP-PdKa-acmd-Qa6l6nnlKalc","remark":"","st_area(shape)":0.00007784112808509108,"st_perimeter(shape)":0.03905205830738368}},{"arcs":[[120,121,122,123,124,125,-118]],"type":"Polygon","properties":{"objectid":297563,"statename":"Tamil Nadu","statecode":"33","districtname":"Tiruvannamalai","districtcode":"606","ulbname":"Tiruvannamalai","ulbcode":"803422","wardname":"Ward 26","wardcode":"26","id":null,"status":"APPROVED","misglobalid":null,"approved_by":null,"createdate":1670691033000,"updateddate":1670697723000,"globalid":null,"gisglobalid":"dRQKdRlK-Qcoa-PRco-RBRn-sn44RR5KadBs","remark":"","st_area(shape)":0.00005057604309733841,"st_perimeter(shape)":0.030685536360860726}},{"arcs":[[-124,126,127,128,129]],"type":"Polygon","properties":{"objectid":297903,"statename":"Tamil Nadu","statecode":"33","districtname":"Tiruvannamalai","districtcode":"606","ulbname":"Tiruvannamalai","ulbcode":"803422","wardname":"Ward 27","wardcode":"27","id":null,"status":"APPROVED","misglobalid":null,"approved_by":null,"createdate":1670692134000,"updateddate":1670697740000,"globalid":null,"gisglobalid":"onmsnK5a-ddoP-PddQ-Raco-d5n4dm4Qo46m","remark":"","st_area(shape)":0.0000206784516196279,"st_perimeter(shape)":0.025813831596562115}},{"arcs":[[130,131,132,-110,133,134,-127,-123]],"type":"Polygon","properties":{"objectid":296756,"statename":"Tamil Nadu","statecode":"33","districtname":"Tiruvannamalai","districtcode":"606","ulbname":"Tiruvannamalai","ulbcode":"803422","wardname":"Ward 28","wardcode":"28","id":null,"status":"APPROVED","misglobalid":null,"approved_by":null,"createdate":1670598536000,"updateddate":1670697768000,"globalid":null,"gisglobalid":"cmclQ5oa-Rc4o-Pldn-RB4s-Bd5dmacaBsBQ","remark":"","st_area(shape)":0.000019138166528953857,"st_perimeter(shape)":0.019503991264039768}},{"arcs":[[135,-111,-133,136,-131,137,-121,-117,-113]],"type":"Polygon","properties":{"objectid":296757,"statename":"Tamil Nadu","statecode":"33","districtname":"Tiruvannamalai","districtcode":"606","ulbname":"Tiruvannamalai","ulbcode":"803422","wardname":"Ward 29","wardcode":"29","id":null,"status":"APPROVED","misglobalid":null,"approved_by":null,"createdate":1670598588000,"updateddate":1670697786000,"globalid":null,"gisglobalid":"Qmls4sPd-5dQ6-Pacn-QKd5-65c5a6Kn6nBK","remark":"","st_area(shape)":0.000020446616419140914,"st_perimeter(shape)":0.02103266902594846}},{"arcs":[[138,139,140,141,142,143,-106]],"type":"Polygon","properties":{"objectid":296755,"statename":"Tamil Nadu","statecode":"33","districtname":"Tiruvannamalai","districtcode":"606","ulbname":"Tiruvannamalai","ulbcode":"803422","wardname":"Ward 30","wardcode":"30","id":null,"status":"APPROVED","misglobalid":null,"approved_by":null,"createdate":1670598410000,"updateddate":1670697805000,"globalid":null,"gisglobalid":"P5lnRnc4-6K4m-PPRc-alBl-lcllRld4Bcod","remark":"","st_area(shape)":0.000010448629948774152,"st_perimeter(shape)":0.01584460515068406}},{"arcs":[[144,-143,145,146,147,148,-108]],"type":"Polygon","properties":{"objectid":296754,"statename":"Tamil Nadu","statecode":"33","districtname":"Tiruvannamalai","districtcode":"606","ulbname":"Tiruvannamalai","ulbcode":"803422","wardname":"Ward 31","wardcode":"31","id":null,"status":"APPROVED","misglobalid":null,"approved_by":null,"createdate":1670598282000,"updateddate":1670697815000,"globalid":null,"gisglobalid":"slmcc5ld-Pn6n-PlB6-RBol-PQKPs5QRsnad","remark":"","st_area(shape)":0.000008006987047673343,"st_perimeter(shape)":0.0164560392536261}},{"arcs":[[-148,149,150,-129,151]],"type":"Polygon","properties":{"objectid":297565,"statename":"Tamil Nadu","statecode":"33","districtname":"Tiruvannamalai","districtcode":"606","ulbname":"Tiruvannamalai","ulbcode":"803422","wardname":"Ward 32","wardcode":"32","id":null,"status":"APPROVED","misglobalid":null,"approved_by":null,"createdate":1670692404000,"updateddate":1670697833000,"globalid":null,"gisglobalid":"BllBddcR-KRKn-PaPl-ssam-lPaa54nnBdQm","remark":"","st_area(shape)":0.000013157474553170705,"st_perimeter(shape)":0.01892780650325885}},{"arcs":[[-150,-147,152,153]],"type":"Polygon","properties":{"objectid":296781,"statename":"Tamil Nadu","statecode":"33","districtname":"Tiruvannamalai","districtcode":"606","ulbname":"Tiruvannamalai","ulbcode":"803422","wardname":"Ward 33","wardcode":"33","id":null,"status":"APPROVED","misglobalid":null,"approved_by":null,"createdate":1670693730000,"updateddate":1670697858000,"globalid":null,"gisglobalid":"c4nB6oRQ-KK6a-PoaB-acPo-nnlQmP66o5ad","remark":"","st_area(shape)":0.00003687956272005163,"st_perimeter(shape)":0.02893414891346383}},{"arcs":[[154,155,156,157,-153,-146,158]],"type":"Polygon","properties":{"objectid":297566,"statename":"Tamil Nadu","statecode":"33","districtname":"Tiruvannamalai","districtcode":"606","ulbname":"Tiruvannamalai","ulbcode":"803422","wardname":"Ward 34","wardcode":"34","id":null,"status":"APPROVED","misglobalid":null,"approved_by":null,"createdate":1670694106000,"updateddate":1670697875000,"globalid":null,"gisglobalid":"RQPQBPsl-dm6d-PoK6-s6KQ-saaRaRQPa45c","remark":"","st_area(shape)":0.000025340917069067222,"st_perimeter(shape)":0.029035915759881244}},{"arcs":[[159,160,161,162,163,164,165,-155,166,167,168]],"type":"Polygon","properties":{"objectid":297085,"statename":"Tamil Nadu","statecode":"33","districtname":"Tiruvannamalai","districtcode":"606","ulbname":"Tiruvannamalai","ulbcode":"803422","wardname":"Ward 35","wardcode":"35","id":null,"status":"APPROVED","misglobalid":null,"approved_by":null,"createdate":1670598105000,"updateddate":1670697897000,"globalid":null,"gisglobalid":"lamRKPKa-dRns-PBKm-RoPs-5n6la4csmQRm","remark":"","st_area(shape)":0.000010579737251504502,"st_perimeter(shape)":0.021615992130379954}},{"arcs":[[-163,169,-161,-104,-98,170,171,172]],"type":"Polygon","properties":{"objectid":297561,"statename":"Tamil Nadu","statecode":"33","districtname":"Tiruvannamalai","districtcode":"606","ulbname":"Tiruvannamalai","ulbcode":"803422","wardname":"Ward 36","wardcode":"36","id":null,"status":"APPROVED","misglobalid":null,"approved_by":null,"createdate":1670690294000,"updateddate":1670697919000,"globalid":null,"gisglobalid":"noos44dQ-4K5c-PPnK-R5da-PomQPdnomdoR","remark":"","st_area(shape)":0.000017032638285242954,"st_perimeter(shape)":0.020987693147734812}},{"arcs":[[-97,173,-95,174,-171]],"type":"Polygon","properties":{"objectid":296753,"statename":"Tamil Nadu","statecode":"33","districtname":"Tiruvannamalai","districtcode":"606","ulbname":"Tiruvannamalai","ulbcode":"803422","wardname":"Ward 37","wardcode":"37","id":null,"status":"APPROVED","misglobalid":null,"approved_by":null,"createdate":1670597750000,"updateddate":1670697938000,"globalid":null,"gisglobalid":"lRBo4aRK-RPas-Pc6o-sd5a-osmKasao5QsK","remark":"","st_area(shape)":0.000014228714060686494,"st_perimeter(shape)":0.017728030594621705}},{"arcs":[[-94,175,-89,176,-175]],"type":"Polygon","properties":{"objectid":296752,"statename":"Tamil Nadu","statecode":"33","districtname":"Tiruvannamalai","districtcode":"606","ulbname":"Tiruvannamalai","ulbcode":"803422","wardname":"Ward 38","wardcode":"38","id":null,"status":"APPROVED","misglobalid":null,"approved_by":null,"createdate":1670597630000,"updateddate":1670697951000,"globalid":null,"gisglobalid":"mPa5c5Rs-PRQn-Pnn6-aQaR-QQQBc5dldcsa","remark":"","st_area(shape)":0.00001213460526514466,"st_perimeter(shape)":0.021081128317430715}},{"arcs":[[177]],"type":"Polygon","properties":{"objectid":296766,"statename":"Tamil Nadu","statecode":"33","districtname":"Tiruvannamalai","districtcode":"606","ulbname":"Tiruvannamalai","ulbcode":"803422","wardname":"Ward 39","wardcode":"39","id":null,"status":"APPROVED","misglobalid":null,"approved_by":null,"createdate":1670604070000,"updateddate":1670697962000,"globalid":null,"gisglobalid":"aPdRnKsl-K5BQ-PQPB-s4QK-R5andmKom4sB","remark":"","st_area(shape)":0.00003687567656893018,"st_perimeter(shape)":0.029517619278560864}}]}}}