{"type":"Topology","arcs":[[[44337,70030],[-1205,611]],[[43132,70641],[-482,-5198]],[[42650,65443],[-723,-306]],[[41927,65137],[-723,-1223]],[[41204,63914],[-722,-1529]],[[40482,62385],[-241,-1835]],[[40241,60550],[-964,-2141]],[[39277,58409],[-1446,-306]],[[37831,58103],[-2892,1224]],[[34939,59327],[-963,305]],[[33976,59632],[-1446,5199]],[[32530,64831],[-2651,-306]],[[29879,64525],[-241,0]],[[29638,64525],[-1927,-305]],[[27711,64220],[-2651,305]],[[25060,64525],[1687,14679],[-3133,13761],[1687,3670],[6506,-4281],[2169,-6116],[6746,-3670],[5061,9786],[1686,5810],[3615,1835]],[[51084,99999],[-964,-8563]],[[50120,91436],[-241,-3363]],[[49879,88073],[-482,-1835]],[[49397,86238],[-482,-2141]],[[48915,84097],[-723,-1223]],[[48192,82874],[-241,-918]],[[47951,81956],[-1927,-3058]],[[46024,78898],[-482,-1529]],[[45542,77369],[-723,-3364]],[[44819,74005],[-241,-2446]],[[44578,71559],[-241,-1529]],[[45783,47706],[-3615,-612]],[[42168,47094],[-964,-305]],[[41204,46789],[-1445,-1530]],[[39759,45259],[-1446,0]],[[38313,45259],[-241,10398]],[[38072,55657],[-1928,2446]],[[36144,58103],[1687,0]],[[37831,58103],[1446,306]],[[40241,60550],[241,1835]],[[40482,62385],[722,1529]],[[41204,63914],[723,1223]],[[41927,65137],[723,306]],[[43132,70641],[1205,-611]],[[44337,70030],[-241,-5810]],[[44096,64220],[0,-1835]],[[44096,62385],[0,-1835]],[[44096,60550],[0,-1223]],[[44096,59327],[0,-1224]],[[44096,58103],[241,-1529]],[[44337,56574],[0,-1223]],[[44337,55351],[482,-1223]],[[44819,54128],[241,-1529]],[[45060,52599],[241,-1529]],[[45301,51070],[482,-1835]],[[45783,49235],[0,-1529]],[[38313,45259],[-964,-305]],[[37349,44954],[-482,305]],[[36867,45259],[-241,0]],[[36626,45259],[-723,306]],[[35903,45565],[-241,306]],[[35662,45871],[-723,0]],[[34939,45871],[-482,0]],[[34457,45871],[-2650,-612]],[[31807,45259],[-482,0]],[[31325,45259],[-241,-305]],[[31084,44954],[-723,305]],[[30361,45259],[0,306]],[[30361,45565],[-241,306]],[[30120,45871],[-241,306]],[[29879,46177],[-482,306]],[[29397,46483],[-2168,917]],[[27229,47400],[-482,0]],[[26747,47400],[-723,0]],[[26024,47400],[0,-611]],[[26024,46789],[0,-306]],[[26024,46483],[-482,-306]],[[25542,46177],[-723,-612]],[[24819,45565],[-241,-611]],[[24578,44954],[-241,-306]],[[24337,44648],[0,-612]],[[24337,44036],[0,-611]],[[24337,43425],[0,-612]],[[24337,42813],[-241,-917]],[[24096,41896],[-4578,611]],[[19518,42507],[-2892,612]],[[16626,43119],[-964,306]],[[15662,43425],[-481,611]],[[15181,44036],[-1205,1223]],[[13976,45259],[-3133,5505]],[[10843,50764],[-964,1529]],[[9879,52293],[-2409,3976]],[[7470,56269],[3132,3058],[8193,611],[5060,-2752],[1205,7339]],[[25060,64525],[2651,-305]],[[27711,64220],[1927,305]],[[29879,64525],[2651,306]],[[32530,64831],[1446,-5199]],[[33976,59632],[963,-305]],[[34939,59327],[1205,-1224]],[[36144,58103],[1928,-2446]],[[38313,45259],[-241,-1223]],[[38072,44036],[-964,-3364]],[[37108,40672],[-964,-3058]],[[36144,37614],[-3855,-7951]],[[32289,29663],[-2651,-5198]],[[29638,24465],[-11807,10091],[-4337,-2446],[-3374,1223],[-1927,4893],[-6506,5199],[-1687,8562],[7470,4282]],[[7470,56269],[2409,-3976]],[[9879,52293],[964,-1529]],[[10843,50764],[3133,-5505]],[[13976,45259],[1205,-1223]],[[15181,44036],[481,-611]],[[15662,43425],[964,-306]],[[16626,43119],[2892,-612]],[[19518,42507],[4578,-611]],[[24337,42813],[0,612]],[[24337,44036],[0,612]],[[24578,44954],[241,611]],[[25542,46177],[482,306]],[[26024,46789],[0,611]],[[26747,47400],[482,0]],[[29397,46483],[482,-306]],[[29879,46177],[241,-306]],[[30120,45871],[241,-306]],[[30361,45259],[723,-305]],[[31325,45259],[482,0]],[[34457,45871],[482,0]],[[34939,45871],[723,0]],[[35903,45565],[723,-306]],[[36867,45259],[482,-305]],[[36144,37614],[964,3058]],[[37108,40672],[964,3364]],[[39759,45259],[1445,1530]],[[42168,47094],[3615,612]],[[45783,47706],[241,-612]],[[46024,47094],[241,-1529]],[[46265,45565],[241,-2140]],[[46506,43425],[241,-1529]],[[46747,41896],[240,-1224]],[[46987,40672],[964,-4587]],[[47951,36085],[0,-611]],[[47951,35474],[-1927,-306]],[[46024,35168],[-723,-306]],[[45301,34862],[-1205,0]],[[44096,34862],[-723,-306]],[[43373,34556],[0,-1529]],[[43373,33027],[0,-1835]],[[43373,31192],[-964,-3058]],[[42409,28134],[-1205,-6727]],[[41204,21407],[-1204,-3364]],[[40000,18043],[963,-2447]],[[40963,15596],[-4578,0],[-6747,8869]],[[29638,24465],[2651,5198]],[[32289,29663],[3855,7951]],[[47228,24770],[241,-2752]],[[47469,22018],[-241,-917]],[[47228,21101],[-963,-2141]],[[46265,18960],[-964,-2446]],[[45301,16514],[-1205,-3058]],[[44096,13456],[241,611]],[[44337,14067],[-3374,1529]],[[40963,15596],[-963,2447]],[[40000,18043],[1204,3364]],[[41204,21407],[1205,6727]],[[43373,31192],[0,1835]],[[43373,33027],[0,1529]],[[44096,34862],[1205,0]],[[46024,35168],[1927,306]],[[47951,35474],[482,-918]],[[48433,34556],[241,-1529]],[[48674,33027],[482,-1223]],[[49156,31804],[241,-917]],[[49397,30887],[482,-1224]],[[49879,29663],[482,-917]],[[50361,28746],[723,-1223]],[[51084,27523],[482,-612]],[[51566,26911],[241,-612]],[[51807,26299],[-241,0]],[[51566,26299],[-482,0]],[[51084,26299],[-723,-305]],[[50361,25994],[-482,-306]],[[49879,25688],[-241,0]],[[49638,25688],[-723,-306]],[[48915,25382],[-482,0]],[[48433,25382],[-723,-306]],[[47710,25076],[-482,-306]],[[47228,24770],[482,306]],[[47710,25076],[723,306]],[[48433,25382],[482,0]],[[48915,25382],[723,306]],[[49879,25688],[482,306]],[[50361,25994],[723,305]],[[51084,26299],[482,0]],[[51807,26299],[482,-917]],[[52289,25382],[1204,-2141]],[[53493,23241],[482,-611]],[[53975,22630],[241,-306]],[[54216,22324],[2410,-4893]],[[56626,17431],[0,-612]],[[56626,16819],[723,-3363]],[[57349,13456],[-2651,-2753]],[[54698,10703],[-8433,-1529],[-2169,4282]],[[44337,14067],[964,2447]],[[45301,16514],[964,2446]],[[46265,18960],[963,2141]],[[47228,21101],[241,917]],[[47469,22018],[-241,2752]],[[48674,33027],[241,0]],[[48915,33027],[1446,612]],[[50361,33639],[964,-918]],[[51325,32721],[241,-305]],[[51566,32416],[241,305]],[[51807,32721],[482,0]],[[52289,32721],[482,306]],[[52771,33027],[481,306]],[[53252,33333],[241,0]],[[53493,33333],[1205,0]],[[54698,33333],[1687,-4893]],[[56385,28440],[1687,-4587]],[[58072,23853],[241,-612]],[[58313,23241],[-723,0]],[[57590,23241],[-3374,-917]],[[53975,22630],[-482,611]],[[53493,23241],[-1204,2141]],[[51566,26911],[-482,612]],[[51084,27523],[-723,1223]],[[50361,28746],[-482,917]],[[49879,29663],[-482,1224]],[[49397,30887],[-241,917]],[[49156,31804],[-482,1223]],[[45783,47706],[241,306]],[[46024,48012],[1204,306]],[[47228,48318],[1205,305]],[[48433,48623],[1446,306]],[[49879,48929],[241,-917]],[[50120,48012],[241,-2447]],[[50361,45565],[482,-2752]],[[50843,42813],[241,-917]],[[51084,41896],[241,-1835]],[[51325,40061],[241,-612]],[[51566,39449],[0,-917]],[[51566,38532],[0,-612]],[[51566,37920],[723,-2141]],[[52289,35779],[241,-611]],[[52530,35168],[722,-1529]],[[53252,33639],[241,-306]],[[53252,33333],[-481,-306]],[[52289,32721],[-482,0]],[[51566,32416],[-241,305]],[[50361,33639],[-1446,-612]],[[48674,33027],[-241,1529]],[[47951,35474],[0,611]],[[47951,36085],[-964,4587]],[[46987,40672],[-240,1224]],[[46747,41896],[-241,1529]],[[46506,43425],[-241,2140]],[[46265,45565],[-241,1529]],[[54457,55351],[0,-611]],[[54457,54740],[241,-918]],[[54698,53822],[-1686,-3364]],[[53012,50458],[-482,-917]],[[52530,49541],[-2651,-612]],[[49879,48929],[-1446,-306]],[[48433,48623],[-1205,-305]],[[47228,48318],[-1204,-306]],[[45783,47706],[0,1529]],[[45783,49235],[-482,1835]],[[45301,51070],[-241,1529]],[[45060,52599],[-241,1529]],[[44819,54128],[-482,1223]],[[44337,55351],[0,1223]],[[44337,56574],[-241,1529]],[[44096,58103],[0,1224]],[[44096,60550],[0,1835]],[[44096,62385],[0,1529]],[[44096,63914],[723,-306]],[[44819,63608],[2168,0]],[[46987,63608],[1205,0]],[[48192,63608],[2169,-306]],[[50361,63302],[723,306]],[[51084,63608],[3855,-917]],[[54939,62691],[-241,-3670]],[[54698,59021],[-241,-918]],[[54457,58103],[0,-2752]],[[67951,87767],[-482,-612]],[[67469,87155],[-1446,612]],[[66023,87767],[-963,2140]],[[65060,89907],[-5061,1835]],[[59999,91742],[-2891,-4893]],[[57108,86849],[-1205,-4587]],[[55903,82262],[241,-5810],[3855,-2447]],[[59999,74005],[3374,-4893]],[[63373,69112],[1446,-4892]],[[64819,64220],[-3133,-5811]],[[61686,58409],[-723,-611]],[[60963,57798],[-1927,-1529]],[[59036,56269],[-1446,-1224]],[[57590,55045],[-1687,306]],[[55903,55351],[-1446,0]],[[54457,55351],[0,2752]],[[54698,59021],[241,3670]],[[51084,63608],[-723,-306]],[[50361,63302],[-2169,306]],[[48192,63608],[-1205,0]],[[44819,63608],[-723,306]],[[44096,63914],[0,306]],[[44578,71559],[241,2446]],[[45542,77369],[482,1529]],[[47951,81956],[241,918]],[[48192,82874],[723,1223]],[[48915,84097],[482,2141]],[[49879,88073],[241,3363]],[[51084,99999],[2650,-3975],[10603,-3364],[3614,-4893]],[[82168,36085],[-964,2141]],[[81204,38226],[-1687,2752]],[[79517,40978],[-1686,1529]],[[77831,42507],[-6265,-917]],[[71566,41590],[-1928,2752]],[[69638,44342],[-10602,11927]],[[59036,56269],[1927,1529]],[[60963,57798],[723,611]],[[64819,64220],[-1446,4892]],[[63373,69112],[-3374,4893]],[[55903,82262],[1205,4587]],[[59999,91742],[5061,-1835]],[[66023,87767],[1446,-612]],[[67951,87767],[6747,-1835],[5301,-7340],[6747,-6421],[11325,0],[1928,-3976],[-7229,-7645],[-4096,-18349],[-6506,-6116]],[[53252,33333],[0,306]],[[52530,35168],[-241,611]],[[52289,35779],[-723,2141]],[[51566,38532],[0,917]],[[51325,40061],[-241,1835]],[[51084,41896],[-241,917]],[[50361,45565],[-241,2447]],[[52530,49541],[482,917]],[[54698,53822],[-241,918]],[[54457,55351],[1446,0]],[[55903,55351],[1687,-306]],[[69638,44342],[1928,-2752]],[[77831,42507],[1686,-1529]],[[79517,40978],[1687,-2752]],[[82168,36085],[-2651,-3669],[-6265,917]],[[73252,33333],[-1205,917]],[[72047,34250],[-6024,0]],[[66023,34250],[-963,612]],[[65060,34862],[-4579,-1835]],[[60481,33027],[-1204,-917]],[[59277,32110],[240,-612]],[[59517,31498],[-240,-611]],[[59277,30887],[-241,-612]],[[59036,30275],[-964,0]],[[58072,30275],[-723,-1223]],[[57349,29052],[-964,-612]],[[56385,28440],[-1687,4893]],[[83855,13456],[-2410,-2753]],[[81445,10703],[-5301,-306]],[[76144,10397],[-5060,3670]],[[71084,14067],[-7711,7340]],[[63373,21407],[-5060,1834]],[[58072,23853],[-1687,4587]],[[57349,29052],[723,1223]],[[58072,30275],[964,0]],[[59036,30275],[241,612]],[[59517,31498],[-240,612]],[[59277,32110],[1204,917]],[[65060,34862],[963,-612]],[[72047,34250],[1205,-917]],[[73252,33333],[5783,-917],[2169,-7646],[3373,-3975],[-722,-7339]],[[83855,13456],[4337,0],[2650,-6117],[-4096,-1529],[-2169,-5810],[-3132,1835],[-19518,-1835],[-7229,10703]],[[54698,10703],[2651,2753]],[[56626,16819],[0,612]],[[57590,23241],[5783,-1834]],[[63373,21407],[7711,-7340]],[[76144,10397],[5301,306]]],"transform":{"scale":[4.1500415004149245e-7,3.2700327003271983e-7],"translate":[80.6055,20.023]},"objects":{"wards":{"type":"GeometryCollection","geometries":[{"arcs":[[0,1,2,3,4,5,6,7,8,9,10,11,12,13,14,15,16,17,18,19,20,21,22,23,24,25,26]],"type":"Polygon","properties":{"objectid":41310,"statename":"Chhattisgarh","statecode":"22","districtname":null,"districtcode":"413","ulbname":"Pakhanjur","ulbcode":"802059","wardname":"Mahatma Gandhi","wardcode":"1","id":null,"status":"APPROVED","misglobalid":null,"approved_by":null,"createdate":1638021310000,"updateddate":1643014547000,"globalid":null,"gisglobalid":"7c2356c8-2994-4908-a188-9fdce50c9a84","remark":"Approved","st_area(shape)":0.00007894525485710208,"st_perimeter(shape)":0.05161869459121413}},{"arcs":[[27,28,29,30,31,32,33,34,-7,35,36,37,38,-2,39,40,41,42,43,44,45,46,47,48,49,50,51]],"type":"Polygon","properties":{"objectid":41720,"statename":"Chhattisgarh","statecode":"22","districtname":null,"districtcode":"413","ulbname":"Pakhanjur","ulbcode":"802059","wardname":"Pt.Dindyal Upadhyay Ward","wardcode":"2","id":null,"status":"APPROVED","misglobalid":null,"approved_by":null,"createdate":1638021332000,"updateddate":1643014568000,"globalid":null,"gisglobalid":"403c6736-776c-4ed8-890d-9d674035325d","remark":"Approved","st_area(shape)":0.000015748913088759593,"st_perimeter(shape)":0.02217154004874834}},{"arcs":[[52,53,54,55,56,57,58,59,60,61,62,63,64,65,66,67,68,69,70,71,72,73,74,75,76,77,78,79,80,81,82,83,84,85,86,87,88,89,90,-13,91,92,93,94,95,-32]],"type":"Polygon","properties":{"objectid":41311,"statename":"Chhattisgarh","statecode":"22","districtname":null,"districtcode":"413","ulbname":"Pakhanjur","ulbcode":"802059","wardname":"Maa Sharda Ward","wardcode":"3","id":null,"status":"APPROVED","misglobalid":null,"approved_by":null,"createdate":1638021353000,"updateddate":1643014584000,"globalid":null,"gisglobalid":"6a787f68-8bf6-4cf4-80fe-7109f2940bf6","remark":"Approved","st_area(shape)":0.00006109506706639122,"st_perimeter(shape)":0.04011386646376497}},{"arcs":[[96,97,98,99,100,101,102,103,104,105,106,107,108,109,-80,110,-78,111,-76,112,-74,113,-72,114,-70,115,-68,116,117,118,-64,119,-62,120,-60,121,122,-57,123,-55,124,-53]],"type":"Polygon","properties":{"objectid":41312,"statename":"Chhattisgarh","statecode":"22","districtname":null,"districtcode":"413","ulbname":"Pakhanjur","ulbcode":"802059","wardname":"Sheetla Mata Ward","wardcode":"4","id":null,"status":"APPROVED","misglobalid":null,"approved_by":null,"createdate":1638021370000,"updateddate":1643014604000,"globalid":null,"gisglobalid":"00228d29-d286-4299-ad30-edec5afa8edc","remark":"Approved","st_area(shape)":0.00007069566620375338,"st_perimeter(shape)":0.046913863464654516}},{"arcs":[[125,126,-97,-31,127,-29,128,129,130,131,132,133,134,135,136,137,138,139,140,141,142,143,144,145,146,147,148]],"type":"Polygon","properties":{"objectid":41313,"statename":"Chhattisgarh","statecode":"22","districtname":null,"districtcode":"413","ulbname":"Pakhanjur","ulbcode":"802059","wardname":"Chandra Shekhar Azad","wardcode":"5","id":null,"status":"APPROVED","misglobalid":null,"approved_by":null,"createdate":1638021389000,"updateddate":1643014628000,"globalid":null,"gisglobalid":"ae8c0a2e-537b-4dcb-87d0-540c071b8a7b","remark":"Approved","st_area(shape)":0.00004182675514597646,"st_perimeter(shape)":0.030430368874162134}},{"arcs":[[149,150,151,152,153,154,155,156,157,158,-143,159,160,-140,161,-138,162,163,164,165,166,167,168,169,170,171,172,173,174,175,176,177,178,179,180]],"type":"Polygon","properties":{"objectid":41721,"statename":"Chhattisgarh","statecode":"22","districtname":null,"districtcode":"413","ulbname":"Pakhanjur","ulbcode":"802059","wardname":"Bhagat Singh","wardcode":"6","id":null,"status":"APPROVED","misglobalid":null,"approved_by":null,"createdate":1638021408000,"updateddate":1643014650000,"globalid":null,"gisglobalid":"dee8d1d8-cd08-4b94-b375-140f160e3760","remark":"Approved","st_area(shape)":0.00001649917316385688,"st_perimeter(shape)":0.020253116118438167}},{"arcs":[[181,182,183,184,-177,185,186,187,-173,188,189,190,191,192,193,194,195,196,154,197,198,199,200,201]],"type":"Polygon","properties":{"objectid":41722,"statename":"Chhattisgarh","statecode":"22","districtname":null,"districtcode":"413","ulbname":"Pakhanjur","ulbcode":"802059","wardname":"Netaji Subhas Chandra Bosh","wardcode":"7","id":null,"status":"APPROVED","misglobalid":null,"approved_by":null,"createdate":1638021427000,"updateddate":1643014672000,"globalid":null,"gisglobalid":"101f04b1-760b-4b76-9685-948d67d0f5e6","remark":"Approved","st_area(shape)":0.000021445008670482882,"st_perimeter(shape)":0.018448022399977976}},{"arcs":[[202,203,204,205,206,207,208,209,210,211,212,213,214,215,216,-192,217,218,-189,-172,219,220,221,222,223,224]],"type":"Polygon","properties":{"objectid":41314,"statename":"Chhattisgarh","statecode":"22","districtname":null,"districtcode":"413","ulbname":"Pakhanjur","ulbcode":"802059","wardname":"Lal Bahadur Sastri","wardcode":"8","id":null,"status":"APPROVED","misglobalid":null,"approved_by":null,"createdate":1638021447000,"updateddate":1643014698000,"globalid":null,"gisglobalid":"59b47c62-08eb-45c0-bea4-cde4402304a8","remark":"Approved","st_area(shape)":0.000007652942376131788,"st_perimeter(shape)":0.01276542878375226}},{"arcs":[[225,226,227,228,229,230,231,232,233,234,235,236,237,238,239,240,-211,241,-209,242,-207,243,-205,244,-203,245,-164,246,247,248,249,250,251,-130]],"type":"Polygon","properties":{"objectid":41315,"statename":"Chhattisgarh","statecode":"22","districtname":null,"districtcode":"413","ulbname":"Pakhanjur","ulbcode":"802059","wardname":"Gend Singh","wardcode":"9","id":null,"status":"APPROVED","misglobalid":null,"approved_by":null,"createdate":1638021473000,"updateddate":1643014724000,"globalid":null,"gisglobalid":"af3462ab-6f39-4eff-8370-f5214a51a945","remark":"Approved","st_area(shape)":0.000008866697996278524,"st_perimeter(shape)":0.01434963928022747}},{"arcs":[[252,253,254,255,256,257,258,259,-226,260,261,262,263,264,265,266,267,-44,268,269,270,271,272,273,274,275,276,277,278]],"type":"Polygon","properties":{"objectid":41723,"statename":"Chhattisgarh","statecode":"22","districtname":null,"districtcode":"413","ulbname":"Pakhanjur","ulbcode":"802059","wardname":"Bajrang","wardcode":"10","id":null,"status":"APPROVED","misglobalid":null,"approved_by":null,"createdate":1638021507000,"updateddate":1643014747000,"globalid":null,"gisglobalid":"0dc0e1f6-f9ab-4419-afaf-c0ecce692bba","remark":"Approved","st_area(shape)":0.000019400437217479842,"st_perimeter(shape)":0.017486857714198976}},{"arcs":[[279,280,281,282,283,284,285,286,287,288,289,290,291,292,293,294,-278,295,-276,296,297,298,-272,299,300,-41,-27,301,-25,302,-23,303,304,305,-19,306,-17,307]],"type":"Polygon","properties":{"objectid":41724,"statename":"Chhattisgarh","statecode":"22","districtname":null,"districtcode":"413","ulbname":"Pakhanjur","ulbcode":"802059","wardname":"Maa Durga","wardcode":"11","id":null,"status":"APPROVED","misglobalid":null,"approved_by":null,"createdate":1638021540000,"updateddate":1643014769000,"globalid":null,"gisglobalid":"7e64f1cb-9583-4675-8467-f42387c74a34","remark":"Approved","st_area(shape)":0.00006623635483527314,"st_perimeter(shape)":0.05058830573361574}},{"arcs":[[308,309,310,311,312,313,314,315,-289,316,317,-286,318,-284,319,-282,320,-280,321]],"type":"Polygon","properties":{"objectid":41725,"statename":"Chhattisgarh","statecode":"22","districtname":null,"districtcode":"413","ulbname":"Pakhanjur","ulbcode":"802059","wardname":"Shayama Prasad Mukharji","wardcode":"12","id":null,"status":"APPROVED","misglobalid":null,"approved_by":null,"createdate":1638021562000,"updateddate":1643014790000,"globalid":null,"gisglobalid":"4d36f8b9-b631-4804-b779-be8449752465","remark":"Approved","st_area(shape)":0.0001773899795329944,"st_perimeter(shape)":0.06521154015644444}},{"arcs":[[-212,-211,322,-240,323,324,-237,325,-235,326,327,-232,328,-230,-257,329,-255,330,-253,331,332,-292,-314,333,-312,334,335,-309,336,337,338,339,340,341,342,343,344,345,346,347,348]],"type":"Polygon","properties":{"objectid":41726,"statename":"Chhattisgarh","statecode":"22","districtname":null,"districtcode":"413","ulbname":"Pakhanjur","ulbcode":"802059","wardname":"Vivekanand","wardcode":"13","id":null,"status":"APPROVED","misglobalid":null,"approved_by":null,"createdate":1638021584000,"updateddate":1643014883000,"globalid":null,"gisglobalid":"16951223-a04a-4922-be2c-94ca01a2b5e4","remark":"Approved","st_area(shape)":0.00005865738000768942,"st_perimeter(shape)":0.04104854637047163}},{"arcs":[[349,350,351,352,353,-215,354,-348,355,356,357,-344,358,359,-341,360,-339,361,362]],"type":"Polygon","properties":{"objectid":41316,"statename":"Chhattisgarh","statecode":"22","districtname":null,"districtcode":"413","ulbname":"Pakhanjur","ulbcode":"802059","wardname":"Ravindra Nath Taigor","wardcode":"14","id":null,"status":"APPROVED","misglobalid":null,"approved_by":null,"createdate":1638021610000,"updateddate":1643014915000,"globalid":null,"gisglobalid":"3f73918e-4efc-41a1-b8af-28056a39a594","remark":"Approved","st_area(shape)":0.00005859621324085519,"st_perimeter(shape)":0.033015721660357766}},{"arcs":[[363,364,-195,365,-193,-217,366,367,-352,368,-350]],"type":"Polygon","properties":{"objectid":41727,"statename":"Chhattisgarh","statecode":"22","districtname":null,"districtcode":"413","ulbname":"Pakhanjur","ulbcode":"802059","wardname":"Bhim Rao Ambedekar","wardcode":"15","id":null,"status":"APPROVED","misglobalid":null,"approved_by":null,"createdate":1638021639000,"updateddate":1643014955000,"globalid":null,"gisglobalid":"bd6963d4-de31-4b04-aaf9-b38691ee7e93","remark":"Approved","st_area(shape)":0.00006223993828033682,"st_perimeter(shape)":0.04281300007650266}}]}}}