{"type": "FeatureCollection", "features": [{"type": "Feature", "geometry": {"type": "Polygon", "coordinates": [[[76.2684, 10.9154], [76.2685, 10.9154], [76.2688, 10.9155], [76.2697, 10.9151], [76.2711, 10.9145], [76.2716, 10.9144], [76.2717, 10.9144], [76.2723, 10.9145], [76.2732, 10.9146], [76.2742, 10.915], [76.2758, 10.9154], [76.2758, 10.9153], [76.276, 10.914], [76.2765, 10.9128], [76.2768, 10.9114], [76.2779, 10.9104], [76.2785, 10.909], [76.2788, 10.9081], [76.2789, 10.9078], [76.2791, 10.9061], [76.2794, 10.9051], [76.2796, 10.9041], [76.2799, 10.9031], [76.2802, 10.9021], [76.2804, 10.9011], [76.2807, 10.9001], [76.2797, 10.9007], [76.2786, 10.9014], [76.2776, 10.902], [76.2776, 10.9021], [76.2777, 10.9021], [76.2777, 10.9022], [76.2776, 10.9023], [76.2776, 10.9024], [76.2776, 10.9025], [76.2776, 10.9026], [76.2775, 10.9027], [76.2775, 10.9028], [76.2774, 10.9028], [76.2773, 10.9029], [76.2772, 10.903], [76.2771, 10.903], [76.277, 10.903], [76.2769, 10.903], [76.2768, 10.903], [76.2767, 10.903], [76.2766, 10.9029], [76.2765, 10.9029], [76.2764, 10.9029], [76.2762, 10.9029], [76.2761, 10.9029], [76.2758, 10.9029], [76.2756, 10.9029], [76.2755, 10.9029], [76.2754, 10.9029], [76.2753, 10.9029], [76.2753, 10.903], [76.2752, 10.903], [76.2752, 10.9031], [76.2751, 10.9031], [76.275, 10.9032], [76.2749, 10.9032], [76.2749, 10.9033], [76.2748, 10.9033], [76.2747, 10.9033], [76.2746, 10.9034], [76.2745, 10.9033], [76.2745, 10.9034], [76.2744, 10.9034], [76.2744, 10.9033], [76.2743, 10.9033], [76.2742, 10.9033], [76.2742, 10.9034], [76.2741, 10.9034], [76.274, 10.9035], [76.274, 10.9036], [76.274, 10.9037], [76.274, 10.9038], [76.274, 10.9039], [76.274, 10.904], [76.274, 10.9041], [76.274, 10.9042], [76.274, 10.9043], [76.274, 10.9044], [76.274, 10.9046], [76.274, 10.9047], [76.274, 10.9048], [76.2739, 10.9049], [76.2739, 10.905], [76.2739, 10.9051], [76.2738, 10.9052], [76.2737, 10.9053], [76.2737, 10.9054], [76.2737, 10.9055], [76.2736, 10.9055], [76.2735, 10.9056], [76.2734, 10.9057], [76.2733, 10.9058], [76.2732, 10.9058], [76.2732, 10.9059], [76.2731, 10.9059], [76.2731, 10.906], [76.273, 10.906], [76.273, 10.9061], [76.2729, 10.9061], [76.2728, 10.9061], [76.2728, 10.9062], [76.2727, 10.9062], [76.2727, 10.9063], [76.2726, 10.9063], [76.2726, 10.9064], [76.2725, 10.9064], [76.2725, 10.9065], [76.2724, 10.9065], [76.2723, 10.9066], [76.2722, 10.9067], [76.2721, 10.9067], [76.2721, 10.9068], [76.272, 10.9068], [76.2719, 10.9069], [76.2719, 10.907], [76.2719, 10.9071], [76.2719, 10.9072], [76.2719, 10.9073], [76.2719, 10.9074], [76.2719, 10.9075], [76.272, 10.9076], [76.272, 10.9077], [76.272, 10.9078], [76.272, 10.9079], [76.2721, 10.9079], [76.2721, 10.908], [76.2721, 10.9081], [76.2722, 10.9082], [76.2721, 10.9082], [76.2721, 10.9083], [76.2721, 10.9084], [76.2722, 10.9085], [76.2722, 10.9086], [76.2723, 10.9087], [76.2723, 10.9088], [76.2723, 10.9089], [76.2724, 10.909], [76.2724, 10.9091], [76.2724, 10.9092], [76.2725, 10.9093], [76.2725, 10.9094], [76.2725, 10.9095], [76.2725, 10.9096], [76.2725, 10.9097], [76.2725, 10.9098], [76.2726, 10.91], [76.2726, 10.9101], [76.2727, 10.9102], [76.2727, 10.9103], [76.2726, 10.9104], [76.2726, 10.9105], [76.2725, 10.9105], [76.2725, 10.9106], [76.2724, 10.9107], [76.2723, 10.9108], [76.2723, 10.9109], [76.2722, 10.911], [76.2721, 10.911], [76.2721, 10.9111], [76.272, 10.9112], [76.2719, 10.9113], [76.2718, 10.9114], [76.2718, 10.9115], [76.2717, 10.9115], [76.2717, 10.9116], [76.2716, 10.9117], [76.2715, 10.9117], [76.2715, 10.9118], [76.2714, 10.9119], [76.2713, 10.912], [76.2712, 10.912], [76.2712, 10.9121], [76.2711, 10.9122], [76.271, 10.9122], [76.2709, 10.9123], [76.2708, 10.9124], [76.2708, 10.9125], [76.2707, 10.9125], [76.2706, 10.9126], [76.2706, 10.9127], [76.2705, 10.9127], [76.2704, 10.9129], [76.2703, 10.913], [76.2703, 10.9131], [76.2702, 10.9132], [76.2701, 10.9133], [76.27, 10.9134], [76.27, 10.9135], [76.2699, 10.9135], [76.2698, 10.9137], [76.2697, 10.9137], [76.2697, 10.9138], [76.2696, 10.9138], [76.2695, 10.9138], [76.2694, 10.9139], [76.2693, 10.9139], [76.2692, 10.914], [76.2691, 10.914], [76.2691, 10.9141], [76.2692, 10.9142], [76.2692, 10.9143], [76.2693, 10.9143], [76.2693, 10.9144], [76.2693, 10.9145], [76.2693, 10.9146], [76.2692, 10.9146], [76.2691, 10.9147], [76.2689, 10.9149], [76.2686, 10.9151], [76.2685, 10.9152], [76.2684, 10.9154]]]}, "properties": {"objectid": 309095, "statename": "KERALA", "statecode": "32", "districtname": "PALAKKAD", "districtcode": "593", "ulbname": "Cherpulassery", "ulbcode": "900209", "wardname": "PADINJATTUMURI", "wardcode": "1", "id": null, "status": "APPROVED", "misglobalid": null, "approved_by": null, "createdate": 1725294192000, "updateddate": 1725430049000, "globalid": null, "gisglobalid": "5mmoaoBn-l6R4-PccK-RP6s-lo4Bc5onodBc", "remark": "", "st_area(shape)": 7.609901396289576e-05, "st_perimeter(shape)": 0.047600669810991626}}, {"type": "Feature", "geometry": {"type": "Polygon", "coordinates": [[[76.2877, 10.9145], [76.2881, 10.9147], [76.2889, 10.9139], [76.2897, 10.9129], [76.2911, 10.9125], [76.2922, 10.9119], [76.2926, 10.9118], [76.2924, 10.9105], [76.292, 10.9096], [76.2908, 10.9085], [76.2894, 10.9078], [76.2878, 10.9075], [76.2866, 10.9069], [76.2858, 10.9066], [76.285, 10.9064], [76.2842, 10.9065], [76.2831, 10.907], [76.282, 10.9069], [76.281, 10.9068], [76.2805, 10.907], [76.28, 10.9075], [76.2796, 10.908], [76.2788, 10.9081], [76.2785, 10.909], [76.2779, 10.9104], [76.2768, 10.9114], [76.2765, 10.9128], [76.276, 10.914], [76.2758, 10.9154], [76.2763, 10.9155], [76.2769, 10.9157], [76.2777, 10.9159], [76.279, 10.9163], [76.2797, 10.9162], [76.2804, 10.9157], [76.2812, 10.9151], [76.2821, 10.9144], [76.283, 10.9137], [76.2839, 10.9135], [76.2849, 10.9134], [76.2858, 10.9135], [76.2867, 10.9139], [76.2877, 10.9145]]]}, "properties": {"objectid": 305513, "statename": "KERALA", "statecode": "32", "districtname": "PALAKKAD", "districtcode": "593", "ulbname": "Cherpulassery", "ulbcode": "900209", "wardname": "THOOTHA", "wardcode": "2", "id": null, "status": "APPROVED", "misglobalid": null, "approved_by": null, "createdate": 1725339130000, "updateddate": 1725430138000, "globalid": null, "gisglobalid": "KKK4QRdB-adB4-Pl5o-QRsa-dmQKQa6R6aQ6", "remark": "", "st_area(shape)": 0.00010176417978550655, "st_perimeter(shape)": 0.04412791376844997}}, {"type": "Feature", "geometry": {"type": "Polygon", "coordinates": [[[76.3066, 10.9047], [76.3062, 10.905], [76.3059, 10.9052], [76.3051, 10.9061], [76.3043, 10.9066], [76.3035, 10.9071], [76.3023, 10.9075], [76.3015, 10.9081], [76.3007, 10.9088], [76.2999, 10.9095], [76.2991, 10.9102], [76.2977, 10.9107], [76.2966, 10.9109], [76.2956, 10.9111], [76.2945, 10.9113], [76.2935, 10.9114], [76.2926, 10.9118], [76.2922, 10.9119], [76.2911, 10.9125], [76.2897, 10.9129], [76.2889, 10.9139], [76.2881, 10.9147], [76.2896, 10.9154], [76.2906, 10.9159], [76.2912, 10.9161], [76.2917, 10.9162], [76.2924, 10.9167], [76.2928, 10.9172], [76.2934, 10.9179], [76.2939, 10.9185], [76.2946, 10.9195], [76.2955, 10.9199], [76.2964, 10.9198], [76.2975, 10.9192], [76.2985, 10.9187], [76.299, 10.9183], [76.2997, 10.917], [76.3, 10.9165], [76.3003, 10.9161], [76.3007, 10.9153], [76.3011, 10.9149], [76.3017, 10.9143], [76.3026, 10.9135], [76.3033, 10.9128], [76.3041, 10.9121], [76.3055, 10.9112], [76.3066, 10.911], [76.3079, 10.9113], [76.3086, 10.9114], [76.3098, 10.9119], [76.3107, 10.9123], [76.3119, 10.9126], [76.3115, 10.9117], [76.3111, 10.9105], [76.3099, 10.9094], [76.3096, 10.9084], [76.3087, 10.9069], [76.3086, 10.9058], [76.3083, 10.9052], [76.3074, 10.9046], [76.3066, 10.9047]]]}, "properties": {"objectid": 309108, "statename": "KERALA", "statecode": "32", "districtname": "PALAKKAD", "districtcode": "593", "ulbname": "Cherpulassery", "ulbcode": "900209", "wardname": "HEALTH CENTER", "wardcode": "3", "id": null, "status": "APPROVED", "misglobalid": null, "approved_by": null, "createdate": 1725339273000, "updateddate": 1725430210000, "globalid": null, "gisglobalid": "anc6QBdP-acBa-P66s-QdRo-d6adQ6BPla5R", "remark": "", "st_area(shape)": 0.00013204529525475596, "st_perimeter(shape)": 0.06159384377222667}}, {"type": "Feature", "geometry": {"type": "Polygon", "coordinates": [[[76.3115, 10.9117], [76.3119, 10.9126], [76.3127, 10.9126], [76.3137, 10.9127], [76.3152, 10.9124], [76.3163, 10.9123], [76.3175, 10.9121], [76.3184, 10.912], [76.3189, 10.912], [76.3196, 10.9117], [76.3204, 10.9115], [76.321, 10.9109], [76.321, 10.9099], [76.3207, 10.9083], [76.3205, 10.9075], [76.3208, 10.9067], [76.3215, 10.9061], [76.3221, 10.9059], [76.3219, 10.9046], [76.3217, 10.9033], [76.3221, 10.9015], [76.3214, 10.9007], [76.3212, 10.9002], [76.3205, 10.8995], [76.3197, 10.8995], [76.319, 10.9], [76.3178, 10.9005], [76.3173, 10.9011], [76.3169, 10.9017], [76.3161, 10.9029], [76.3153, 10.9033], [76.3144, 10.9036], [76.3141, 10.9039], [76.3137, 10.9041], [76.3133, 10.9042], [76.3132, 10.9042], [76.3124, 10.9046], [76.3121, 10.9045], [76.3112, 10.9038], [76.3102, 10.9034], [76.3091, 10.9034], [76.3085, 10.9037], [76.3079, 10.9043], [76.3074, 10.9046], [76.3083, 10.9052], [76.3086, 10.9058], [76.3087, 10.9069], [76.3096, 10.9084], [76.3099, 10.9094], [76.3111, 10.9105], [76.3115, 10.9117]]]}, "properties": {"objectid": 307266, "statename": "KERALA", "statecode": "32", "districtname": "PALAKKAD", "districtcode": "593", "ulbname": "Cherpulassery", "ulbcode": "900209", "wardname": "PAPPARAMBU", "wardcode": "4", "id": null, "status": "APPROVED", "misglobalid": null, "approved_by": null, "createdate": 1725339376000, "updateddate": 1725430662000, "globalid": null, "gisglobalid": "Bm6aBaQd-4cdB-P6cK-smKc-mcBRmRmKmBnR", "remark": "", "st_area(shape)": 0.00011679855523906965, "st_perimeter(shape)": 0.04759414750135125}}, {"type": "Feature", "geometry": {"type": "Polygon", "coordinates": [[[76.2926, 10.9118], [76.2935, 10.9114], [76.2945, 10.9113], [76.2956, 10.9111], [76.2966, 10.9109], [76.2977, 10.9107], [76.2991, 10.9102], [76.2999, 10.9095], [76.3007, 10.9088], [76.3015, 10.9081], [76.3023, 10.9075], [76.3035, 10.9071], [76.3043, 10.9066], [76.3051, 10.9061], [76.3059, 10.9052], [76.3062, 10.905], [76.3052, 10.9045], [76.304, 10.9034], [76.303, 10.9022], [76.3021, 10.9015], [76.3016, 10.901], [76.3012, 10.9], [76.3004, 10.8997], [76.2991, 10.8987], [76.2989, 10.8996], [76.2981, 10.9007], [76.2977, 10.9019], [76.2971, 10.9027], [76.2965, 10.9035], [76.2955, 10.9049], [76.2947, 10.9059], [76.2937, 10.9064], [76.293, 10.9072], [76.2931, 10.9073], [76.293, 10.9078], [76.2924, 10.9087], [76.292, 10.9096], [76.2924, 10.9105], [76.2926, 10.9118]]]}, "properties": {"objectid": 309084, "statename": "KERALA", "statecode": "32", "districtname": "PALAKKAD", "districtcode": "593", "ulbname": "Cherpulassery", "ulbcode": "900209", "wardname": "NADUVATTAM", "wardcode": "5", "id": null, "status": "APPROVED", "misglobalid": null, "approved_by": null, "createdate": 1725291981000, "updateddate": 1725430746000, "globalid": null, "gisglobalid": "maKdcoBs-Ro6K-PBRo-Rsml-ldsQnPRnaKRo", "remark": "", "st_area(shape)": 8.600423531252072e-05, "st_perimeter(shape)": 0.041154983616575526}}, {"type": "Feature", "geometry": {"type": "Polygon", "coordinates": [[[76.3125, 10.8916], [76.3118, 10.8908], [76.3114, 10.8895], [76.3113, 10.8889], [76.3103, 10.8903], [76.3099, 10.8911], [76.3095, 10.892], [76.3087, 10.8925], [76.3079, 10.893], [76.3067, 10.8938], [76.306, 10.8938], [76.3049, 10.8933], [76.304, 10.8934], [76.3035, 10.8938], [76.3031, 10.8943], [76.3026, 10.8944], [76.3013, 10.8944], [76.3001, 10.8939], [76.3, 10.8948], [76.2999, 10.8964], [76.2994, 10.8977], [76.2991, 10.8987], [76.3004, 10.8997], [76.3012, 10.9], [76.3016, 10.901], [76.3021, 10.9015], [76.303, 10.9022], [76.304, 10.9034], [76.3052, 10.9045], [76.3062, 10.905], [76.3066, 10.9047], [76.3074, 10.9037], [76.3082, 10.9026], [76.3087, 10.9016], [76.3092, 10.9007], [76.3098, 10.8993], [76.31, 10.898], [76.3103, 10.8968], [76.311, 10.8952], [76.3117, 10.8935], [76.3123, 10.8926], [76.3125, 10.8916]]]}, "properties": {"objectid": 307243, "statename": "KERALA", "statecode": "32", "districtname": "PALAKKAD", "districtcode": "593", "ulbname": "Cherpulassery", "ulbcode": "900209", "wardname": "KARALMANNA", "wardcode": "6", "id": null, "status": "APPROVED", "misglobalid": null, "approved_by": null, "createdate": 1725292012000, "updateddate": 1725430778000, "globalid": null, "gisglobalid": "B5aRcssK-olPR-PB6m-sQm4-aQPBKaslcmsP", "remark": "", "st_area(shape)": 0.00010126669381566635, "st_perimeter(shape)": 0.046768904831080496}}, {"type": "Feature", "geometry": {"type": "Polygon", "coordinates": [[[76.3123, 10.8926], [76.3124, 10.8939], [76.3124, 10.8949], [76.3133, 10.8961], [76.3136, 10.8969], [76.3138, 10.8981], [76.3138, 10.8994], [76.3144, 10.9009], [76.3141, 10.9021], [76.3139, 10.9033], [76.3133, 10.9042], [76.3137, 10.9041], [76.3141, 10.9039], [76.3144, 10.9036], [76.3153, 10.9033], [76.3161, 10.9029], [76.3169, 10.9017], [76.3173, 10.9011], [76.3178, 10.9005], [76.319, 10.9], [76.3197, 10.8995], [76.3205, 10.8995], [76.3208, 10.8993], [76.3215, 10.8995], [76.3218, 10.8991], [76.3223, 10.8988], [76.3228, 10.8984], [76.322, 10.8975], [76.3213, 10.8969], [76.3205, 10.8963], [76.3197, 10.8957], [76.3194, 10.8944], [76.3187, 10.8929], [76.3193, 10.8917], [76.3193, 10.8908], [76.3192, 10.8894], [76.3185, 10.8879], [76.3184, 10.8869], [76.3184, 10.886], [76.3173, 10.8867], [76.3161, 10.8874], [76.3153, 10.8882], [76.3146, 10.8889], [76.3138, 10.8897], [76.3132, 10.8906], [76.3125, 10.8916], [76.3123, 10.8926]]]}, "properties": {"objectid": 307244, "statename": "KERALA", "statecode": "32", "districtname": "PALAKKAD", "districtcode": "593", "ulbname": "Cherpulassery", "ulbcode": "900209", "wardname": "ALUMPARA", "wardcode": "7", "id": null, "status": "APPROVED", "misglobalid": null, "approved_by": null, "createdate": 1725292043000, "updateddate": 1725439752000, "globalid": null, "gisglobalid": "P4ds6m65-sKRQ-PRsa-Rm4n-6csRlQnsBlBd", "remark": "", "st_area(shape)": 9.283286619996512e-05, "st_perimeter(shape)": 0.04781712922120483}}, {"type": "Feature", "geometry": {"type": "Polygon", "coordinates": [[[76.3123, 10.8926], [76.3117, 10.8935], [76.311, 10.8952], [76.3103, 10.8968], [76.31, 10.898], [76.3098, 10.8993], [76.3092, 10.9007], [76.3087, 10.9016], [76.3082, 10.9026], [76.3074, 10.9037], [76.3066, 10.9047], [76.3074, 10.9046], [76.3079, 10.9043], [76.3085, 10.9037], [76.3091, 10.9034], [76.3102, 10.9034], [76.3112, 10.9038], [76.3121, 10.9045], [76.3124, 10.9046], [76.3132, 10.9042], [76.3133, 10.9042], [76.3139, 10.9033], [76.3141, 10.9021], [76.3144, 10.9009], [76.3138, 10.8994], [76.3138, 10.8981], [76.3136, 10.8969], [76.3133, 10.8961], [76.3124, 10.8949], [76.3124, 10.8939], [76.3123, 10.8926]]]}, "properties": {"objectid": 309085, "statename": "KERALA", "statecode": "32", "districtname": "PALAKKAD", "districtcode": "593", "ulbname": "Cherpulassery", "ulbcode": "900209", "wardname": "AMBALAVATTAM", "wardcode": "8", "id": null, "status": "APPROVED", "misglobalid": null, "approved_by": null, "createdate": 1725292074000, "updateddate": 1725439923000, "globalid": null, "gisglobalid": "c4K5ooaP-6PnK-PsP4-Rsnm-l6aP46oPdcQB", "remark": "", "st_area(shape)": 4.071662541336003e-05, "st_perimeter(shape)": 0.03339727874467565}}, {"type": "Feature", "geometry": {"type": "Polygon", "coordinates": [[[76.3319, 10.9045], [76.333, 10.9046], [76.3333, 10.9046], [76.3333, 10.9044], [76.3333, 10.9041], [76.3336, 10.904], [76.3336, 10.9038], [76.3334, 10.9036], [76.3334, 10.9035], [76.3335, 10.9033], [76.3334, 10.903], [76.3335, 10.9029], [76.3336, 10.9027], [76.3336, 10.9025], [76.3335, 10.9023], [76.3333, 10.9022], [76.3333, 10.902], [76.3336, 10.9009], [76.3335, 10.9006], [76.3335, 10.9005], [76.3335, 10.9004], [76.3333, 10.9003], [76.3333, 10.9002], [76.3334, 10.8998], [76.3333, 10.8997], [76.333, 10.8993], [76.3329, 10.8991], [76.3325, 10.8984], [76.3321, 10.8976], [76.3317, 10.8968], [76.3312, 10.8959], [76.3308, 10.8951], [76.3304, 10.8938], [76.3303, 10.8931], [76.3298, 10.8926], [76.3295, 10.8921], [76.3294, 10.8916], [76.3293, 10.8905], [76.3289, 10.8899], [76.3278, 10.8912], [76.3269, 10.8921], [76.3261, 10.8929], [76.3256, 10.8937], [76.3247, 10.8944], [76.3242, 10.8958], [76.3244, 10.8961], [76.3239, 10.8969], [76.3237, 10.898], [76.3236, 10.899], [76.3224, 10.9001], [76.3221, 10.9011], [76.3221, 10.9015], [76.3217, 10.9033], [76.3219, 10.9046], [76.3221, 10.9059], [76.3224, 10.9058], [76.3232, 10.9054], [76.3242, 10.9052], [76.3254, 10.905], [76.3263, 10.9048], [76.3273, 10.9046], [76.3284, 10.9043], [76.3291, 10.9044], [76.3305, 10.9044], [76.3319, 10.9045]]]}, "properties": {"objectid": 307265, "statename": "KERALA", "statecode": "32", "districtname": "PALAKKAD", "districtcode": "593", "ulbname": "Cherpulassery", "ulbcode": "900209", "wardname": "KARUMANAMKURSSI", "wardcode": "9", "id": null, "status": "APPROVED", "misglobalid": null, "approved_by": null, "createdate": 1725338415000, "updateddate": 1725439955000, "globalid": null, "gisglobalid": "PPPnmaoo-csKm-PmcK-R45s-PlPB4KsKaads", "remark": "", "st_area(shape)": 0.00011266416323362097, "st_perimeter(shape)": 0.04664226208235523}}, {"type": "Feature", "geometry": {"type": "Polygon", "coordinates": [[[76.3193, 10.8917], [76.3187, 10.8929], [76.3194, 10.8944], [76.3197, 10.8957], [76.3205, 10.8963], [76.3213, 10.8969], [76.322, 10.8975], [76.3228, 10.8984], [76.3223, 10.8988], [76.3218, 10.8991], [76.3215, 10.8995], [76.3208, 10.8993], [76.3205, 10.8995], [76.3212, 10.9002], [76.3214, 10.9007], [76.3221, 10.9015], [76.3221, 10.9011], [76.3224, 10.9001], [76.3236, 10.899], [76.3237, 10.898], [76.3239, 10.8969], [76.3244, 10.8961], [76.3242, 10.8958], [76.3247, 10.8944], [76.3256, 10.8937], [76.3261, 10.8929], [76.3269, 10.8921], [76.3278, 10.8912], [76.3289, 10.8899], [76.3288, 10.8898], [76.3287, 10.8891], [76.3283, 10.8887], [76.3283, 10.8879], [76.3287, 10.8875], [76.3292, 10.8865], [76.3294, 10.8855], [76.3295, 10.8846], [76.33, 10.8834], [76.331, 10.882], [76.3304, 10.8816], [76.3294, 10.881], [76.3293, 10.8808], [76.328, 10.8814], [76.3265, 10.8822], [76.3253, 10.8827], [76.3242, 10.8826], [76.324, 10.8832], [76.324, 10.8842], [76.3238, 10.8853], [76.3237, 10.8864], [76.3233, 10.8873], [76.323, 10.8882], [76.3227, 10.8891], [76.3224, 10.89], [76.3216, 10.8908], [76.3205, 10.8913], [76.3193, 10.8917]]]}, "properties": {"objectid": 309086, "statename": "KERALA", "statecode": "32", "districtname": "PALAKKAD", "districtcode": "593", "ulbname": "Cherpulassery", "ulbcode": "900209", "wardname": "KUNNUMPURAM", "wardcode": "10", "id": null, "status": "APPROVED", "misglobalid": null, "approved_by": null, "createdate": 1725292273000, "updateddate": 1725439997000, "globalid": null, "gisglobalid": "n4R5mPBl-llPn-Poo5-alRc-Raam6ocncP4n", "remark": "", "st_area(shape)": 9.499448377139228e-05, "st_perimeter(shape)": 0.05567838456347336}}, {"type": "Feature", "geometry": {"type": "Polygon", "coordinates": [[[76.3333, 10.8872], [76.3333, 10.887], [76.3332, 10.8867], [76.3331, 10.8864], [76.3331, 10.8862], [76.333, 10.8861], [76.3332, 10.8851], [76.3332, 10.885], [76.3331, 10.8848], [76.3331, 10.8845], [76.3332, 10.8842], [76.3332, 10.8841], [76.3331, 10.8838], [76.3331, 10.8837], [76.333, 10.8835], [76.3329, 10.8832], [76.3328, 10.8831], [76.3326, 10.883], [76.3325, 10.8827], [76.3325, 10.8826], [76.3324, 10.8824], [76.3324, 10.8823], [76.3316, 10.8821], [76.3314, 10.882], [76.331, 10.882], [76.33, 10.8834], [76.3295, 10.8846], [76.3294, 10.8855], [76.3292, 10.8865], [76.3287, 10.8875], [76.3283, 10.8879], [76.3283, 10.8887], [76.3287, 10.8891], [76.3288, 10.8898], [76.3289, 10.8899], [76.3293, 10.8905], [76.3294, 10.8916], [76.3295, 10.8921], [76.3298, 10.8926], [76.3303, 10.8931], [76.3304, 10.8938], [76.3308, 10.8951], [76.3312, 10.8959], [76.3317, 10.8968], [76.3321, 10.8976], [76.3325, 10.8984], [76.3329, 10.8991], [76.333, 10.899], [76.3332, 10.8987], [76.3334, 10.8984], [76.3333, 10.8983], [76.3334, 10.8982], [76.3335, 10.898], [76.3337, 10.8979], [76.3338, 10.8978], [76.334, 10.8976], [76.334, 10.8974], [76.334, 10.8973], [76.3339, 10.8972], [76.3339, 10.8971], [76.334, 10.8969], [76.3341, 10.8963], [76.3342, 10.8957], [76.3343, 10.8957], [76.3344, 10.8957], [76.3345, 10.8955], [76.3347, 10.8946], [76.3345, 10.8945], [76.3345, 10.8944], [76.3344, 10.8942], [76.3343, 10.8938], [76.3345, 10.8929], [76.3344, 10.8923], [76.3344, 10.8922], [76.3343, 10.8919], [76.3343, 10.8918], [76.3342, 10.8916], [76.3341, 10.8912], [76.334, 10.891], [76.334, 10.8908], [76.334, 10.8906], [76.3342, 10.8904], [76.3342, 10.8901], [76.3342, 10.8899], [76.3341, 10.8896], [76.3342, 10.8895], [76.3341, 10.889], [76.334, 10.8888], [76.3336, 10.8882], [76.3334, 10.8878], [76.3333, 10.8872]]]}, "properties": {"objectid": 309107, "statename": "KERALA", "statecode": "32", "districtname": "PALAKKAD", "districtcode": "593", "ulbname": "Cherpulassery", "ulbcode": "900209", "wardname": "26TH MILE", "wardcode": "11", "id": null, "status": "APPROVED", "misglobalid": null, "approved_by": null, "createdate": 1725337130000, "updateddate": 1725440023000, "globalid": null, "gisglobalid": "4nBKaRnm-4dln-P4m4-RmRP-m4ncomacK5nP", "remark": "", "st_area(shape)": 6.22913939697164e-05, "st_perimeter(shape)": 0.03882357000383638}}, {"type": "Feature", "geometry": {"type": "Polygon", "coordinates": [[[76.3193, 10.8917], [76.3205, 10.8913], [76.3216, 10.8908], [76.3224, 10.89], [76.3227, 10.8891], [76.323, 10.8882], [76.3233, 10.8873], [76.3237, 10.8864], [76.3238, 10.8853], [76.324, 10.8842], [76.3231, 10.8841], [76.3223, 10.8843], [76.3209, 10.8846], [76.3196, 10.8853], [76.3184, 10.886], [76.3184, 10.8869], [76.3185, 10.8879], [76.3192, 10.8894], [76.3193, 10.8908], [76.3193, 10.8917]]]}, "properties": {"objectid": 309087, "statename": "KERALA", "statecode": "32", "districtname": "PALAKKAD", "districtcode": "593", "ulbname": "Cherpulassery", "ulbcode": "900209", "wardname": "KACHERIKKUNNU", "wardcode": "12", "id": null, "status": "APPROVED", "misglobalid": null, "approved_by": null, "createdate": 1725292304000, "updateddate": 1725440066000, "globalid": null, "gisglobalid": "QoQ4RRRd-nc6a-P6cc-s5Ka-PQlQ4m6om4sK", "remark": "", "st_area(shape)": 2.798656694204752e-05, "st_perimeter(shape)": 0.02170483968978359}}, {"type": "Feature", "geometry": {"type": "Polygon", "coordinates": [[[76.3113, 10.8889], [76.3114, 10.8895], [76.3118, 10.8908], [76.3125, 10.8916], [76.3132, 10.8906], [76.3138, 10.8897], [76.3146, 10.8889], [76.3153, 10.8882], [76.3161, 10.8874], [76.3173, 10.8867], [76.3184, 10.886], [76.3181, 10.8854], [76.3179, 10.8847], [76.3172, 10.8838], [76.3163, 10.8834], [76.3153, 10.8831], [76.3145, 10.883], [76.3137, 10.8827], [76.3134, 10.8816], [76.3128, 10.8809], [76.3121, 10.8805], [76.3113, 10.8805], [76.3102, 10.8801], [76.3098, 10.8808], [76.3096, 10.8817], [76.3095, 10.8826], [76.3093, 10.8835], [76.3094, 10.8848], [76.3094, 10.886], [76.3096, 10.8873], [76.3103, 10.8881], [76.3113, 10.8884], [76.3113, 10.8889]]]}, "properties": {"objectid": 307245, "statename": "KERALA", "statecode": "32", "districtname": "PALAKKAD", "districtcode": "593", "ulbname": "Cherpulassery", "ulbcode": "900209", "wardname": "MANDAKKARI", "wardcode": "13", "id": null, "status": "APPROVED", "misglobalid": null, "approved_by": null, "createdate": 1725292324000, "updateddate": 1725440161000, "globalid": null, "gisglobalid": "4dBdmaBl-5lnR-PBsa-Rlad-dKPQKPQcBomm", "remark": "", "st_area(shape)": 5.639402444879394e-05, "st_perimeter(shape)": 0.03225745854400717}}, {"type": "Feature", "geometry": {"type": "Polygon", "coordinates": [[[76.3179, 10.8847], [76.3181, 10.8854], [76.3184, 10.886], [76.3196, 10.8853], [76.3209, 10.8846], [76.3223, 10.8843], [76.3231, 10.8841], [76.324, 10.8842], [76.324, 10.8832], [76.3242, 10.8826], [76.3241, 10.882], [76.3239, 10.8817], [76.3237, 10.8817], [76.3232, 10.8823], [76.3228, 10.8825], [76.3221, 10.8825], [76.3216, 10.8821], [76.3213, 10.8807], [76.3217, 10.8798], [76.3218, 10.8787], [76.3213, 10.8778], [76.3209, 10.8769], [76.3205, 10.8761], [76.3198, 10.8756], [76.3189, 10.875], [76.3177, 10.8748], [76.3164, 10.8751], [76.3161, 10.8763], [76.3159, 10.8772], [76.3153, 10.8778], [76.3142, 10.8781], [76.3139, 10.8784], [76.314, 10.879], [76.315, 10.8794], [76.3159, 10.8798], [76.3167, 10.8806], [76.3176, 10.882], [76.3184, 10.8833], [76.319, 10.8839], [76.3194, 10.8845], [76.3187, 10.8846], [76.3179, 10.8847]]]}, "properties": {"objectid": 307246, "statename": "KERALA", "statecode": "32", "districtname": "PALAKKAD", "districtcode": "593", "ulbname": "Cherpulassery", "ulbcode": "900209", "wardname": "ILLIKKOTTUKURSSI", "wardcode": "14", "id": null, "status": "APPROVED", "misglobalid": null, "approved_by": null, "createdate": 1725292353000, "updateddate": 1725440225000, "globalid": null, "gisglobalid": "BasQao5K-lBl4-PPdQ-sBPa-nma5ddQP4oaR", "remark": "", "st_area(shape)": 5.176700242657415e-05, "st_perimeter(shape)": 0.0384211053282169}}, {"type": "Feature", "geometry": {"type": "Polygon", "coordinates": [[[76.3205, 10.8761], [76.3209, 10.8769], [76.3213, 10.8778], [76.3218, 10.8787], [76.3217, 10.8798], [76.3213, 10.8807], [76.3216, 10.8821], [76.3221, 10.8825], [76.3228, 10.8825], [76.3232, 10.8823], [76.3237, 10.8817], [76.3239, 10.8817], [76.3241, 10.882], [76.3242, 10.8826], [76.3253, 10.8827], [76.3265, 10.8822], [76.328, 10.8814], [76.3293, 10.8808], [76.3288, 10.8803], [76.3287, 10.8794], [76.3284, 10.8784], [76.3277, 10.8784], [76.3272, 10.8784], [76.3269, 10.8779], [76.327, 10.8771], [76.327, 10.8764], [76.3267, 10.8761], [76.3261, 10.876], [76.3254, 10.8757], [76.325, 10.8751], [76.3249, 10.8741], [76.3251, 10.8729], [76.3238, 10.873], [76.3223, 10.8737], [76.3211, 10.8748], [76.3205, 10.8761]]]}, "properties": {"objectid": 309088, "statename": "KERALA", "statecode": "32", "districtname": "PALAKKAD", "districtcode": "593", "ulbname": "Cherpulassery", "ulbcode": "900209", "wardname": "PUTHANALKKAL", "wardcode": "15", "id": null, "status": "APPROVED", "misglobalid": null, "approved_by": null, "createdate": 1725292381000, "updateddate": 1725440278000, "globalid": null, "gisglobalid": "moBBmdcR-cQ4B-P55n-RPKn-BlPms4mPa46B", "remark": "", "st_area(shape)": 5.1446689514483265e-05, "st_perimeter(shape)": 0.03234019173488901}}, {"type": "Feature", "geometry": {"type": "Polygon", "coordinates": [[[76.3251, 10.8729], [76.3249, 10.8741], [76.325, 10.8751], [76.3254, 10.8757], [76.3261, 10.876], [76.3267, 10.8761], [76.327, 10.8764], [76.327, 10.8771], [76.3269, 10.8779], [76.3272, 10.8784], [76.3277, 10.8784], [76.3284, 10.8784], [76.3287, 10.8794], [76.3288, 10.8803], [76.3293, 10.8808], [76.3294, 10.881], [76.3304, 10.8816], [76.331, 10.882], [76.3314, 10.882], [76.3316, 10.8821], [76.3314, 10.8805], [76.3315, 10.88], [76.3314, 10.8786], [76.3312, 10.8772], [76.3304, 10.8761], [76.3295, 10.8754], [76.3288, 10.8742], [76.3285, 10.873], [76.3287, 10.8715], [76.3287, 10.8702], [76.327, 10.8703], [76.3267, 10.8705], [76.3265, 10.8717], [76.3258, 10.8719], [76.3251, 10.8724], [76.3251, 10.8729]]]}, "properties": {"objectid": 307247, "statename": "KERALA", "statecode": "32", "districtname": "PALAKKAD", "districtcode": "593", "ulbname": "Cherpulassery", "ulbcode": "900209", "wardname": "NIRAPPARAMBU", "wardcode": "16", "id": null, "status": "APPROVED", "misglobalid": null, "approved_by": null, "createdate": 1725292403000, "updateddate": 1725440323000, "globalid": null, "gisglobalid": "dKn6naQd-oslQ-PQa4-QdQa-PPRaml6Kmns5", "remark": "", "st_area(shape)": 3.7271338582709886e-05, "st_perimeter(shape)": 0.03172875588202056}}, {"type": "Feature", "geometry": {"type": "Polygon", "coordinates": [[[76.342, 10.8813], [76.3423, 10.8807], [76.3425, 10.8804], [76.3427, 10.8798], [76.3427, 10.879], [76.3429, 10.8778], [76.3431, 10.8765], [76.3431, 10.8754], [76.3432, 10.8742], [76.3432, 10.8737], [76.3429, 10.8729], [76.3426, 10.8715], [76.3418, 10.8703], [76.3406, 10.8697], [76.3404, 10.869], [76.3403, 10.8679], [76.34, 10.8668], [76.3398, 10.8669], [76.3393, 10.868], [76.3386, 10.8684], [76.338, 10.8698], [76.338, 10.8713], [76.338, 10.8725], [76.3379, 10.8729], [76.3377, 10.873], [76.3372, 10.8728], [76.3369, 10.8724], [76.3364, 10.8716], [76.3357, 10.8717], [76.3354, 10.8735], [76.3345, 10.8748], [76.3343, 10.8762], [76.3341, 10.8774], [76.3351, 10.8786], [76.3351, 10.8796], [76.3351, 10.8806], [76.3351, 10.8816], [76.3352, 10.8826], [76.336, 10.8826], [76.3365, 10.8825], [76.3382, 10.8827], [76.3391, 10.8828], [76.3398, 10.883], [76.3405, 10.8831], [76.3413, 10.8832], [76.3415, 10.8822], [76.342, 10.8813]]]}, "properties": {"objectid": 307264, "statename": "KERALA", "statecode": "32", "districtname": "PALAKKAD", "districtcode": "593", "ulbname": "Cherpulassery", "ulbcode": "900209", "wardname": "UNGINTHARA", "wardcode": "17", "id": null, "status": "APPROVED", "misglobalid": null, "approved_by": null, "createdate": 1725330744000, "updateddate": 1725440384000, "globalid": null, "gisglobalid": "4doaB44s-RmsB-Pclo-RKcQ-lB4dRaKQRocl", "remark": "", "st_area(shape)": 9.646105707381174e-05, "st_perimeter(shape)": 0.04527673762105219}}, {"type": "Feature", "geometry": {"type": "Polygon", "coordinates": [[[76.3414, 10.86], [76.341, 10.8599], [76.3402, 10.8597], [76.3392, 10.8594], [76.3377, 10.8593], [76.3362, 10.8592], [76.3353, 10.8592], [76.3351, 10.8592], [76.3343, 10.8602], [76.3339, 10.861], [76.334, 10.8618], [76.3344, 10.8625], [76.3353, 10.8632], [76.3358, 10.8638], [76.3363, 10.8647], [76.3366, 10.8652], [76.3373, 10.865], [76.3377, 10.8651], [76.338, 10.8655], [76.3383, 10.8671], [76.3386, 10.8684], [76.3393, 10.868], [76.3398, 10.8669], [76.34, 10.8668], [76.3403, 10.8679], [76.3404, 10.869], [76.3406, 10.8697], [76.3418, 10.8703], [76.3426, 10.8715], [76.3429, 10.8729], [76.3432, 10.8737], [76.3432, 10.8732], [76.3432, 10.8721], [76.3432, 10.8711], [76.343, 10.8702], [76.3428, 10.8692], [76.3426, 10.8682], [76.3423, 10.867], [76.3421, 10.8659], [76.3419, 10.8655], [76.3424, 10.8647], [76.3425, 10.8646], [76.3427, 10.8642], [76.3429, 10.8635], [76.3429, 10.8625], [76.3429, 10.8618], [76.3427, 10.861], [76.3423, 10.8605], [76.3414, 10.86]]]}, "properties": {"objectid": 307263, "statename": "KERALA", "statecode": "32", "districtname": "PALAKKAD", "districtcode": "593", "ulbname": "Cherpulassery", "ulbcode": "900209", "wardname": "UNGINTHARA SOUTH", "wardcode": "18", "id": null, "status": "APPROVED", "misglobalid": null, "approved_by": null, "createdate": 1725330608000, "updateddate": 1725440448000, "globalid": null, "gisglobalid": "aBBPdQaP-PcBs-Pdma-aodm-5lsoRoRKaBas", "remark": "", "st_area(shape)": 6.164950200982616e-05, "st_perimeter(shape)": 0.04330501122864066}}, {"type": "Feature", "geometry": {"type": "Polygon", "coordinates": [[[76.3337, 10.8704], [76.334, 10.8712], [76.3347, 10.8717], [76.3357, 10.8717], [76.3364, 10.8716], [76.3369, 10.8724], [76.3372, 10.8728], [76.3377, 10.873], [76.3379, 10.8729], [76.338, 10.8725], [76.338, 10.8713], [76.338, 10.8698], [76.3386, 10.8684], [76.3383, 10.8671], [76.338, 10.8655], [76.3377, 10.8651], [76.3373, 10.865], [76.3366, 10.8652], [76.3363, 10.8647], [76.3358, 10.8638], [76.3353, 10.8632], [76.3352, 10.8647], [76.3348, 10.8656], [76.3343, 10.8661], [76.3342, 10.8676], [76.3343, 10.8689], [76.3342, 10.87], [76.3337, 10.8704]]]}, "properties": {"objectid": 307248, "statename": "KERALA", "statecode": "32", "districtname": "PALAKKAD", "districtcode": "593", "ulbname": "Cherpulassery", "ulbcode": "900209", "wardname": "KUTTIKODE", "wardcode": "19", "id": null, "status": "APPROVED", "misglobalid": null, "approved_by": null, "createdate": 1725292436000, "updateddate": 1725440583000, "globalid": null, "gisglobalid": "sQ6QlcRs-sc4o-PQPd-Qo4n-lo5BK6mdnQQK", "remark": "", "st_area(shape)": 2.8685706115684174e-05, "st_perimeter(shape)": 0.024960086773707073}}, {"type": "Feature", "geometry": {"type": "Polygon", "coordinates": [[[76.3351, 10.8592], [76.3349, 10.8593], [76.334, 10.8595], [76.3335, 10.8595], [76.3333, 10.8595], [76.3326, 10.8595], [76.3323, 10.8594], [76.3322, 10.8604], [76.3323, 10.8615], [76.3321, 10.8623], [76.3319, 10.8632], [76.3316, 10.864], [76.3313, 10.8647], [76.3308, 10.8653], [76.3302, 10.866], [76.3296, 10.8664], [76.3289, 10.867], [76.3282, 10.8676], [76.329, 10.8686], [76.3294, 10.8695], [76.3292, 10.87], [76.3288, 10.8701], [76.3287, 10.8702], [76.3287, 10.8715], [76.3292, 10.871], [76.3299, 10.8719], [76.3306, 10.8726], [76.3303, 10.874], [76.3303, 10.8747], [76.3308, 10.8748], [76.3312, 10.8745], [76.3315, 10.8735], [76.3319, 10.8725], [76.3321, 10.8715], [76.3322, 10.8705], [76.3324, 10.8695], [76.3329, 10.8691], [76.3335, 10.8694], [76.3337, 10.8704], [76.3342, 10.87], [76.3343, 10.8689], [76.3342, 10.8676], [76.3343, 10.8661], [76.3348, 10.8656], [76.3352, 10.8647], [76.3353, 10.8632], [76.3344, 10.8625], [76.334, 10.8618], [76.3339, 10.861], [76.3343, 10.8602], [76.3351, 10.8592]]]}, "properties": {"objectid": 307249, "statename": "KERALA", "statecode": "32", "districtname": "PALAKKAD", "districtcode": "593", "ulbname": "Cherpulassery", "ulbcode": "900209", "wardname": "KUTTIKODE SOUTH", "wardcode": "20", "id": null, "status": "APPROVED", "misglobalid": null, "approved_by": null, "createdate": 1725292468000, "updateddate": 1725440706000, "globalid": null, "gisglobalid": "Bd6acsdn-mBss-PoQB-Qs6Q-a5m4scassP5P", "remark": "", "st_area(shape)": 4.802122959105463e-05, "st_perimeter(shape)": 0.04325871748765079}}, {"type": "Feature", "geometry": {"type": "Polygon", "coordinates": [[[76.334, 10.8712], [76.3337, 10.8704], [76.3335, 10.8694], [76.3329, 10.8691], [76.3324, 10.8695], [76.3322, 10.8705], [76.3321, 10.8715], [76.3319, 10.8725], [76.3315, 10.8735], [76.3312, 10.8745], [76.3308, 10.8748], [76.3303, 10.8747], [76.3303, 10.874], [76.3306, 10.8726], [76.3299, 10.8719], [76.3292, 10.871], [76.3287, 10.8715], [76.3285, 10.873], [76.3288, 10.8742], [76.3295, 10.8754], [76.3304, 10.8761], [76.3312, 10.8772], [76.3314, 10.8786], [76.3315, 10.88], [76.3314, 10.8805], [76.3316, 10.8821], [76.3321, 10.8822], [76.3324, 10.8823], [76.3324, 10.8822], [76.3325, 10.8823], [76.3328, 10.8824], [76.3331, 10.8825], [76.3333, 10.8825], [76.3341, 10.8827], [76.3345, 10.8827], [76.3352, 10.8827], [76.3351, 10.8816], [76.3351, 10.8806], [76.3351, 10.8796], [76.3351, 10.8786], [76.3341, 10.8774], [76.3343, 10.8762], [76.3345, 10.8748], [76.3354, 10.8735], [76.3357, 10.8717], [76.3347, 10.8717], [76.334, 10.8712]]]}, "properties": {"objectid": 307907, "statename": "KERALA", "statecode": "32", "districtname": "PALAKKAD", "districtcode": "593", "ulbname": "Cherpulassery", "ulbcode": "900209", "wardname": "KOOLIYADU", "wardcode": "21", "id": null, "status": "APPROVED", "misglobalid": null, "approved_by": null, "createdate": 1725330451000, "updateddate": 1725440747000, "globalid": null, "gisglobalid": "Qlcd6mPB-lo5a-PsPs-Ql6a-PscB5dBoldRl", "remark": "", "st_area(shape)": 4.950745180194934e-05, "st_perimeter(shape)": 0.0431914861676862}}, {"type": "Feature", "geometry": {"type": "Polygon", "coordinates": [[[76.3287, 10.8702], [76.3285, 10.8701], [76.328, 10.8696], [76.3276, 10.8688], [76.3272, 10.8682], [76.3264, 10.8671], [76.3257, 10.8663], [76.3251, 10.8658], [76.3247, 10.8654], [76.3246, 10.8654], [76.3245, 10.8653], [76.3239, 10.8662], [76.3227, 10.8669], [76.3218, 10.8673], [76.3211, 10.8687], [76.3209, 10.8696], [76.3203, 10.8704], [76.3199, 10.8708], [76.3187, 10.8713], [76.3177, 10.872], [76.317, 10.8734], [76.3164, 10.8751], [76.3177, 10.8748], [76.3189, 10.875], [76.3198, 10.8756], [76.3205, 10.8761], [76.3211, 10.8748], [76.3223, 10.8737], [76.3238, 10.873], [76.3251, 10.8729], [76.3251, 10.8724], [76.3258, 10.8719], [76.3265, 10.8717], [76.3267, 10.8705], [76.327, 10.8703], [76.3287, 10.8702]]]}, "properties": {"objectid": 307250, "statename": "KERALA", "statecode": "32", "districtname": "PALAKKAD", "districtcode": "593", "ulbname": "Cherpulassery", "ulbcode": "900209", "wardname": "ELIYAPPATTA", "wardcode": "22", "id": null, "status": "APPROVED", "misglobalid": null, "approved_by": null, "createdate": 1725292494000, "updateddate": 1725440813000, "globalid": null, "gisglobalid": "KlB55B6o-Bo55-PKsd-QnPs-cKQd5RcPPaKa", "remark": "", "st_area(shape)": 5.5344733137886795e-05, "st_perimeter(shape)": 0.03558577448693247}}, {"type": "Feature", "geometry": {"type": "Polygon", "coordinates": [[[76.3239, 10.8662], [76.3245, 10.8653], [76.324, 10.8648], [76.3233, 10.864], [76.323, 10.8642], [76.3227, 10.8644], [76.3225, 10.8643], [76.3221, 10.8644], [76.3219, 10.8644], [76.3216, 10.8644], [76.3213, 10.8646], [76.3207, 10.8649], [76.3203, 10.8651], [76.3201, 10.8652], [76.3199, 10.8654], [76.3196, 10.8656], [76.3194, 10.8656], [76.3189, 10.8654], [76.3187, 10.8653], [76.3177, 10.8652], [76.3171, 10.865], [76.3171, 10.8645], [76.3172, 10.8641], [76.3172, 10.8639], [76.3171, 10.8632], [76.3171, 10.8628], [76.3171, 10.8627], [76.3172, 10.8625], [76.3172, 10.8624], [76.317, 10.8621], [76.317, 10.8618], [76.3164, 10.8624], [76.3157, 10.8631], [76.3149, 10.8637], [76.3142, 10.8643], [76.3135, 10.865], [76.3129, 10.8658], [76.3123, 10.8666], [76.312, 10.8682], [76.3122, 10.8695], [76.3124, 10.8708], [76.3124, 10.8715], [76.312, 10.8719], [76.3116, 10.8714], [76.3112, 10.871], [76.3105, 10.8709], [76.3098, 10.8711], [76.3097, 10.8716], [76.3099, 10.8721], [76.3107, 10.8725], [76.3117, 10.8729], [76.3113, 10.8739], [76.3121, 10.8752], [76.3128, 10.876], [76.3138, 10.8762], [76.3144, 10.8761], [76.3152, 10.8759], [76.3164, 10.8751], [76.317, 10.8734], [76.3177, 10.872], [76.3187, 10.8713], [76.3199, 10.8708], [76.3203, 10.8704], [76.3209, 10.8696], [76.3211, 10.8687], [76.3218, 10.8673], [76.3227, 10.8669], [76.3239, 10.8662]]]}, "properties": {"objectid": 307251, "statename": "KERALA", "statecode": "32", "districtname": "PALAKKAD", "districtcode": "593", "ulbname": "Cherpulassery", "ulbcode": "900209", "wardname": "KOTTAKKUNNU", "wardcode": "23", "id": null, "status": "APPROVED", "misglobalid": null, "approved_by": null, "createdate": 1725292540000, "updateddate": 1725440848000, "globalid": null, "gisglobalid": "Q5sdBQKP-csaa-PP4a-sQ6P-Pa6oQlKcoa4K", "remark": "", "st_area(shape)": 9.328467584102945e-05, "st_perimeter(shape)": 0.0505915132605792}}, {"type": "Feature", "geometry": {"type": "Polygon", "coordinates": [[[76.2988, 10.8705], [76.2988, 10.8706], [76.2998, 10.8712], [76.3007, 10.8717], [76.3017, 10.8722], [76.3026, 10.8727], [76.3037, 10.8728], [76.3047, 10.8729], [76.306, 10.8728], [76.3073, 10.8727], [76.3091, 10.8727], [76.3098, 10.8728], [76.3104, 10.873], [76.3113, 10.8739], [76.3117, 10.8729], [76.3107, 10.8725], [76.3099, 10.8721], [76.3097, 10.8716], [76.3098, 10.8711], [76.3105, 10.8709], [76.3112, 10.871], [76.3116, 10.8714], [76.312, 10.8719], [76.3124, 10.8715], [76.3124, 10.8708], [76.3122, 10.8695], [76.312, 10.8682], [76.3123, 10.8666], [76.3129, 10.8658], [76.3135, 10.865], [76.3142, 10.8643], [76.3149, 10.8637], [76.3157, 10.8631], [76.3164, 10.8624], [76.317, 10.8618], [76.3171, 10.8614], [76.317, 10.861], [76.3169, 10.8609], [76.3168, 10.8608], [76.3167, 10.8607], [76.3167, 10.8606], [76.3166, 10.8606], [76.3165, 10.8606], [76.3165, 10.8605], [76.3164, 10.8604], [76.3164, 10.8603], [76.3163, 10.8602], [76.3163, 10.8601], [76.3163, 10.8599], [76.3162, 10.8599], [76.3161, 10.8599], [76.316, 10.8599], [76.3159, 10.8599], [76.3159, 10.8597], [76.3158, 10.8596], [76.3156, 10.8595], [76.3153, 10.8594], [76.315, 10.8589], [76.3147, 10.8587], [76.3145, 10.8586], [76.3144, 10.8586], [76.3141, 10.8586], [76.3139, 10.8586], [76.3138, 10.8585], [76.3136, 10.8586], [76.3134, 10.8585], [76.3132, 10.8585], [76.3129, 10.8583], [76.3127, 10.8582], [76.3125, 10.8582], [76.3123, 10.8581], [76.3122, 10.8582], [76.312, 10.8584], [76.3117, 10.8584], [76.3117, 10.8581], [76.3117, 10.8578], [76.3117, 10.8575], [76.311, 10.8573], [76.3108, 10.8573], [76.3108, 10.857], [76.3104, 10.8568], [76.31, 10.8567], [76.3097, 10.8567], [76.3094, 10.8566], [76.3087, 10.8563], [76.3083, 10.8562], [76.3083, 10.8556], [76.3082, 10.8555], [76.3081, 10.8554], [76.3075, 10.8552], [76.3066, 10.855], [76.306, 10.855], [76.3051, 10.8549], [76.3048, 10.8547], [76.3048, 10.855], [76.3047, 10.8552], [76.3047, 10.8553], [76.3046, 10.8554], [76.3046, 10.8557], [76.3046, 10.8559], [76.3046, 10.8561], [76.3046, 10.8562], [76.3046, 10.8563], [76.3045, 10.8564], [76.3045, 10.8566], [76.3045, 10.8568], [76.3045, 10.8569], [76.3045, 10.857], [76.3045, 10.8571], [76.3046, 10.8573], [76.3046, 10.8574], [76.3046, 10.8575], [76.3046, 10.8576], [76.3046, 10.8577], [76.3046, 10.8578], [76.3046, 10.8579], [76.3046, 10.858], [76.3045, 10.858], [76.3045, 10.8581], [76.3044, 10.8581], [76.3044, 10.8582], [76.3043, 10.8582], [76.3043, 10.8583], [76.3042, 10.8583], [76.3041, 10.8584], [76.3041, 10.8585], [76.304, 10.8585], [76.3039, 10.8586], [76.304, 10.8587], [76.304, 10.8588], [76.304, 10.8589], [76.3041, 10.859], [76.3041, 10.8591], [76.3042, 10.8592], [76.3042, 10.8594], [76.3042, 10.8595], [76.3042, 10.8596], [76.3041, 10.8597], [76.3041, 10.8598], [76.3042, 10.8598], [76.3042, 10.8599], [76.3043, 10.8599], [76.3043, 10.86], [76.3044, 10.8601], [76.3045, 10.8601], [76.3045, 10.8602], [76.3046, 10.8603], [76.3047, 10.8603], [76.3047, 10.8604], [76.3048, 10.8605], [76.3049, 10.8606], [76.305, 10.8606], [76.305, 10.8607], [76.3051, 10.8607], [76.3051, 10.8608], [76.3052, 10.8608], [76.3052, 10.8609], [76.3051, 10.861], [76.3051, 10.8611], [76.305, 10.8612], [76.305, 10.8613], [76.305, 10.8614], [76.305, 10.8615], [76.3049, 10.8615], [76.3049, 10.8616], [76.3049, 10.8617], [76.3049, 10.8618], [76.3048, 10.8618], [76.3048, 10.8619], [76.3048, 10.862], [76.3048, 10.8621], [76.3047, 10.8622], [76.3047, 10.8623], [76.3047, 10.8624], [76.3046, 10.8624], [76.3046, 10.8625], [76.3046, 10.8626], [76.3045, 10.8627], [76.3045, 10.8628], [76.3045, 10.8629], [76.3045, 10.863], [76.3044, 10.863], [76.3044, 10.8631], [76.3044, 10.8632], [76.3043, 10.8633], [76.3043, 10.8634], [76.3043, 10.8635], [76.3043, 10.8636], [76.3042, 10.8636], [76.3042, 10.8637], [76.3042, 10.8638], [76.3042, 10.8639], [76.3041, 10.8639], [76.3041, 10.864], [76.3041, 10.8641], [76.304, 10.8642], [76.304, 10.8643], [76.304, 10.8644], [76.3039, 10.8646], [76.3039, 10.8647], [76.3038, 10.8648], [76.3038, 10.8649], [76.3038, 10.865], [76.3037, 10.865], [76.3036, 10.8651], [76.3035, 10.8652], [76.3034, 10.8653], [76.3033, 10.8653], [76.3032, 10.8654], [76.3032, 10.8655], [76.3031, 10.8655], [76.303, 10.8656], [76.3029, 10.8656], [76.3029, 10.8657], [76.3028, 10.8658], [76.3027, 10.8658], [76.3027, 10.8659], [76.3026, 10.8659], [76.3026, 10.866], [76.3026, 10.8661], [76.3025, 10.8661], [76.3025, 10.8662], [76.3025, 10.8663], [76.3024, 10.8663], [76.3024, 10.8664], [76.3024, 10.8665], [76.3023, 10.8665], [76.3023, 10.8666], [76.3022, 10.8667], [76.3021, 10.8667], [76.3021, 10.8668], [76.302, 10.8668], [76.3019, 10.8669], [76.3018, 10.867], [76.3017, 10.8671], [76.3016, 10.8672], [76.3016, 10.8673], [76.3015, 10.8673], [76.3015, 10.8674], [76.3014, 10.8674], [76.3013, 10.8675], [76.3012, 10.8676], [76.3011, 10.8677], [76.301, 10.8678], [76.3009, 10.8678], [76.3009, 10.8679], [76.3009, 10.868], [76.3008, 10.868], [76.3008, 10.8681], [76.3007, 10.8681], [76.3006, 10.8682], [76.3006, 10.8683], [76.3006, 10.8684], [76.3005, 10.8685], [76.3004, 10.8686], [76.3004, 10.8687], [76.3004, 10.8688], [76.3003, 10.8688], [76.3002, 10.8688], [76.3001, 10.8688], [76.3, 10.8688], [76.2999, 10.8689], [76.2998, 10.8689], [76.2998, 10.869], [76.2997, 10.8691], [76.2996, 10.8692], [76.2996, 10.8693], [76.2995, 10.8694], [76.2995, 10.8695], [76.2994, 10.8695], [76.2994, 10.8696], [76.2993, 10.8697], [76.2993, 10.8698], [76.2993, 10.8699], [76.2992, 10.8699], [76.2992, 10.87], [76.2991, 10.87], [76.2991, 10.8701], [76.299, 10.8701], [76.299, 10.8702], [76.2989, 10.8703], [76.2989, 10.8704], [76.2988, 10.8705]]]}, "properties": {"objectid": 308698, "statename": "KERALA", "statecode": "32", "districtname": "PALAKKAD", "districtcode": "593", "ulbname": "Cherpulassery", "ulbcode": "900209", "wardname": "SECRETARYPADI", "wardcode": "24", "id": null, "status": "APPROVED", "misglobalid": null, "approved_by": null, "createdate": 1725355890000, "updateddate": 1725440918000, "globalid": null, "gisglobalid": "n4dcmdPd-odPR-Pada-aPnd-RQ6mn5aRoom4", "remark": "", "st_area(shape)": 0.00017834778009437436, "st_perimeter(shape)": 0.06884283483106578}}, {"type": "Feature", "geometry": {"type": "Polygon", "coordinates": [[[76.3164, 10.8751], [76.3152, 10.8759], [76.3144, 10.8761], [76.3138, 10.8762], [76.3128, 10.876], [76.3121, 10.8752], [76.3113, 10.8739], [76.3104, 10.873], [76.3098, 10.8728], [76.31, 10.8741], [76.3109, 10.8748], [76.3117, 10.8757], [76.3118, 10.8766], [76.3115, 10.8772], [76.3112, 10.8777], [76.3107, 10.8789], [76.3102, 10.88], [76.3102, 10.8801], [76.3113, 10.8805], [76.3121, 10.8805], [76.3128, 10.8809], [76.3134, 10.8816], [76.3137, 10.8827], [76.3145, 10.883], [76.3153, 10.8831], [76.3163, 10.8834], [76.3172, 10.8838], [76.3179, 10.8847], [76.3187, 10.8846], [76.3194, 10.8845], [76.319, 10.8839], [76.3184, 10.8833], [76.3176, 10.882], [76.3167, 10.8806], [76.3159, 10.8798], [76.315, 10.8794], [76.314, 10.879], [76.3139, 10.8784], [76.3142, 10.8781], [76.3153, 10.8778], [76.3159, 10.8772], [76.3161, 10.8763], [76.3164, 10.8751]]]}, "properties": {"objectid": 307252, "statename": "KERALA", "statecode": "32", "districtname": "PALAKKAD", "districtcode": "593", "ulbname": "Cherpulassery", "ulbcode": "900209", "wardname": "CHERPULASSERY", "wardcode": "25", "id": null, "status": "APPROVED", "misglobalid": null, "approved_by": null, "createdate": 1725292681000, "updateddate": 1725441029000, "globalid": null, "gisglobalid": "cmBR6omm-l5Kc-Plco-a6on-R6aRaKooB6lK", "remark": "", "st_area(shape)": 3.623051362937975e-05, "st_perimeter(shape)": 0.04144393116596248}}, {"type": "Feature", "geometry": {"type": "Polygon", "coordinates": [[[76.3112, 10.8777], [76.31, 10.8777], [76.3098, 10.8776], [76.3084, 10.8781], [76.3075, 10.8788], [76.307, 10.8795], [76.3064, 10.8805], [76.3059, 10.8815], [76.3046, 10.8825], [76.3037, 10.8829], [76.3029, 10.8833], [76.302, 10.8836], [76.301, 10.8842], [76.3, 10.8849], [76.2991, 10.8857], [76.2981, 10.8864], [76.297, 10.8871], [76.2963, 10.8878], [76.2956, 10.8884], [76.2973, 10.8882], [76.2988, 10.8887], [76.299, 10.8893], [76.2984, 10.89], [76.2992, 10.8904], [76.3001, 10.8916], [76.3001, 10.8927], [76.3001, 10.8939], [76.3013, 10.8944], [76.3026, 10.8944], [76.3031, 10.8943], [76.3035, 10.8938], [76.304, 10.8934], [76.3049, 10.8933], [76.306, 10.8938], [76.3067, 10.8938], [76.3079, 10.893], [76.3087, 10.8925], [76.3095, 10.892], [76.3099, 10.8911], [76.3103, 10.8903], [76.3113, 10.8889], [76.3113, 10.8884], [76.3103, 10.8881], [76.3096, 10.8873], [76.3094, 10.886], [76.3094, 10.8848], [76.3093, 10.8835], [76.3095, 10.8826], [76.3096, 10.8817], [76.3098, 10.8808], [76.3102, 10.8801], [76.3102, 10.88], [76.3107, 10.8789], [76.3112, 10.8777]]]}, "properties": {"objectid": 309089, "statename": "KERALA", "statecode": "32", "districtname": "PALAKKAD", "districtcode": "593", "ulbname": "Cherpulassery", "ulbcode": "900209", "wardname": "KAVUVATTAM", "wardcode": "26", "id": null, "status": "APPROVED", "misglobalid": null, "approved_by": null, "createdate": 1725292755000, "updateddate": 1725441230000, "globalid": null, "gisglobalid": "d46oQsBB-6KQm-PQ6d-Q6d6-P4aKsQ56amd4", "remark": "", "st_area(shape)": 0.00013147775136933132, "st_perimeter(shape)": 0.05589824387862813}}, {"type": "Feature", "geometry": {"type": "Polygon", "coordinates": [[[76.2988, 10.8707], [76.2988, 10.8708], [76.2987, 10.8708], [76.2987, 10.8709], [76.2987, 10.871], [76.2986, 10.871], [76.2986, 10.8711], [76.2985, 10.8712], [76.2985, 10.8711], [76.2984, 10.8711], [76.2984, 10.8713], [76.2984, 10.8714], [76.2983, 10.8714], [76.2983, 10.8715], [76.2982, 10.8716], [76.2982, 10.8717], [76.2981, 10.8717], [76.2981, 10.8718], [76.298, 10.8719], [76.2979, 10.872], [76.2979, 10.8721], [76.2979, 10.8722], [76.2978, 10.8723], [76.2978, 10.8724], [76.2977, 10.8724], [76.2977, 10.8725], [76.2976, 10.8726], [76.2975, 10.8727], [76.2974, 10.8728], [76.2973, 10.8729], [76.2973, 10.873], [76.2972, 10.8731], [76.2971, 10.8731], [76.297, 10.8732], [76.297, 10.8733], [76.2969, 10.8733], [76.2969, 10.8734], [76.2968, 10.8734], [76.2967, 10.8734], [76.2967, 10.8735], [76.2966, 10.8736], [76.2966, 10.8737], [76.2965, 10.8738], [76.2965, 10.8739], [76.2964, 10.874], [76.2964, 10.8741], [76.2964, 10.8742], [76.2963, 10.8742], [76.2962, 10.8742], [76.2961, 10.8742], [76.296, 10.8742], [76.2959, 10.8741], [76.2958, 10.8741], [76.2957, 10.8741], [76.2956, 10.874], [76.2954, 10.874], [76.2953, 10.874], [76.2952, 10.8739], [76.2952, 10.874], [76.2952, 10.8741], [76.2951, 10.8741], [76.2951, 10.8742], [76.295, 10.8743], [76.295, 10.8744], [76.295, 10.8745], [76.2949, 10.8746], [76.2948, 10.8746], [76.2948, 10.8747], [76.2957, 10.8749], [76.2966, 10.8751], [76.2975, 10.8753], [76.2975, 10.8763], [76.2985, 10.8766], [76.2993, 10.8766], [76.3008, 10.8765], [76.3016, 10.8765], [76.3028, 10.8765], [76.3041, 10.8769], [76.3053, 10.877], [76.3065, 10.8771], [76.3076, 10.8772], [76.3091, 10.8775], [76.3098, 10.8776], [76.31, 10.8777], [76.3112, 10.8777], [76.3115, 10.8772], [76.3118, 10.8766], [76.3117, 10.8757], [76.3109, 10.8748], [76.31, 10.8741], [76.3098, 10.8728], [76.3091, 10.8727], [76.3073, 10.8727], [76.306, 10.8728], [76.3047, 10.8729], [76.3037, 10.8728], [76.3026, 10.8727], [76.3017, 10.8722], [76.3007, 10.8717], [76.2998, 10.8712], [76.2988, 10.8707]]]}, "properties": {"objectid": 307906, "statename": "KERALA", "statecode": "32", "districtname": "PALAKKAD", "districtcode": "593", "ulbname": "Cherpulassery", "ulbcode": "900209", "wardname": "MALMALKUNNU", "wardcode": "27", "id": null, "status": "APPROVED", "misglobalid": null, "approved_by": null, "createdate": 1725292723000, "updateddate": 1725441267000, "globalid": null, "gisglobalid": "mllRaQod-5sQK-PsoR-Rcos-ccc4nPc4QoPo", "remark": "", "st_area(shape)": 6.425280903337146e-05, "st_perimeter(shape)": 0.0417429598764346}}, {"type": "Feature", "geometry": {"type": "Polygon", "coordinates": [[[76.2975, 10.8763], [76.2975, 10.8764], [76.2968, 10.8774], [76.2962, 10.8788], [76.2961, 10.88], [76.296, 10.8813], [76.2957, 10.8821], [76.2954, 10.883], [76.2951, 10.8839], [76.2954, 10.885], [76.2955, 10.8864], [76.2951, 10.8875], [76.2953, 10.8882], [76.2954, 10.8885], [76.2956, 10.8884], [76.2963, 10.8878], [76.297, 10.8871], [76.2981, 10.8864], [76.2991, 10.8857], [76.3, 10.8849], [76.301, 10.8842], [76.302, 10.8836], [76.3029, 10.8833], [76.3037, 10.8829], [76.3046, 10.8825], [76.3059, 10.8815], [76.3064, 10.8805], [76.307, 10.8795], [76.3075, 10.8788], [76.3084, 10.8781], [76.3098, 10.8776], [76.3091, 10.8775], [76.3076, 10.8772], [76.3065, 10.8771], [76.3053, 10.877], [76.3041, 10.8769], [76.3028, 10.8765], [76.3016, 10.8765], [76.3008, 10.8765], [76.2993, 10.8766], [76.2985, 10.8766], [76.2975, 10.8763]]]}, "properties": {"objectid": 309092, "statename": "KERALA", "statecode": "32", "districtname": "PALAKKAD", "districtcode": "593", "ulbname": "Cherpulassery", "ulbcode": "900209", "wardname": "MANCHAKKAL", "wardcode": "28", "id": null, "status": "APPROVED", "misglobalid": null, "approved_by": null, "createdate": 1725292917000, "updateddate": 1725441293000, "globalid": null, "gisglobalid": "QKo5aQBm-BcoK-PPK6-a6mn-l4PaoBcBddoa", "remark": "", "st_area(shape)": 8.701878535010739e-05, "st_perimeter(shape)": 0.04380462558649636}}, {"type": "Feature", "geometry": {"type": "Polygon", "coordinates": [[[76.2924, 10.8765], [76.2924, 10.8766], [76.2923, 10.8767], [76.2922, 10.8768], [76.2922, 10.8769], [76.2921, 10.8769], [76.2921, 10.877], [76.292, 10.8771], [76.2919, 10.8772], [76.2918, 10.8773], [76.2917, 10.8774], [76.2917, 10.8775], [76.2916, 10.8775], [76.2915, 10.8776], [76.2915, 10.8777], [76.2914, 10.8777], [76.2914, 10.8778], [76.2913, 10.8779], [76.2912, 10.878], [76.2911, 10.8781], [76.291, 10.8782], [76.2909, 10.8785], [76.2906, 10.8791], [76.2904, 10.8795], [76.2901, 10.88], [76.2901, 10.8801], [76.29, 10.8801], [76.29, 10.8802], [76.2899, 10.8803], [76.2899, 10.8804], [76.2899, 10.8805], [76.2898, 10.8805], [76.2898, 10.8806], [76.2897, 10.8807], [76.2897, 10.8808], [76.2896, 10.8809], [76.2896, 10.881], [76.2895, 10.8811], [76.2895, 10.8812], [76.2895, 10.8813], [76.2894, 10.8814], [76.2894, 10.8815], [76.2893, 10.8816], [76.2893, 10.8817], [76.2892, 10.8817], [76.2892, 10.8818], [76.2891, 10.8819], [76.2891, 10.882], [76.289, 10.882], [76.2889, 10.8821], [76.2888, 10.8822], [76.2887, 10.8823], [76.2887, 10.8825], [76.2888, 10.8826], [76.2888, 10.8827], [76.2889, 10.8828], [76.2889, 10.8829], [76.2889, 10.883], [76.2888, 10.8831], [76.2888, 10.8832], [76.2888, 10.8833], [76.2888, 10.8834], [76.2887, 10.8835], [76.2887, 10.8836], [76.2887, 10.8837], [76.2886, 10.8837], [76.2886, 10.8838], [76.2886, 10.8839], [76.2886, 10.884], [76.2886, 10.8841], [76.2885, 10.8842], [76.2885, 10.8843], [76.2885, 10.8844], [76.2884, 10.8845], [76.2884, 10.8846], [76.2884, 10.8847], [76.2884, 10.8848], [76.2883, 10.8848], [76.2883, 10.8849], [76.2884, 10.8851], [76.2885, 10.8852], [76.2886, 10.8853], [76.2886, 10.8854], [76.2887, 10.8855], [76.2887, 10.8856], [76.2888, 10.8856], [76.2888, 10.8857], [76.2889, 10.8858], [76.2889, 10.8859], [76.289, 10.8859], [76.289, 10.886], [76.2891, 10.8861], [76.2891, 10.8862], [76.2892, 10.8862], [76.2892, 10.8863], [76.2893, 10.8864], [76.2893, 10.8865], [76.2894, 10.8865], [76.2894, 10.8867], [76.2895, 10.8867], [76.2895, 10.8868], [76.2896, 10.8869], [76.2896, 10.887], [76.2897, 10.8871], [76.2897, 10.8872], [76.2898, 10.8873], [76.2899, 10.8874], [76.29, 10.8875], [76.2901, 10.8876], [76.2902, 10.8877], [76.2902, 10.8878], [76.2903, 10.8879], [76.2903, 10.888], [76.2904, 10.888], [76.2905, 10.888], [76.2907, 10.8881], [76.2907, 10.8882], [76.2908, 10.8883], [76.2909, 10.8883], [76.2909, 10.8884], [76.291, 10.8884], [76.291, 10.8885], [76.2911, 10.8885], [76.2912, 10.8886], [76.2913, 10.8886], [76.2914, 10.8886], [76.2914, 10.8887], [76.2914, 10.8888], [76.2914, 10.8889], [76.2914, 10.889], [76.2914, 10.8891], [76.2914, 10.8892], [76.2914, 10.8893], [76.2914, 10.8894], [76.2914, 10.8895], [76.2913, 10.8895], [76.2913, 10.8896], [76.2912, 10.8896], [76.2912, 10.8897], [76.2911, 10.8897], [76.2911, 10.8898], [76.291, 10.8898], [76.2909, 10.8898], [76.2908, 10.8899], [76.2907, 10.8899], [76.2906, 10.8899], [76.2905, 10.89], [76.2904, 10.89], [76.2903, 10.89], [76.2902, 10.8901], [76.2901, 10.8901], [76.29, 10.8901], [76.29, 10.8902], [76.2899, 10.8903], [76.2898, 10.8902], [76.2897, 10.8902], [76.2896, 10.8901], [76.2895, 10.8901], [76.2894, 10.8901], [76.2893, 10.8901], [76.2892, 10.89], [76.2891, 10.89], [76.289, 10.89], [76.2889, 10.89], [76.2888, 10.89], [76.2887, 10.89], [76.2886, 10.8899], [76.2885, 10.8899], [76.2884, 10.8899], [76.2883, 10.8899], [76.2882, 10.89], [76.2881, 10.89], [76.288, 10.8901], [76.2879, 10.8902], [76.2878, 10.8902], [76.2877, 10.8902], [76.2877, 10.8903], [76.2876, 10.8903], [76.2876, 10.8904], [76.2875, 10.8904], [76.2874, 10.8905], [76.2873, 10.8905], [76.2872, 10.8906], [76.2871, 10.8906], [76.287, 10.8907], [76.2869, 10.8907], [76.2868, 10.8908], [76.2867, 10.8908], [76.2866, 10.8908], [76.2865, 10.8909], [76.2864, 10.8909], [76.2864, 10.891], [76.2863, 10.891], [76.2862, 10.8911], [76.2861, 10.8911], [76.286, 10.8912], [76.2858, 10.8912], [76.2857, 10.8912], [76.2856, 10.8912], [76.2855, 10.8913], [76.2854, 10.8913], [76.2853, 10.8912], [76.2853, 10.8913], [76.2852, 10.8913], [76.2851, 10.8914], [76.2851, 10.8915], [76.285, 10.8915], [76.285, 10.8916], [76.2849, 10.8917], [76.2848, 10.8918], [76.2847, 10.8919], [76.2846, 10.892], [76.2845, 10.892], [76.2845, 10.8921], [76.2844, 10.8922], [76.2843, 10.8922], [76.2843, 10.8923], [76.2842, 10.8924], [76.2841, 10.8924], [76.2841, 10.8925], [76.284, 10.8926], [76.2839, 10.8927], [76.2838, 10.8928], [76.2837, 10.8929], [76.2837, 10.893], [76.2838, 10.8931], [76.2838, 10.8932], [76.2838, 10.8933], [76.2839, 10.8933], [76.2839, 10.8935], [76.2839, 10.8937], [76.2838, 10.8938], [76.2838, 10.8939], [76.2837, 10.8939], [76.2837, 10.894], [76.2836, 10.8941], [76.2836, 10.8942], [76.2835, 10.8942], [76.2835, 10.8943], [76.2834, 10.8944], [76.2833, 10.8944], [76.2833, 10.8945], [76.2832, 10.8946], [76.2832, 10.8947], [76.2831, 10.8947], [76.2831, 10.8948], [76.283, 10.8949], [76.2829, 10.895], [76.2828, 10.895], [76.2827, 10.8951], [76.2826, 10.8951], [76.2825, 10.8952], [76.2824, 10.8953], [76.2823, 10.8953], [76.2822, 10.8953], [76.2822, 10.8954], [76.2821, 10.8954], [76.282, 10.8955], [76.2819, 10.8956], [76.2818, 10.8956], [76.2817, 10.8957], [76.2816, 10.8957], [76.2815, 10.8958], [76.2814, 10.8958], [76.2814, 10.8959], [76.2813, 10.8959], [76.2812, 10.8959], [76.2811, 10.8959], [76.281, 10.896], [76.2809, 10.896], [76.2808, 10.896], [76.2807, 10.896], [76.2806, 10.896], [76.2804, 10.896], [76.2803, 10.8961], [76.2802, 10.8961], [76.2801, 10.8961], [76.28, 10.8961], [76.2798, 10.8961], [76.2797, 10.8962], [76.2796, 10.8962], [76.2795, 10.8962], [76.2794, 10.8962], [76.2793, 10.8962], [76.2792, 10.8963], [76.2791, 10.8963], [76.279, 10.8963], [76.2789, 10.8963], [76.2788, 10.8963], [76.2787, 10.8964], [76.2786, 10.8964], [76.2785, 10.8964], [76.2785, 10.8965], [76.2784, 10.8965], [76.2783, 10.8966], [76.2782, 10.8966], [76.2782, 10.8967], [76.2781, 10.8968], [76.2781, 10.8969], [76.2781, 10.897], [76.278, 10.8971], [76.278, 10.8972], [76.278, 10.8973], [76.278, 10.8974], [76.278, 10.8975], [76.2779, 10.8976], [76.2779, 10.8977], [76.2779, 10.8978], [76.2779, 10.8979], [76.2779, 10.898], [76.2779, 10.8981], [76.2779, 10.8982], [76.2779, 10.8983], [76.2778, 10.8984], [76.2778, 10.8985], [76.2777, 10.8985], [76.2777, 10.8986], [76.2776, 10.8987], [76.2775, 10.8988], [76.2775, 10.8989], [76.2775, 10.899], [76.2776, 10.8991], [76.2776, 10.8992], [76.2776, 10.8993], [76.2775, 10.8994], [76.2776, 10.8995], [76.2776, 10.8996], [76.2775, 10.8997], [76.2775, 10.8999], [76.2775, 10.9], [76.2774, 10.9], [76.2774, 10.9001], [76.2774, 10.9002], [76.2774, 10.9003], [76.2773, 10.9003], [76.2773, 10.9004], [76.2773, 10.9005], [76.2773, 10.9006], [76.2773, 10.9007], [76.2772, 10.9008], [76.2772, 10.9009], [76.2772, 10.901], [76.2772, 10.9011], [76.2772, 10.9012], [76.2772, 10.9013], [76.2773, 10.9014], [76.2773, 10.9015], [76.2773, 10.9016], [76.2774, 10.9016], [76.2774, 10.9017], [76.2775, 10.9018], [76.2776, 10.9019], [76.2776, 10.902], [76.2786, 10.9014], [76.2797, 10.9007], [76.2807, 10.9001], [76.2814, 10.8997], [76.2818, 10.8994], [76.2824, 10.8987], [76.2835, 10.898], [76.2844, 10.898], [76.2854, 10.8975], [76.2857, 10.8974], [76.2865, 10.8976], [76.2868, 10.8974], [76.2876, 10.8971], [76.2883, 10.8971], [76.2884, 10.8971], [76.2889, 10.8969], [76.2894, 10.896], [76.2895, 10.8956], [76.29, 10.8942], [76.2905, 10.893], [76.291, 10.8919], [76.2914, 10.8912], [76.2922, 10.8905], [76.2935, 10.89], [76.2948, 10.8894], [76.2957, 10.889], [76.2954, 10.8885], [76.2953, 10.8882], [76.2951, 10.8875], [76.2955, 10.8864], [76.2954, 10.885], [76.2951, 10.8839], [76.2954, 10.883], [76.2957, 10.8821], [76.296, 10.8813], [76.2961, 10.88], [76.2962, 10.8788], [76.2968, 10.8774], [76.2975, 10.8764], [76.2975, 10.8763], [76.2975, 10.8753], [76.2966, 10.8751], [76.2957, 10.8749], [76.2948, 10.8747], [76.2947, 10.8747], [76.2946, 10.8747], [76.2945, 10.8748], [76.2944, 10.8748], [76.2943, 10.8749], [76.2942, 10.8749], [76.2942, 10.875], [76.2941, 10.875], [76.294, 10.8751], [76.294, 10.8752], [76.2939, 10.8752], [76.2939, 10.8753], [76.2938, 10.8753], [76.2937, 10.8754], [76.2936, 10.8755], [76.2935, 10.8755], [76.2935, 10.8756], [76.2934, 10.8756], [76.2933, 10.8757], [76.2932, 10.8757], [76.2931, 10.8758], [76.2931, 10.8759], [76.293, 10.8759], [76.2929, 10.8759], [76.2929, 10.876], [76.2928, 10.876], [76.2927, 10.8761], [76.2926, 10.8762], [76.2926, 10.8763], [76.2925, 10.8763], [76.2925, 10.8764], [76.2924, 10.8765]]]}, "properties": {"objectid": 309106, "statename": "KERALA", "statecode": "32", "districtname": "PALAKKAD", "districtcode": "593", "ulbname": "Cherpulassery", "ulbcode": "900209", "wardname": "VELLOTTUKURSSI", "wardcode": "29", "id": null, "status": "APPROVED", "misglobalid": null, "approved_by": null, "createdate": 1725330228000, "updateddate": 1725441322000, "globalid": null, "gisglobalid": "BcncaQP5-sKom-PBas-a6na-QPaQanmB5n5n", "remark": "", "st_area(shape)": 0.00015376133469467872, "st_perimeter(shape)": 0.08257817477696251}}, {"type": "Feature", "geometry": {"type": "Polygon", "coordinates": [[[76.293, 10.9072], [76.2937, 10.9064], [76.2947, 10.9059], [76.2955, 10.9049], [76.2965, 10.9035], [76.2971, 10.9027], [76.2977, 10.9019], [76.2981, 10.9007], [76.2989, 10.8996], [76.2991, 10.8987], [76.2994, 10.8977], [76.2999, 10.8964], [76.3, 10.8948], [76.3001, 10.8939], [76.3001, 10.8927], [76.3001, 10.8916], [76.2992, 10.8904], [76.2984, 10.89], [76.299, 10.8893], [76.2988, 10.8887], [76.2973, 10.8882], [76.2956, 10.8884], [76.2954, 10.8885], [76.2957, 10.889], [76.2962, 10.8899], [76.2965, 10.8902], [76.2975, 10.8903], [76.2978, 10.8909], [76.2975, 10.8919], [76.2974, 10.8929], [76.2976, 10.8938], [76.2973, 10.8943], [76.2968, 10.8943], [76.2961, 10.8941], [76.2952, 10.8935], [76.2946, 10.8937], [76.2941, 10.8947], [76.2945, 10.8964], [76.2947, 10.8973], [76.2949, 10.8982], [76.2951, 10.8989], [76.2947, 10.8998], [76.2943, 10.9008], [76.2938, 10.9018], [76.2933, 10.9027], [76.2925, 10.9029], [76.2923, 10.9038], [76.2926, 10.904], [76.2926, 10.9049], [76.2926, 10.9055], [76.2922, 10.9071], [76.2922, 10.9072], [76.2927, 10.907], [76.293, 10.9072]]]}, "properties": {"objectid": 309090, "statename": "KERALA", "statecode": "32", "districtname": "PALAKKAD", "districtcode": "593", "ulbname": "Cherpulassery", "ulbcode": "900209", "wardname": "PANNIYAMKURSSI", "wardcode": "30", "id": null, "status": "APPROVED", "misglobalid": null, "approved_by": null, "createdate": 1725292789000, "updateddate": 1725441382000, "globalid": null, "gisglobalid": "6dRa5Bnl-m4lQ-P5cm-Q6QB-Kna4osQoos5m", "remark": "", "st_area(shape)": 6.669822842907658e-05, "st_perimeter(shape)": 0.05159344593414371}}, {"type": "Feature", "geometry": {"type": "Polygon", "coordinates": [[[76.2895, 10.8956], [76.2903, 10.8955], [76.2913, 10.8951], [76.2916, 10.895], [76.2923, 10.8952], [76.2927, 10.8949], [76.2935, 10.8947], [76.2941, 10.8947], [76.2946, 10.8937], [76.2952, 10.8935], [76.2961, 10.8941], [76.2968, 10.8943], [76.2973, 10.8943], [76.2976, 10.8938], [76.2974, 10.8929], [76.2975, 10.8919], [76.2978, 10.8909], [76.2975, 10.8903], [76.2965, 10.8902], [76.2962, 10.8899], [76.2957, 10.889], [76.2948, 10.8894], [76.2935, 10.89], [76.2922, 10.8905], [76.2914, 10.8912], [76.291, 10.8919], [76.2905, 10.893], [76.29, 10.8942], [76.2895, 10.8956]]]}, "properties": {"objectid": 308696, "statename": "KERALA", "statecode": "32", "districtname": "PALAKKAD", "districtcode": "593", "ulbname": "Cherpulassery", "ulbcode": "900209", "wardname": "CHENTHRATHUPARAMBU", "wardcode": "31", "id": null, "status": "APPROVED", "misglobalid": null, "approved_by": null, "createdate": 1725292842000, "updateddate": 1725441416000, "globalid": null, "gisglobalid": "PQBdKd44-RnnQ-PQQB-Qm5P-6c54Rd4sBR5a", "remark": "", "st_area(shape)": 3.149393429080472e-05, "st_perimeter(shape)": 0.025279356853382857}}, {"type": "Feature", "geometry": {"type": "Polygon", "coordinates": [[[76.2788, 10.9081], [76.2796, 10.908], [76.28, 10.9075], [76.2805, 10.907], [76.281, 10.9068], [76.282, 10.9069], [76.2831, 10.907], [76.2842, 10.9065], [76.285, 10.9064], [76.2858, 10.9066], [76.2866, 10.9069], [76.2869, 10.9065], [76.2869, 10.9049], [76.2864, 10.9035], [76.2864, 10.9019], [76.2868, 10.9005], [76.2877, 10.899], [76.2883, 10.8984], [76.2883, 10.8977], [76.2883, 10.8971], [76.2876, 10.8971], [76.2868, 10.8974], [76.2865, 10.8976], [76.2857, 10.8974], [76.2854, 10.8975], [76.2844, 10.898], [76.2835, 10.898], [76.2824, 10.8987], [76.2818, 10.8994], [76.2814, 10.8997], [76.2807, 10.9001], [76.2804, 10.9011], [76.2802, 10.9021], [76.2799, 10.9031], [76.2796, 10.9041], [76.2794, 10.9051], [76.2791, 10.9061], [76.2789, 10.9078], [76.2788, 10.9081]]]}, "properties": {"objectid": 309091, "statename": "KERALA", "statecode": "32", "districtname": "PALAKKAD", "districtcode": "593", "ulbname": "Cherpulassery", "ulbcode": "900209", "wardname": "VEETTIKKADU", "wardcode": "32", "id": null, "status": "APPROVED", "misglobalid": null, "approved_by": null, "createdate": 1725292891000, "updateddate": 1725441499000, "globalid": null, "gisglobalid": "5B6cnRcn-cPcQ-P5l6-QPdK-445QRBmcPKmd", "remark": "", "st_area(shape)": 6.109374888250174e-05, "st_perimeter(shape)": 0.035909164455786395}}, {"type": "Feature", "geometry": {"type": "Polygon", "coordinates": [[[76.2923, 10.9038], [76.2925, 10.9029], [76.2933, 10.9027], [76.2938, 10.9018], [76.2943, 10.9008], [76.2947, 10.8998], [76.2951, 10.8989], [76.2949, 10.8982], [76.2947, 10.8973], [76.2945, 10.8964], [76.2941, 10.8947], [76.2935, 10.8947], [76.2927, 10.8949], [76.2923, 10.8952], [76.2916, 10.895], [76.2913, 10.8951], [76.2903, 10.8955], [76.2895, 10.8956], [76.2894, 10.896], [76.2889, 10.8969], [76.2884, 10.8971], [76.2883, 10.8971], [76.2883, 10.8977], [76.2883, 10.8984], [76.2877, 10.899], [76.2868, 10.9005], [76.2864, 10.9019], [76.2864, 10.9035], [76.2869, 10.9049], [76.2869, 10.9065], [76.2866, 10.9069], [76.2878, 10.9075], [76.2894, 10.9078], [76.2908, 10.9085], [76.292, 10.9096], [76.2924, 10.9087], [76.293, 10.9078], [76.2931, 10.9073], [76.293, 10.9072], [76.2927, 10.907], [76.2922, 10.9072], [76.2922, 10.9071], [76.2926, 10.9055], [76.2926, 10.9049], [76.2926, 10.904], [76.2923, 10.9038]]]}, "properties": {"objectid": 309093, "statename": "KERALA", "statecode": "32", "districtname": "PALAKKAD", "districtcode": "593", "ulbname": "Cherpulassery", "ulbcode": "900209", "wardname": "NALALUMKUNNU", "wardcode": "33", "id": null, "status": "APPROVED", "misglobalid": null, "approved_by": null, "createdate": 1725292967000, "updateddate": 1725442005000, "globalid": null, "gisglobalid": "m65cPndm-4466-PnlQ-a4oR-5mo5lmPPQmld", "remark": "", "st_area(shape)": 8.225322379111198e-05, "st_perimeter(shape)": 0.041264550124752664}}]}
