{"type":"Topology","arcs":[[[29320,87041],[-194,-10704]],[[29126,76337],[-777,-2817]],[[28349,73520],[0,-281],[-2718,-9014]],[[25631,64225],[-1359,1690]],[[24272,65915],[-3107,3943],[-1165,-3098],[-1942,1408],[-10097,-2253]],[[7961,65915],[-7961,1408],[3107,8169],[-1942,845],[971,5916],[1553,4225],[1748,-563],[4272,4788],[2912,-1408],[2719,4225],[3106,0],[4661,-2817],[582,1127],[5631,-4789]],[[45048,82253],[-777,-13521]],[[44271,68732],[-194,0],[-2912,845]],[[41165,69577],[-5049,1127]],[[36116,70704],[-2912,2535],[776,2253],[-4854,845]],[[29320,87041],[0,6761],[583,6197],[1747,-2253],[9320,-1409],[2913,1127],[3107,-2535],[-1554,-4226],[-388,-8450]],[[36116,70704],[-1747,-3662]],[[34369,67042],[-195,0],[-3106,2253],[-777,3099],[-1942,1126]],[[34369,67042],[-971,-3662]],[[33398,63380],[-1554,-3944]],[[31844,59436],[-6213,4789]],[[41165,69577],[-2525,-10423],[-5242,4226]],[[44271,68732],[5049,-1409]],[[49320,67323],[-9709,-9577]],[[39611,57746],[-2524,-2535]],[[37087,55211],[-194,0],[-971,845]],[[35922,56056],[-4078,3380]],[[35922,56056],[-388,-7042],[-777,-2536]],[[34757,46478],[-194,-281]],[[34563,46197],[0,281]],[[34563,46478],[194,0]],[[34563,46478],[-2330,3381]],[[32233,49859],[-971,5633]],[[31262,55492],[582,3944]],[[32233,49859],[-8932,11831]],[[23301,61690],[971,4225]],[[23301,61690],[-1359,-4789]],[[21942,56901],[-3690,2253],[-7572,1972],[-3496,1690],[777,3099]],[[34563,46197],[-971,-4789],[-388,-7887],[-1942,-5071]],[[31262,28450],[-6020,1409]],[[25242,29859],[-20582,5352]],[[4660,35211],[5631,9296],[2913,2535],[2912,4788],[4078,2254],[1748,2817]],[[37087,55211],[8932,-7324]],[[46019,47887],[-583,-2535],[-5242,-16057],[1359,-1408],[-1553,-3099],[-3301,564],[-5437,3098]],[[47378,51830],[-1359,-3943]],[[39611,57746],[2330,-2535],[2525,-845]],[[44466,54366],[2912,-2536]],[[59805,71267],[-2912,-9577],[-2525,-564],[-5436,1690],[-389,-5070],[583,-5352],[-1748,-564]],[[45048,82253],[7573,-3662],[-194,-2535],[6796,-2817],[582,-1972]],[[78640,21690],[-4854,3662],[-20194,16619],[-7573,5916]],[[59805,71267],[7379,1127],[388,-1409],[11651,-1690],[5631,-1690],[2330,-3099],[1941,282],[4272,-1690],[0,-1408],[3689,-2254],[-388,-2253],[3301,-1691],[-3495,-6760],[-4854,-14084],[0,-4226],[-4855,-6760],[-8155,-1972]],[[78640,21690],[-2913,-7606],[2525,-4225],[-3495,-8169],[-1748,-563],[-11650,-1127],[-2913,2253],[-6602,6479]],[[51844,8732],[-4854,-8450],[-389,1971],[-3300,2254],[-4855,563],[-4466,2536],[-2524,-282],[-1165,2253],[-3301,282],[-2718,1972],[3106,7605]],[[27378,19436],[-4271,1691],[388,4225],[1942,0],[-195,4507]]],"transform":{"scale":[5.150051500515437e-7,3.550035500355256e-7],"translate":[78.3532,26.6513]},"objects":{"wards":{"type":"GeometryCollection","geometries":[{"arcs":[[0,1,2,3,4,5]],"type":"Polygon","properties":{"objectid":32229,"statename":"Madhya Pradesh","statecode":"23","districtname":null,"districtcode":"419","ulbname":"Porsa","ulbcode":"802082","wardname":"","wardcode":"1","id":null,"status":"APPROVED","misglobalid":null,"approved_by":"ULB Nodal Officer","createdate":1636277550000,"updateddate":1636277598000,"globalid":"sPnRKoRo-KKcR-PmBl-RQmm-PacBPnPcPans","gisglobalid":"9a481abf-89a0-4c55-aca6-53b513dee07c","remark":"","st_area(shape)":0.00011183731351961835,"st_perimeter(shape)":0.04954912144392907}},{"arcs":[[6,7,8,9,-1,10]],"type":"Polygon","properties":{"objectid":31811,"statename":"Madhya Pradesh","statecode":"23","districtname":null,"districtcode":"419","ulbname":"Porsa","ulbcode":"802082","wardname":"","wardcode":"2","id":null,"status":"APPROVED","misglobalid":null,"approved_by":"ULB Nodal Officer","createdate":1636277550000,"updateddate":1636277618000,"globalid":"snQQcadK-QRoB-Psc4-s5cm-Kdm4KQQdm4P4","gisglobalid":"16df0e20-dc53-4509-999c-fb068d69f0d0","remark":"","st_area(shape)":0.00007465499961822352,"st_perimeter(shape)":0.03775125976379254}},{"arcs":[[11,12,2,-3,-2,-10]],"type":"Polygon","properties":{"objectid":31812,"statename":"Madhya Pradesh","statecode":"23","districtname":null,"districtcode":"419","ulbname":"Porsa","ulbcode":"802082","wardname":"","wardcode":"3","id":null,"status":"APPROVED","misglobalid":null,"approved_by":"ULB Nodal Officer","createdate":1636277550000,"updateddate":1636277638000,"globalid":"Q54onosl-QRm5-P56l-R4ls-P6PRKKaQodoc","gisglobalid":"d2eaea16-bdcc-4ddd-b0a7-e31190b32179","remark":"","st_area(shape)":0.000006906988914056898,"st_perimeter(shape)":0.01282715265871403}},{"arcs":[[-13,13,14,15,-3]],"type":"Polygon","properties":{"objectid":32230,"statename":"Madhya Pradesh","statecode":"23","districtname":null,"districtcode":"419","ulbname":"Porsa","ulbcode":"802082","wardname":"","wardcode":"4","id":null,"status":"APPROVED","misglobalid":null,"approved_by":"ULB Nodal Officer","createdate":1636277550000,"updateddate":1636277622000,"globalid":"5RPcs6Po-aRm5-PQoK-s4o5-cdR4dQKPdKdl","gisglobalid":"4973bb1a-29d7-49a7-848c-4a3490d27047","remark":"","st_area(shape)":0.000012043193395283034,"st_perimeter(shape)":0.014363289009815818}},{"arcs":[[16,-14,12,-13,-12,-9]],"type":"Polygon","properties":{"objectid":34263,"statename":"Madhya Pradesh","statecode":"23","districtname":null,"districtcode":"419","ulbname":"Porsa","ulbcode":"802082","wardname":"","wardcode":"5","id":null,"status":"APPROVED","misglobalid":null,"approved_by":"ULB Nodal Officer","createdate":1636277550000,"updateddate":1636277634000,"globalid":"KBKQsQdm-lod6-PaBm-snQQ-lBP4Rc6dsdda","gisglobalid":"cf2d8b63-8e9a-45f0-aa8e-b458595e3620","remark":"","st_area(shape)":0.000009389902309716533,"st_perimeter(shape)":0.013540847585460385}},{"arcs":[[-8,17,18,19,20,21,-15,-17]],"type":"Polygon","properties":{"objectid":33856,"statename":"Madhya Pradesh","statecode":"23","districtname":null,"districtcode":"419","ulbname":"Porsa","ulbcode":"802082","wardname":"","wardcode":"6","id":null,"status":"APPROVED","misglobalid":null,"approved_by":"ULB Nodal Officer","createdate":1636277550000,"updateddate":1636277626000,"globalid":"Qlaa4aQB-oQoa-Po5B-sc4d-md45Qsnn5oK4","gisglobalid":"3dfdcb6e-4931-408a-8366-cc308b998236","remark":"","st_area(shape)":0.000016726517330908647,"st_perimeter(shape)":0.024494884056589335}},{"arcs":[[22,23,24,25,-26,26,27,28,-22]],"type":"Polygon","properties":{"objectid":33855,"statename":"Madhya Pradesh","statecode":"23","districtname":null,"districtcode":"419","ulbname":"Porsa","ulbcode":"802082","wardname":"","wardcode":"7","id":null,"status":"APPROVED","misglobalid":null,"approved_by":"ULB Nodal Officer","createdate":1636277550000,"updateddate":1636277594000,"globalid":"dQB6Qa5Q-K5l5-PPd5-aKRa-m45sdBdoBPQ6","gisglobalid":"a1eff7f2-4b26-4773-a17c-02e550463406","remark":"","st_area(shape)":0.000007011506758499902,"st_perimeter(shape)":0.012755652378114294}},{"arcs":[[-16,-29,-28,29,30,-4]],"type":"Polygon","properties":{"objectid":34262,"statename":"Madhya Pradesh","statecode":"23","districtname":null,"districtcode":"419","ulbname":"Porsa","ulbcode":"802082","wardname":"","wardcode":"8","id":null,"status":"APPROVED","misglobalid":null,"approved_by":"ULB Nodal Officer","createdate":1636277550000,"updateddate":1636277611000,"globalid":"lRBo464s-KKco-PBQa-a6s4-oRo5amQRsBKB","gisglobalid":"7e9bb4bf-adfe-47a3-9127-e237bd114c7b","remark":"","st_area(shape)":0.000009597499529983785,"st_perimeter(shape)":0.017183594298660405}},{"arcs":[[-31,31,32,-5]],"type":"Polygon","properties":{"objectid":33854,"statename":"Madhya Pradesh","statecode":"23","districtname":null,"districtcode":"419","ulbname":"Porsa","ulbcode":"802082","wardname":"","wardcode":"9","id":null,"status":"APPROVED","misglobalid":null,"approved_by":"ULB Nodal Officer","createdate":1636277550000,"updateddate":1636277590000,"globalid":"QcscmKo6-dPnd-Po45-QcsB-dKl6ssc5nlKB","gisglobalid":"98723b13-f4ad-4fd0-9337-989555d57620","remark":"","st_area(shape)":0.000022266271082403832,"st_perimeter(shape)":0.023442933056181222}},{"arcs":[[-27,25,-26,-25,33,34,35,36,-32,-30]],"type":"Polygon","properties":{"objectid":31809,"statename":"Madhya Pradesh","statecode":"23","districtname":null,"districtcode":"419","ulbname":"Porsa","ulbcode":"802082","wardname":"","wardcode":"10","id":null,"status":"APPROVED","misglobalid":null,"approved_by":"ULB Nodal Officer","createdate":1636277550000,"updateddate":1636277605000,"globalid":"adcsKo5n-nPs5-PaPc-aRQm-KsQKBKa5oBnn","gisglobalid":"e4dda1d1-8203-46bf-afed-5216370d931a","remark":"","st_area(shape)":0.00010047844728379522,"st_perimeter(shape)":0.04280736041054398}},{"arcs":[[-21,37,38,-34,-24,-23]],"type":"Polygon","properties":{"objectid":33857,"statename":"Madhya Pradesh","statecode":"23","districtname":null,"districtcode":"419","ulbname":"Porsa","ulbcode":"802082","wardname":"","wardcode":"11","id":null,"status":"APPROVED","misglobalid":null,"approved_by":"ULB Nodal Officer","createdate":1636277550000,"updateddate":1636277642000,"globalid":"KnlQas46-K4lm-Pcas-QPcd-mmoooocaa6Ks","gisglobalid":"d3c5323b-ba89-4e9d-b1cf-503bf715540d","remark":"","st_area(shape)":0.00004633939527217924,"st_perimeter(shape)":0.03102495231154037}},{"arcs":[[39,-38,20,-21,-20,40,41]],"type":"Polygon","properties":{"objectid":32231,"statename":"Madhya Pradesh","statecode":"23","districtname":null,"districtcode":"419","ulbname":"Porsa","ulbcode":"802082","wardname":"","wardcode":"12","id":null,"status":"APPROVED","misglobalid":null,"approved_by":"ULB Nodal Officer","createdate":1636277550000,"updateddate":1636277630000,"globalid":"mPddsdod-Q4cl-PcsQ-QcBo-laddP4BoP6Ps","gisglobalid":"47d12388-8636-49fd-bafe-3c01c80627ff","remark":"","st_area(shape)":0.000007813103727444222,"st_perimeter(shape)":0.013743859190777209}},{"arcs":[[42,-42,-41,-19,-18,7,-8,-7,43]],"type":"Polygon","properties":{"objectid":31810,"statename":"Madhya Pradesh","statecode":"23","districtname":null,"districtcode":"419","ulbname":"Porsa","ulbcode":"802082","wardname":"","wardcode":"13","id":null,"status":"APPROVED","misglobalid":null,"approved_by":"ULB Nodal Officer","createdate":1636277550000,"updateddate":1636277615000,"globalid":"omPmRBlK-oKKP-Pnn4-RaKm-lalBamnlKQoB","gisglobalid":"0934f9b3-6ffb-4fa0-aec0-bb79d27ee2d7","remark":"","st_area(shape)":0.000048323948519936394,"st_perimeter(shape)":0.04223660613971919}},{"arcs":[[44,-40,-43,45]],"type":"Polygon","properties":{"objectid":34261,"statename":"Madhya Pradesh","statecode":"23","districtname":null,"districtcode":"419","ulbname":"Porsa","ulbcode":"802082","wardname":"","wardcode":"14","id":null,"status":"APPROVED","misglobalid":null,"approved_by":"ULB Nodal Officer","createdate":1636277550000,"updateddate":1636277602000,"globalid":"QP6o5KB4-BlBo-P4oP-asoK-RRQ6mBPBoBQK","gisglobalid":"4d7fb85d-2235-4841-85ab-63e5873c0ccf","remark":"","st_area(shape)":0.0003122308078272649,"st_perimeter(shape)":0.07739197140382326}},{"arcs":[[46,47,48,-35,-39,-45]],"type":"Polygon","properties":{"objectid":33853,"statename":"Madhya Pradesh","statecode":"23","districtname":null,"districtcode":"419","ulbname":"Porsa","ulbcode":"802082","wardname":"","wardcode":"15","id":null,"status":"APPROVED","misglobalid":null,"approved_by":"ULB Nodal Officer","createdate":1636277550000,"updateddate":1636277585000,"globalid":"5Ral4cQd-so6d-PnoR-aK64-R5KcPomnRosm","gisglobalid":"7ed5b683-5385-4d6f-a87a-e1c9533737fe","remark":"","st_area(shape)":0.00027612886059587434,"st_perimeter(shape)":0.08630837302376405}}]}}}