{"type": "FeatureCollection", "features": [{"type": "Feature", "geometry": {"type": "MultiPolygon", "coordinates": [[[[80.1543, 21.0951], [80.1542, 21.0951], [80.1542, 21.0952], [80.1541, 21.0952], [80.154, 21.0953], [80.1539, 21.0953], [80.1538, 21.0954], [80.1537, 21.0954], [80.1537, 21.0955], [80.1536, 21.0955], [80.1536, 21.0956], [80.1535, 21.0956], [80.1535, 21.0957], [80.1534, 21.0958], [80.1533, 21.0958], [80.1533, 21.0959], [80.1532, 21.0959], [80.1532, 21.096], [80.1531, 21.096], [80.153, 21.096], [80.153, 21.0959], [80.153, 21.0958], [80.1529, 21.0958], [80.1528, 21.0958], [80.1527, 21.0958], [80.1526, 21.0958], [80.1526, 21.0959], [80.1525, 21.0959], [80.1524, 21.0959], [80.1523, 21.0959], [80.1522, 21.096], [80.1522, 21.0961], [80.1522, 21.0962], [80.1522, 21.0963], [80.1523, 21.0963], [80.1523, 21.0964], [80.1523, 21.0965], [80.1523, 21.0966], [80.1522, 21.0966], [80.1522, 21.0967], [80.1522, 21.0968], [80.1522, 21.0969], [80.1522, 21.097], [80.1522, 21.0971], [80.1522, 21.0972], [80.1522, 21.0973], [80.1522, 21.0974], [80.1522, 21.0975], [80.1523, 21.0975], [80.1523, 21.0976], [80.1523, 21.0977], [80.1523, 21.0978], [80.1522, 21.0978], [80.1522, 21.0979], [80.1523, 21.0979], [80.1523, 21.098], [80.1524, 21.098], [80.1525, 21.098], [80.1525, 21.0981], [80.1526, 21.0981], [80.1527, 21.0981], [80.1528, 21.0981], [80.1529, 21.0981], [80.1529, 21.0982], [80.153, 21.0982], [80.1531, 21.0982], [80.1532, 21.0982], [80.1533, 21.0982], [80.1534, 21.0982], [80.1535, 21.0982], [80.1536, 21.0982], [80.1537, 21.0982], [80.1537, 21.0981], [80.1538, 21.0981], [80.1539, 21.0981], [80.154, 21.0981], [80.1541, 21.0981], [80.1542, 21.0981], [80.1543, 21.0981], [80.1544, 21.0981], [80.1545, 21.0981], [80.1545, 21.098], [80.1545, 21.0979], [80.1545, 21.0978], [80.1545, 21.0977], [80.1545, 21.0976], [80.1545, 21.0975], [80.1545, 21.0974], [80.1545, 21.0973], [80.1544, 21.0972], [80.1545, 21.0971], [80.1545, 21.097], [80.1545, 21.0969], [80.1544, 21.0969], [80.1544, 21.0968], [80.1545, 21.0967], [80.1544, 21.0967], [80.1544, 21.0966], [80.1544, 21.0965], [80.1544, 21.0964], [80.1545, 21.0964], [80.1544, 21.0964], [80.1544, 21.0963], [80.1544, 21.0962], [80.1544, 21.0961], [80.1544, 21.096], [80.1544, 21.0959], [80.1544, 21.0958], [80.1544, 21.0957], [80.1544, 21.0956], [80.1544, 21.0955], [80.1544, 21.0954], [80.1544, 21.0953], [80.1544, 21.0952], [80.1544, 21.0951], [80.1543, 21.0951]]], [[[80.1543, 21.0951], [80.1544, 21.0951], [80.1543, 21.0951]]]]}, "properties": {"objectid": 64440, "statename": "Maharashtra", "statecode": "27", "districtname": "", "districtcode": "507", "ulbname": "Sadak Arjuni", "ulbcode": "900363", "wardname": "Ward 1", "wardcode": "1", "id": null, "status": "APPROVED", "misglobalid": null, "approved_by": null, "createdate": 1644412327000, "updateddate": 1644417716000, "globalid": null, "gisglobalid": "PlP45QR5-ocm4-PcdK-anlP-cPRnsacKc4Ba", "remark": "", "st_area(shape)": 5.4722491630261805e-06, "st_perimeter(shape)": 0.010347597278765315}}, {"type": "Feature", "geometry": {"type": "Polygon", "coordinates": [[[80.1545, 21.0954], [80.1545, 21.0955], [80.1545, 21.0956], [80.1545, 21.0957], [80.1545, 21.0958], [80.1545, 21.0959], [80.1545, 21.096], [80.1545, 21.0961], [80.1545, 21.0962], [80.1545, 21.0963], [80.1545, 21.0964], [80.1545, 21.0965], [80.1545, 21.0966], [80.1545, 21.0967], [80.1545, 21.0968], [80.1545, 21.0969], [80.1545, 21.097], [80.1545, 21.0971], [80.1545, 21.0972], [80.1545, 21.0973], [80.1545, 21.0974], [80.1545, 21.0975], [80.1546, 21.0975], [80.1546, 21.0976], [80.1546, 21.0977], [80.1545, 21.0977], [80.1546, 21.0978], [80.1546, 21.0979], [80.1546, 21.098], [80.1546, 21.0981], [80.1546, 21.0982], [80.1547, 21.0982], [80.1548, 21.0982], [80.1549, 21.0982], [80.155, 21.0982], [80.1551, 21.0982], [80.1552, 21.0982], [80.1553, 21.0982], [80.1554, 21.0982], [80.1554, 21.0981], [80.1555, 21.0981], [80.1556, 21.0981], [80.1557, 21.0981], [80.1558, 21.098], [80.1559, 21.098], [80.1559, 21.0979], [80.1559, 21.0978], [80.1559, 21.0977], [80.1559, 21.0976], [80.1559, 21.0975], [80.156, 21.0974], [80.156, 21.0973], [80.156, 21.0972], [80.156, 21.0971], [80.156, 21.097], [80.1561, 21.097], [80.1561, 21.0969], [80.156, 21.0968], [80.156, 21.0967], [80.156, 21.0966], [80.156, 21.0965], [80.156, 21.0964], [80.1559, 21.0964], [80.1558, 21.0964], [80.1557, 21.0964], [80.1557, 21.0965], [80.1556, 21.0965], [80.1555, 21.0965], [80.1555, 21.0964], [80.1555, 21.0963], [80.1555, 21.0962], [80.1554, 21.0961], [80.1554, 21.096], [80.1553, 21.096], [80.1553, 21.0959], [80.1553, 21.0958], [80.1553, 21.0957], [80.1552, 21.0957], [80.1552, 21.0956], [80.1552, 21.0955], [80.1552, 21.0954], [80.1551, 21.0953], [80.155, 21.0953], [80.1549, 21.0953], [80.1548, 21.0953], [80.1548, 21.0954], [80.1547, 21.0954], [80.1546, 21.0954], [80.1545, 21.0954]]]}, "properties": {"objectid": 64980, "statename": "Maharashtra", "statecode": "27", "districtname": "", "districtcode": "507", "ulbname": "Sadak Arjuni", "ulbcode": "900363", "wardname": "Ward 2", "wardcode": "2", "id": null, "status": "APPROVED", "misglobalid": null, "approved_by": null, "createdate": 1644417597000, "updateddate": 1644417727000, "globalid": null, "gisglobalid": "6RRm4caQ-sRP5-P6QB-QloB-mma5naBPln6a", "remark": "", "st_area(shape)": 3.3626360153701166e-06, "st_perimeter(shape)": 0.008142720322879127}}, {"type": "Feature", "geometry": {"type": "Polygon", "coordinates": [[[80.1571, 21.0937], [80.1571, 21.0938], [80.1571, 21.0939], [80.1571, 21.094], [80.157, 21.094], [80.157, 21.0941], [80.1571, 21.0941], [80.1571, 21.0942], [80.1571, 21.0943], [80.1571, 21.0944], [80.1571, 21.0945], [80.1571, 21.0946], [80.1572, 21.0946], [80.1572, 21.0947], [80.1572, 21.0948], [80.1571, 21.0948], [80.1572, 21.0948], [80.1572, 21.0949], [80.1572, 21.095], [80.1572, 21.0951], [80.1572, 21.0952], [80.1571, 21.0953], [80.157, 21.0953], [80.1569, 21.0954], [80.1568, 21.0954], [80.1567, 21.0954], [80.1566, 21.0954], [80.1565, 21.0954], [80.1564, 21.0954], [80.1563, 21.0954], [80.1563, 21.0955], [80.1562, 21.0955], [80.1561, 21.0955], [80.156, 21.0954], [80.1559, 21.0954], [80.1559, 21.0953], [80.1558, 21.0953], [80.1557, 21.0953], [80.1557, 21.0952], [80.1556, 21.0952], [80.1555, 21.0952], [80.1554, 21.0952], [80.1554, 21.0953], [80.1553, 21.0953], [80.1552, 21.0953], [80.1552, 21.0954], [80.1552, 21.0955], [80.1553, 21.0956], [80.1553, 21.0957], [80.1553, 21.0958], [80.1554, 21.0958], [80.1554, 21.0959], [80.1554, 21.096], [80.1555, 21.096], [80.1555, 21.0961], [80.1556, 21.0962], [80.1556, 21.0963], [80.1555, 21.0963], [80.1556, 21.0963], [80.1556, 21.0964], [80.1557, 21.0964], [80.1558, 21.0964], [80.1558, 21.0963], [80.1559, 21.0963], [80.156, 21.0963], [80.156, 21.0964], [80.156, 21.0965], [80.1561, 21.0965], [80.156, 21.0965], [80.1561, 21.0965], [80.1561, 21.0966], [80.1561, 21.0967], [80.1561, 21.0968], [80.1561, 21.0969], [80.1561, 21.097], [80.1561, 21.0971], [80.1561, 21.0972], [80.156, 21.0973], [80.156, 21.0974], [80.156, 21.0975], [80.156, 21.0976], [80.156, 21.0977], [80.156, 21.0978], [80.156, 21.0979], [80.1561, 21.0979], [80.1561, 21.0978], [80.1562, 21.0978], [80.1562, 21.0977], [80.1562, 21.0976], [80.1563, 21.0976], [80.1563, 21.0975], [80.1564, 21.0975], [80.1564, 21.0974], [80.1565, 21.0974], [80.1566, 21.0973], [80.1567, 21.0973], [80.1567, 21.0972], [80.1567, 21.0971], [80.1568, 21.0971], [80.1568, 21.097], [80.1568, 21.0969], [80.1569, 21.0968], [80.1569, 21.0967], [80.1569, 21.0966], [80.1569, 21.0965], [80.157, 21.0965], [80.157, 21.0964], [80.1571, 21.0964], [80.1571, 21.0963], [80.1571, 21.0962], [80.1571, 21.0961], [80.1572, 21.096], [80.1573, 21.096], [80.1573, 21.0959], [80.1573, 21.0958], [80.1574, 21.0958], [80.1574, 21.0957], [80.1575, 21.0957], [80.1576, 21.0957], [80.1576, 21.0956], [80.1577, 21.0956], [80.1578, 21.0955], [80.1579, 21.0955], [80.158, 21.0955], [80.1581, 21.0954], [80.1582, 21.0954], [80.1583, 21.0954], [80.1583, 21.0953], [80.1584, 21.0953], [80.1584, 21.0952], [80.1585, 21.0952], [80.1586, 21.0952], [80.1586, 21.0951], [80.1586, 21.095], [80.1586, 21.0949], [80.1585, 21.0949], [80.1585, 21.0948], [80.1585, 21.0947], [80.1585, 21.0946], [80.1584, 21.0946], [80.1584, 21.0945], [80.1584, 21.0944], [80.1583, 21.0944], [80.1583, 21.0943], [80.1583, 21.0942], [80.1584, 21.0942], [80.1584, 21.0941], [80.1584, 21.094], [80.1584, 21.0939], [80.1585, 21.0939], [80.1585, 21.0938], [80.1585, 21.0937], [80.1584, 21.0937], [80.1583, 21.0937], [80.1582, 21.0937], [80.1581, 21.0937], [80.158, 21.0937], [80.1579, 21.0937], [80.1578, 21.0937], [80.1577, 21.0937], [80.1576, 21.0937], [80.1575, 21.0937], [80.1574, 21.0937], [80.1573, 21.0937], [80.1572, 21.0937], [80.1571, 21.0937]]]}, "properties": {"objectid": 68328, "statename": "Maharashtra", "statecode": "27", "districtname": "", "districtcode": "507", "ulbname": "Sadak Arjuni", "ulbcode": "900363", "wardname": "Ward 3", "wardcode": "3", "id": null, "status": "APPROVED", "misglobalid": null, "approved_by": null, "createdate": 1644413583000, "updateddate": 1644417743000, "globalid": null, "gisglobalid": "4BBlsdBo-sc65-PoBa-sac6-6lQacaQ5Qnca", "remark": "", "st_area(shape)": 5.1946745442796195e-06, "st_perimeter(shape)": 0.013903373220137509}}, {"type": "Feature", "geometry": {"type": "MultiPolygon", "coordinates": [[[[80.1545, 21.0953], [80.1546, 21.0953], [80.1547, 21.0953], [80.1548, 21.0953], [80.1549, 21.0953], [80.155, 21.0953], [80.1551, 21.0953], [80.1552, 21.0952], [80.1553, 21.0952], [80.1554, 21.0952], [80.1555, 21.0952], [80.1556, 21.0952], [80.1557, 21.0952], [80.1558, 21.0952], [80.1559, 21.0952], [80.156, 21.0953], [80.1561, 21.0953], [80.1561, 21.0954], [80.1562, 21.0954], [80.1563, 21.0954], [80.1564, 21.0953], [80.1564, 21.0954], [80.1565, 21.0954], [80.1565, 21.0953], [80.1566, 21.0953], [80.1567, 21.0953], [80.1568, 21.0953], [80.1569, 21.0953], [80.1569, 21.0952], [80.157, 21.0952], [80.1571, 21.0952], [80.1571, 21.0951], [80.1571, 21.095], [80.1571, 21.0949], [80.1571, 21.0948], [80.1571, 21.0947], [80.1571, 21.0946], [80.1571, 21.0945], [80.157, 21.0945], [80.157, 21.0944], [80.157, 21.0943], [80.157, 21.0942], [80.157, 21.0941], [80.157, 21.094], [80.157, 21.0939], [80.157, 21.0938], [80.157, 21.0937], [80.1569, 21.0936], [80.1568, 21.0936], [80.1567, 21.0936], [80.1566, 21.0936], [80.1565, 21.0936], [80.1564, 21.0936], [80.1563, 21.0936], [80.1562, 21.0936], [80.1561, 21.0936], [80.156, 21.0936], [80.1559, 21.0936], [80.1559, 21.0935], [80.1558, 21.0935], [80.1557, 21.0935], [80.1556, 21.0935], [80.1555, 21.0935], [80.1554, 21.0935], [80.1553, 21.0935], [80.1552, 21.0935], [80.1551, 21.0935], [80.155, 21.0935], [80.1549, 21.0935], [80.1548, 21.0935], [80.1547, 21.0935], [80.1546, 21.0935], [80.1545, 21.0935], [80.1544, 21.0935], [80.1543, 21.0935], [80.1544, 21.0935], [80.1544, 21.0936], [80.1544, 21.0937], [80.1544, 21.0938], [80.1544, 21.0939], [80.1544, 21.094], [80.1544, 21.0941], [80.1544, 21.0942], [80.1544, 21.0943], [80.1544, 21.0944], [80.1544, 21.0945], [80.1544, 21.0946], [80.1544, 21.0947], [80.1544, 21.0948], [80.1544, 21.0949], [80.1545, 21.095], [80.1545, 21.0951], [80.1545, 21.0952], [80.1545, 21.0953]]], [[[80.1545, 21.0953]]], [[[80.1545, 21.0953], [80.1545, 21.0954], [80.1545, 21.0953]]]]}, "properties": {"objectid": 78623, "statename": "Maharashtra", "statecode": "27", "districtname": "", "districtcode": "507", "ulbname": "Sadak Arjuni", "ulbcode": "900363", "wardname": "Ward 4", "wardcode": "4", "id": null, "status": "APPROVED", "misglobalid": null, "approved_by": null, "createdate": 1644413268000, "updateddate": 1644417753000, "globalid": null, "gisglobalid": "nnc55snK-oloa-Pomn-aQss-nmnc56naaoQB", "remark": "", "st_area(shape)": 4.5585773280711006e-06, "st_perimeter(shape)": 0.008949191132493603}}, {"type": "Feature", "geometry": {"type": "Polygon", "coordinates": [[[80.1543, 21.0935], [80.1542, 21.0935], [80.1541, 21.0935], [80.154, 21.0935], [80.1539, 21.0935], [80.1538, 21.0935], [80.1537, 21.0935], [80.1536, 21.0935], [80.1535, 21.0935], [80.1534, 21.0935], [80.1533, 21.0935], [80.1532, 21.0935], [80.1531, 21.0935], [80.153, 21.0935], [80.1529, 21.0935], [80.1529, 21.0934], [80.1529, 21.0935], [80.1528, 21.0934], [80.1528, 21.0935], [80.1528, 21.0936], [80.1527, 21.0936], [80.1528, 21.0936], [80.1528, 21.0937], [80.1528, 21.0938], [80.1527, 21.0938], [80.1527, 21.0939], [80.1527, 21.094], [80.1527, 21.0941], [80.1527, 21.0942], [80.1527, 21.0943], [80.1527, 21.0944], [80.1526, 21.0944], [80.1526, 21.0945], [80.1525, 21.0945], [80.1525, 21.0946], [80.1525, 21.0947], [80.1524, 21.0947], [80.1524, 21.0948], [80.1524, 21.0949], [80.1523, 21.0949], [80.1522, 21.0949], [80.1522, 21.095], [80.1521, 21.0951], [80.1521, 21.0952], [80.1521, 21.0953], [80.1521, 21.0954], [80.1521, 21.0955], [80.1521, 21.0956], [80.1521, 21.0957], [80.1521, 21.0958], [80.1522, 21.0958], [80.1521, 21.0959], [80.1522, 21.0959], [80.1523, 21.0959], [80.1524, 21.0959], [80.1524, 21.0958], [80.1525, 21.0958], [80.1526, 21.0958], [80.1527, 21.0958], [80.1528, 21.0958], [80.1528, 21.0957], [80.1529, 21.0957], [80.153, 21.0957], [80.153, 21.0958], [80.153, 21.0959], [80.153, 21.096], [80.1531, 21.096], [80.1531, 21.0959], [80.1532, 21.0959], [80.1532, 21.0958], [80.1533, 21.0958], [80.1534, 21.0957], [80.1534, 21.0956], [80.1535, 21.0956], [80.1536, 21.0955], [80.1537, 21.0955], [80.1537, 21.0954], [80.1538, 21.0954], [80.1538, 21.0953], [80.1539, 21.0953], [80.1539, 21.0952], [80.154, 21.0952], [80.1541, 21.0952], [80.1541, 21.0951], [80.1542, 21.0951], [80.1543, 21.0951], [80.1543, 21.095], [80.1544, 21.095], [80.1544, 21.0949], [80.1544, 21.0948], [80.1544, 21.0947], [80.1544, 21.0946], [80.1543, 21.0945], [80.1543, 21.0944], [80.1544, 21.0944], [80.1543, 21.0943], [80.1544, 21.0943], [80.1543, 21.0943], [80.1543, 21.0942], [80.1543, 21.0941], [80.1543, 21.094], [80.1543, 21.0939], [80.1543, 21.0938], [80.1543, 21.0937], [80.1543, 21.0936], [80.1543, 21.0935]]]}, "properties": {"objectid": 68760, "statename": "Maharashtra", "statecode": "27", "districtname": "", "districtcode": "507", "ulbname": "Sadak Arjuni", "ulbcode": "900363", "wardname": "Ward 5", "wardcode": "5", "id": null, "status": "APPROVED", "misglobalid": null, "approved_by": null, "createdate": 1644413853000, "updateddate": 1644417761000, "globalid": null, "gisglobalid": "l4466lmP-m5Kc-PK4c-QmP4-QPommQ4nmRmQ", "remark": "", "st_area(shape)": 4.001435839649652e-06, "st_perimeter(shape)": 0.008881923534768155}}, {"type": "Feature", "geometry": {"type": "Polygon", "coordinates": [[[80.1527, 21.0935], [80.1526, 21.0935], [80.1526, 21.0934], [80.1525, 21.0934], [80.1525, 21.0935], [80.1524, 21.0934], [80.1524, 21.0935], [80.1523, 21.0935], [80.1522, 21.0935], [80.1521, 21.0935], [80.152, 21.0934], [80.1519, 21.0934], [80.1518, 21.0934], [80.1517, 21.0934], [80.1517, 21.0935], [80.1516, 21.0935], [80.1516, 21.0936], [80.1515, 21.0936], [80.1515, 21.0937], [80.1514, 21.0937], [80.1514, 21.0938], [80.1513, 21.0938], [80.1513, 21.0939], [80.1512, 21.0939], [80.1512, 21.094], [80.1511, 21.0941], [80.1511, 21.0942], [80.1511, 21.0943], [80.151, 21.0943], [80.1509, 21.0943], [80.1509, 21.0944], [80.1508, 21.0944], [80.1507, 21.0944], [80.1506, 21.0944], [80.1505, 21.0944], [80.1504, 21.0944], [80.1503, 21.0944], [80.1503, 21.0945], [80.1502, 21.0945], [80.1501, 21.0945], [80.1501, 21.0946], [80.1502, 21.0946], [80.1502, 21.0947], [80.1502, 21.0948], [80.1502, 21.0949], [80.1502, 21.095], [80.1502, 21.0951], [80.1503, 21.0951], [80.1503, 21.0952], [80.1504, 21.0952], [80.1505, 21.0952], [80.1506, 21.0952], [80.1507, 21.0952], [80.1508, 21.0952], [80.1509, 21.0952], [80.151, 21.0952], [80.1511, 21.0952], [80.1512, 21.0952], [80.1513, 21.0952], [80.1513, 21.0953], [80.1514, 21.0953], [80.1515, 21.0953], [80.1516, 21.0953], [80.1516, 21.0954], [80.1517, 21.0954], [80.1518, 21.0954], [80.1519, 21.0954], [80.1519, 21.0955], [80.152, 21.0955], [80.152, 21.0954], [80.152, 21.0953], [80.152, 21.0952], [80.152, 21.0951], [80.1521, 21.0951], [80.1521, 21.095], [80.1522, 21.095], [80.1522, 21.0949], [80.1523, 21.0949], [80.1523, 21.0948], [80.1524, 21.0948], [80.1524, 21.0947], [80.1524, 21.0946], [80.1525, 21.0945], [80.1525, 21.0944], [80.1526, 21.0944], [80.1527, 21.0944], [80.1527, 21.0943], [80.1527, 21.0942], [80.1527, 21.0941], [80.1527, 21.094], [80.1527, 21.0939], [80.1527, 21.0938], [80.1527, 21.0937], [80.1527, 21.0936], [80.1527, 21.0935]]]}, "properties": {"objectid": 149438, "statename": "Maharashtra", "statecode": "27", "districtname": "", "districtcode": "507", "ulbname": "Sadak Arjuni", "ulbcode": "900363", "wardname": "Ward 6", "wardcode": "6", "id": null, "status": "APPROVED", "misglobalid": null, "approved_by": null, "createdate": 1644414210000, "updateddate": 1644417769000, "globalid": null, "gisglobalid": "dmKdslBc-Ba4o-PoBc-QaPd-4oKmd6mlB6c6", "remark": "", "st_area(shape)": 3.1363195128113894e-06, "st_perimeter(shape)": 0.007909455729491208}}, {"type": "Feature", "geometry": {"type": "Polygon", "coordinates": [[[80.1493, 21.0934], [80.1492, 21.0934], [80.1491, 21.0934], [80.149, 21.0934], [80.1489, 21.0934], [80.1488, 21.0934], [80.1487, 21.0934], [80.1486, 21.0934], [80.1485, 21.0934], [80.1484, 21.0934], [80.1483, 21.0934], [80.1483, 21.0935], [80.1483, 21.0936], [80.1483, 21.0937], [80.1483, 21.0938], [80.1483, 21.0939], [80.1484, 21.0939], [80.1484, 21.094], [80.1484, 21.0941], [80.1484, 21.0942], [80.1484, 21.0943], [80.1485, 21.0943], [80.1485, 21.0944], [80.1485, 21.0945], [80.1485, 21.0946], [80.1486, 21.0947], [80.1486, 21.0948], [80.1486, 21.0949], [80.1487, 21.0949], [80.1487, 21.095], [80.1487, 21.0951], [80.1488, 21.0951], [80.1489, 21.0952], [80.149, 21.0952], [80.149, 21.0953], [80.1491, 21.0953], [80.1491, 21.0954], [80.1492, 21.0954], [80.1493, 21.0954], [80.1493, 21.0953], [80.1494, 21.0953], [80.1494, 21.0954], [80.1495, 21.0954], [80.1495, 21.0953], [80.1496, 21.0953], [80.1497, 21.0953], [80.1498, 21.0953], [80.1499, 21.0953], [80.15, 21.0953], [80.1501, 21.0952], [80.1502, 21.0952], [80.1503, 21.0952], [80.1502, 21.0951], [80.1502, 21.095], [80.1502, 21.0949], [80.1502, 21.0948], [80.1502, 21.0947], [80.1501, 21.0947], [80.1501, 21.0946], [80.1501, 21.0945], [80.15, 21.0945], [80.1499, 21.0945], [80.1498, 21.0945], [80.1497, 21.0945], [80.1497, 21.0944], [80.1496, 21.0943], [80.1496, 21.0942], [80.1495, 21.0942], [80.1495, 21.0941], [80.1495, 21.094], [80.1495, 21.0939], [80.1494, 21.0938], [80.1494, 21.0937], [80.1494, 21.0936], [80.1494, 21.0935], [80.1494, 21.0934], [80.1493, 21.0934]]]}, "properties": {"objectid": 147446, "statename": "Maharashtra", "statecode": "27", "districtname": "", "districtcode": "507", "ulbname": "Sadak Arjuni", "ulbcode": "900363", "wardname": "Ward 7", "wardcode": "7", "id": null, "status": "APPROVED", "misglobalid": null, "approved_by": null, "createdate": 1644414600000, "updateddate": 1644417775000, "globalid": null, "gisglobalid": "a66lclKB-4P4P-PP6l-s4dl-RPcRcmosa5sQ", "remark": "", "st_area(shape)": 2.4660373736133134e-06, "st_perimeter(shape)": 0.0069059806112465455}}, {"type": "Feature", "geometry": {"type": "Polygon", "coordinates": [[[80.1516, 21.0935], [80.1516, 21.0934], [80.1515, 21.0934], [80.1514, 21.0934], [80.1513, 21.0934], [80.1512, 21.0934], [80.1512, 21.0935], [80.1511, 21.0935], [80.1511, 21.0936], [80.151, 21.0936], [80.1509, 21.0937], [80.1508, 21.0937], [80.1507, 21.0937], [80.1507, 21.0938], [80.1506, 21.0938], [80.1505, 21.0938], [80.1504, 21.0938], [80.1503, 21.0938], [80.1503, 21.0939], [80.1502, 21.0939], [80.1501, 21.0939], [80.15, 21.0939], [80.1499, 21.0939], [80.1498, 21.0939], [80.1497, 21.0939], [80.1496, 21.0939], [80.1495, 21.0939], [80.1495, 21.094], [80.1495, 21.0941], [80.1496, 21.0941], [80.1496, 21.0942], [80.1496, 21.0943], [80.1497, 21.0943], [80.1497, 21.0944], [80.1498, 21.0944], [80.1498, 21.0945], [80.1499, 21.0945], [80.15, 21.0944], [80.1501, 21.0944], [80.1502, 21.0944], [80.1503, 21.0944], [80.1504, 21.0944], [80.1505, 21.0944], [80.1506, 21.0944], [80.1506, 21.0943], [80.1507, 21.0943], [80.1508, 21.0943], [80.1509, 21.0943], [80.151, 21.0943], [80.151, 21.0942], [80.1511, 21.0942], [80.1511, 21.0941], [80.1511, 21.094], [80.1512, 21.094], [80.1512, 21.0939], [80.1512, 21.0938], [80.1513, 21.0938], [80.1513, 21.0937], [80.1514, 21.0937], [80.1514, 21.0936], [80.1515, 21.0936], [80.1515, 21.0935], [80.1516, 21.0935]]]}, "properties": {"objectid": 133365, "statename": "Maharashtra", "statecode": "27", "districtname": "", "districtcode": "507", "ulbname": "Sadak Arjuni", "ulbcode": "900363", "wardname": "Ward 8", "wardcode": "8", "id": null, "status": "APPROVED", "misglobalid": null, "approved_by": null, "createdate": 1644414400000, "updateddate": 1644417783000, "globalid": null, "gisglobalid": "5Kdoodlo-maQs-PdRc-QQas-aKcll56Qldsd", "remark": "", "st_area(shape)": 9.76116185058834e-07, "st_perimeter(shape)": 0.005183872916019631}}, {"type": "Feature", "geometry": {"type": "Polygon", "coordinates": [[[80.1493, 21.0918], [80.1492, 21.0918], [80.1491, 21.0918], [80.149, 21.0918], [80.1489, 21.0918], [80.1489, 21.0919], [80.1488, 21.0919], [80.1487, 21.0919], [80.1486, 21.0919], [80.1485, 21.0919], [80.1484, 21.0919], [80.1484, 21.092], [80.1483, 21.092], [80.1482, 21.092], [80.1482, 21.0921], [80.1482, 21.0922], [80.1482, 21.0923], [80.1482, 21.0924], [80.1482, 21.0925], [80.1481, 21.0925], [80.1481, 21.0926], [80.1482, 21.0926], [80.1482, 21.0927], [80.1482, 21.0928], [80.1482, 21.0929], [80.1482, 21.093], [80.1482, 21.0931], [80.1483, 21.0931], [80.1483, 21.0932], [80.1483, 21.0933], [80.1484, 21.0933], [80.1485, 21.0933], [80.1486, 21.0933], [80.1487, 21.0933], [80.1488, 21.0933], [80.1489, 21.0933], [80.149, 21.0933], [80.1491, 21.0933], [80.1492, 21.0933], [80.1493, 21.0933], [80.1493, 21.0934], [80.1494, 21.0934], [80.1494, 21.0935], [80.1495, 21.0935], [80.1495, 21.0936], [80.1495, 21.0937], [80.1495, 21.0938], [80.1495, 21.0939], [80.1496, 21.0939], [80.1497, 21.0939], [80.1498, 21.0939], [80.1499, 21.0939], [80.15, 21.0939], [80.1501, 21.0939], [80.1502, 21.0938], [80.1503, 21.0938], [80.1504, 21.0938], [80.1505, 21.0937], [80.1506, 21.0937], [80.1507, 21.0937], [80.1508, 21.0937], [80.1508, 21.0936], [80.1509, 21.0936], [80.151, 21.0936], [80.151, 21.0935], [80.1511, 21.0935], [80.1511, 21.0934], [80.151, 21.0934], [80.1509, 21.0934], [80.1509, 21.0933], [80.1508, 21.0933], [80.1507, 21.0933], [80.1506, 21.0933], [80.1505, 21.0933], [80.1504, 21.0933], [80.1503, 21.0933], [80.1502, 21.0933], [80.1501, 21.0933], [80.1501, 21.0932], [80.1501, 21.0931], [80.15, 21.0931], [80.15, 21.093], [80.15, 21.0929], [80.15, 21.0928], [80.1499, 21.0928], [80.1499, 21.0927], [80.1499, 21.0926], [80.1498, 21.0926], [80.1498, 21.0925], [80.1498, 21.0924], [80.1497, 21.0924], [80.1497, 21.0923], [80.1497, 21.0922], [80.1496, 21.0922], [80.1496, 21.0921], [80.1496, 21.092], [80.1495, 21.092], [80.1495, 21.0919], [80.1494, 21.0919], [80.1494, 21.0918], [80.1493, 21.0918]]]}, "properties": {"objectid": 134962, "statename": "Maharashtra", "statecode": "27", "districtname": "", "districtcode": "507", "ulbname": "Sadak Arjuni", "ulbcode": "900363", "wardname": "Ward 9", "wardcode": "9", "id": null, "status": "APPROVED", "misglobalid": null, "approved_by": null, "createdate": 1644414916000, "updateddate": 1644417789000, "globalid": null, "gisglobalid": "KnKoKs5m-RRBR-PQaR-QoKK-B5asslBm4mRa", "remark": "", "st_area(shape)": 3.1100689734265138e-06, "st_perimeter(shape)": 0.008794897780363513}}, {"type": "Feature", "geometry": {"type": "Polygon", "coordinates": [[[80.1532, 21.0934], [80.1532, 21.0933], [80.1531, 21.0933], [80.1531, 21.0932], [80.1531, 21.0931], [80.153, 21.093], [80.153, 21.0929], [80.153, 21.0928], [80.1529, 21.0927], [80.1529, 21.0926], [80.1529, 21.0925], [80.1529, 21.0924], [80.1528, 21.0924], [80.1528, 21.0923], [80.1528, 21.0924], [80.1527, 21.0924], [80.1527, 21.0925], [80.1526, 21.0925], [80.1525, 21.0926], [80.1524, 21.0926], [80.1523, 21.0926], [80.1522, 21.0926], [80.1521, 21.0926], [80.152, 21.0926], [80.1519, 21.0926], [80.1519, 21.0925], [80.1518, 21.0925], [80.1518, 21.0924], [80.1517, 21.0924], [80.1517, 21.0923], [80.1516, 21.0923], [80.1516, 21.0922], [80.1516, 21.0921], [80.1516, 21.092], [80.1515, 21.092], [80.1515, 21.0919], [80.1515, 21.0918], [80.1515, 21.0917], [80.1515, 21.0916], [80.1514, 21.0916], [80.1513, 21.0916], [80.1513, 21.0917], [80.1512, 21.0917], [80.1511, 21.0917], [80.151, 21.0917], [80.1509, 21.0917], [80.1508, 21.0917], [80.1507, 21.0917], [80.1507, 21.0918], [80.1506, 21.0918], [80.1506, 21.0917], [80.1505, 21.0917], [80.1504, 21.0917], [80.1503, 21.0917], [80.1502, 21.0917], [80.1501, 21.0917], [80.1501, 21.0918], [80.15, 21.0918], [80.1499, 21.0918], [80.1498, 21.0918], [80.1497, 21.0918], [80.1496, 21.0918], [80.1495, 21.0918], [80.1495, 21.0919], [80.1496, 21.0919], [80.1496, 21.092], [80.1497, 21.092], [80.1497, 21.0921], [80.1497, 21.0922], [80.1498, 21.0922], [80.1498, 21.0923], [80.1498, 21.0924], [80.1499, 21.0924], [80.1499, 21.0925], [80.1499, 21.0926], [80.15, 21.0926], [80.15, 21.0927], [80.15, 21.0928], [80.15, 21.0929], [80.1501, 21.0929], [80.1501, 21.093], [80.1501, 21.0931], [80.1501, 21.0932], [80.1502, 21.0932], [80.1503, 21.0932], [80.1504, 21.0932], [80.1505, 21.0932], [80.1505, 21.0933], [80.1506, 21.0933], [80.1507, 21.0933], [80.1508, 21.0933], [80.1509, 21.0933], [80.151, 21.0933], [80.1511, 21.0933], [80.1512, 21.0933], [80.1513, 21.0933], [80.1513, 21.0934], [80.1514, 21.0934], [80.1515, 21.0934], [80.1516, 21.0934], [80.1517, 21.0934], [80.1518, 21.0934], [80.1519, 21.0934], [80.152, 21.0934], [80.1521, 21.0934], [80.1522, 21.0934], [80.1523, 21.0934], [80.1524, 21.0934], [80.1525, 21.0934], [80.1526, 21.0934], [80.1527, 21.0934], [80.1528, 21.0934], [80.1529, 21.0934], [80.153, 21.0934], [80.1531, 21.0934], [80.1532, 21.0934]]]}, "properties": {"objectid": 149439, "statename": "Maharashtra", "statecode": "27", "districtname": "", "districtcode": "507", "ulbname": "Sadak Arjuni", "ulbcode": "900363", "wardname": "Ward 10", "wardcode": "10", "id": null, "status": "APPROVED", "misglobalid": null, "approved_by": null, "createdate": 1644415276000, "updateddate": 1644417795000, "globalid": null, "gisglobalid": "dQdPKBno-QP4s-PRK6-aKdR-dsRPlllncaac", "remark": "", "st_area(shape)": 3.951454517350912e-06, "st_perimeter(shape)": 0.009959107563208155}}, {"type": "Feature", "geometry": {"type": "Polygon", "coordinates": [[[80.1536, 21.0898], [80.1535, 21.0898], [80.1535, 21.0899], [80.1534, 21.0899], [80.1533, 21.0899], [80.1532, 21.0899], [80.1531, 21.0899], [80.1531, 21.09], [80.153, 21.09], [80.153, 21.0901], [80.1529, 21.0901], [80.1528, 21.0901], [80.1528, 21.0902], [80.1527, 21.0902], [80.1526, 21.0902], [80.1525, 21.0902], [80.1524, 21.0902], [80.1523, 21.0902], [80.1523, 21.0903], [80.1522, 21.0903], [80.1521, 21.0903], [80.152, 21.0903], [80.1519, 21.0903], [80.1519, 21.0904], [80.1519, 21.0905], [80.1519, 21.0906], [80.152, 21.0906], [80.152, 21.0907], [80.1519, 21.0907], [80.152, 21.0907], [80.1519, 21.0907], [80.1519, 21.0908], [80.152, 21.0908], [80.152, 21.0909], [80.152, 21.091], [80.152, 21.0911], [80.152, 21.0912], [80.152, 21.0913], [80.152, 21.0914], [80.152, 21.0915], [80.1519, 21.0916], [80.1518, 21.0916], [80.1517, 21.0916], [80.1516, 21.0916], [80.1516, 21.0917], [80.1516, 21.0918], [80.1516, 21.0919], [80.1516, 21.092], [80.1516, 21.0921], [80.1517, 21.0921], [80.1517, 21.0922], [80.1517, 21.0923], [80.1518, 21.0923], [80.1518, 21.0924], [80.1519, 21.0924], [80.152, 21.0925], [80.1521, 21.0925], [80.1522, 21.0925], [80.1523, 21.0925], [80.1524, 21.0925], [80.1525, 21.0925], [80.1526, 21.0924], [80.1527, 21.0924], [80.1527, 21.0923], [80.1528, 21.0923], [80.1528, 21.0922], [80.1529, 21.0922], [80.1529, 21.0921], [80.1529, 21.092], [80.153, 21.092], [80.153, 21.0919], [80.1531, 21.0918], [80.1532, 21.0918], [80.1532, 21.0917], [80.1532, 21.0916], [80.1533, 21.0916], [80.1533, 21.0915], [80.1534, 21.0914], [80.1534, 21.0913], [80.1535, 21.0913], [80.1535, 21.0912], [80.1535, 21.0911], [80.1535, 21.091], [80.1536, 21.091], [80.1536, 21.0909], [80.1536, 21.0908], [80.1537, 21.0908], [80.1538, 21.0907], [80.1538, 21.0906], [80.1538, 21.0905], [80.1537, 21.0905], [80.1537, 21.0904], [80.1537, 21.0903], [80.1537, 21.0902], [80.1537, 21.0901], [80.1536, 21.0901], [80.1536, 21.09], [80.1536, 21.0899], [80.1536, 21.0898]]]}, "properties": {"objectid": 148256, "statename": "Maharashtra", "statecode": "27", "districtname": "", "districtcode": "507", "ulbname": "Sadak Arjuni", "ulbcode": "900363", "wardname": "Ward 11", "wardcode": "11", "id": null, "status": "APPROVED", "misglobalid": null, "approved_by": null, "createdate": 1644415760000, "updateddate": 1644417801000, "globalid": null, "gisglobalid": "PnoacQBs-l4mQ-Pdc5-QKPs-lRsQsooP4a4P", "remark": "", "st_area(shape)": 3.55787311853867e-06, "st_perimeter(shape)": 0.00822031977516995}}, {"type": "Feature", "geometry": {"type": "Polygon", "coordinates": [[[80.1538, 21.0908], [80.1537, 21.0908], [80.1537, 21.0909], [80.1537, 21.091], [80.1536, 21.091], [80.1536, 21.0911], [80.1535, 21.0912], [80.1535, 21.0913], [80.1535, 21.0914], [80.1534, 21.0914], [80.1534, 21.0915], [80.1533, 21.0916], [80.1533, 21.0917], [80.1532, 21.0917], [80.1532, 21.0918], [80.1531, 21.0918], [80.1531, 21.0919], [80.1531, 21.092], [80.153, 21.092], [80.153, 21.0921], [80.153, 21.0922], [80.1529, 21.0922], [80.1529, 21.0923], [80.1529, 21.0924], [80.1529, 21.0925], [80.1529, 21.0926], [80.153, 21.0927], [80.153, 21.0928], [80.153, 21.0929], [80.153, 21.093], [80.1531, 21.093], [80.1531, 21.0931], [80.1531, 21.0932], [80.1532, 21.0932], [80.1532, 21.0933], [80.1532, 21.0934], [80.1533, 21.0934], [80.1534, 21.0934], [80.1535, 21.0934], [80.1536, 21.0934], [80.1537, 21.0934], [80.1538, 21.0934], [80.1539, 21.0934], [80.154, 21.0934], [80.1541, 21.0934], [80.1542, 21.0934], [80.1543, 21.0934], [80.1543, 21.0933], [80.1543, 21.0932], [80.1543, 21.0931], [80.1543, 21.093], [80.1543, 21.0929], [80.1543, 21.0928], [80.1543, 21.0927], [80.1543, 21.0926], [80.1543, 21.0925], [80.1543, 21.0924], [80.1543, 21.0923], [80.1543, 21.0922], [80.1542, 21.0922], [80.1542, 21.0921], [80.1542, 21.092], [80.1542, 21.0919], [80.1541, 21.0919], [80.1541, 21.0918], [80.1541, 21.0917], [80.1541, 21.0916], [80.154, 21.0915], [80.154, 21.0914], [80.154, 21.0913], [80.154, 21.0912], [80.1539, 21.0912], [80.1539, 21.0911], [80.1539, 21.091], [80.1539, 21.0909], [80.1538, 21.0909], [80.1538, 21.0908]]]}, "properties": {"objectid": 149440, "statename": "Maharashtra", "statecode": "27", "districtname": "", "districtcode": "507", "ulbname": "Sadak Arjuni", "ulbcode": "900363", "wardname": "Ward 12", "wardcode": "12", "id": null, "status": "APPROVED", "misglobalid": null, "approved_by": null, "createdate": 1644415538000, "updateddate": 1644417809000, "globalid": null, "gisglobalid": "6dddRnQd-5Qn4-Pnln-Rmo4-a6caRlQmR6Pa", "remark": "", "st_area(shape)": 2.5249385305646774e-06, "st_perimeter(shape)": 0.006915630476342968}}, {"type": "Feature", "geometry": {"type": "Polygon", "coordinates": [[[80.1566, 21.0935], [80.1566, 21.0934], [80.1566, 21.0933], [80.1565, 21.0933], [80.1565, 21.0932], [80.1565, 21.0931], [80.1565, 21.093], [80.1565, 21.0929], [80.1565, 21.0928], [80.1564, 21.0928], [80.1564, 21.0927], [80.1564, 21.0926], [80.1564, 21.0925], [80.1564, 21.0924], [80.1564, 21.0923], [80.1563, 21.0923], [80.1562, 21.0923], [80.1561, 21.0923], [80.156, 21.0923], [80.1559, 21.0923], [80.1558, 21.0923], [80.1557, 21.0923], [80.1557, 21.0922], [80.1556, 21.0922], [80.1555, 21.0922], [80.1554, 21.0922], [80.1554, 21.0921], [80.1554, 21.092], [80.1554, 21.0919], [80.1553, 21.0919], [80.1553, 21.0918], [80.1553, 21.0917], [80.1553, 21.0916], [80.1554, 21.0916], [80.1555, 21.0916], [80.1555, 21.0915], [80.1556, 21.0915], [80.1557, 21.0915], [80.1558, 21.0914], [80.1559, 21.0914], [80.156, 21.0914], [80.1561, 21.0914], [80.1562, 21.0913], [80.1563, 21.0913], [80.1564, 21.0913], [80.1564, 21.0912], [80.1565, 21.0912], [80.1566, 21.0912], [80.1567, 21.0911], [80.1568, 21.0911], [80.1569, 21.0911], [80.1569, 21.091], [80.1569, 21.0909], [80.1569, 21.0908], [80.1568, 21.0907], [80.1568, 21.0906], [80.1568, 21.0905], [80.1568, 21.0904], [80.1567, 21.0903], [80.1567, 21.0902], [80.1567, 21.0901], [80.1566, 21.09], [80.1566, 21.0899], [80.1566, 21.0898], [80.1565, 21.0897], [80.1565, 21.0896], [80.1564, 21.0896], [80.1564, 21.0895], [80.1564, 21.0894], [80.1564, 21.0893], [80.1564, 21.0892], [80.1563, 21.0891], [80.1563, 21.089], [80.1563, 21.0889], [80.1562, 21.0889], [80.1562, 21.0888], [80.1561, 21.0888], [80.1561, 21.0887], [80.1561, 21.0886], [80.156, 21.0886], [80.156, 21.0885], [80.156, 21.0884], [80.156, 21.0883], [80.156, 21.0882], [80.1559, 21.0881], [80.1559, 21.088], [80.1558, 21.0879], [80.1558, 21.0878], [80.1558, 21.0877], [80.1558, 21.0876], [80.1557, 21.0875], [80.1557, 21.0874], [80.1557, 21.0873], [80.1556, 21.0873], [80.1556, 21.0872], [80.1556, 21.0871], [80.1555, 21.087], [80.1555, 21.0869], [80.1555, 21.0868], [80.1554, 21.0867], [80.1554, 21.0866], [80.1554, 21.0865], [80.1554, 21.0864], [80.1553, 21.0864], [80.1553, 21.0863], [80.1553, 21.0862], [80.1552, 21.0861], [80.1552, 21.086], [80.1552, 21.0859], [80.1551, 21.0859], [80.1551, 21.0858], [80.1551, 21.0857], [80.1551, 21.0856], [80.155, 21.0855], [80.155, 21.0854], [80.1549, 21.0853], [80.1549, 21.0852], [80.1549, 21.0851], [80.1549, 21.085], [80.1549, 21.0849], [80.1548, 21.0849], [80.1547, 21.085], [80.1546, 21.085], [80.1545, 21.085], [80.1544, 21.085], [80.1543, 21.085], [80.1542, 21.085], [80.1542, 21.0851], [80.1541, 21.0851], [80.154, 21.0851], [80.1539, 21.0851], [80.1538, 21.0851], [80.1538, 21.0852], [80.1537, 21.0852], [80.1536, 21.0852], [80.1535, 21.0852], [80.1534, 21.0852], [80.1533, 21.0852], [80.1533, 21.0853], [80.1532, 21.0853], [80.1531, 21.0853], [80.153, 21.0853], [80.1529, 21.0853], [80.1528, 21.0853], [80.1527, 21.0853], [80.1526, 21.0853], [80.1525, 21.0853], [80.1525, 21.0854], [80.1525, 21.0855], [80.1525, 21.0856], [80.1526, 21.0857], [80.1526, 21.0858], [80.1526, 21.0859], [80.1526, 21.086], [80.1526, 21.0861], [80.1527, 21.0862], [80.1527, 21.0863], [80.1527, 21.0864], [80.1527, 21.0865], [80.1527, 21.0866], [80.1528, 21.0866], [80.1528, 21.0867], [80.1528, 21.0868], [80.1529, 21.0868], [80.1529, 21.0869], [80.1529, 21.087], [80.1529, 21.0871], [80.153, 21.0871], [80.153, 21.0872], [80.153, 21.0873], [80.153, 21.0874], [80.153, 21.0875], [80.153, 21.0876], [80.1531, 21.0876], [80.1531, 21.0877], [80.1531, 21.0878], [80.1532, 21.0879], [80.1532, 21.088], [80.1532, 21.0881], [80.1532, 21.0882], [80.1533, 21.0882], [80.1533, 21.0883], [80.1533, 21.0884], [80.1533, 21.0885], [80.1533, 21.0886], [80.1534, 21.0886], [80.1534, 21.0887], [80.1534, 21.0888], [80.1534, 21.0889], [80.1535, 21.089], [80.1535, 21.0891], [80.1535, 21.0892], [80.1535, 21.0893], [80.1535, 21.0894], [80.1535, 21.0895], [80.1536, 21.0895], [80.1536, 21.0896], [80.1536, 21.0897], [80.1537, 21.0898], [80.1537, 21.0899], [80.1537, 21.09], [80.1537, 21.0901], [80.1538, 21.0901], [80.1538, 21.0902], [80.1538, 21.0903], [80.1538, 21.0904], [80.1539, 21.0904], [80.1539, 21.0905], [80.1539, 21.0906], [80.1539, 21.0907], [80.1539, 21.0908], [80.1539, 21.0909], [80.154, 21.0909], [80.154, 21.091], [80.154, 21.0911], [80.154, 21.0912], [80.1541, 21.0913], [80.1541, 21.0914], [80.1541, 21.0915], [80.1542, 21.0915], [80.1542, 21.0916], [80.1542, 21.0917], [80.1542, 21.0918], [80.1542, 21.0919], [80.1542, 21.092], [80.1543, 21.092], [80.1543, 21.0921], [80.1543, 21.0922], [80.1544, 21.0923], [80.1544, 21.0924], [80.1544, 21.0925], [80.1544, 21.0926], [80.1544, 21.0927], [80.1544, 21.0928], [80.1544, 21.0929], [80.1544, 21.093], [80.1544, 21.0931], [80.1544, 21.0932], [80.1544, 21.0933], [80.1544, 21.0934], [80.1545, 21.0934], [80.1546, 21.0934], [80.1547, 21.0934], [80.1548, 21.0934], [80.1549, 21.0934], [80.155, 21.0934], [80.1551, 21.0934], [80.1552, 21.0934], [80.1553, 21.0934], [80.1554, 21.0934], [80.1555, 21.0934], [80.1556, 21.0934], [80.1557, 21.0934], [80.1558, 21.0935], [80.1559, 21.0934], [80.156, 21.0935], [80.1561, 21.0934], [80.1562, 21.0934], [80.1562, 21.0935], [80.1562, 21.0934], [80.1563, 21.0934], [80.1564, 21.0934], [80.1564, 21.0935], [80.1565, 21.0935], [80.1566, 21.0935]]]}, "properties": {"objectid": 149051, "statename": "Maharashtra", "statecode": "27", "districtname": "", "districtcode": "507", "ulbname": "Sadak Arjuni", "ulbcode": "900363", "wardname": "Ward 13", "wardcode": "13", "id": null, "status": "APPROVED", "misglobalid": null, "approved_by": null, "createdate": 1644416395000, "updateddate": 1644417816000, "globalid": null, "gisglobalid": "PncmPPm5-P6Ka-PcRm-ssod-QoalQcK6oaPa", "remark": "", "st_area(shape)": 2.029950439803317e-05, "st_perimeter(shape)": 0.024160043151622058}}, {"type": "Feature", "geometry": {"type": "Polygon", "coordinates": [[[80.1567, 21.0935], [80.1568, 21.0935], [80.1569, 21.0935], [80.1569, 21.0936], [80.157, 21.0936], [80.1571, 21.0936], [80.1572, 21.0936], [80.1573, 21.0936], [80.1574, 21.0936], [80.1575, 21.0936], [80.1576, 21.0936], [80.1577, 21.0936], [80.1578, 21.0936], [80.1579, 21.0936], [80.158, 21.0936], [80.1581, 21.0936], [80.1582, 21.0936], [80.1583, 21.0936], [80.1584, 21.0936], [80.1585, 21.0936], [80.1586, 21.0935], [80.1587, 21.0935], [80.1588, 21.0935], [80.1589, 21.0935], [80.159, 21.0935], [80.1591, 21.0935], [80.1592, 21.0935], [80.1593, 21.0935], [80.1594, 21.0935], [80.1595, 21.0935], [80.1596, 21.0935], [80.1597, 21.0935], [80.1597, 21.0934], [80.1598, 21.0934], [80.1599, 21.0934], [80.1599, 21.0933], [80.1599, 21.0932], [80.1599, 21.0931], [80.1598, 21.093], [80.1598, 21.0929], [80.1598, 21.0928], [80.1598, 21.0927], [80.1597, 21.0927], [80.1598, 21.0927], [80.1598, 21.0926], [80.1598, 21.0925], [80.1598, 21.0924], [80.1597, 21.0924], [80.1597, 21.0923], [80.1597, 21.0922], [80.1596, 21.0922], [80.1595, 21.0922], [80.1594, 21.0922], [80.1594, 21.0923], [80.1593, 21.0923], [80.1592, 21.0923], [80.1591, 21.0923], [80.1591, 21.0924], [80.159, 21.0924], [80.1589, 21.0924], [80.1588, 21.0924], [80.1589, 21.0923], [80.1589, 21.0922], [80.1588, 21.0922], [80.1588, 21.0921], [80.1588, 21.092], [80.1588, 21.0919], [80.1588, 21.0918], [80.1588, 21.0917], [80.1588, 21.0916], [80.1588, 21.0915], [80.1588, 21.0914], [80.1588, 21.0913], [80.1587, 21.0913], [80.1586, 21.0913], [80.1585, 21.0913], [80.1584, 21.0913], [80.1583, 21.0913], [80.1582, 21.0913], [80.1581, 21.0913], [80.1581, 21.0914], [80.158, 21.0914], [80.1579, 21.0914], [80.1578, 21.0914], [80.1577, 21.0914], [80.1577, 21.0915], [80.1576, 21.0914], [80.1575, 21.0914], [80.1575, 21.0913], [80.1574, 21.0912], [80.1573, 21.0911], [80.1573, 21.0912], [80.1572, 21.0912], [80.1571, 21.0912], [80.157, 21.0912], [80.1569, 21.0912], [80.1568, 21.0911], [80.1568, 21.0912], [80.1567, 21.0912], [80.1566, 21.0912], [80.1565, 21.0913], [80.1564, 21.0913], [80.1563, 21.0913], [80.1563, 21.0914], [80.1562, 21.0914], [80.1561, 21.0914], [80.156, 21.0914], [80.1559, 21.0915], [80.1558, 21.0915], [80.1557, 21.0915], [80.1556, 21.0915], [80.1556, 21.0916], [80.1555, 21.0916], [80.1554, 21.0916], [80.1554, 21.0917], [80.1554, 21.0918], [80.1554, 21.0919], [80.1555, 21.0919], [80.1555, 21.092], [80.1555, 21.0921], [80.1556, 21.0921], [80.1556, 21.0922], [80.1557, 21.0922], [80.1558, 21.0922], [80.1559, 21.0922], [80.156, 21.0922], [80.1561, 21.0922], [80.1562, 21.0922], [80.1563, 21.0922], [80.1564, 21.0922], [80.1565, 21.0922], [80.1565, 21.0923], [80.1565, 21.0924], [80.1565, 21.0925], [80.1565, 21.0926], [80.1565, 21.0927], [80.1565, 21.0928], [80.1566, 21.0929], [80.1566, 21.093], [80.1566, 21.0931], [80.1566, 21.0932], [80.1566, 21.0933], [80.1566, 21.0934], [80.1566, 21.0935], [80.1567, 21.0935]]]}, "properties": {"objectid": 149442, "statename": "Maharashtra", "statecode": "27", "districtname": "", "districtcode": "507", "ulbname": "Sadak Arjuni", "ulbcode": "900363", "wardname": "Ward 14", "wardcode": "14", "id": null, "status": "APPROVED", "misglobalid": null, "approved_by": null, "createdate": 1644416723000, "updateddate": 1644417825000, "globalid": null, "gisglobalid": "mR5omPoo-odaQ-PPRs-sl4s-BBs5mc5PP6o5", "remark": "", "st_area(shape)": 7.153552666721013e-06, "st_perimeter(shape)": 0.01316573297481246}}, {"type": "Feature", "geometry": {"type": "Polygon", "coordinates": [[[80.16, 21.0934], [80.1601, 21.0934], [80.1602, 21.0934], [80.1603, 21.0934], [80.1604, 21.0934], [80.1605, 21.0934], [80.1606, 21.0934], [80.1607, 21.0934], [80.1608, 21.0934], [80.1609, 21.0934], [80.161, 21.0934], [80.1611, 21.0934], [80.1612, 21.0934], [80.1613, 21.0934], [80.1614, 21.0934], [80.1615, 21.0934], [80.1616, 21.0934], [80.1617, 21.0934], [80.1618, 21.0934], [80.1619, 21.0934], [80.162, 21.0934], [80.1621, 21.0934], [80.1622, 21.0934], [80.1623, 21.0934], [80.1624, 21.0934], [80.1625, 21.0934], [80.1626, 21.0934], [80.1627, 21.0934], [80.1628, 21.0934], [80.1629, 21.0934], [80.1629, 21.0933], [80.163, 21.0933], [80.1631, 21.0933], [80.1632, 21.0933], [80.1632, 21.0932], [80.1633, 21.0932], [80.1633, 21.0931], [80.1634, 21.0931], [80.1634, 21.093], [80.1633, 21.093], [80.1634, 21.0929], [80.1635, 21.0929], [80.1635, 21.0928], [80.1636, 21.0928], [80.1637, 21.0928], [80.1637, 21.0927], [80.1638, 21.0927], [80.1639, 21.0927], [80.1639, 21.0926], [80.164, 21.0926], [80.1641, 21.0926], [80.1641, 21.0925], [80.1642, 21.0925], [80.1642, 21.0924], [80.1643, 21.0924], [80.1644, 21.0924], [80.1644, 21.0923], [80.1645, 21.0923], [80.1646, 21.0923], [80.1647, 21.0923], [80.1647, 21.0922], [80.1648, 21.0922], [80.1649, 21.0922], [80.165, 21.0922], [80.165, 21.0921], [80.1651, 21.0921], [80.1651, 21.092], [80.1651, 21.0919], [80.1651, 21.0918], [80.1651, 21.0917], [80.165, 21.0917], [80.165, 21.0916], [80.165, 21.0915], [80.1649, 21.0915], [80.1649, 21.0914], [80.1649, 21.0913], [80.1648, 21.0913], [80.1648, 21.0912], [80.1648, 21.0911], [80.1647, 21.0911], [80.1647, 21.091], [80.1647, 21.0909], [80.1646, 21.091], [80.1645, 21.091], [80.1645, 21.0911], [80.1644, 21.0911], [80.1643, 21.0911], [80.1642, 21.0911], [80.1642, 21.0912], [80.1641, 21.0912], [80.164, 21.0912], [80.164, 21.0913], [80.1639, 21.0913], [80.1638, 21.0913], [80.1638, 21.0914], [80.1637, 21.0914], [80.1637, 21.0915], [80.1636, 21.0915], [80.1635, 21.0915], [80.1635, 21.0916], [80.1634, 21.0916], [80.1633, 21.0917], [80.1632, 21.0917], [80.1632, 21.0916], [80.1631, 21.0916], [80.1631, 21.0915], [80.163, 21.0915], [80.163, 21.0914], [80.1629, 21.0914], [80.1629, 21.0913], [80.1628, 21.0913], [80.1627, 21.0914], [80.1627, 21.0915], [80.1626, 21.0915], [80.1626, 21.0916], [80.1626, 21.0917], [80.1625, 21.0918], [80.1625, 21.0919], [80.1625, 21.092], [80.1624, 21.092], [80.1624, 21.0921], [80.1624, 21.0922], [80.1623, 21.0923], [80.1622, 21.0923], [80.1621, 21.0923], [80.1621, 21.0922], [80.162, 21.0922], [80.1619, 21.0922], [80.1618, 21.0922], [80.1617, 21.0922], [80.1616, 21.0922], [80.1616, 21.0921], [80.1615, 21.0921], [80.1614, 21.0921], [80.1613, 21.0921], [80.1612, 21.0921], [80.1612, 21.092], [80.1611, 21.092], [80.161, 21.092], [80.1609, 21.092], [80.1608, 21.092], [80.1607, 21.092], [80.1606, 21.092], [80.1605, 21.092], [80.1605, 21.0921], [80.1604, 21.0921], [80.1604, 21.0922], [80.1604, 21.0923], [80.1605, 21.0923], [80.1605, 21.0924], [80.1605, 21.0925], [80.1604, 21.0925], [80.1603, 21.0925], [80.1602, 21.0926], [80.1601, 21.0926], [80.16, 21.0926], [80.1599, 21.0926], [80.1598, 21.0927], [80.1598, 21.0928], [80.1599, 21.0928], [80.1599, 21.0929], [80.1599, 21.093], [80.1599, 21.0931], [80.1599, 21.0932], [80.1599, 21.0933], [80.16, 21.0933], [80.16, 21.0934]]]}, "properties": {"objectid": 148257, "statename": "Maharashtra", "statecode": "27", "districtname": "", "districtcode": "507", "ulbname": "Sadak Arjuni", "ulbcode": "900363", "wardname": "Ward 15", "wardcode": "15", "id": null, "status": "APPROVED", "misglobalid": null, "approved_by": null, "createdate": 1644417001000, "updateddate": 1644417833000, "globalid": null, "gisglobalid": "cc5Bomnd-mdml-PlKl-aKPP-BdBPRQ4PKBQl", "remark": "", "st_area(shape)": 6.742051661285748e-06, "st_perimeter(shape)": 0.014186186343459882}}, {"type": "Feature", "geometry": {"type": "Polygon", "coordinates": [[[80.157, 21.0908], [80.157, 21.0909], [80.157, 21.091], [80.157, 21.0911], [80.157, 21.0912], [80.1571, 21.0912], [80.1571, 21.0911], [80.1572, 21.0911], [80.1573, 21.0911], [80.1574, 21.0911], [80.1575, 21.0911], [80.1575, 21.0912], [80.1576, 21.0912], [80.1576, 21.0913], [80.1577, 21.0913], [80.1577, 21.0914], [80.1578, 21.0914], [80.1578, 21.0913], [80.1579, 21.0913], [80.158, 21.0913], [80.1581, 21.0913], [80.1582, 21.0913], [80.1583, 21.0912], [80.1584, 21.0912], [80.1585, 21.0912], [80.1586, 21.0912], [80.1587, 21.0912], [80.1588, 21.0912], [80.1589, 21.0912], [80.1589, 21.0913], [80.1589, 21.0914], [80.1589, 21.0915], [80.1589, 21.0916], [80.1589, 21.0917], [80.1589, 21.0918], [80.1589, 21.0919], [80.1589, 21.092], [80.1589, 21.0921], [80.1589, 21.0922], [80.1589, 21.0923], [80.159, 21.0923], [80.1591, 21.0923], [80.1591, 21.0922], [80.1592, 21.0922], [80.1593, 21.0922], [80.1594, 21.0922], [80.1595, 21.0922], [80.1595, 21.0921], [80.1596, 21.0921], [80.1597, 21.0921], [80.1597, 21.0922], [80.1597, 21.0923], [80.1598, 21.0923], [80.1598, 21.0924], [80.1598, 21.0925], [80.1599, 21.0925], [80.1599, 21.0926], [80.1599, 21.0925], [80.16, 21.0925], [80.1601, 21.0925], [80.1602, 21.0925], [80.1603, 21.0925], [80.1604, 21.0925], [80.1604, 21.0924], [80.1604, 21.0923], [80.1604, 21.0922], [80.1603, 21.0922], [80.1603, 21.0921], [80.1604, 21.0921], [80.1604, 21.092], [80.1605, 21.092], [80.1606, 21.092], [80.1606, 21.0919], [80.1607, 21.0919], [80.1608, 21.0919], [80.1609, 21.0919], [80.161, 21.0919], [80.1611, 21.0919], [80.1611, 21.092], [80.1612, 21.092], [80.1613, 21.092], [80.1614, 21.092], [80.1615, 21.092], [80.1616, 21.092], [80.1617, 21.0921], [80.1618, 21.0921], [80.1619, 21.0921], [80.162, 21.0922], [80.1621, 21.0922], [80.1622, 21.0922], [80.1623, 21.0922], [80.1623, 21.0921], [80.1624, 21.0921], [80.1624, 21.092], [80.1624, 21.0919], [80.1625, 21.0918], [80.1625, 21.0917], [80.1625, 21.0916], [80.1626, 21.0916], [80.1626, 21.0915], [80.1626, 21.0914], [80.1627, 21.0914], [80.1627, 21.0913], [80.1627, 21.0912], [80.1628, 21.0912], [80.1629, 21.0912], [80.1629, 21.0913], [80.163, 21.0913], [80.163, 21.0914], [80.1631, 21.0914], [80.1631, 21.0915], [80.1632, 21.0915], [80.1633, 21.0916], [80.1634, 21.0916], [80.1634, 21.0915], [80.1635, 21.0915], [80.1636, 21.0915], [80.1636, 21.0914], [80.1637, 21.0914], [80.1637, 21.0913], [80.1638, 21.0913], [80.1639, 21.0913], [80.1639, 21.0912], [80.164, 21.0912], [80.1641, 21.0912], [80.1641, 21.0911], [80.1642, 21.0911], [80.1643, 21.0911], [80.1643, 21.091], [80.1644, 21.091], [80.1645, 21.091], [80.1646, 21.091], [80.1646, 21.0909], [80.1647, 21.0908], [80.1646, 21.0908], [80.1646, 21.0907], [80.1646, 21.0906], [80.1646, 21.0905], [80.1645, 21.0905], [80.1645, 21.0904], [80.1645, 21.0903], [80.1645, 21.0902], [80.1645, 21.0901], [80.1645, 21.09], [80.1644, 21.09], [80.1644, 21.0899], [80.1644, 21.0898], [80.1644, 21.0897], [80.1643, 21.0897], [80.1643, 21.0896], [80.1643, 21.0895], [80.1643, 21.0894], [80.1642, 21.0894], [80.1642, 21.0893], [80.1642, 21.0892], [80.1641, 21.0892], [80.1641, 21.0891], [80.1641, 21.089], [80.164, 21.089], [80.164, 21.0889], [80.164, 21.0888], [80.164, 21.0887], [80.1639, 21.0886], [80.1639, 21.0885], [80.1639, 21.0884], [80.1639, 21.0883], [80.1638, 21.0883], [80.1638, 21.0882], [80.1638, 21.0881], [80.1638, 21.088], [80.1637, 21.088], [80.1637, 21.0879], [80.1637, 21.0878], [80.1637, 21.0877], [80.1636, 21.0877], [80.1636, 21.0876], [80.1636, 21.0875], [80.1636, 21.0874], [80.1635, 21.0874], [80.1635, 21.0873], [80.1635, 21.0872], [80.1635, 21.0871], [80.1634, 21.0871], [80.1634, 21.087], [80.1634, 21.0869], [80.1634, 21.0868], [80.1634, 21.0867], [80.1633, 21.0867], [80.1633, 21.0866], [80.1633, 21.0865], [80.1633, 21.0864], [80.1632, 21.0864], [80.1632, 21.0863], [80.1632, 21.0862], [80.1632, 21.0861], [80.1632, 21.086], [80.1631, 21.086], [80.1631, 21.0859], [80.1631, 21.0858], [80.163, 21.0858], [80.163, 21.0857], [80.163, 21.0856], [80.163, 21.0855], [80.1629, 21.0855], [80.1629, 21.0854], [80.1629, 21.0853], [80.1629, 21.0852], [80.1628, 21.0852], [80.1628, 21.0851], [80.1628, 21.085], [80.1627, 21.085], [80.1627, 21.0849], [80.1628, 21.0849], [80.1627, 21.0849], [80.1627, 21.0848], [80.1627, 21.0847], [80.1627, 21.0846], [80.1627, 21.0845], [80.1627, 21.0844], [80.1626, 21.0844], [80.1626, 21.0843], [80.1626, 21.0842], [80.1626, 21.0841], [80.1625, 21.0841], [80.1625, 21.084], [80.1625, 21.0839], [80.1625, 21.0838], [80.1624, 21.0838], [80.1624, 21.0839], [80.1623, 21.0839], [80.1622, 21.0839], [80.1621, 21.0839], [80.162, 21.0839], [80.1619, 21.0839], [80.1618, 21.0839], [80.1617, 21.0839], [80.1616, 21.0839], [80.1615, 21.084], [80.1614, 21.084], [80.1613, 21.084], [80.1612, 21.084], [80.1612, 21.0841], [80.1611, 21.0841], [80.1611, 21.084], [80.1611, 21.0841], [80.161, 21.084], [80.1609, 21.084], [80.1608, 21.084], [80.1607, 21.0841], [80.1606, 21.0841], [80.1605, 21.0841], [80.1604, 21.0841], [80.1603, 21.0841], [80.1602, 21.0841], [80.1601, 21.0842], [80.16, 21.0842], [80.1599, 21.0842], [80.1598, 21.0842], [80.1597, 21.0842], [80.1596, 21.0842], [80.1595, 21.0842], [80.1594, 21.0842], [80.1594, 21.0843], [80.1593, 21.0843], [80.1592, 21.0843], [80.1591, 21.0843], [80.159, 21.0843], [80.1589, 21.0843], [80.1588, 21.0843], [80.1588, 21.0844], [80.1587, 21.0844], [80.1586, 21.0844], [80.1585, 21.0844], [80.1584, 21.0844], [80.1583, 21.0844], [80.1582, 21.0844], [80.1581, 21.0845], [80.158, 21.0845], [80.1579, 21.0845], [80.1578, 21.0845], [80.1577, 21.0845], [80.1576, 21.0846], [80.1575, 21.0846], [80.1574, 21.0846], [80.1573, 21.0846], [80.1572, 21.0846], [80.1571, 21.0847], [80.157, 21.0847], [80.1569, 21.0847], [80.1568, 21.0847], [80.1567, 21.0847], [80.1566, 21.0848], [80.1565, 21.0848], [80.1564, 21.0848], [80.1563, 21.0848], [80.1562, 21.0848], [80.1561, 21.0848], [80.156, 21.0848], [80.1559, 21.0848], [80.1558, 21.0848], [80.1557, 21.0848], [80.1556, 21.0848], [80.1555, 21.0848], [80.1554, 21.0848], [80.1553, 21.0848], [80.1552, 21.0848], [80.1551, 21.0849], [80.155, 21.0849], [80.155, 21.085], [80.1551, 21.085], [80.1551, 21.0851], [80.1551, 21.0852], [80.1551, 21.0853], [80.1551, 21.0854], [80.1552, 21.0855], [80.1552, 21.0856], [80.1552, 21.0857], [80.1552, 21.0858], [80.1553, 21.0858], [80.1553, 21.0859], [80.1553, 21.086], [80.1554, 21.0861], [80.1554, 21.0862], [80.1555, 21.0862], [80.1555, 21.0863], [80.1555, 21.0864], [80.1555, 21.0865], [80.1555, 21.0866], [80.1556, 21.0866], [80.1556, 21.0867], [80.1556, 21.0868], [80.1556, 21.0869], [80.1557, 21.087], [80.1557, 21.0871], [80.1557, 21.0872], [80.1558, 21.0873], [80.1558, 21.0874], [80.1558, 21.0875], [80.1559, 21.0875], [80.1559, 21.0876], [80.1559, 21.0877], [80.1559, 21.0878], [80.156, 21.0878], [80.156, 21.0879], [80.1561, 21.088], [80.1561, 21.0881], [80.1561, 21.0882], [80.1561, 21.0883], [80.1562, 21.0883], [80.1562, 21.0884], [80.1563, 21.0885], [80.1563, 21.0886], [80.1563, 21.0887], [80.1564, 21.0887], [80.1564, 21.0888], [80.1564, 21.0889], [80.1565, 21.089], [80.1565, 21.0891], [80.1565, 21.0892], [80.1565, 21.0893], [80.1566, 21.0894], [80.1566, 21.0895], [80.1566, 21.0896], [80.1566, 21.0897], [80.1566, 21.0898], [80.1567, 21.0899], [80.1567, 21.09], [80.1567, 21.0901], [80.1567, 21.0902], [80.1568, 21.0902], [80.1568, 21.0903], [80.1568, 21.0904], [80.1569, 21.0904], [80.1569, 21.0905], [80.1569, 21.0906], [80.1569, 21.0907], [80.157, 21.0907], [80.157, 21.0908]]]}, "properties": {"objectid": 148258, "statename": "Maharashtra", "statecode": "27", "districtname": "", "districtcode": "507", "ulbname": "Sadak Arjuni", "ulbcode": "900363", "wardname": "Ward 16", "wardcode": "16", "id": null, "status": "APPROVED", "misglobalid": null, "approved_by": null, "createdate": 1644417473000, "updateddate": 1644417841000, "globalid": null, "gisglobalid": "ndBQsBoa-alB4-Pomc-QnQo-nQl4465lllnK", "remark": "", "st_area(shape)": 5.635285042124235e-05, "st_perimeter(shape)": 0.032771754262486505}}, {"type": "Feature", "geometry": {"type": "Polygon", "coordinates": [[[80.1524, 21.0854], [80.1523, 21.0854], [80.1522, 21.0854], [80.1521, 21.0854], [80.152, 21.0854], [80.1519, 21.0854], [80.1519, 21.0855], [80.1518, 21.0855], [80.1517, 21.0855], [80.1516, 21.0855], [80.1515, 21.0855], [80.1514, 21.0855], [80.1514, 21.0856], [80.1513, 21.0856], [80.1512, 21.0856], [80.1511, 21.0856], [80.151, 21.0856], [80.1509, 21.0856], [80.1508, 21.0856], [80.1507, 21.0856], [80.1507, 21.0857], [80.1506, 21.0857], [80.1505, 21.0857], [80.1504, 21.0857], [80.1504, 21.0858], [80.1503, 21.0858], [80.1502, 21.0858], [80.1501, 21.0858], [80.1501, 21.0859], [80.1501, 21.086], [80.1501, 21.0861], [80.1501, 21.0862], [80.1502, 21.0862], [80.1502, 21.0863], [80.1503, 21.0863], [80.1503, 21.0864], [80.1504, 21.0864], [80.1504, 21.0865], [80.1504, 21.0866], [80.1504, 21.0867], [80.1504, 21.0868], [80.1505, 21.0868], [80.1505, 21.0869], [80.1505, 21.087], [80.1506, 21.087], [80.1506, 21.0871], [80.1506, 21.0872], [80.1506, 21.0873], [80.1507, 21.0873], [80.1507, 21.0874], [80.1507, 21.0875], [80.1508, 21.0875], [80.1508, 21.0876], [80.1508, 21.0877], [80.1508, 21.0878], [80.1509, 21.0878], [80.1509, 21.0879], [80.1509, 21.088], [80.151, 21.088], [80.151, 21.0881], [80.151, 21.0882], [80.1511, 21.0882], [80.1511, 21.0883], [80.1512, 21.0884], [80.1512, 21.0885], [80.1512, 21.0886], [80.1513, 21.0886], [80.1513, 21.0887], [80.1513, 21.0888], [80.1513, 21.0889], [80.1514, 21.0889], [80.1514, 21.089], [80.1514, 21.0891], [80.1515, 21.0891], [80.1515, 21.0892], [80.1515, 21.0893], [80.1516, 21.0893], [80.1516, 21.0894], [80.1517, 21.0894], [80.1517, 21.0895], [80.1518, 21.0895], [80.1518, 21.0896], [80.1518, 21.0897], [80.1518, 21.0898], [80.1519, 21.0898], [80.1519, 21.0899], [80.1519, 21.09], [80.1519, 21.0901], [80.1519, 21.0902], [80.152, 21.0902], [80.1521, 21.0902], [80.1522, 21.0902], [80.1523, 21.0902], [80.1523, 21.0901], [80.1524, 21.0901], [80.1525, 21.0901], [80.1526, 21.0901], [80.1527, 21.0901], [80.1528, 21.0901], [80.1529, 21.0901], [80.1529, 21.09], [80.153, 21.09], [80.153, 21.0899], [80.1531, 21.0899], [80.1532, 21.0898], [80.1533, 21.0898], [80.1534, 21.0899], [80.1534, 21.0898], [80.1535, 21.0898], [80.1535, 21.0897], [80.1535, 21.0896], [80.1535, 21.0895], [80.1534, 21.0894], [80.1534, 21.0893], [80.1534, 21.0892], [80.1534, 21.0891], [80.1533, 21.0891], [80.1533, 21.089], [80.1533, 21.0889], [80.1533, 21.0888], [80.1532, 21.0887], [80.1532, 21.0886], [80.1532, 21.0885], [80.1532, 21.0884], [80.1531, 21.0884], [80.1531, 21.0883], [80.1531, 21.0882], [80.1531, 21.0881], [80.1531, 21.088], [80.153, 21.088], [80.153, 21.0879], [80.153, 21.0878], [80.153, 21.0877], [80.1529, 21.0877], [80.1529, 21.0876], [80.1529, 21.0875], [80.1529, 21.0874], [80.1529, 21.0873], [80.1528, 21.0873], [80.1528, 21.0872], [80.1528, 21.0871], [80.1528, 21.087], [80.1527, 21.0869], [80.1527, 21.0868], [80.1527, 21.0867], [80.1527, 21.0866], [80.1526, 21.0866], [80.1526, 21.0865], [80.1526, 21.0864], [80.1526, 21.0863], [80.1526, 21.0862], [80.1525, 21.0862], [80.1525, 21.0861], [80.1525, 21.086], [80.1525, 21.0859], [80.1524, 21.0858], [80.1525, 21.0858], [80.1524, 21.0858], [80.1524, 21.0857], [80.1524, 21.0856], [80.1524, 21.0855], [80.1524, 21.0854]]]}, "properties": {"objectid": 149441, "statename": "Maharashtra", "statecode": "27", "districtname": "", "districtcode": "507", "ulbname": "Sadak Arjuni", "ulbcode": "900363", "wardname": "Ward 17", "wardcode": "17", "id": null, "status": "APPROVED", "misglobalid": null, "approved_by": null, "createdate": 1644415981000, "updateddate": 1644417848000, "globalid": null, "gisglobalid": "QRQnBsss-PQls-P5nQ-Ql5B-46sKQasKc644", "remark": "", "st_area(shape)": 9.284167943022124e-06, "st_perimeter(shape)": 0.013548054126893456}}]}
