{"type": "FeatureCollection", "features": [{"type": "Feature", "geometry": {"type": "Polygon", "coordinates": [[[79.5424, 28.2121], [79.542, 28.2117], [79.5417, 28.2119], [79.5414, 28.2121], [79.5412, 28.2123], [79.541, 28.2124], [79.5409, 28.2127], [79.541, 28.213], [79.5411, 28.2136], [79.5411, 28.2138], [79.5411, 28.2141], [79.5412, 28.2143], [79.5415, 28.2145], [79.5417, 28.2148], [79.5421, 28.2153], [79.5423, 28.2154], [79.5425, 28.2155], [79.5426, 28.2158], [79.5428, 28.216], [79.5434, 28.2166], [79.5437, 28.2167], [79.5442, 28.2171], [79.5445, 28.2172], [79.5448, 28.217], [79.5452, 28.2167], [79.5457, 28.2171], [79.5459, 28.2172], [79.547, 28.2169], [79.5469, 28.2144], [79.5445, 28.2139], [79.5441, 28.2132], [79.5435, 28.2132], [79.5424, 28.2121]]]}, "properties": {"objectid": 257245, "statename": "Uttar Pradesh", "statecode": "9", "districtname": "Bareilly", "districtcode": "150", "ulbname": "Faridpur", "ulbcode": "800873", "wardname": "Para Jatwan", "wardcode": "1", "id": null, "status": "APPROVED", "misglobalid": null, "approved_by": null, "createdate": 1648714700000, "updateddate": 1648720720000, "globalid": null, "gisglobalid": "4c5ad4Ba-cQdl-Paa6-RnnK-d4Po6Qonllom", "remark": "", "st_area(shape)": 1.8359960136500628e-05, "st_perimeter(shape)": 0.019223866791108973}}, {"type": "Feature", "geometry": {"type": "Polygon", "coordinates": [[[79.5356, 28.2137], [79.5381, 28.2093], [79.5379, 28.2091], [79.5376, 28.2094], [79.5372, 28.2089], [79.5368, 28.2092], [79.5363, 28.2085], [79.5352, 28.2092], [79.5347, 28.2085], [79.5336, 28.2098], [79.5344, 28.2109], [79.5347, 28.2109], [79.5354, 28.2116], [79.5353, 28.2117], [79.5345, 28.2126], [79.5344, 28.2129], [79.5351, 28.2139], [79.5356, 28.2137]]]}, "properties": {"objectid": 256429, "statename": "Uttar Pradesh", "statecode": "9", "districtname": "Bareilly", "districtcode": "150", "ulbname": "Faridpur", "ulbcode": "800873", "wardname": "Farrakhpur", "wardcode": "2", "id": null, "status": "APPROVED", "misglobalid": null, "approved_by": null, "createdate": 1648714731000, "updateddate": 1648721085000, "globalid": null, "gisglobalid": "la46scBm-PKlc-P4Rm-sRR4-o4mP6KKPBl5P", "remark": "", "st_area(shape)": 1.1876986703672086e-05, "st_perimeter(shape)": 0.017570937650272556}}, {"type": "Feature", "geometry": {"type": "Polygon", "coordinates": [[[79.5434, 28.2166], [79.5427, 28.2161], [79.5425, 28.2157], [79.5423, 28.2154], [79.5421, 28.2154], [79.5411, 28.2143], [79.541, 28.214], [79.541, 28.2135], [79.5409, 28.213], [79.5409, 28.2127], [79.5409, 28.2124], [79.5419, 28.2116], [79.5415, 28.2111], [79.5404, 28.2116], [79.5399, 28.2114], [79.5395, 28.2117], [79.5398, 28.2124], [79.5401, 28.2129], [79.5403, 28.2132], [79.5401, 28.2135], [79.5399, 28.2138], [79.5403, 28.2154], [79.5403, 28.2156], [79.5404, 28.2162], [79.5409, 28.216], [79.5411, 28.2161], [79.5413, 28.2163], [79.5418, 28.2167], [79.542, 28.2169], [79.5423, 28.2172], [79.5424, 28.2172], [79.5426, 28.2172], [79.5434, 28.2166]]]}, "properties": {"objectid": 256055, "statename": "Uttar Pradesh", "statecode": "9", "districtname": "Bareilly", "districtcode": "150", "ulbname": "Faridpur", "ulbcode": "800873", "wardname": "Para 2", "wardcode": "3", "id": null, "status": "APPROVED", "misglobalid": null, "approved_by": null, "createdate": 1648715757000, "updateddate": 1648721096000, "globalid": null, "gisglobalid": "6aQ55K5B-RooB-PBc4-ssoB-csBlQ6co546d", "remark": "", "st_area(shape)": 8.177423880253326e-06, "st_perimeter(shape)": 0.018331042108389223}}, {"type": "Feature", "geometry": {"type": "Polygon", "coordinates": [[[79.5426, 28.2097], [79.5419, 28.21], [79.5417, 28.2101], [79.5418, 28.2102], [79.542, 28.2104], [79.5421, 28.2105], [79.5423, 28.2106], [79.5428, 28.2102], [79.543, 28.2106], [79.543, 28.2107], [79.5439, 28.2105], [79.5445, 28.2118], [79.5447, 28.2116], [79.5449, 28.2118], [79.5469, 28.2112], [79.5471, 28.2115], [79.5472, 28.2131], [79.5515, 28.2127], [79.5516, 28.2089], [79.5509, 28.209], [79.5484, 28.2097], [79.5472, 28.2101], [79.5471, 28.2101], [79.547, 28.2098], [79.5468, 28.2099], [79.5469, 28.21], [79.5469, 28.2101], [79.5462, 28.2103], [79.5461, 28.2103], [79.546, 28.21], [79.5459, 28.21], [79.5458, 28.2096], [79.5455, 28.2097], [79.5454, 28.2094], [79.5449, 28.2096], [79.5444, 28.2089], [79.543, 28.2097], [79.5426, 28.2097]]]}, "properties": {"objectid": 257248, "statename": "Uttar Pradesh", "statecode": "9", "districtname": "Bareilly", "districtcode": "150", "ulbname": "Faridpur", "ulbcode": "800873", "wardname": "Mirdhan Nai Basti", "wardcode": "4", "id": null, "status": "APPROVED", "misglobalid": null, "approved_by": null, "createdate": 1648714783000, "updateddate": 1648721108000, "globalid": null, "gisglobalid": "csldQnam-Knlm-PonP-Q55B-odPlKnndQ5d6", "remark": "", "st_area(shape)": 2.2913880602208692e-05, "st_perimeter(shape)": 0.029012992483741364}}, {"type": "Feature", "geometry": {"type": "Polygon", "coordinates": [[[79.536, 28.2028], [79.5369, 28.2015], [79.5377, 28.2003], [79.5381, 28.2008], [79.5378, 28.2012], [79.5379, 28.2016], [79.5385, 28.2025], [79.5395, 28.2044], [79.5409, 28.2071], [79.5424, 28.2057], [79.5444, 28.203], [79.5478, 28.1986], [79.5476, 28.1985], [79.5419, 28.1964], [79.5373, 28.1956], [79.5361, 28.1962], [79.5364, 28.1978], [79.5369, 28.2001], [79.5369, 28.2004], [79.5361, 28.2016], [79.5356, 28.2024], [79.536, 28.2028]]]}, "properties": {"objectid": 256430, "statename": "Uttar Pradesh", "statecode": "9", "districtname": "Bareilly", "districtcode": "150", "ulbname": "Faridpur", "ulbcode": "800873", "wardname": "Station Road Nai Basti", "wardcode": "5", "id": null, "status": "APPROVED", "misglobalid": null, "approved_by": null, "createdate": 1648714816000, "updateddate": 1648721127000, "globalid": null, "gisglobalid": "6Kc4R6dK-ocBn-P6lP-aoBQ-QPmR4s5Rsnma", "remark": "", "st_area(shape)": 7.257118441628624e-05, "st_perimeter(shape)": 0.041339904325915305}}, {"type": "Feature", "geometry": {"type": "Polygon", "coordinates": [[[79.5445, 28.2138], [79.5471, 28.2143], [79.5472, 28.2146], [79.5472, 28.2147], [79.5474, 28.2173], [79.5476, 28.2186], [79.5482, 28.2197], [79.5496, 28.2207], [79.5503, 28.2166], [79.5514, 28.2128], [79.547, 28.2132], [79.547, 28.2131], [79.5468, 28.2113], [79.5449, 28.2119], [79.5447, 28.2117], [79.5444, 28.2119], [79.5445, 28.2124], [79.5439, 28.2128], [79.5445, 28.2138]]]}, "properties": {"objectid": 256047, "statename": "Uttar Pradesh", "statecode": "9", "districtname": "Bareilly", "districtcode": "150", "ulbname": "Faridpur", "ulbcode": "800873", "wardname": "Para-1", "wardcode": "6", "id": null, "status": "APPROVED", "misglobalid": null, "approved_by": null, "createdate": 1648714914000, "updateddate": 1648721143000, "globalid": null, "gisglobalid": "5P5Qnm64-BosR-P5PB-a4n5-QcRcaoP4BPca", "remark": "", "st_area(shape)": 2.7739956495276565e-05, "st_perimeter(shape)": 0.02938016990211092}}, {"type": "Feature", "geometry": {"type": "Polygon", "coordinates": [[[79.537, 28.2135], [79.5376, 28.2134], [79.5382, 28.2134], [79.5385, 28.2136], [79.5388, 28.213], [79.5387, 28.2127], [79.5393, 28.2124], [79.5391, 28.2119], [79.539, 28.2113], [79.539, 28.211], [79.5387, 28.2106], [79.5385, 28.2103], [79.5385, 28.2099], [79.5383, 28.2093], [79.5382, 28.2093], [79.5375, 28.2105], [79.536, 28.2134], [79.5364, 28.2135], [79.537, 28.2135]]]}, "properties": {"objectid": 253627, "statename": "Uttar Pradesh", "statecode": "9", "districtname": "Bareilly", "districtcode": "150", "ulbname": "Faridpur", "ulbcode": "800873", "wardname": "Mohalla Uncha", "wardcode": "7", "id": null, "status": "APPROVED", "misglobalid": null, "approved_by": null, "createdate": 1648715017000, "updateddate": 1648721159000, "globalid": null, "gisglobalid": "4no566Qs-Ql4a-PnB5-Ro4c-soo6RnnQ6lan", "remark": "", "st_area(shape)": 7.341070350267958e-06, "st_perimeter(shape)": 0.012394471898785973}}, {"type": "Feature", "geometry": {"type": "Polygon", "coordinates": [[[79.5322, 28.2204], [79.5371, 28.2225], [79.5376, 28.2211], [79.5376, 28.2199], [79.5383, 28.2194], [79.5389, 28.2189], [79.5387, 28.2186], [79.5397, 28.2182], [79.5398, 28.218], [79.5405, 28.2176], [79.5403, 28.2165], [79.5401, 28.2152], [79.5401, 28.2145], [79.5399, 28.2142], [79.5398, 28.2138], [79.5394, 28.2139], [79.5392, 28.2139], [79.539, 28.2138], [79.5388, 28.2138], [79.5384, 28.2137], [79.5382, 28.2136], [79.5379, 28.2135], [79.5377, 28.2135], [79.5371, 28.2136], [79.5365, 28.2136], [79.536, 28.2135], [79.5322, 28.2204]]]}, "properties": {"objectid": 256828, "statename": "Uttar Pradesh", "statecode": "9", "districtname": "Bareilly", "districtcode": "150", "ulbname": "Faridpur", "ulbcode": "800873", "wardname": "Naher Kothi", "wardcode": "8", "id": null, "status": "APPROVED", "misglobalid": null, "approved_by": null, "createdate": 1648715052000, "updateddate": 1648721173000, "globalid": null, "gisglobalid": "BdlKPmnc-lm6n-Pn5s-s56a-6B66o46R4sla", "remark": "", "st_area(shape)": 4.288468629636325e-05, "st_perimeter(shape)": 0.027787356771092682}}, {"type": "Feature", "geometry": {"type": "Polygon", "coordinates": [[[79.5284, 28.2105], [79.5328, 28.2059], [79.5324, 28.2054], [79.532, 28.2048], [79.5322, 28.2047], [79.5316, 28.204], [79.531, 28.2032], [79.5294, 28.2018], [79.5293, 28.2016], [79.5272, 28.2031], [79.525, 28.2066], [79.5284, 28.2105]]]}, "properties": {"objectid": 256048, "statename": "Uttar Pradesh", "statecode": "9", "districtname": "Bareilly", "districtcode": "150", "ulbname": "Faridpur", "ulbcode": "800873", "wardname": "Mathiya Bukhara Road", "wardcode": "9", "id": null, "status": "APPROVED", "misglobalid": null, "approved_by": null, "createdate": 1648715079000, "updateddate": 1648732504000, "globalid": null, "gisglobalid": "4adcalms-BQBQ-Pnad-Rlcl-Blss6RsKBllK", "remark": "", "st_area(shape)": 3.756256275280091e-05, "st_perimeter(shape)": 0.02403245782765952}}, {"type": "Feature", "geometry": {"type": "Polygon", "coordinates": [[[79.5359, 28.2029], [79.5338, 28.2054], [79.5342, 28.206], [79.5345, 28.2059], [79.535, 28.206], [79.535, 28.2056], [79.5357, 28.2055], [79.5358, 28.2058], [79.5367, 28.2057], [79.5372, 28.2055], [79.5379, 28.2048], [79.5373, 28.204], [79.5368, 28.2042], [79.5367, 28.204], [79.5363, 28.2043], [79.536, 28.2039], [79.5358, 28.2035], [79.536, 28.2031], [79.5359, 28.2029]]]}, "properties": {"objectid": 256829, "statename": "Uttar Pradesh", "statecode": "9", "districtname": "Bareilly", "districtcode": "150", "ulbname": "Faridpur", "ulbcode": "800873", "wardname": "Kanoongoyan", "wardcode": "10", "id": null, "status": "APPROVED", "misglobalid": null, "approved_by": null, "createdate": 1648715096000, "updateddate": 1648732536000, "globalid": null, "gisglobalid": "snQc4l5l-BK4P-PnQm-aPRK-lmldcB4lB6PQ", "remark": "", "st_area(shape)": 5.825091195888819e-06, "st_perimeter(shape)": 0.012286488100570455}}, {"type": "Feature", "geometry": {"type": "Polygon", "coordinates": [[[79.5379, 28.2008], [79.5378, 28.2006], [79.537, 28.2016], [79.5361, 28.2028], [79.5363, 28.203], [79.5359, 28.2035], [79.536, 28.2039], [79.5363, 28.2042], [79.5367, 28.2039], [79.5369, 28.2041], [79.5374, 28.2039], [79.5379, 28.2047], [79.5389, 28.2038], [79.5385, 28.203], [79.5381, 28.2022], [79.5377, 28.2016], [79.5376, 28.2012], [79.5379, 28.2008]]]}, "properties": {"objectid": 256054, "statename": "Uttar Pradesh", "statecode": "9", "districtname": "Bareilly", "districtcode": "150", "ulbname": "Faridpur", "ulbcode": "800873", "wardname": "Baksariya", "wardcode": "11", "id": null, "status": "APPROVED", "misglobalid": null, "approved_by": null, "createdate": 1648715631000, "updateddate": 1648732548000, "globalid": null, "gisglobalid": "Pd4dRQmd-mRKc-PmdB-Q4Q6-Pcan5sBaB4nB", "remark": "", "st_area(shape)": 5.811792125478583e-06, "st_perimeter(shape)": 0.011772504108734294}}, {"type": "Feature", "geometry": {"type": "Polygon", "coordinates": [[[79.527, 28.2155], [79.532, 28.2203], [79.5333, 28.218], [79.5355, 28.2139], [79.5351, 28.214], [79.5344, 28.2132], [79.5343, 28.2128], [79.5345, 28.2124], [79.5351, 28.2119], [79.5352, 28.2116], [79.5349, 28.2114], [79.5347, 28.211], [79.5344, 28.2109], [79.5341, 28.2105], [79.5335, 28.2098], [79.5321, 28.2108], [79.5314, 28.2113], [79.5305, 28.212], [79.527, 28.2155]]]}, "properties": {"objectid": 256049, "statename": "Uttar Pradesh", "statecode": "9", "districtname": "Bareilly", "districtcode": "150", "ulbname": "Faridpur", "ulbcode": "800873", "wardname": "Farrakhpur Nai Basti", "wardcode": "12", "id": null, "status": "APPROVED", "misglobalid": null, "approved_by": null, "createdate": 1648715126000, "updateddate": 1648732561000, "globalid": null, "gisglobalid": "sdmmoocR-slac-PQRa-aasP-Bo6mPoRKBQKl", "remark": "", "st_area(shape)": 4.5154017910984356e-05, "st_perimeter(shape)": 0.029017659447705242}}, {"type": "Feature", "geometry": {"type": "Polygon", "coordinates": [[[79.5348, 28.2041], [79.5354, 28.2031], [79.5355, 28.2026], [79.5354, 28.2022], [79.5368, 28.2003], [79.5359, 28.1962], [79.5373, 28.1955], [79.5355, 28.1947], [79.5304, 28.1989], [79.5301, 28.2007], [79.5294, 28.2016], [79.5311, 28.203], [79.5323, 28.2046], [79.5322, 28.2049], [79.533, 28.2059], [79.5348, 28.2041]]]}, "properties": {"objectid": 256830, "statename": "Uttar Pradesh", "statecode": "9", "districtname": "Bareilly", "districtcode": "150", "ulbname": "Faridpur", "ulbcode": "800873", "wardname": "Padhera  Road Linepar", "wardcode": "13", "id": null, "status": "APPROVED", "misglobalid": null, "approved_by": null, "createdate": 1648715156000, "updateddate": 1648732577000, "globalid": null, "gisglobalid": "cQs6oPK4-so55-Pcoo-sdKP-l5QK6B6PR5sK", "remark": "", "st_area(shape)": 4.5584788411054225e-05, "st_perimeter(shape)": 0.03005714331732984}}, {"type": "Feature", "geometry": {"type": "Polygon", "coordinates": [[[79.5334, 28.2067], [79.5334, 28.2071], [79.5338, 28.2073], [79.5341, 28.2078], [79.5351, 28.2074], [79.5355, 28.2073], [79.5359, 28.2076], [79.5357, 28.2078], [79.5354, 28.2079], [79.5354, 28.2081], [79.5359, 28.2079], [79.5362, 28.2077], [79.5365, 28.2078], [79.5367, 28.2078], [79.5366, 28.2074], [79.5368, 28.2072], [79.5372, 28.2071], [79.5368, 28.2061], [79.5367, 28.2057], [79.5358, 28.2059], [79.5357, 28.2057], [79.5357, 28.2056], [79.5351, 28.2057], [79.5351, 28.206], [79.5348, 28.206], [79.5345, 28.206], [79.5341, 28.2061], [79.5336, 28.2063], [79.5334, 28.2067]]]}, "properties": {"objectid": 256050, "statename": "Uttar Pradesh", "statecode": "9", "districtname": "Bareilly", "districtcode": "150", "ulbname": "Faridpur", "ulbcode": "800873", "wardname": "Kanoongoyan 2", "wardcode": "14", "id": null, "status": "APPROVED", "misglobalid": null, "approved_by": null, "createdate": 1648715207000, "updateddate": 1648732588000, "globalid": null, "gisglobalid": "Q5R6RnPd-6nn6-PsQd-a6B6-5sQQ5sR56dan", "remark": "", "st_area(shape)": 5.64946485199684e-06, "st_perimeter(shape)": 0.012286843885279513}}, {"type": "Feature", "geometry": {"type": "Polygon", "coordinates": [[[79.541, 28.2073], [79.5399, 28.2079], [79.5401, 28.2082], [79.5404, 28.2088], [79.5406, 28.2091], [79.5408, 28.2092], [79.5409, 28.209], [79.5413, 28.2089], [79.5415, 28.2087], [79.5417, 28.2086], [79.5422, 28.2082], [79.543, 28.2076], [79.5434, 28.2074], [79.544, 28.2069], [79.5443, 28.2071], [79.5458, 28.2081], [79.5463, 28.2089], [79.5468, 28.2098], [79.5471, 28.2098], [79.5472, 28.21], [79.5478, 28.2098], [79.5516, 28.2088], [79.5514, 28.2074], [79.5507, 28.2049], [79.5503, 28.2036], [79.5495, 28.2013], [79.549, 28.1997], [79.5477, 28.1991], [79.5457, 28.2016], [79.5444, 28.2034], [79.5425, 28.2059], [79.541, 28.2073]]]}, "properties": {"objectid": 254884, "statename": "Uttar Pradesh", "statecode": "9", "districtname": "Bareilly", "districtcode": "150", "ulbname": "Faridpur", "ulbcode": "800873", "wardname": "Mirdhan-1", "wardcode": "15", "id": null, "status": "APPROVED", "misglobalid": null, "approved_by": null, "createdate": 1648715275000, "updateddate": 1648732603000, "globalid": null, "gisglobalid": "Kn5KoRBc-osnB-PdQd-amom-mK46sadnsdd5", "remark": "", "st_area(shape)": 6.0814833599678696e-05, "st_perimeter(shape)": 0.03755297089457779}}, {"type": "Feature", "geometry": {"type": "Polygon", "coordinates": [[[79.5334, 28.2097], [79.5339, 28.2093], [79.5347, 28.2084], [79.5348, 28.2084], [79.5353, 28.209], [79.5364, 28.2084], [79.5369, 28.2091], [79.5372, 28.2089], [79.5373, 28.2089], [79.5376, 28.2093], [79.5378, 28.209], [79.538, 28.209], [79.5382, 28.2093], [79.5383, 28.209], [79.5381, 28.2089], [79.5379, 28.2088], [79.5374, 28.2088], [79.5369, 28.2082], [79.5366, 28.2079], [79.5362, 28.2078], [79.536, 28.2079], [79.5353, 28.2082], [79.5353, 28.2079], [79.5358, 28.2076], [79.5355, 28.2074], [79.5351, 28.2074], [79.5346, 28.2077], [79.5341, 28.2079], [79.5338, 28.2074], [79.5336, 28.2073], [79.5332, 28.2071], [79.5333, 28.2068], [79.5334, 28.2065], [79.5336, 28.2063], [79.5341, 28.206], [79.5338, 28.2053], [79.5324, 28.2069], [79.5315, 28.2077], [79.5323, 28.209], [79.5324, 28.2091], [79.5327, 28.2089], [79.5328, 28.2089], [79.5331, 28.2093], [79.5328, 28.2096], [79.5331, 28.21], [79.5334, 28.2097]]]}, "properties": {"objectid": 256051, "statename": "Uttar Pradesh", "statecode": "9", "districtname": "Bareilly", "districtcode": "150", "ulbname": "Faridpur", "ulbcode": "800873", "wardname": "Kassawan", "wardcode": "16", "id": null, "status": "APPROVED", "misglobalid": null, "approved_by": null, "createdate": 1648715302000, "updateddate": 1648732616000, "globalid": null, "gisglobalid": "RaQ4llmd-aoon-Pnam-RnR6-KdRnlsdncl6n", "remark": "", "st_area(shape)": 9.0855229421196e-06, "st_perimeter(shape)": 0.02390281225433115}}, {"type": "Feature", "geometry": {"type": "Polygon", "coordinates": [[[79.5378, 28.2087], [79.5382, 28.2089], [79.5389, 28.2083], [79.5398, 28.2077], [79.5407, 28.2072], [79.539, 28.2039], [79.5381, 28.2047], [79.5378, 28.205], [79.5375, 28.2054], [79.5372, 28.2056], [79.5368, 28.2059], [79.5373, 28.2072], [79.5369, 28.2073], [79.5367, 28.2075], [79.5367, 28.2078], [79.537, 28.2083], [79.5375, 28.2087], [79.5378, 28.2087]]]}, "properties": {"objectid": 256832, "statename": "Uttar Pradesh", "statecode": "9", "districtname": "Bareilly", "districtcode": "150", "ulbname": "Faridpur", "ulbcode": "800873", "wardname": "Sahukara", "wardcode": "17", "id": null, "status": "APPROVED", "misglobalid": null, "approved_by": null, "createdate": 1648715325000, "updateddate": 1648732629000, "globalid": null, "gisglobalid": "PKlolnK4-mB66-PKma-sP56-5PcKandRsPRQ", "remark": "", "st_area(shape)": 1.1284172921498768e-05, "st_perimeter(shape)": 0.014196691639108366}}, {"type": "Feature", "geometry": {"type": "Polygon", "coordinates": [[[79.5438, 28.2129], [79.5438, 28.2128], [79.5445, 28.2124], [79.5444, 28.2118], [79.5439, 28.2107], [79.5439, 28.2106], [79.5436, 28.2107], [79.5434, 28.2107], [79.5432, 28.2107], [79.543, 28.2108], [79.5428, 28.2103], [79.5422, 28.2106], [79.542, 28.2105], [79.5416, 28.2102], [79.5416, 28.2101], [79.5418, 28.21], [79.5418, 28.2099], [79.5416, 28.2096], [79.5415, 28.2093], [79.5415, 28.2091], [79.5413, 28.2092], [79.5412, 28.2094], [79.541, 28.2096], [79.5409, 28.2095], [79.5406, 28.2097], [79.5407, 28.2101], [79.5408, 28.2104], [79.5409, 28.2105], [79.5407, 28.2106], [79.5404, 28.2106], [79.5402, 28.2107], [79.54, 28.211], [79.54, 28.2112], [79.54, 28.2113], [79.5404, 28.2116], [79.5407, 28.2114], [79.5415, 28.211], [79.5421, 28.2116], [79.5423, 28.2118], [79.5426, 28.2122], [79.5432, 28.2128], [79.5435, 28.2131], [79.544, 28.2131], [79.5438, 28.2129]]]}, "properties": {"objectid": 256052, "statename": "Uttar Pradesh", "statecode": "9", "districtname": "Bareilly", "districtcode": "150", "ulbname": "Faridpur", "ulbcode": "800873", "wardname": "Mirdhan/Mahadev", "wardcode": "18", "id": null, "status": "APPROVED", "misglobalid": null, "approved_by": null, "createdate": 1648715368000, "updateddate": 1648732644000, "globalid": null, "gisglobalid": "644dRonm-Q45n-PKnc-addo-smosRo465PP6", "remark": "", "st_area(shape)": 6.87984441021321e-06, "st_perimeter(shape)": 0.015733168424856274}}, {"type": "Feature", "geometry": {"type": "Polygon", "coordinates": [[[79.5393, 28.2124], [79.5393, 28.2125], [79.5388, 28.2127], [79.5388, 28.2131], [79.5386, 28.2136], [79.5391, 28.2137], [79.5393, 28.2139], [79.5397, 28.2137], [79.5399, 28.2137], [79.5402, 28.2132], [79.54, 28.2129], [79.5394, 28.2118], [79.5394, 28.2117], [79.5399, 28.2113], [79.5399, 28.2111], [79.5402, 28.2107], [79.54, 28.2105], [79.5394, 28.2104], [79.539, 28.2101], [79.5385, 28.2097], [79.5387, 28.2102], [79.5389, 28.2107], [79.539, 28.211], [79.5391, 28.2118], [79.5393, 28.2124]]]}, "properties": {"objectid": 257250, "statename": "Uttar Pradesh", "statecode": "9", "districtname": "Bareilly", "districtcode": "150", "ulbname": "Faridpur", "ulbcode": "800873", "wardname": "Mahadev", "wardcode": "19", "id": null, "status": "APPROVED", "misglobalid": null, "approved_by": null, "createdate": 1648715388000, "updateddate": 1648732657000, "globalid": null, "gisglobalid": "KamPmnac-R4on-P4Rd-aBdn-o4s4l5K6Q4K6", "remark": "", "st_area(shape)": 3.2172791739818326e-06, "st_perimeter(shape)": 0.011657794529275215}}, {"type": "Feature", "geometry": {"type": "Polygon", "coordinates": [[[79.5404, 28.2162], [79.5405, 28.217], [79.5409, 28.2182], [79.5413, 28.2188], [79.5423, 28.22], [79.5429, 28.2207], [79.5435, 28.2214], [79.5443, 28.2225], [79.5458, 28.2223], [79.5494, 28.221], [79.5479, 28.22], [79.5474, 28.219], [79.547, 28.2171], [79.5458, 28.2173], [79.5453, 28.2168], [79.5451, 28.2169], [79.5445, 28.2173], [79.5441, 28.2172], [79.5434, 28.2168], [79.5425, 28.2173], [79.5424, 28.2173], [79.5416, 28.2166], [79.5411, 28.2162], [79.5409, 28.216], [79.5404, 28.2162]]]}, "properties": {"objectid": 257251, "statename": "Uttar Pradesh", "statecode": "9", "districtname": "Bareilly", "districtcode": "150", "ulbname": "Faridpur", "ulbcode": "800873", "wardname": "Para Nai Basti", "wardcode": "20", "id": null, "status": "APPROVED", "misglobalid": null, "approved_by": null, "createdate": 1648715417000, "updateddate": 1648732669000, "globalid": null, "gisglobalid": "lQKdmoac-4scn-PamB-Rc5m-dBsoKna5ca64", "remark": "", "st_area(shape)": 2.9970444358524097e-05, "st_perimeter(shape)": 0.02548536406181095}}, {"type": "Feature", "geometry": {"type": "Polygon", "coordinates": [[[79.5304, 28.2119], [79.533, 28.21], [79.5327, 28.2096], [79.533, 28.2093], [79.5327, 28.209], [79.5324, 28.2092], [79.5315, 28.2077], [79.5255, 28.2137], [79.5269, 28.2154], [79.5288, 28.2135], [79.5304, 28.2119]]]}, "properties": {"objectid": 257247, "statename": "Uttar Pradesh", "statecode": "9", "districtname": "Bareilly", "districtcode": "150", "ulbname": "Faridpur", "ulbcode": "800873", "wardname": "Takiya Nai Basti", "wardcode": "21", "id": null, "status": "APPROVED", "misglobalid": null, "approved_by": null, "createdate": 1648715440000, "updateddate": 1648732686000, "globalid": null, "gisglobalid": "R4lsos4P-4acK-PBmR-s5B5-QncoQa5Ro6Bc", "remark": "", "st_area(shape)": 1.9507129726675655e-05, "st_perimeter(shape)": 0.022380157439848496}}, {"type": "Feature", "geometry": {"type": "Polygon", "coordinates": [[[79.5419, 28.2099], [79.5426, 28.2097], [79.543, 28.2097], [79.5437, 28.2093], [79.5445, 28.2088], [79.5449, 28.2095], [79.545, 28.2095], [79.5454, 28.2093], [79.5455, 28.2096], [79.5458, 28.2096], [79.5459, 28.2099], [79.546, 28.2099], [79.5461, 28.2102], [79.5468, 28.21], [79.5453, 28.2079], [79.5449, 28.2075], [79.544, 28.207], [79.5436, 28.2073], [79.543, 28.2077], [79.5425, 28.2081], [79.5426, 28.2082], [79.5426, 28.2083], [79.5428, 28.2086], [79.543, 28.2089], [79.5429, 28.209], [79.5428, 28.2091], [79.5427, 28.2092], [79.5428, 28.2093], [79.5424, 28.2095], [79.5421, 28.2096], [79.5419, 28.2099]]]}, "properties": {"objectid": 254885, "statename": "Uttar Pradesh", "statecode": "9", "districtname": "Bareilly", "districtcode": "150", "ulbname": "Faridpur", "ulbcode": "800873", "wardname": "Mirdhan- 2", "wardcode": "22", "id": null, "status": "APPROVED", "misglobalid": null, "approved_by": null, "createdate": 1648715465000, "updateddate": 1648732704000, "globalid": null, "gisglobalid": "ssaaPP5s-RR5B-PsRP-aRBc-sPBQacam6mso", "remark": "", "st_area(shape)": 6.454105341135175e-06, "st_perimeter(shape)": 0.015202592676156111}}, {"type": "Feature", "geometry": {"type": "Polygon", "coordinates": [[[79.5397, 28.208], [79.5389, 28.2085], [79.5383, 28.2089], [79.5383, 28.2092], [79.5383, 28.2093], [79.5386, 28.2096], [79.5387, 28.2097], [79.539, 28.2099], [79.5392, 28.2101], [79.5395, 28.2103], [79.54, 28.2104], [79.5402, 28.2106], [79.5404, 28.2106], [79.5407, 28.2105], [79.5407, 28.2104], [79.5407, 28.2102], [79.5404, 28.2098], [79.5405, 28.2097], [79.5408, 28.2094], [79.5409, 28.2094], [79.5411, 28.2095], [79.5415, 28.209], [79.5416, 28.209], [79.5416, 28.2095], [79.5417, 28.2096], [79.5418, 28.2099], [79.5419, 28.2096], [79.5421, 28.2095], [79.5424, 28.2094], [79.5426, 28.2093], [79.5427, 28.2093], [79.5427, 28.2092], [79.5427, 28.2091], [79.5429, 28.2089], [79.5426, 28.2085], [79.5424, 28.2082], [79.5423, 28.2084], [79.5417, 28.2088], [79.5415, 28.2089], [79.541, 28.209], [79.5407, 28.2093], [79.5405, 28.2092], [79.5399, 28.2083], [79.5397, 28.208]]]}, "properties": {"objectid": 256431, "statename": "Uttar Pradesh", "statecode": "9", "districtname": "Bareilly", "districtcode": "150", "ulbname": "Faridpur", "ulbcode": "800873", "wardname": "Mirdhan-3", "wardcode": "23", "id": null, "status": "APPROVED", "misglobalid": null, "approved_by": null, "createdate": 1648715492000, "updateddate": 1648732722000, "globalid": null, "gisglobalid": "l5Po5dmP-PQ6c-PoPc-slRa-Q4KnsPR555oB", "remark": "", "st_area(shape)": 5.22100850265183e-06, "st_perimeter(shape)": 0.014525977581643437}}, {"type": "Feature", "geometry": {"type": "Polygon", "coordinates": [[[79.5431, 28.221], [79.5418, 28.2195], [79.541, 28.22], [79.54, 28.2207], [79.5401, 28.2209], [79.5394, 28.2215], [79.5403, 28.2227], [79.5405, 28.223], [79.5418, 28.2229], [79.5442, 28.2225], [79.5431, 28.221]]]}, "properties": {"objectid": 256053, "statename": "Uttar Pradesh", "statecode": "9", "districtname": "Bareilly", "districtcode": "150", "ulbname": "Faridpur", "ulbcode": "800873", "wardname": "Bhure Khan Gautiya-1", "wardcode": "24", "id": null, "status": "APPROVED", "misglobalid": null, "approved_by": null, "createdate": 1648715555000, "updateddate": 1648732746000, "globalid": null, "gisglobalid": "aBc6ncs5-Kl6n-P4om-RlKn-oPacacsoc5lR", "remark": "", "st_area(shape)": 9.582356526238285e-06, "st_perimeter(shape)": 0.012683327077410987}}, {"type": "Feature", "geometry": {"type": "Polygon", "coordinates": [[[79.5417, 28.2194], [79.5408, 28.2184], [79.5406, 28.2177], [79.5398, 28.218], [79.5397, 28.2183], [79.5388, 28.2187], [79.539, 28.2189], [79.5377, 28.2199], [79.5377, 28.2212], [79.5372, 28.2225], [79.5403, 28.2227], [79.5393, 28.2215], [79.5401, 28.2209], [79.54, 28.2207], [79.5412, 28.2198], [79.5417, 28.2194]]]}, "properties": {"objectid": 254886, "statename": "Uttar Pradesh", "statecode": "9", "districtname": "Bareilly", "districtcode": "150", "ulbname": "Faridpur", "ulbcode": "800873", "wardname": "Bhure Khan Gautiya-2", "wardcode": "25", "id": null, "status": "APPROVED", "misglobalid": null, "approved_by": null, "createdate": 1648715588000, "updateddate": 1648732766000, "globalid": null, "gisglobalid": "dKRnoKsl-m5s5-PnlP-aana-nsQoKK5sBd5o", "remark": "", "st_area(shape)": 1.1162718005394302e-05, "st_perimeter(shape)": 0.016730837153534957}}]}
