{"type": "FeatureCollection", "features": [{"type": "Feature", "geometry": {"type": "Polygon", "coordinates": [[[70.0654, 23.0722], [70.0734, 23.0749], [70.0735, 23.0736], [70.0737, 23.0717], [70.0726, 23.0715], [70.0729, 23.0679], [70.0765, 23.0681], [70.0765, 23.0683], [70.0772, 23.0684], [70.0772, 23.068], [70.0773, 23.0677], [70.0771, 23.0674], [70.0764, 23.0674], [70.0752, 23.0661], [70.0754, 23.0649], [70.0754, 23.0648], [70.0738, 23.0646], [70.0716, 23.0641], [70.0661, 23.071], [70.0654, 23.0722]]]}, "properties": {"objectid": 54825, "statename": "Gujarat", "statecode": "24", "districtname": "Kutch", "districtcode": "468", "ulbname": "Gandhidham", "ulbcode": "802447", "wardname": " Ward 1", "wardcode": "1", "id": null, "status": "APPROVED", "misglobalid": null, "approved_by": "ULB Nodal Officer", "createdate": 1640002631000, "updateddate": 1640068236000, "globalid": "Pmald6Bn-RBQn-PnnB-admc-6RacPBc5acm4", "gisglobalid": "31b052c2-7c46-42e8-ab51-55fd7dac6474", "remark": "", "st_area(shape)": 5.766887286119e-05, "st_perimeter(shape)": 0.03979730062176895}}, {"type": "Feature", "geometry": {"type": "Polygon", "coordinates": [[[70.0737, 23.0717], [70.0734, 23.0749], [70.0785, 23.0767], [70.082, 23.0779], [70.0876, 23.0798], [70.0925, 23.0815], [70.0952, 23.0824], [70.0997, 23.0833], [70.1056, 23.0841], [70.1071, 23.0754], [70.096, 23.0741], [70.0903, 23.0734], [70.0817, 23.0724], [70.0776, 23.0722], [70.0754, 23.0717], [70.0737, 23.0717]]]}, "properties": {"objectid": 51771, "statename": "Gujarat", "statecode": "24", "districtname": "Kutch", "districtcode": "468", "ulbname": "Gandhidham", "ulbcode": "802447", "wardname": "Ward 2", "wardcode": "2", "id": null, "status": "APPROVED", "misglobalid": null, "approved_by": "ULB Nodal Officer", "createdate": 1640002079000, "updateddate": 1640002233000, "globalid": "K4cmPnQm-6amP-Psm5-QR6B-6aRoQmsPmQQd", "gisglobalid": "d7f3bb69-1867-4c28-828a-9efe30690974", "remark": "Done", "st_area(shape)": 0.00022655624856686893, "st_perimeter(shape)": 0.07930528975914455}}, {"type": "Feature", "geometry": {"type": "Polygon", "coordinates": [[[70.1057, 23.0838], [70.1056, 23.0841], [70.1236, 23.0867], [70.1237, 23.0867], [70.1235, 23.086], [70.1253, 23.0856], [70.1252, 23.0852], [70.1234, 23.0856], [70.123, 23.084], [70.1225, 23.082], [70.1223, 23.0811], [70.1218, 23.0809], [70.1208, 23.077], [70.1071, 23.0754], [70.1064, 23.0795], [70.1057, 23.0838]]]}, "properties": {"objectid": 52996, "statename": "Gujarat", "statecode": "24", "districtname": "Kutch", "districtcode": "468", "ulbname": "Gandhidham", "ulbcode": "802447", "wardname": "Ward 3", "wardcode": "3", "id": null, "status": "APPROVED", "misglobalid": null, "approved_by": "ULB Nodal Officer", "createdate": 1640002963000, "updateddate": 1640082481000, "globalid": "Qos5KRam-QBPK-P6PQ-admc-Bsm5mQmQBBcn", "gisglobalid": "21bb3820-cd41-44b9-895b-e040b035bb18", "remark": "", "st_area(shape)": 0.00014628809105575615, "st_perimeter(shape)": 0.054908590744580855}}, {"type": "Feature", "geometry": {"type": "Polygon", "coordinates": [[[70.1223, 23.081], [70.1237, 23.0867], [70.1283, 23.086], [70.1311, 23.0857], [70.1309, 23.0848], [70.1307, 23.0833], [70.1302, 23.0833], [70.1298, 23.0835], [70.1292, 23.0809], [70.1301, 23.0807], [70.1298, 23.0794], [70.1261, 23.0801], [70.1254, 23.0778], [70.1252, 23.0779], [70.1233, 23.0785], [70.1233, 23.079], [70.1241, 23.0788], [70.1244, 23.0799], [70.1237, 23.0801], [70.1238, 23.0806], [70.1223, 23.081]]]}, "properties": {"objectid": 52884, "statename": "Gujarat", "statecode": "24", "districtname": "Kutch", "districtcode": "468", "ulbname": "Gandhidham", "ulbcode": "802447", "wardname": "Ward 4", "wardcode": "4", "id": null, "status": "APPROVED", "misglobalid": null, "approved_by": "ULB Nodal Officer", "createdate": 1639985744000, "updateddate": 1640068329000, "globalid": "KmPmPaBc-nRsm-P5nP-aQms-aPaQaKP4oma4", "gisglobalid": "e5fdacc7-353f-4cec-9998-eaedf2a4312e", "remark": "", "st_area(shape)": 4.875102028905751e-05, "st_perimeter(shape)": 0.03517736396955159}}, {"type": "Feature", "geometry": {"type": "Polygon", "coordinates": [[[70.1311, 23.0858], [70.1393, 23.0845], [70.1393, 23.0841], [70.1392, 23.0841], [70.1391, 23.0832], [70.1389, 23.0819], [70.1388, 23.0809], [70.1385, 23.0799], [70.1381, 23.0788], [70.1375, 23.078], [70.1366, 23.0768], [70.136, 23.0758], [70.1357, 23.0752], [70.1355, 23.0744], [70.1354, 23.0735], [70.132, 23.0738], [70.1316, 23.0719], [70.1313, 23.0699], [70.1351, 23.0697], [70.1353, 23.0669], [70.1355, 23.0662], [70.1355, 23.0649], [70.133, 23.0649], [70.1302, 23.0648], [70.1255, 23.0658], [70.127, 23.0704], [70.1286, 23.0747], [70.1295, 23.0776], [70.1298, 23.0795], [70.1301, 23.0808], [70.1292, 23.0809], [70.1298, 23.0834], [70.1307, 23.0832], [70.1311, 23.0858]]]}, "properties": {"objectid": 53668, "statename": "Gujarat", "statecode": "24", "districtname": "Kutch", "districtcode": "468", "ulbname": "Gandhidham", "ulbcode": "802447", "wardname": "Ward 5", "wardcode": "5", "id": null, "status": "APPROVED", "misglobalid": null, "approved_by": "ULB Nodal Officer", "createdate": 1640003381000, "updateddate": 1640069918000, "globalid": "dda4cmQ5-PQPc-Pn44-slBR-caPlsnQdomPd", "gisglobalid": "5a310a8d-3950-41d4-9619-715ec1e3dba1", "remark": "", "st_area(shape)": 0.00015408130648791334, "st_perimeter(shape)": 0.06916292011930414}}, {"type": "Feature", "geometry": {"type": "Polygon", "coordinates": [[[70.1393, 23.0845], [70.1394, 23.0845], [70.1402, 23.0844], [70.1416, 23.0842], [70.1431, 23.084], [70.1442, 23.0838], [70.1451, 23.0837], [70.1457, 23.0835], [70.146, 23.0834], [70.1465, 23.0832], [70.1469, 23.0828], [70.1475, 23.0822], [70.1478, 23.0817], [70.1483, 23.0808], [70.1484, 23.0801], [70.1484, 23.0765], [70.1484, 23.0741], [70.1484, 23.0727], [70.1483, 23.0693], [70.1482, 23.0674], [70.1482, 23.0661], [70.1478, 23.0606], [70.1476, 23.0579], [70.1475, 23.0554], [70.1474, 23.0539], [70.1473, 23.0524], [70.1472, 23.05], [70.1471, 23.0467], [70.147, 23.0448], [70.1469, 23.0401], [70.1467, 23.0378], [70.139, 23.0375], [70.139, 23.0393], [70.1391, 23.0394], [70.1395, 23.0401], [70.1405, 23.0423], [70.1413, 23.0442], [70.1419, 23.0459], [70.1423, 23.0471], [70.1429, 23.0493], [70.1433, 23.0507], [70.1436, 23.0523], [70.144, 23.0544], [70.1442, 23.0564], [70.1443, 23.0581], [70.1445, 23.0597], [70.1445, 23.0612], [70.1447, 23.0643], [70.1447, 23.0661], [70.1448, 23.0665], [70.1448, 23.0684], [70.1448, 23.0707], [70.1442, 23.0708], [70.1439, 23.0743], [70.1437, 23.0749], [70.1438, 23.0751], [70.144, 23.0752], [70.1441, 23.0753], [70.1442, 23.0754], [70.1438, 23.0775], [70.1424, 23.0773], [70.1406, 23.0793], [70.1398, 23.0801], [70.1388, 23.0811], [70.1389, 23.0817], [70.139, 23.0829], [70.1392, 23.0841], [70.1393, 23.0841], [70.1393, 23.0845]]]}, "properties": {"objectid": 53670, "statename": "Gujarat", "statecode": "24", "districtname": "Kutch", "districtcode": "468", "ulbname": "Gandhidham", "ulbcode": "802447", "wardname": "Ward 6", "wardcode": "6", "id": null, "status": "APPROVED", "misglobalid": null, "approved_by": "ULB Nodal Officer", "createdate": 1640004114000, "updateddate": 1640082509000, "globalid": "a6s4Po6d-PnmQ-PKB5-Q5sc-4d4lKBoKQQcd", "gisglobalid": "2abbc889-96fd-4674-8bfb-b26e072c4065", "remark": "", "st_area(shape)": 0.00022710419444443118, "st_perimeter(shape)": 0.11294274322950337}}, {"type": "Feature", "geometry": {"type": "Polygon", "coordinates": [[[70.1388, 23.0811], [70.1401, 23.0798], [70.1424, 23.0773], [70.1438, 23.0775], [70.1441, 23.0757], [70.1442, 23.0754], [70.1441, 23.0752], [70.144, 23.0752], [70.1438, 23.0751], [70.1437, 23.0749], [70.1438, 23.0747], [70.1438, 23.0743], [70.144, 23.0725], [70.1442, 23.0707], [70.1448, 23.0707], [70.1448, 23.0685], [70.1448, 23.0679], [70.1447, 23.0662], [70.1447, 23.0646], [70.1447, 23.0642], [70.1445, 23.0611], [70.1445, 23.0597], [70.142, 23.0599], [70.1405, 23.0599], [70.1382, 23.06], [70.1355, 23.0601], [70.1343, 23.0601], [70.1321, 23.0602], [70.1312, 23.0602], [70.1311, 23.0607], [70.1309, 23.0614], [70.1308, 23.0618], [70.1307, 23.0622], [70.1306, 23.0625], [70.1304, 23.0631], [70.1299, 23.0649], [70.1312, 23.0648], [70.1324, 23.0649], [70.1336, 23.065], [70.1355, 23.065], [70.1355, 23.0662], [70.1354, 23.0666], [70.1352, 23.0673], [70.1352, 23.0679], [70.1352, 23.0688], [70.1351, 23.0697], [70.1346, 23.0697], [70.1333, 23.0698], [70.1313, 23.0699], [70.1314, 23.0704], [70.1318, 23.0726], [70.1321, 23.0737], [70.1337, 23.0736], [70.1353, 23.0735], [70.1354, 23.0744], [70.1357, 23.0753], [70.136, 23.0758], [70.1364, 23.0764], [70.1372, 23.0775], [70.1381, 23.0787], [70.1384, 23.0796], [70.1388, 23.0811]]]}, "properties": {"objectid": 50950, "statename": "Gujarat", "statecode": "24", "districtname": "Kutch", "districtcode": "468", "ulbname": "Gandhidham", "ulbcode": "802447", "wardname": "Ward 7", "wardcode": "7", "id": null, "status": "APPROVED", "misglobalid": null, "approved_by": "ULB Nodal Officer", "createdate": 1639985572000, "updateddate": 1640001557000, "globalid": "PBPl5RsK-Kl4P-PQsB-scQl-o5nP5PBosmo4", "gisglobalid": "23e0c3b3-4455-4122-a317-93d4cfc9a044", "remark": "Done", "st_area(shape)": 0.0002021294886782192, "st_perimeter(shape)": 0.07348621441237846}}, {"type": "Feature", "geometry": {"type": "Polygon", "coordinates": [[[70.1193, 23.0741], [70.1199, 23.0768], [70.1208, 23.0769], [70.1211, 23.0782], [70.1218, 23.0809], [70.1223, 23.0811], [70.1238, 23.0806], [70.1237, 23.0801], [70.1244, 23.0799], [70.1241, 23.0788], [70.1233, 23.0789], [70.1233, 23.0785], [70.1245, 23.0781], [70.1252, 23.0779], [70.1254, 23.0778], [70.1261, 23.0801], [70.1298, 23.0794], [70.1295, 23.0776], [70.1287, 23.0752], [70.1278, 23.0725], [70.1248, 23.0731], [70.1227, 23.0734], [70.1193, 23.0741]]]}, "properties": {"objectid": 50951, "statename": "Gujarat", "statecode": "24", "districtname": "Kutch", "districtcode": "468", "ulbname": "Gandhidham", "ulbcode": "802447", "wardname": "Ward 8", "wardcode": "8", "id": null, "status": "APPROVED", "misglobalid": null, "approved_by": "ULB Nodal Officer", "createdate": 1639985584000, "updateddate": 1640001501000, "globalid": "daKQ45PK-45dc-PnBo-Qccn-6m6d5RPRa6l5", "gisglobalid": "7eefae06-f547-4cb0-bf71-3277747a4ade", "remark": "Approve", "st_area(shape)": 5.65121132760419e-05, "st_perimeter(shape)": 0.03767687046172339}}, {"type": "Feature", "geometry": {"type": "Polygon", "coordinates": [[[70.1071, 23.0753], [70.1167, 23.0764], [70.1199, 23.0768], [70.1193, 23.0741], [70.1226, 23.0734], [70.1278, 23.0725], [70.1271, 23.0706], [70.1265, 23.0688], [70.1263, 23.0684], [70.1255, 23.0658], [70.1241, 23.0661], [70.122, 23.0666], [70.121, 23.0668], [70.1192, 23.0672], [70.1152, 23.0681], [70.1142, 23.0683], [70.1135, 23.0684], [70.1125, 23.0686], [70.1111, 23.0689], [70.1099, 23.0692], [70.1081, 23.0694], [70.1071, 23.0753]]]}, "properties": {"objectid": 50158, "statename": "Gujarat", "statecode": "24", "districtname": "Kutch", "districtcode": "468", "ulbname": "Gandhidham", "ulbcode": "802447", "wardname": "Ward 9", "wardcode": "9", "id": null, "status": "APPROVED", "misglobalid": null, "approved_by": "ULB Nodal Officer", "createdate": 1639985629000, "updateddate": 1640071544000, "globalid": "RoR4QRPB-PBdd-PaQQ-a66l-RlRmQaB65mKl", "gisglobalid": "774707b3-3d4d-417c-b001-914ab8a6e8e6", "remark": "", "st_area(shape)": 0.00014135769637674568, "st_perimeter(shape)": 0.05517817320730932}}, {"type": "Feature", "geometry": {"type": "Polygon", "coordinates": [[[70.0858, 23.0729], [70.1071, 23.0754], [70.1075, 23.0729], [70.1081, 23.0694], [70.1055, 23.0692], [70.1054, 23.0692], [70.1069, 23.062], [70.103, 23.0617], [70.1019, 23.0686], [70.085, 23.0661], [70.0815, 23.0656], [70.0778, 23.0651], [70.0752, 23.0648], [70.0752, 23.0661], [70.0763, 23.0674], [70.0771, 23.0674], [70.0773, 23.0677], [70.0772, 23.0684], [70.0765, 23.0683], [70.0765, 23.0681], [70.0747, 23.068], [70.0729, 23.0679], [70.0726, 23.0716], [70.0738, 23.0717], [70.0753, 23.0719], [70.0773, 23.0721], [70.0817, 23.0724], [70.0858, 23.0729]]]}, "properties": {"objectid": 54066, "statename": "Gujarat", "statecode": "24", "districtname": "Kutch", "districtcode": "468", "ulbname": "Gandhidham", "ulbcode": "802447", "wardname": "Ward 10", "wardcode": "10", "id": null, "status": "APPROVED", "misglobalid": null, "approved_by": "ULB Nodal Officer", "createdate": 1640067373000, "updateddate": 1640071313000, "globalid": "KRa6l4Qn-BnB4-PQ6Q-s4no-aB5ldnmBs5lm", "gisglobalid": "1bb536ae-e4ab-4ffc-b23d-4f75e9b7456b", "remark": "", "st_area(shape)": 0.0002444845040133777, "st_perimeter(shape)": 0.10159487670000189}}, {"type": "Feature", "geometry": {"type": "Polygon", "coordinates": [[[70.1132, 23.0658], [70.1137, 23.0675], [70.1138, 23.0684], [70.1142, 23.0683], [70.118, 23.0674], [70.1203, 23.0669], [70.1283, 23.0652], [70.1299, 23.0649], [70.1312, 23.0602], [70.1321, 23.0558], [70.126, 23.054], [70.1219, 23.0528], [70.1178, 23.0517], [70.1145, 23.0569], [70.1132, 23.0658]]]}, "properties": {"objectid": 54865, "statename": "Gujarat", "statecode": "24", "districtname": "Kutch", "districtcode": "468", "ulbname": "Gandhidham", "ulbcode": "802447", "wardname": "Ward 11", "wardcode": "11", "id": null, "status": "APPROVED", "misglobalid": null, "approved_by": "ULB Nodal Officer", "createdate": 1640067680000, "updateddate": 1640082520000, "globalid": "6Pmacn5d-5cRl-Pacd-RPaR-lc6ddQlcQsPd", "gisglobalid": "d1b550cc-5e19-4d90-8eb2-7c24cb2478e3", "remark": "", "st_area(shape)": 0.00021953121951779714, "st_perimeter(shape)": 0.058425195128305095}}, {"type": "Feature", "geometry": {"type": "Polygon", "coordinates": [[[70.1419, 23.0599], [70.1444, 23.0597], [70.1444, 23.0588], [70.1443, 23.0574], [70.1442, 23.0566], [70.1441, 23.0555], [70.1439, 23.0543], [70.1437, 23.0531], [70.1422, 23.0531], [70.14, 23.0532], [70.1379, 23.0533], [70.1325, 23.0535], [70.1324, 23.0515], [70.1323, 23.0502], [70.1322, 23.0491], [70.1292, 23.0496], [70.1255, 23.0502], [70.1256, 23.0496], [70.1259, 23.0492], [70.1255, 23.0475], [70.1252, 23.0465], [70.1246, 23.0466], [70.1217, 23.0473], [70.1201, 23.0484], [70.1187, 23.0497], [70.1182, 23.0505], [70.1178, 23.0517], [70.12, 23.0523], [70.1221, 23.0529], [70.1237, 23.0533], [70.1255, 23.0538], [70.1274, 23.0544], [70.1321, 23.0558], [70.1316, 23.0582], [70.1312, 23.0602], [70.134, 23.0601], [70.1369, 23.0601], [70.1394, 23.06], [70.1419, 23.0599]]]}, "properties": {"objectid": 54067, "statename": "Gujarat", "statecode": "24", "districtname": "Kutch", "districtcode": "468", "ulbname": "Gandhidham", "ulbcode": "802447", "wardname": "Ward 12", "wardcode": "12", "id": null, "status": "APPROVED", "misglobalid": null, "approved_by": null, "createdate": 1640067878000, "updateddate": 1641456675000, "globalid": null, "gisglobalid": "8429b5e3-25bc-48fc-aaec-d7477ea177fc", "remark": "", "st_area(shape)": 0.00015575791686396742, "st_perimeter(shape)": 0.07520999400238203}}, {"type": "Feature", "geometry": {"type": "Polygon", "coordinates": [[[70.1255, 23.0502], [70.1322, 23.0491], [70.1324, 23.0515], [70.1325, 23.0535], [70.1437, 23.0531], [70.1419, 23.0461], [70.1396, 23.0403], [70.1382, 23.0376], [70.1249, 23.0436], [70.1227, 23.0449], [70.1217, 23.0473], [70.1239, 23.0468], [70.1252, 23.0465], [70.1257, 23.0483], [70.1259, 23.0493], [70.1256, 23.0496], [70.1255, 23.0502]]]}, "properties": {"objectid": 53047, "statename": "Gujarat", "statecode": "24", "districtname": "Kutch", "districtcode": "468", "ulbname": "Gandhidham", "ulbcode": "802447", "wardname": "Ward 13", "wardcode": "13", "id": null, "status": "APPROVED", "misglobalid": null, "approved_by": "ULB Nodal Officer", "createdate": 1640068117000, "updateddate": 1640068524000, "globalid": "RssQsl4d-5R4s-Pcac-ssl5-sPP5ndas6smB", "gisglobalid": "2d144f1e-4b9e-4810-a98f-b6870a4a0ba5", "remark": "", "st_area(shape)": 0.00019625266529283062, "st_perimeter(shape)": 0.06615957278001754}}]}
