{"type": "FeatureCollection", "features": [{"type": "Feature", "geometry": {"type": "Polygon", "coordinates": [[[75.4756, 31.6897], [75.4759, 31.6901], [75.4763, 31.6909], [75.4767, 31.6913], [75.4768, 31.6914], [75.4768, 31.6913], [75.477, 31.6918], [75.4773, 31.6919], [75.4777, 31.6918], [75.4779, 31.6914], [75.4778, 31.6911], [75.478, 31.6907], [75.4781, 31.6905], [75.478, 31.6904], [75.4782, 31.6897], [75.4788, 31.6897], [75.4789, 31.6898], [75.4791, 31.6898], [75.4791, 31.69], [75.4789, 31.6901], [75.4789, 31.6904], [75.479, 31.6906], [75.4791, 31.6908], [75.4791, 31.691], [75.4793, 31.691], [75.4794, 31.691], [75.4796, 31.6909], [75.4797, 31.6909], [75.4799, 31.6909], [75.4801, 31.6909], [75.4804, 31.6909], [75.4806, 31.691], [75.4808, 31.691], [75.4808, 31.6909], [75.4808, 31.6908], [75.4808, 31.6907], [75.4809, 31.6905], [75.4813, 31.6904], [75.4815, 31.6905], [75.4818, 31.6905], [75.4822, 31.6904], [75.4829, 31.6902], [75.4834, 31.6901], [75.4836, 31.6898], [75.4834, 31.6896], [75.4829, 31.6895], [75.4825, 31.6891], [75.4821, 31.6889], [75.4809, 31.6887], [75.4811, 31.6886], [75.4817, 31.6885], [75.4819, 31.6881], [75.4818, 31.6877], [75.4816, 31.6875], [75.4815, 31.6875], [75.4813, 31.6876], [75.4812, 31.6876], [75.4813, 31.6879], [75.4812, 31.6879], [75.4811, 31.688], [75.481, 31.688], [75.4809, 31.688], [75.4806, 31.6881], [75.4807, 31.6882], [75.4807, 31.6883], [75.4805, 31.6884], [75.4804, 31.6885], [75.4803, 31.6886], [75.4802, 31.6887], [75.4799, 31.6889], [75.4799, 31.6891], [75.4793, 31.6894], [75.4787, 31.6894], [75.478, 31.6892], [75.4773, 31.6893], [75.4768, 31.6894], [75.4767, 31.6895], [75.4764, 31.6894], [75.4764, 31.6892], [75.4763, 31.689], [75.476, 31.689], [75.476, 31.6895], [75.4757, 31.6896], [75.4756, 31.6897]]]}, "properties": {"objectid": 42960, "statename": "Punjab", "statecode": "3", "districtname": null, "districtcode": "35", "ulbname": "Sri Hargobindpur", "ulbcode": "800151", "wardname": "Tambra Mohala", "wardcode": "1", "id": null, "status": "APPROVED", "misglobalid": null, "approved_by": "ULB Nodal Officer", "createdate": 1638516790000, "updateddate": 1638781775000, "globalid": "sP5Kn5cs-BdQB-P4no-snBo-dBllBRdBds66", "gisglobalid": "9ffeedc4-cac2-45e4-9a34-0c89eb44952d", "remark": "Approved", "st_area(shape)": 1.2781791544722335e-05, "st_perimeter(shape)": 0.026464652174056996}}, {"type": "Feature", "geometry": {"type": "Polygon", "coordinates": [[[75.4735, 31.6878], [75.4737, 31.6882], [75.474, 31.6885], [75.4747, 31.6892], [75.475, 31.6895], [75.4753, 31.6898], [75.476, 31.6895], [75.476, 31.689], [75.4763, 31.689], [75.4764, 31.6892], [75.4764, 31.6894], [75.4767, 31.6894], [75.477, 31.6894], [75.478, 31.6892], [75.4787, 31.6894], [75.4788, 31.6889], [75.4783, 31.6888], [75.4777, 31.6887], [75.4774, 31.689], [75.477, 31.6887], [75.4768, 31.6887], [75.4767, 31.6885], [75.4768, 31.6883], [75.4768, 31.6882], [75.4766, 31.688], [75.4766, 31.6879], [75.4766, 31.6876], [75.4767, 31.6873], [75.4766, 31.6873], [75.4765, 31.6873], [75.4764, 31.6873], [75.4763, 31.6874], [75.4762, 31.6874], [75.4761, 31.6874], [75.4755, 31.6874], [75.4753, 31.6874], [75.4747, 31.6875], [75.4744, 31.6876], [75.4741, 31.6876], [75.474, 31.6876], [75.4741, 31.6876], [75.4739, 31.6876], [75.4737, 31.6877], [75.4735, 31.6878]]]}, "properties": {"objectid": 42952, "statename": "Punjab", "statecode": "3", "districtname": null, "districtcode": "35", "ulbname": "Sri Hargobindpur", "ulbcode": "800151", "wardname": "Mohalla Chodriya", "wardcode": "2", "id": null, "status": "APPROVED", "misglobalid": null, "approved_by": "ULB Nodal Officer", "createdate": 1638513302000, "updateddate": 1638781785000, "globalid": "nc6oaBom-oBma-Ploo-sKRl-daddBsR4QnBa", "gisglobalid": "150aff2a-cf7b-46f5-b9e7-0663965bf7d0", "remark": "Approved", "st_area(shape)": 6.212745360736965e-06, "st_perimeter(shape)": 0.014295815207940179}}, {"type": "Feature", "geometry": {"type": "Polygon", "coordinates": [[[75.4768, 31.6882], [75.4768, 31.6883], [75.4768, 31.6885], [75.4768, 31.6887], [75.477, 31.6887], [75.4774, 31.689], [75.4777, 31.6887], [75.4782, 31.6888], [75.4783, 31.6888], [75.4788, 31.6889], [75.4787, 31.6894], [75.4793, 31.6894], [75.4799, 31.6891], [75.4799, 31.689], [75.4799, 31.6889], [75.4798, 31.6888], [75.4798, 31.6889], [75.4797, 31.6889], [75.4796, 31.6888], [75.4796, 31.6886], [75.4795, 31.6885], [75.4795, 31.6884], [75.4794, 31.6885], [75.4793, 31.6885], [75.4791, 31.6886], [75.479, 31.6886], [75.4789, 31.6887], [75.4788, 31.6888], [75.4787, 31.6886], [75.4786, 31.6884], [75.4786, 31.6883], [75.4784, 31.6883], [75.4784, 31.6882], [75.4783, 31.688], [75.4782, 31.6879], [75.4782, 31.6877], [75.4781, 31.6876], [75.4781, 31.6874], [75.478, 31.6873], [75.4779, 31.6872], [75.4779, 31.6871], [75.4778, 31.6871], [75.4777, 31.6872], [75.4775, 31.6872], [75.4773, 31.6873], [75.4771, 31.6873], [75.477, 31.6873], [75.4769, 31.6874], [75.4768, 31.6873], [75.4767, 31.6873], [75.4766, 31.6876], [75.4766, 31.6879], [75.4766, 31.688], [75.4768, 31.6882]]]}, "properties": {"objectid": 43468, "statename": "Punjab", "statecode": "3", "districtname": null, "districtcode": "35", "ulbname": "Sri Hargobindpur", "ulbcode": "800151", "wardname": "Krishan Mander Gali", "wardcode": "3", "id": null, "status": "APPROVED", "misglobalid": null, "approved_by": "ULB Nodal Officer", "createdate": 1638513362000, "updateddate": 1638781796000, "globalid": "ocaP6KsB-csnB-Po4P-Rodn-n6R4Kammsddc", "gisglobalid": "dd5e5409-5b3d-4958-b8ae-71e64963aeab", "remark": "Approved", "st_area(shape)": 3.3253832505870336e-06, "st_perimeter(shape)": 0.010403297120560068}}, {"type": "Feature", "geometry": {"type": "MultiPolygon", "coordinates": [[[[75.4795, 31.6885], [75.4796, 31.6886], [75.4796, 31.6888], [75.4797, 31.6889], [75.4798, 31.6889], [75.4798, 31.6888], [75.4799, 31.6889], [75.4802, 31.6887], [75.4803, 31.6886], [75.4804, 31.6885], [75.4805, 31.6884], [75.4807, 31.6883], [75.4807, 31.6882], [75.4806, 31.6881], [75.4809, 31.688], [75.4808, 31.6877], [75.4807, 31.6875], [75.4806, 31.6875], [75.4806, 31.6876], [75.4805, 31.6876], [75.4803, 31.6877], [75.4801, 31.6877], [75.48, 31.6877], [75.4799, 31.6878], [75.4798, 31.6875], [75.4796, 31.6871], [75.4795, 31.6869], [75.4795, 31.6868], [75.4794, 31.6868], [75.4794, 31.6867], [75.479, 31.6868], [75.4789, 31.6869], [75.4783, 31.687], [75.478, 31.6871], [75.4779, 31.6871], [75.478, 31.6873], [75.4781, 31.6874], [75.4782, 31.6877], [75.4782, 31.6879], [75.4784, 31.6882], [75.4784, 31.6883], [75.4786, 31.6883], [75.4786, 31.6884], [75.4787, 31.6886], [75.4788, 31.6888], [75.4789, 31.6887], [75.4791, 31.6886], [75.4793, 31.6885], [75.4794, 31.6885], [75.4795, 31.6884], [75.4795, 31.6885]]], [[[75.4796, 31.6886], [75.4795, 31.6884], [75.4796, 31.6886]]]]}, "properties": {"objectid": 42951, "statename": "Punjab", "statecode": "3", "districtname": null, "districtcode": "35", "ulbname": "Sri Hargobindpur", "ulbcode": "800151", "wardname": "Gali Julkiya", "wardcode": "4", "id": null, "status": "APPROVED", "misglobalid": null, "approved_by": "ULB Nodal Officer", "createdate": 1638513378000, "updateddate": 1638781806000, "globalid": "ldncao4l-lc4B-Pnon-R6cB-4RcPQ6ma4oaQ", "gisglobalid": "1c59716f-42c2-42ca-871f-936b9356f051", "remark": "Approved", "st_area(shape)": 3.5306066364294767e-06, "st_perimeter(shape)": 0.009659029295372266}}, {"type": "Feature", "geometry": {"type": "Polygon", "coordinates": [[[75.4802, 31.6857], [75.4792, 31.6858], [75.4792, 31.6859], [75.4792, 31.6861], [75.4791, 31.6862], [75.479, 31.6862], [75.4789, 31.6862], [75.4788, 31.6862], [75.4787, 31.6862], [75.4787, 31.6863], [75.4787, 31.6864], [75.4788, 31.6865], [75.4788, 31.6866], [75.4788, 31.6867], [75.4789, 31.6868], [75.4789, 31.6869], [75.479, 31.6868], [75.4794, 31.6867], [75.4794, 31.6868], [75.4795, 31.6868], [75.4796, 31.687], [75.4796, 31.6871], [75.4798, 31.6875], [75.4799, 31.6878], [75.48, 31.6877], [75.4801, 31.6877], [75.4803, 31.6877], [75.4805, 31.6876], [75.4806, 31.6876], [75.4806, 31.6875], [75.4807, 31.6875], [75.4808, 31.6877], [75.4808, 31.6879], [75.4809, 31.688], [75.481, 31.688], [75.4811, 31.688], [75.4812, 31.6879], [75.4813, 31.6879], [75.4813, 31.6878], [75.4812, 31.6876], [75.4813, 31.6876], [75.4815, 31.6875], [75.4816, 31.6875], [75.4813, 31.6871], [75.4813, 31.6869], [75.4812, 31.6866], [75.4811, 31.6864], [75.4812, 31.6863], [75.4812, 31.6862], [75.4811, 31.686], [75.4807, 31.6859], [75.4802, 31.6857]]]}, "properties": {"objectid": 43471, "statename": "Punjab", "statecode": "3", "districtname": null, "districtcode": "35", "ulbname": "Sri Hargobindpur", "ulbcode": "800151", "wardname": "Mohala Pagta", "wardcode": "5", "id": null, "status": "APPROVED", "misglobalid": null, "approved_by": "ULB Nodal Officer", "createdate": 1638515031000, "updateddate": 1638781826000, "globalid": "dKdsocK5-54mn-Pa5o-sdcB-omd6PamPQmPK", "gisglobalid": "64626e3f-007e-4342-a49d-a7db832980c2", "remark": "Approved", "st_area(shape)": 3.8041666790934225e-06, "st_perimeter(shape)": 0.009302625232131208}}, {"type": "Feature", "geometry": {"type": "Polygon", "coordinates": [[[75.4773, 31.6873], [75.4789, 31.6869], [75.4787, 31.6862], [75.4792, 31.6861], [75.4791, 31.6857], [75.4788, 31.6856], [75.4784, 31.6856], [75.4779, 31.6859], [75.4777, 31.686], [75.4775, 31.6861], [75.4774, 31.6861], [75.4771, 31.6863], [75.4757, 31.6866], [75.4743, 31.687], [75.4741, 31.6876], [75.4747, 31.6875], [75.4753, 31.6874], [75.4761, 31.6874], [75.4764, 31.6873], [75.4769, 31.6874], [75.4771, 31.6873], [75.4773, 31.6873]]]}, "properties": {"objectid": 43464, "statename": "Punjab", "statecode": "3", "districtname": null, "districtcode": "35", "ulbname": "Sri Hargobindpur", "ulbcode": "800151", "wardname": "Mohala Kokli", "wardcode": "6", "id": null, "status": "APPROVED", "misglobalid": null, "approved_by": "ULB Nodal Officer", "createdate": 1638513286000, "updateddate": 1638781816000, "globalid": "lPsoo4QQ-KBP5-Pacm-andK-amBoc66d46dP", "gisglobalid": "dee0f105-5aa4-4c62-85c1-a03abb67e9bd", "remark": "Approved", "st_area(shape)": 4.4376455835660395e-06, "st_perimeter(shape)": 0.012368574209224124}}, {"type": "Feature", "geometry": {"type": "Polygon", "coordinates": [[[75.4726, 31.681], [75.4723, 31.681], [75.4724, 31.6815], [75.4724, 31.682], [75.4724, 31.6825], [75.4724, 31.6845], [75.4724, 31.6855], [75.4724, 31.6863], [75.4724, 31.687], [75.471, 31.687], [75.4699, 31.6869], [75.4691, 31.6869], [75.469, 31.6878], [75.469, 31.6889], [75.469, 31.6897], [75.4691, 31.69], [75.4692, 31.6902], [75.4693, 31.6902], [75.4694, 31.6902], [75.4698, 31.6907], [75.4702, 31.6907], [75.4714, 31.6907], [75.4721, 31.6907], [75.4724, 31.6907], [75.4727, 31.6907], [75.4729, 31.6908], [75.4732, 31.6908], [75.4733, 31.6908], [75.4739, 31.6904], [75.4742, 31.6902], [75.4746, 31.6901], [75.4753, 31.6898], [75.4752, 31.6897], [75.4749, 31.6894], [75.4746, 31.6891], [75.474, 31.6884], [75.4737, 31.6882], [75.4735, 31.6878], [75.4739, 31.6876], [75.474, 31.6876], [75.4743, 31.6868], [75.4754, 31.6864], [75.475, 31.6851], [75.4746, 31.6842], [75.4744, 31.6837], [75.4742, 31.6811], [75.4738, 31.6809], [75.4734, 31.681], [75.4729, 31.681], [75.4726, 31.681]]]}, "properties": {"objectid": 38629, "statename": "Punjab", "statecode": "3", "districtname": null, "districtcode": "35", "ulbname": "Sri Hargobindpur", "ulbcode": "800151", "wardname": "Bus Stand", "wardcode": "7", "id": null, "status": "APPROVED", "misglobalid": null, "approved_by": "ULB Nodal Officer", "createdate": 1638513572000, "updateddate": 1638781761000, "globalid": "Ko4RBBKa-PmRs-PnKm-RRKK-o5do6KnPolms", "gisglobalid": "0719950d-99e0-437d-bf11-005a160404bc", "remark": "Approved", "st_area(shape)": 3.275830616764769e-05, "st_perimeter(shape)": 0.03194089579854111}}, {"type": "Feature", "geometry": {"type": "Polygon", "coordinates": [[[75.4742, 31.6804], [75.4745, 31.6798], [75.4742, 31.6789], [75.4741, 31.6786], [75.474, 31.6784], [75.4732, 31.6782], [75.4724, 31.6782], [75.4723, 31.6782], [75.4721, 31.6782], [75.4718, 31.6782], [75.4713, 31.6782], [75.4705, 31.6782], [75.4702, 31.6782], [75.4702, 31.6786], [75.4702, 31.679], [75.4702, 31.6798], [75.4702, 31.6803], [75.4702, 31.6807], [75.4702, 31.6808], [75.4702, 31.6809], [75.4703, 31.681], [75.4704, 31.681], [75.4708, 31.6809], [75.4711, 31.6809], [75.4716, 31.681], [75.4722, 31.681], [75.4723, 31.681], [75.4724, 31.681], [75.4725, 31.681], [75.4726, 31.6809], [75.4727, 31.681], [75.4729, 31.681], [75.4732, 31.681], [75.4734, 31.681], [75.4738, 31.6809], [75.4742, 31.6804]]]}, "properties": {"objectid": 43466, "statename": "Punjab", "statecode": "3", "districtname": null, "districtcode": "35", "ulbname": "Sri Hargobindpur", "ulbcode": "800151", "wardname": "Mohala Talwara", "wardcode": "8", "id": null, "status": "APPROVED", "misglobalid": null, "approved_by": "ULB Nodal Officer", "createdate": 1638513315000, "updateddate": 1638781838000, "globalid": "sc4cKn4B-5RRK-P4BP-sm64-c6K66KlPc5Pm", "gisglobalid": "39379bd5-96c5-4841-984f-040f4ca19491", "remark": "Approved", "st_area(shape)": 1.0774766170977503e-05, "st_perimeter(shape)": 0.01285806741725685}}, {"type": "Feature", "geometry": {"type": "Polygon", "coordinates": [[[75.4724, 31.687], [75.4723, 31.6863], [75.4724, 31.6851], [75.4723, 31.6841], [75.4723, 31.682], [75.4723, 31.681], [75.4722, 31.681], [75.472, 31.681], [75.4719, 31.681], [75.4718, 31.681], [75.4716, 31.681], [75.4714, 31.681], [75.4712, 31.681], [75.4711, 31.681], [75.471, 31.681], [75.4708, 31.681], [75.4705, 31.681], [75.4704, 31.681], [75.4702, 31.681], [75.4702, 31.6809], [75.4702, 31.6808], [75.4702, 31.6805], [75.4702, 31.6802], [75.4702, 31.68], [75.4702, 31.6799], [75.4702, 31.6798], [75.4702, 31.6797], [75.4702, 31.6795], [75.4702, 31.6794], [75.4702, 31.6792], [75.4702, 31.6791], [75.4702, 31.6789], [75.4702, 31.6787], [75.4702, 31.6784], [75.4702, 31.6782], [75.4704, 31.6782], [75.4707, 31.6782], [75.4709, 31.6782], [75.471, 31.6782], [75.4711, 31.6782], [75.4713, 31.6782], [75.4715, 31.6782], [75.4717, 31.6782], [75.4718, 31.6782], [75.4719, 31.6782], [75.472, 31.6782], [75.4721, 31.6782], [75.4722, 31.6782], [75.4723, 31.6782], [75.4723, 31.678], [75.4722, 31.677], [75.472, 31.6771], [75.4718, 31.677], [75.4714, 31.6769], [75.4707, 31.6752], [75.4706, 31.6747], [75.4705, 31.6744], [75.4701, 31.6734], [75.4698, 31.6728], [75.4696, 31.6724], [75.4689, 31.6727], [75.468, 31.6731], [75.4672, 31.6733], [75.466, 31.6733], [75.4651, 31.6733], [75.4645, 31.6738], [75.4642, 31.6738], [75.464, 31.6739], [75.4638, 31.6738], [75.4636, 31.6737], [75.4635, 31.6737], [75.4634, 31.6738], [75.4631, 31.6739], [75.4629, 31.674], [75.4626, 31.6741], [75.462, 31.6743], [75.46, 31.6751], [75.4584, 31.6761], [75.4559, 31.6776], [75.4556, 31.6778], [75.4555, 31.6779], [75.4554, 31.6779], [75.4554, 31.678], [75.4551, 31.6782], [75.4547, 31.6786], [75.4544, 31.6788], [75.4543, 31.6788], [75.4541, 31.679], [75.454, 31.6791], [75.4539, 31.6792], [75.4535, 31.6795], [75.4538, 31.6799], [75.454, 31.6801], [75.4544, 31.6806], [75.4566, 31.6841], [75.4568, 31.6844], [75.4571, 31.6848], [75.4572, 31.6849], [75.4576, 31.6855], [75.4579, 31.6859], [75.4581, 31.6863], [75.459, 31.6864], [75.4637, 31.6866], [75.4706, 31.6869], [75.4714, 31.6869], [75.4722, 31.687], [75.4724, 31.687]]]}, "properties": {"objectid": 42955, "statename": "Punjab", "statecode": "3", "districtname": null, "districtcode": "35", "ulbname": " Sri Hargobindpur", "ulbcode": "800151", "wardname": "Sri Guru Hargobind Colony ", "wardcode": "9", "id": null, "status": "APPROVED", "misglobalid": null, "approved_by": "ULB Nodal Officer", "createdate": 1638514646000, "updateddate": 1638851483000, "globalid": "cmsB5mPR-BcRl-PonK-RsKR-PnB5R6oPPoRK", "gisglobalid": "950bf20b-cb61-495e-8bad-a0789c3d1add", "remark": "Approved", "st_area(shape)": 0.00019346647347659183, "st_perimeter(shape)": 0.06042481552088993}}, {"type": "Feature", "geometry": {"type": "Polygon", "coordinates": [[[75.4757, 31.6896], [75.4753, 31.6898], [75.4742, 31.6902], [75.4733, 31.6908], [75.4732, 31.6908], [75.4731, 31.6908], [75.473, 31.6908], [75.4729, 31.6908], [75.4727, 31.6908], [75.4724, 31.6907], [75.4721, 31.6907], [75.4704, 31.6907], [75.4701, 31.6907], [75.4699, 31.6907], [75.4698, 31.6907], [75.4699, 31.6908], [75.47, 31.6909], [75.4701, 31.691], [75.4701, 31.6912], [75.4702, 31.6913], [75.4703, 31.6914], [75.4704, 31.6915], [75.4704, 31.6916], [75.4705, 31.6917], [75.4706, 31.6918], [75.4706, 31.6919], [75.4707, 31.6919], [75.4708, 31.6921], [75.4709, 31.6922], [75.4709, 31.6923], [75.4709, 31.6924], [75.471, 31.6924], [75.4711, 31.6926], [75.4711, 31.6927], [75.4712, 31.6927], [75.4712, 31.6928], [75.4713, 31.6928], [75.4713, 31.6929], [75.4714, 31.6931], [75.4715, 31.6932], [75.4717, 31.6935], [75.4718, 31.6936], [75.4719, 31.6937], [75.472, 31.694], [75.4721, 31.6941], [75.4722, 31.6942], [75.4722, 31.6944], [75.4723, 31.6944], [75.4724, 31.6945], [75.4724, 31.6946], [75.4724, 31.6947], [75.4725, 31.6947], [75.4726, 31.6948], [75.4727, 31.6949], [75.4728, 31.6949], [75.4729, 31.6949], [75.4729, 31.695], [75.473, 31.695], [75.4731, 31.695], [75.4731, 31.6949], [75.4732, 31.6948], [75.4732, 31.6946], [75.4733, 31.6946], [75.4734, 31.6944], [75.4734, 31.6943], [75.4735, 31.6942], [75.4735, 31.6941], [75.4735, 31.694], [75.4736, 31.694], [75.4736, 31.6939], [75.4736, 31.6938], [75.4737, 31.6937], [75.4738, 31.6936], [75.4738, 31.6935], [75.4738, 31.6934], [75.4739, 31.6933], [75.4739, 31.6932], [75.474, 31.6931], [75.474, 31.693], [75.4741, 31.6929], [75.4741, 31.6928], [75.4742, 31.6928], [75.4742, 31.6927], [75.4743, 31.6925], [75.4743, 31.6923], [75.4745, 31.6921], [75.4746, 31.6919], [75.4746, 31.6918], [75.4747, 31.6917], [75.4747, 31.6916], [75.4748, 31.6915], [75.4749, 31.6913], [75.4749, 31.6912], [75.475, 31.691], [75.4751, 31.6909], [75.4752, 31.6907], [75.4752, 31.6906], [75.4753, 31.6905], [75.4753, 31.6903], [75.4754, 31.6902], [75.4755, 31.69], [75.4755, 31.6899], [75.4756, 31.6899], [75.4756, 31.6898], [75.4756, 31.6897], [75.4757, 31.6896]]]}, "properties": {"objectid": 43467, "statename": "Punjab", "statecode": "3", "districtname": null, "districtcode": "35", "ulbname": " Sri Hargobindpur", "ulbcode": "800151", "wardname": "Saniya Mohala ", "wardcode": "10", "id": null, "status": "APPROVED", "misglobalid": null, "approved_by": "ULB Nodal Officer", "createdate": 1638513327000, "updateddate": 1638781749000, "globalid": "noRQKclB-55BK-PoBd-R5Bd-nK6BQloonRR4", "gisglobalid": "96c69eee-af38-49f6-9d70-1c5ac57df788", "remark": "Approved", "st_area(shape)": 1.3170670323161445e-05, "st_perimeter(shape)": 0.017656997711430353}}, {"type": "Feature", "geometry": {"type": "Polygon", "coordinates": [[[75.4756, 31.6897], [75.4748, 31.6915], [75.4747, 31.6917], [75.4746, 31.692], [75.4733, 31.6945], [75.4731, 31.695], [75.473, 31.695], [75.4727, 31.6949], [75.4725, 31.6948], [75.4723, 31.6945], [75.472, 31.694], [75.4711, 31.6927], [75.4702, 31.6914], [75.4698, 31.6907], [75.4694, 31.6902], [75.4693, 31.6902], [75.4692, 31.6902], [75.4691, 31.6901], [75.469, 31.6897], [75.4689, 31.689], [75.469, 31.6879], [75.469, 31.6869], [75.4677, 31.6868], [75.4667, 31.6868], [75.4663, 31.6867], [75.4656, 31.6867], [75.4645, 31.6867], [75.4637, 31.6867], [75.4632, 31.6866], [75.461, 31.6865], [75.4581, 31.6864], [75.4602, 31.6893], [75.4608, 31.6901], [75.4629, 31.6919], [75.4648, 31.6935], [75.4664, 31.6948], [75.4665, 31.6949], [75.468, 31.6965], [75.4708, 31.6998], [75.4718, 31.6987], [75.4716, 31.6986], [75.472, 31.6976], [75.4727, 31.6973], [75.4731, 31.6969], [75.4731, 31.6961], [75.4728, 31.696], [75.4731, 31.6953], [75.4736, 31.6952], [75.4743, 31.6951], [75.4743, 31.6948], [75.4746, 31.6945], [75.4748, 31.694], [75.4749, 31.694], [75.4751, 31.6937], [75.4755, 31.6931], [75.4758, 31.6929], [75.476, 31.6928], [75.4763, 31.6923], [75.4762, 31.6921], [75.4765, 31.692], [75.4763, 31.6916], [75.4768, 31.6914], [75.4767, 31.6913], [75.4765, 31.6911], [75.4764, 31.6909], [75.4763, 31.6909], [75.4762, 31.6906], [75.4759, 31.6901], [75.4757, 31.6898], [75.4756, 31.6897]]]}, "properties": {"objectid": 43476, "statename": "Punjab", "statecode": "3", "districtname": null, "districtcode": "35", "ulbname": "Sri Hargobindpur", "ulbcode": "800151", "wardname": "Dani Diyal Singh Guru Duriya", "wardcode": "11", "id": null, "status": "APPROVED", "misglobalid": null, "approved_by": "ULB Nodal Officer", "createdate": 1638520001000, "updateddate": 1638781712000, "globalid": "aolBBKdl-aRQ4-PoRn-scdd-4R4oson6mnaB", "gisglobalid": "62d47d94-1db5-4c26-aa07-bea7f79ae83e", "remark": "Approved", "st_area(shape)": 9.290731110848209e-05, "st_perimeter(shape)": 0.05949140587722375}}]}
