{"type": "FeatureCollection", "features": [{"type": "Feature", "geometry": {"type": "Polygon", "coordinates": [[[79.6207, 20.7967], [79.6201, 20.7968], [79.6204, 20.7972], [79.6194, 20.7976], [79.6198, 20.7988], [79.6197, 20.7991], [79.6198, 20.7994], [79.6196, 20.7995], [79.6195, 20.7999], [79.62, 20.8002], [79.6199, 20.8093], [79.6209, 20.8108], [79.6208, 20.8113], [79.6206, 20.8129], [79.6215, 20.8124], [79.6217, 20.8111], [79.6225, 20.8106], [79.6225, 20.8099], [79.6243, 20.8105], [79.6247, 20.8108], [79.6261, 20.81], [79.6264, 20.8095], [79.6264, 20.8085], [79.6283, 20.8028], [79.6289, 20.8024], [79.6291, 20.8024], [79.6293, 20.8025], [79.6293, 20.8028], [79.6295, 20.8028], [79.6295, 20.8026], [79.6297, 20.8024], [79.6299, 20.8023], [79.63, 20.8022], [79.6302, 20.8022], [79.6302, 20.8026], [79.6304, 20.8025], [79.6309, 20.8022], [79.6312, 20.802], [79.6319, 20.8021], [79.632, 20.8023], [79.6319, 20.8025], [79.6315, 20.8025], [79.6312, 20.8025], [79.631, 20.8026], [79.6309, 20.8029], [79.6311, 20.8033], [79.6309, 20.8036], [79.631, 20.8038], [79.6305, 20.8045], [79.6305, 20.8051], [79.6322, 20.8038], [79.6339, 20.8024], [79.6346, 20.8018], [79.6355, 20.8013], [79.6361, 20.801], [79.6366, 20.8004], [79.6371, 20.7999], [79.6381, 20.7994], [79.6395, 20.798], [79.639, 20.7976], [79.6379, 20.7972], [79.6376, 20.7967], [79.6365, 20.797], [79.6361, 20.796], [79.6357, 20.796], [79.6353, 20.7962], [79.6352, 20.7965], [79.6354, 20.7972], [79.6349, 20.7972], [79.6343, 20.7974], [79.634, 20.7973], [79.6336, 20.7972], [79.6333, 20.7969], [79.6332, 20.7966], [79.6326, 20.7966], [79.632, 20.7966], [79.63, 20.7968], [79.6278, 20.7966], [79.6255, 20.7966], [79.6225, 20.7966], [79.6207, 20.7967]]]}, "properties": {"objectid": 71590, "statename": "Maharashtra", "statecode": "27", "districtname": "Bhandara", "districtcode": "506", "ulbname": "Pauni", "ulbcode": "802714", "wardname": "Ward 1", "wardcode": "1", "id": null, "status": "APPROVED", "misglobalid": null, "approved_by": null, "createdate": 1641557041000, "updateddate": 1641557128000, "globalid": null, "gisglobalid": "RR54oPB4-nsma-PdBm-Qd5B-6dcRmnsQBQcl", "remark": "Tadeshwar", "st_area(shape)": 0.00016172982405768702, "st_perimeter(shape)": 0.07586816866587805}}, {"type": "Feature", "geometry": {"type": "Polygon", "coordinates": [[[79.6377, 20.7947], [79.6368, 20.7948], [79.637, 20.7952], [79.6371, 20.7954], [79.6371, 20.7955], [79.6371, 20.7956], [79.6372, 20.7957], [79.6371, 20.7957], [79.637, 20.7957], [79.6369, 20.7958], [79.6368, 20.7959], [79.6366, 20.7959], [79.6365, 20.7959], [79.6364, 20.796], [79.6362, 20.796], [79.6364, 20.7965], [79.6365, 20.7969], [79.6367, 20.7968], [79.637, 20.7968], [79.6371, 20.7968], [79.6373, 20.7967], [79.6375, 20.7966], [79.6376, 20.7966], [79.6377, 20.7968], [79.6379, 20.7969], [79.638, 20.7971], [79.6383, 20.7972], [79.6391, 20.7976], [79.6394, 20.7978], [79.6403, 20.7971], [79.64, 20.7965], [79.6398, 20.796], [79.6396, 20.7956], [79.6393, 20.7952], [79.6392, 20.7947], [79.6391, 20.7941], [79.6387, 20.7941], [79.6384, 20.7943], [79.6377, 20.7947]]]}, "properties": {"objectid": 72402, "statename": "Maharashtra", "statecode": "27", "districtname": "Bhandara", "districtcode": "506", "ulbname": "Pauni", "ulbcode": "802714", "wardname": "Ward 2", "wardcode": "2", "id": null, "status": "APPROVED", "misglobalid": null, "approved_by": null, "createdate": 1641557041000, "updateddate": 1641557165000, "globalid": null, "gisglobalid": "ansR5msP-aaB6-PRdR-saRa-5cl4d66KnaR6", "remark": "Vitthalgujari", "st_area(shape)": 8.15690674523476e-06, "st_perimeter(shape)": 0.013350215768844462}}, {"type": "Feature", "geometry": {"type": "Polygon", "coordinates": [[[79.6396, 20.7939], [79.6391, 20.7941], [79.6392, 20.7944], [79.6392, 20.7949], [79.6394, 20.7953], [79.6397, 20.7956], [79.6399, 20.7961], [79.6403, 20.7969], [79.6425, 20.7957], [79.6423, 20.794], [79.6419, 20.7939], [79.6415, 20.7938], [79.6405, 20.7939], [79.64, 20.7938], [79.6396, 20.7939]]]}, "properties": {"objectid": 72396, "statename": "Maharashtra", "statecode": "27", "districtname": "Bhandara", "districtcode": "506", "ulbname": "Pauni", "ulbcode": "802714", "wardname": "Ward 3", "wardcode": "3", "id": null, "status": "APPROVED", "misglobalid": null, "approved_by": null, "createdate": 1641557041000, "updateddate": 1641557200000, "globalid": null, "gisglobalid": "sadK6dKd-QsRn-PRcd-a5Ko-6Ka55aPmnn6m", "remark": "Ghodeghat", "st_area(shape)": 7.407793402368471e-06, "st_perimeter(shape)": 0.010677520182717339}}, {"type": "Feature", "geometry": {"type": "Polygon", "coordinates": [[[79.6499, 20.791], [79.6409, 20.7908], [79.6398, 20.7905], [79.6389, 20.7906], [79.6388, 20.7916], [79.6388, 20.7922], [79.6389, 20.7929], [79.639, 20.7933], [79.6391, 20.7941], [79.6396, 20.7939], [79.6399, 20.7938], [79.6405, 20.7939], [79.6415, 20.7938], [79.6423, 20.7939], [79.6426, 20.7958], [79.6431, 20.7955], [79.6434, 20.7953], [79.644, 20.795], [79.6448, 20.7946], [79.6455, 20.7942], [79.6464, 20.7937], [79.647, 20.7934], [79.648, 20.7927], [79.6482, 20.7926], [79.6484, 20.7924], [79.649, 20.7919], [79.6492, 20.7918], [79.6495, 20.7916], [79.6497, 20.7914], [79.6499, 20.7913], [79.6501, 20.7911], [79.6499, 20.791]]]}, "properties": {"objectid": 71984, "statename": "Maharashtra", "statecode": "27", "districtname": "Bhandara", "districtcode": "506", "ulbname": "Pauni", "ulbcode": "802714", "wardname": "Ward 4", "wardcode": "4", "id": null, "status": "APPROVED", "misglobalid": null, "approved_by": null, "createdate": 1641557041000, "updateddate": 1641557283000, "globalid": null, "gisglobalid": "ldQBscmB-s4Rs-PKlR-RK4o-PQRm5cl6BQQQ", "remark": "Vaijeshwar", "st_area(shape)": 3.238634777659391e-05, "st_perimeter(shape)": 0.028855130946170062}}, {"type": "Feature", "geometry": {"type": "Polygon", "coordinates": [[[79.6384, 20.7847], [79.6386, 20.7859], [79.6387, 20.787], [79.6396, 20.7868], [79.6402, 20.7867], [79.6412, 20.7864], [79.6418, 20.7861], [79.6428, 20.7854], [79.6447, 20.7854], [79.6469, 20.7853], [79.6469, 20.785], [79.6464, 20.7848], [79.646, 20.7849], [79.6459, 20.7844], [79.6455, 20.7844], [79.6454, 20.7832], [79.6442, 20.7831], [79.643, 20.7835], [79.642, 20.7837], [79.6412, 20.7838], [79.6396, 20.7843], [79.6384, 20.7847]]]}, "properties": {"objectid": 71592, "statename": "Maharashtra", "statecode": "27", "districtname": "Bhandara", "districtcode": "506", "ulbname": "Pauni", "ulbcode": "802714", "wardname": "Ward 5", "wardcode": "5", "id": null, "status": "APPROVED", "misglobalid": null, "approved_by": null, "createdate": 1641557041000, "updateddate": 1641557363000, "globalid": null, "gisglobalid": "odom5caR-4olB-P5Pc-sQm6-RPdo4PdBR6cR", "remark": "Bajrang", "st_area(shape)": 1.6656734577011785e-05, "st_perimeter(shape)": 0.021433788155644996}}, {"type": "Feature", "geometry": {"type": "Polygon", "coordinates": [[[79.6388, 20.7903], [79.6388, 20.7905], [79.6392, 20.7905], [79.6398, 20.7905], [79.6403, 20.7906], [79.6412, 20.7908], [79.6415, 20.7908], [79.6498, 20.7909], [79.65, 20.7906], [79.6501, 20.7905], [79.6498, 20.7902], [79.6492, 20.7884], [79.6488, 20.7882], [79.6489, 20.7878], [79.6496, 20.7874], [79.6492, 20.7865], [79.6484, 20.7867], [79.648, 20.7853], [79.6469, 20.7854], [79.6429, 20.7854], [79.6421, 20.7859], [79.6412, 20.7865], [79.6404, 20.7867], [79.6396, 20.7868], [79.6387, 20.787], [79.6385, 20.7874], [79.6387, 20.7889], [79.6387, 20.7895], [79.6388, 20.7903]]]}, "properties": {"objectid": 72400, "statename": "Maharashtra", "statecode": "27", "districtname": "Bhandara", "districtcode": "506", "ulbname": "Pauni", "ulbcode": "802714", "wardname": "Ward 6", "wardcode": "6", "id": null, "status": "APPROVED", "misglobalid": null, "approved_by": null, "createdate": 1641557041000, "updateddate": 1641557393000, "globalid": null, "gisglobalid": "cPQoKams-ddQl-Pnnn-aQnQ-QKdlc5RacB4s", "remark": "Shaniwari", "st_area(shape)": 5.2609840200646433e-05, "st_perimeter(shape)": 0.03209317263498417}}, {"type": "Feature", "geometry": {"type": "Polygon", "coordinates": [[[79.6385, 20.7873], [79.638, 20.7875], [79.6373, 20.7875], [79.6372, 20.788], [79.6369, 20.7886], [79.6366, 20.7892], [79.6361, 20.7899], [79.6363, 20.7903], [79.6365, 20.7905], [79.6367, 20.7907], [79.6374, 20.7903], [79.6378, 20.79], [79.6381, 20.7894], [79.6386, 20.7891], [79.6387, 20.7889], [79.6385, 20.7881], [79.6385, 20.7876], [79.6385, 20.7873]]]}, "properties": {"objectid": 71593, "statename": "Maharashtra", "statecode": "27", "districtname": "Bhandara", "districtcode": "506", "ulbname": "Pauni", "ulbcode": "802714", "wardname": "Ward 7", "wardcode": "7", "id": null, "status": "APPROVED", "misglobalid": null, "approved_by": null, "createdate": 1641557041000, "updateddate": 1641564771000, "globalid": null, "gisglobalid": "KolRPBBm-aBdB-PdRR-QBsn-nmPlQo6PBloQ", "remark": "Somwari", "st_area(shape)": 4.723295692388126e-06, "st_perimeter(shape)": 0.009293596183105678}}, {"type": "Feature", "geometry": {"type": "Polygon", "coordinates": [[[79.6367, 20.7908], [79.6361, 20.7901], [79.6359, 20.7903], [79.6359, 20.7908], [79.6359, 20.7912], [79.636, 20.792], [79.6361, 20.7925], [79.6361, 20.7932], [79.6365, 20.7942], [79.6368, 20.7948], [79.6375, 20.7947], [79.6379, 20.7946], [79.6381, 20.7944], [79.6383, 20.7943], [79.6387, 20.7941], [79.6391, 20.7941], [79.639, 20.7936], [79.6389, 20.7929], [79.6388, 20.7922], [79.6388, 20.7905], [79.6387, 20.7899], [79.6386, 20.7892], [79.6381, 20.7894], [79.6378, 20.79], [79.6371, 20.7905], [79.6367, 20.7908]]]}, "properties": {"objectid": 72399, "statename": "Maharashtra", "statecode": "27", "districtname": "Bhandara", "districtcode": "506", "ulbname": "Pauni", "ulbcode": "802714", "wardname": "Ward 8", "wardcode": "8", "id": null, "status": "APPROVED", "misglobalid": null, "approved_by": null, "createdate": 1641557041000, "updateddate": 1641564844000, "globalid": null, "gisglobalid": "nRnlosal-PBB6-PnaK-RaP6-asKQcalanool", "remark": "Netaji", "st_area(shape)": 1.2299654331309061e-05, "st_perimeter(shape)": 0.015856655781026734}}, {"type": "Feature", "geometry": {"type": "Polygon", "coordinates": [[[79.6333, 20.7884], [79.6329, 20.7896], [79.6325, 20.7918], [79.6323, 20.7932], [79.6326, 20.7933], [79.6332, 20.7937], [79.6333, 20.7939], [79.6337, 20.7944], [79.634, 20.7945], [79.6343, 20.7946], [79.6346, 20.7948], [79.6349, 20.7949], [79.6349, 20.7943], [79.635, 20.7939], [79.6354, 20.794], [79.6358, 20.7942], [79.6363, 20.7942], [79.6364, 20.7942], [79.6361, 20.7932], [79.636, 20.7923], [79.636, 20.7917], [79.6359, 20.7912], [79.6359, 20.7907], [79.6358, 20.7902], [79.6361, 20.79], [79.6358, 20.7901], [79.6352, 20.7903], [79.6349, 20.7904], [79.6338, 20.7886], [79.6333, 20.7884]]]}, "properties": {"objectid": 72397, "statename": "Maharashtra", "statecode": "27", "districtname": "Bhandara", "districtcode": "506", "ulbname": "Pauni", "ulbcode": "802714", "wardname": "Ward 9", "wardcode": "9", "id": null, "status": "APPROVED", "misglobalid": null, "approved_by": null, "createdate": 1641557041000, "updateddate": 1641564868000, "globalid": null, "gisglobalid": "dnnnP55d-ansd-PnK6-RKdd-6asdnBP4BPKn", "remark": "Bhaitalav", "st_area(shape)": 1.5818668203511775e-05, "st_perimeter(shape)": 0.01899906016402518}}, {"type": "Feature", "geometry": {"type": "Polygon", "coordinates": [[[79.6368, 20.7948], [79.6364, 20.7942], [79.6358, 20.7942], [79.6354, 20.794], [79.635, 20.7939], [79.635, 20.7944], [79.6349, 20.7949], [79.6346, 20.7948], [79.6344, 20.7947], [79.634, 20.7945], [79.6337, 20.7944], [79.6333, 20.794], [79.6331, 20.7937], [79.6326, 20.7933], [79.6323, 20.7932], [79.6324, 20.7921], [79.6311, 20.792], [79.6305, 20.7922], [79.6299, 20.7922], [79.6296, 20.7934], [79.6296, 20.7935], [79.6298, 20.7943], [79.6302, 20.7959], [79.6303, 20.7962], [79.6306, 20.7968], [79.632, 20.7966], [79.6325, 20.7965], [79.6332, 20.7965], [79.6333, 20.7969], [79.6336, 20.7972], [79.634, 20.7973], [79.6343, 20.7973], [79.6346, 20.7973], [79.6349, 20.7972], [79.6353, 20.7971], [79.6352, 20.7966], [79.6353, 20.7961], [79.6357, 20.796], [79.6362, 20.796], [79.6365, 20.7959], [79.6368, 20.7959], [79.637, 20.7958], [79.6372, 20.7957], [79.6371, 20.7956], [79.637, 20.7954], [79.6368, 20.7948]]]}, "properties": {"objectid": 72398, "statename": "Maharashtra", "statecode": "27", "districtname": "Bhandara", "districtcode": "506", "ulbname": "Pauni", "ulbcode": "802714", "wardname": "Ward 10", "wardcode": "10", "id": null, "status": "APPROVED", "misglobalid": null, "approved_by": null, "createdate": 1641557041000, "updateddate": 1641565003000, "globalid": null, "gisglobalid": "ancaKslo-45R5-PmlB-QcBl-KsR45mK6m4om", "remark": "Gautamnagar", "st_area(shape)": 2.2187843312497517e-05, "st_perimeter(shape)": 0.024100827458702803}}, {"type": "Feature", "geometry": {"type": "Polygon", "coordinates": [[[79.6321, 20.7889], [79.63, 20.7898], [79.6301, 20.79], [79.6304, 20.7908], [79.6302, 20.7911], [79.6298, 20.7914], [79.6301, 20.7921], [79.6305, 20.7922], [79.6311, 20.792], [79.6319, 20.7921], [79.6324, 20.7921], [79.6329, 20.7897], [79.6332, 20.7885], [79.6321, 20.7889]]]}, "properties": {"objectid": 71589, "statename": "Maharashtra", "statecode": "27", "districtname": "Bhandara", "districtcode": "506", "ulbname": "Pauni", "ulbcode": "802714", "wardname": "Ward 11", "wardcode": "11", "id": null, "status": "APPROVED", "misglobalid": null, "approved_by": null, "createdate": 1641557041000, "updateddate": 1641565018000, "globalid": null, "gisglobalid": "sP64nKdB-cln4-Pc5R-sBPQ-RQB4KoPdK4Pn", "remark": "Padma", "st_area(shape)": 7.662122086773573e-06, "st_perimeter(shape)": 0.012178885046670172}}, {"type": "Feature", "geometry": {"type": "Polygon", "coordinates": [[[79.6304, 20.7908], [79.63, 20.7898], [79.6291, 20.7903], [79.6282, 20.7906], [79.6277, 20.7908], [79.6272, 20.7907], [79.6266, 20.791], [79.6262, 20.7912], [79.6261, 20.792], [79.626, 20.7928], [79.6279, 20.7934], [79.6295, 20.7935], [79.6299, 20.7922], [79.6301, 20.7921], [79.6298, 20.7914], [79.6302, 20.791], [79.6304, 20.7908]]]}, "properties": {"objectid": 72394, "statename": "Maharashtra", "statecode": "27", "districtname": "Bhandara", "districtcode": "506", "ulbname": "Pauni", "ulbcode": "802714", "wardname": "Ward 12", "wardcode": "12", "id": null, "status": "APPROVED", "misglobalid": null, "approved_by": null, "createdate": 1641557041000, "updateddate": 1641565038000, "globalid": null, "gisglobalid": "lPPnPlnP-dsmd-Podm-RR6n-6aoR64KPPoPl", "remark": "Rampuri", "st_area(shape)": 1.030803752000578e-05, "st_perimeter(shape)": 0.01351588513411633}}, {"type": "Feature", "geometry": {"type": "Polygon", "coordinates": [[[79.6201, 20.7968], [79.6206, 20.7967], [79.6215, 20.7966], [79.6231, 20.7966], [79.6246, 20.7966], [79.6264, 20.7965], [79.6277, 20.7965], [79.63, 20.7968], [79.6306, 20.7967], [79.6302, 20.7962], [79.6302, 20.796], [79.6295, 20.7935], [79.6279, 20.7934], [79.626, 20.7929], [79.6261, 20.7913], [79.6266, 20.7909], [79.6272, 20.7907], [79.6277, 20.7907], [79.6291, 20.7902], [79.6289, 20.7891], [79.6284, 20.7892], [79.628, 20.7895], [79.6272, 20.7888], [79.6254, 20.7893], [79.6218, 20.7896], [79.6216, 20.7903], [79.6217, 20.7905], [79.6215, 20.7907], [79.6213, 20.7925], [79.6205, 20.7928], [79.6204, 20.7945], [79.62, 20.7949], [79.6201, 20.7963], [79.6201, 20.7968]]]}, "properties": {"objectid": 72393, "statename": "Maharashtra", "statecode": "27", "districtname": "Bhandara", "districtcode": "506", "ulbname": "Pauni", "ulbcode": "802714", "wardname": "Ward 13", "wardcode": "13", "id": null, "status": "APPROVED", "misglobalid": null, "approved_by": null, "createdate": 1641557041000, "updateddate": 1641565064000, "globalid": null, "gisglobalid": "5l6oQndQ-Qmlc-PKaP-Rdm5-oKKRo5aPllcc", "remark": "Belghata", "st_area(shape)": 5.537685561739902e-05, "st_perimeter(shape)": 0.039022568012872516}}, {"type": "Feature", "geometry": {"type": "Polygon", "coordinates": [[[79.6243, 20.7763], [79.6242, 20.7764], [79.6237, 20.7765], [79.6234, 20.7766], [79.623, 20.7766], [79.6227, 20.7765], [79.6224, 20.7765], [79.6216, 20.7762], [79.6205, 20.7767], [79.6204, 20.7768], [79.6204, 20.7769], [79.6192, 20.7773], [79.6187, 20.7774], [79.6191, 20.7778], [79.6192, 20.7785], [79.619, 20.779], [79.6193, 20.7794], [79.6193, 20.78], [79.6198, 20.7811], [79.6197, 20.7822], [79.6195, 20.7835], [79.619, 20.7848], [79.6186, 20.7854], [79.6193, 20.786], [79.6209, 20.7867], [79.6207, 20.7886], [79.621, 20.7887], [79.6216, 20.7886], [79.6218, 20.7896], [79.6254, 20.7892], [79.6267, 20.7889], [79.6272, 20.7887], [79.628, 20.7895], [79.6284, 20.7892], [79.6289, 20.7891], [79.6291, 20.7902], [79.6297, 20.7899], [79.6309, 20.7894], [79.632, 20.7889], [79.6325, 20.7887], [79.6332, 20.7885], [79.6332, 20.7882], [79.6327, 20.787], [79.6322, 20.7862], [79.6314, 20.785], [79.6258, 20.7777], [79.6243, 20.7763]]]}, "properties": {"objectid": 72395, "statename": "Maharashtra", "statecode": "27", "districtname": "Bhandara", "districtcode": "506", "ulbname": "Pauni", "ulbcode": "802714", "wardname": "Ward 14", "wardcode": "14", "id": null, "status": "APPROVED", "misglobalid": null, "approved_by": null, "createdate": 1641557041000, "updateddate": 1641565081000, "globalid": null, "gisglobalid": "4noacmal-QKmK-Pmdo-Q6ld-65mmBn6PQlKs", "remark": "Bastarwari", "st_area(shape)": 0.00012600923832317037, "st_perimeter(shape)": 0.0496301880691773}}, {"type": "Feature", "geometry": {"type": "Polygon", "coordinates": [[[79.6333, 20.7884], [79.6338, 20.7886], [79.6342, 20.7892], [79.6344, 20.7897], [79.6347, 20.79], [79.6349, 20.7904], [79.6361, 20.79], [79.6363, 20.7896], [79.6367, 20.7889], [79.6369, 20.7886], [79.6371, 20.7881], [79.6372, 20.7879], [79.6372, 20.7878], [79.6372, 20.7877], [79.6373, 20.7875], [79.6369, 20.7875], [79.6365, 20.7876], [79.6359, 20.7877], [79.6354, 20.7878], [79.6349, 20.788], [79.6342, 20.7883], [79.6337, 20.7884], [79.6333, 20.7884]]]}, "properties": {"objectid": 71591, "statename": "Maharashtra", "statecode": "27", "districtname": "Bhandara", "districtcode": "506", "ulbname": "Pauni", "ulbcode": "802714", "wardname": "Ward 15", "wardcode": "15", "id": null, "status": "APPROVED", "misglobalid": null, "approved_by": null, "createdate": 1641557041000, "updateddate": 1641565101000, "globalid": null, "gisglobalid": "l5s4mK5n-ado5-PKoP-sdoK-KBKnKcB56Kss", "remark": "Ganesh", "st_area(shape)": 5.84337577371234e-06, "st_perimeter(shape)": 0.010858763215734406}}, {"type": "Feature", "geometry": {"type": "Polygon", "coordinates": [[[79.6332, 20.7883], [79.6333, 20.7884], [79.6335, 20.7884], [79.634, 20.7883], [79.6346, 20.7881], [79.6349, 20.788], [79.6357, 20.7877], [79.6364, 20.7876], [79.6369, 20.7875], [79.6373, 20.7875], [79.638, 20.7875], [79.6385, 20.7872], [79.6387, 20.787], [79.6386, 20.7863], [79.6386, 20.7858], [79.6384, 20.7851], [79.6384, 20.7847], [79.6385, 20.7844], [79.6386, 20.7835], [79.6387, 20.7829], [79.639, 20.7818], [79.6392, 20.7809], [79.6394, 20.7801], [79.6394, 20.7792], [79.6394, 20.7787], [79.6394, 20.7776], [79.6393, 20.7766], [79.6388, 20.7739], [79.6388, 20.7727], [79.6385, 20.7716], [79.6379, 20.7678], [79.6364, 20.7692], [79.6355, 20.7693], [79.6354, 20.7702], [79.6355, 20.7708], [79.6356, 20.7716], [79.6349, 20.7732], [79.6346, 20.7732], [79.6338, 20.7739], [79.6332, 20.7745], [79.6327, 20.7749], [79.632, 20.7754], [79.6314, 20.7756], [79.6314, 20.7763], [79.631, 20.777], [79.6308, 20.7773], [79.6303, 20.7772], [79.6298, 20.7758], [79.6288, 20.776], [79.6286, 20.7751], [79.6289, 20.7749], [79.6289, 20.7742], [79.629, 20.7741], [79.6292, 20.7741], [79.6294, 20.7745], [79.6295, 20.7745], [79.6295, 20.7732], [79.6293, 20.7732], [79.6291, 20.773], [79.6288, 20.7729], [79.6285, 20.7716], [79.6269, 20.7722], [79.627, 20.7728], [79.6265, 20.7736], [79.6255, 20.7737], [79.6257, 20.7748], [79.6245, 20.7757], [79.6244, 20.7763], [79.6258, 20.7777], [79.6268, 20.7789], [79.6286, 20.7813], [79.6294, 20.7822], [79.6311, 20.7845], [79.6327, 20.7867], [79.633, 20.7879], [79.6332, 20.7883]]]}, "properties": {"objectid": 71594, "statename": "Maharashtra", "statecode": "27", "districtname": "Bhandara", "districtcode": "506", "ulbname": "Pauni", "ulbcode": "802714", "wardname": "Ward 16", "wardcode": "16", "id": null, "status": "APPROVED", "misglobalid": null, "approved_by": null, "createdate": 1641557041000, "updateddate": 1641565123000, "globalid": null, "gisglobalid": "no6oBKoQ-R4ac-PP4a-QQ5l-soKRslsdcB6n", "remark": "Shukrawari", "st_area(shape)": 0.00015864006380359862, "st_perimeter(shape)": 0.07000889835437635}}, {"type": "Feature", "geometry": {"type": "Polygon", "coordinates": [[[79.6387, 20.7829], [79.6385, 20.7847], [79.6399, 20.7841], [79.6419, 20.7836], [79.6424, 20.7836], [79.6429, 20.7834], [79.6433, 20.7834], [79.6435, 20.7833], [79.6438, 20.7832], [79.6439, 20.7832], [79.6441, 20.7831], [79.6442, 20.7831], [79.6444, 20.7831], [79.6448, 20.7831], [79.645, 20.7832], [79.6452, 20.7832], [79.6454, 20.7832], [79.646, 20.7829], [79.6462, 20.7829], [79.6462, 20.7827], [79.6455, 20.7825], [79.6454, 20.7809], [79.6455, 20.7807], [79.6453, 20.7792], [79.6448, 20.7794], [79.6447, 20.7782], [79.6446, 20.7774], [79.6446, 20.7755], [79.6442, 20.7755], [79.6444, 20.7747], [79.6441, 20.7729], [79.6432, 20.7739], [79.6429, 20.7741], [79.6425, 20.7741], [79.6418, 20.7743], [79.6414, 20.7698], [79.6408, 20.7704], [79.6402, 20.7707], [79.6393, 20.7712], [79.6386, 20.7716], [79.6388, 20.7727], [79.639, 20.7746], [79.6394, 20.7763], [79.6394, 20.7781], [79.6394, 20.7791], [79.6394, 20.7801], [79.6391, 20.7818], [79.6387, 20.7829]]]}, "properties": {"objectid": 72401, "statename": "Maharashtra", "statecode": "27", "districtname": "Bhandara", "districtcode": "506", "ulbname": "Pauni", "ulbcode": "802714", "wardname": "Ward 17", "wardcode": "17", "id": null, "status": "APPROVED", "misglobalid": null, "approved_by": null, "createdate": 1641557041000, "updateddate": 1641565166000, "globalid": null, "gisglobalid": "nndQK546-RQRa-PaQP-sPo4-nmc4R6mddBmd", "remark": "Mangalwari", "st_area(shape)": 6.599688316409795e-05, "st_perimeter(shape)": 0.043982905695094276}}]}
