{"type":"Topology","arcs":[[[86274,65996],[-13290,-15539]],[[72984,50457],[-6100,-2194]],[[66884,48263],[16122,41133]],[[83006,89396],[3268,-23400]],[[85838,43327],[-6536,1462]],[[79302,44789],[-4357,3839]],[[74945,48628],[-1961,1829]],[[86274,65996],[-436,-22669]],[[74945,48628],[-436,-1279]],[[74509,47349],[-6318,-5485]],[[68191,41864],[-2179,1828]],[[66012,43692],[0,915]],[[66012,44607],[872,3656]],[[70588,37477],[-218,548]],[[70370,38025],[-2179,3839]],[[74509,47349],[-3921,-9872]],[[79302,44789],[20697,-18647]],[[99999,26142],[-1961,-4936]],[[98038,21206],[-27450,16271]],[[85838,43327],[14161,-17185]],[[62309,37294],[3486,1097]],[[65795,38391],[4575,-366]],[[98038,21206],[-38779,-21206],[-56209,33089],[-3050,19196]],[[0,52285],[62309,-14991]],[[65795,38391],[217,5301]],[[62309,37294],[-5229,9872]],[[57080,47166],[1307,914]],[[58387,48080],[7625,-3473]],[[0,52285],[2832,33272]],[[2832,85557],[54248,-38391]],[[58387,48080],[8497,183]],[[2832,85557],[15033,14442],[65141,-10603]]],"transform":{"scale":[4.59004590045932e-7,5.470054700547047e-7],"translate":[77.9639,16.1816]},"objects":{"wards":{"type":"GeometryCollection","geometries":[{"arcs":[[0,1,2,3]],"type":"Polygon","properties":{"objectid":53339,"statename":"Telanagana","statecode":"36","districtname":"Wanaparthy","districtcode":"690","ulbname":"Pebbair","ulbcode":"900562","wardname":"1","wardcode":"1","id":null,"status":"APPROVED","misglobalid":null,"approved_by":null,"createdate":1640083523000,"updateddate":1641279916000,"globalid":null,"gisglobalid":"76c2fc20-8714-4116-9edf-fae876bc5dfb","remark":"","st_area(shape)":0.00009136802068282542,"st_perimeter(shape)":0.0515980155971319}},{"arcs":[[4,5,6,-1,7]],"type":"Polygon","properties":{"objectid":55255,"statename":"Telanagana","statecode":"36","districtname":"Wanaparthy","districtcode":"690","ulbname":"Pebbair","ulbcode":"900562","wardname":"2","wardcode":"2","id":null,"status":"APPROVED","misglobalid":null,"approved_by":null,"createdate":1640083523000,"updateddate":1641279921000,"globalid":null,"gisglobalid":"94616cbe-d76d-4150-a53a-ea2023214eb5","remark":"","st_area(shape)":0.00006885701359136746,"st_perimeter(shape)":0.0332953493904175}},{"arcs":[[-7,8,9,10,11,12,-2]],"type":"Polygon","properties":{"objectid":53340,"statename":"Telanagana","statecode":"36","districtname":"Wanaparthy","districtcode":"690","ulbname":"Pebbair","ulbcode":"900562","wardname":"3","wardcode":"3","id":null,"status":"APPROVED","misglobalid":null,"approved_by":null,"createdate":1640083523000,"updateddate":1641279928000,"globalid":null,"gisglobalid":"4855bc68-078a-4e8e-8a0a-19c9d96efa09","remark":"","st_area(shape)":0.00000901960439519219,"st_perimeter(shape)":0.013879416753054789}},{"arcs":[[13,14,-10,15]],"type":"Polygon","properties":{"objectid":54530,"statename":"Telanagana","statecode":"36","districtname":"Wanaparthy","districtcode":"690","ulbname":"Pebbair","ulbcode":"900562","wardname":"4","wardcode":"4","id":null,"status":"APPROVED","misglobalid":null,"approved_by":null,"createdate":1640083523000,"updateddate":1641279933000,"globalid":null,"gisglobalid":"031d4946-8d37-433e-abd5-69a40855aa68","remark":"","st_area(shape)":0.000006850524813599804,"st_perimeter(shape)":0.01278464064130591}},{"arcs":[[16,17,18,-16,-9,-6]],"type":"Polygon","properties":{"objectid":54912,"statename":"Telanagana","statecode":"36","districtname":"Wanaparthy","districtcode":"690","ulbname":"Pebbair","ulbcode":"900562","wardname":"5","wardcode":"5","id":null,"status":"APPROVED","misglobalid":null,"approved_by":null,"createdate":1640083523000,"updateddate":1641279939000,"globalid":null,"gisglobalid":"36fc83d5-409e-4544-afe3-0e879176bfa0","remark":"","st_area(shape)":0.00007633486530452774,"st_perimeter(shape)":0.05230363458516847}},{"arcs":[[-17,-5,19]],"type":"Polygon","properties":{"objectid":55257,"statename":"Telanagana","statecode":"36","districtname":"Wanaparthy","districtcode":"690","ulbname":"Pebbair","ulbcode":"900562","wardname":"6","wardcode":"6","id":null,"status":"APPROVED","misglobalid":null,"approved_by":null,"createdate":1640083523000,"updateddate":1641279946000,"globalid":null,"gisglobalid":"08af5e24-55ea-4645-b9ac-7c094c24125c","remark":"","st_area(shape)":0.00007926321432517163,"st_perimeter(shape)":0.04670677480217144}},{"arcs":[[20,21,-14,-19,22,23]],"type":"Polygon","properties":{"objectid":53107,"statename":"Telanagana","statecode":"36","districtname":"Wanaparthy","districtcode":"690","ulbname":"Pebbair","ulbcode":"900562","wardname":"7","wardcode":"7","id":null,"status":"APPROVED","misglobalid":null,"approved_by":null,"createdate":1640083523000,"updateddate":1641279955000,"globalid":null,"gisglobalid":"78f19637-7ade-42f6-949e-ddee6d559052","remark":"","st_area(shape)":0.0005285343397903419,"st_perimeter(shape)":0.12023231419301847}},{"arcs":[[-15,-22,24,-11]],"type":"Polygon","properties":{"objectid":53713,"statename":"Telanagana","statecode":"36","districtname":"Wanaparthy","districtcode":"690","ulbname":"Pebbair","ulbcode":"900562","wardname":"8","wardcode":"8","id":null,"status":"APPROVED","misglobalid":null,"approved_by":null,"createdate":1640083523000,"updateddate":1641279962000,"globalid":null,"gisglobalid":"1922d9dc-1b2b-4d4e-b760-dcd202cb1817","remark":"","st_area(shape)":0.000003293404583805938,"st_perimeter(shape)":0.008716014630161886}},{"arcs":[[-12,-25,-21,25,26,27]],"type":"Polygon","properties":{"objectid":53712,"statename":"Telanagana","statecode":"36","districtname":"Wanaparthy","districtcode":"690","ulbname":"Pebbair","ulbcode":"900562","wardname":"9","wardcode":"9","id":null,"status":"APPROVED","misglobalid":null,"approved_by":null,"createdate":1640083523000,"updateddate":1641279968000,"globalid":null,"gisglobalid":"5e05ed24-723d-49ec-bc80-90d9990fc98f","remark":"","st_area(shape)":0.000010525880605361278,"st_perimeter(shape)":0.017506096943540866}},{"arcs":[[-26,-24,28,29]],"type":"Polygon","properties":{"objectid":54115,"statename":"Telanagana","statecode":"36","districtname":"Wanaparthy","districtcode":"690","ulbname":"Pebbair","ulbcode":"900562","wardname":"10","wardcode":"10","id":null,"status":"APPROVED","misglobalid":null,"approved_by":null,"createdate":1640083523000,"updateddate":1641279975000,"globalid":null,"gisglobalid":"52032f1c-bacc-42cf-9cef-966131fbae93","remark":"","st_area(shape)":0.0003573858921020268,"st_perimeter(shape)":0.09132774449121117}},{"arcs":[[-28,30,-13]],"type":"Polygon","properties":{"objectid":55256,"statename":"Telanagana","statecode":"36","districtname":"Wanaparthy","districtcode":"690","ulbname":"Pebbair","ulbcode":"900562","wardname":"11","wardcode":"11","id":null,"status":"APPROVED","misglobalid":null,"approved_by":null,"createdate":1640083523000,"updateddate":1641279981000,"globalid":null,"gisglobalid":"67133c5b-195f-464d-9150-023ace417bb7","remark":"","st_area(shape)":0.000006753556494287517,"st_perimeter(shape)":0.011092326347578698}},{"arcs":[[-3,-31,-27,-30,31]],"type":"Polygon","properties":{"objectid":54911,"statename":"Telanagana","statecode":"36","districtname":"Wanaparthy","districtcode":"690","ulbname":"Pebbair","ulbcode":"900562","wardname":"12","wardcode":"12","id":null,"status":"APPROVED","misglobalid":null,"approved_by":null,"createdate":1640083523000,"updateddate":1646996124000,"globalid":null,"gisglobalid":"d524fc1d-1f24-49fb-beb6-12ab533f6b51","remark":"","st_area(shape)":0.0006565214937720142,"st_perimeter(shape)":0.1070845696942452}}]}}}