{"type": "FeatureCollection", "features": [{"type": "Feature", "geometry": {"type": "Polygon", "coordinates": [[[78.5951, 26.5009], [78.5966, 26.5021], [78.6018, 26.4988], [78.5934, 26.4957], [78.5951, 26.5009]]]}, "properties": {"objectid": 34187, "statename": "Madhya Pradesh", "statecode": "23", "districtname": null, "districtcode": "420", "ulbname": "Mehgaon", "ulbcode": "802092", "wardname": "", "wardcode": "1", "id": null, "status": "APPROVED", "misglobalid": null, "approved_by": "ULB Nodal Officer", "createdate": 1636221794000, "updateddate": 1636221844000, "globalid": "mmnacla4-54aK-P5o4-QasR-KRo4lnmQ4R4R", "gisglobalid": "6e6e09d7-8aa2-45e4-9b14-9f5bb729b464", "remark": "", "st_area(shape)": 2.4912497521019403e-05, "st_perimeter(shape)": 0.02253424664756412}}, {"type": "Feature", "geometry": {"type": "Polygon", "coordinates": [[[78.6009, 26.5037], [78.6071, 26.5076], [78.6112, 26.5042], [78.6092, 26.5034], [78.6079, 26.5025], [78.6047, 26.5], [78.6019, 26.4988], [78.6, 26.5], [78.5967, 26.5021], [78.6009, 26.5037]]]}, "properties": {"objectid": 33387, "statename": "Madhya Pradesh", "statecode": "23", "districtname": null, "districtcode": "420", "ulbname": "Mehgaon", "ulbcode": "802092", "wardname": "", "wardcode": "2", "id": null, "status": "APPROVED", "misglobalid": null, "approved_by": "ULB Nodal Officer", "createdate": 1636221794000, "updateddate": 1636221861000, "globalid": "ad6n56nd-mQc6-P656-scRR-44QdaPP6s5aQ", "gisglobalid": "32ec64e8-084f-44a2-83d6-7fd656bbb7aa", "remark": "", "st_area(shape)": 5.4954280899977665e-05, "st_perimeter(shape)": 0.034112648450140705}}, {"type": "Feature", "geometry": {"type": "Polygon", "coordinates": [[[78.6112, 26.5039], [78.6118, 26.5027], [78.6107, 26.5023], [78.6075, 26.4998], [78.6069, 26.4991], [78.6075, 26.4989], [78.6067, 26.4977], [78.6061, 26.4979], [78.6063, 26.4983], [78.6043, 26.4996], [78.6054, 26.5003], [78.6066, 26.5014], [78.6079, 26.5024], [78.6094, 26.5033], [78.6112, 26.5039]]]}, "properties": {"objectid": 33792, "statename": "Madhya Pradesh", "statecode": "23", "districtname": null, "districtcode": "420", "ulbname": "Mehgaon", "ulbcode": "802092", "wardname": "", "wardcode": "3", "id": null, "status": "APPROVED", "misglobalid": null, "approved_by": "ULB Nodal Officer", "createdate": 1636221794000, "updateddate": 1636221874000, "globalid": "l45cKdBR-BQdB-PonK-sKll-56R5KmonBRRc", "gisglobalid": "fde6e5d5-bce4-41c9-83ff-c9592d545c9a", "remark": "", "st_area(shape)": 1.4270834008198095e-05, "st_perimeter(shape)": 0.021232382518243928}}, {"type": "Feature", "geometry": {"type": "Polygon", "coordinates": [[[78.5941, 26.4959], [78.603, 26.4992], [78.6042, 26.4997], [78.6043, 26.4996], [78.6049, 26.4992], [78.6062, 26.4982], [78.606, 26.4979], [78.6067, 26.4977], [78.6075, 26.4989], [78.6094, 26.4981], [78.6093, 26.4978], [78.6091, 26.4975], [78.6087, 26.4969], [78.6085, 26.497], [78.6081, 26.4971], [78.6075, 26.4974], [78.6068, 26.4977], [78.6061, 26.4967], [78.605, 26.4949], [78.6015, 26.4959], [78.5979, 26.4957], [78.5958, 26.4957], [78.5942, 26.4957], [78.5935, 26.4957], [78.5941, 26.4959]]]}, "properties": {"objectid": 33793, "statename": "Madhya Pradesh", "statecode": "23", "districtname": null, "districtcode": "420", "ulbname": "Mehgaon", "ulbcode": "802092", "wardname": "", "wardcode": "4", "id": null, "status": "APPROVED", "misglobalid": null, "approved_by": "ULB Nodal Officer", "createdate": 1636221794000, "updateddate": 1636221892000, "globalid": "odsRPnmB-KoRR-P6md-Rcdo-msomao5an4Ro", "gisglobalid": "0f7283f2-da63-42ea-bccd-92aa65176414", "remark": "", "st_area(shape)": 3.1115690448404135e-05, "st_perimeter(shape)": 0.037101526480814585}}, {"type": "Feature", "geometry": {"type": "Polygon", "coordinates": [[[78.6075, 26.4942], [78.6051, 26.4949], [78.6059, 26.4962], [78.6062, 26.4968], [78.6068, 26.4977], [78.6088, 26.4969], [78.6075, 26.4942]]]}, "properties": {"objectid": 32194, "statename": "Madhya Pradesh", "statecode": "23", "districtname": null, "districtcode": "420", "ulbname": "Mehgaon", "ulbcode": "802092", "wardname": "", "wardcode": "5", "id": null, "status": "APPROVED", "misglobalid": null, "approved_by": "ULB Nodal Officer", "createdate": 1636221794000, "updateddate": 1636221896000, "globalid": "o44oaBlK-BQ5d-PKas-adQK-454sKBPaldK4", "gisglobalid": "de5a0636-6c87-45be-9bf5-7beed735bd00", "remark": "", "st_area(shape)": 7.201591809708592e-06, "st_perimeter(shape)": 0.010914929849495873}}, {"type": "Feature", "geometry": {"type": "Polygon", "coordinates": [[[78.6099, 26.5016], [78.6118, 26.5026], [78.6123, 26.5014], [78.6162, 26.4973], [78.6124, 26.4977], [78.6113, 26.4974], [78.6091, 26.4983], [78.607, 26.4992], [78.6075, 26.4997], [78.6081, 26.5003], [78.6099, 26.5016]]]}, "properties": {"objectid": 34188, "statename": "Madhya Pradesh", "statecode": "23", "districtname": null, "districtcode": "420", "ulbname": "Mehgaon", "ulbcode": "802092", "wardname": "", "wardcode": "6", "id": null, "status": "APPROVED", "misglobalid": null, "approved_by": "ULB Nodal Officer", "createdate": 1636221794000, "updateddate": 1636221848000, "globalid": "o4nslam4-smQl-Pama-s6cc-4QPllaBlso6P", "gisglobalid": "ffde1435-4683-4ecf-8a44-7a2d5a62f48e", "remark": "", "st_area(shape)": 2.3448883820621808e-05, "st_perimeter(shape)": 0.022574835390403888}}, {"type": "Feature", "geometry": {"type": "Polygon", "coordinates": [[[78.6076, 26.4942], [78.6088, 26.4969], [78.6094, 26.4979], [78.6095, 26.4979], [78.6112, 26.4972], [78.6113, 26.4965], [78.6114, 26.4961], [78.6105, 26.4963], [78.6094, 26.4938], [78.6076, 26.4942]]]}, "properties": {"objectid": 33388, "statename": "Madhya Pradesh", "statecode": "23", "districtname": null, "districtcode": "420", "ulbname": "Mehgaon", "ulbcode": "802092", "wardname": "", "wardcode": "7", "id": null, "status": "APPROVED", "misglobalid": null, "approved_by": "ULB Nodal Officer", "createdate": 1636221794000, "updateddate": 1636221865000, "globalid": "l6d5QKcP-PR5l-PsBc-RmdP-aPPdsl6mnddd", "gisglobalid": "2d4e9fad-5d65-4498-ac72-11d06f15a1e2", "remark": "", "st_area(shape)": 7.739636169919917e-06, "st_perimeter(shape)": 0.012569486427397338}}, {"type": "Feature", "geometry": {"type": "Polygon", "coordinates": [[[78.6113, 26.4965], [78.6113, 26.4972], [78.6124, 26.4968], [78.6143, 26.4939], [78.6146, 26.4927], [78.6151, 26.4893], [78.6153, 26.4872], [78.6151, 26.4865], [78.6114, 26.488], [78.6113, 26.4901], [78.6113, 26.493], [78.6094, 26.4937], [78.6106, 26.4962], [78.6115, 26.4961], [78.6113, 26.4965]]]}, "properties": {"objectid": 32579, "statename": "Madhya Pradesh", "statecode": "23", "districtname": null, "districtcode": "420", "ulbname": "Mehgaon", "ulbcode": "802092", "wardname": "", "wardcode": "8", "id": null, "status": "APPROVED", "misglobalid": null, "approved_by": "ULB Nodal Officer", "createdate": 1636221794000, "updateddate": 1636221840000, "globalid": "KB4KdmlR-cdmK-PdRP-R4al-lK4alccKsK4n", "gisglobalid": "363d44ce-cca2-4954-b81c-739534ea34eb", "remark": "", "st_area(shape)": 3.40483526472216e-05, "st_perimeter(shape)": 0.02804893147105349}}, {"type": "Feature", "geometry": {"type": "Polygon", "coordinates": [[[78.6113, 26.4973], [78.6124, 26.4976], [78.6141, 26.4975], [78.6142, 26.497], [78.6137, 26.4964], [78.6138, 26.4958], [78.6132, 26.4956], [78.6125, 26.4968], [78.6113, 26.4973]]]}, "properties": {"objectid": 31772, "statename": "Madhya Pradesh", "statecode": "23", "districtname": null, "districtcode": "420", "ulbname": "Mehgaon", "ulbcode": "802092", "wardname": "", "wardcode": "9", "id": null, "status": "APPROVED", "misglobalid": null, "approved_by": "ULB Nodal Officer", "createdate": 1636221794000, "updateddate": 1636221832000, "globalid": "am4o6ds6-66Pd-PBsd-R5nl-QPsBanolnQmR", "gisglobalid": "6ac11070-b604-479a-ae00-c532aac91bf8", "remark": "", "st_area(shape)": 2.8731293596756074e-06, "st_perimeter(shape)": 0.008062036928334234}}, {"type": "Feature", "geometry": {"type": "Polygon", "coordinates": [[[78.614, 26.4967], [78.6142, 26.4971], [78.6142, 26.4974], [78.6154, 26.4973], [78.6162, 26.4972], [78.6165, 26.4973], [78.6164, 26.4968], [78.6162, 26.4969], [78.6157, 26.4969], [78.6156, 26.4967], [78.6159, 26.4963], [78.6153, 26.4955], [78.6154, 26.4953], [78.6153, 26.4953], [78.6151, 26.4952], [78.6145, 26.4958], [78.6146, 26.4959], [78.6142, 26.4963], [78.6138, 26.4963], [78.614, 26.4967]]]}, "properties": {"objectid": 32578, "statename": "Madhya Pradesh", "statecode": "23", "districtname": null, "districtcode": "420", "ulbname": "Mehgaon", "ulbcode": "802092", "wardname": "", "wardcode": "10", "id": null, "status": "APPROVED", "misglobalid": null, "approved_by": "ULB Nodal Officer", "createdate": 1636221794000, "updateddate": 1636221836000, "globalid": "5BnKPanm-KKRo-Pa4K-QdRR-n4sno6aQoQoR", "gisglobalid": "bb06c03d-d156-4730-9e5e-40ca79ff562e", "remark": "", "st_area(shape)": 2.933220397173939e-06, "st_perimeter(shape)": 0.008695015489191918}}, {"type": "Feature", "geometry": {"type": "Polygon", "coordinates": [[[78.6132, 26.4956], [78.6138, 26.4959], [78.6138, 26.4963], [78.6142, 26.4963], [78.6145, 26.4959], [78.6145, 26.4958], [78.6149, 26.4954], [78.6149, 26.4953], [78.6146, 26.4948], [78.6142, 26.4942], [78.6139, 26.4945], [78.6132, 26.4956]]]}, "properties": {"objectid": 34189, "statename": "Madhya Pradesh", "statecode": "23", "districtname": null, "districtcode": "420", "ulbname": "Mehgaon", "ulbcode": "802092", "wardname": "", "wardcode": "11", "id": null, "status": "APPROVED", "misglobalid": null, "approved_by": "ULB Nodal Officer", "createdate": 1636221794000, "updateddate": 1636221853000, "globalid": "6BB4oK4B-KaBP-PQn5-RsQo-QBdaaB56amQR", "gisglobalid": "9efe0fb4-2c39-4cfb-bd33-628b07227999", "remark": "", "st_area(shape)": 1.7930737941664607e-06, "st_perimeter(shape)": 0.005757695971157139}}, {"type": "Feature", "geometry": {"type": "Polygon", "coordinates": [[[78.6143, 26.4939], [78.6142, 26.4942], [78.6147, 26.495], [78.6157, 26.4944], [78.6155, 26.4941], [78.6156, 26.4936], [78.6157, 26.493], [78.6158, 26.4921], [78.6162, 26.4914], [78.6155, 26.4899], [78.6152, 26.4892], [78.6151, 26.49], [78.6147, 26.4923], [78.6143, 26.4939]]]}, "properties": {"objectid": 32580, "statename": "Madhya Pradesh", "statecode": "23", "districtname": null, "districtcode": "420", "ulbname": "Mehgaon", "ulbcode": "802092", "wardname": "", "wardcode": "12", "id": null, "status": "APPROVED", "misglobalid": null, "approved_by": "ULB Nodal Officer", "createdate": 1636221794000, "updateddate": 1636221888000, "globalid": "4d46Rlcn-ls4o-Pdc6-Rsl5-KslKRsRla5Kl", "gisglobalid": "b446bfc6-141c-44e1-8a3b-a94cb7cb5a5c", "remark": "", "st_area(shape)": 5.457009628612648e-06, "st_perimeter(shape)": 0.012644935374616872}}, {"type": "Feature", "geometry": {"type": "Polygon", "coordinates": [[[78.6156, 26.4941], [78.6174, 26.4933], [78.6175, 26.4934], [78.6183, 26.4931], [78.6185, 26.4924], [78.62, 26.4916], [78.6176, 26.4895], [78.6156, 26.4879], [78.6154, 26.4872], [78.6152, 26.4892], [78.6162, 26.4914], [78.6159, 26.4921], [78.6158, 26.493], [78.6156, 26.4941]]]}, "properties": {"objectid": 33794, "statename": "Madhya Pradesh", "statecode": "23", "districtname": null, "districtcode": "420", "ulbname": "Mehgaon", "ulbcode": "802092", "wardname": "", "wardcode": "13", "id": null, "status": "APPROVED", "misglobalid": null, "approved_by": "ULB Nodal Officer", "createdate": 1636221794000, "updateddate": 1636221884000, "globalid": "4noal5mm-4Pd6-P5s6-Qdsm-mQao4llaB5BP", "gisglobalid": "4cc31c8a-1912-44e5-b011-6030c2c62060", "remark": "", "st_area(shape)": 1.414620262263255e-05, "st_perimeter(shape)": 0.019209850433588135}}, {"type": "Feature", "geometry": {"type": "Polygon", "coordinates": [[[78.6147, 26.495], [78.6149, 26.4953], [78.6151, 26.4952], [78.6152, 26.4952], [78.6153, 26.4953], [78.6158, 26.4951], [78.6158, 26.4948], [78.6164, 26.4945], [78.6168, 26.4951], [78.6169, 26.4952], [78.617, 26.4947], [78.6168, 26.4944], [78.6177, 26.494], [78.6175, 26.4935], [78.6174, 26.4933], [78.6162, 26.4938], [78.6156, 26.4941], [78.6157, 26.4944], [78.6147, 26.495]]]}, "properties": {"objectid": 33389, "statename": "Madhya Pradesh", "statecode": "23", "districtname": null, "districtcode": "420", "ulbname": "Mehgaon", "ulbcode": "802092", "wardname": "", "wardcode": "14", "id": null, "status": "APPROVED", "misglobalid": null, "approved_by": "ULB Nodal Officer", "createdate": 1636221794000, "updateddate": 1636221869000, "globalid": "llBPmBcQ-B6Rc-PRd6-a55m-QQQPKanocmKa", "gisglobalid": "a1eec568-5201-46c8-9cf4-28cbe789ebe9", "remark": "", "st_area(shape)": 2.3316577240891917e-06, "st_perimeter(shape)": 0.009428805589872705}}, {"type": "Feature", "geometry": {"type": "Polygon", "coordinates": [[[78.6187, 26.498], [78.6218, 26.4932], [78.62, 26.4917], [78.6186, 26.4924], [78.6184, 26.4931], [78.618, 26.4934], [78.6175, 26.4935], [78.6179, 26.4941], [78.6178, 26.494], [78.6169, 26.4944], [78.6171, 26.4947], [78.617, 26.4953], [78.6169, 26.4953], [78.6164, 26.4946], [78.6158, 26.4948], [78.6159, 26.4951], [78.6154, 26.4953], [78.6154, 26.4954], [78.6159, 26.4962], [78.6157, 26.4967], [78.6158, 26.4968], [78.6161, 26.4968], [78.6163, 26.4968], [78.6165, 26.4968], [78.6166, 26.4973], [78.6187, 26.498]]]}, "properties": {"objectid": 34190, "statename": "Madhya Pradesh", "statecode": "23", "districtname": null, "districtcode": "420", "ulbname": "Mehgaon", "ulbcode": "802092", "wardname": "", "wardcode": "15", "id": null, "status": "APPROVED", "misglobalid": null, "approved_by": "ULB Nodal Officer", "createdate": 1636221794000, "updateddate": 1636221857000, "globalid": "4nmKssm6-BBos-PP5n-an6B-4cm65oQs5RnR", "gisglobalid": "e876a705-ab59-4815-bada-51bf705e4019", "remark": "", "st_area(shape)": 2.000401716281247e-05, "st_perimeter(shape)": 0.021640956305385668}}]}
