{"type": "FeatureCollection", "features": [{"type": "Feature", "geometry": {"type": "Polygon", "coordinates": [[[80.6222, 25.8406], [80.6222, 25.8405], [80.6222, 25.8403], [80.6221, 25.8403], [80.622, 25.8402], [80.6219, 25.84], [80.6218, 25.84], [80.6216, 25.84], [80.6215, 25.8399], [80.6214, 25.8398], [80.6214, 25.8397], [80.6214, 25.8396], [80.6213, 25.8396], [80.6213, 25.8395], [80.6216, 25.8393], [80.6216, 25.8392], [80.6215, 25.8392], [80.6215, 25.8391], [80.6214, 25.8391], [80.6214, 25.839], [80.6213, 25.8389], [80.6212, 25.8388], [80.6212, 25.8389], [80.621, 25.839], [80.6207, 25.8391], [80.6206, 25.8391], [80.6206, 25.839], [80.6206, 25.8389], [80.6205, 25.839], [80.6204, 25.839], [80.6201, 25.8387], [80.6203, 25.8386], [80.6202, 25.8385], [80.6202, 25.8384], [80.6204, 25.8384], [80.6204, 25.8383], [80.6205, 25.8383], [80.6206, 25.8384], [80.6207, 25.8383], [80.6207, 25.8382], [80.6206, 25.8381], [80.6206, 25.838], [80.6207, 25.8382], [80.6208, 25.8383], [80.6209, 25.8385], [80.621, 25.8385], [80.6209, 25.8384], [80.621, 25.8383], [80.6209, 25.8382], [80.6208, 25.8381], [80.6208, 25.838], [80.6207, 25.838], [80.6206, 25.8379], [80.6205, 25.838], [80.6204, 25.838], [80.6203, 25.8381], [80.6202, 25.8381], [80.6201, 25.8382], [80.62, 25.8383], [80.62, 25.8384], [80.6199, 25.8384], [80.6198, 25.8385], [80.6197, 25.8385], [80.6196, 25.8386], [80.6195, 25.8386], [80.6193, 25.8387], [80.6191, 25.8388], [80.619, 25.8388], [80.6196, 25.8392], [80.6198, 25.8393], [80.62, 25.8394], [80.6201, 25.8395], [80.6202, 25.8396], [80.6202, 25.8397], [80.6203, 25.8398], [80.6204, 25.84], [80.6205, 25.8402], [80.6205, 25.8403], [80.6206, 25.8404], [80.6206, 25.8406], [80.6207, 25.8408], [80.6207, 25.8409], [80.6208, 25.8409], [80.6208, 25.841], [80.6209, 25.841], [80.621, 25.841], [80.6211, 25.8411], [80.6213, 25.8411], [80.6221, 25.841], [80.6223, 25.841], [80.6222, 25.8406]]]}, "properties": {"objectid": 297788, "statename": "Uttar Pradesh", "statecode": "9", "districtname": "Fatehpur", "districtcode": "172", "ulbname": "Bahuwa (Np)", "ulbcode": "801063", "wardname": "Sarvoday Nagar", "wardcode": "1", "id": null, "status": "APPROVED", "misglobalid": null, "approved_by": null, "createdate": 1672394959000, "updateddate": 1676560552000, "globalid": null, "gisglobalid": "5mRddRBo-mBRa-PsQ5-alnB-P45RcRl556dm", "remark": "", "st_area(shape)": 3.868579038736155e-06, "st_perimeter(shape)": 0.013478143853610848}}, {"type": "Feature", "geometry": {"type": "Polygon", "coordinates": [[[80.6327, 25.8447], [80.6319, 25.8436], [80.6346, 25.8422], [80.6358, 25.8412], [80.6357, 25.8409], [80.6348, 25.839], [80.6326, 25.8394], [80.6305, 25.8403], [80.6301, 25.8397], [80.629, 25.8383], [80.6279, 25.8364], [80.6276, 25.8366], [80.6272, 25.8369], [80.627, 25.837], [80.627, 25.8371], [80.6256, 25.8382], [80.6253, 25.8383], [80.6253, 25.8384], [80.6252, 25.8385], [80.6251, 25.8386], [80.625, 25.8387], [80.6249, 25.8387], [80.6248, 25.8387], [80.6246, 25.8387], [80.6245, 25.8387], [80.6244, 25.8387], [80.6245, 25.8388], [80.6245, 25.8389], [80.6245, 25.839], [80.6245, 25.8391], [80.6245, 25.8392], [80.6244, 25.8393], [80.6244, 25.8394], [80.6245, 25.8394], [80.6245, 25.8395], [80.6246, 25.8395], [80.6247, 25.8396], [80.6248, 25.8397], [80.6249, 25.8398], [80.6249, 25.84], [80.625, 25.8401], [80.625, 25.8402], [80.6251, 25.8403], [80.6251, 25.8404], [80.6252, 25.8406], [80.6253, 25.8407], [80.6253, 25.8408], [80.6257, 25.8407], [80.6259, 25.8407], [80.6262, 25.8406], [80.6263, 25.8406], [80.6265, 25.8406], [80.6267, 25.8406], [80.6269, 25.8406], [80.627, 25.8407], [80.6272, 25.8408], [80.6275, 25.841], [80.6278, 25.8413], [80.628, 25.8415], [80.6283, 25.8418], [80.6285, 25.842], [80.6289, 25.8425], [80.6292, 25.8428], [80.6294, 25.8431], [80.6298, 25.8435], [80.6301, 25.8438], [80.6304, 25.8441], [80.6307, 25.8443], [80.631, 25.8452], [80.6319, 25.8449], [80.6327, 25.8448], [80.6327, 25.8447]]]}, "properties": {"objectid": 298134, "statename": "Uttar Pradesh", "statecode": "9", "districtname": "Fatehpur", "districtcode": "172", "ulbname": "Bahuwa (Np)", "ulbcode": "801063", "wardname": "Gandhi Nagar", "wardcode": "2", "id": null, "status": "APPROVED", "misglobalid": null, "approved_by": null, "createdate": 1672395011000, "updateddate": 1676560564000, "globalid": null, "gisglobalid": "ccsKlam5-a54d-Pnnd-alBR-KKnmso5doa4B", "remark": "", "st_area(shape)": 4.060545033820925e-05, "st_perimeter(shape)": 0.03423943620596242}}, {"type": "Feature", "geometry": {"type": "Polygon", "coordinates": [[[80.6178, 25.8382], [80.619, 25.8388], [80.6191, 25.8388], [80.6193, 25.8387], [80.6195, 25.8386], [80.6196, 25.8386], [80.6197, 25.8385], [80.6198, 25.8385], [80.6199, 25.8384], [80.62, 25.8384], [80.62, 25.8383], [80.6201, 25.8382], [80.6202, 25.8381], [80.6203, 25.8381], [80.6204, 25.838], [80.6205, 25.838], [80.6206, 25.8379], [80.6207, 25.838], [80.6208, 25.838], [80.6208, 25.8381], [80.6209, 25.8382], [80.621, 25.8383], [80.6209, 25.8384], [80.621, 25.8385], [80.6209, 25.8385], [80.6208, 25.8383], [80.6207, 25.8382], [80.6206, 25.838], [80.6206, 25.8381], [80.6207, 25.8382], [80.6207, 25.8383], [80.6206, 25.8384], [80.6205, 25.8383], [80.6204, 25.8383], [80.6204, 25.8384], [80.6202, 25.8384], [80.6202, 25.8385], [80.6203, 25.8386], [80.6201, 25.8387], [80.6204, 25.839], [80.6205, 25.839], [80.6206, 25.8389], [80.6206, 25.839], [80.6206, 25.8391], [80.6207, 25.8391], [80.621, 25.839], [80.6212, 25.8389], [80.6212, 25.8388], [80.6212, 25.8387], [80.6211, 25.8386], [80.621, 25.8385], [80.621, 25.8384], [80.621, 25.8383], [80.621, 25.8382], [80.6209, 25.8381], [80.6209, 25.838], [80.6208, 25.838], [80.6208, 25.8379], [80.6207, 25.8379], [80.6206, 25.8379], [80.6205, 25.8378], [80.6204, 25.8377], [80.6203, 25.8376], [80.6202, 25.8375], [80.6201, 25.8374], [80.6201, 25.8373], [80.6201, 25.8372], [80.62, 25.8371], [80.6199, 25.8369], [80.6199, 25.8368], [80.6198, 25.8367], [80.6197, 25.8366], [80.6197, 25.8365], [80.6196, 25.8364], [80.6195, 25.8363], [80.6195, 25.8362], [80.6194, 25.836], [80.6191, 25.8361], [80.6193, 25.8363], [80.6193, 25.8364], [80.6192, 25.8365], [80.6191, 25.8365], [80.619, 25.8366], [80.6189, 25.8367], [80.6188, 25.8368], [80.6187, 25.8368], [80.6186, 25.8369], [80.6185, 25.837], [80.6184, 25.8371], [80.6182, 25.8373], [80.6181, 25.8371], [80.6179, 25.8373], [80.6175, 25.8373], [80.6175, 25.8375], [80.6175, 25.8376], [80.6174, 25.8377], [80.6173, 25.8378], [80.6172, 25.8379], [80.6178, 25.8382]]]}, "properties": {"objectid": 297789, "statename": "Uttar Pradesh", "statecode": "9", "districtname": "Fatehpur", "districtcode": "172", "ulbname": "Bahuwa (Np)", "ulbcode": "801063", "wardname": "Shastri Nagar", "wardcode": "3", "id": null, "status": "APPROVED", "misglobalid": null, "approved_by": null, "createdate": 1672395053000, "updateddate": 1676560573000, "globalid": null, "gisglobalid": "4c6snBPP-Bso5-PKda-Q54m-5dslKlml6oc5", "remark": "", "st_area(shape)": 5.231420603352361e-06, "st_perimeter(shape)": 0.01522826824367916}}, {"type": "Feature", "geometry": {"type": "Polygon", "coordinates": [[[80.6252, 25.8427], [80.6251, 25.8426], [80.6251, 25.8425], [80.6249, 25.8422], [80.6249, 25.842], [80.6248, 25.8419], [80.6247, 25.8418], [80.6246, 25.8416], [80.6245, 25.8414], [80.6245, 25.8412], [80.6244, 25.8411], [80.6244, 25.8409], [80.6243, 25.8409], [80.6242, 25.8409], [80.6235, 25.8409], [80.6223, 25.841], [80.6221, 25.841], [80.6213, 25.8411], [80.6211, 25.8411], [80.621, 25.841], [80.6209, 25.841], [80.6208, 25.841], [80.6208, 25.8409], [80.6207, 25.8409], [80.6207, 25.8408], [80.6206, 25.8406], [80.6206, 25.8404], [80.6205, 25.8403], [80.6204, 25.8404], [80.6202, 25.8405], [80.6201, 25.8404], [80.62, 25.8405], [80.62, 25.8406], [80.6198, 25.8408], [80.6197, 25.8406], [80.6194, 25.8408], [80.6195, 25.8409], [80.6195, 25.8411], [80.6218, 25.8425], [80.6221, 25.8428], [80.6223, 25.8426], [80.6226, 25.843], [80.6227, 25.8429], [80.6229, 25.8431], [80.6231, 25.8431], [80.6232, 25.8431], [80.6251, 25.8427], [80.6252, 25.8427]]]}, "properties": {"objectid": 298135, "statename": "Uttar Pradesh", "statecode": "9", "districtname": "Fatehpur", "districtcode": "172", "ulbname": "Bahuwa (Np)", "ulbcode": "801063", "wardname": "Krishna Nagar Paschimi", "wardcode": "4", "id": null, "status": "APPROVED", "misglobalid": null, "approved_by": null, "createdate": 1672395089000, "updateddate": 1676560580000, "globalid": null, "gisglobalid": "QRnPKBos-aBaK-P4QQ-RRal-645ll4nPBa5Q", "remark": "", "st_area(shape)": 8.109452758822414e-06, "st_perimeter(shape)": 0.014862250187788263}}, {"type": "Feature", "geometry": {"type": "Polygon", "coordinates": [[[80.6223, 25.841], [80.6235, 25.8409], [80.6242, 25.8409], [80.6243, 25.8409], [80.6244, 25.8409], [80.625, 25.8408], [80.6253, 25.8408], [80.6253, 25.8407], [80.6252, 25.8406], [80.6251, 25.8404], [80.6251, 25.8403], [80.625, 25.8402], [80.625, 25.8401], [80.6249, 25.84], [80.6249, 25.8398], [80.6248, 25.8397], [80.6247, 25.8396], [80.6246, 25.8395], [80.6245, 25.8395], [80.6245, 25.8394], [80.6244, 25.8394], [80.6244, 25.8393], [80.6244, 25.8392], [80.6243, 25.8393], [80.6242, 25.8392], [80.6241, 25.8393], [80.6241, 25.8394], [80.624, 25.8394], [80.6239, 25.8395], [80.6238, 25.8395], [80.6237, 25.8396], [80.6236, 25.8396], [80.6235, 25.8396], [80.6234, 25.8396], [80.6234, 25.8395], [80.6233, 25.8395], [80.6232, 25.8394], [80.6232, 25.8393], [80.6231, 25.8394], [80.623, 25.8395], [80.6228, 25.8394], [80.6226, 25.8395], [80.6225, 25.8395], [80.6224, 25.8396], [80.6224, 25.8397], [80.6223, 25.8398], [80.6223, 25.8399], [80.6222, 25.8399], [80.6222, 25.84], [80.6222, 25.8401], [80.6222, 25.8403], [80.6223, 25.841]]]}, "properties": {"objectid": 298136, "statename": "Uttar Pradesh", "statecode": "9", "districtname": "Fatehpur", "districtcode": "172", "ulbname": "Bahuwa (Np)", "ulbcode": "801063", "wardname": "Raj Nagar", "wardcode": "5", "id": null, "status": "APPROVED", "misglobalid": null, "approved_by": null, "createdate": 1672395154000, "updateddate": 1676560587000, "globalid": null, "gisglobalid": "Rod5nmcd-aa5s-Pn64-sm45-camaaQddlKc4", "remark": "", "st_area(shape)": 3.956393685404656e-06, "st_perimeter(shape)": 0.00874037777670778}}, {"type": "Feature", "geometry": {"type": "Polygon", "coordinates": [[[80.6213, 25.8395], [80.6213, 25.8396], [80.6214, 25.8396], [80.6214, 25.8397], [80.6214, 25.8398], [80.6215, 25.8399], [80.6216, 25.84], [80.6218, 25.84], [80.6219, 25.84], [80.622, 25.8402], [80.6221, 25.8403], [80.6222, 25.8403], [80.6222, 25.8401], [80.6222, 25.84], [80.6222, 25.8399], [80.6223, 25.8399], [80.6223, 25.8398], [80.6224, 25.8397], [80.6224, 25.8396], [80.6225, 25.8395], [80.6226, 25.8395], [80.6228, 25.8394], [80.623, 25.8395], [80.6231, 25.8394], [80.6232, 25.8393], [80.6232, 25.8394], [80.6232, 25.8393], [80.6231, 25.8392], [80.6232, 25.8392], [80.6229, 25.8389], [80.6228, 25.8389], [80.6227, 25.8388], [80.6226, 25.8388], [80.6225, 25.8388], [80.6223, 25.8386], [80.6224, 25.8386], [80.6224, 25.8385], [80.6223, 25.8382], [80.6224, 25.8381], [80.6223, 25.8379], [80.6222, 25.838], [80.6221, 25.8381], [80.622, 25.8381], [80.6219, 25.8382], [80.6218, 25.8382], [80.6217, 25.8382], [80.6216, 25.8381], [80.6215, 25.8381], [80.6214, 25.838], [80.6213, 25.838], [80.6211, 25.838], [80.621, 25.838], [80.6209, 25.838], [80.6209, 25.8381], [80.621, 25.8382], [80.621, 25.8383], [80.621, 25.8384], [80.621, 25.8385], [80.6211, 25.8386], [80.6212, 25.8387], [80.6212, 25.8388], [80.6213, 25.8389], [80.6214, 25.839], [80.6214, 25.8391], [80.6215, 25.8391], [80.6215, 25.8392], [80.6216, 25.8392], [80.6216, 25.8393], [80.6213, 25.8395]]]}, "properties": {"objectid": 297790, "statename": "Uttar Pradesh", "statecode": "9", "districtname": "Fatehpur", "districtcode": "172", "ulbname": "Bahuwa (Np)", "ulbcode": "801063", "wardname": "Vijay Nagar", "wardcode": "6", "id": null, "status": "APPROVED", "misglobalid": null, "approved_by": null, "createdate": 1672395235000, "updateddate": 1676560596000, "globalid": null, "gisglobalid": "o5a5sdRc-PBco-Pcod-aR6m-KdQoRa56Kcsl", "remark": "", "st_area(shape)": 2.6046818971132853e-06, "st_perimeter(shape)": 0.00847435681420641}}, {"type": "Feature", "geometry": {"type": "Polygon", "coordinates": [[[80.6326, 25.8476], [80.6329, 25.8477], [80.6331, 25.8477], [80.6334, 25.8477], [80.6338, 25.8476], [80.6341, 25.8475], [80.6347, 25.8473], [80.6319, 25.8449], [80.631, 25.8452], [80.6307, 25.8443], [80.6304, 25.8441], [80.6301, 25.8438], [80.6298, 25.8435], [80.6294, 25.8431], [80.6292, 25.8428], [80.6289, 25.8425], [80.6285, 25.842], [80.6283, 25.8418], [80.628, 25.8415], [80.6278, 25.8413], [80.6275, 25.841], [80.6272, 25.8408], [80.627, 25.8407], [80.6269, 25.8406], [80.6267, 25.8406], [80.6265, 25.8406], [80.6263, 25.8406], [80.6262, 25.8406], [80.6259, 25.8407], [80.6257, 25.8407], [80.6253, 25.8408], [80.625, 25.8408], [80.6244, 25.8409], [80.6244, 25.8411], [80.6245, 25.8412], [80.6245, 25.8414], [80.6246, 25.8416], [80.6247, 25.8418], [80.6248, 25.8419], [80.6249, 25.842], [80.6249, 25.8422], [80.6251, 25.8425], [80.6251, 25.8426], [80.6252, 25.8427], [80.6258, 25.8426], [80.626, 25.8425], [80.6261, 25.8425], [80.6264, 25.8425], [80.6265, 25.8426], [80.6268, 25.8426], [80.627, 25.8427], [80.6272, 25.8428], [80.6274, 25.8429], [80.6276, 25.843], [80.6277, 25.8432], [80.6278, 25.8433], [80.6282, 25.8438], [80.6284, 25.844], [80.6286, 25.8443], [80.629, 25.8448], [80.6291, 25.8449], [80.6293, 25.845], [80.6295, 25.8452], [80.6297, 25.8452], [80.63, 25.8453], [80.6303, 25.8453], [80.6306, 25.8453], [80.6307, 25.8453], [80.6308, 25.8454], [80.6306, 25.8456], [80.6311, 25.8464], [80.6312, 25.8466], [80.6315, 25.8464], [80.6317, 25.8468], [80.6316, 25.8468], [80.6309, 25.8472], [80.6311, 25.8475], [80.6314, 25.8474], [80.6316, 25.8475], [80.632, 25.8473], [80.6322, 25.8474], [80.6324, 25.8476], [80.6326, 25.8476]]]}, "properties": {"objectid": 297791, "statename": "Uttar Pradesh", "statecode": "9", "districtname": "Fatehpur", "districtcode": "172", "ulbname": "Bahuwa (Np)", "ulbcode": "801063", "wardname": "Krishna Nagar Purvi", "wardcode": "7", "id": null, "status": "APPROVED", "misglobalid": null, "approved_by": null, "createdate": 1672395272000, "updateddate": 1676560605000, "globalid": null, "gisglobalid": "P4s6dBlR-5Rco-PPPn-an6K-cmnQPBRl5dcR", "remark": "", "st_area(shape)": 1.7623821469338862e-05, "st_perimeter(shape)": 0.029774494232417136}}, {"type": "Feature", "geometry": {"type": "Polygon", "coordinates": [[[80.6223, 25.8379], [80.6224, 25.8381], [80.6225, 25.8381], [80.6226, 25.838], [80.6227, 25.8381], [80.6227, 25.838], [80.6229, 25.8379], [80.6229, 25.8378], [80.623, 25.8377], [80.6231, 25.8377], [80.6232, 25.8376], [80.6232, 25.8375], [80.6231, 25.8375], [80.6231, 25.8374], [80.6229, 25.8372], [80.6228, 25.8371], [80.6227, 25.837], [80.6226, 25.837], [80.6224, 25.8369], [80.6223, 25.8368], [80.6222, 25.8367], [80.6222, 25.8366], [80.6222, 25.8365], [80.6221, 25.8359], [80.6221, 25.8351], [80.6221, 25.8348], [80.6222, 25.8345], [80.6224, 25.8338], [80.6222, 25.8335], [80.6218, 25.8336], [80.6217, 25.8338], [80.6215, 25.8338], [80.6214, 25.834], [80.6216, 25.8341], [80.6217, 25.8342], [80.6218, 25.8343], [80.6218, 25.8344], [80.6217, 25.8345], [80.6215, 25.8347], [80.6212, 25.8348], [80.621, 25.8349], [80.6206, 25.8351], [80.6205, 25.8353], [80.62, 25.8356], [80.6199, 25.8357], [80.6199, 25.8359], [80.6195, 25.836], [80.6194, 25.836], [80.6195, 25.8362], [80.6195, 25.8363], [80.6196, 25.8364], [80.6197, 25.8365], [80.6197, 25.8366], [80.6198, 25.8367], [80.6199, 25.8368], [80.6199, 25.8369], [80.62, 25.8371], [80.6201, 25.8372], [80.6201, 25.8373], [80.6201, 25.8374], [80.6202, 25.8375], [80.6203, 25.8376], [80.6204, 25.8377], [80.6205, 25.8378], [80.6206, 25.8379], [80.6207, 25.8379], [80.6208, 25.8379], [80.6208, 25.838], [80.6209, 25.838], [80.621, 25.838], [80.6211, 25.838], [80.6213, 25.838], [80.6214, 25.838], [80.6215, 25.8381], [80.6216, 25.8381], [80.6217, 25.8382], [80.6218, 25.8382], [80.6219, 25.8382], [80.622, 25.8381], [80.6221, 25.8381], [80.6222, 25.838], [80.6223, 25.8379]]]}, "properties": {"objectid": 297792, "statename": "Uttar Pradesh", "statecode": "9", "districtname": "Fatehpur", "districtcode": "172", "ulbname": "Bahuwa (Np)", "ulbcode": "801063", "wardname": "Azad Nagar", "wardcode": "8", "id": null, "status": "APPROVED", "misglobalid": null, "approved_by": null, "createdate": 1672395316000, "updateddate": 1676560614000, "globalid": null, "gisglobalid": "6m545PKB-onQm-PcoK-QQQd-4oRQ6Poa4las", "remark": "", "st_area(shape)": 8.283278908075893e-06, "st_perimeter(shape)": 0.014781534015181844}}, {"type": "Feature", "geometry": {"type": "Polygon", "coordinates": [[[80.6225, 25.8305], [80.6224, 25.8305], [80.6221, 25.8307], [80.621, 25.8313], [80.6212, 25.8315], [80.6213, 25.8317], [80.6214, 25.832], [80.6215, 25.8324], [80.6218, 25.8331], [80.6219, 25.8333], [80.6218, 25.8334], [80.6219, 25.8336], [80.6222, 25.8335], [80.6224, 25.8338], [80.6222, 25.8345], [80.6221, 25.8348], [80.6221, 25.8351], [80.6221, 25.8359], [80.6222, 25.8365], [80.6222, 25.8366], [80.6222, 25.8367], [80.6223, 25.8368], [80.6224, 25.8369], [80.6226, 25.837], [80.6227, 25.837], [80.6228, 25.8371], [80.6229, 25.8372], [80.6231, 25.8374], [80.6231, 25.8375], [80.6232, 25.8375], [80.6233, 25.8375], [80.6234, 25.8375], [80.6236, 25.8376], [80.6237, 25.8376], [80.6238, 25.8377], [80.6239, 25.8377], [80.6239, 25.8378], [80.624, 25.8379], [80.624, 25.838], [80.6241, 25.8381], [80.6241, 25.8382], [80.6241, 25.8383], [80.6241, 25.8384], [80.6242, 25.8385], [80.6243, 25.8386], [80.6244, 25.8387], [80.6245, 25.8387], [80.6246, 25.8387], [80.6248, 25.8387], [80.6249, 25.8387], [80.625, 25.8387], [80.6251, 25.8386], [80.6252, 25.8385], [80.6253, 25.8384], [80.6253, 25.8383], [80.6256, 25.8382], [80.627, 25.8371], [80.627, 25.837], [80.6272, 25.8369], [80.6271, 25.8368], [80.6246, 25.8334], [80.6225, 25.8305]]]}, "properties": {"objectid": 298137, "statename": "Uttar Pradesh", "statecode": "9", "districtname": "Fatehpur", "districtcode": "172", "ulbname": "Bahuwa (Np)", "ulbcode": "801063", "wardname": "Jawahar Nagar", "wardcode": "9", "id": null, "status": "APPROVED", "misglobalid": null, "approved_by": null, "createdate": 1672395380000, "updateddate": 1676560636000, "globalid": null, "gisglobalid": "aldo4Pcs-cQ56-P64o-Qanc-mRc4m5a5o4Qo", "remark": "", "st_area(shape)": 2.3207216948037165e-05, "st_perimeter(shape)": 0.022728529019545914}}, {"type": "Feature", "geometry": {"type": "Polygon", "coordinates": [[[80.6235, 25.8396], [80.6236, 25.8396], [80.6237, 25.8396], [80.6238, 25.8395], [80.6239, 25.8395], [80.624, 25.8394], [80.6241, 25.8394], [80.6241, 25.8393], [80.6242, 25.8392], [80.6243, 25.8393], [80.6244, 25.8392], [80.6244, 25.8393], [80.6245, 25.8392], [80.6245, 25.8391], [80.6245, 25.839], [80.6245, 25.8389], [80.6245, 25.8388], [80.6244, 25.8387], [80.6243, 25.8386], [80.6242, 25.8385], [80.6241, 25.8384], [80.6241, 25.8383], [80.6241, 25.8382], [80.6241, 25.8381], [80.624, 25.838], [80.624, 25.8379], [80.6239, 25.8378], [80.6239, 25.8377], [80.6238, 25.8377], [80.6237, 25.8376], [80.6236, 25.8376], [80.6234, 25.8375], [80.6233, 25.8375], [80.6232, 25.8375], [80.6232, 25.8376], [80.6231, 25.8377], [80.623, 25.8377], [80.6229, 25.8378], [80.6229, 25.8379], [80.6227, 25.838], [80.6227, 25.8381], [80.6226, 25.838], [80.6225, 25.8381], [80.6224, 25.8381], [80.6223, 25.8382], [80.6224, 25.8385], [80.6224, 25.8386], [80.6223, 25.8386], [80.6225, 25.8388], [80.6226, 25.8388], [80.6227, 25.8388], [80.6228, 25.8389], [80.6229, 25.8389], [80.6232, 25.8392], [80.6231, 25.8392], [80.6232, 25.8393], [80.6232, 25.8394], [80.6233, 25.8395], [80.6234, 25.8395], [80.6234, 25.8396], [80.6235, 25.8396]]]}, "properties": {"objectid": 297793, "statename": "Uttar Pradesh", "statecode": "9", "districtname": "Fatehpur", "districtcode": "172", "ulbname": "Bahuwa (Np)", "ulbcode": "801063", "wardname": "Shanti Nagar", "wardcode": "10", "id": null, "status": "APPROVED", "misglobalid": null, "approved_by": null, "createdate": 1672395438000, "updateddate": 1676560643000, "globalid": null, "gisglobalid": "Plo4l55l-lKPB-Pdnl-R6m4-nQsdssKmnncQ", "remark": "", "st_area(shape)": 2.7321463857312428e-06, "st_perimeter(shape)": 0.0068659197760013784}}]}
