{"type":"Topology","arcs":[[[67646,72285],[2942,-8857]],[[70588,63428],[-5883,5714]],[[64705,69142],[-2287,5714]],[[62418,74856],[5228,-2571]],[[82679,67142],[-5229,-3428]],[[77450,63714],[-6862,-286]],[[67646,72285],[15033,-5143]],[[70588,63428],[980,-2571]],[[71568,60857],[-1307,-3429]],[[70261,57428],[-3922,286]],[[66339,57714],[-1634,11428]],[[77450,63714],[654,-857]],[[78104,62857],[-6536,-2000]],[[70261,57428],[1307,-4857]],[[71568,52571],[-1961,-572]],[[69607,51999],[-11764,3143]],[[57843,55142],[8496,2572]],[[78431,59142],[-5883,-1428]],[[72548,57714],[-980,3143]],[[78104,62857],[327,-3715]],[[72548,57714],[5556,-572]],[[78104,57142],[-6536,-4571]],[[78431,59142],[-327,-2000]],[[82679,67142],[17320,-6857],[-2614,-13428]],[[97385,46857],[-24510,285]],[[72875,47142],[-1307,5429]],[[97385,46857],[-5556,-6572],[3268,-10285],[-7516,-2000]],[[87581,28000],[-14706,19142]],[[72875,47142],[-4902,-4571]],[[67973,42571],[-1634,571]],[[66339,43142],[-653,7143]],[[65686,50285],[3921,1714]],[[87581,28000],[-4248,-15714],[-15687,-572]],[[67646,11714],[3922,4572],[-3595,26285]],[[66339,43142],[-2287,-285]],[[64052,42857],[-4575,-857]],[[59477,42000],[6209,8285]],[[67646,11714],[-4575,-571]],[[63071,11143],[-1307,14000],[2288,17714]],[[59477,42000],[-6536,-7143]],[[52941,34857],[-1961,10000],[6863,10285]],[[63071,11143],[-3594,-857]],[[59477,10286],[-7844,17999]],[[51633,28285],[1308,6572]],[[51633,28285],[-20588,858]],[[31045,29143],[-6535,12285],[1307,12857],[10784,5714],[-1307,10286],[-17320,-1714],[-16667,-7714],[-1307,13142],[15359,12857],[-5555,13143],[18300,-8000],[25163,-4286],[9151,-12857]],[[59477,10286],[-22549,-10286],[-8170,7143],[4902,18000],[-2615,4000]]],"transform":{"scale":[3.0600306003066873e-7,3.5000350003500176e-7],"translate":[76.3179,14.501000000000001]},"objects":{"wards":{"type":"GeometryCollection","geometries":[{"arcs":[[0,1,2,3]],"type":"Polygon","properties":{"objectid":155466,"statename":"Karnataka","statecode":"29","districtname":"","districtcode":"567","ulbname":"Jagalur (Tp)","ulbcode":"803126","wardname":"Ward 1","wardcode":"1","id":null,"status":"APPROVED","misglobalid":null,"approved_by":null,"createdate":1644656077000,"updateddate":1671870179000,"globalid":null,"gisglobalid":"lBKsBoQR-n6Ql-Pcm5-aQ5a-aaRmRsR6m6Bm","remark":"","st_area(shape)":0.000004032306405459836,"st_perimeter(shape)":0.010664928218678003}},{"arcs":[[4,5,-1,6]],"type":"Polygon","properties":{"objectid":155922,"statename":"Karnataka","statecode":"29","districtname":"","districtcode":"567","ulbname":"Jagalur (Tp)","ulbcode":"803126","wardname":"Ward 2","wardcode":"2","id":null,"status":"APPROVED","misglobalid":null,"approved_by":null,"createdate":1644656077000,"updateddate":1671870645000,"globalid":null,"gisglobalid":"KKnn64RP-Posl-Psm6-QodB-calPasPlaa6l","remark":"","st_area(shape)":0.000009342799844796647,"st_perimeter(shape)":0.016250874768943938}},{"arcs":[[7,8,9,10,-2]],"type":"Polygon","properties":{"objectid":156252,"statename":"Karnataka","statecode":"29","districtname":"","districtcode":"567","ulbname":"Jagalur (Tp)","ulbcode":"803126","wardname":"Ward 3","wardcode":"3","id":null,"status":"APPROVED","misglobalid":null,"approved_by":null,"createdate":1644656077000,"updateddate":1671870693000,"globalid":null,"gisglobalid":"RmQ6lmn4-oamQ-P4ac-aPlK-d5a6RBs4lc5o","remark":"","st_area(shape)":0.0000046986824266716065,"st_perimeter(shape)":0.011911119287226712}},{"arcs":[[11,12,-8,-6]],"type":"Polygon","properties":{"objectid":155921,"statename":"Karnataka","statecode":"29","districtname":"","districtcode":"567","ulbname":"Jagalur (Tp)","ulbcode":"803126","wardname":"Ward 4","wardcode":"4","id":null,"status":"APPROVED","misglobalid":null,"approved_by":null,"createdate":1644656077000,"updateddate":1671870721000,"globalid":null,"gisglobalid":"PcndddmP-alPm-PQP4-s5R4-Qn6RdB5mRoBK","remark":"","st_area(shape)":0.0000016729247203958843,"st_perimeter(shape)":0.006062114459083305}},{"arcs":[[-10,13,14,15,16]],"type":"Polygon","properties":{"objectid":150705,"statename":"Karnataka","statecode":"29","districtname":"","districtcode":"567","ulbname":"Jagalur (Tp)","ulbcode":"803126","wardname":"Ward 5","wardcode":"5","id":null,"status":"APPROVED","misglobalid":null,"approved_by":null,"createdate":1644656077000,"updateddate":1671870745000,"globalid":null,"gisglobalid":"sm6BK6oB-4doo-P5B5-alca-dPsPlma66QsQ","remark":"","st_area(shape)":0.000006167032531044805,"st_perimeter(shape)":0.011611298078727706}},{"arcs":[[17,18,-13,19]],"type":"Polygon","properties":{"objectid":155923,"statename":"Karnataka","statecode":"29","districtname":"","districtcode":"567","ulbname":"Jagalur (Tp)","ulbcode":"803126","wardname":"Ward 6","wardcode":"6","id":null,"status":"APPROVED","misglobalid":null,"approved_by":null,"createdate":1644656077000,"updateddate":1671870766000,"globalid":null,"gisglobalid":"odacdQQP-aBcc-Pnsc-scRl-4l4Pd5sRKBlR","remark":"","st_area(shape)":0.0000022674658610215045,"st_perimeter(shape)":0.0067665655886712485}},{"arcs":[[20,21,-14,-9,-19]],"type":"Polygon","properties":{"objectid":152380,"statename":"Karnataka","statecode":"29","districtname":"","districtcode":"567","ulbname":"Jagalur (Tp)","ulbcode":"803126","wardname":"Ward 7","wardcode":"7","id":null,"status":"APPROVED","misglobalid":null,"approved_by":null,"createdate":1644656077000,"updateddate":1671870833000,"globalid":null,"gisglobalid":"RsmK4cPn-RQ6m-PB6a-smQs-5c6PRlcdsKQn","remark":"","st_area(shape)":0.0000035943924084883313,"st_perimeter(shape)":0.009923664435044109}},{"arcs":[[-21,-18,22]],"type":"Polygon","properties":{"objectid":150708,"statename":"Karnataka","statecode":"29","districtname":"","districtcode":"567","ulbname":"Jagalur (Tp)","ulbcode":"803126","wardname":"Ward 8","wardcode":"8","id":null,"status":"APPROVED","misglobalid":null,"approved_by":null,"createdate":1644656077000,"updateddate":1671870856000,"globalid":null,"gisglobalid":"Rdaa5Qcs-PRco-PlRR-Rmcd-conlKPRcoaam","remark":"","st_area(shape)":0.0000011509140879913606,"st_perimeter(shape)":0.0047941189306949655}},{"arcs":[[23,24,25,-22,-23,-20,-12,-5]],"type":"Polygon","properties":{"objectid":155920,"statename":"Karnataka","statecode":"29","districtname":"","districtcode":"567","ulbname":"Jagalur (Tp)","ulbcode":"803126","wardname":"Ward 9","wardcode":"9","id":null,"status":"APPROVED","misglobalid":null,"approved_by":null,"createdate":1644656077000,"updateddate":1671870881000,"globalid":null,"gisglobalid":"55llmo4B-cQlo-PR55-Qn66-l6ssdQBQRnRo","remark":"","st_area(shape)":0.000045344290543482575,"st_perimeter(shape)":0.03069392964654712}},{"arcs":[[26,27,-25]],"type":"Polygon","properties":{"objectid":147465,"statename":"Karnataka","statecode":"29","districtname":"","districtcode":"567","ulbname":"Jagalur (Tp)","ulbcode":"803126","wardname":"Ward 10","wardcode":"10","id":null,"status":"APPROVED","misglobalid":null,"approved_by":null,"createdate":1644656077000,"updateddate":1671870900000,"globalid":null,"gisglobalid":"6clmPdld-msBm-PQKB-Qo4P-oRc5nKPdR4ac","remark":"","st_area(shape)":0.000031317494442486166,"st_perimeter(shape)":0.027607081870377886}},{"arcs":[[28,29,30,31,-15,-26]],"type":"Polygon","properties":{"objectid":153889,"statename":"Karnataka","statecode":"29","districtname":"","districtcode":"567","ulbname":"Jagalur (Tp)","ulbcode":"803126","wardname":"Ward 11","wardcode":"11","id":null,"status":"APPROVED","misglobalid":null,"approved_by":null,"createdate":1644656077000,"updateddate":1671870930000,"globalid":null,"gisglobalid":"aoQc4dPa-sRdl-PPso-QsKR-R4nRlPR5RKo6","remark":"","st_area(shape)":0.000005822359216201714,"st_perimeter(shape)":0.010261182912057302}},{"arcs":[[32,33,-29,-28]],"type":"Polygon","properties":{"objectid":153887,"statename":"Karnataka","statecode":"29","districtname":"","districtcode":"567","ulbname":"Jagalur (Tp)","ulbcode":"803126","wardname":"Ward 12","wardcode":"12","id":null,"status":"APPROVED","misglobalid":null,"approved_by":null,"createdate":1644656077000,"updateddate":1671870953000,"globalid":null,"gisglobalid":"oB6mB4s6-dnP6-Pd5c-QR4c-aKRmmao4K4Qd","remark":"","st_area(shape)":0.0000454546491535829,"st_perimeter(shape)":0.03694589818862974}},{"arcs":[[34,35,36,-31]],"type":"Polygon","properties":{"objectid":150707,"statename":"Karnataka","statecode":"29","districtname":"","districtcode":"567","ulbname":"Jagalur (Tp)","ulbcode":"803126","wardname":"Ward 13","wardcode":"13","id":null,"status":"APPROVED","misglobalid":null,"approved_by":null,"createdate":1644656077000,"updateddate":1671870986000,"globalid":null,"gisglobalid":"ddPan5cR-mnR4-PRoQ-sB4K-5o5Q5odocR66","remark":"","st_area(shape)":0.000004202446829637679,"st_perimeter(shape)":0.010306671989738898}},{"arcs":[[-34,37,38,-35,-30]],"type":"Polygon","properties":{"objectid":150706,"statename":"Karnataka","statecode":"29","districtname":"","districtcode":"567","ulbname":"Jagalur (Tp)","ulbcode":"803126","wardname":"Ward 14","wardcode":"14","id":null,"status":"APPROVED","misglobalid":null,"approved_by":null,"createdate":1644656077000,"updateddate":1671871010000,"globalid":null,"gisglobalid":"c45QnBmo-5sBn-P44P-a5Rd-nRRBdasBKQml","remark":"","st_area(shape)":0.000024171261448287624,"st_perimeter(shape)":0.026897320629081137}},{"arcs":[[-32,-37,39,40,-16]],"type":"Polygon","properties":{"objectid":153888,"statename":"Karnataka","statecode":"29","districtname":"","districtcode":"567","ulbname":"Jagalur (Tp)","ulbcode":"803126","wardname":"Ward 15","wardcode":"15","id":null,"status":"APPROVED","misglobalid":null,"approved_by":null,"createdate":1644656077000,"updateddate":1671871048000,"globalid":null,"gisglobalid":"B6Q4ssP5-Bc5n-Ps65-Qd4R-BoK5Bnc5looa","remark":"","st_area(shape)":0.00001768103062279339,"st_perimeter(shape)":0.023157134285244588}},{"arcs":[[-39,41,42,43,-40,-36]],"type":"Polygon","properties":{"objectid":150704,"statename":"Karnataka","statecode":"29","districtname":"","districtcode":"567","ulbname":"Jagalur (Tp)","ulbcode":"803126","wardname":"Ward 16","wardcode":"16","id":null,"status":"APPROVED","misglobalid":null,"approved_by":null,"createdate":1644656077000,"updateddate":1671871089000,"globalid":null,"gisglobalid":"ldlRBnB4-mdmB-P6mQ-sBo4-BmmKmKKmQP5K","remark":"","st_area(shape)":0.000025911017200996385,"st_perimeter(shape)":0.028006984193852454}},{"arcs":[[-3,-11,-17,-41,-44,44,45]],"type":"Polygon","properties":{"objectid":154659,"statename":"Karnataka","statecode":"29","districtname":"","districtcode":"567","ulbname":"Jagalur (Tp)","ulbcode":"803126","wardname":"Ward 17","wardcode":"17","id":null,"status":"APPROVED","misglobalid":null,"approved_by":null,"createdate":1644656077000,"updateddate":1671871119000,"globalid":null,"gisglobalid":"nc4dQdKB-s6KK-PRco-aK6Q-ns464KmsoBB6","remark":"","st_area(shape)":0.00024806459123398597,"st_perimeter(shape)":0.1076029816208623}},{"arcs":[[-43,46,-45]],"type":"Polygon","properties":{"objectid":147464,"statename":"Karnataka","statecode":"29","districtname":"","districtcode":"567","ulbname":"Jagalur (Tp)","ulbcode":"803126","wardname":"Ward 18","wardcode":"18","id":null,"status":"APPROVED","misglobalid":null,"approved_by":null,"createdate":1644656077000,"updateddate":1671871141000,"globalid":null,"gisglobalid":"RsBma5na-aaoQ-PBan-s6Qn-4BoRm6PPBBQa","remark":"","st_area(shape)":0.00007655032611334968,"st_perimeter(shape)":0.046065867190087116}}]}}}