{"type":"Topology","arcs":[[[51693,91965],[147,0]],[[51840,91965],[6628,342],[4565,-1539],[3093,342],[3682,4103],[4713,-4957],[2651,-3932]],[[77172,86324],[-4271,-4957],[-4566,-2052]],[[68335,79315],[-6480,-3931],[-1767,-1710]],[[60088,73674],[-6480,8547]],[[53608,82221],[-148,342]],[[53460,82563],[148,513]],[[53608,83076],[0,513]],[[53608,83589],[442,342]],[[54050,83931],[589,0]],[[54639,83931],[294,342]],[[54933,84273],[295,1196]],[[55228,85469],[294,513]],[[55522,85982],[-147,684]],[[55375,86666],[147,684]],[[55522,87350],[295,512]],[[55817,87862],[147,513]],[[55964,88375],[-147,171]],[[55817,88546],[-737,171]],[[55080,88717],[-441,513]],[[54639,89230],[147,1196]],[[54786,90426],[0,513]],[[54786,90939],[-147,171]],[[54639,91110],[-737,0]],[[53902,91110],[-1472,513]],[[52430,91623],[-590,171]],[[51840,91794],[0,171]],[[77172,86324],[883,1026],[737,8888],[5596,-1367],[2651,-3590],[2504,-1196],[-1768,-5129],[-2798,-2051],[-1473,-4615],[3682,-513],[4418,684],[1620,-1710],[4860,-1709],[884,-1368]],[[98968,73674],[-16936,3761],[-295,-3931]],[[81737,73504],[-147,-684]],[[81590,72820],[-442,171]],[[81148,72991],[-442,342]],[[80706,73333],[-884,683]],[[79822,74016],[-1325,855]],[[78497,74871],[-1767,684]],[[76730,75555],[-1768,0]],[[74962,75555],[-1325,-1881]],[[73637,73674],[-3829,3077],[-1473,2564]],[[73637,73674],[1325,1881]],[[74962,75555],[1768,0]],[[76730,75555],[1767,-684]],[[78497,74871],[1325,-855]],[[79822,74016],[884,-683]],[[80706,73333],[442,-342]],[[81148,72991],[442,-171]],[[81590,72820],[147,684]],[[98968,73674],[1031,-3247],[-1325,-3419],[-2946,-1368],[-6333,1710],[-3240,0],[-4565,-5128]],[[81590,62222],[-2651,854],[-3387,-1880],[-7070,513]],[[68482,61709],[-2503,513]],[[65979,62222],[-2357,2393]],[[63622,64615],[-147,342]],[[63475,64957],[-3976,4786],[-2209,513]],[[57290,70256],[2798,3418]],[[65979,62222],[-4713,1025],[-6038,513]],[[55228,63760],[-295,171]],[[54933,63931],[147,2051]],[[55080,65982],[295,171]],[[55375,66153],[1473,684],[442,3419]],[[63475,64957],[147,-342]],[[48748,61367],[-148,171]],[[48600,61538],[-294,342]],[[48306,61880],[147,342]],[[48453,62222],[442,683]],[[48895,62905],[589,1026]],[[49484,63931],[295,342]],[[49779,64273],[147,342]],[[49926,64615],[147,342]],[[50073,64957],[295,341]],[[50368,65298],[147,-170]],[[50515,65128],[0,-855]],[[50515,64273],[-147,-171]],[[50368,64102],[147,-171]],[[50515,63931],[295,-513]],[[50810,63418],[147,-1025]],[[50957,62393],[147,-513]],[[51104,61880],[295,171]],[[51399,62051],[294,0]],[[51693,62051],[295,171]],[[51988,62222],[736,341]],[[52724,62563],[442,171]],[[53166,62734],[294,171]],[[53460,62905],[148,-171]],[[53608,62734],[294,0]],[[53902,62734],[295,-171]],[[54197,62563],[294,-170]],[[54491,62393],[737,-171]],[[55228,62222],[0,-5299]],[[55228,56923],[-2651,-3419]],[[52577,53504],[-1915,3248]],[[50662,56752],[-1914,4615]],[[55228,62222],[-737,171]],[[54491,62393],[-294,170]],[[53902,62734],[-294,0]],[[53608,62734],[-148,171]],[[53460,62905],[0,855]],[[53460,63760],[0,513]],[[53460,64273],[1031,-342]],[[54491,63931],[442,0]],[[54933,63931],[295,-171]],[[68482,61709],[2062,-4786],[-1031,-2223]],[[69513,54700],[-3240,-4786]],[[66273,49914],[-442,-1367]],[[65831,48547],[-589,-1710]],[[65242,46837],[-2503,-171]],[[62739,46666],[-1768,1368]],[[60971,48034],[-441,171]],[[60530,48205],[-295,342]],[[60235,48547],[-736,683]],[[59499,49230],[-4124,5128]],[[55375,54358],[-147,1710]],[[55228,56068],[0,342]],[[55228,56410],[0,513]],[[89543,40000],[0,-171]],[[89543,40000],[-4860,3418],[-884,2223],[-4713,-342],[-1620,3760],[-7953,5641]],[[81590,62222],[442,-4445],[1767,-2051],[3534,-1539],[3682,-2735],[1031,-3247],[-1914,-4274],[-589,-3931]],[[55228,56410],[0,-342]],[[55228,56068],[147,-1710]],[[55375,54358],[4124,-5128]],[[59499,49230],[736,-683]],[[60235,48547],[295,-342]],[[60971,48034],[1768,-1368]],[[65242,46837],[589,1710]],[[65831,48547],[442,1367]],[[89543,39829],[-737,-4445],[884,-3589]],[[89690,31795],[-4271,-6325],[-13991,3760],[-2946,3248]],[[68482,32478],[-2503,6667],[-2798,4615],[-9868,8718],[-736,1026]],[[61708,29060],[1620,-855],[3682,1880],[1472,2393]],[[89690,31795],[1914,-6325],[-589,-3761],[-2798,-4957],[-5007,-4957],[-148,-11795],[-5449,1026],[-6185,3931],[-5597,5128],[-4418,5299]],[[61413,15384],[1178,4616],[-147,5641]],[[62444,25641],[-736,3419]],[[42268,39658],[736,8034]],[[43004,47692],[-1915,2051]],[[41089,49743],[148,1709]],[[41237,51452],[442,0]],[[41679,51452],[294,0]],[[41973,51452],[442,-170]],[[42415,51282],[147,0]],[[42562,51282],[295,0]],[[42857,51282],[0,512]],[[42857,51794],[147,513]],[[43004,52307],[147,684]],[[43151,52991],[0,513]],[[43151,53504],[6333,-684],[1178,3932]],[[61708,29060],[-295,170]],[[61413,29230],[-4860,1539],[-2503,3077],[-3388,2393],[-7216,3419],[-1178,0]],[[43151,53504],[0,-513]],[[43151,52991],[-147,-684]],[[43004,52307],[-147,-513]],[[42857,51794],[0,-512]],[[42857,51282],[-295,0]],[[42415,51282],[-442,170]],[[41973,51452],[-294,0]],[[41237,51452],[-148,-1709]],[[43004,47692],[-736,-8034]],[[42268,39658],[-5155,-513]],[[37113,39145],[147,2051]],[[37260,41196],[589,2906]],[[37849,44102],[-1767,342]],[[36082,44444],[295,2051]],[[36377,46495],[294,855]],[[36671,47350],[147,855]],[[36818,48205],[295,854]],[[37113,49059],[0,342]],[[37113,49401],[147,342]],[[37260,49743],[148,684]],[[37408,50427],[147,342]],[[37555,50769],[147,854]],[[37702,51623],[147,855]],[[37849,52478],[148,342]],[[37997,52820],[0,342]],[[37997,53162],[294,342]],[[38291,53504],[147,342]],[[38438,53846],[442,341]],[[38880,54187],[589,513]],[[39469,54700],[590,513]],[[40059,55213],[589,342]],[[40648,55555],[736,684]],[[41384,56239],[2356,1880]],[[43740,58119],[442,342]],[[44182,58461],[442,684]],[[44624,59145],[147,171]],[[44771,59316],[148,512]],[[44919,59828],[147,342]],[[45066,60170],[147,171]],[[45213,60341],[589,342]],[[45802,60683],[1031,171]],[[46833,60854],[589,0]],[[47422,60854],[147,171]],[[47569,61025],[148,0]],[[47717,61025],[147,171]],[[47864,61196],[442,684]],[[48600,61538],[148,-171]],[[61413,29230],[1031,-3589]],[[61413,15384],[-4713,1710],[-883,2393],[-4713,2222],[-1915,5812],[-1030,342],[-7070,-2222],[-3976,684],[-7658,2735],[-4124,4615],[5449,171]],[[30780,33846],[442,0]],[[31222,33846],[0,684]],[[31222,34530],[1767,2222]],[[32989,36752],[1031,1538]],[[34020,38290],[737,171]],[[34757,38461],[1914,513]],[[36671,38974],[5597,684]],[[12518,40854],[148,171]],[[12666,41025],[294,171]],[[12960,41196],[147,171]],[[13107,41367],[2062,342]],[[15169,41709],[295,-171]],[[15464,41538],[736,-513]],[[16200,41025],[884,-2051]],[[17084,38974],[442,-684]],[[17526,38290],[4418,-2051]],[[21944,36239],[294,-171]],[[22238,36068],[1031,-171]],[[23269,35897],[1326,171]],[[24595,36068],[147,-171]],[[24742,35897],[5596,4103]],[[30338,40000],[737,512]],[[31075,40512],[3093,2223]],[[34168,42735],[1914,1709]],[[36082,44444],[1767,-342]],[[37849,44102],[-589,-2906]],[[37260,41196],[-147,-2051]],[[37113,39145],[-442,-171]],[[36671,38974],[-1914,-513]],[[34757,38461],[-737,-171]],[[34020,38290],[-1031,-1538]],[[31222,34530],[0,-684]],[[31222,33846],[-442,0]],[[30780,33846],[-6038,-171],[-1325,855],[-2210,-2052],[-3240,-4786],[-1914,-1367],[1031,-6154],[-6775,-1881],[3093,-4102],[-3093,-3761],[-3682,3077],[-2651,3761],[-883,4957],[-1473,4444],[-1620,7693],[12518,6495]],[[13696,57948],[4419,-684],[8100,1368],[6185,-1026],[-294,7692]],[[32106,65298],[2356,-170]],[[34462,65128],[0,-2735]],[[34462,62393],[-442,-3590]],[[34020,58803],[0,-684]],[[34020,58119],[-147,-684],[-147,-854],[-1031,-4274]],[[32695,52307],[-2504,-6154]],[[30191,46153],[0,-171]],[[30191,45982],[-1325,-3418]],[[28866,42564],[-1179,-2052]],[[27687,40512],[-1620,-3247]],[[26067,37265],[0,-342]],[[26067,36923],[-1325,-1026]],[[24742,35897],[-147,171]],[[24595,36068],[-1326,-171]],[[23269,35897],[-1031,171]],[[21944,36239],[-4418,2051]],[[17526,38290],[-442,684]],[[17084,38974],[-884,2051]],[[16200,41025],[-736,513]],[[15169,41709],[-2062,-342]],[[12960,41196],[-294,-171]],[[12518,40854],[-589,4274],[147,8205],[1620,4615]],[[13696,57948],[-883,3077],[-147,9573],[-1179,7350],[589,2222],[2946,-513],[5891,-2735],[2062,-2735],[3240,-1880],[2945,-3248]],[[29160,69059],[-147,-342]],[[29013,68717],[736,-342]],[[29749,68375],[737,-341]],[[30486,68034],[294,-171]],[[30780,67863],[1326,-513]],[[32106,67350],[0,-2052]],[[47864,61196],[-147,-171]],[[47569,61025],[-147,-171]],[[46833,60854],[-1031,-171]],[[45213,60341],[-147,-171]],[[44919,59828],[-148,-512]],[[44771,59316],[-147,-171]],[[44182,58461],[-442,-342]],[[43740,58119],[-2356,-1880]],[[41384,56239],[-736,-684]],[[40059,55213],[-590,-513]],[[39469,54700],[-589,-513]],[[38880,54187],[-442,-341]],[[38438,53846],[-147,-342]],[[37997,53162],[0,-342]],[[37997,52820],[-148,-342]],[[37702,51623],[-147,-854]],[[37555,50769],[-147,-342]],[[37260,49743],[-147,-342]],[[37113,49059],[-295,-854]],[[36818,48205],[-147,-855]],[[36671,47350],[-294,-855]],[[36377,46495],[-2209,-3760]],[[34168,42735],[-3093,-2223]],[[31075,40512],[-737,-512]],[[30338,40000],[-4271,-3077]],[[26067,37265],[1620,3247]],[[28866,42564],[1325,3418]],[[30191,46153],[2504,6154]],[[32695,52307],[1178,5299]],[[33873,57606],[589,-171],[589,-171],[295,-171]],[[35346,57093],[442,-170]],[[35788,56923],[2798,-684]],[[38586,56239],[0,-342]],[[38586,55897],[1473,684]],[[40059,56581],[2356,3760]],[[42415,60341],[-295,2393]],[[42120,62734],[148,1026]],[[42268,63760],[2061,-342]],[[44329,63418],[442,0]],[[44771,63418],[295,-171]],[[45066,63247],[442,-171]],[[45508,63076],[2798,-1196]],[[45508,63076],[-442,171]],[[45066,63247],[-295,171]],[[44329,63418],[-2061,342]],[[42120,62734],[295,-2393]],[[40059,56581],[-1473,-684]],[[38586,56239],[-2798,684]],[[35788,56923],[-442,170]],[[33873,57606],[147,513]],[[34020,58803],[442,3590]],[[34462,62393],[0,2735]],[[32106,67350],[442,0]],[[32548,67350],[589,0]],[[33137,67350],[1325,171]],[[34462,67521],[1326,0]],[[35788,67521],[1914,0]],[[37702,67521],[5597,683]],[[43299,68204],[2061,1026]],[[45360,69230],[1768,855]],[[47128,70085],[1325,171]],[[48453,70256],[589,171]],[[49042,70427],[589,0]],[[49631,70427],[1326,342]],[[50957,70769],[1767,-4445],[-2356,-1026]],[[50073,64957],[-147,-342]],[[49779,64273],[-295,-342]],[[49484,63931],[-589,-1026]],[[48895,62905],[-442,-683]],[[48453,62222],[-147,-342]],[[54933,63931],[-442,0]],[[54491,63931],[-1031,342]],[[53460,63760],[0,-855]],[[53166,62734],[-442,-171]],[[52724,62563],[-736,-341]],[[51693,62051],[-294,0]],[[51104,61880],[-147,513]],[[50810,63418],[-295,513]],[[50368,64102],[147,171]],[[50515,65128],[-147,170]],[[50957,70769],[3534,-171],[-441,-2394]],[[54050,68204],[-148,-341]],[[53902,67863],[-147,-1710]],[[53755,66153],[442,0]],[[54197,66153],[442,0]],[[54639,66153],[147,0]],[[54786,66153],[147,-171]],[[54933,65982],[147,0]],[[55375,66153],[-295,-171]],[[54933,65982],[-147,171]],[[54639,66153],[-442,0]],[[54197,66153],[-442,0]],[[53902,67863],[148,341]],[[50957,70769],[-1326,-342]],[[49631,70427],[-589,0]],[[49042,70427],[-589,-171]],[[48453,70256],[-1325,-171]],[[47128,70085],[-1768,-855]],[[45360,69230],[-2061,-1026]],[[43299,68204],[-5597,-683]],[[35788,67521],[-1326,0]],[[34462,67521],[-1325,-171]],[[33137,67350],[-589,0]],[[32548,67350],[-442,0]],[[32106,67350],[-1326,513]],[[30486,68034],[-737,341]],[[29749,68375],[-736,342]],[[29160,69059],[2946,10427]],[[32106,79486],[1472,-341]],[[33578,79145],[295,0]],[[33873,79145],[442,-513]],[[34315,78632],[589,-171]],[[34904,78461],[442,0]],[[35346,78461],[294,0]],[[35640,78461],[0,-513]],[[35640,77948],[0,-1539]],[[35640,76409],[0,171]],[[35640,76580],[295,342]],[[35935,76922],[147,0]],[[36082,76922],[295,0]],[[36377,76922],[294,0]],[[36671,76922],[295,-171]],[[36966,76751],[442,0]],[[37408,76751],[147,0]],[[37555,76751],[294,0]],[[37849,76751],[295,-171]],[[38144,76580],[0,-512]],[[38144,76068],[147,-171]],[[38291,75897],[1473,0]],[[39764,75897],[736,0]],[[40500,75897],[884,-171]],[[41384,75726],[0,854]],[[41384,76580],[147,1026]],[[41531,77606],[0,1026]],[[41531,78632],[0,342]],[[41531,78974],[295,-171]],[[41826,78803],[442,0]],[[42268,78803],[441,-171]],[[42709,78632],[148,0]],[[42857,78632],[0,1025]],[[42857,79657],[0,342]],[[42857,79999],[736,0]],[[43593,79999],[295,0]],[[43888,79999],[441,0]],[[44329,79999],[148,684]],[[44477,80683],[147,513]],[[44624,81196],[442,0]],[[45066,81196],[294,-171]],[[45360,81025],[295,0]],[[45655,81025],[442,-171]],[[46097,80854],[294,0]],[[46391,80854],[148,513]],[[46539,81367],[294,1709]],[[46833,83076],[884,-513]],[[47717,82563],[736,-513]],[[48453,82050],[442,-341]],[[48895,81709],[736,-513]],[[49631,81196],[1031,2393]],[[50662,83589],[295,513]],[[50957,84102],[442,-342]],[[51399,83760],[294,0]],[[51693,83760],[1767,-684]],[[53460,83076],[0,-513]],[[53460,82563],[148,-342]],[[36377,76922],[-295,0]],[[35935,76922],[-295,-513]],[[35640,76580],[0,1368]],[[35640,77948],[0,513]],[[35346,78461],[-442,0]],[[34904,78461],[-589,171]],[[33873,79145],[-295,0]],[[33578,79145],[-1472,341]],[[32106,79486],[736,6154],[4418,2906],[5449,5641],[4713,5812],[2062,0],[1326,-3248],[883,-4786]],[[51693,91965],[147,-171]],[[51840,91794],[590,-171]],[[52430,91623],[1472,-513]],[[53902,91110],[737,0]],[[54786,90939],[0,-513]],[[54786,90426],[-147,-1196]],[[55080,88717],[737,-171]],[[55817,88546],[147,-171]],[[55964,88375],[-147,-513]],[[55817,87862],[-295,-512]],[[55375,86666],[147,-684]],[[55522,85982],[-294,-513]],[[55228,85469],[-295,-1196]],[[54639,83931],[-589,0]],[[54050,83931],[-442,-342]],[[53608,83076],[-148,0]],[[53460,83076],[-1767,684]],[[51399,83760],[-442,342]],[[50662,83589],[-1031,-2393]],[[49631,81196],[-736,513]],[[48895,81709],[-442,341]],[[47717,82563],[-884,513]],[[46833,83076],[-294,-1709]],[[46539,81367],[-148,-513]],[[46391,80854],[-294,0]],[[46097,80854],[-442,171]],[[45655,81025],[-295,0]],[[45360,81025],[-294,171]],[[45066,81196],[-442,0]],[[44624,81196],[-147,-513]],[[44477,80683],[-148,-684]],[[44329,79999],[-441,0]],[[43888,79999],[-295,0]],[[43593,79999],[-736,0]],[[42857,79657],[0,-1025]],[[42709,78632],[-441,171]],[[41826,78803],[-295,171]],[[41531,78632],[0,-1026]],[[41531,77606],[-147,-1026]],[[41384,76580],[0,-854]],[[41384,75726],[-884,171]],[[39764,75897],[-1473,0]],[[38144,76068],[0,512]],[[38144,76580],[-295,171]],[[37849,76751],[-294,0]],[[37408,76751],[-442,0]],[[36966,76751],[-295,171]]],"transform":{"scale":[6.79006790067988e-7,5.850058500584873e-7],"translate":[82.0693,16.6051]},"objects":{"wards":{"type":"GeometryCollection","geometries":[{"arcs":[[0,1,2,3,4,5,6,7,8,9,10,11,12,13,14,15,16,17,18,19,20,21,22,23,24,25,26,-1]],"type":"Polygon","properties":{"objectid":51538,"statename":"Andhra Pradhesh","statecode":"28","districtname":"East Godavari","districtcode":"545","ulbname":"Mummidivaram","ulbcode":"900082","wardname":"Rajupalem, Kadalivari Peta, Nadimilanka","wardcode":"1","id":null,"status":"APPROVED","misglobalid":null,"approved_by":null,"createdate":1639739445000,"updateddate":1655112460000,"globalid":"aPBPnd6s-46Kd-P5ac-R5nR-QQac54nolslQ","gisglobalid":"76e4fa61-34ff-4ec9-8420-cb24ae078ad5","remark":"","st_area(shape)":0.0001157140633836892,"st_perimeter(shape)":0.050906664536975496}},{"arcs":[[27,28,29,30,31,32,33,34,35,36,37,-3]],"type":"Polygon","properties":{"objectid":51536,"statename":"Andhra Pradhesh","statecode":"28","districtname":"East Godavari","districtcode":"545","ulbname":"Mummidivaram","ulbcode":"900082","wardname":"Nadimilanka, Nakkavari Peta, Pallipalem","wardcode":"2","id":null,"status":"APPROVED","misglobalid":null,"approved_by":null,"createdate":1639739445000,"updateddate":1655112469000,"globalid":"5QRl6mcc-cR6K-Pcsc-snKK-6QBcRPmcP6cQ","gisglobalid":"23583101-0d95-4339-ba21-c42a20132697","remark":"","st_area(shape)":0.00009996636278999318,"st_perimeter(shape)":0.07059381066121213}},{"arcs":[[-4,-38,38,39,40,41,42,43,44,45,-29,46,47,48,49,50,51,52]],"type":"Polygon","properties":{"objectid":51537,"statename":"Andhra Pradhesh","statecode":"28","districtname":"East Godavari","districtcode":"545","ulbname":"Mummidivaram","ulbcode":"900082","wardname":"Pallipalem, Vangalapudivari Peta, Chintalameraka","wardcode":"3","id":null,"status":"APPROVED","misglobalid":null,"approved_by":null,"createdate":1639739445000,"updateddate":1655112478000,"globalid":"c5l6B46c-a4l6-PKdc-QPKK-d4oPaclaPdal","gisglobalid":"2951a707-53a5-4c4c-a03f-ae50c3355d18","remark":"","st_area(shape)":0.00017817539852590017,"st_perimeter(shape)":0.07251265489030695}},{"arcs":[[53,54,55,56,57,-52,58,-50]],"type":"Polygon","properties":{"objectid":51532,"statename":"Andhra Pradhesh","statecode":"28","districtname":"East Godavari","districtcode":"545","ulbname":"Mummidivaram","ulbcode":"900082","wardname":"Santha Market, High School Centre, Grandhivari Vee","wardcode":"4","id":null,"status":"APPROVED","misglobalid":null,"approved_by":null,"createdate":1639739445000,"updateddate":1655112486000,"globalid":"K5PmsBK4-P5dR-P4oB-RolB-664mQ5laon6P","gisglobalid":"5bce6e1e-54fc-4f85-aeb4-e14872247099","remark":"","st_area(shape)":0.000017141592125882408,"st_perimeter(shape)":0.020047856267621157}},{"arcs":[[59,60,61,62,63,64,65,66,67,68,69,70,71,72,73,74,75,76,77,78,79,80,81,82,83,84,85,86,87,88,89]],"type":"Polygon","properties":{"objectid":50396,"statename":"Andhra Pradhesh","statecode":"28","districtname":"East Godavari","districtcode":"545","ulbname":"Mummidivaram","ulbcode":"900082","wardname":"Gollala Veedhi, Police Quarters, Balayogi Kaluva G","wardcode":"5","id":null,"status":"APPROVED","misglobalid":null,"approved_by":null,"createdate":1639739445000,"updateddate":1655112498000,"globalid":"ldc5cnB6-l4PK-Pn54-R6s6-n5odPQlsB665","gisglobalid":"a1ff8b1e-65db-4c3d-a2cb-b86cd9d5c4bf","remark":"","st_area(shape)":0.000016803031620818504,"st_perimeter(shape)":0.019420601370236393}},{"arcs":[[90,91,-84,92,93,94,95,96,97,98,-54,-49,99,100,101,102,103,104,105,106,107,108,109,110,111,-87]],"type":"Polygon","properties":{"objectid":50395,"statename":"Andhra Pradhesh","statecode":"28","districtname":"East Godavari","districtcode":"545","ulbname":"Mummidivaram","ulbcode":"900082","wardname":"Kummarla Veedhi, Ganta Veedhi, Sivalayam Veedhi, P","wardcode":"6","id":null,"status":"APPROVED","misglobalid":null,"approved_by":null,"createdate":1639739445000,"updateddate":1655112506000,"globalid":"s5aRmQ6s-4Bmm-PQ6Q-QRso-aQRQaPooa4Rn","gisglobalid":"31d7a939-b04e-493c-a5cf-1102fae170ff","remark":"","st_area(shape)":0.00007468704344354699,"st_perimeter(shape)":0.03603852858660085}},{"arcs":[[112,-113,113,-100,-48,114]],"type":"Polygon","properties":{"objectid":51539,"statename":"Andhra Pradhesh","statecode":"28","districtname":"East Godavari","districtcode":"545","ulbname":"Mummidivaram","ulbcode":"900082","wardname":"Bandarupalem, Chappidivari Palem, Ambedkar Nagar,","wardcode":"7","id":null,"status":"APPROVED","misglobalid":null,"approved_by":null,"createdate":1639739445000,"updateddate":1655112514000,"globalid":"n6QBK6Kc-6nBP-Pd4K-alcP-anodmnsa55P4","gisglobalid":"30f2a518-93b6-4977-b5b9-ef59209e95d2","remark":"","st_area(shape)":0.00010139782931990555,"st_perimeter(shape)":0.05093004191449914}},{"arcs":[[-88,-112,115,116,117,118,119,-106,120,-104,121,122,-101,-114,112,123,124,125]],"type":"Polygon","properties":{"objectid":50390,"statename":"Andhra Pradhesh","statecode":"28","districtname":"East Godavari","districtcode":"545","ulbname":"Mummidivaram","ulbcode":"900082","wardname":"Agraharam, Nerellapalem, Balayogi Kaluva Road, Sur","wardcode":"8","id":null,"status":"APPROVED","misglobalid":null,"approved_by":null,"createdate":1639739445000,"updateddate":1655112527000,"globalid":"5PPQPols-BdlQ-P4oP-aRPa-alm4mlollQcm","gisglobalid":"71ed02a9-5312-44d9-86bf-20e89a76f30d","remark":"","st_area(shape)":0.00019518414629940103,"st_perimeter(shape)":0.07720975135962516}},{"arcs":[[126,-125,127,128,129]],"type":"Polygon","properties":{"objectid":52684,"statename":"Andhra Pradhesh","statecode":"28","districtname":"East Godavari","districtcode":"545","ulbname":"Mummidivaram","ulbcode":"900082","wardname":"Undurthivari Peta, Somidevarapalem, Patimeraka, Ko","wardcode":"9","id":null,"status":"APPROVED","misglobalid":null,"approved_by":null,"createdate":1639739445000,"updateddate":1655112537000,"globalid":"Kco6PanB-cQPl-Paao-ssRo-KocmmdRdKQ5d","gisglobalid":"de869df4-b5c4-4e46-843f-4a0e4cd6253d","remark":"","st_area(shape)":0.00023411180444403705,"st_perimeter(shape)":0.0726260609553044}},{"arcs":[[130,131,132,133,134,135,136,137,138,139,140,141,142,-89,-126,-127,143,144]],"type":"Polygon","properties":{"objectid":52324,"statename":"Andhra Pradhesh","statecode":"28","districtname":"East Godavari","districtcode":"545","ulbname":"Mummidivaram","ulbcode":"900082","wardname":"Yerakaya Cheruvu, Balayogi Kaluva Gattu, Ambedkar","wardcode":"10","id":null,"status":"APPROVED","misglobalid":null,"approved_by":null,"createdate":1639739445000,"updateddate":1655112545000,"globalid":"mRR4Q6RP-4Q4P-PPaQ-amdQ-dKKBnQ6KPlm4","gisglobalid":"e16c896d-19f8-44a7-983d-25d78b9ac1b1","remark":"","st_area(shape)":0.00015793564583065602,"st_perimeter(shape)":0.05763890788762949}},{"arcs":[[-90,-143,145,146,147,148,149,-137,150,151,-134,152,-132,153,154,155,156,157,158,159,160,161,162,163,164,165,166,167,168,169,170,171,172,173,174,175,176,177,178,179,180,181,182,183,184,185,186,187,188,189,190,-61,191]],"type":"Polygon","properties":{"objectid":51999,"statename":"Andhra Pradhesh","statecode":"28","districtname":"East Godavari","districtcode":"545","ulbname":"Mummidivaram","ulbcode":"900082","wardname":"Balayogi Kaluva Gattu, Sweepers Colony, Reddyvarip","wardcode":"11","id":null,"status":"APPROVED","misglobalid":null,"approved_by":null,"createdate":1639739445000,"updateddate":1655112558000,"globalid":"PaPmdKRc-mcnl-PRPn-a6o5-5BsaBaalQloB","gisglobalid":"3204f68e-9aa3-488a-a037-f1f967540baf","remark":"","st_area(shape)":0.000051242855525430536,"st_perimeter(shape)":0.043183865888625876}},{"arcs":[[192,-129,193,194,195,196,197,198,199,200,-145]],"type":"Polygon","properties":{"objectid":52680,"statename":"Andhra Pradhesh","statecode":"28","districtname":"East Godavari","districtcode":"545","ulbname":"Mummidivaram","ulbcode":"900082","wardname":"Somalamma Cheruvu Gattu (Somidevarapalem), Jangava","wardcode":"12","id":null,"status":"APPROVED","misglobalid":null,"approved_by":null,"createdate":1639739445000,"updateddate":1655112566000,"globalid":"Q6ldomco-54dK-P56R-saRc-6KQRBnoQln5d","gisglobalid":"5466e000-e9df-436b-99c6-2a30dad52dd9","remark":"","st_area(shape)":0.00015983521605144677,"st_perimeter(shape)":0.06758876267906092}},{"arcs":[[201,202,203,204,205,206,207,208,209,210,211,212,213,214,215,216,217,218,219,220,221,222,223,224,-197,225,226,227]],"type":"Polygon","properties":{"objectid":49967,"statename":"Andhra Pradhesh","statecode":"28","districtname":"East Godavari","districtcode":"545","ulbname":"Mummidivaram","ulbcode":"900082","wardname":"Mahipalacheruvu, Peyyalavaripeta, Kondepudivari Pe","wardcode":"13","id":null,"status":"APPROVED","misglobalid":null,"approved_by":null,"createdate":1639739445000,"updateddate":1655112576000,"globalid":"KBc5P5cP-sPQm-PPla-ancm-B6msRmBncQ5a","gisglobalid":"ca7ece1e-5636-4a8d-a1de-2e752ddd18d6","remark":"","st_area(shape)":0.00017971153636959199,"st_perimeter(shape)":0.08404414993980062}},{"arcs":[[228,229,230,231,232,233,234,235,236,237,238,239,240,241,242,243,-211,244,245,246,247,-206,248,-204,249,-202,250]],"type":"Polygon","properties":{"objectid":52686,"statename":"Andhra Pradhesh","statecode":"28","districtname":"East Godavari","districtcode":"545","ulbname":"Mummidivaram","ulbcode":"900082","wardname":"Chavudupeta, Chippalapalem, Krapachintalapudi","wardcode":"14","id":null,"status":"APPROVED","misglobalid":null,"approved_by":null,"createdate":1639739445000,"updateddate":1655112584000,"globalid":"cKmcnoB6-sP56-P6ln-alaB-aa45Pad6Q4m4","gisglobalid":"62e6a026-5e10-4f6d-8ca7-7a70bb45ac8e","remark":"","st_area(shape)":0.00015223635531311228,"st_perimeter(shape)":0.05999593267462774}},{"arcs":[[-229,251,252,253,254,255,256,257]],"type":"Polygon","properties":{"objectid":52687,"statename":"Andhra Pradhesh","statecode":"28","districtname":"East Godavari","districtcode":"545","ulbname":"Mummidivaram","ulbcode":"900082","wardname":"Krapachintalapudi, Rayuduvaripalem, Bhavanipeta, G","wardcode":"15","id":null,"status":"APPROVED","misglobalid":null,"approved_by":null,"createdate":1639739445000,"updateddate":1655112592000,"globalid":"co4PQl5P-46lc-Poas-aala-mdlmnoQPaPKK","gisglobalid":"44a78bef-f3f9-4265-99c9-e7f8cb7497e7","remark":"","st_area(shape)":0.00013062887529799032,"st_perimeter(shape)":0.04930849171317071}},{"arcs":[[-191,258,-189,259,-187,260,-185,261,-183,262,263,-180,264,265,266,-176,267,268,269,270,-171,271,272,-168,273,274,-165,275,-163,276,277,278,279,280,281,282,-240,283,-238,284,-236,285,286,287,288,289,290,291,292,293,294,295,296,297,298,299]],"type":"Polygon","properties":{"objectid":51132,"statename":"Andhra Pradhesh","statecode":"28","districtname":"East Godavari","districtcode":"545","ulbname":"Mummidivaram","ulbcode":"900082","wardname":"Moola Thoomu, Musinivaripalem, Ttr Nagar, Ramji Na","wardcode":"16","id":null,"status":"APPROVED","misglobalid":null,"approved_by":null,"createdate":1639739445000,"updateddate":1655112604000,"globalid":"oadRmQdQ-aBBB-PBom-Rmla-od64Pc665omK","gisglobalid":"6aef9f59-5f74-4fd8-b6c9-61a6049db5ec","remark":"","st_area(shape)":0.00004825406343265381,"st_perimeter(shape)":0.051939408266032196}},{"arcs":[[-300,300,301,-297,302,-295,303,-293,304,-291,305,306,-288,307,-233,308,309,-230,-258,310,311,312,313,314,315,316,317,318,319,320,321,322,-68,323,-66,324,325,326,327]],"type":"Polygon","properties":{"objectid":52685,"statename":"Andhra Pradhesh","statecode":"28","districtname":"East Godavari","districtcode":"545","ulbname":"Mummidivaram","ulbcode":"900082","wardname":"Bokkavaripalem, Telephone Exchange Road, Gowda Str","wardcode":"17","id":null,"status":"APPROVED","misglobalid":null,"approved_by":null,"createdate":1639739445000,"updateddate":1655112614000,"globalid":"lPB6n644-KRPP-Pdna-Qdnd-c6l5ooaB5nlo","gisglobalid":"918cba5c-b7bf-42b8-9e2d-c2b8db16af43","remark":"","st_area(shape)":0.00005877378367728834,"st_perimeter(shape)":0.04435119865079321}},{"arcs":[[-56,328,329,-96,330,-81,331,332,-78,333,-76,334,-74,335,-72,336,-70,337,-323,338,339,340,341,342,343,344,345]],"type":"Polygon","properties":{"objectid":51133,"statename":"Andhra Pradhesh","statecode":"28","districtname":"East Godavari","districtcode":"545","ulbname":"Mummidivaram","ulbcode":"900082","wardname":"Chakalipeta, Lankatallamma Temple, Sunkaravari Vee","wardcode":"18","id":null,"status":"APPROVED","misglobalid":null,"approved_by":null,"createdate":1639739445000,"updateddate":1655112622000,"globalid":"nol4Rsac-msPo-PdQc-saQa-QPBKBsm46lPa","gisglobalid":"4428943a-0540-4030-bb47-80bb207efbe2","remark":"","st_area(shape)":0.00000984406073249361,"st_perimeter(shape)":0.018705815514130163}},{"arcs":[[-58,346,-346,347,-344,348,349,-341,350,-339,351,352,353,354,355,356,357,-315,358,359,360,361,362,-256,363,364,-253,365,366,367,368,369,370,371,372,373,374,375,376,377,378,379,380,381,382,383,384,385,386,387,388,389,390,391,392,393,394,395,396,397,398,399,400,401,402,403,404,405,406,407,408,409,410,411,412,413,414,415,416,417,418,419,420,421,-5,-53]],"type":"Polygon","properties":{"objectid":50397,"statename":"Andhra Pradhesh","statecode":"28","districtname":"East Godavari","districtcode":"545","ulbname":"Mummidivaram","ulbcode":"900082","wardname":"Bus Stand Area, Pettavaripeta, Dommetivaripalem","wardcode":"19","id":null,"status":"APPROVED","misglobalid":null,"approved_by":null,"createdate":1639739445000,"updateddate":1655112631000,"globalid":"5nQQmddd-56KB-PPPm-QPP4-dP6alBoBP5nP","gisglobalid":"78a3e5da-d0b1-4410-bca2-ffbde5bbf6a9","remark":"","st_area(shape)":0.00012254368035359553,"st_perimeter(shape)":0.06373161245347789}},{"arcs":[[422,-377,423,374,424,425,-372,426,427,-369,428,429,430,431,432,433,434,-23,435,436,-20,437,438,439,440,-15,441,442,443,-11,444,445,-8,446,447,-419,448,-417,449,450,451,-413,452,453,454,455,456,457,458,459,460,461,462,463,464,-399,465,-397,466,-395,467,-393,468,469,470,471,-388,472,-386,473,474,475,-382,476,477,-379]],"type":"Polygon","properties":{"objectid":52323,"statename":"Andhra Pradhesh","statecode":"28","districtname":"East Godavari","districtcode":"545","ulbname":"Mummidivaram","ulbcode":"900082","wardname":"Mattadipalem, Kotha Colony","wardcode":"20","id":null,"status":"APPROVED","misglobalid":null,"approved_by":null,"createdate":1639739445000,"updateddate":1655112640000,"globalid":"PR5PoKsP-Q6na-Pm6c-Rl44-BP4doQ5QnKRR","gisglobalid":"60865294-e484-41c0-a92a-0508e28f8dac","remark":"","st_area(shape)":0.00011738749707830371,"st_perimeter(shape)":0.0549806058814603}}]}}}