{"type":"Topology","arcs":[[[46956,41176],[4348,-2941]],[[51304,38235],[-12174,-23529],[-13913,-5883],[-13043,9804],[-870,9804],[-11304,0],[0,15686],[18261,0],[12173,3922]],[[30434,48039],[16522,-6863]],[[57391,34313],[-6087,3922]],[[46956,41176],[6087,4902]],[[53043,46078],[1739,980]],[[54782,47058],[2609,-12745]],[[69565,38235],[869,0],[5217,-8824],[12174,-3921],[12174,-25490]],[[99999,0],[-11304,4902],[-21739,17647],[-9565,11764]],[[54782,47058],[14783,-8823]],[[64347,51960],[5218,-13725]],[[54782,47058],[870,6863]],[[55652,53921],[8695,-1961]],[[55652,53921],[-2609,13725],[-10435,11765]],[[42608,79411],[-6956,16666],[12174,3922],[11304,-27451],[11304,-13725],[-6087,-6863]],[[53043,46078],[-2609,7843],[-15652,15686],[0,5882]],[[34782,75489],[7826,3922]],[[30434,48039],[10435,5882],[-8695,16667],[2608,4901]]],"transform":{"scale":[1.150011500114808e-7,1.0200102001017555e-7],"translate":[77.4529,31.251199999999997]},"objects":{"wards":{"type":"GeometryCollection","geometries":[{"arcs":[[0,1,2]],"type":"Polygon","properties":{"objectid":280952,"statename":"Himachal Pradesh","statecode":"2","districtname":"Shimla","districtcode":"33","ulbname":"Narkanda","ulbcode":"800134","wardname":"Kalimitti(1)","wardcode":"1","id":null,"status":"APPROVED","misglobalid":null,"approved_by":null,"createdate":1657692559000,"updateddate":1657693605000,"globalid":null,"gisglobalid":"Kmncsm5Q-Bs6Q-PQQ4-Q44c-os645PKna54a","remark":"","st_area(shape)":0.000015812353622629677,"st_perimeter(shape)":0.018385846527717197}},{"arcs":[[3,-1,4,5,6]],"type":"Polygon","properties":{"objectid":281348,"statename":"Himachal Pradesh","statecode":"2","districtname":"Shimla","districtcode":"33","ulbname":"Narkanda","ulbcode":"800134","wardname":"Durga Mandir(2)","wardcode":"2","id":null,"status":"APPROVED","misglobalid":null,"approved_by":null,"createdate":1657692630000,"updateddate":1657693634000,"globalid":null,"gisglobalid":"4KKcBsBR-slRs-P54K-RPcm-Pss5slsP5cPQ","remark":"","st_area(shape)":0.0000010537875436018773,"st_perimeter(shape)":0.004312558687160313}},{"arcs":[[7,8,-7,9]],"type":"Polygon","properties":{"objectid":280953,"statename":"Himachal Pradesh","statecode":"2","districtname":"Shimla","districtcode":"33","ulbname":"Narkanda","ulbcode":"800134","wardname":"Circuit House (3)","wardcode":"3","id":null,"status":"APPROVED","misglobalid":null,"approved_by":null,"createdate":1657692692000,"updateddate":1657693674000,"globalid":null,"gisglobalid":"lso5ndPn-doPa-Padd-QKns-oKll56R6Kcms","remark":"","st_area(shape)":0.000008091758342574943,"st_perimeter(shape)":0.017911802784357563}},{"arcs":[[10,7,-8,-10,11,12]],"type":"Polygon","properties":{"objectid":280170,"statename":"Himachal Pradesh","statecode":"2","districtname":"Shimla","districtcode":"33","ulbname":"Narkanda","ulbcode":"800134","wardname":"Ridge Narkanda (4)","wardcode":"4","id":null,"status":"APPROVED","misglobalid":null,"approved_by":null,"createdate":1657692752000,"updateddate":1657693697000,"globalid":null,"gisglobalid":"oBncRB4l-nla6-PK4n-QRn4-slBs4m5Raao6","remark":"","st_area(shape)":0.0000013223184590276429,"st_perimeter(shape)":0.005975074415179362}},{"arcs":[[-13,13,14]],"type":"Polygon","properties":{"objectid":281349,"statename":"Himachal Pradesh","statecode":"2","districtname":"Shimla","districtcode":"33","ulbname":"Narkanda","ulbcode":"800134","wardname":"Puranabazaar (5)","wardcode":"5","id":null,"status":"APPROVED","misglobalid":null,"approved_by":null,"createdate":1657692842000,"updateddate":1657693763000,"globalid":null,"gisglobalid":"QcBPKa4d-QsQP-Pmoc-RoPB-c5mKmmlmB6R5","remark":"","st_area(shape)":0.000006511815190863537,"st_perimeter(shape)":0.01526966013354138}},{"arcs":[[-6,15,16,-14,-12]],"type":"Polygon","properties":{"objectid":281350,"statename":"Himachal Pradesh","statecode":"2","districtname":"Shimla","districtcode":"33","ulbname":"Narkanda","ulbcode":"800134","wardname":"Lal Kothi (6)","wardcode":"6","id":null,"status":"APPROVED","misglobalid":null,"approved_by":null,"createdate":1657692914000,"updateddate":1657693784000,"globalid":null,"gisglobalid":"6l6Bonss-sQnK-PnsP-snBP-d4s5oanmm4so","remark":"","st_area(shape)":0.000002953188235437197,"st_perimeter(shape)":0.009188795252123341}},{"arcs":[[-3,17,-16,-5]],"type":"Polygon","properties":{"objectid":281351,"statename":"Himachal Pradesh","statecode":"2","districtname":"Shimla","districtcode":"33","ulbname":"Narkanda","ulbcode":"800134","wardname":"Mela Maidan (7)","wardcode":"7","id":null,"status":"APPROVED","misglobalid":null,"approved_by":null,"createdate":1657692973000,"updateddate":1657693814000,"globalid":null,"gisglobalid":"6s4Qn56d-Ka5n-PdQa-amsl-snco55PPQBlm","remark":"","st_area(shape)":0.0000035764435933931463,"st_perimeter(shape)":0.010686071114017452}}]}}}