{"type": "FeatureCollection", "features": [{"type": "Feature", "geometry": {"type": "Polygon", "coordinates": [[[79.8816, 25.2911], [79.8821, 25.2911], [79.8826, 25.2911], [79.8829, 25.2911], [79.8836, 25.291], [79.8851, 25.291], [79.888, 25.2909], [79.8882, 25.2908], [79.8877, 25.29], [79.8876, 25.2897], [79.8876, 25.2896], [79.8866, 25.2897], [79.8864, 25.2897], [79.886, 25.2897], [79.8857, 25.2897], [79.8852, 25.2897], [79.8849, 25.2897], [79.8843, 25.2897], [79.884, 25.2896], [79.8835, 25.2895], [79.8831, 25.2894], [79.8826, 25.2892], [79.8825, 25.2892], [79.8819, 25.289], [79.8815, 25.289], [79.8813, 25.2889], [79.8808, 25.2888], [79.8806, 25.2887], [79.8803, 25.2886], [79.8801, 25.2885], [79.8797, 25.2883], [79.8793, 25.2881], [79.8786, 25.2879], [79.8785, 25.2882], [79.8784, 25.2885], [79.8783, 25.2888], [79.8782, 25.289], [79.8783, 25.2892], [79.8783, 25.2895], [79.8783, 25.2898], [79.8783, 25.29], [79.8783, 25.2904], [79.8786, 25.2909], [79.8788, 25.2912], [79.8816, 25.2911]]]}, "properties": {"objectid": 130119, "statename": "", "statecode": "9", "districtname": "Mahoba", "districtcode": "169", "ulbname": "Mahoba(Npp)", "ulbcode": "801048", "wardname": "Nayapura Naikana", "wardcode": "1", "id": null, "status": "APPROVED", "misglobalid": null, "approved_by": null, "createdate": 1643871632000, "updateddate": 1643871751000, "globalid": null, "gisglobalid": "mR4smca4-a4d5-PQ5K-Qlao-6ll6KPsBKmBQ", "remark": "", "st_area(shape)": 1.8009813790258952e-05, "st_perimeter(shape)": 0.023558912682113405}}, {"type": "Feature", "geometry": {"type": "Polygon", "coordinates": [[[79.8635, 25.3055], [79.8635, 25.3054], [79.8633, 25.3058], [79.8625, 25.3058], [79.8614, 25.306], [79.8583, 25.3063], [79.8582, 25.3063], [79.8536, 25.3066], [79.8526, 25.3074], [79.8521, 25.3083], [79.8491, 25.3086], [79.847, 25.3099], [79.8422, 25.3133], [79.8373, 25.3167], [79.8551, 25.3143], [79.8657, 25.3129], [79.8654, 25.3114], [79.8651, 25.31], [79.8648, 25.3087], [79.8645, 25.3077], [79.8642, 25.3066], [79.8639, 25.3059], [79.8636, 25.3058], [79.8635, 25.3055]]]}, "properties": {"objectid": 125302, "statename": "", "statecode": "9", "districtname": "Mahoba", "districtcode": "169", "ulbname": "Mahoba", "ulbcode": "801048", "wardname": "Fatehpur Bajariya", "wardcode": "2", "id": null, "status": "APPROVED", "misglobalid": null, "approved_by": null, "createdate": 1643784242000, "updateddate": 1643868364000, "globalid": null, "gisglobalid": "QonKn6cd-6nn5-Pnna-a5lQ-66oaRd66QKcR", "remark": "", "st_area(shape)": 0.00015537455475897626, "st_perimeter(shape)": 0.0663966473542437}}, {"type": "Feature", "geometry": {"type": "Polygon", "coordinates": [[[79.8728, 25.2863], [79.8715, 25.2868], [79.8703, 25.2873], [79.87, 25.2874], [79.8693, 25.2879], [79.8693, 25.288], [79.8693, 25.2882], [79.8693, 25.2883], [79.8693, 25.2884], [79.8693, 25.2885], [79.8693, 25.2886], [79.8694, 25.2887], [79.8696, 25.2887], [79.8699, 25.2886], [79.8704, 25.2886], [79.8708, 25.2885], [79.8711, 25.2885], [79.8712, 25.2885], [79.8714, 25.2885], [79.8715, 25.2885], [79.8716, 25.2885], [79.8718, 25.2884], [79.8723, 25.2884], [79.873, 25.2884], [79.8733, 25.2884], [79.8735, 25.2884], [79.8736, 25.2884], [79.8737, 25.2884], [79.8738, 25.2883], [79.8737, 25.2882], [79.8737, 25.2879], [79.8737, 25.2877], [79.8736, 25.2874], [79.8736, 25.2872], [79.8735, 25.2871], [79.8734, 25.287], [79.8733, 25.2868], [79.8731, 25.2866], [79.8728, 25.2863]]]}, "properties": {"objectid": 131309, "statename": "", "statecode": "9", "districtname": "Mahoba", "districtcode": "169", "ulbname": "Mahoba(Npp)", "ulbcode": "801048", "wardname": "Bhitar Code", "wardcode": "3", "id": null, "status": "APPROVED", "misglobalid": null, "approved_by": null, "createdate": 1643871346000, "updateddate": 1643872026000, "globalid": null, "gisglobalid": "KmdBacnR-n6PQ-PcmR-RoRn-4sKsmlo6KRl4", "remark": "", "st_area(shape)": 6.7099030079787156e-06, "st_perimeter(shape)": 0.011608400306817823}}, {"type": "Feature", "geometry": {"type": "Polygon", "coordinates": [[[79.9007, 25.2888], [79.8993, 25.2855], [79.8929, 25.2702], [79.8833, 25.2844], [79.8836, 25.2847], [79.8846, 25.2854], [79.8855, 25.2861], [79.8862, 25.2867], [79.887, 25.2876], [79.8876, 25.2889], [79.8876, 25.2897], [79.8877, 25.29], [79.8882, 25.2908], [79.8886, 25.2913], [79.889, 25.2914], [79.8906, 25.2917], [79.8908, 25.2917], [79.8915, 25.2919], [79.8922, 25.2916], [79.8925, 25.2912], [79.8926, 25.291], [79.8939, 25.2906], [79.895, 25.2905], [79.8954, 25.2905], [79.8961, 25.2904], [79.8967, 25.2902], [79.8982, 25.2898], [79.8991, 25.2895], [79.8996, 25.2893], [79.9005, 25.2889], [79.9007, 25.2888]]]}, "properties": {"objectid": 125792, "statename": "", "statecode": "9", "districtname": "Mahoba", "districtcode": "169", "ulbname": "Mahoba(Npp)", "ulbcode": "801048", "wardname": "Shubhash Nagar", "wardcode": "4", "id": null, "status": "APPROVED", "misglobalid": null, "approved_by": null, "createdate": 1643870601000, "updateddate": 1643870649000, "globalid": null, "gisglobalid": "co5dQRcl-amKP-Pmdc-QKls-Baod4KoKlQnK", "remark": "", "st_area(shape)": 0.0001954653696583571, "st_perimeter(shape)": 0.05930538815770083}}, {"type": "Feature", "geometry": {"type": "Polygon", "coordinates": [[[79.8604, 25.2919], [79.861, 25.2918], [79.8615, 25.2918], [79.8616, 25.2919], [79.8621, 25.2918], [79.8624, 25.2918], [79.8629, 25.2918], [79.8632, 25.2918], [79.8632, 25.2917], [79.8633, 25.2912], [79.8633, 25.291], [79.8635, 25.2904], [79.8638, 25.2901], [79.8637, 25.2899], [79.8637, 25.2896], [79.8637, 25.2894], [79.8636, 25.2892], [79.8636, 25.2889], [79.8635, 25.2888], [79.8634, 25.2886], [79.8633, 25.2885], [79.8637, 25.2881], [79.864, 25.288], [79.8642, 25.2878], [79.8643, 25.2878], [79.8646, 25.288], [79.8652, 25.288], [79.8655, 25.2879], [79.866, 25.2881], [79.8665, 25.2881], [79.8672, 25.288], [79.8675, 25.2878], [79.8675, 25.2876], [79.8677, 25.2875], [79.868, 25.2874], [79.8682, 25.2875], [79.8687, 25.2876], [79.869, 25.2875], [79.8691, 25.2876], [79.8693, 25.2879], [79.87, 25.2874], [79.8703, 25.2873], [79.8715, 25.2868], [79.8728, 25.2863], [79.873, 25.2861], [79.8734, 25.2853], [79.873, 25.2844], [79.8723, 25.2833], [79.8705, 25.282], [79.8689, 25.2802], [79.8685, 25.2791], [79.8681, 25.2786], [79.8678, 25.2781], [79.8669, 25.2776], [79.8659, 25.2776], [79.8653, 25.278], [79.8652, 25.2777], [79.8651, 25.2774], [79.865, 25.2771], [79.8649, 25.277], [79.8649, 25.2769], [79.8648, 25.2767], [79.8648, 25.2766], [79.8647, 25.2765], [79.8647, 25.2763], [79.8646, 25.2762], [79.8646, 25.2761], [79.8644, 25.2757], [79.8642, 25.2753], [79.8642, 25.2751], [79.8641, 25.2746], [79.864, 25.2744], [79.8638, 25.2732], [79.8635, 25.272], [79.8634, 25.2717], [79.863, 25.2712], [79.8627, 25.2709], [79.8625, 25.2707], [79.8623, 25.2704], [79.8621, 25.2701], [79.8619, 25.2697], [79.8618, 25.2696], [79.8617, 25.2695], [79.8614, 25.2693], [79.8613, 25.2692], [79.8598, 25.2682], [79.8626, 25.2652], [79.8613, 25.2641], [79.8488, 25.2783], [79.8489, 25.2783], [79.8491, 25.2784], [79.8492, 25.2785], [79.8494, 25.2786], [79.8498, 25.2788], [79.8499, 25.2789], [79.85, 25.2789], [79.8501, 25.279], [79.8502, 25.279], [79.8507, 25.2791], [79.8512, 25.2793], [79.8517, 25.2796], [79.8522, 25.28], [79.8525, 25.2802], [79.8528, 25.2803], [79.8534, 25.2808], [79.8539, 25.2811], [79.8541, 25.2812], [79.8546, 25.2841], [79.8547, 25.2845], [79.8541, 25.2877], [79.8545, 25.2877], [79.8549, 25.2877], [79.8555, 25.2878], [79.8561, 25.2879], [79.8565, 25.288], [79.857, 25.2883], [79.8575, 25.2883], [79.858, 25.2883], [79.8583, 25.2883], [79.8586, 25.2884], [79.859, 25.2887], [79.8592, 25.2887], [79.8594, 25.2888], [79.8596, 25.289], [79.8598, 25.2892], [79.8599, 25.2893], [79.86, 25.2895], [79.8599, 25.2897], [79.8601, 25.29], [79.8601, 25.2902], [79.8601, 25.2903], [79.8601, 25.2905], [79.8602, 25.2906], [79.8603, 25.2907], [79.8603, 25.2909], [79.8603, 25.2911], [79.8603, 25.2916], [79.8604, 25.2917], [79.8604, 25.2919]]]}, "properties": {"objectid": 127796, "statename": "", "statecode": "9", "districtname": "Mahoba", "districtcode": "169", "ulbname": "Mahoba(Npp)", "ulbcode": "801048", "wardname": "Bandhan", "wardcode": "5", "id": null, "status": "APPROVED", "misglobalid": null, "approved_by": null, "createdate": 1643874637000, "updateddate": 1643874685000, "globalid": null, "gisglobalid": "dlQQ66Pl-Qm5a-PodK-sQmo-asQQlKRcal6l", "remark": "", "st_area(shape)": 0.000293698192817738, "st_perimeter(shape)": 0.08835435292830725}}, {"type": "Feature", "geometry": {"type": "Polygon", "coordinates": [[[79.9007, 25.2888], [79.9005, 25.2889], [79.8996, 25.2893], [79.8991, 25.2895], [79.8982, 25.2898], [79.8967, 25.2902], [79.8961, 25.2904], [79.8954, 25.2905], [79.895, 25.2905], [79.8939, 25.2906], [79.8926, 25.291], [79.8925, 25.2912], [79.8922, 25.2916], [79.8915, 25.2919], [79.8908, 25.2917], [79.8906, 25.2917], [79.8886, 25.2913], [79.8895, 25.2921], [79.8902, 25.2929], [79.8905, 25.2937], [79.8911, 25.2945], [79.8924, 25.2963], [79.894, 25.2985], [79.8923, 25.2977], [79.8905, 25.2967], [79.8896, 25.2958], [79.889, 25.2953], [79.8881, 25.2951], [79.8877, 25.2954], [79.8873, 25.296], [79.8869, 25.2967], [79.8865, 25.297], [79.8859, 25.2972], [79.8854, 25.2975], [79.8847, 25.2979], [79.8841, 25.2983], [79.8845, 25.2988], [79.8854, 25.3009], [79.8855, 25.3011], [79.886, 25.3019], [79.8872, 25.3034], [79.8894, 25.3097], [79.8938, 25.3091], [79.8966, 25.309], [79.9238, 25.3081], [79.9233, 25.297], [79.9223, 25.2968], [79.9209, 25.2958], [79.9206, 25.2949], [79.9203, 25.2946], [79.9197, 25.2947], [79.9193, 25.2941], [79.9188, 25.2934], [79.9186, 25.2925], [79.918, 25.2912], [79.9164, 25.2903], [79.9144, 25.2904], [79.9128, 25.2906], [79.9112, 25.2909], [79.9087, 25.2897], [79.9076, 25.2892], [79.9036, 25.2881], [79.9007, 25.2888]]]}, "properties": {"objectid": 127798, "statename": "", "statecode": "9", "districtname": "Mahoba", "districtcode": "169", "ulbname": "Mahoba(Npp)", "ulbcode": "801048", "wardname": "Bajrang Nagar", "wardcode": "6", "id": null, "status": "APPROVED", "misglobalid": null, "approved_by": null, "createdate": 1643870966000, "updateddate": 1643871087000, "globalid": null, "gisglobalid": "Pn5BB5dn-54Bm-PlBa-ssmB-asQQnlQRsnan", "remark": "", "st_area(shape)": 0.0006370293055040364, "st_perimeter(shape)": 0.1192081457486232}}, {"type": "Feature", "geometry": {"type": "Polygon", "coordinates": [[[79.8929, 25.2702], [79.8613, 25.2641], [79.8626, 25.2652], [79.8728, 25.2732], [79.8738, 25.2742], [79.8752, 25.2758], [79.8769, 25.2777], [79.8782, 25.2791], [79.8811, 25.2821], [79.8833, 25.2844], [79.8929, 25.2702]]]}, "properties": {"objectid": 130117, "statename": "", "statecode": "9", "districtname": "Mahoba", "districtcode": "169", "ulbname": "Mahoba(Npp)", "ulbcode": "801048", "wardname": "Bhati Pura", "wardcode": "7", "id": null, "status": "APPROVED", "misglobalid": null, "approved_by": null, "createdate": 1643871331000, "updateddate": 1643872041000, "globalid": null, "gisglobalid": "6olQ66lc-RK6P-PadP-Q55o-aK4maoQ6Pasl", "remark": "", "st_area(shape)": 0.00023927498664321254, "st_perimeter(shape)": 0.07938275225948555}}, {"type": "Feature", "geometry": {"type": "Polygon", "coordinates": [[[79.864, 25.2918], [79.8642, 25.2918], [79.8643, 25.2917], [79.8645, 25.2917], [79.8647, 25.2917], [79.8649, 25.2916], [79.8651, 25.2916], [79.8658, 25.2915], [79.8662, 25.2915], [79.8666, 25.2914], [79.8669, 25.2914], [79.8668, 25.2912], [79.8668, 25.2911], [79.8668, 25.2909], [79.8668, 25.2908], [79.8667, 25.2907], [79.8666, 25.2907], [79.8664, 25.2907], [79.8663, 25.2907], [79.8662, 25.2908], [79.8661, 25.2908], [79.8661, 25.2907], [79.8661, 25.2906], [79.8661, 25.2905], [79.8661, 25.2904], [79.8661, 25.2903], [79.8661, 25.2901], [79.866, 25.29], [79.8659, 25.2901], [79.8658, 25.2901], [79.8657, 25.2901], [79.8656, 25.2901], [79.8656, 25.29], [79.8656, 25.2899], [79.8656, 25.2898], [79.8656, 25.2897], [79.8655, 25.2897], [79.8655, 25.2896], [79.8655, 25.2895], [79.8655, 25.2893], [79.8655, 25.2892], [79.8655, 25.289], [79.8656, 25.2889], [79.8655, 25.2879], [79.8652, 25.288], [79.8646, 25.288], [79.8643, 25.2878], [79.8642, 25.2878], [79.864, 25.288], [79.8637, 25.2881], [79.8633, 25.2885], [79.8634, 25.2886], [79.8635, 25.2888], [79.8636, 25.2889], [79.8636, 25.2892], [79.8637, 25.2894], [79.8637, 25.2896], [79.8637, 25.2899], [79.8638, 25.29], [79.8638, 25.2901], [79.8635, 25.2904], [79.8633, 25.291], [79.8633, 25.2912], [79.8632, 25.2917], [79.8632, 25.2918], [79.8634, 25.2918], [79.8636, 25.2919], [79.8637, 25.2919], [79.8638, 25.2919], [79.864, 25.2918]]]}, "properties": {"objectid": 129362, "statename": "", "statecode": "9", "districtname": "Mahoba", "districtcode": "169", "ulbname": "Mahoba(Npp)", "ulbcode": "801048", "wardname": "Rai Kot", "wardcode": "8", "id": null, "status": "APPROVED", "misglobalid": null, "approved_by": null, "createdate": 1643870557000, "updateddate": 1643870700000, "globalid": null, "gisglobalid": "dnanRs4m-d5RB-PQnd-sldR-PmoBaP4dam4B", "remark": "", "st_area(shape)": 8.96360335155085e-06, "st_perimeter(shape)": 0.01469238639579622}}, {"type": "Feature", "geometry": {"type": "Polygon", "coordinates": [[[79.8351, 25.2938], [79.8373, 25.3167], [79.8422, 25.3133], [79.847, 25.3099], [79.8491, 25.3086], [79.8521, 25.3083], [79.8526, 25.3074], [79.8536, 25.3066], [79.8582, 25.3063], [79.8614, 25.306], [79.8625, 25.3058], [79.8633, 25.3058], [79.8635, 25.3052], [79.8631, 25.304], [79.8632, 25.3032], [79.863, 25.3025], [79.8628, 25.3022], [79.8627, 25.3018], [79.8625, 25.3013], [79.8628, 25.3003], [79.8628, 25.2999], [79.8623, 25.2996], [79.8615, 25.2994], [79.8604, 25.2994], [79.8598, 25.2993], [79.8593, 25.299], [79.8588, 25.2986], [79.8584, 25.2983], [79.8579, 25.2983], [79.858, 25.2988], [79.8582, 25.2992], [79.8585, 25.2996], [79.8587, 25.2998], [79.8585, 25.3], [79.8579, 25.3004], [79.8574, 25.3007], [79.857, 25.3009], [79.8565, 25.3011], [79.8559, 25.3006], [79.8555, 25.3001], [79.8554, 25.2997], [79.8553, 25.2993], [79.8551, 25.299], [79.855, 25.2986], [79.8545, 25.2984], [79.8545, 25.2981], [79.8545, 25.298], [79.8545, 25.2977], [79.8546, 25.2974], [79.8547, 25.2971], [79.8549, 25.297], [79.8555, 25.2965], [79.8563, 25.2962], [79.857, 25.2958], [79.8578, 25.2954], [79.8582, 25.2951], [79.8583, 25.295], [79.8583, 25.2947], [79.8587, 25.2943], [79.8596, 25.2939], [79.86, 25.2937], [79.8603, 25.2935], [79.8604, 25.2934], [79.8604, 25.2931], [79.8604, 25.2927], [79.8604, 25.292], [79.8604, 25.2919], [79.8581, 25.292], [79.8563, 25.2922], [79.8547, 25.2924], [79.8518, 25.2927], [79.8497, 25.293], [79.8471, 25.2931], [79.8447, 25.2933], [79.8415, 25.2934], [79.8391, 25.2936], [79.8351, 25.2938]]]}, "properties": {"objectid": 127806, "statename": "", "statecode": "9", "districtname": "Mahoba", "districtcode": "169", "ulbname": "Mahoba", "ulbcode": "801048", "wardname": "Alampura", "wardcode": "9", "id": null, "status": "APPROVED", "misglobalid": null, "approved_by": null, "createdate": 1643872791000, "updateddate": 1643874111000, "globalid": null, "gisglobalid": "sls6Kd4d-6BoR-PsPs-scnn-4aocBsPoPQP6", "remark": "", "st_area(shape)": 0.00040794982569286646, "st_perimeter(shape)": 0.10667997591975419}}, {"type": "Feature", "geometry": {"type": "Polygon", "coordinates": [[[79.8699, 25.2914], [79.8699, 25.2913], [79.87, 25.291], [79.87, 25.2909], [79.87, 25.2908], [79.8701, 25.2905], [79.8701, 25.2901], [79.8702, 25.2898], [79.8703, 25.2898], [79.8704, 25.2897], [79.8706, 25.2897], [79.8708, 25.2897], [79.8709, 25.2897], [79.871, 25.2897], [79.8711, 25.2897], [79.8711, 25.2893], [79.8711, 25.2891], [79.8711, 25.2888], [79.8711, 25.2885], [79.8708, 25.2885], [79.8704, 25.2886], [79.8699, 25.2886], [79.8696, 25.2887], [79.8694, 25.2887], [79.8693, 25.2887], [79.8693, 25.2889], [79.8694, 25.2891], [79.8694, 25.2894], [79.8694, 25.2896], [79.8694, 25.2897], [79.8694, 25.2898], [79.8693, 25.2902], [79.8693, 25.2903], [79.8693, 25.2906], [79.8694, 25.2908], [79.8693, 25.2911], [79.8693, 25.2912], [79.8693, 25.2915], [79.8699, 25.2914]]]}, "properties": {"objectid": 129788, "statename": "", "statecode": "9", "districtname": "Mahoba", "districtcode": "169", "ulbname": "Mahoba(Npp)", "ulbcode": "801048", "wardname": "Mathuran Pura", "wardcode": "10", "id": null, "status": "APPROVED", "misglobalid": null, "approved_by": null, "createdate": 1643874279000, "updateddate": 1643874610000, "globalid": null, "gisglobalid": "BBPKsRds-KBPn-PmBm-a5BQ-5RmKdBKoPaQK", "remark": "", "st_area(shape)": 3.2243120326759846e-06, "st_perimeter(shape)": 0.009050420183442738}}, {"type": "Feature", "geometry": {"type": "Polygon", "coordinates": [[[79.857, 25.3009], [79.8574, 25.3007], [79.8579, 25.3004], [79.8585, 25.3], [79.8587, 25.2998], [79.8585, 25.2996], [79.8582, 25.2992], [79.858, 25.2988], [79.8579, 25.2983], [79.8584, 25.2983], [79.8588, 25.2986], [79.8593, 25.299], [79.8598, 25.2993], [79.8604, 25.2994], [79.8615, 25.2994], [79.8623, 25.2996], [79.8628, 25.2999], [79.8628, 25.3003], [79.8632, 25.2998], [79.8639, 25.2985], [79.8639, 25.2983], [79.8639, 25.2981], [79.8639, 25.2977], [79.864, 25.2974], [79.864, 25.2968], [79.8638, 25.2968], [79.8637, 25.2964], [79.8637, 25.2962], [79.8636, 25.296], [79.8635, 25.2955], [79.8634, 25.2952], [79.8633, 25.2948], [79.8633, 25.2945], [79.8631, 25.2941], [79.8632, 25.2938], [79.8638, 25.2936], [79.8643, 25.2934], [79.8649, 25.2933], [79.8651, 25.2932], [79.8664, 25.2929], [79.8663, 25.2928], [79.8663, 25.2925], [79.8663, 25.2922], [79.8662, 25.2915], [79.8658, 25.2915], [79.8651, 25.2916], [79.8649, 25.2916], [79.8647, 25.2917], [79.8645, 25.2917], [79.8643, 25.2917], [79.8642, 25.2918], [79.864, 25.2918], [79.8638, 25.2919], [79.8637, 25.2919], [79.8636, 25.2919], [79.8634, 25.2918], [79.8632, 25.2918], [79.8629, 25.2918], [79.8624, 25.2918], [79.8621, 25.2918], [79.8616, 25.2919], [79.8615, 25.2918], [79.861, 25.2918], [79.8604, 25.2919], [79.8604, 25.2917], [79.8603, 25.2916], [79.8603, 25.2911], [79.8603, 25.2909], [79.8603, 25.2907], [79.8602, 25.2906], [79.8601, 25.2905], [79.8601, 25.2903], [79.8601, 25.2902], [79.8601, 25.29], [79.8599, 25.2897], [79.86, 25.2895], [79.8599, 25.2893], [79.8598, 25.2892], [79.8596, 25.289], [79.8594, 25.2888], [79.8592, 25.2887], [79.859, 25.2887], [79.8586, 25.2884], [79.8583, 25.2883], [79.858, 25.2883], [79.8575, 25.2883], [79.857, 25.2883], [79.8565, 25.288], [79.8561, 25.2879], [79.8555, 25.2878], [79.8549, 25.2877], [79.8545, 25.2877], [79.8541, 25.2877], [79.8547, 25.2845], [79.8546, 25.2841], [79.8541, 25.2812], [79.8539, 25.2811], [79.8534, 25.2808], [79.8528, 25.2803], [79.8525, 25.2802], [79.8522, 25.28], [79.8517, 25.2796], [79.8512, 25.2793], [79.8507, 25.2791], [79.8502, 25.279], [79.8501, 25.279], [79.85, 25.2789], [79.8499, 25.2789], [79.8498, 25.2788], [79.8494, 25.2786], [79.8492, 25.2785], [79.8491, 25.2784], [79.8489, 25.2783], [79.8488, 25.2783], [79.8351, 25.2938], [79.8391, 25.2936], [79.8415, 25.2934], [79.8447, 25.2933], [79.8471, 25.2931], [79.8497, 25.293], [79.8518, 25.2927], [79.8547, 25.2924], [79.8563, 25.2922], [79.8581, 25.292], [79.8604, 25.2919], [79.8604, 25.292], [79.8604, 25.2927], [79.8604, 25.2931], [79.8604, 25.2934], [79.8603, 25.2935], [79.86, 25.2937], [79.8596, 25.2939], [79.8587, 25.2943], [79.8583, 25.2947], [79.8583, 25.295], [79.8582, 25.2951], [79.8578, 25.2954], [79.857, 25.2958], [79.8563, 25.2962], [79.8555, 25.2965], [79.8549, 25.297], [79.8547, 25.2971], [79.8546, 25.2974], [79.8545, 25.2977], [79.8545, 25.298], [79.8545, 25.2981], [79.8545, 25.2984], [79.855, 25.2986], [79.8551, 25.299], [79.8553, 25.2993], [79.8554, 25.2997], [79.8555, 25.3001], [79.8559, 25.3006], [79.8565, 25.3011], [79.857, 25.3009]]]}, "properties": {"objectid": 128957, "statename": "", "statecode": "9", "districtname": "Mahoba", "districtcode": "169", "ulbname": "Mahoba(Npp)", "ulbcode": "801048", "wardname": "Sarafi Pura", "wardcode": "11", "id": null, "status": "APPROVED", "misglobalid": null, "approved_by": null, "createdate": 1643879889000, "updateddate": 1643879923000, "globalid": null, "gisglobalid": "cadc4lom-mnPl-PBBP-Q6aK-sQQns45odBK4", "remark": "", "st_area(shape)": 0.0002505993627386416, "st_perimeter(shape)": 0.10864118186787249}}, {"type": "Feature", "geometry": {"type": "Polygon", "coordinates": [[[79.8882, 25.2908], [79.888, 25.2909], [79.8851, 25.291], [79.8836, 25.291], [79.8829, 25.2911], [79.8826, 25.2911], [79.8821, 25.2911], [79.8816, 25.2911], [79.8817, 25.2913], [79.8817, 25.2915], [79.8818, 25.2919], [79.8818, 25.292], [79.8819, 25.2922], [79.8819, 25.2924], [79.8819, 25.2927], [79.8819, 25.2929], [79.8824, 25.293], [79.8829, 25.2931], [79.8835, 25.2933], [79.8839, 25.2934], [79.8843, 25.2935], [79.8848, 25.2937], [79.8852, 25.2939], [79.8855, 25.2941], [79.8857, 25.2943], [79.886, 25.2945], [79.8863, 25.2947], [79.8867, 25.2949], [79.8872, 25.295], [79.8875, 25.295], [79.888, 25.295], [79.8881, 25.2951], [79.889, 25.2953], [79.8896, 25.2958], [79.8905, 25.2967], [79.8923, 25.2977], [79.894, 25.2985], [79.8924, 25.2963], [79.8911, 25.2945], [79.8905, 25.2937], [79.8902, 25.2929], [79.8895, 25.2921], [79.8886, 25.2913], [79.8882, 25.2908]]]}, "properties": {"objectid": 128942, "statename": "", "statecode": "9", "districtname": "Mahoba", "districtcode": "169", "ulbname": "Mahoba(Npp)", "ulbcode": "801048", "wardname": "Chhajaman Pura", "wardcode": "12", "id": null, "status": "APPROVED", "misglobalid": null, "approved_by": null, "createdate": 1643871373000, "updateddate": 1643872073000, "globalid": null, "gisglobalid": "5aQP4nPc-PPnd-PadP-Qnss-KdndnncR5R4a", "remark": "", "st_area(shape)": 3.2806797832828426e-05, "st_perimeter(shape)": 0.031608731261276585}}, {"type": "Feature", "geometry": {"type": "Polygon", "coordinates": [[[79.8876, 25.2896], [79.8876, 25.2889], [79.887, 25.2876], [79.8862, 25.2867], [79.8855, 25.2861], [79.8846, 25.2854], [79.8836, 25.2847], [79.8827, 25.2856], [79.8819, 25.286], [79.8812, 25.2866], [79.8804, 25.2866], [79.8798, 25.2867], [79.8792, 25.2868], [79.8788, 25.2868], [79.8787, 25.2871], [79.8787, 25.2874], [79.8786, 25.2879], [79.8793, 25.2881], [79.8797, 25.2883], [79.8801, 25.2885], [79.8803, 25.2886], [79.8806, 25.2887], [79.8808, 25.2888], [79.8813, 25.2889], [79.8815, 25.289], [79.8819, 25.289], [79.8825, 25.2892], [79.8826, 25.2892], [79.8831, 25.2894], [79.8835, 25.2895], [79.884, 25.2896], [79.8843, 25.2897], [79.8849, 25.2897], [79.8852, 25.2897], [79.8857, 25.2897], [79.886, 25.2897], [79.8864, 25.2897], [79.8866, 25.2897], [79.8876, 25.2896]]]}, "properties": {"objectid": 129786, "statename": "", "statecode": "9", "districtname": "Mahoba", "districtcode": "169", "ulbname": "Mahoba(Npp)", "ulbcode": "801048", "wardname": "Singh Bhawani", "wardcode": "13", "id": null, "status": "APPROVED", "misglobalid": null, "approved_by": null, "createdate": 1643870524000, "updateddate": 1643870731000, "globalid": null, "gisglobalid": "lmKKdRP4-B6aa-PQca-sKcs-ooRanm5sdRmB", "remark": "", "st_area(shape)": 2.604911815716621e-05, "st_perimeter(shape)": 0.02262004752005349}}, {"type": "Feature", "geometry": {"type": "Polygon", "coordinates": [[[79.8798, 25.2867], [79.8804, 25.2866], [79.8812, 25.2866], [79.8819, 25.286], [79.8827, 25.2856], [79.8836, 25.2847], [79.8782, 25.2791], [79.8781, 25.2794], [79.878, 25.2796], [79.8779, 25.2799], [79.8778, 25.2804], [79.8773, 25.2814], [79.8773, 25.2815], [79.8773, 25.2816], [79.8773, 25.2818], [79.8772, 25.282], [79.8772, 25.2822], [79.8771, 25.2823], [79.8771, 25.2824], [79.8771, 25.2826], [79.8771, 25.2828], [79.8772, 25.2829], [79.8774, 25.2832], [79.8775, 25.2836], [79.8775, 25.2838], [79.8775, 25.2841], [79.8775, 25.2844], [79.8774, 25.2848], [79.8772, 25.2852], [79.8771, 25.2854], [79.877, 25.2855], [79.8768, 25.2857], [79.8766, 25.2858], [79.8764, 25.2859], [79.8763, 25.286], [79.8762, 25.286], [79.8761, 25.2861], [79.8759, 25.2862], [79.8758, 25.2862], [79.8759, 25.2863], [79.876, 25.2866], [79.876, 25.2868], [79.8762, 25.2868], [79.8764, 25.2868], [79.8769, 25.2866], [79.8773, 25.2867], [79.8776, 25.2868], [79.8778, 25.2868], [79.8783, 25.2869], [79.8786, 25.2868], [79.8792, 25.2868], [79.8798, 25.2867]]]}, "properties": {"objectid": 129784, "statename": "", "statecode": "9", "districtname": "Mahoba", "districtcode": "169", "ulbname": "Mahoba(Npp)", "ulbcode": "801048", "wardname": "Badi Ghat", "wardcode": "14", "id": null, "status": "APPROVED", "misglobalid": null, "approved_by": null, "createdate": 1643871270000, "updateddate": 1643871310000, "globalid": null, "gisglobalid": "nm5lm55o-ds4R-Pl6m-RsRP-ass5sosoRsoa", "remark": "", "st_area(shape)": 3.065161072519618e-05, "st_perimeter(shape)": 0.025039750814220416}}, {"type": "Feature", "geometry": {"type": "Polygon", "coordinates": [[[79.8819, 25.2928], [79.8799, 25.2923], [79.8781, 25.2922], [79.8764, 25.292], [79.8756, 25.292], [79.8759, 25.293], [79.8762, 25.2934], [79.8765, 25.2938], [79.8768, 25.2943], [79.8769, 25.2947], [79.877, 25.2954], [79.8772, 25.2964], [79.8774, 25.297], [79.8776, 25.2975], [79.8777, 25.2981], [79.8778, 25.2983], [79.8781, 25.2984], [79.8784, 25.2984], [79.8789, 25.2983], [79.8792, 25.2982], [79.8797, 25.2982], [79.8799, 25.2988], [79.88, 25.2994], [79.8799, 25.2997], [79.8806, 25.3014], [79.8809, 25.3018], [79.8811, 25.3022], [79.8813, 25.303], [79.8814, 25.3036], [79.8819, 25.3045], [79.8822, 25.3051], [79.8829, 25.3061], [79.8833, 25.3069], [79.8837, 25.307], [79.8839, 25.3073], [79.8838, 25.308], [79.8841, 25.3089], [79.8845, 25.3099], [79.8847, 25.3103], [79.8894, 25.3097], [79.8872, 25.3034], [79.886, 25.3019], [79.8855, 25.3011], [79.8854, 25.3009], [79.8845, 25.2988], [79.8841, 25.2983], [79.8847, 25.2979], [79.8854, 25.2975], [79.8859, 25.2972], [79.8865, 25.297], [79.8869, 25.2967], [79.8873, 25.296], [79.8877, 25.2954], [79.8881, 25.2951], [79.888, 25.295], [79.8875, 25.295], [79.8872, 25.295], [79.8867, 25.2949], [79.8863, 25.2947], [79.886, 25.2945], [79.8857, 25.2943], [79.8855, 25.2941], [79.8852, 25.2939], [79.8848, 25.2937], [79.8843, 25.2935], [79.8839, 25.2934], [79.8835, 25.2933], [79.8829, 25.2931], [79.8824, 25.293], [79.8819, 25.2929], [79.8819, 25.2928]]]}, "properties": {"objectid": 130118, "statename": "", "statecode": "9", "districtname": "Mahoba", "districtcode": "169", "ulbname": "Mahoba(Npp)", "ulbcode": "801048", "wardname": "Gandhi Nagar", "wardcode": "15", "id": null, "status": "APPROVED", "misglobalid": null, "approved_by": null, "createdate": 1643871417000, "updateddate": 1643871740000, "globalid": null, "gisglobalid": "PQRonndQ-adPn-Pnno-sosn-RRKm6K55BoKl", "remark": "", "st_area(shape)": 0.00011214215218932719, "st_perimeter(shape)": 0.058109595938611106}}, {"type": "Feature", "geometry": {"type": "Polygon", "coordinates": [[[79.8759, 25.2863], [79.8758, 25.2862], [79.8759, 25.2862], [79.8761, 25.2861], [79.8762, 25.286], [79.8763, 25.286], [79.8764, 25.2859], [79.8766, 25.2858], [79.8768, 25.2857], [79.877, 25.2855], [79.8771, 25.2854], [79.8772, 25.2852], [79.8774, 25.2848], [79.8775, 25.2844], [79.8775, 25.2841], [79.8775, 25.2838], [79.8775, 25.2836], [79.8774, 25.2832], [79.8772, 25.2829], [79.8771, 25.2828], [79.8771, 25.2826], [79.8771, 25.2824], [79.8771, 25.2823], [79.8772, 25.2822], [79.8772, 25.282], [79.8773, 25.2818], [79.8773, 25.2816], [79.8773, 25.2815], [79.8773, 25.2814], [79.8778, 25.2804], [79.8779, 25.2799], [79.878, 25.2796], [79.8781, 25.2794], [79.8782, 25.2791], [79.8769, 25.2777], [79.8752, 25.2758], [79.8738, 25.2742], [79.8728, 25.2732], [79.8626, 25.2652], [79.8598, 25.2682], [79.8613, 25.2692], [79.8614, 25.2693], [79.8617, 25.2695], [79.8618, 25.2696], [79.8619, 25.2697], [79.8621, 25.2701], [79.8623, 25.2704], [79.8625, 25.2707], [79.8627, 25.2709], [79.863, 25.2712], [79.8634, 25.2717], [79.8635, 25.272], [79.8638, 25.2732], [79.864, 25.2744], [79.8641, 25.2746], [79.8642, 25.2751], [79.8642, 25.2753], [79.8644, 25.2757], [79.8646, 25.2761], [79.8646, 25.2762], [79.8647, 25.2763], [79.8647, 25.2765], [79.8648, 25.2766], [79.8648, 25.2767], [79.8649, 25.2769], [79.8649, 25.277], [79.865, 25.2771], [79.8651, 25.2774], [79.8652, 25.2777], [79.8653, 25.278], [79.8659, 25.2776], [79.8669, 25.2776], [79.8678, 25.2781], [79.8681, 25.2786], [79.8685, 25.2791], [79.8689, 25.2802], [79.8705, 25.282], [79.8723, 25.2833], [79.873, 25.2844], [79.8734, 25.2853], [79.873, 25.2861], [79.8728, 25.2863], [79.8731, 25.2866], [79.8733, 25.2868], [79.8734, 25.287], [79.8735, 25.2871], [79.8736, 25.2872], [79.8736, 25.2874], [79.8738, 25.2874], [79.8739, 25.2875], [79.874, 25.2875], [79.8741, 25.2875], [79.8743, 25.2875], [79.8744, 25.2874], [79.8745, 25.2873], [79.8747, 25.2873], [79.8748, 25.2873], [79.8748, 25.2872], [79.8748, 25.287], [79.875, 25.2868], [79.8751, 25.2867], [79.8753, 25.2866], [79.8753, 25.2865], [79.8756, 25.2863], [79.8758, 25.2863], [79.8759, 25.2863]]]}, "properties": {"objectid": 131709, "statename": "", "statecode": "9", "districtname": "Mahoba", "districtcode": "169", "ulbname": "Mahoba", "ulbcode": "801048", "wardname": "Makaniya Pura", "wardcode": "16", "id": null, "status": "APPROVED", "misglobalid": null, "approved_by": null, "createdate": 1643871529000, "updateddate": 1643872105000, "globalid": null, "gisglobalid": "Ka5s4dn6-QPa4-Pnll-Qdcs-olB4mlRRsnsn", "remark": "", "st_area(shape)": 0.00015286720658557186, "st_perimeter(shape)": 0.06256755371113425}}, {"type": "Feature", "geometry": {"type": "Polygon", "coordinates": [[[79.872, 25.2917], [79.8722, 25.2917], [79.8727, 25.2917], [79.8731, 25.2917], [79.8734, 25.2918], [79.8738, 25.2918], [79.8741, 25.2919], [79.8745, 25.2919], [79.8748, 25.2919], [79.8748, 25.2917], [79.8748, 25.2916], [79.8748, 25.2915], [79.8748, 25.2914], [79.8749, 25.2914], [79.8749, 25.2913], [79.8749, 25.2912], [79.8748, 25.2911], [79.8747, 25.2911], [79.8747, 25.291], [79.8746, 25.291], [79.8746, 25.2909], [79.8745, 25.2908], [79.8744, 25.2906], [79.8741, 25.2907], [79.8739, 25.2907], [79.8733, 25.2907], [79.8729, 25.2907], [79.8727, 25.2907], [79.8724, 25.2907], [79.872, 25.2907], [79.8719, 25.2907], [79.8718, 25.2909], [79.8717, 25.291], [79.8716, 25.2911], [79.8715, 25.2911], [79.8714, 25.2911], [79.8713, 25.291], [79.8712, 25.2907], [79.8712, 25.2905], [79.8711, 25.2904], [79.8711, 25.2901], [79.8711, 25.29], [79.8711, 25.2897], [79.871, 25.2897], [79.8709, 25.2897], [79.8708, 25.2897], [79.8706, 25.2897], [79.8704, 25.2897], [79.8703, 25.2898], [79.8702, 25.2898], [79.8701, 25.2901], [79.8701, 25.2905], [79.87, 25.2908], [79.87, 25.291], [79.8699, 25.2914], [79.8701, 25.2915], [79.8703, 25.2915], [79.8705, 25.2915], [79.8708, 25.2915], [79.871, 25.2916], [79.8716, 25.2916], [79.8717, 25.2916], [79.872, 25.2917]]]}, "properties": {"objectid": 130522, "statename": "", "statecode": "9", "districtname": "Mahoba", "districtcode": "169", "ulbname": "Mahoba(Npp)", "ulbcode": "801048", "wardname": "Udal Chowk", "wardcode": "17", "id": null, "status": "APPROVED", "misglobalid": null, "approved_by": null, "createdate": 1643872376000, "updateddate": 1643874137000, "globalid": null, "gisglobalid": "nQnKRnma-scBs-Po4R-asaQ-Rllc5RQc6dKB", "remark": "", "st_area(shape)": 5.528257549885672e-06, "st_perimeter(shape)": 0.013838737459062774}}, {"type": "Feature", "geometry": {"type": "Polygon", "coordinates": [[[79.8799, 25.2988], [79.8797, 25.2982], [79.8792, 25.2982], [79.8789, 25.2983], [79.8784, 25.2984], [79.8781, 25.2984], [79.8778, 25.2983], [79.8777, 25.2981], [79.8776, 25.2975], [79.8774, 25.297], [79.8772, 25.2964], [79.877, 25.2954], [79.8769, 25.2947], [79.8768, 25.2943], [79.8765, 25.2938], [79.8762, 25.2934], [79.8759, 25.293], [79.8756, 25.292], [79.8748, 25.2919], [79.8745, 25.2919], [79.8741, 25.2919], [79.8738, 25.2918], [79.8734, 25.2918], [79.8731, 25.2917], [79.8727, 25.2917], [79.8722, 25.2917], [79.872, 25.2917], [79.8717, 25.2916], [79.8716, 25.2916], [79.871, 25.2916], [79.8708, 25.2915], [79.8709, 25.292], [79.871, 25.2923], [79.8712, 25.2925], [79.8714, 25.2926], [79.8715, 25.2928], [79.8716, 25.293], [79.8717, 25.2933], [79.8717, 25.2935], [79.872, 25.2937], [79.8722, 25.2938], [79.8727, 25.294], [79.873, 25.2941], [79.8732, 25.2945], [79.8736, 25.2952], [79.874, 25.2959], [79.875, 25.2971], [79.8754, 25.2975], [79.8757, 25.2981], [79.8745, 25.2979], [79.8738, 25.2978], [79.8731, 25.2977], [79.8724, 25.2976], [79.8718, 25.2976], [79.8712, 25.2975], [79.8713, 25.298], [79.8713, 25.2986], [79.8714, 25.2991], [79.8715, 25.3001], [79.8715, 25.3011], [79.8716, 25.3016], [79.8716, 25.3023], [79.8718, 25.3029], [79.8721, 25.3036], [79.8722, 25.304], [79.8725, 25.3051], [79.8731, 25.3061], [79.8732, 25.3065], [79.8732, 25.3071], [79.8736, 25.3078], [79.8738, 25.3085], [79.8743, 25.3099], [79.875, 25.3116], [79.8847, 25.3103], [79.8845, 25.3099], [79.8841, 25.3089], [79.8838, 25.308], [79.8839, 25.3073], [79.8837, 25.307], [79.8833, 25.3069], [79.8829, 25.3061], [79.8822, 25.3051], [79.8819, 25.3045], [79.8814, 25.3036], [79.8813, 25.303], [79.8811, 25.3022], [79.8809, 25.3018], [79.8806, 25.3014], [79.8799, 25.2997], [79.88, 25.2994], [79.8799, 25.2988]]]}, "properties": {"objectid": 128952, "statename": "", "statecode": "9", "districtname": "Mahoba", "districtcode": "169", "ulbname": "Mahoba(Npp)", "ulbcode": "801048", "wardname": "Narupura", "wardcode": "18", "id": null, "status": "APPROVED", "misglobalid": null, "approved_by": null, "createdate": 1643875508000, "updateddate": 1643875715000, "globalid": null, "gisglobalid": "KQKas6Q4-Klso-P554-aRn5-Qonon44maKo5", "remark": "", "st_area(shape)": 0.00014577562740110178, "st_perimeter(shape)": 0.06468985421204952}}, {"type": "Feature", "geometry": {"type": "Polygon", "coordinates": [[[79.8788, 25.2912], [79.878, 25.291], [79.8776, 25.2908], [79.8773, 25.2906], [79.8773, 25.2905], [79.8772, 25.2904], [79.8772, 25.2902], [79.8772, 25.2901], [79.8771, 25.2901], [79.877, 25.29], [79.877, 25.2899], [79.877, 25.2897], [79.8769, 25.2896], [79.8768, 25.2896], [79.8767, 25.2897], [79.8766, 25.2897], [79.8766, 25.2896], [79.8766, 25.2894], [79.8765, 25.2894], [79.8766, 25.2894], [79.8766, 25.2893], [79.8766, 25.2891], [79.8765, 25.289], [79.8763, 25.2889], [79.8761, 25.2889], [79.8758, 25.2888], [79.8754, 25.2887], [79.8754, 25.2886], [79.8752, 25.2885], [79.875, 25.2885], [79.8748, 25.2885], [79.8746, 25.2885], [79.8745, 25.2886], [79.8743, 25.2887], [79.8742, 25.289], [79.8742, 25.2892], [79.8743, 25.2894], [79.8745, 25.2894], [79.8746, 25.2894], [79.8747, 25.2894], [79.8748, 25.2894], [79.875, 25.2895], [79.8751, 25.2895], [79.8752, 25.2895], [79.8753, 25.2895], [79.8754, 25.2896], [79.8758, 25.2896], [79.8759, 25.2897], [79.8759, 25.2898], [79.8759, 25.2899], [79.8759, 25.29], [79.876, 25.29], [79.876, 25.2901], [79.876, 25.2902], [79.8761, 25.2903], [79.876, 25.2903], [79.876, 25.2905], [79.8761, 25.2905], [79.8762, 25.2905], [79.8763, 25.2905], [79.8764, 25.291], [79.8765, 25.2911], [79.8766, 25.2911], [79.8767, 25.2914], [79.8768, 25.2915], [79.8769, 25.2916], [79.8769, 25.2917], [79.877, 25.2917], [79.8772, 25.2916], [79.8773, 25.2918], [79.8773, 25.2919], [79.8773, 25.2921], [79.8781, 25.2922], [79.8799, 25.2923], [79.8819, 25.2928], [79.8819, 25.2927], [79.8819, 25.2924], [79.8819, 25.2922], [79.8818, 25.292], [79.8818, 25.2919], [79.8817, 25.2915], [79.8817, 25.2913], [79.8816, 25.2911], [79.8788, 25.2912]]]}, "properties": {"objectid": 128944, "statename": "", "statecode": "9", "districtname": "Mahoba", "districtcode": "169", "ulbname": "Mahoba(Npp)", "ulbcode": "801048", "wardname": "Naikana Pura", "wardcode": "19", "id": null, "status": "APPROVED", "misglobalid": null, "approved_by": null, "createdate": 1643871590000, "updateddate": 1643872137000, "globalid": null, "gisglobalid": "ndmPQmQ4-645Q-Ps6s-sQoR-BQ44RRmBR5Ps", "remark": "", "st_area(shape)": 9.3596719818705e-06, "st_perimeter(shape)": 0.02134926686741327}}, {"type": "Feature", "geometry": {"type": "Polygon", "coordinates": [[[79.869, 25.2915], [79.8689, 25.2912], [79.8688, 25.2911], [79.8688, 25.2909], [79.8687, 25.2907], [79.8686, 25.2906], [79.8685, 25.2905], [79.8684, 25.2903], [79.8683, 25.2902], [79.8683, 25.2901], [79.8683, 25.29], [79.8682, 25.2898], [79.868, 25.2895], [79.8679, 25.2895], [79.8678, 25.2894], [79.8678, 25.2893], [79.8677, 25.2893], [79.8676, 25.2893], [79.8676, 25.2892], [79.8675, 25.2889], [79.8675, 25.2888], [79.8674, 25.2887], [79.8674, 25.2886], [79.8674, 25.2885], [79.8676, 25.2883], [79.8676, 25.2882], [79.8675, 25.2879], [79.8675, 25.2878], [79.8672, 25.288], [79.8665, 25.2881], [79.866, 25.2881], [79.8655, 25.2879], [79.8656, 25.2889], [79.8655, 25.289], [79.8655, 25.2892], [79.8655, 25.2893], [79.8655, 25.2895], [79.8655, 25.2896], [79.8655, 25.2897], [79.8656, 25.2897], [79.8656, 25.2898], [79.8656, 25.2899], [79.8656, 25.29], [79.8656, 25.2901], [79.8657, 25.2901], [79.8658, 25.2901], [79.8659, 25.2901], [79.866, 25.29], [79.8661, 25.2901], [79.8661, 25.2903], [79.8661, 25.2904], [79.8661, 25.2905], [79.8661, 25.2906], [79.8661, 25.2907], [79.8661, 25.2908], [79.8662, 25.2908], [79.8663, 25.2907], [79.8664, 25.2907], [79.8666, 25.2907], [79.8667, 25.2907], [79.8668, 25.2908], [79.8668, 25.2909], [79.8668, 25.2911], [79.8668, 25.2912], [79.8669, 25.2914], [79.8672, 25.2914], [79.8674, 25.2914], [79.8677, 25.2914], [79.868, 25.2914], [79.8683, 25.2914], [79.8686, 25.2914], [79.8687, 25.2914], [79.8689, 25.2915], [79.869, 25.2915]]]}, "properties": {"objectid": 132108, "statename": "", "statecode": "9", "districtname": "Mahoba", "districtcode": "169", "ulbname": "Mahoba(Npp)", "ulbcode": "801048", "wardname": "Magariya Pura", "wardcode": "20", "id": null, "status": "APPROVED", "misglobalid": null, "approved_by": null, "createdate": 1643871498000, "updateddate": 1643872155000, "globalid": null, "gisglobalid": "B5BsBcdc-5nsl-PoRl-a5sm-cPPQlloKoBll", "remark": "", "st_area(shape)": 7.484966915199995e-06, "st_perimeter(shape)": 0.01350986523834363}}, {"type": "Feature", "geometry": {"type": "Polygon", "coordinates": [[[79.8742, 25.289], [79.8743, 25.2887], [79.8745, 25.2886], [79.8746, 25.2885], [79.8748, 25.2885], [79.875, 25.2885], [79.8752, 25.2885], [79.8754, 25.2886], [79.8754, 25.2887], [79.8758, 25.2888], [79.8761, 25.2889], [79.8763, 25.2889], [79.8765, 25.289], [79.8766, 25.2891], [79.8766, 25.2893], [79.8766, 25.2894], [79.8765, 25.2894], [79.8766, 25.2894], [79.8766, 25.2896], [79.8766, 25.2897], [79.8767, 25.2897], [79.8768, 25.2896], [79.8769, 25.2896], [79.877, 25.2897], [79.877, 25.2899], [79.877, 25.29], [79.8771, 25.2901], [79.8772, 25.2901], [79.8772, 25.2902], [79.8772, 25.2904], [79.8773, 25.2905], [79.8773, 25.2906], [79.8776, 25.2908], [79.878, 25.291], [79.8788, 25.2912], [79.8786, 25.2909], [79.8783, 25.2904], [79.8783, 25.29], [79.8783, 25.2898], [79.8783, 25.2895], [79.8783, 25.2892], [79.8782, 25.289], [79.8783, 25.2888], [79.8784, 25.2885], [79.8785, 25.2882], [79.8786, 25.2879], [79.8787, 25.2874], [79.8787, 25.2871], [79.8788, 25.2868], [79.8786, 25.2868], [79.8783, 25.2869], [79.8778, 25.2868], [79.8776, 25.2868], [79.8773, 25.2867], [79.8769, 25.2866], [79.8764, 25.2868], [79.8762, 25.2868], [79.876, 25.2868], [79.876, 25.2866], [79.8759, 25.2863], [79.8758, 25.2863], [79.8756, 25.2863], [79.8753, 25.2865], [79.8753, 25.2866], [79.8751, 25.2867], [79.875, 25.2868], [79.8748, 25.287], [79.8748, 25.2872], [79.8748, 25.2873], [79.8747, 25.2873], [79.8745, 25.2873], [79.8744, 25.2874], [79.8743, 25.2875], [79.8741, 25.2875], [79.874, 25.2875], [79.8739, 25.2875], [79.8738, 25.2874], [79.8736, 25.2874], [79.8737, 25.2877], [79.8737, 25.2879], [79.8737, 25.2882], [79.8738, 25.2883], [79.8741, 25.2888], [79.8742, 25.289]]]}, "properties": {"objectid": 131708, "statename": "", "statecode": "9", "districtname": "Mahoba", "districtcode": "169", "ulbname": "Mahoba(Npp)", "ulbcode": "801048", "wardname": "Haweli Darwaza", "wardcode": "21", "id": null, "status": "APPROVED", "misglobalid": null, "approved_by": null, "createdate": 1643870856000, "updateddate": 1643871119000, "globalid": null, "gisglobalid": "KcQdB5ld-mcmQ-PKlo-smln-aRmKRmcnlQl5", "remark": "", "st_area(shape)": 1.2164012084631462e-05, "st_perimeter(shape)": 0.019192307003248785}}, {"type": "Feature", "geometry": {"type": "Polygon", "coordinates": [[[79.8711, 25.2885], [79.8711, 25.2888], [79.8711, 25.2891], [79.8711, 25.2893], [79.8711, 25.2897], [79.8711, 25.29], [79.8711, 25.2901], [79.8711, 25.2904], [79.8712, 25.2905], [79.8712, 25.2907], [79.8713, 25.291], [79.8714, 25.2911], [79.8715, 25.2911], [79.8716, 25.2911], [79.8717, 25.291], [79.8718, 25.2909], [79.8719, 25.2907], [79.872, 25.2907], [79.8724, 25.2907], [79.8727, 25.2907], [79.8729, 25.2907], [79.8733, 25.2907], [79.8739, 25.2907], [79.8741, 25.2907], [79.8744, 25.2906], [79.8745, 25.2908], [79.8746, 25.2909], [79.8746, 25.291], [79.8747, 25.291], [79.8747, 25.2911], [79.8748, 25.2911], [79.8749, 25.2912], [79.8749, 25.2913], [79.8749, 25.2914], [79.8748, 25.2914], [79.8748, 25.2915], [79.8748, 25.2916], [79.8748, 25.2917], [79.8748, 25.2919], [79.8756, 25.292], [79.8764, 25.292], [79.8773, 25.2921], [79.8773, 25.2919], [79.8773, 25.2918], [79.8772, 25.2916], [79.877, 25.2917], [79.8769, 25.2917], [79.8769, 25.2916], [79.8768, 25.2915], [79.8767, 25.2914], [79.8766, 25.2911], [79.8765, 25.2911], [79.8764, 25.291], [79.8763, 25.2905], [79.8762, 25.2905], [79.8761, 25.2905], [79.876, 25.2905], [79.876, 25.2903], [79.8761, 25.2903], [79.876, 25.2902], [79.876, 25.2901], [79.876, 25.29], [79.8759, 25.29], [79.8759, 25.2899], [79.8759, 25.2898], [79.8759, 25.2897], [79.8758, 25.2896], [79.8754, 25.2896], [79.8753, 25.2895], [79.8752, 25.2895], [79.8751, 25.2895], [79.875, 25.2895], [79.8748, 25.2894], [79.8747, 25.2894], [79.8746, 25.2894], [79.8745, 25.2894], [79.8743, 25.2894], [79.8742, 25.2892], [79.8742, 25.289], [79.8741, 25.2888], [79.8738, 25.2883], [79.8737, 25.2884], [79.8736, 25.2884], [79.8735, 25.2884], [79.8733, 25.2884], [79.873, 25.2884], [79.8723, 25.2884], [79.8718, 25.2884], [79.8716, 25.2885], [79.8715, 25.2885], [79.8714, 25.2885], [79.8712, 25.2885], [79.8711, 25.2885]]]}, "properties": {"objectid": 128943, "statename": "", "statecode": "9", "districtname": "Mahoba", "districtcode": "169", "ulbname": "Mahoba(Npp)", "ulbcode": "801048", "wardname": "Grant Ganj", "wardcode": "22", "id": null, "status": "APPROVED", "misglobalid": null, "approved_by": null, "createdate": 1643871450000, "updateddate": 1643872181000, "globalid": null, "gisglobalid": "Pmdc5oRa-cm54-PKad-QPPQ-BPl4clcQnc4P", "remark": "", "st_area(shape)": 1.2033897330630194e-05, "st_perimeter(shape)": 0.019128577913353217}}, {"type": "Feature", "geometry": {"type": "Polygon", "coordinates": [[[79.869, 25.2915], [79.869, 25.2917], [79.8689, 25.2918], [79.8689, 25.2919], [79.8688, 25.292], [79.8688, 25.2921], [79.8687, 25.2922], [79.8685, 25.2923], [79.8683, 25.2924], [79.8683, 25.2925], [79.8684, 25.2926], [79.8685, 25.2926], [79.8685, 25.2928], [79.8685, 25.2929], [79.8685, 25.293], [79.8685, 25.2931], [79.8684, 25.2933], [79.8684, 25.2934], [79.8683, 25.2934], [79.8683, 25.2936], [79.8683, 25.2938], [79.8683, 25.2939], [79.8684, 25.2941], [79.8684, 25.2944], [79.8684, 25.2945], [79.8684, 25.2946], [79.8683, 25.2947], [79.8681, 25.2948], [79.8677, 25.2948], [79.8678, 25.2949], [79.8679, 25.2951], [79.8679, 25.2954], [79.8679, 25.2957], [79.8679, 25.2958], [79.8678, 25.296], [79.8678, 25.2962], [79.8678, 25.2963], [79.8678, 25.2966], [79.8678, 25.2967], [79.8678, 25.2969], [79.8678, 25.2971], [79.8679, 25.2975], [79.8679, 25.2978], [79.8679, 25.298], [79.8679, 25.2982], [79.868, 25.2985], [79.868, 25.2988], [79.8683, 25.2992], [79.8683, 25.2996], [79.8684, 25.3002], [79.8684, 25.3007], [79.8684, 25.3013], [79.8687, 25.3018], [79.8688, 25.3025], [79.8691, 25.303], [79.8693, 25.3032], [79.869, 25.3038], [79.869, 25.3044], [79.8688, 25.3049], [79.8691, 25.3052], [79.8692, 25.3056], [79.8692, 25.3058], [79.8693, 25.3062], [79.8693, 25.3064], [79.8696, 25.3073], [79.87, 25.3081], [79.8701, 25.3087], [79.8702, 25.3091], [79.8703, 25.3095], [79.8706, 25.3101], [79.8707, 25.3106], [79.8708, 25.3111], [79.871, 25.3116], [79.8712, 25.3121], [79.875, 25.3116], [79.8743, 25.3099], [79.8738, 25.3085], [79.8736, 25.3078], [79.8732, 25.3071], [79.8732, 25.3065], [79.8731, 25.3061], [79.8725, 25.3051], [79.8722, 25.304], [79.8721, 25.3036], [79.8718, 25.3029], [79.8716, 25.3023], [79.8716, 25.3016], [79.8715, 25.3011], [79.8715, 25.3001], [79.8714, 25.2991], [79.8713, 25.2986], [79.8713, 25.298], [79.8712, 25.2975], [79.8718, 25.2976], [79.8724, 25.2976], [79.8731, 25.2977], [79.8738, 25.2978], [79.8745, 25.2979], [79.8757, 25.2981], [79.8754, 25.2975], [79.875, 25.2971], [79.874, 25.2959], [79.8736, 25.2952], [79.8732, 25.2945], [79.873, 25.2941], [79.8727, 25.294], [79.8722, 25.2938], [79.872, 25.2937], [79.8717, 25.2935], [79.8717, 25.2933], [79.8716, 25.293], [79.8715, 25.2928], [79.8714, 25.2926], [79.8712, 25.2925], [79.871, 25.2923], [79.8709, 25.292], [79.8708, 25.2915], [79.8705, 25.2915], [79.8703, 25.2915], [79.8701, 25.2915], [79.8699, 25.2914], [79.8693, 25.2915], [79.869, 25.2915]]]}, "properties": {"objectid": 131330, "statename": "", "statecode": "9", "districtname": "Mahoba", "districtcode": "169", "ulbname": "Mahoba(Npp)", "ulbcode": "801048", "wardname": "Kaswathai", "wardcode": "23", "id": null, "status": "APPROVED", "misglobalid": null, "approved_by": null, "createdate": 1643875476000, "updateddate": 1643875733000, "globalid": null, "gisglobalid": "csBaol5R-RQoQ-PPs4-a6nd-ddocmlPRol5l", "remark": "", "st_area(shape)": 7.892119858803325e-05, "st_perimeter(shape)": 0.0562262859472808}}, {"type": "Feature", "geometry": {"type": "Polygon", "coordinates": [[[79.8693, 25.2887], [79.8693, 25.2886], [79.8693, 25.2885], [79.8693, 25.2884], [79.8693, 25.2883], [79.8693, 25.2882], [79.8693, 25.288], [79.8693, 25.2879], [79.8691, 25.2876], [79.869, 25.2875], [79.8687, 25.2876], [79.8682, 25.2875], [79.868, 25.2874], [79.8677, 25.2875], [79.8675, 25.2876], [79.8675, 25.2878], [79.8675, 25.2879], [79.8676, 25.2882], [79.8676, 25.2883], [79.8674, 25.2885], [79.8674, 25.2886], [79.8674, 25.2887], [79.8675, 25.2888], [79.8675, 25.2889], [79.8676, 25.2892], [79.8676, 25.2893], [79.8677, 25.2893], [79.8678, 25.2893], [79.8678, 25.2894], [79.8679, 25.2895], [79.868, 25.2895], [79.8682, 25.2898], [79.8683, 25.29], [79.8683, 25.2901], [79.8683, 25.2902], [79.8684, 25.2903], [79.8685, 25.2905], [79.8686, 25.2906], [79.8687, 25.2907], [79.8688, 25.2909], [79.8688, 25.2911], [79.8689, 25.2912], [79.869, 25.2915], [79.8693, 25.2915], [79.8693, 25.2912], [79.8693, 25.2911], [79.8694, 25.2908], [79.8693, 25.2906], [79.8693, 25.2903], [79.8693, 25.2902], [79.8694, 25.2898], [79.8694, 25.2897], [79.8694, 25.2896], [79.8694, 25.2894], [79.8694, 25.2891], [79.8693, 25.2889], [79.8693, 25.2887]]]}, "properties": {"objectid": 130517, "statename": "", "statecode": "9", "districtname": "Mahoba", "districtcode": "169", "ulbname": "Mahoba(Npp)", "ulbcode": "801048", "wardname": "Jari Ganj", "wardcode": "24", "id": null, "status": "APPROVED", "misglobalid": null, "approved_by": null, "createdate": 1643870929000, "updateddate": 1643871105000, "globalid": null, "gisglobalid": "aoKoQo5K-RnnR-Psnl-Q6nP-RRQK6sKPos4d", "remark": "", "st_area(shape)": 5.001740411041348e-06, "st_perimeter(shape)": 0.010512194642967286}}, {"type": "Feature", "geometry": {"type": "Polygon", "coordinates": [[[79.8712, 25.3121], [79.871, 25.3116], [79.8708, 25.3111], [79.8707, 25.3106], [79.8706, 25.3101], [79.8703, 25.3095], [79.8702, 25.3091], [79.8701, 25.3087], [79.87, 25.3081], [79.8696, 25.3073], [79.8693, 25.3064], [79.8693, 25.3062], [79.8692, 25.3058], [79.8692, 25.3056], [79.8691, 25.3052], [79.8688, 25.3049], [79.869, 25.3044], [79.869, 25.3038], [79.8693, 25.3032], [79.8691, 25.303], [79.8688, 25.3025], [79.8687, 25.3018], [79.8684, 25.3013], [79.8684, 25.3007], [79.8684, 25.3002], [79.8683, 25.2996], [79.8683, 25.2992], [79.868, 25.2988], [79.868, 25.2985], [79.8679, 25.2982], [79.8679, 25.298], [79.8679, 25.2978], [79.8679, 25.2975], [79.8678, 25.2971], [79.8678, 25.2969], [79.8678, 25.2967], [79.8678, 25.2966], [79.8678, 25.2963], [79.8678, 25.2962], [79.8678, 25.296], [79.8679, 25.2958], [79.8679, 25.2957], [79.8679, 25.2954], [79.8679, 25.2951], [79.8678, 25.2949], [79.8677, 25.2948], [79.8681, 25.2948], [79.8683, 25.2947], [79.8684, 25.2946], [79.8684, 25.2945], [79.8684, 25.2944], [79.8684, 25.2941], [79.8683, 25.2939], [79.8683, 25.2938], [79.8683, 25.2936], [79.8683, 25.2934], [79.8684, 25.2934], [79.8684, 25.2933], [79.8685, 25.2931], [79.8685, 25.293], [79.8685, 25.2929], [79.8685, 25.2928], [79.8685, 25.2926], [79.8684, 25.2926], [79.8683, 25.2925], [79.8683, 25.2924], [79.8685, 25.2923], [79.8687, 25.2922], [79.8688, 25.2921], [79.8688, 25.292], [79.8689, 25.2919], [79.8689, 25.2918], [79.869, 25.2917], [79.869, 25.2915], [79.8689, 25.2915], [79.8687, 25.2914], [79.8686, 25.2914], [79.8683, 25.2914], [79.868, 25.2914], [79.8677, 25.2914], [79.8674, 25.2914], [79.8672, 25.2914], [79.8669, 25.2914], [79.8666, 25.2914], [79.8662, 25.2915], [79.8663, 25.2922], [79.8663, 25.2925], [79.8663, 25.2928], [79.8664, 25.2929], [79.8651, 25.2932], [79.8649, 25.2933], [79.8643, 25.2934], [79.8638, 25.2936], [79.8632, 25.2938], [79.8631, 25.2941], [79.8633, 25.2945], [79.8633, 25.2948], [79.8634, 25.2952], [79.8635, 25.2955], [79.8636, 25.296], [79.8637, 25.2962], [79.8637, 25.2964], [79.8638, 25.2968], [79.864, 25.2968], [79.864, 25.2974], [79.8639, 25.2977], [79.8639, 25.2981], [79.8639, 25.2983], [79.8639, 25.2985], [79.8632, 25.2998], [79.8628, 25.3003], [79.8625, 25.3013], [79.8627, 25.3018], [79.8628, 25.3022], [79.863, 25.3025], [79.8632, 25.3032], [79.8631, 25.304], [79.8635, 25.3052], [79.8635, 25.3054], [79.8635, 25.3055], [79.8636, 25.3058], [79.8639, 25.3059], [79.8642, 25.3066], [79.8645, 25.3077], [79.8648, 25.3087], [79.8651, 25.31], [79.8654, 25.3114], [79.8657, 25.3129], [79.8712, 25.3121]]]}, "properties": {"objectid": 132117, "statename": "", "statecode": "9", "districtname": "Mahoba", "districtcode": "169", "ulbname": "Mahoba(Npp)", "ulbcode": "801048", "wardname": "Malakpura", "wardcode": "25", "id": null, "status": "APPROVED", "misglobalid": null, "approved_by": null, "createdate": 1643874162000, "updateddate": 1643874226000, "globalid": null, "gisglobalid": "65nodQPQ-4mns-Pcl4-sdaP-6oK45dQclolR", "remark": "", "st_area(shape)": 0.00010414711901537263, "st_perimeter(shape)": 0.05631668027542326}}]}
