{"type":"Topology","arcs":[[[65878,62411],[-1625,9751]],[[64253,72162],[10635,27837]],[[74888,99999],[14476,-1241],[738,-12057],[-7976,-16134],[-16248,-8156]],[[65878,62411],[886,-8865]],[[66764,53546],[-15066,3546]],[[51698,57092],[-3693,1773]],[[48005,58865],[1330,3900]],[[49335,62765],[14918,9397]],[[66764,53546],[6647,-8688],[9158,-6561]],[[82569,38297],[-21417,-531],[-3545,-5674]],[[57607,32092],[-7238,15603],[1329,9397]],[[82569,38297],[6500,-8155],[10930,-27128],[-13589,-3014],[-20679,3901]],[[65731,3901],[-4284,19680],[-3840,8511]],[[65731,3901],[-8124,4787],[-3841,9929],[-5761,3014]],[[48005,21631],[9602,10461]],[[48005,21631],[-3397,-1418]],[[44608,20213],[-5613,11170],[-11373,3014]],[[27622,34397],[2068,15780]],[[29690,50177],[2363,532]],[[32053,50709],[1772,-1241]],[[33825,49468],[8715,354]],[[42540,49822],[5465,9043]],[[44608,20213],[-2954,-11171],[-18611,-1241],[-7386,14185]],[[15657,21986],[8863,6205],[1034,5319]],[[25554,33510],[2068,887]],[[16543,41666],[5466,-3014]],[[22009,38652],[3545,-5142]],[[15657,21986],[-10044,14716]],[[5613,36702],[7090,6737]],[[12703,43439],[3840,-1773]],[[13146,57801],[-443,-14362]],[[5613,36702],[-4136,7092]],[[1477,43794],[8420,4255],[590,12766]],[[10487,60815],[2955,709]],[[13442,61524],[-296,-3723]],[[1477,43794],[-1477,6205]],[[0,49999],[7385,2837],[3102,7979]],[[18464,62588],[-591,-177]],[[17873,62411],[-1182,-178]],[[16691,62233],[-3249,-709]],[[0,49999],[2068,9929],[13737,12589]],[[15805,72517],[2659,-9929]],[[19941,69680],[2806,-4432]],[[22747,65248],[-886,-3369]],[[21861,61879],[-1182,354]],[[20679,62233],[-2215,355]],[[15805,72517],[1477,532]],[[17282,73049],[2659,-3369]],[[25701,64538],[-1181,-3723]],[[24520,60815],[-2659,1064]],[[22747,65248],[2954,-710]],[[26883,67553],[1329,-4788]],[[28212,62765],[-2511,1773]],[[19941,69680],[6942,-2127]],[[28508,73581],[-1625,-6028]],[[17282,73049],[11226,532]],[[36484,73404],[6204,-9398]],[[42688,64006],[-3841,-3723]],[[38847,60283],[-1477,-177]],[[37370,60106],[-5760,1773]],[[31610,61879],[-3398,886]],[[28508,73581],[7976,-177]],[[49335,62765],[-6647,1241]],[[36484,73404],[14919,4255],[11078,21808],[12407,532]],[[48005,58865],[-2511,532]],[[45494,59397],[-2806,4609]],[[45494,59397],[-6647,886]],[[42540,49822],[-3545,4965]],[[38995,54787],[-148,5496]],[[33825,49468],[5170,5319]],[[32053,50709],[2511,7269]],[[34564,57978],[2806,2128]],[[23929,54787],[2363,-355]],[[26292,54432],[1920,532]],[[28212,54964],[1773,-1596]],[[29985,53368],[-7386,-1064]],[[22599,52304],[-147,2660]],[[22452,54964],[1477,-177]],[[22009,38652],[1624,9220]],[[23633,47872],[6057,2305]],[[22599,52304],[1034,-4432]],[[16543,41666],[3250,13653]],[[19793,55319],[2659,-355]],[[16987,56205],[2806,-886]],[[13146,57801],[3841,-1596]],[[29985,53368],[-295,-3191]],[[16691,62233],[296,-6028]],[[17873,62411],[1920,-7092]],[[20679,62233],[3250,-7446]],[[24520,60815],[591,-177]],[[25111,60638],[1181,-6206]],[[27769,59574],[443,-4610]],[[25111,60638],[2658,-1064]],[[30280,57624],[4284,354]],[[27769,59574],[2511,-1950]],[[28212,62765],[-590,-2482]],[[27622,60283],[147,-709]],[[31610,61879],[-1330,-2128]],[[30280,59751],[-2658,532]],[[30280,59751],[0,-2127]]],"transform":{"scale":[6.770067700677216e-7,5.640056400564006e-7],"translate":[77.7787,16.2036]},"objects":{"wards":{"type":"GeometryCollection","geometries":[{"arcs":[[0,1,2]],"type":"Polygon","properties":{"objectid":63287,"statename":"Telanagana","statecode":"36","districtname":"Jogulamba Gadwal","districtcode":"682","ulbname":"Gadwal","ulbcode":"802925","wardname":"1","wardcode":"1","id":null,"status":"APPROVED","misglobalid":null,"approved_by":null,"createdate":1640328189000,"updateddate":1641281384000,"globalid":null,"gisglobalid":"QnaoB665-c5sc-Pd4n-RKK6-s4addQQcc4Rm","remark":"","st_area(shape)":0.00024192200680781106,"st_perimeter(shape)":0.06404145042554409}},{"arcs":[[3,4,5,6,7,-1]],"type":"Polygon","properties":{"objectid":63289,"statename":"Telanagana","statecode":"36","districtname":"Jogulamba Gadwal","districtcode":"682","ulbname":"Gadwal","ulbcode":"802925","wardname":"2","wardcode":"2","id":null,"status":"APPROVED","misglobalid":null,"approved_by":null,"createdate":1640328189000,"updateddate":1641281391000,"globalid":null,"gisglobalid":"sBQlQoca-cBR6-Pnl6-slcK-6B6B4RnlnB66","remark":"","st_area(shape)":0.00008360399599548068,"st_perimeter(shape)":0.038611119456774874}},{"arcs":[[8,9,10,-5]],"type":"Polygon","properties":{"objectid":63677,"statename":"Telanagana","statecode":"36","districtname":"Jogulamba Gadwal","districtcode":"682","ulbname":"Gadwal","ulbcode":"802925","wardname":"3","wardcode":"3","id":null,"status":"APPROVED","misglobalid":null,"approved_by":null,"createdate":1640328189000,"updateddate":1641281397000,"globalid":null,"gisglobalid":"P4PQsPcQ-sRl6-P6Rc-Rdad-KPacBPBlRmPs","remark":"","st_area(shape)":0.00013352047076187234,"st_perimeter(shape)":0.0592721678074906}},{"arcs":[[11,12,-10]],"type":"Polygon","properties":{"objectid":64492,"statename":"Telanagana","statecode":"36","districtname":"Jogulamba Gadwal","districtcode":"682","ulbname":"Gadwal","ulbcode":"802925","wardname":"4","wardcode":"4","id":null,"status":"APPROVED","misglobalid":null,"approved_by":null,"createdate":1640328189000,"updateddate":1641281413000,"globalid":null,"gisglobalid":"dBBQPcQ4-R6RK-Po5d-a6Kl-onmQndKo4BRR","remark":"","st_area(shape)":0.00043120385572047203,"st_perimeter(shape)":0.08364127354821903}},{"arcs":[[13,14,-13]],"type":"Polygon","properties":{"objectid":63290,"statename":"Telanagana","statecode":"36","districtname":"Jogulamba Gadwal","districtcode":"682","ulbname":"Gadwal","ulbcode":"802925","wardname":"5","wardcode":"5","id":null,"status":"APPROVED","misglobalid":null,"approved_by":null,"createdate":1640328189000,"updateddate":1641281424000,"globalid":null,"gisglobalid":"nsaB4sal-Q5mP-PcBR-QocB-maRoomnclQ5s","remark":"","st_area(shape)":0.00008147846020900928,"st_perimeter(shape)":0.042991266782339124}},{"arcs":[[-11,-15,15,16,17,18,19,20,21,-6]],"type":"Polygon","properties":{"objectid":64493,"statename":"Telanagana","statecode":"36","districtname":"Jogulamba Gadwal","districtcode":"682","ulbname":"Gadwal","ulbcode":"802925","wardname":"6","wardcode":"6","id":null,"status":"APPROVED","misglobalid":null,"approved_by":null,"createdate":1640328189000,"updateddate":1641281430000,"globalid":null,"gisglobalid":"s4BsBPPl-lsRP-PcRm-QQ45-BmcQ4RmQm4cn","remark":"","st_area(shape)":0.00021225607272389773,"st_perimeter(shape)":0.07538071511787972}},{"arcs":[[22,23,24,-17]],"type":"Polygon","properties":{"objectid":64489,"statename":"Telanagana","statecode":"36","districtname":"Jogulamba Gadwal","districtcode":"682","ulbname":"Gadwal","ulbcode":"802925","wardname":"7","wardcode":"7","id":null,"status":"APPROVED","misglobalid":null,"approved_by":null,"createdate":1640328189000,"updateddate":1641281438000,"globalid":null,"gisglobalid":"do65s6QP-P5Pn-Pm4d-anan-Q6nndRoammPl","remark":"","st_area(shape)":0.00021716390657904535,"st_perimeter(shape)":0.057113147882181185}},{"arcs":[[25,26,-24,27,28,29]],"type":"Polygon","properties":{"objectid":64079,"statename":"Telanagana","statecode":"36","districtname":"Jogulamba Gadwal","districtcode":"682","ulbname":"Gadwal","ulbcode":"802925","wardname":"8","wardcode":"8","id":null,"status":"APPROVED","misglobalid":null,"approved_by":null,"createdate":1640328189000,"updateddate":1641281444000,"globalid":null,"gisglobalid":"PRRcKBnR-nlPQ-P6KB-Qoc4-6ao56mooRmQK","remark":"","st_area(shape)":0.00009071406861047428,"st_perimeter(shape)":0.03766302385163715}},{"arcs":[[30,-29,31,32,33,34]],"type":"Polygon","properties":{"objectid":60896,"statename":"Telanagana","statecode":"36","districtname":"Jogulamba Gadwal","districtcode":"682","ulbname":"Gadwal","ulbcode":"802925","wardname":"9","wardcode":"9","id":null,"status":"APPROVED","misglobalid":null,"approved_by":null,"createdate":1640328189000,"updateddate":1641281450000,"globalid":null,"gisglobalid":"lodd5nds-n5B4-PRlB-asP4-Q5doddcR4cQc","remark":"","st_area(shape)":0.000048183349477230855,"st_perimeter(shape)":0.03779851323413395}},{"arcs":[[35,36,-33]],"type":"Polygon","properties":{"objectid":63286,"statename":"Telanagana","statecode":"36","districtname":"Jogulamba Gadwal","districtcode":"682","ulbname":"Gadwal","ulbcode":"802925","wardname":"10","wardcode":"10","id":null,"status":"APPROVED","misglobalid":null,"approved_by":null,"createdate":1640328189000,"updateddate":1641281456000,"globalid":null,"gisglobalid":"nPmmKldR-a4PB-PcPB-RdQs-6Pmsss65BQRR","remark":"","st_area(shape)":0.00003202290033812012,"st_perimeter(shape)":0.02849194441672002}},{"arcs":[[37,38,39,-34,-37,40,41]],"type":"Polygon","properties":{"objectid":63679,"statename":"Telanagana","statecode":"36","districtname":"Jogulamba Gadwal","districtcode":"682","ulbname":"Gadwal","ulbcode":"802925","wardname":"11","wardcode":"11","id":null,"status":"APPROVED","misglobalid":null,"approved_by":null,"createdate":1640328189000,"updateddate":1641281465000,"globalid":null,"gisglobalid":"QKQlB6Kl-smsn-PcKn-sKlP-4Q4Klloc6mRR","remark":"","st_area(shape)":0.00005871005401032803,"st_perimeter(shape)":0.0399396156972424}},{"arcs":[[42,43,44,45,-42,46,47]],"type":"Polygon","properties":{"objectid":60521,"statename":"Telanagana","statecode":"36","districtname":"Jogulamba Gadwal","districtcode":"682","ulbname":"Gadwal","ulbcode":"802925","wardname":"12","wardcode":"12","id":null,"status":"APPROVED","misglobalid":null,"approved_by":null,"createdate":1640328189000,"updateddate":1641281472000,"globalid":null,"gisglobalid":"adcnBsBB-adQl-PKcl-sQdc-daa6Q6QK44PQ","remark":"","st_area(shape)":0.000011684042750740788,"st_perimeter(shape)":0.017987758001871097}},{"arcs":[[48,49,-44,50]],"type":"Polygon","properties":{"objectid":62882,"statename":"Telanagana","statecode":"36","districtname":"Jogulamba Gadwal","districtcode":"682","ulbname":"Gadwal","ulbcode":"802925","wardname":"13","wardcode":"13","id":null,"status":"APPROVED","misglobalid":null,"approved_by":null,"createdate":1640328189000,"updateddate":1641281482000,"globalid":null,"gisglobalid":"nlQdQK54-dold-PP66-s5R4-ds66mdRRmRBl","remark":"","st_area(shape)":0.0000039300008565903,"st_perimeter(shape)":0.008349620965898825}},{"arcs":[[51,52,-51,-43,53]],"type":"Polygon","properties":{"objectid":63292,"statename":"Telanagana","statecode":"36","districtname":"Jogulamba Gadwal","districtcode":"682","ulbname":"Gadwal","ulbcode":"802925","wardname":"14","wardcode":"14","id":null,"status":"APPROVED","misglobalid":null,"approved_by":null,"createdate":1640328189000,"updateddate":1641281490000,"globalid":null,"gisglobalid":"PlBKQon5-dnB5-PRca-RlBR-Kcd4QBPaQdoK","remark":"","st_area(shape)":0.000008961641213572229,"st_perimeter(shape)":0.016596686041127438}},{"arcs":[[54,-54,-48,55]],"type":"Polygon","properties":{"objectid":60898,"statename":"Telanagana","statecode":"36","districtname":"Jogulamba Gadwal","districtcode":"682","ulbname":"Gadwal","ulbcode":"802925","wardname":"15","wardcode":"15","id":null,"status":"APPROVED","misglobalid":null,"approved_by":null,"createdate":1640328189000,"updateddate":1641281498000,"globalid":null,"gisglobalid":"clKcddQs-alBs-PoaR-so4m-4smBR4B4nsn4","remark":"","st_area(shape)":0.000023215722665732652,"st_perimeter(shape)":0.02066937552274242}},{"arcs":[[56,57,58,59,60,-52,-55,61]],"type":"Polygon","properties":{"objectid":60523,"statename":"Telanagana","statecode":"36","districtname":"Jogulamba Gadwal","districtcode":"682","ulbname":"Gadwal","ulbcode":"802925","wardname":"16","wardcode":"16","id":null,"status":"APPROVED","misglobalid":null,"approved_by":null,"createdate":1640328189000,"updateddate":1641281504000,"globalid":null,"gisglobalid":"6anaBBdR-Pac6-P6a5-QKBm-dmaKmdslcQ5s","remark":"","st_area(shape)":0.000049500865711332174,"st_perimeter(shape)":0.03219854812514286}},{"arcs":[[-8,62,-57,63,-2]],"type":"Polygon","properties":{"objectid":64490,"statename":"Telanagana","statecode":"36","districtname":"Jogulamba Gadwal","districtcode":"682","ulbname":"Gadwal","ulbcode":"802925","wardname":"17","wardcode":"17","id":null,"status":"APPROVED","misglobalid":null,"approved_by":null,"createdate":1640328189000,"updateddate":1641281511000,"globalid":null,"gisglobalid":"l5Qmnlla-nsRB-PBns-aBRo-4oPmR6RnsdlR","remark":"","st_area(shape)":0.00020840263023428045,"st_perimeter(shape)":0.07658652890250185}},{"arcs":[[-7,64,65,-63]],"type":"Polygon","properties":{"objectid":60897,"statename":"Telanagana","statecode":"36","districtname":"Jogulamba Gadwal","districtcode":"682","ulbname":"Gadwal","ulbcode":"802925","wardname":"18","wardcode":"18","id":null,"status":"APPROVED","misglobalid":null,"approved_by":null,"createdate":1640328189000,"updateddate":1641281519000,"globalid":null,"gisglobalid":"a5aKnR66-o6Rc-PoPo-R5Bo-5ao5dsBdsK4s","remark":"","st_area(shape)":0.00000986799609554006,"st_perimeter(shape)":0.013997068160202585}},{"arcs":[[66,-58,-66]],"type":"Polygon","properties":{"objectid":60522,"statename":"Telanagana","statecode":"36","districtname":"Jogulamba Gadwal","districtcode":"682","ulbname":"Gadwal","ulbcode":"802925","wardname":"19","wardcode":"19","id":null,"status":"APPROVED","misglobalid":null,"approved_by":null,"createdate":1640328189000,"updateddate":1641281529000,"globalid":null,"gisglobalid":"anB5ddQl-lnoP-Pnna-adQ4-KnsldnRsPac6","remark":"","st_area(shape)":0.00000687473170094832,"st_perimeter(shape)":0.011813745345194164}},{"arcs":[[-65,-22,67,68,-67]],"type":"Polygon","properties":{"objectid":60520,"statename":"Telanagana","statecode":"36","districtname":"Jogulamba Gadwal","districtcode":"682","ulbname":"Gadwal","ulbcode":"802925","wardname":"20","wardcode":"20","id":null,"status":"APPROVED","misglobalid":null,"approved_by":null,"createdate":1640328189000,"updateddate":1641281540000,"globalid":null,"gisglobalid":"mnBao5ss-mmKs-PBao-smBc-4PanlcRKPcRK","remark":"","st_area(shape)":0.000031028395670167706,"st_perimeter(shape)":0.022047257332082175}},{"arcs":[[-68,-21,69]],"type":"Polygon","properties":{"objectid":64494,"statename":"Telanagana","statecode":"36","districtname":"Jogulamba Gadwal","districtcode":"682","ulbname":"Gadwal","ulbcode":"802925","wardname":"21","wardcode":"21","id":null,"status":"APPROVED","misglobalid":null,"approved_by":null,"createdate":1640328189000,"updateddate":1641281553000,"globalid":null,"gisglobalid":"asoPonso-KoKn-Pn5m-scPQ-dcKRsmn5s54m","remark":"","st_area(shape)":0.00001829300021213217,"st_perimeter(shape)":0.01843256598196838}},{"arcs":[[-70,-20,70,71,-59,-69]],"type":"Polygon","properties":{"objectid":64487,"statename":"Telanagana","statecode":"36","districtname":"Jogulamba Gadwal","districtcode":"682","ulbname":"Gadwal","ulbcode":"802925","wardname":"22","wardcode":"22","id":null,"status":"APPROVED","misglobalid":null,"approved_by":null,"createdate":1640328189000,"updateddate":1641281562000,"globalid":null,"gisglobalid":"oRBl6c5d-QBQo-P4dB-ascK-PKdPB45osmBQ","remark":"","st_area(shape)":0.000014206422417540275,"st_perimeter(shape)":0.02025149731761066}},{"arcs":[[72,73,74,75,76,77]],"type":"Polygon","properties":{"objectid":63291,"statename":"Telanagana","statecode":"36","districtname":"Jogulamba Gadwal","districtcode":"682","ulbname":"Gadwal","ulbcode":"802925","wardname":"23","wardcode":"23","id":null,"status":"APPROVED","misglobalid":null,"approved_by":null,"createdate":1640328189000,"updateddate":1641281569000,"globalid":null,"gisglobalid":"aa4nKB64-aaRs-PmRQ-QBQs-aKcPd6m4d4ll","remark":"","st_area(shape)":0.000006963783508897492,"st_perimeter(shape)":0.012682028645357616}},{"arcs":[[-25,-27,78,79,-18]],"type":"Polygon","properties":{"objectid":60528,"statename":"Telanagana","statecode":"36","districtname":"Jogulamba Gadwal","districtcode":"682","ulbname":"Gadwal","ulbcode":"802925","wardname":"24","wardcode":"24","id":null,"status":"APPROVED","misglobalid":null,"approved_by":null,"createdate":1640328189000,"updateddate":1641281578000,"globalid":null,"gisglobalid":"BnQKQQ6P-lBP6-Pa4B-Q5QK-cos4BBsloB4m","remark":"","st_area(shape)":0.000027999076656854144,"st_perimeter(shape)":0.024542339133854996}},{"arcs":[[-77,80,-79,-26,81,82]],"type":"Polygon","properties":{"objectid":63288,"statename":"Telanagana","statecode":"36","districtname":"Jogulamba Gadwal","districtcode":"682","ulbname":"Gadwal","ulbcode":"802925","wardname":"25","wardcode":"25","id":null,"status":"APPROVED","misglobalid":null,"approved_by":null,"createdate":1640328189000,"updateddate":1641281585000,"globalid":null,"gisglobalid":"K6nK5n65-nR6c-Pmn6-R5oR-oP6Q6KdRQQBP","remark":"","st_area(shape)":0.000023070647126368562,"st_perimeter(shape)":0.02466135286498543}},{"arcs":[[83,-82,-30,-31,84]],"type":"Polygon","properties":{"objectid":60899,"statename":"Telanagana","statecode":"36","districtname":"Jogulamba Gadwal","districtcode":"682","ulbname":"Gadwal","ulbcode":"802925","wardname":"26","wardcode":"26","id":null,"status":"APPROVED","misglobalid":null,"approved_by":null,"createdate":1640328189000,"updateddate":1641281593000,"globalid":null,"gisglobalid":"cQP5Q54o-anoc-P6ao-alRl-o5nlKo4m4Rd5","remark":"","st_area(shape)":0.00003024108999494834,"st_perimeter(shape)":0.025380151991534435}},{"arcs":[[-80,-81,-76,85]],"type":"Polygon","properties":{"objectid":60526,"statename":"Telanagana","statecode":"36","districtname":"Jogulamba Gadwal","districtcode":"682","ulbname":"Gadwal","ulbcode":"802925","wardname":"27","wardcode":"27","id":null,"status":"APPROVED","misglobalid":null,"approved_by":null,"createdate":1640328189000,"updateddate":1641281601000,"globalid":null,"gisglobalid":"PR6l5RsQ-Qo5c-Pn4m-QKlc-aQoPsdlQ5don","remark":"","st_area(shape)":0.000008966990528511595,"st_perimeter(shape)":0.014404173080911045}},{"arcs":[[-85,-35,-40,86]],"type":"Polygon","properties":{"objectid":60527,"statename":"Telanagana","statecode":"36","districtname":"Jogulamba Gadwal","districtcode":"682","ulbname":"Gadwal","ulbcode":"802925","wardname":"28","wardcode":"28","id":null,"status":"APPROVED","misglobalid":null,"approved_by":null,"createdate":1640328189000,"updateddate":1641281612000,"globalid":null,"gisglobalid":"mKRmRo4m-Bd4P-Pm4K-ad6P-lRs5KmsPPdaP","remark":"","st_area(shape)":0.000007334985921610494,"st_perimeter(shape)":0.010669988635821573}},{"arcs":[[-84,-87,-39,87]],"type":"Polygon","properties":{"objectid":60895,"statename":"Telanagana","statecode":"36","districtname":"Jogulamba Gadwal","districtcode":"682","ulbname":"Gadwal","ulbcode":"802925","wardname":"29","wardcode":"29","id":null,"status":"APPROVED","misglobalid":null,"approved_by":null,"createdate":1640328189000,"updateddate":1641281621000,"globalid":null,"gisglobalid":"maslnlPB-B6md-P64Q-QQn6-PaRKmBoP56ol","remark":"","st_area(shape)":0.000005085684114280681,"st_perimeter(shape)":0.010909964677319217}},{"arcs":[[88,-78,-83,-88,-38,-46]],"type":"Polygon","properties":{"objectid":63285,"statename":"Telanagana","statecode":"36","districtname":"Jogulamba Gadwal","districtcode":"682","ulbname":"Gadwal","ulbcode":"802925","wardname":"30","wardcode":"30","id":null,"status":"APPROVED","misglobalid":null,"approved_by":null,"createdate":1640328189000,"updateddate":1641281632000,"globalid":null,"gisglobalid":"Q5BanKRm-Ko6R-PmoP-a444-R46QPBPam5Pl","remark":"","st_area(shape)":0.000007542495247566001,"st_perimeter(shape)":0.014359976876588642}},{"arcs":[[-50,89,90,-73,-89,-45]],"type":"Polygon","properties":{"objectid":60524,"statename":"Telanagana","statecode":"36","districtname":"Jogulamba Gadwal","districtcode":"682","ulbname":"Gadwal","ulbcode":"802925","wardname":"31","wardcode":"31","id":null,"status":"APPROVED","misglobalid":null,"approved_by":null,"createdate":1640328189000,"updateddate":1641281645000,"globalid":null,"gisglobalid":"nKld5cdm-mPo4-PRn5-s5os-RKlP5QPPs4mP","remark":"","st_area(shape)":0.000008162210608603995,"st_perimeter(shape)":0.014457846550607997}},{"arcs":[[91,-74,-91,92]],"type":"Polygon","properties":{"objectid":64488,"statename":"Telanagana","statecode":"36","districtname":"Jogulamba Gadwal","districtcode":"682","ulbname":"Gadwal","ulbcode":"802925","wardname":"32","wardcode":"32","id":null,"status":"APPROVED","misglobalid":null,"approved_by":null,"createdate":1640328189000,"updateddate":1641281653000,"globalid":null,"gisglobalid":"dBaQRmc5-B5R6-PRa5-Q4nR-sRc5BnmRdR6K","remark":"","st_area(shape)":0.000005514385363040705,"st_perimeter(shape)":0.010787810796789081}},{"arcs":[[93,-71,-19,-86,-75,-92,94]],"type":"Polygon","properties":{"objectid":60519,"statename":"Telanagana","statecode":"36","districtname":"Jogulamba Gadwal","districtcode":"682","ulbname":"Gadwal","ulbcode":"802925","wardname":"33","wardcode":"33","id":null,"status":"APPROVED","misglobalid":null,"approved_by":null,"createdate":1640328189000,"updateddate":1641281660000,"globalid":null,"gisglobalid":"sl4mBl5P-cKnB-PKB6-a5K6-alma6ndB4oKd","remark":"","st_area(shape)":0.000006681109619002543,"st_perimeter(shape)":0.020158284651152075}},{"arcs":[[95,96,-93,-90,-49,-53]],"type":"Polygon","properties":{"objectid":64491,"statename":"Telanagana","statecode":"36","districtname":"Jogulamba Gadwal","districtcode":"682","ulbname":"Gadwal","ulbcode":"802925","wardname":"34","wardcode":"34","id":null,"status":"APPROVED","misglobalid":null,"approved_by":null,"createdate":1640328189000,"updateddate":1641281692000,"globalid":null,"gisglobalid":"45nd6Q5R-a546-Pnlo-RlKs-RsPmsBPBKmPd","remark":"","st_area(shape)":0.000004514838857836602,"st_perimeter(shape)":0.008839775437186776}},{"arcs":[[97,98,-96,-61]],"type":"Polygon","properties":{"objectid":60525,"statename":"Telanagana","statecode":"36","districtname":"Jogulamba Gadwal","districtcode":"682","ulbname":"Gadwal","ulbcode":"802925","wardname":"35","wardcode":"35","id":null,"status":"APPROVED","misglobalid":null,"approved_by":null,"createdate":1640328189000,"updateddate":1641281701000,"globalid":null,"gisglobalid":"P446ocn5-lmnl-PcsQ-aR5m-laQmlssm5nK4","remark":"","st_area(shape)":0.000002773782526190395,"st_perimeter(shape)":0.007183919833043585}},{"arcs":[[99,-95,-97,-99]],"type":"Polygon","properties":{"objectid":60900,"statename":"Telanagana","statecode":"36","districtname":"Jogulamba Gadwal","districtcode":"682","ulbname":"Gadwal","ulbcode":"802925","wardname":"36","wardcode":"36","id":null,"status":"APPROVED","misglobalid":null,"approved_by":null,"createdate":1640328189000,"updateddate":1641281710000,"globalid":null,"gisglobalid":"nBaaRnlB-4ls4-PnKK-aBsn-BPn4cR6lRPPc","remark":"","st_area(shape)":0.000001951327819832996,"st_perimeter(shape)":0.005936810722077812}},{"arcs":[[-72,-94,-100,-98,-60]],"type":"Polygon","properties":{"objectid":63678,"statename":"Telanagana","statecode":"36","districtname":"Jogulamba Gadwal","districtcode":"682","ulbname":"Gadwal","ulbcode":"802925","wardname":"37","wardcode":"37","id":null,"status":"APPROVED","misglobalid":null,"approved_by":null,"createdate":1640328189000,"updateddate":1641281720000,"globalid":null,"gisglobalid":"oannQnBd-6Bom-PQQs-aPcB-sPcds5oPccsQ","remark":"","st_area(shape)":0.000013320185966343939,"st_perimeter(shape)":0.015047992183046007}}]}}}