{"type": "FeatureCollection", "features": [{"type": "Feature", "geometry": {"type": "Polygon", "coordinates": [[[74.4314, 34.0605], [74.4296, 34.0598], [74.4284, 34.0595], [74.4281, 34.0594], [74.4275, 34.0597], [74.4269, 34.0605], [74.4268, 34.0605], [74.426, 34.0602], [74.4257, 34.0605], [74.425, 34.0614], [74.4253, 34.0618], [74.4257, 34.0622], [74.4261, 34.0627], [74.4264, 34.0633], [74.4268, 34.0638], [74.4274, 34.0642], [74.4278, 34.064], [74.4282, 34.0639], [74.429, 34.0636], [74.4297, 34.0634], [74.43, 34.0633], [74.4307, 34.0631], [74.4309, 34.0626], [74.4317, 34.0611], [74.4319, 34.0607], [74.4314, 34.0605]]]}, "properties": {"objectid": 96713, "statename": "Jammu And Kashmir", "statecode": "1", "districtname": "Baramulla", "districtcode": "8", "ulbname": "Municipal Committee Tangmarg/Gulmarg", "ulbcode": "800009", "wardname": "Hospital Ward Tangmarg ", "wardcode": "1", "id": null, "status": "APPROVED", "misglobalid": null, "approved_by": null, "createdate": 1643220789000, "updateddate": 1643444854000, "globalid": null, "gisglobalid": "csRBKPnl-KnsQ-PBdK-smQ6-5doPmK6d4d54", "remark": "", "st_area(shape)": 2.043958827481095e-05, "st_perimeter(shape)": 0.018125098194405293}}, {"type": "Feature", "geometry": {"type": "Polygon", "coordinates": [[[74.424, 34.0581], [74.4232, 34.0577], [74.4221, 34.0571], [74.4215, 34.0569], [74.4204, 34.0569], [74.4198, 34.057], [74.42, 34.0578], [74.4202, 34.0591], [74.4205, 34.059], [74.4203, 34.058], [74.4203, 34.0577], [74.4205, 34.0577], [74.4223, 34.0588], [74.4228, 34.059], [74.4234, 34.0594], [74.4238, 34.0598], [74.4249, 34.0613], [74.4252, 34.0609], [74.4255, 34.0608], [74.4257, 34.0604], [74.426, 34.06], [74.4267, 34.0604], [74.4271, 34.06], [74.4273, 34.0598], [74.4276, 34.0596], [74.4276, 34.0593], [74.427, 34.0592], [74.426, 34.0589], [74.4259, 34.0589], [74.4256, 34.0587], [74.4247, 34.0584], [74.4242, 34.0581], [74.424, 34.0581]]]}, "properties": {"objectid": 96358, "statename": "Jammu And Kashmir", "statecode": "1", "districtname": "Baramulla", "districtcode": "8", "ulbname": "Municipal Committee Tangmarg/Gulmarg", "ulbcode": "800009", "wardname": "Market Ward Tangmarg ", "wardcode": "2", "id": null, "status": "APPROVED", "misglobalid": null, "approved_by": null, "createdate": 1643221578000, "updateddate": 1643444903000, "globalid": null, "gisglobalid": "nssnsmsK-d4ns-PBaa-Rs5l-PnK6KlcR6Rc5", "remark": "", "st_area(shape)": 1.1818627049711184e-05, "st_perimeter(shape)": 0.022045129563747243}}, {"type": "Feature", "geometry": {"type": "Polygon", "coordinates": [[[74.3957, 34.05], [74.3954, 34.0503], [74.3949, 34.0509], [74.3929, 34.0516], [74.3886, 34.0524], [74.3863, 34.053], [74.3872, 34.0543], [74.3932, 34.0609], [74.3948, 34.0612], [74.3956, 34.0614], [74.3962, 34.0614], [74.3969, 34.0613], [74.3974, 34.0613], [74.3978, 34.0614], [74.4011, 34.0611], [74.402, 34.0606], [74.4024, 34.06], [74.4026, 34.059], [74.4026, 34.0583], [74.4029, 34.0579], [74.4023, 34.0576], [74.4028, 34.0572], [74.4026, 34.0562], [74.4025, 34.0558], [74.4027, 34.0555], [74.4021, 34.055], [74.4022, 34.0551], [74.4017, 34.0547], [74.4012, 34.0542], [74.4005, 34.0539], [74.401, 34.0533], [74.3998, 34.051], [74.3987, 34.0495], [74.3976, 34.0489], [74.3975, 34.0489], [74.397, 34.0472], [74.3969, 34.0469], [74.3968, 34.046], [74.3967, 34.0456], [74.3967, 34.0448], [74.3966, 34.0453], [74.3965, 34.0454], [74.3965, 34.0456], [74.3966, 34.0464], [74.3969, 34.0476], [74.3975, 34.0489], [74.3973, 34.049], [74.3966, 34.0492], [74.3962, 34.0499], [74.3959, 34.0498], [74.3957, 34.05]]]}, "properties": {"objectid": 96360, "statename": "Jammu And Kashmir", "statecode": "1", "districtname": "Baramulla", "districtcode": "8", "ulbname": "Municipal Committee Tangmarg/Gulmarg", "ulbcode": "800009", "wardname": "Market Ward Gulmarg ", "wardcode": "3", "id": null, "status": "APPROVED", "misglobalid": null, "approved_by": null, "createdate": 1643225974000, "updateddate": 1643444920000, "globalid": null, "gisglobalid": "sBKscKaa-K66K-PamR-RQQK-6mBamanP44c6", "remark": "", "st_area(shape)": 0.00012820516483365494, "st_perimeter(shape)": 0.055956084674847265}}, {"type": "Feature", "geometry": {"type": "Polygon", "coordinates": [[[74.3829, 34.0516], [74.3866, 34.0527], [74.3949, 34.0508], [74.3958, 34.0498], [74.3948, 34.0485], [74.3929, 34.0483], [74.3922, 34.0479], [74.3898, 34.0474], [74.3885, 34.0469], [74.3878, 34.0464], [74.3872, 34.0465], [74.3869, 34.0456], [74.3862, 34.0433], [74.3853, 34.0427], [74.3844, 34.0426], [74.3844, 34.0431], [74.3844, 34.0437], [74.3847, 34.0444], [74.3837, 34.0452], [74.3827, 34.0445], [74.381, 34.045], [74.381, 34.0443], [74.3809, 34.0439], [74.3806, 34.044], [74.3801, 34.0444], [74.3794, 34.0459], [74.3795, 34.0465], [74.3782, 34.0483], [74.3802, 34.0492], [74.3815, 34.0501], [74.3816, 34.0505], [74.3819, 34.0513], [74.3829, 34.0516]]]}, "properties": {"objectid": 97163, "statename": "Jammu And Kashmir", "statecode": "1", "districtname": "Baramulla", "districtcode": "8", "ulbname": "Municipal Committee Tangmarg/Gulmarg", "ulbcode": "800009", "wardname": "Gondola Ward Gulmarg ", "wardcode": "4", "id": null, "status": "APPROVED", "misglobalid": null, "approved_by": null, "createdate": 1643226075000, "updateddate": 1643444964000, "globalid": null, "gisglobalid": "4Kl6cdlB-R4Bm-Pldm-RmBR-RaQlP6aaB4oK", "remark": "", "st_area(shape)": 8.739517591501759e-05, "st_perimeter(shape)": 0.04720517242164438}}, {"type": "Feature", "geometry": {"type": "Polygon", "coordinates": [[[74.3815, 34.0518], [74.3794, 34.0568], [74.3771, 34.058], [74.3764, 34.0602], [74.3729, 34.0608], [74.3718, 34.0622], [74.3699, 34.0636], [74.3714, 34.0637], [74.3775, 34.0657], [74.379, 34.0664], [74.3795, 34.0665], [74.3816, 34.0643], [74.3823, 34.0635], [74.3836, 34.0619], [74.3834, 34.0608], [74.3829, 34.06], [74.3841, 34.0591], [74.3845, 34.0597], [74.3851, 34.0585], [74.3857, 34.0593], [74.3874, 34.061], [74.3884, 34.0616], [74.3909, 34.0612], [74.3929, 34.0612], [74.3923, 34.0606], [74.3876, 34.0553], [74.3875, 34.0549], [74.3857, 34.0529], [74.3839, 34.0523], [74.3815, 34.0518]]]}, "properties": {"objectid": 93928, "statename": "Jammu And Kashmir", "statecode": "1", "districtname": "Baramulla", "districtcode": "8", "ulbname": "Municipal Committee Tangmarg/Gulmarg", "ulbcode": "800009", "wardname": "Club To Royal Park Ward Gulmarg", "wardcode": "5", "id": null, "status": "APPROVED", "misglobalid": null, "approved_by": null, "createdate": 1643226152000, "updateddate": 1643445067000, "globalid": null, "gisglobalid": "dBaPlssa-llRo-PBBl-ad6Q-5oQl5s5sc6B5", "remark": "", "st_area(shape)": 0.00013156214106036768, "st_perimeter(shape)": 0.06449470024154542}}]}
