{"type":"Topology","arcs":[[[43408,27483],[-643,0]],[[42765,27483],[-322,331]],[[42443,27814],[-321,0]],[[42122,27814],[-322,331]],[[41800,28145],[-321,0]],[[41479,28145],[-643,332]],[[40836,28477],[-643,0]],[[40193,28477],[-1608,331]],[[38585,28808],[0,662]],[[38585,29470],[321,662]],[[38906,30132],[0,331]],[[38906,30463],[-643,331]],[[38263,30794],[322,663]],[[38585,31457],[321,331]],[[38906,31788],[322,662]],[[39228,32450],[321,0]],[[39549,32450],[322,0]],[[39871,32450],[0,331]],[[39871,32781],[322,331]],[[40193,33112],[643,994]],[[40836,34106],[321,331]],[[41157,34437],[0,331]],[[41157,34768],[322,331]],[[41479,35099],[0,331]],[[41479,35430],[321,331]],[[41800,35761],[0,331]],[[41800,36092],[322,663]],[[42122,36755],[321,331]],[[42443,37086],[-2250,662]],[[40193,37748],[0,331],[0,331]],[[40193,38410],[4823,-662]],[[45016,37748],[-643,-993]],[[44373,36755],[-322,-663]],[[44051,36092],[-322,-331]],[[43729,35761],[0,-331]],[[43729,35430],[-321,-331]],[[43408,35099],[-322,-662]],[[43086,34437],[-964,-1325]],[[42122,33112],[1607,-662],[0,-4967]],[[43729,27483],[-321,0]],[[40193,33112],[-322,-331]],[[39871,32450],[-322,0]],[[39549,32450],[-321,0]],[[38906,31788],[-321,-331]],[[38263,30794],[643,-331]],[[38906,30132],[-321,-662]],[[38585,29470],[0,-662]],[[38585,28808],[-2251,993]],[[36334,29801],[643,662]],[[36977,30463],[322,994]],[[37299,31457],[0,331]],[[37299,31788],[-322,0]],[[37299,31788],[643,2649]],[[37942,34437],[321,331]],[[38263,34768],[0,331]],[[38263,35099],[322,331]],[[38585,35430],[643,993]],[[39228,36423],[321,332]],[[39549,36755],[322,662]],[[39871,37417],[322,331]],[[42443,37086],[-321,-331]],[[42122,36755],[-322,-663]],[[41800,35761],[-321,-331]],[[41479,35099],[-322,-331]],[[41157,34437],[-321,-331]],[[31832,28808],[322,-331]],[[32154,28477],[1286,331]],[[33440,28808],[643,0]],[[34083,28808],[1286,0]],[[35369,28808],[4824,-331]],[[40836,28477],[643,-332]],[[41800,28145],[322,-331]],[[42443,27814],[322,-331]],[[43408,27483],[321,-331]],[[43729,27152],[0,-331]],[[43729,26821],[-321,-331]],[[43408,26490],[-6431,331]],[[36977,26821],[-643,0]],[[36334,26821],[-2572,-331]],[[33762,26490],[-3537,-662]],[[30225,25828],[-2251,-332]],[[27974,25496],[-9646,0],[-8360,663],[-965,1986],[10289,3974]],[[19292,32119],[2894,-331],[2573,-3311],[2893,-663],[4180,994]],[[20900,91059],[322,662]],[[21222,91721],[964,1656]],[[22186,93377],[322,0]],[[22508,93377],[321,0]],[[22829,93377],[643,662]],[[23472,94039],[644,0]],[[24116,94039],[643,-331]],[[24759,93708],[321,0]],[[25080,93708],[322,331]],[[25402,94039],[321,331]],[[25723,94370],[643,331]],[[26366,94701],[322,0]],[[26688,94701],[643,-662]],[[27331,94039],[321,-662]],[[27652,93377],[322,0]],[[27974,93377],[322,-663]],[[28296,92714],[321,-331]],[[28617,92383],[0,-331]],[[28617,92052],[322,0]],[[28617,92052],[0,-331]],[[28617,91721],[0,-331]],[[28617,91390],[643,-662]],[[29260,90728],[3537,-4305]],[[32797,86423],[1929,-1987]],[[34726,84436],[1608,-1655],[-2572,-21523],[-15113,11920],[-643,11258],[2573,1987],[321,4636]],[[36977,30463],[-643,-662]],[[36334,29801],[-965,-993]],[[35369,28808],[-1286,0]],[[34083,28808],[-643,0]],[[33440,28808],[-1286,-331]],[[32154,28477],[-322,331]],[[19292,32119],[15756,5960],[5145,331]],[[40193,38410],[-322,-993]],[[39871,37417],[-322,-662]],[[39549,36755],[-321,-332]],[[38585,35430],[-322,-331]],[[38263,34768],[-321,-331]],[[36977,31788],[322,-331]],[[36977,26821],[5788,-993]],[[42765,25828],[-322,-663]],[[42443,25165],[-643,-993]],[[41800,24172],[-2251,-3642]],[[39549,20530],[-321,-332]],[[39228,20198],[-322,-662]],[[38906,19536],[-643,-993]],[[38263,18543],[-1607,-2649]],[[36656,15894],[-1608,-2649]],[[35048,13245],[-1929,-2649],[-3216,3311]],[[29903,13907],[965,1656]],[[30868,15563],[1286,2980]],[[32154,18543],[-643,331]],[[31511,18874],[1929,2649]],[[33440,21523],[643,-331]],[[34083,21192],[322,0]],[[34405,21192],[0,331]],[[34405,21523],[-322,331]],[[34083,21854],[0,331]],[[34083,22185],[322,331]],[[34405,22516],[321,663]],[[34726,23179],[322,662]],[[35048,23841],[0,331]],[[35048,24172],[321,662]],[[35369,24834],[644,331]],[[36013,25165],[321,331]],[[36334,25496],[0,1325]],[[49517,45033],[-2251,-3974]],[[47266,41059],[-321,-331]],[[46945,40728],[-322,-662]],[[46623,40066],[-643,-994]],[[45980,39072],[-11254,-331],[-18006,-6622],[-9968,-3974],[-6752,-993],[10611,11258],[-1929,1325],[1286,3973],[-4823,994],[-965,-2649],[-4180,1655],[3215,4636],[5788,4967],[4502,8940],[3858,4305],[26688,-12252],[10611,-3311],[-5145,-5960]],[[28939,92052],[-322,331]],[[28617,92383],[-321,331]],[[28296,92714],[-322,663]],[[27652,93377],[-321,662]],[[26688,94701],[0,331]],[[26688,95032],[643,662]],[[27331,95694],[321,663]],[[27652,96357],[322,993]],[[27974,97350],[322,331]],[[28296,97681],[0,331]],[[28296,98012],[321,331]],[[28617,98343],[-321,0]],[[28296,98343],[-322,332]],[[27974,98675],[-322,331]],[[27652,99006],[644,0]],[[28296,99006],[7717,-4967],[-322,-2980],[2251,-4967],[-3216,-1656]],[[34726,84436],[-1929,1987]],[[29260,90728],[-643,662]],[[28617,91390],[0,331]],[[28617,91721],[322,331]],[[43408,26490],[3537,-1325]],[[46945,25165],[-1929,-6622]],[[45016,18543],[-2894,-9934]],[[42122,8609],[0,-331]],[[42122,8278],[2572,-4636],[-5145,-3642],[-8360,6954],[3859,6291]],[[35048,13245],[1608,2649]],[[36656,15894],[1607,2649]],[[38263,18543],[643,993]],[[38906,19536],[322,662]],[[39549,20530],[2251,3642]],[[41800,24172],[643,993]],[[42443,25165],[322,663]],[[42765,25828],[643,662]],[[45980,39072],[643,994]],[[46623,40066],[322,662]],[[46945,40728],[321,331]],[[47266,41059],[2251,3974]],[[49517,45033],[5466,5629],[21544,-8609],[8038,10595],[8682,10265],[6752,-6291],[-8039,-11920],[-7716,-7947],[2893,-1987],[9004,-8278],[-965,-662],[-23151,1986],[-7717,2318],[-11254,4967],[-7074,3973]],[[42122,33112],[964,1325]],[[43086,34437],[322,662]],[[43408,35099],[321,331]],[[43729,35761],[322,331]],[[44051,36092],[322,663]],[[44373,36755],[643,993]],[[45016,37748],[15112,-6291],[3858,-1987],[8682,-2649],[7717,-331],[4823,-1325]],[[85208,25165],[-19292,-331]],[[65916,24834],[-12219,994]],[[53697,25828],[-643,0]],[[53054,25828],[-3215,331]],[[49839,26159],[-322,0]],[[49517,26159],[-643,0]],[[48874,26159],[-321,0]],[[48553,26159],[-644,0]],[[47909,26159],[-321,0]],[[47588,26159],[-3859,662]],[[43729,27152],[0,331]],[[70096,662],[-1286,-331],[-20257,6291],[-2894,-3311],[-3537,4967]],[[42122,8609],[2894,9934]],[[45016,18543],[1929,6622]],[[46945,25165],[643,994]],[[47909,26159],[644,0]],[[48874,26159],[643,0]],[[49839,26159],[3215,-331]],[[53054,25828],[643,0]],[[53697,25828],[12219,-994]],[[65916,24834],[10611,-662],[8681,993]],[[85208,25165],[4502,0],[-3537,-9271],[-5788,993],[-7074,-13576],[-3215,-2649]],[[26366,94701],[-643,-331]],[[25723,94370],[-321,-331]],[[25402,94039],[-322,-331]],[[24759,93708],[-643,331]],[[24116,94039],[-322,331]],[[23794,94370],[-322,662]],[[23472,95032],[-321,331]],[[23151,95363],[-322,331]],[[22829,95694],[322,663]],[[23151,96357],[965,-331]],[[24116,96026],[321,662]],[[24437,96688],[322,331]],[[24759,97019],[643,662]],[[25402,97681],[321,662]],[[25723,98343],[0,994]],[[25723,99337],[1929,-331]],[[27652,99006],[322,-331]],[[27974,98675],[322,-332]],[[28617,98343],[-321,-331]],[[28296,97681],[-322,-331]],[[27652,96357],[-321,-663]],[[26688,95032],[-322,-331]],[[36334,25496],[-321,-331]],[[35369,24834],[-321,-662]],[[35048,23841],[-322,-662]],[[34726,23179],[-321,-663]],[[34405,22516],[-322,-331]],[[34083,22185],[0,-331]],[[34083,21854],[322,-331]],[[34405,21523],[0,-331]],[[34083,21192],[-643,331]],[[31511,18874],[643,-331]],[[32154,18543],[-1286,-2980]],[[30868,15563],[-965,-1656]],[[29903,13907],[-5466,-3642],[-8360,1987],[-3215,-1656],[-1287,-2980],[-9324,4636],[1286,3311],[3537,-994],[2894,7947],[321,2980],[3859,-331],[13826,331]],[[27974,25496],[2251,332]],[[30225,25828],[3537,662]],[[33762,26490],[2572,331]],[[25723,98343],[-321,-662]],[[24759,97019],[-322,-331]],[[24437,96688],[-321,-662]],[[24116,96026],[-965,331]],[[22829,95694],[322,-331]],[[23151,95363],[321,-331]],[[23472,95032],[322,-662]],[[23794,94370],[-322,-331]],[[22829,93377],[-321,0]],[[20900,91059],[0,2980],[-2572,1987],[643,3973],[6752,-662]]],"transform":{"scale":[3.110031100310505e-7,3.02003020030207e-7],"translate":[78.4714,27.1158]},"objects":{"wards":{"type":"GeometryCollection","geometries":[{"arcs":[[0,1,2,3,4,5,6,7,8,9,10,11,12,13,14,15,16,17,18,19,20,21,22,23,24,25,26,27,28,29,30,31,32,33,34,35,36,37,38,39]],"type":"Polygon","properties":{"objectid":307761,"statename":"UTTAR PRADESH","statecode":"9","districtname":"FIROZABAD","districtcode":"147","ulbname":"MAKKHANPUR","ulbcode":"900624","wardname":"NAGLA TURKIYA PART-1","wardcode":"1","id":null,"status":"APPROVED","misglobalid":null,"approved_by":null,"createdate":1683869810000,"updateddate":1683869862000,"globalid":null,"gisglobalid":"5sn6oRaP-QaB5-P6R6-aoao-BBdco64BQ4c4","remark":"","st_area(shape)":0.0000030147761054559226,"st_perimeter(shape)":0.011356912701458013}},{"arcs":[[40,-18,41,42,-15,43,-13,44,-11,45,46,47,48,49,50,51,-52,52,53,54,55,56,57,58,59,29,-30,-29,60,61,-26,62,-24,63,-22,64,-20]],"type":"Polygon","properties":{"objectid":307763,"statename":"UTTAR PRADESH","statecode":"9","districtname":"FIROZABAD","districtcode":"147","ulbname":"MAKKHANPUR","ulbcode":"900624","wardname":"NAGLA TURKIYA PART-2","wardcode":"2","id":null,"status":"APPROVED","misglobalid":null,"approved_by":null,"createdate":1683869810000,"updateddate":1683869869000,"globalid":null,"gisglobalid":"smRn5RsQ-BRK4-P5oa-acos-cKR65mosRcKo","remark":"","st_area(shape)":0.000001965006589795423,"st_perimeter(shape)":0.00828585342327306}},{"arcs":[[65,66,67,68,69,-7,70,-5,71,-3,72,-1,73,74,75,76,77,78,79,80,81,82]],"type":"Polygon","properties":{"objectid":306954,"statename":"UTTAR PRADESH","statecode":"9","districtname":"FIROZABAD","districtcode":"147","ulbname":"MAKKHANPUR","ulbcode":"900624","wardname":"AMBEDKAR PARK MOHALLA","wardcode":"3","id":null,"status":"APPROVED","misglobalid":null,"approved_by":null,"createdate":1683869810000,"updateddate":1683869876000,"globalid":null,"gisglobalid":"5dlmsld6-6mcR-PKao-sdRl-nQs6Rlla6sKQ","remark":"","st_area(shape)":0.00001110393685369081,"st_perimeter(shape)":0.028389213716701386}},{"arcs":[[83,84,85,86,87,88,89,90,91,92,93,94,95,96,97,98,99,100,101,-102,102,103,104,105,106,107]],"type":"Polygon","properties":{"objectid":306956,"statename":"UTTAR PRADESH","statecode":"9","districtname":"FIROZABAD","districtcode":"147","ulbname":"MAKKHANPUR","ulbcode":"900624","wardname":"BILTIGARH RAGHOL","wardcode":"4","id":null,"status":"APPROVED","misglobalid":null,"approved_by":null,"createdate":1683869810000,"updateddate":1683869882000,"globalid":null,"gisglobalid":"ndRKBRQs-4KKd-PB4P-amnB-llP5lKmslPdK","remark":"","st_area(shape)":0.00003708731752207717,"st_perimeter(shape)":0.027530340087370528}},{"arcs":[[108,109,110,111,112,113,-83,114,115,116,117,-57,118,-55,119,-53,51,120,-50]],"type":"Polygon","properties":{"objectid":307762,"statename":"UTTAR PRADESH","statecode":"9","districtname":"FIROZABAD","districtcode":"147","ulbname":"MAKKHANPUR","ulbcode":"900624","wardname":"MAKKHANPUR DAKSHIN","wardcode":"5","id":null,"status":"APPROVED","misglobalid":null,"approved_by":null,"createdate":1683869810000,"updateddate":1683869890000,"globalid":null,"gisglobalid":"oocQcsKn-mlBn-P45c-RQdB-Kas5oBnsR54n","remark":"","st_area(shape)":0.00001084107457670553,"st_perimeter(shape)":0.017883876426935237}},{"arcs":[[-78,121,122,123,124,125,126,127,128,129,130,131,132,133,134,135,136,137,138,139,140,141,142,143,144,145,146,147]],"type":"Polygon","properties":{"objectid":306955,"statename":"UTTAR PRADESH","statecode":"9","districtname":"FIROZABAD","districtcode":"147","ulbname":"MAKKHANPUR","ulbcode":"900624","wardname":"BAJEWALI GALI","wardcode":"6","id":null,"status":"APPROVED","misglobalid":null,"approved_by":null,"createdate":1683869810000,"updateddate":1683869897000,"globalid":null,"gisglobalid":"oQKc5446-RR4R-PRKP-aRBd-dondn45anRlR","remark":"","st_area(shape)":0.000008018062414488659,"st_perimeter(shape)":0.014758999270126914}},{"arcs":[[148,149,150,151,152]],"type":"Polygon","properties":{"objectid":304190,"statename":"UTTAR PRADESH","statecode":"9","districtname":"FIROZABAD","districtcode":"147","ulbname":"MAKKHANPUR","ulbcode":"900624","wardname":"GANDHI NAGAR","wardcode":"7","id":null,"status":"APPROVED","misglobalid":null,"approved_by":null,"createdate":1683869810000,"updateddate":1683869909000,"globalid":null,"gisglobalid":"aPKBadPB-Bs5K-PQsd-sPos-PPdcnPdKcooa","remark":"","st_area(shape)":0.0000993876858506793,"st_perimeter(shape)":0.05274124737943572}},{"arcs":[[153,154,155,-98,156,-96,157,158,159,160,161,162,163,164,165,166,167,168,169,-106,170,171,172]],"type":"Polygon","properties":{"objectid":307360,"statename":"UTTAR PRADESH","statecode":"9","districtname":"FIROZABAD","districtcode":"147","ulbname":"MAKKHANPUR","ulbcode":"900624","wardname":"BILTIGARH DEVJEET","wardcode":"8","id":null,"status":"APPROVED","misglobalid":null,"approved_by":null,"createdate":1683869810000,"updateddate":1683869917000,"globalid":null,"gisglobalid":"amsaQdco-5aB6-P45R-RomK-oKQPKKlcQ6Qa","remark":"","st_area(shape)":0.000007496441385028095,"st_perimeter(shape)":0.016363430373450744}},{"arcs":[[173,174,175,176,177,178,179,180,181,-126,182,183,184,185]],"type":"Polygon","properties":{"objectid":307361,"statename":"UTTAR PRADESH","statecode":"9","districtname":"FIROZABAD","districtcode":"147","ulbname":"MAKKHANPUR","ulbcode":"900624","wardname":"NARAYAN BASTI","wardcode":"9","id":null,"status":"APPROVED","misglobalid":null,"approved_by":null,"createdate":1683869810000,"updateddate":1683869924000,"globalid":null,"gisglobalid":"5sQmnncn-aPnl-PRnR-RKnP-KPoaa6QdRPla","remark":"","st_area(shape)":0.00001753083862882111,"st_perimeter(shape)":0.021472585627713918}},{"arcs":[[186,187,188,189,190]],"type":"Polygon","properties":{"objectid":307362,"statename":"UTTAR PRADESH","statecode":"9","districtname":"FIROZABAD","districtcode":"147","ulbname":"MAKKHANPUR","ulbcode":"900624","wardname":"NAWADA","wardcode":"10","id":null,"status":"APPROVED","misglobalid":null,"approved_by":null,"createdate":1683869810000,"updateddate":1683869932000,"globalid":null,"gisglobalid":"B4maKQ54-cPc4-Pa6R-aK45-KsQ5sBPBRmd4","remark":"","st_area(shape)":0.00008024167432568549,"st_perimeter(shape)":0.05197129764269318}},{"arcs":[[-40,-39,191,192,193,-35,194,195,196,197,198,199,200,201,202,203,204,205,206,207,-75,208,39]],"type":"Polygon","properties":{"objectid":306958,"statename":"UTTAR PRADESH","statecode":"9","districtname":"FIROZABAD","districtcode":"147","ulbname":"MAKKHANPUR","ulbcode":"900624","wardname":"NEW BASTI","wardcode":"11","id":null,"status":"APPROVED","misglobalid":null,"approved_by":null,"createdate":1683869810000,"updateddate":1683869939000,"globalid":null,"gisglobalid":"n4nnlR4B-d46K-PdQm-RaPs-56o4BdQlP4so","remark":"","st_area(shape)":0.000020086949296829496,"st_perimeter(shape)":0.03193450039043955}},{"arcs":[[209,-177,210,211,212,-207,213,-205,214,-203,215,216,217,218,219]],"type":"Polygon","properties":{"objectid":306953,"statename":"UTTAR PRADESH","statecode":"9","districtname":"FIROZABAD","districtcode":"147","ulbname":"MAKKHANPUR","ulbcode":"900624","wardname":"JARARI YADAV","wardcode":"12","id":null,"status":"APPROVED","misglobalid":null,"approved_by":null,"createdate":1683869810000,"updateddate":1683869947000,"globalid":null,"gisglobalid":"KaBRRlBP-oono-PsdK-Ra6P-BsQaKK4omcld","remark":"","st_area(shape)":0.00007459429404088962,"st_perimeter(shape)":0.04272904156982178}},{"arcs":[[220,221,222,-91,223,224,225,226,227,228,229,230,231,232,233,234,235,236,237,-165,238,-163,239,-161,240,-159,241]],"type":"Polygon","properties":{"objectid":306957,"statename":"UTTAR PRADESH","statecode":"9","districtname":"FIROZABAD","districtcode":"147","ulbname":"MAKKHANPUR","ulbcode":"900624","wardname":"VELON MATA MOHALLA","wardcode":"13","id":null,"status":"APPROVED","misglobalid":null,"approved_by":null,"createdate":1683869810000,"updateddate":1683869967000,"globalid":null,"gisglobalid":"odoscaQd-6m6R-PQaB-QPl5-mnBRs5mQQms4","remark":"","st_area(shape)":0.0000014123869717826626,"st_perimeter(shape)":0.00577434399013283}},{"arcs":[[-148,242,-146,243,-144,244,245,246,247,248,249,-137,250,-135,251,252,253,254,255,256,257]],"type":"Polygon","properties":{"objectid":305362,"statename":"UTTAR PRADESH","statecode":"9","districtname":"FIROZABAD","districtcode":"147","ulbname":"MAKKHANPUR","ulbcode":"900624","wardname":"JIJAULI","wardcode":"14","id":null,"status":"APPROVED","misglobalid":null,"approved_by":null,"createdate":1683869810000,"updateddate":1683869979000,"globalid":null,"gisglobalid":"6Kc6sQQ5-QsKa-Pol4-aBll-4l4sKnP55R6a","remark":"","st_area(shape)":0.00003461133025484084,"st_perimeter(shape)":0.029974249250635247}},{"arcs":[[-235,258,-233,259,260,261,-229,262,263,264,265,-88,266,-86,-85,-84,267]],"type":"Polygon","properties":{"objectid":304191,"statename":"UTTAR PRADESH","statecode":"9","districtname":"FIROZABAD","districtcode":"147","ulbname":"MAKKHANPUR","ulbcode":"900624","wardname":"PATHWARI MATA MOHALLA","wardcode":"15","id":null,"status":"APPROVED","misglobalid":null,"approved_by":null,"createdate":1683869810000,"updateddate":1683869997000,"globalid":null,"gisglobalid":"n46Ka6dQ-oQP5-PmKd-Rsdl-R6P6PRPcnlan","remark":"","st_area(shape)":0.0000034205459919887057,"st_perimeter(shape)":0.01163920984208972}}]}}}