{"type": "FeatureCollection", "features": [{"type": "Feature", "geometry": {"type": "Polygon", "coordinates": [[[72.5785, 22.8634], [72.5789, 22.8627], [72.579, 22.8626], [72.5794, 22.8625], [72.5797, 22.862], [72.5798, 22.8617], [72.5801, 22.8613], [72.5802, 22.861], [72.5803, 22.8607], [72.5805, 22.8604], [72.5808, 22.86], [72.5812, 22.8594], [72.5814, 22.8594], [72.5821, 22.8595], [72.5822, 22.8597], [72.5825, 22.8597], [72.5827, 22.8599], [72.5834, 22.8598], [72.5838, 22.8599], [72.584, 22.8597], [72.5841, 22.8594], [72.5842, 22.8592], [72.5846, 22.8594], [72.5846, 22.8595], [72.5849, 22.8595], [72.5851, 22.8593], [72.5856, 22.8594], [72.5857, 22.8591], [72.5859, 22.8588], [72.586, 22.8588], [72.5863, 22.8588], [72.5866, 22.859], [72.5868, 22.8591], [72.587, 22.859], [72.5871, 22.859], [72.5871, 22.8589], [72.5872, 22.8588], [72.5876, 22.859], [72.5877, 22.8584], [72.588, 22.8583], [72.5881, 22.8576], [72.5878, 22.8575], [72.5879, 22.8571], [72.588, 22.857], [72.5882, 22.8566], [72.5884, 22.8562], [72.5885, 22.856], [72.5886, 22.8558], [72.5889, 22.8558], [72.5892, 22.8551], [72.5893, 22.8546], [72.5894, 22.8543], [72.5894, 22.8542], [72.5895, 22.8541], [72.5896, 22.8539], [72.5895, 22.8536], [72.5898, 22.8536], [72.5899, 22.8535], [72.59, 22.8534], [72.5902, 22.8535], [72.5904, 22.8535], [72.5905, 22.8536], [72.5904, 22.8532], [72.59, 22.8532], [72.5898, 22.8532], [72.5895, 22.8531], [72.5893, 22.8531], [72.5886, 22.8526], [72.5882, 22.8521], [72.5881, 22.8518], [72.5882, 22.8513], [72.5881, 22.8512], [72.5877, 22.8512], [72.5875, 22.8511], [72.5876, 22.8509], [72.5875, 22.8505], [72.5875, 22.8503], [72.5875, 22.8501], [72.5875, 22.8498], [72.5875, 22.8497], [72.5874, 22.8492], [72.5873, 22.849], [72.5873, 22.8485], [72.5872, 22.8484], [72.5871, 22.8483], [72.5871, 22.8481], [72.5869, 22.8472], [72.5869, 22.8471], [72.5869, 22.847], [72.5868, 22.8467], [72.5867, 22.846], [72.5865, 22.8455], [72.5865, 22.8452], [72.5864, 22.8449], [72.5863, 22.8447], [72.5863, 22.8444], [72.586, 22.8437], [72.586, 22.8434], [72.5857, 22.8427], [72.5856, 22.8425], [72.5856, 22.8423], [72.5856, 22.8422], [72.5855, 22.8418], [72.5853, 22.8413], [72.5851, 22.8406], [72.585, 22.8401], [72.585, 22.8399], [72.5849, 22.8397], [72.5849, 22.8394], [72.5848, 22.8391], [72.5848, 22.839], [72.5847, 22.8389], [72.5846, 22.8385], [72.5845, 22.8381], [72.5844, 22.8381], [72.5844, 22.838], [72.5844, 22.8378], [72.5844, 22.8375], [72.5843, 22.837], [72.5843, 22.8369], [72.5842, 22.8365], [72.5842, 22.8363], [72.5841, 22.8362], [72.584, 22.8359], [72.584, 22.8358], [72.5839, 22.8357], [72.5839, 22.8353], [72.5838, 22.8352], [72.5838, 22.8347], [72.5838, 22.8346], [72.5837, 22.8342], [72.5836, 22.8339], [72.5836, 22.8332], [72.5835, 22.833], [72.5834, 22.8326], [72.5834, 22.8323], [72.5833, 22.8321], [72.5833, 22.8317], [72.5833, 22.8314], [72.5833, 22.8313], [72.5831, 22.8306], [72.5831, 22.8303], [72.583, 22.8297], [72.5826, 22.8297], [72.582, 22.8266], [72.5814, 22.8241], [72.5802, 22.8234], [72.5786, 22.8241], [72.5745, 22.8266], [72.5699, 22.8295], [72.5669, 22.8316], [72.5652, 22.8343], [72.5643, 22.838], [72.5647, 22.8425], [72.5661, 22.8485], [72.5667, 22.8533], [72.5681, 22.8584], [72.5672, 22.8594], [72.5649, 22.8597], [72.5651, 22.8616], [72.5691, 22.8623], [72.5729, 22.8633], [72.5731, 22.8643], [72.5757, 22.8653], [72.5768, 22.8655], [72.5773, 22.8648], [72.5777, 22.8643], [72.5784, 22.8635], [72.5785, 22.8634]]]}, "properties": {"objectid": 224150, "statename": "Gujarat", "statecode": "24", "districtname": "Ahmedabad", "districtcode": "474", "ulbname": "Bareja", "ulbcode": "802485", "wardname": "Ward 1", "wardcode": "1", "id": null, "status": "APPROVED", "misglobalid": null, "approved_by": null, "createdate": 1647929307000, "updateddate": 1647938018000, "globalid": null, "gisglobalid": "BlK5aQn4-BaRo-Pm6n-aocQ-lmPanQaPn4dd", "remark": "", "st_area(shape)": 0.000702590748383951, "st_perimeter(shape)": 0.11920971335813706}}, {"type": "Feature", "geometry": {"type": "Polygon", "coordinates": [[[72.5777, 22.8643], [72.5779, 22.8645], [72.5786, 22.8647], [72.58, 22.8648], [72.5811, 22.8641], [72.5821, 22.8637], [72.5848, 22.8629], [72.5877, 22.8628], [72.5908, 22.8632], [72.5921, 22.8633], [72.5935, 22.8635], [72.5941, 22.8635], [72.5961, 22.8634], [72.5979, 22.8632], [72.5992, 22.8629], [72.5999, 22.8629], [72.6025, 22.8626], [72.6034, 22.8626], [72.6041, 22.8625], [72.6046, 22.8618], [72.6046, 22.8607], [72.6048, 22.8592], [72.6045, 22.8573], [72.6048, 22.8553], [72.6049, 22.8539], [72.6043, 22.8513], [72.6041, 22.8494], [72.6034, 22.847], [72.6023, 22.8456], [72.6024, 22.8441], [72.6023, 22.8434], [72.6021, 22.8424], [72.602, 22.8421], [72.6023, 22.8414], [72.6021, 22.8407], [72.6021, 22.8406], [72.6019, 22.841], [72.6018, 22.8413], [72.6017, 22.8415], [72.6016, 22.8418], [72.6013, 22.8422], [72.601, 22.8429], [72.6008, 22.8434], [72.6005, 22.8439], [72.6004, 22.8442], [72.6003, 22.8443], [72.6002, 22.8447], [72.6, 22.8451], [72.5999, 22.8453], [72.5996, 22.846], [72.5989, 22.8473], [72.5987, 22.8476], [72.5984, 22.8482], [72.5982, 22.8486], [72.598, 22.8491], [72.5977, 22.8498], [72.5972, 22.8509], [72.597, 22.8513], [72.5969, 22.8513], [72.5969, 22.8514], [72.5968, 22.8516], [72.5966, 22.8518], [72.5965, 22.852], [72.5962, 22.8527], [72.5961, 22.8529], [72.5958, 22.8534], [72.5956, 22.8539], [72.5954, 22.8541], [72.5952, 22.8546], [72.595, 22.855], [72.5948, 22.855], [72.5948, 22.8547], [72.5947, 22.8547], [72.5946, 22.8547], [72.5945, 22.8547], [72.5946, 22.8549], [72.5943, 22.8549], [72.5942, 22.855], [72.5941, 22.855], [72.5938, 22.8551], [72.5935, 22.8549], [72.5935, 22.8547], [72.5935, 22.8545], [72.5935, 22.8544], [72.5934, 22.8544], [72.5933, 22.8543], [72.5932, 22.8543], [72.593, 22.8543], [72.5929, 22.8544], [72.5928, 22.8544], [72.5928, 22.8546], [72.5929, 22.855], [72.5923, 22.8547], [72.5922, 22.8547], [72.592, 22.8546], [72.5919, 22.8545], [72.5913, 22.8542], [72.5912, 22.8541], [72.5911, 22.854], [72.5909, 22.8539], [72.5908, 22.8539], [72.5907, 22.8538], [72.5905, 22.8537], [72.5902, 22.8536], [72.5899, 22.8535], [72.5898, 22.8536], [72.5895, 22.8536], [72.5896, 22.8539], [72.5895, 22.8541], [72.5894, 22.8542], [72.5894, 22.8543], [72.5893, 22.8546], [72.5892, 22.8551], [72.5889, 22.8558], [72.5886, 22.8558], [72.5885, 22.856], [72.5884, 22.8562], [72.5882, 22.8566], [72.588, 22.857], [72.5879, 22.8571], [72.5878, 22.8575], [72.5881, 22.8576], [72.588, 22.8583], [72.5877, 22.8584], [72.5876, 22.859], [72.5872, 22.8588], [72.5871, 22.8589], [72.5871, 22.859], [72.587, 22.859], [72.5868, 22.8591], [72.5866, 22.859], [72.5863, 22.8588], [72.586, 22.8588], [72.5859, 22.8588], [72.5857, 22.8591], [72.5856, 22.8594], [72.5851, 22.8593], [72.5849, 22.8595], [72.5846, 22.8595], [72.5846, 22.8594], [72.5842, 22.8592], [72.5841, 22.8594], [72.584, 22.8597], [72.5838, 22.8599], [72.5834, 22.8598], [72.5827, 22.8599], [72.5826, 22.8598], [72.5826, 22.8597], [72.5825, 22.8597], [72.5822, 22.8597], [72.5821, 22.8595], [72.5814, 22.8594], [72.5812, 22.8594], [72.5808, 22.86], [72.5805, 22.8604], [72.5803, 22.8607], [72.5802, 22.8609], [72.5802, 22.861], [72.5801, 22.8613], [72.5798, 22.8617], [72.5797, 22.862], [72.5796, 22.8621], [72.5794, 22.8625], [72.579, 22.8626], [72.5789, 22.8627], [72.5785, 22.8634], [72.5784, 22.8635], [72.5777, 22.8643]]]}, "properties": {"objectid": 239722, "statename": "Gujarat", "statecode": "24", "districtname": "Ahmedabad", "districtcode": "474", "ulbname": "Bareja", "ulbcode": "802485", "wardname": "Ward 2", "wardcode": "2", "id": null, "status": "APPROVED", "misglobalid": null, "approved_by": null, "createdate": 1647935569000, "updateddate": 1647938032000, "globalid": null, "gisglobalid": "RBKcaBsc-mcmQ-PnPB-so6n-Rd6a6RKnQnlc", "remark": "", "st_area(shape)": 0.00024118864300120562, "st_perimeter(shape)": 0.09449669203742045}}, {"type": "Feature", "geometry": {"type": "Polygon", "coordinates": [[[72.5893, 22.8531], [72.5895, 22.8531], [72.5898, 22.8532], [72.59, 22.8532], [72.5904, 22.8532], [72.5905, 22.8536], [72.5904, 22.8535], [72.5902, 22.8535], [72.59, 22.8534], [72.5899, 22.8535], [72.5902, 22.8536], [72.5905, 22.8537], [72.5907, 22.8538], [72.5908, 22.8539], [72.5909, 22.8539], [72.5911, 22.854], [72.5912, 22.8541], [72.5913, 22.8542], [72.5919, 22.8545], [72.592, 22.8546], [72.5922, 22.8547], [72.5923, 22.8547], [72.5929, 22.855], [72.5928, 22.8546], [72.5928, 22.8544], [72.5929, 22.8544], [72.593, 22.8543], [72.5932, 22.8543], [72.5933, 22.8543], [72.5934, 22.8544], [72.5935, 22.8544], [72.5935, 22.8545], [72.5935, 22.8547], [72.5935, 22.8549], [72.5938, 22.8551], [72.5941, 22.855], [72.5942, 22.855], [72.5943, 22.8549], [72.5946, 22.8549], [72.5945, 22.8547], [72.5946, 22.8547], [72.5947, 22.8547], [72.5948, 22.8547], [72.5948, 22.855], [72.595, 22.855], [72.5952, 22.8546], [72.5954, 22.8541], [72.5956, 22.8539], [72.5958, 22.8534], [72.5961, 22.8529], [72.5962, 22.8527], [72.5965, 22.852], [72.5966, 22.8518], [72.5968, 22.8516], [72.5969, 22.8514], [72.5969, 22.8513], [72.597, 22.8513], [72.5972, 22.8509], [72.5977, 22.8498], [72.598, 22.8491], [72.5982, 22.8486], [72.5984, 22.8482], [72.5987, 22.8476], [72.5989, 22.8473], [72.5984, 22.8474], [72.5967, 22.8475], [72.5966, 22.8477], [72.5965, 22.8479], [72.5964, 22.8481], [72.5962, 22.8486], [72.596, 22.8489], [72.5955, 22.849], [72.5954, 22.8491], [72.5953, 22.8491], [72.5949, 22.8493], [72.5948, 22.8492], [72.5946, 22.849], [72.5944, 22.8489], [72.5939, 22.8491], [72.5931, 22.8495], [72.5926, 22.8498], [72.5925, 22.8498], [72.592, 22.8498], [72.5919, 22.85], [72.5913, 22.8501], [72.5904, 22.8501], [72.5903, 22.8501], [72.5903, 22.8502], [72.5903, 22.8504], [72.5902, 22.8507], [72.59, 22.8507], [72.5899, 22.8507], [72.5896, 22.8507], [72.5876, 22.851], [72.5875, 22.8511], [72.5877, 22.8512], [72.5878, 22.8512], [72.5879, 22.8512], [72.5881, 22.8512], [72.5882, 22.8513], [72.5881, 22.8518], [72.5882, 22.8521], [72.5883, 22.8522], [72.5886, 22.8526], [72.5893, 22.8531]]]}, "properties": {"objectid": 240122, "statename": "Gujarat", "statecode": "24", "districtname": "Ahmedabad", "districtcode": "474", "ulbname": "Bareja", "ulbcode": "802485", "wardname": "Ward 3", "wardcode": "3", "id": null, "status": "APPROVED", "misglobalid": null, "approved_by": null, "createdate": 1647935698000, "updateddate": 1647938050000, "globalid": null, "gisglobalid": "on5osco5-Qnnl-PRac-anmQ-sdsmP6nBlnns", "remark": "", "st_area(shape)": 3.9973580561923824e-05, "st_perimeter(shape)": 0.03476388065472194}}, {"type": "Feature", "geometry": {"type": "Polygon", "coordinates": [[[72.587, 22.8478], [72.5871, 22.8479], [72.5871, 22.8481], [72.5871, 22.8483], [72.5872, 22.8484], [72.5873, 22.8485], [72.5873, 22.849], [72.5874, 22.8492], [72.5875, 22.8497], [72.5875, 22.8498], [72.5875, 22.8501], [72.5875, 22.8503], [72.5875, 22.8505], [72.5876, 22.8509], [72.5876, 22.851], [72.5896, 22.8507], [72.5899, 22.8507], [72.5902, 22.8507], [72.5903, 22.8504], [72.5903, 22.8502], [72.5904, 22.8499], [72.5904, 22.8498], [72.5904, 22.8497], [72.5903, 22.8496], [72.5903, 22.8495], [72.5902, 22.8494], [72.5901, 22.849], [72.59, 22.8488], [72.5899, 22.8484], [72.5898, 22.8482], [72.5898, 22.8481], [72.5895, 22.8477], [72.5893, 22.8473], [72.5892, 22.847], [72.5891, 22.8466], [72.589, 22.8465], [72.5889, 22.8462], [72.5891, 22.8462], [72.5888, 22.8456], [72.5888, 22.8455], [72.5886, 22.8451], [72.5885, 22.8448], [72.5883, 22.8444], [72.5882, 22.8441], [72.5881, 22.8439], [72.5878, 22.8432], [72.5876, 22.8429], [72.5875, 22.8428], [72.5875, 22.8427], [72.5873, 22.8421], [72.5872, 22.8418], [72.5872, 22.8416], [72.5872, 22.8414], [72.5872, 22.8408], [72.5871, 22.8408], [72.5871, 22.8407], [72.5871, 22.8405], [72.587, 22.8402], [72.5864, 22.8402], [72.5863, 22.8402], [72.5861, 22.8402], [72.5859, 22.8401], [72.5857, 22.84], [72.5855, 22.84], [72.5853, 22.84], [72.5852, 22.84], [72.585, 22.8401], [72.5851, 22.8406], [72.5853, 22.8413], [72.5855, 22.8418], [72.5856, 22.8422], [72.5856, 22.8423], [72.5856, 22.8425], [72.5857, 22.8427], [72.586, 22.8434], [72.586, 22.8437], [72.5863, 22.8444], [72.5863, 22.8447], [72.5864, 22.8449], [72.5865, 22.8452], [72.5865, 22.8455], [72.5867, 22.846], [72.5868, 22.8467], [72.5869, 22.847], [72.5869, 22.8471], [72.5869, 22.8472], [72.587, 22.8478]]]}, "properties": {"objectid": 237338, "statename": "Gujarat", "statecode": "24", "districtname": "Ahmedabad", "districtcode": "474", "ulbname": "Bareja", "ulbcode": "802485", "wardname": "Ward 4", "wardcode": "4", "id": null, "status": "APPROVED", "misglobalid": null, "approved_by": null, "createdate": 1647935793000, "updateddate": 1647938073000, "globalid": null, "gisglobalid": "lPB4csQ4-msco-PdPd-QmlP-lom4sBaQ6mQd", "remark": "", "st_area(shape)": 2.3962058188152222e-05, "st_perimeter(shape)": 0.027402532858473272}}, {"type": "Feature", "geometry": {"type": "Polygon", "coordinates": [[[72.5903, 22.8501], [72.5904, 22.8501], [72.5913, 22.8501], [72.5919, 22.85], [72.592, 22.8498], [72.5926, 22.8498], [72.5928, 22.8497], [72.5931, 22.8495], [72.5939, 22.8491], [72.5944, 22.8489], [72.5946, 22.849], [72.5948, 22.8492], [72.5949, 22.8493], [72.5953, 22.8491], [72.5954, 22.8491], [72.5955, 22.849], [72.596, 22.8489], [72.5962, 22.8486], [72.5964, 22.8481], [72.5965, 22.8479], [72.5966, 22.8477], [72.5967, 22.8475], [72.5946, 22.8476], [72.5946, 22.8475], [72.5946, 22.8474], [72.5945, 22.8473], [72.5945, 22.8472], [72.5945, 22.8471], [72.5945, 22.847], [72.5943, 22.8464], [72.5942, 22.8458], [72.5944, 22.8458], [72.5945, 22.8458], [72.5948, 22.8458], [72.5948, 22.8456], [72.5948, 22.8451], [72.5947, 22.8451], [72.5945, 22.8451], [72.5942, 22.845], [72.5941, 22.845], [72.5937, 22.845], [72.5936, 22.8451], [72.5936, 22.845], [72.5933, 22.845], [72.5932, 22.8451], [72.5932, 22.8453], [72.5932, 22.8456], [72.5932, 22.8459], [72.5929, 22.8461], [72.5927, 22.8463], [72.5924, 22.8463], [72.5922, 22.8463], [72.5921, 22.8463], [72.5919, 22.8463], [72.5917, 22.8463], [72.5916, 22.8463], [72.5913, 22.8462], [72.5912, 22.8463], [72.5905, 22.8462], [72.5904, 22.8462], [72.5902, 22.8462], [72.5901, 22.8462], [72.5899, 22.8459], [72.5899, 22.8458], [72.5898, 22.8454], [72.5897, 22.8453], [72.5896, 22.8451], [72.5897, 22.8451], [72.5899, 22.845], [72.5901, 22.8449], [72.5903, 22.8448], [72.5903, 22.8447], [72.5903, 22.8446], [72.5903, 22.8445], [72.5908, 22.8445], [72.5911, 22.8445], [72.5912, 22.8442], [72.5912, 22.8439], [72.5912, 22.8438], [72.5912, 22.8434], [72.5913, 22.8428], [72.5913, 22.8426], [72.5915, 22.8418], [72.5916, 22.8412], [72.5917, 22.8411], [72.5916, 22.8409], [72.5916, 22.8405], [72.5916, 22.8402], [72.5916, 22.8398], [72.5917, 22.8397], [72.5917, 22.8394], [72.5917, 22.8393], [72.5917, 22.8392], [72.5917, 22.8389], [72.5915, 22.8382], [72.5914, 22.8382], [72.5913, 22.8382], [72.5912, 22.8382], [72.5913, 22.8373], [72.5913, 22.8366], [72.5913, 22.8365], [72.5913, 22.8359], [72.5913, 22.8356], [72.5913, 22.8353], [72.5912, 22.8343], [72.5912, 22.834], [72.5912, 22.8338], [72.5913, 22.8331], [72.5914, 22.8326], [72.5918, 22.8318], [72.592, 22.8309], [72.5925, 22.8306], [72.5926, 22.8305], [72.5929, 22.83], [72.593, 22.8298], [72.5929, 22.8298], [72.5927, 22.8297], [72.593, 22.8291], [72.5934, 22.8291], [72.5936, 22.8285], [72.5937, 22.8283], [72.5937, 22.828], [72.5937, 22.8279], [72.5934, 22.8275], [72.5934, 22.8272], [72.594, 22.8266], [72.593, 22.8262], [72.5896, 22.8261], [72.5852, 22.8263], [72.5821, 22.8248], [72.5827, 22.8281], [72.5829, 22.8287], [72.5829, 22.8293], [72.583, 22.8297], [72.5831, 22.8303], [72.5831, 22.8306], [72.5833, 22.8313], [72.5833, 22.8314], [72.5833, 22.8317], [72.5833, 22.8321], [72.5834, 22.8323], [72.5834, 22.8326], [72.5835, 22.833], [72.5836, 22.8332], [72.5836, 22.8339], [72.5837, 22.8342], [72.5838, 22.8346], [72.5838, 22.8347], [72.5838, 22.8352], [72.5839, 22.8353], [72.5839, 22.8357], [72.584, 22.8358], [72.584, 22.8359], [72.5841, 22.8362], [72.5842, 22.8363], [72.5842, 22.8365], [72.5843, 22.8369], [72.5843, 22.837], [72.5844, 22.8375], [72.5844, 22.8378], [72.5844, 22.838], [72.5844, 22.8381], [72.5845, 22.8381], [72.5846, 22.8385], [72.5847, 22.8389], [72.5848, 22.839], [72.5848, 22.8391], [72.5849, 22.8394], [72.5849, 22.8397], [72.585, 22.8399], [72.585, 22.8401], [72.5852, 22.84], [72.5853, 22.84], [72.5855, 22.84], [72.5857, 22.84], [72.5859, 22.8401], [72.5861, 22.8402], [72.5863, 22.8402], [72.5864, 22.8402], [72.587, 22.8402], [72.5871, 22.8405], [72.5871, 22.8407], [72.5871, 22.8408], [72.5872, 22.8408], [72.5872, 22.8414], [72.5872, 22.8416], [72.5872, 22.8418], [72.5873, 22.8421], [72.5875, 22.8427], [72.5875, 22.8428], [72.5876, 22.8429], [72.5878, 22.8432], [72.5881, 22.8439], [72.5882, 22.8441], [72.5883, 22.8444], [72.5885, 22.8448], [72.5886, 22.8451], [72.5888, 22.8455], [72.5888, 22.8456], [72.5891, 22.8462], [72.5889, 22.8462], [72.589, 22.8465], [72.5891, 22.8466], [72.5892, 22.847], [72.5893, 22.8473], [72.5895, 22.8477], [72.5898, 22.8481], [72.5898, 22.8482], [72.5899, 22.8484], [72.59, 22.8488], [72.5901, 22.849], [72.5902, 22.8494], [72.5903, 22.8495], [72.5903, 22.8496], [72.5904, 22.8497], [72.5904, 22.8498], [72.5904, 22.8499], [72.5904, 22.85], [72.5903, 22.8501]]]}, "properties": {"objectid": 227743, "statename": "Gujarat", "statecode": "24", "districtname": "Ahmedabad", "districtcode": "474", "ulbname": "Bareja", "ulbcode": "802485", "wardname": "Ward 5", "wardcode": "5", "id": null, "status": "APPROVED", "misglobalid": null, "approved_by": null, "createdate": 1648119640000, "updateddate": 1648119653000, "globalid": null, "gisglobalid": "4lnoRQ5o-Q6Qa-PcB4-aBcQ-K6cs5BnocRBm", "remark": "", "st_area(shape)": 0.00015977381802109562, "st_perimeter(shape)": 0.08256632342601256}}, {"type": "Feature", "geometry": {"type": "Polygon", "coordinates": [[[72.5989, 22.8472], [72.599, 22.847], [72.5992, 22.8467], [72.5994, 22.8463], [72.5996, 22.846], [72.5999, 22.8453], [72.6, 22.8451], [72.6002, 22.8447], [72.6003, 22.8443], [72.6004, 22.8442], [72.6005, 22.8439], [72.6008, 22.8434], [72.601, 22.8429], [72.6013, 22.8422], [72.6016, 22.8418], [72.6017, 22.8415], [72.6018, 22.8413], [72.6019, 22.841], [72.602, 22.8407], [72.6009, 22.8348], [72.6019, 22.8329], [72.6016, 22.8311], [72.6034, 22.8286], [72.6043, 22.8268], [72.6053, 22.824], [72.6051, 22.8223], [72.6054, 22.8178], [72.603, 22.8193], [72.6014, 22.8175], [72.5992, 22.827], [72.594, 22.8266], [72.5934, 22.8275], [72.5937, 22.8279], [72.5937, 22.828], [72.5937, 22.8283], [72.5936, 22.8285], [72.5934, 22.8291], [72.593, 22.8291], [72.5927, 22.8297], [72.5929, 22.8298], [72.593, 22.8298], [72.5929, 22.83], [72.5926, 22.8305], [72.5925, 22.8306], [72.592, 22.8309], [72.5918, 22.8318], [72.5914, 22.8326], [72.5913, 22.8331], [72.5912, 22.8338], [72.5912, 22.834], [72.5912, 22.8343], [72.5913, 22.8353], [72.5913, 22.8356], [72.5913, 22.8359], [72.5913, 22.8365], [72.5913, 22.8366], [72.5913, 22.8373], [72.5912, 22.8379], [72.5912, 22.8382], [72.5913, 22.8382], [72.5914, 22.8382], [72.5915, 22.8382], [72.5917, 22.8389], [72.5917, 22.8392], [72.5917, 22.8393], [72.5917, 22.8394], [72.5917, 22.8397], [72.5916, 22.8398], [72.5916, 22.8402], [72.5916, 22.8405], [72.5916, 22.8409], [72.5917, 22.8411], [72.5916, 22.8412], [72.5915, 22.8418], [72.5913, 22.8426], [72.5913, 22.8428], [72.5912, 22.8434], [72.5912, 22.8438], [72.5912, 22.8439], [72.5912, 22.8442], [72.5911, 22.8445], [72.5908, 22.8445], [72.5903, 22.8445], [72.5903, 22.8446], [72.5903, 22.8447], [72.5903, 22.8448], [72.5901, 22.8449], [72.5899, 22.845], [72.5897, 22.8451], [72.5896, 22.8451], [72.5897, 22.8453], [72.5898, 22.8454], [72.5899, 22.8458], [72.5899, 22.8459], [72.5901, 22.8462], [72.5902, 22.8462], [72.5904, 22.8462], [72.5905, 22.8462], [72.5912, 22.8463], [72.5913, 22.8462], [72.5916, 22.8463], [72.5917, 22.8463], [72.5919, 22.8463], [72.5921, 22.8463], [72.5922, 22.8463], [72.5924, 22.8463], [72.5927, 22.8463], [72.5929, 22.8461], [72.5932, 22.8459], [72.5932, 22.8456], [72.5932, 22.8453], [72.5932, 22.8451], [72.5933, 22.845], [72.5936, 22.845], [72.5936, 22.8451], [72.5937, 22.845], [72.5941, 22.845], [72.5942, 22.845], [72.5945, 22.8451], [72.5947, 22.8451], [72.5948, 22.8451], [72.5948, 22.8456], [72.5948, 22.8458], [72.5945, 22.8458], [72.5944, 22.8458], [72.5942, 22.8458], [72.5943, 22.8464], [72.5945, 22.847], [72.5945, 22.8471], [72.5945, 22.8472], [72.5945, 22.8473], [72.5946, 22.8474], [72.5946, 22.8475], [72.5946, 22.8476], [72.5984, 22.8474], [72.5989, 22.8473], [72.5989, 22.8472]]]}, "properties": {"objectid": 240123, "statename": "Gujarat", "statecode": "24", "districtname": "Ahmedabad", "districtcode": "474", "ulbname": "Bareja", "ulbcode": "802485", "wardname": "Ward-6", "wardcode": "6", "id": null, "status": "APPROVED", "misglobalid": null, "approved_by": null, "createdate": 1647936874000, "updateddate": 1647938096000, "globalid": null, "gisglobalid": "maPR6l5s-Bcas-P4aP-sQBd-lcaoPcR6anno", "remark": "", "st_area(shape)": 0.00023864255655317728, "st_perimeter(shape)": 0.08788343960745382}}]}
