{"type": "FeatureCollection", "features": [{"type": "Feature", "geometry": {"type": "Polygon", "coordinates": [[[78.6186, 17.4182], [78.6178, 17.4142], [78.6177, 17.4139], [78.6149, 17.413], [78.6131, 17.4124], [78.6127, 17.4122], [78.6124, 17.4122], [78.611, 17.4124], [78.6102, 17.4125], [78.6099, 17.4125], [78.6093, 17.4123], [78.6075, 17.4116], [78.6046, 17.4105], [78.6034, 17.4101], [78.6025, 17.4097], [78.6023, 17.4096], [78.6011, 17.4091], [78.6003, 17.4111], [78.6002, 17.4116], [78.6006, 17.4116], [78.6007, 17.4117], [78.6007, 17.412], [78.6021, 17.412], [78.6021, 17.4123], [78.602, 17.4126], [78.6019, 17.4131], [78.6005, 17.4131], [78.6004, 17.4131], [78.5999, 17.4132], [78.5998, 17.4132], [78.5997, 17.4132], [78.5996, 17.4132], [78.5995, 17.4132], [78.5993, 17.4132], [78.5992, 17.4132], [78.5991, 17.4132], [78.599, 17.4133], [78.5989, 17.4133], [78.5986, 17.4133], [78.5983, 17.4134], [78.5982, 17.4134], [78.598, 17.4134], [78.5979, 17.4135], [78.5977, 17.4135], [78.5976, 17.4135], [78.5972, 17.4136], [78.5968, 17.4137], [78.5966, 17.4137], [78.597, 17.4143], [78.5977, 17.4161], [78.5985, 17.4178], [78.5992, 17.4193], [78.6004, 17.4189], [78.6014, 17.4185], [78.6022, 17.4182], [78.6029, 17.418], [78.6036, 17.4178], [78.6044, 17.4177], [78.605, 17.4175], [78.6064, 17.4172], [78.6069, 17.4171], [78.6069, 17.4172], [78.607, 17.4177], [78.6071, 17.4177], [78.6073, 17.4179], [78.608, 17.4184], [78.6081, 17.4185], [78.6082, 17.4185], [78.6084, 17.4185], [78.6085, 17.4185], [78.6086, 17.4185], [78.6087, 17.4185], [78.6089, 17.4185], [78.609, 17.4185], [78.6091, 17.4185], [78.6093, 17.4185], [78.6094, 17.4185], [78.6095, 17.4185], [78.6097, 17.4185], [78.6099, 17.4185], [78.61, 17.4185], [78.6101, 17.4185], [78.6103, 17.4185], [78.6186, 17.4182]]]}, "properties": {"objectid": 73290, "statename": "Telangana", "statecode": "36", "districtname": "Medchal Malkagiri", "districtcode": "685", "ulbname": "Peerzadiguda", "ulbcode": "900476", "wardname": "1", "wardcode": "1", "id": null, "status": "APPROVED", "misglobalid": null, "approved_by": null, "createdate": 1641817598000, "updateddate": 1641817633000, "globalid": null, "gisglobalid": "KsRRlRQ6-KPlo-PcnP-sPls-6oKPlcccmmKn", "remark": "", "st_area(shape)": 0.00012685592360958447, "st_perimeter(shape)": 0.06001891256103854}}, {"type": "Feature", "geometry": {"type": "Polygon", "coordinates": [[[78.6233, 17.4003], [78.6228, 17.4005], [78.6215, 17.4011], [78.6214, 17.4011], [78.6212, 17.4012], [78.6211, 17.4012], [78.6208, 17.4013], [78.6205, 17.4015], [78.6204, 17.4015], [78.6201, 17.4016], [78.6197, 17.4017], [78.6194, 17.4019], [78.6191, 17.402], [78.619, 17.402], [78.6187, 17.4021], [78.618, 17.4022], [78.6171, 17.4025], [78.6171, 17.4026], [78.6169, 17.4026], [78.6151, 17.4027], [78.6128, 17.4028], [78.6126, 17.4028], [78.6125, 17.4028], [78.6124, 17.4028], [78.6122, 17.4028], [78.612, 17.4028], [78.6118, 17.4027], [78.6117, 17.4028], [78.6116, 17.4028], [78.6115, 17.4028], [78.6114, 17.4028], [78.6113, 17.4028], [78.6107, 17.4028], [78.6101, 17.4027], [78.6094, 17.4026], [78.6093, 17.4026], [78.6092, 17.4026], [78.6091, 17.4027], [78.609, 17.4027], [78.6089, 17.4027], [78.6088, 17.4026], [78.6087, 17.4026], [78.6086, 17.4026], [78.6085, 17.4026], [78.6085, 17.4027], [78.6084, 17.4025], [78.6082, 17.4024], [78.6081, 17.4024], [78.6077, 17.4022], [78.6076, 17.4022], [78.6072, 17.4021], [78.6068, 17.4019], [78.6068, 17.402], [78.6065, 17.4019], [78.6061, 17.4019], [78.6061, 17.4021], [78.6063, 17.4027], [78.6064, 17.4031], [78.6064, 17.4032], [78.6063, 17.4035], [78.6062, 17.4039], [78.6058, 17.4049], [78.6055, 17.4056], [78.6053, 17.4059], [78.6051, 17.4061], [78.605, 17.4067], [78.6051, 17.4069], [78.6054, 17.408], [78.6055, 17.4086], [78.6052, 17.4087], [78.6053, 17.4094], [78.6049, 17.4094], [78.6049, 17.4095], [78.6048, 17.4097], [78.6048, 17.4101], [78.6048, 17.4102], [78.6046, 17.4105], [78.6075, 17.4116], [78.6093, 17.4123], [78.6099, 17.4125], [78.6102, 17.4125], [78.611, 17.4124], [78.6124, 17.4122], [78.6127, 17.4122], [78.6131, 17.4124], [78.6149, 17.413], [78.6177, 17.4139], [78.6177, 17.4122], [78.6209, 17.4069], [78.6206, 17.4064], [78.6203, 17.4054], [78.6233, 17.4045], [78.6233, 17.4003]]]}, "properties": {"objectid": 71317, "statename": "Telangana", "statecode": "36", "districtname": "Medchal Malkagiri", "districtcode": "685", "ulbname": "Peerzadiguda", "ulbcode": "900476", "wardname": "2", "wardcode": "2", "id": null, "status": "APPROVED", "misglobalid": null, "approved_by": null, "createdate": 1641817598000, "updateddate": 1641817638000, "globalid": null, "gisglobalid": "5cP6nPnB-mBQ5-PBdc-Qco6-QR6c4K45BQPl", "remark": "", "st_area(shape)": 0.0001536020341671091, "st_perimeter(shape)": 0.05837899309953511}}, {"type": "Feature", "geometry": {"type": "Polygon", "coordinates": [[[78.6233, 17.4003], [78.6229, 17.3996], [78.6222, 17.3978], [78.6219, 17.3971], [78.6217, 17.3969], [78.6216, 17.3967], [78.6215, 17.3964], [78.6214, 17.3958], [78.6213, 17.3953], [78.6212, 17.3948], [78.621, 17.3943], [78.6208, 17.3936], [78.6206, 17.3925], [78.6203, 17.3925], [78.6197, 17.3926], [78.6188, 17.3927], [78.6188, 17.3928], [78.6178, 17.3929], [78.6176, 17.393], [78.6171, 17.393], [78.617, 17.393], [78.617, 17.3928], [78.6162, 17.3928], [78.6155, 17.3929], [78.6153, 17.3929], [78.6151, 17.3929], [78.6147, 17.3929], [78.6144, 17.3929], [78.6142, 17.3929], [78.6141, 17.3929], [78.6139, 17.393], [78.613, 17.3935], [78.6125, 17.3937], [78.6122, 17.3938], [78.6119, 17.3939], [78.6116, 17.394], [78.6115, 17.3941], [78.6115, 17.3942], [78.6115, 17.3943], [78.6114, 17.3943], [78.6113, 17.3944], [78.6111, 17.3945], [78.611, 17.3945], [78.611, 17.3946], [78.611, 17.3947], [78.6109, 17.3947], [78.6109, 17.3949], [78.6106, 17.395], [78.6094, 17.3951], [78.6093, 17.3948], [78.6092, 17.3947], [78.6092, 17.3942], [78.6092, 17.3937], [78.6077, 17.3939], [78.607, 17.3939], [78.6063, 17.394], [78.606, 17.394], [78.6057, 17.394], [78.6056, 17.3941], [78.6055, 17.3941], [78.605, 17.3942], [78.605, 17.3954], [78.605, 17.3965], [78.605, 17.3973], [78.605, 17.398], [78.605, 17.3981], [78.6051, 17.3985], [78.6049, 17.3989], [78.6048, 17.3994], [78.6047, 17.3996], [78.6049, 17.4012], [78.605, 17.4012], [78.6051, 17.4012], [78.6051, 17.4014], [78.6054, 17.4015], [78.6056, 17.4016], [78.6059, 17.4017], [78.606, 17.4017], [78.6061, 17.4019], [78.6065, 17.4019], [78.6068, 17.402], [78.6068, 17.4019], [78.6072, 17.4021], [78.6076, 17.4022], [78.6077, 17.4022], [78.6081, 17.4024], [78.6082, 17.4024], [78.6084, 17.4025], [78.6085, 17.4027], [78.6085, 17.4026], [78.6086, 17.4026], [78.6087, 17.4026], [78.6088, 17.4026], [78.6089, 17.4027], [78.609, 17.4027], [78.6091, 17.4027], [78.6092, 17.4026], [78.6093, 17.4026], [78.6094, 17.4026], [78.6101, 17.4027], [78.6107, 17.4028], [78.6113, 17.4028], [78.6114, 17.4028], [78.6115, 17.4028], [78.6116, 17.4028], [78.6117, 17.4028], [78.6118, 17.4027], [78.612, 17.4028], [78.6122, 17.4028], [78.6124, 17.4028], [78.6125, 17.4028], [78.6126, 17.4028], [78.6128, 17.4028], [78.6151, 17.4027], [78.6169, 17.4026], [78.6171, 17.4026], [78.6171, 17.4025], [78.618, 17.4022], [78.6187, 17.4021], [78.619, 17.402], [78.6191, 17.402], [78.6194, 17.4019], [78.6197, 17.4017], [78.6201, 17.4016], [78.6204, 17.4015], [78.6205, 17.4015], [78.6208, 17.4013], [78.6211, 17.4012], [78.6212, 17.4012], [78.6214, 17.4011], [78.6215, 17.4011], [78.6228, 17.4005], [78.6233, 17.4003]]]}, "properties": {"objectid": 72499, "statename": "Telangana", "statecode": "36", "districtname": "Medchal Malkagiri", "districtcode": "685", "ulbname": "Peerzadiguda", "ulbcode": "900476", "wardname": "3", "wardcode": "3", "id": null, "status": "APPROVED", "misglobalid": null, "approved_by": null, "createdate": 1641817598000, "updateddate": 1641817643000, "globalid": null, "gisglobalid": "nca6PQPm-dcs5-Psc6-QoBd-adm54RcBQKB5", "remark": "", "st_area(shape)": 0.00014872848744580474, "st_perimeter(shape)": 0.0531485213115809}}, {"type": "Feature", "geometry": {"type": "Polygon", "coordinates": [[[78.6206, 17.3925], [78.6205, 17.392], [78.6205, 17.3914], [78.6204, 17.3905], [78.6204, 17.3903], [78.6203, 17.3903], [78.6203, 17.3901], [78.6202, 17.3899], [78.6202, 17.3894], [78.6202, 17.3893], [78.6202, 17.3892], [78.6202, 17.3891], [78.6202, 17.389], [78.6202, 17.3888], [78.6202, 17.3887], [78.6202, 17.3886], [78.6201, 17.3884], [78.62, 17.3879], [78.6196, 17.3864], [78.6189, 17.3864], [78.6187, 17.3864], [78.6185, 17.3864], [78.6184, 17.3864], [78.6182, 17.3864], [78.6181, 17.3864], [78.6176, 17.3865], [78.6169, 17.3865], [78.6166, 17.3866], [78.6162, 17.3866], [78.6157, 17.3868], [78.6156, 17.3868], [78.6155, 17.3868], [78.6154, 17.3868], [78.6153, 17.3868], [78.6152, 17.3868], [78.6152, 17.3869], [78.6151, 17.3869], [78.615, 17.3869], [78.6149, 17.3869], [78.6147, 17.387], [78.6146, 17.387], [78.6144, 17.3871], [78.6143, 17.3871], [78.6142, 17.3872], [78.6139, 17.3872], [78.6138, 17.3872], [78.6134, 17.3873], [78.6124, 17.3874], [78.6121, 17.3874], [78.612, 17.3874], [78.6119, 17.3874], [78.6118, 17.3874], [78.6117, 17.3874], [78.6116, 17.3874], [78.6115, 17.3874], [78.6114, 17.3875], [78.6113, 17.3875], [78.6112, 17.3875], [78.6111, 17.3875], [78.611, 17.3875], [78.6109, 17.3876], [78.6106, 17.3876], [78.6102, 17.3907], [78.6105, 17.3915], [78.6103, 17.3915], [78.6102, 17.3919], [78.6103, 17.3924], [78.6103, 17.3925], [78.6103, 17.3926], [78.6102, 17.3928], [78.6102, 17.393], [78.6101, 17.3931], [78.6099, 17.3932], [78.6098, 17.3933], [78.6098, 17.3934], [78.6102, 17.3943], [78.6104, 17.3943], [78.6105, 17.3943], [78.6107, 17.3944], [78.6109, 17.3945], [78.6111, 17.3945], [78.6113, 17.3944], [78.6114, 17.3943], [78.6115, 17.3943], [78.6115, 17.3942], [78.6115, 17.3941], [78.6116, 17.394], [78.6119, 17.3939], [78.6122, 17.3938], [78.6125, 17.3937], [78.613, 17.3935], [78.6139, 17.393], [78.6141, 17.3929], [78.6142, 17.3929], [78.6144, 17.3929], [78.6147, 17.3929], [78.6151, 17.3929], [78.6153, 17.3929], [78.6155, 17.3929], [78.6162, 17.3928], [78.617, 17.3928], [78.617, 17.393], [78.6171, 17.393], [78.6176, 17.393], [78.6178, 17.3929], [78.6188, 17.3928], [78.6188, 17.3927], [78.6197, 17.3926], [78.6203, 17.3925], [78.6206, 17.3925]]]}, "properties": {"objectid": 71685, "statename": "Telangana", "statecode": "36", "districtname": "Medchal Malkagiri", "districtcode": "685", "ulbname": "Peerzadiguda", "ulbcode": "900476", "wardname": "4", "wardcode": "4", "id": null, "status": "APPROVED", "misglobalid": null, "approved_by": null, "createdate": 1641817598000, "updateddate": 1641817651000, "globalid": null, "gisglobalid": "o6aKK46s-4dnm-PKPm-ss6B-P5mmQPdBlcod", "remark": "", "st_area(shape)": 6.248273913323552e-05, "st_perimeter(shape)": 0.03391870974490464}}, {"type": "Feature", "geometry": {"type": "Polygon", "coordinates": [[[78.6111, 17.3945], [78.6109, 17.3945], [78.6107, 17.3944], [78.6105, 17.3943], [78.6104, 17.3943], [78.6102, 17.3943], [78.6098, 17.3934], [78.6098, 17.3933], [78.6099, 17.3932], [78.6101, 17.3931], [78.6102, 17.393], [78.6102, 17.3928], [78.6103, 17.3926], [78.6103, 17.3925], [78.6103, 17.3924], [78.6102, 17.3919], [78.6103, 17.3915], [78.6105, 17.3915], [78.6102, 17.3907], [78.6106, 17.3876], [78.6104, 17.3876], [78.6103, 17.3876], [78.6093, 17.3876], [78.6092, 17.3875], [78.6091, 17.3875], [78.6085, 17.3875], [78.6081, 17.3875], [78.608, 17.3875], [78.6079, 17.3875], [78.6078, 17.3874], [78.6077, 17.3874], [78.6076, 17.3874], [78.6075, 17.3874], [78.6074, 17.3874], [78.6073, 17.3874], [78.6072, 17.3875], [78.6071, 17.3875], [78.6068, 17.3875], [78.6066, 17.3875], [78.6065, 17.3875], [78.6064, 17.3874], [78.6063, 17.3874], [78.6062, 17.3874], [78.6061, 17.3875], [78.606, 17.3875], [78.6059, 17.3874], [78.6058, 17.3874], [78.6056, 17.3874], [78.6055, 17.3875], [78.6054, 17.3875], [78.6053, 17.3874], [78.6052, 17.3874], [78.6051, 17.3874], [78.6047, 17.3874], [78.6046, 17.3874], [78.6045, 17.3874], [78.6044, 17.3875], [78.6042, 17.3875], [78.604, 17.3875], [78.6039, 17.3875], [78.6038, 17.3875], [78.6037, 17.3875], [78.6036, 17.3875], [78.6035, 17.3876], [78.6034, 17.3876], [78.6032, 17.3876], [78.6032, 17.3883], [78.6032, 17.3892], [78.6032, 17.3895], [78.6033, 17.3899], [78.6034, 17.391], [78.6034, 17.3912], [78.6035, 17.3912], [78.6035, 17.3914], [78.6036, 17.3918], [78.6037, 17.392], [78.6037, 17.3921], [78.6037, 17.3923], [78.6037, 17.3924], [78.6037, 17.3925], [78.6037, 17.3926], [78.6039, 17.3926], [78.6041, 17.3928], [78.6042, 17.3929], [78.6043, 17.393], [78.6046, 17.3934], [78.6047, 17.3935], [78.6048, 17.3936], [78.605, 17.3937], [78.605, 17.3938], [78.6051, 17.3939], [78.605, 17.3939], [78.605, 17.3942], [78.6055, 17.3941], [78.6056, 17.3941], [78.6057, 17.394], [78.606, 17.394], [78.6063, 17.394], [78.607, 17.3939], [78.6077, 17.3939], [78.6092, 17.3937], [78.6092, 17.3942], [78.6092, 17.3947], [78.6093, 17.3948], [78.6094, 17.3951], [78.6106, 17.395], [78.6109, 17.3949], [78.6109, 17.3947], [78.611, 17.3947], [78.611, 17.3946], [78.611, 17.3945], [78.6111, 17.3945]]]}, "properties": {"objectid": 72498, "statename": "Telangana", "statecode": "36", "districtname": "Medchal Malkagiri", "districtcode": "685", "ulbname": "Peerzadiguda", "ulbcode": "900476", "wardname": "5", "wardcode": "5", "id": null, "status": "APPROVED", "misglobalid": null, "approved_by": null, "createdate": 1641817598000, "updateddate": 1641817660000, "globalid": null, "gisglobalid": "nRaRPo4s-d64m-Plla-sl6K-m5omsal5cPnK", "remark": "", "st_area(shape)": 4.469711334854959e-05, "st_perimeter(shape)": 0.030910113593281708}}, {"type": "Feature", "geometry": {"type": "Polygon", "coordinates": [[[78.595, 17.3938], [78.5953, 17.3937], [78.5957, 17.3934], [78.5963, 17.393], [78.5967, 17.3927], [78.5968, 17.3927], [78.5971, 17.3925], [78.5974, 17.3922], [78.5975, 17.3921], [78.5978, 17.392], [78.5981, 17.3919], [78.5987, 17.3918], [78.5998, 17.3915], [78.6014, 17.3911], [78.6018, 17.391], [78.6023, 17.391], [78.6029, 17.3911], [78.6034, 17.3912], [78.6034, 17.391], [78.6033, 17.3899], [78.6032, 17.3895], [78.6032, 17.3892], [78.6032, 17.3883], [78.6032, 17.3876], [78.6031, 17.3876], [78.6029, 17.3876], [78.6027, 17.3877], [78.6026, 17.3877], [78.6025, 17.3877], [78.6024, 17.3877], [78.6023, 17.3877], [78.6021, 17.3877], [78.602, 17.3877], [78.6019, 17.3877], [78.6018, 17.3877], [78.6018, 17.3878], [78.6016, 17.3878], [78.6015, 17.3878], [78.6014, 17.3878], [78.6013, 17.3878], [78.6013, 17.3879], [78.6012, 17.3878], [78.6011, 17.3878], [78.6011, 17.3879], [78.601, 17.3879], [78.6009, 17.3878], [78.6008, 17.3878], [78.6008, 17.3877], [78.6006, 17.3878], [78.6005, 17.3878], [78.6004, 17.3878], [78.6004, 17.3879], [78.6003, 17.3879], [78.6002, 17.3879], [78.6002, 17.388], [78.6001, 17.388], [78.6, 17.388], [78.5997, 17.3879], [78.5995, 17.3879], [78.5993, 17.3879], [78.5992, 17.3879], [78.5992, 17.388], [78.5991, 17.388], [78.599, 17.3879], [78.5989, 17.3879], [78.5988, 17.3879], [78.5987, 17.3879], [78.5986, 17.3879], [78.5986, 17.388], [78.5986, 17.3881], [78.5985, 17.3881], [78.5984, 17.3881], [78.5983, 17.3881], [78.5983, 17.388], [78.5982, 17.388], [78.5981, 17.388], [78.5981, 17.3881], [78.598, 17.3881], [78.598, 17.3882], [78.5979, 17.3882], [78.5979, 17.3883], [78.5978, 17.3883], [78.5977, 17.3883], [78.5976, 17.3883], [78.5975, 17.3883], [78.5974, 17.3883], [78.5974, 17.3882], [78.5972, 17.3881], [78.5971, 17.3881], [78.5969, 17.388], [78.5968, 17.388], [78.5965, 17.388], [78.5963, 17.388], [78.5952, 17.388], [78.5945, 17.388], [78.5944, 17.388], [78.5938, 17.3879], [78.5937, 17.3893], [78.5936, 17.3897], [78.5936, 17.3905], [78.5936, 17.3909], [78.5935, 17.391], [78.5938, 17.3912], [78.5939, 17.3913], [78.594, 17.3914], [78.5941, 17.3915], [78.5941, 17.3916], [78.5942, 17.3916], [78.5942, 17.3917], [78.5941, 17.3918], [78.594, 17.3919], [78.5938, 17.392], [78.5939, 17.3926], [78.5939, 17.3927], [78.5938, 17.3929], [78.5937, 17.3931], [78.5936, 17.3932], [78.5936, 17.3938], [78.5936, 17.3939], [78.5935, 17.394], [78.5935, 17.3941], [78.5934, 17.3942], [78.5933, 17.3943], [78.5934, 17.3945], [78.5935, 17.3947], [78.5936, 17.3948], [78.5936, 17.3949], [78.5936, 17.395], [78.594, 17.3948], [78.5942, 17.3947], [78.5945, 17.3943], [78.5946, 17.394], [78.5949, 17.3939], [78.595, 17.3938]]]}, "properties": {"objectid": 74017, "statename": "Telangana", "statecode": "36", "districtname": "Medchal Malkagiri", "districtcode": "685", "ulbname": "Peerzadiguda", "ulbcode": "900476", "wardname": "6", "wardcode": "6", "id": null, "status": "APPROVED", "misglobalid": null, "approved_by": null, "createdate": 1641817598000, "updateddate": 1641817665000, "globalid": null, "gisglobalid": "5BldQQ6B-BssR-PlRd-sPcn-4n6mnmPdnss4", "remark": "", "st_area(shape)": 4.1242203003966504e-05, "st_perimeter(shape)": 0.03226894309439672}}, {"type": "Feature", "geometry": {"type": "Polygon", "coordinates": [[[78.5876, 17.3977], [78.5881, 17.3974], [78.5896, 17.3967], [78.5907, 17.3962], [78.5919, 17.3955], [78.5926, 17.3953], [78.5935, 17.395], [78.5936, 17.395], [78.5936, 17.3949], [78.5936, 17.3948], [78.5935, 17.3947], [78.5934, 17.3945], [78.5933, 17.3943], [78.5934, 17.3942], [78.5935, 17.3941], [78.5935, 17.394], [78.5936, 17.3939], [78.5936, 17.3938], [78.5936, 17.3932], [78.5937, 17.3931], [78.5938, 17.3929], [78.5939, 17.3927], [78.5939, 17.3926], [78.5938, 17.392], [78.594, 17.3919], [78.5941, 17.3918], [78.5942, 17.3917], [78.5942, 17.3916], [78.5941, 17.3916], [78.5941, 17.3915], [78.594, 17.3914], [78.5939, 17.3913], [78.5938, 17.3912], [78.5935, 17.391], [78.5936, 17.3909], [78.5936, 17.3905], [78.5936, 17.3897], [78.5937, 17.3893], [78.5938, 17.3879], [78.5936, 17.3879], [78.5935, 17.3879], [78.5934, 17.3879], [78.5933, 17.3879], [78.5931, 17.3879], [78.593, 17.388], [78.5928, 17.388], [78.5927, 17.388], [78.5925, 17.388], [78.5924, 17.388], [78.5922, 17.388], [78.592, 17.388], [78.5919, 17.388], [78.5918, 17.388], [78.5916, 17.388], [78.5915, 17.388], [78.5914, 17.388], [78.5913, 17.388], [78.5912, 17.388], [78.5911, 17.388], [78.591, 17.388], [78.5909, 17.388], [78.5907, 17.388], [78.5906, 17.388], [78.5905, 17.388], [78.5904, 17.388], [78.5902, 17.388], [78.5901, 17.3881], [78.59, 17.3881], [78.5897, 17.3881], [78.5898, 17.3888], [78.5899, 17.3891], [78.59, 17.3893], [78.5901, 17.3894], [78.5902, 17.3896], [78.5904, 17.3902], [78.5902, 17.3902], [78.5902, 17.3903], [78.59, 17.3903], [78.5898, 17.3904], [78.59, 17.3908], [78.5899, 17.3909], [78.5898, 17.3909], [78.5897, 17.391], [78.5898, 17.3913], [78.5897, 17.3913], [78.5898, 17.3915], [78.5899, 17.3918], [78.5898, 17.3919], [78.5898, 17.392], [78.5896, 17.392], [78.5897, 17.3922], [78.5896, 17.3922], [78.5898, 17.3926], [78.5896, 17.3929], [78.5895, 17.3931], [78.5895, 17.3933], [78.5894, 17.3934], [78.5894, 17.3935], [78.5893, 17.3937], [78.5892, 17.394], [78.5892, 17.3941], [78.5891, 17.3941], [78.5889, 17.3945], [78.5886, 17.3947], [78.5886, 17.3948], [78.5883, 17.395], [78.5883, 17.3951], [78.5881, 17.3953], [78.5881, 17.3954], [78.5882, 17.3955], [78.5881, 17.3955], [78.5875, 17.3959], [78.5868, 17.3964], [78.5859, 17.397], [78.5856, 17.3973], [78.5854, 17.3974], [78.5851, 17.3975], [78.5847, 17.3976], [78.5837, 17.3978], [78.5835, 17.3979], [78.5841, 17.3996], [78.5849, 17.3994], [78.5858, 17.3988], [78.5867, 17.3983], [78.5875, 17.3978], [78.5876, 17.3977]]]}, "properties": {"objectid": 74018, "statename": "Telangana", "statecode": "36", "districtname": "Medchal Malkagiri", "districtcode": "685", "ulbname": "Peerzadiguda", "ulbcode": "900476", "wardname": "7", "wardcode": "7", "id": null, "status": "APPROVED", "misglobalid": null, "approved_by": null, "createdate": 1641817598000, "updateddate": 1641817673000, "globalid": null, "gisglobalid": "5aQoa6Ko-nB64-Psml-Q5oK-aPsdQl5ndodc", "remark": "", "st_area(shape)": 4.200736896698906e-05, "st_perimeter(shape)": 0.03886284650390482}}, {"type": "Feature", "geometry": {"type": "Polygon", "coordinates": [[[78.5685, 17.4079], [78.5686, 17.4081], [78.5686, 17.4082], [78.5686, 17.4083], [78.5686, 17.4084], [78.5687, 17.4085], [78.5687, 17.4086], [78.5687, 17.4087], [78.5688, 17.4086], [78.5688, 17.4087], [78.5688, 17.4088], [78.5689, 17.4089], [78.5689, 17.409], [78.5689, 17.4091], [78.5689, 17.4092], [78.569, 17.4093], [78.569, 17.4094], [78.569, 17.4095], [78.5691, 17.4096], [78.5691, 17.4098], [78.5692, 17.4099], [78.5692, 17.41], [78.5692, 17.4101], [78.5693, 17.4102], [78.5692, 17.4102], [78.5693, 17.4106], [78.5694, 17.4106], [78.5696, 17.4106], [78.5697, 17.4105], [78.5699, 17.4105], [78.5698, 17.4104], [78.57, 17.4104], [78.5701, 17.4103], [78.5701, 17.4102], [78.5702, 17.4102], [78.5703, 17.4102], [78.5704, 17.4102], [78.5704, 17.4101], [78.5705, 17.4101], [78.5706, 17.4101], [78.5708, 17.41], [78.5709, 17.41], [78.571, 17.41], [78.571, 17.4099], [78.5711, 17.4099], [78.5711, 17.4098], [78.5711, 17.4097], [78.5712, 17.4097], [78.5713, 17.4097], [78.5716, 17.4096], [78.5718, 17.4094], [78.5722, 17.4093], [78.5725, 17.4091], [78.5726, 17.409], [78.5728, 17.4089], [78.5729, 17.4089], [78.5731, 17.4089], [78.5728, 17.4081], [78.5727, 17.4081], [78.5725, 17.4077], [78.5724, 17.4075], [78.5724, 17.4074], [78.5724, 17.4073], [78.5722, 17.4074], [78.5722, 17.4073], [78.5722, 17.4072], [78.5721, 17.4071], [78.5721, 17.407], [78.5721, 17.4069], [78.5721, 17.4068], [78.572, 17.4067], [78.5718, 17.4067], [78.5713, 17.4068], [78.5712, 17.4068], [78.5711, 17.4068], [78.5709, 17.4066], [78.5708, 17.4066], [78.5707, 17.4066], [78.5705, 17.4065], [78.5704, 17.4065], [78.5701, 17.4066], [78.57, 17.4066], [78.5699, 17.4066], [78.5698, 17.4066], [78.5697, 17.4065], [78.5695, 17.4065], [78.5694, 17.4066], [78.5694, 17.4065], [78.5693, 17.4062], [78.569, 17.4063], [78.569, 17.4062], [78.5689, 17.4059], [78.5688, 17.4059], [78.5688, 17.406], [78.5686, 17.406], [78.5685, 17.406], [78.5684, 17.4061], [78.5676, 17.4062], [78.5675, 17.4063], [78.5675, 17.4065], [78.5675, 17.4066], [78.5676, 17.4068], [78.5676, 17.4069], [78.5676, 17.407], [78.5677, 17.4073], [78.5677, 17.4074], [78.5677, 17.4075], [78.5678, 17.4076], [78.5678, 17.4077], [78.5678, 17.4078], [78.5678, 17.4079], [78.5679, 17.4079], [78.5679, 17.408], [78.568, 17.408], [78.5681, 17.408], [78.5685, 17.4079]]]}, "properties": {"objectid": 74019, "statename": "Telangana", "statecode": "36", "districtname": "Medchal Malkagiri", "districtcode": "685", "ulbname": "Peerzadiguda", "ulbcode": "900476", "wardname": "8", "wardcode": "8", "id": null, "status": "APPROVED", "misglobalid": null, "approved_by": null, "createdate": 1641817598000, "updateddate": 1641817678000, "globalid": null, "gisglobalid": "RnKlK6mR-Pn6a-Plo4-sa5l-lRR4onso5RdB", "remark": "", "st_area(shape)": 1.458030418324748e-05, "st_perimeter(shape)": 0.017950169989400886}}, {"type": "Feature", "geometry": {"type": "Polygon", "coordinates": [[[78.5866, 17.4073], [78.587, 17.4047], [78.586, 17.4045], [78.5853, 17.4042], [78.5847, 17.4038], [78.5838, 17.4032], [78.5832, 17.4028], [78.5825, 17.4021], [78.5819, 17.4015], [78.5817, 17.4014], [78.5816, 17.4014], [78.5814, 17.4016], [78.5813, 17.4016], [78.5813, 17.4017], [78.5812, 17.4017], [78.5812, 17.4019], [78.5811, 17.4021], [78.5811, 17.4022], [78.5811, 17.4023], [78.5812, 17.4025], [78.5814, 17.4029], [78.5817, 17.4035], [78.5825, 17.4042], [78.5824, 17.4042], [78.5824, 17.4043], [78.5824, 17.4044], [78.5821, 17.4047], [78.5821, 17.4049], [78.5817, 17.4056], [78.5816, 17.4057], [78.5816, 17.4058], [78.5826, 17.4062], [78.5828, 17.4056], [78.5835, 17.4059], [78.5837, 17.4059], [78.5838, 17.4059], [78.584, 17.4059], [78.5843, 17.406], [78.5841, 17.4065], [78.585, 17.4067], [78.5858, 17.407], [78.5863, 17.4072], [78.5866, 17.4073]]]}, "properties": {"objectid": 73669, "statename": "Telangana", "statecode": "36", "districtname": "Medchal Malkagiri", "districtcode": "685", "ulbname": "Peerzadiguda", "ulbcode": "900476", "wardname": "9", "wardcode": "9", "id": null, "status": "APPROVED", "misglobalid": null, "approved_by": null, "createdate": 1641817598000, "updateddate": 1641817683000, "globalid": null, "gisglobalid": "K6mK5KBP-lPdK-PK4B-aPBR-Pa4Pm6mQRB44", "remark": "", "st_area(shape)": 1.541487942372779e-05, "st_perimeter(shape)": 0.020668743722847546}}, {"type": "Feature", "geometry": {"type": "Polygon", "coordinates": [[[78.5892, 17.4091], [78.5892, 17.409], [78.589, 17.409], [78.589, 17.4089], [78.5891, 17.4087], [78.5891, 17.4086], [78.589, 17.4085], [78.5891, 17.4082], [78.5883, 17.408], [78.5875, 17.4077], [78.5869, 17.4075], [78.5866, 17.4074], [78.5866, 17.4073], [78.5863, 17.4072], [78.5858, 17.407], [78.585, 17.4067], [78.5841, 17.4065], [78.5843, 17.406], [78.584, 17.4059], [78.5838, 17.4059], [78.5837, 17.4059], [78.5835, 17.4059], [78.5828, 17.4056], [78.5826, 17.4062], [78.5816, 17.4058], [78.5815, 17.4061], [78.582, 17.4063], [78.5823, 17.4064], [78.5825, 17.4065], [78.5826, 17.4065], [78.5827, 17.4065], [78.583, 17.4067], [78.5833, 17.4068], [78.5833, 17.4069], [78.5834, 17.4069], [78.5835, 17.4069], [78.5836, 17.407], [78.5837, 17.407], [78.5838, 17.4071], [78.584, 17.4072], [78.5842, 17.4073], [78.5844, 17.4074], [78.5845, 17.4074], [78.5846, 17.4075], [78.5849, 17.4076], [78.5851, 17.4077], [78.5852, 17.4078], [78.5854, 17.4079], [78.5854, 17.408], [78.5855, 17.408], [78.5857, 17.4081], [78.5858, 17.4081], [78.586, 17.4082], [78.5863, 17.4083], [78.5863, 17.4084], [78.5864, 17.4084], [78.5865, 17.4084], [78.5867, 17.4085], [78.587, 17.4086], [78.587, 17.4087], [78.5872, 17.4088], [78.5873, 17.4089], [78.5874, 17.4089], [78.5875, 17.409], [78.5877, 17.4091], [78.5877, 17.4093], [78.5881, 17.4094], [78.5888, 17.4096], [78.5894, 17.4098], [78.5895, 17.4096], [78.5896, 17.4092], [78.5892, 17.4091]]]}, "properties": {"objectid": 72501, "statename": "Telangana", "statecode": "36", "districtname": "Medchal Malkagiri", "districtcode": "685", "ulbname": "Peerzadiguda", "ulbcode": "900476", "wardname": "10", "wardcode": "10", "id": null, "status": "APPROVED", "misglobalid": null, "approved_by": null, "createdate": 1641817598000, "updateddate": 1641817688000, "globalid": null, "gisglobalid": "5nRdmQaB-lBll-PsR6-smBP-mBPBPBQBoPd5", "remark": "", "st_area(shape)": 7.981590127299775e-06, "st_perimeter(shape)": 0.020614192601479394}}, {"type": "Feature", "geometry": {"type": "Polygon", "coordinates": [[[78.5929, 17.4094], [78.5909, 17.4088], [78.5899, 17.4085], [78.5891, 17.4082], [78.589, 17.4085], [78.5891, 17.4086], [78.5891, 17.4087], [78.589, 17.4089], [78.589, 17.409], [78.5892, 17.409], [78.5892, 17.4091], [78.5896, 17.4092], [78.5895, 17.4096], [78.5894, 17.4098], [78.5896, 17.4099], [78.5898, 17.41], [78.59, 17.41], [78.5902, 17.41], [78.5902, 17.4102], [78.5904, 17.4103], [78.5906, 17.4103], [78.5906, 17.4104], [78.5907, 17.4104], [78.5909, 17.4105], [78.5913, 17.4106], [78.5914, 17.4106], [78.5918, 17.4108], [78.5921, 17.4109], [78.5927, 17.411], [78.5933, 17.4095], [78.5929, 17.4094]]]}, "properties": {"objectid": 74020, "statename": "Telangana", "statecode": "36", "districtname": "Medchal Malkagiri", "districtcode": "685", "ulbname": "Peerzadiguda", "ulbcode": "900476", "wardname": "11", "wardcode": "11", "id": null, "status": "APPROVED", "misglobalid": null, "approved_by": null, "createdate": 1641817598000, "updateddate": 1641817693000, "globalid": null, "gisglobalid": "4lmlB5Qa-coQB-Plca-s4PQ-4BsRmdcQnla5", "remark": "", "st_area(shape)": 6.1493350903890056e-06, "st_perimeter(shape)": 0.01199396508761773}}, {"type": "Feature", "geometry": {"type": "Polygon", "coordinates": [[[78.5961, 17.4092], [78.5962, 17.409], [78.5963, 17.4091], [78.5964, 17.4088], [78.5965, 17.4084], [78.5966, 17.4084], [78.5969, 17.4084], [78.5969, 17.4085], [78.597, 17.4082], [78.5971, 17.408], [78.597, 17.4079], [78.5964, 17.4077], [78.5939, 17.4069], [78.5935, 17.4079], [78.5929, 17.4094], [78.5933, 17.4095], [78.5927, 17.411], [78.5929, 17.4111], [78.5931, 17.4111], [78.5933, 17.4112], [78.5938, 17.4113], [78.5939, 17.4112], [78.594, 17.4113], [78.5943, 17.4114], [78.5947, 17.4115], [78.595, 17.4116], [78.595, 17.4117], [78.5953, 17.411], [78.5955, 17.4103], [78.5958, 17.4103], [78.5959, 17.41], [78.5959, 17.4099], [78.5961, 17.4093], [78.5961, 17.4092]]]}, "properties": {"objectid": 73291, "statename": "Telangana", "statecode": "36", "districtname": "Medchal Malkagiri", "districtcode": "685", "ulbname": "Peerzadiguda", "ulbcode": "900476", "wardname": "12", "wardcode": "12", "id": null, "status": "APPROVED", "misglobalid": null, "approved_by": null, "createdate": 1641817598000, "updateddate": 1641817699000, "globalid": null, "gisglobalid": "4aoPlmmn-asd5-PsRK-QQKc-5ml64mnB45a5", "remark": "", "st_area(shape)": 1.1920788159995543e-05, "st_perimeter(shape)": 0.015677470386528183}}, {"type": "Feature", "geometry": {"type": "Polygon", "coordinates": [[[78.6003, 17.4111], [78.6011, 17.4091], [78.6006, 17.4089], [78.5999, 17.4087], [78.5989, 17.4084], [78.597, 17.4079], [78.5971, 17.408], [78.597, 17.4082], [78.5969, 17.4085], [78.5969, 17.4084], [78.5966, 17.4084], [78.5965, 17.4084], [78.5964, 17.4088], [78.5963, 17.4091], [78.5962, 17.409], [78.5961, 17.4092], [78.5961, 17.4093], [78.5959, 17.4099], [78.5959, 17.41], [78.5958, 17.4103], [78.5955, 17.4103], [78.5953, 17.411], [78.595, 17.4117], [78.595, 17.4118], [78.5952, 17.4119], [78.5953, 17.4119], [78.5954, 17.4119], [78.5956, 17.4122], [78.5956, 17.4121], [78.5958, 17.4121], [78.5958, 17.4122], [78.5959, 17.4123], [78.596, 17.4124], [78.596, 17.4125], [78.5961, 17.4127], [78.5962, 17.4128], [78.5962, 17.4129], [78.5963, 17.4131], [78.5964, 17.4132], [78.5964, 17.4131], [78.5966, 17.4132], [78.5966, 17.4134], [78.5967, 17.4134], [78.5966, 17.4137], [78.5968, 17.4137], [78.5972, 17.4136], [78.5976, 17.4135], [78.5977, 17.4135], [78.5979, 17.4135], [78.598, 17.4134], [78.5982, 17.4134], [78.5983, 17.4134], [78.5986, 17.4133], [78.5989, 17.4133], [78.599, 17.4133], [78.5991, 17.4132], [78.5992, 17.4132], [78.5993, 17.4132], [78.5995, 17.4132], [78.5996, 17.4132], [78.5997, 17.4132], [78.5998, 17.4132], [78.5999, 17.4132], [78.6004, 17.4131], [78.6005, 17.4131], [78.6019, 17.4131], [78.602, 17.4126], [78.6021, 17.4123], [78.6021, 17.412], [78.6007, 17.412], [78.6007, 17.4117], [78.6006, 17.4116], [78.6002, 17.4116], [78.6003, 17.4111]]]}, "properties": {"objectid": 72075, "statename": "Telangana", "statecode": "36", "districtname": "Medchal Malkagiri", "districtcode": "685", "ulbname": "Peerzadiguda", "ulbcode": "900476", "wardname": "13", "wardcode": "13", "id": null, "status": "APPROVED", "misglobalid": null, "approved_by": null, "createdate": 1641817598000, "updateddate": 1641817705000, "globalid": null, "gisglobalid": "KoP5dnmP-sRal-PmQn-QRQR-s5lnnK5K5mQ5", "remark": "", "st_area(shape)": 2.5342496241884426e-05, "st_perimeter(shape)": 0.023896850948858555}}, {"type": "Feature", "geometry": {"type": "Polygon", "coordinates": [[[78.6027, 17.4059], [78.6026, 17.4059], [78.6018, 17.4058], [78.6009, 17.4057], [78.6003, 17.4056], [78.6002, 17.4065], [78.6001, 17.4075], [78.6, 17.4084], [78.5999, 17.4087], [78.6006, 17.4089], [78.6011, 17.4091], [78.6023, 17.4096], [78.6025, 17.4097], [78.6034, 17.4101], [78.6036, 17.4098], [78.6037, 17.4096], [78.6038, 17.4093], [78.6038, 17.4088], [78.6039, 17.4084], [78.604, 17.408], [78.6041, 17.4078], [78.6043, 17.4077], [78.6042, 17.4074], [78.6042, 17.4071], [78.6041, 17.4068], [78.604, 17.4065], [78.6039, 17.4064], [78.6038, 17.4062], [78.6037, 17.4062], [78.6034, 17.4061], [78.603, 17.406], [78.6028, 17.4059], [78.6027, 17.4059]]]}, "properties": {"objectid": 71686, "statename": "Telangana", "statecode": "36", "districtname": "Medchal Malkagiri", "districtcode": "685", "ulbname": "Peerzadiguda", "ulbcode": "900476", "wardname": "14", "wardcode": "14", "id": null, "status": "APPROVED", "misglobalid": null, "approved_by": null, "createdate": 1641817598000, "updateddate": 1641817716000, "globalid": null, "gisglobalid": "l6daP4aK-mBaQ-PPRR-a5PK-aKddlB6scnmR", "remark": "", "st_area(shape)": 1.3956517727124094e-05, "st_perimeter(shape)": 0.014697840535045617}}, {"type": "Feature", "geometry": {"type": "Polygon", "coordinates": [[[78.6061, 17.4019], [78.606, 17.4017], [78.6059, 17.4017], [78.6056, 17.4016], [78.6054, 17.4015], [78.6051, 17.4014], [78.6051, 17.4012], [78.605, 17.4012], [78.6049, 17.4012], [78.6048, 17.4012], [78.6045, 17.4012], [78.6043, 17.4011], [78.6043, 17.4012], [78.6033, 17.401], [78.6032, 17.4016], [78.603, 17.4028], [78.6031, 17.4029], [78.603, 17.4037], [78.6028, 17.4044], [78.6028, 17.405], [78.6029, 17.4051], [78.6029, 17.4055], [78.6027, 17.4059], [78.6028, 17.4059], [78.603, 17.406], [78.6034, 17.4061], [78.6037, 17.4062], [78.6038, 17.4062], [78.6039, 17.4064], [78.604, 17.4065], [78.6041, 17.4068], [78.6042, 17.4071], [78.6042, 17.4074], [78.6043, 17.4077], [78.6041, 17.4078], [78.604, 17.408], [78.6039, 17.4084], [78.6038, 17.4088], [78.6038, 17.4093], [78.6037, 17.4096], [78.6036, 17.4098], [78.6034, 17.4101], [78.6046, 17.4105], [78.6048, 17.4102], [78.6048, 17.4101], [78.6048, 17.4097], [78.6049, 17.4095], [78.6049, 17.4094], [78.6053, 17.4094], [78.6052, 17.4087], [78.6055, 17.4086], [78.6054, 17.408], [78.6051, 17.4069], [78.605, 17.4067], [78.6051, 17.4061], [78.6053, 17.4059], [78.6055, 17.4056], [78.6058, 17.4049], [78.6062, 17.4039], [78.6063, 17.4035], [78.6064, 17.4032], [78.6064, 17.4031], [78.6063, 17.4027], [78.6061, 17.4021], [78.6061, 17.4019]]]}, "properties": {"objectid": 74021, "statename": "Telangana", "statecode": "36", "districtname": "Medchal Malkagiri", "districtcode": "685", "ulbname": "Peerzadiguda", "ulbcode": "900476", "wardname": "15", "wardcode": "15", "id": null, "status": "APPROVED", "misglobalid": null, "approved_by": null, "createdate": 1641817598000, "updateddate": 1641817730000, "globalid": null, "gisglobalid": "os5saB65-l5lP-PmKd-a5R4-5n6QPP6cBlQP", "remark": "", "st_area(shape)": 1.9850783854005323e-05, "st_perimeter(shape)": 0.024537496558919018}}, {"type": "Feature", "geometry": {"type": "Polygon", "coordinates": [[[78.5979, 17.4022], [78.598, 17.4019], [78.5981, 17.4016], [78.5981, 17.4014], [78.5983, 17.4011], [78.5985, 17.4006], [78.5986, 17.4004], [78.5988, 17.4003], [78.5991, 17.4002], [78.5991, 17.4004], [78.5992, 17.4004], [78.5996, 17.4004], [78.5996, 17.4006], [78.6001, 17.4005], [78.601, 17.4005], [78.6012, 17.4006], [78.6015, 17.4006], [78.6015, 17.4007], [78.6017, 17.4007], [78.6018, 17.4007], [78.6019, 17.4007], [78.6021, 17.4007], [78.6022, 17.4007], [78.6025, 17.4007], [78.6032, 17.4006], [78.6033, 17.4006], [78.6033, 17.4009], [78.6033, 17.401], [78.6043, 17.4012], [78.6043, 17.4011], [78.6045, 17.4012], [78.6048, 17.4012], [78.6049, 17.4012], [78.6047, 17.3996], [78.6048, 17.3994], [78.6049, 17.3989], [78.6051, 17.3985], [78.605, 17.3981], [78.6045, 17.3981], [78.6028, 17.398], [78.602, 17.398], [78.6011, 17.398], [78.6001, 17.398], [78.6, 17.398], [78.6, 17.3981], [78.6, 17.3982], [78.5999, 17.3982], [78.5998, 17.3983], [78.5998, 17.3984], [78.5998, 17.3985], [78.5996, 17.3986], [78.5989, 17.3988], [78.5985, 17.399], [78.5979, 17.3991], [78.5971, 17.3994], [78.5969, 17.3995], [78.5968, 17.3995], [78.5967, 17.3994], [78.5963, 17.3993], [78.5961, 17.3993], [78.5961, 17.3991], [78.596, 17.3991], [78.596, 17.399], [78.5959, 17.399], [78.5958, 17.399], [78.5957, 17.399], [78.5956, 17.399], [78.5956, 17.3989], [78.5955, 17.3989], [78.5954, 17.3989], [78.5954, 17.399], [78.5953, 17.399], [78.5953, 17.3991], [78.5942, 17.3995], [78.5947, 17.4007], [78.5954, 17.4005], [78.5957, 17.4004], [78.5959, 17.4004], [78.5963, 17.4014], [78.5968, 17.4013], [78.5969, 17.4023], [78.5975, 17.4022], [78.5979, 17.4022]]]}, "properties": {"objectid": 72911, "statename": "Telangana", "statecode": "36", "districtname": "Medchal Malkagiri", "districtcode": "685", "ulbname": "Peerzadiguda", "ulbcode": "900476", "wardname": "16", "wardcode": "16", "id": null, "status": "APPROVED", "misglobalid": null, "approved_by": null, "createdate": 1641817598000, "updateddate": 1641817735000, "globalid": null, "gisglobalid": "c6d6lRPc-lmRQ-PsRR-Qc4c-nmaKKdB4adBs", "remark": "", "st_area(shape)": 2.444477603050903e-05, "st_perimeter(shape)": 0.03000546366973866}}, {"type": "Feature", "geometry": {"type": "Polygon", "coordinates": [[[78.605, 17.3981], [78.605, 17.398], [78.605, 17.3973], [78.605, 17.3965], [78.605, 17.3954], [78.605, 17.3942], [78.605, 17.3939], [78.6051, 17.3939], [78.605, 17.3938], [78.605, 17.3937], [78.6048, 17.3936], [78.6047, 17.3935], [78.6046, 17.3934], [78.6043, 17.393], [78.6042, 17.3929], [78.6041, 17.3928], [78.6039, 17.3926], [78.6037, 17.3926], [78.6037, 17.3925], [78.6037, 17.3924], [78.6037, 17.3923], [78.6037, 17.3921], [78.6037, 17.392], [78.6036, 17.3918], [78.6035, 17.3914], [78.6035, 17.3912], [78.6034, 17.3912], [78.6029, 17.3911], [78.6023, 17.391], [78.6018, 17.391], [78.6014, 17.3911], [78.5998, 17.3915], [78.5987, 17.3918], [78.5981, 17.3919], [78.5978, 17.392], [78.5975, 17.3921], [78.5974, 17.3922], [78.5971, 17.3925], [78.5968, 17.3927], [78.5967, 17.3927], [78.5976, 17.3938], [78.5979, 17.3936], [78.5983, 17.3942], [78.5986, 17.394], [78.5989, 17.3946], [78.5991, 17.3949], [78.5994, 17.3948], [78.5996, 17.396], [78.5999, 17.3977], [78.5999, 17.3979], [78.6, 17.3981], [78.6, 17.398], [78.6001, 17.398], [78.6011, 17.398], [78.602, 17.398], [78.6028, 17.398], [78.6045, 17.3981], [78.605, 17.3981]]]}, "properties": {"objectid": 72073, "statename": "Telangana", "statecode": "36", "districtname": "Medchal Malkagiri", "districtcode": "685", "ulbname": "Peerzadiguda", "ulbcode": "900476", "wardname": "17", "wardcode": "17", "id": null, "status": "APPROVED", "misglobalid": null, "approved_by": null, "createdate": 1641817598000, "updateddate": 1641817745000, "globalid": null, "gisglobalid": "daacBom4-KRQc-PaR6-Rc65-6oPm4RdPon4o", "remark": "", "st_area(shape)": 3.941707337667427e-05, "st_perimeter(shape)": 0.027296794276361905}}, {"type": "Feature", "geometry": {"type": "Polygon", "coordinates": [[[78.6, 17.3981], [78.5999, 17.3979], [78.5999, 17.3977], [78.5996, 17.396], [78.5994, 17.3948], [78.5991, 17.3949], [78.5989, 17.3946], [78.5986, 17.394], [78.5983, 17.3942], [78.5979, 17.3936], [78.5976, 17.3938], [78.5967, 17.3927], [78.5963, 17.393], [78.5957, 17.3934], [78.5953, 17.3937], [78.595, 17.3938], [78.5951, 17.394], [78.5956, 17.3944], [78.5956, 17.3945], [78.5958, 17.3949], [78.5961, 17.3956], [78.5965, 17.3965], [78.5965, 17.3966], [78.5965, 17.3967], [78.5963, 17.3967], [78.5963, 17.3969], [78.5959, 17.3973], [78.5957, 17.3975], [78.5952, 17.3979], [78.5958, 17.3985], [78.596, 17.3986], [78.5963, 17.3987], [78.5965, 17.3988], [78.5967, 17.399], [78.5967, 17.3991], [78.5968, 17.3995], [78.5969, 17.3995], [78.5971, 17.3994], [78.5979, 17.3991], [78.5985, 17.399], [78.5989, 17.3988], [78.5996, 17.3986], [78.5998, 17.3985], [78.5998, 17.3984], [78.5998, 17.3983], [78.5999, 17.3982], [78.6, 17.3982], [78.6, 17.3981]]]}, "properties": {"objectid": 71318, "statename": "Telangana", "statecode": "36", "districtname": "Medchal Malkagiri", "districtcode": "685", "ulbname": "Peerzadiguda", "ulbcode": "900476", "wardname": "18", "wardcode": "18", "id": null, "status": "APPROVED", "misglobalid": null, "approved_by": null, "createdate": 1641817598000, "updateddate": 1641817751000, "globalid": null, "gisglobalid": "BsBoccn5-aBma-PQoo-aK65-mamRRoaBdPls", "remark": "", "st_area(shape)": 2.0419580019530315e-05, "st_perimeter(shape)": 0.020891351597283715}}, {"type": "Feature", "geometry": {"type": "Polygon", "coordinates": [[[78.5917, 17.4003], [78.5916, 17.3999], [78.5925, 17.3995], [78.5926, 17.3997], [78.5927, 17.3999], [78.5928, 17.4], [78.5928, 17.4001], [78.5929, 17.4002], [78.593, 17.4003], [78.5931, 17.4004], [78.5932, 17.4004], [78.5933, 17.4003], [78.5934, 17.4002], [78.5934, 17.4001], [78.5935, 17.4], [78.5935, 17.3999], [78.5936, 17.3998], [78.5936, 17.3997], [78.5936, 17.3996], [78.5936, 17.3995], [78.5936, 17.3994], [78.5937, 17.3994], [78.5938, 17.3993], [78.5941, 17.3992], [78.5942, 17.3995], [78.5953, 17.3991], [78.5953, 17.399], [78.5954, 17.399], [78.5954, 17.3989], [78.5955, 17.3989], [78.5956, 17.3989], [78.5956, 17.399], [78.5957, 17.399], [78.5958, 17.399], [78.5959, 17.399], [78.596, 17.399], [78.596, 17.3991], [78.5961, 17.3991], [78.5961, 17.3993], [78.5963, 17.3993], [78.5967, 17.3994], [78.5968, 17.3995], [78.5967, 17.3991], [78.5967, 17.399], [78.5965, 17.3988], [78.5963, 17.3987], [78.596, 17.3986], [78.5958, 17.3985], [78.5952, 17.3979], [78.5957, 17.3975], [78.5959, 17.3973], [78.5963, 17.3969], [78.5963, 17.3967], [78.5965, 17.3967], [78.5965, 17.3966], [78.5965, 17.3965], [78.5961, 17.3956], [78.5958, 17.3949], [78.5956, 17.3945], [78.5956, 17.3944], [78.5951, 17.394], [78.595, 17.3938], [78.5949, 17.3939], [78.5946, 17.394], [78.5945, 17.3943], [78.5942, 17.3947], [78.594, 17.3948], [78.5936, 17.395], [78.5935, 17.395], [78.5926, 17.3953], [78.5919, 17.3955], [78.5907, 17.3962], [78.5896, 17.3967], [78.5881, 17.3974], [78.5876, 17.3977], [78.5885, 17.3992], [78.5889, 17.3992], [78.589, 17.3996], [78.5891, 17.3997], [78.5892, 17.3999], [78.5897, 17.3997], [78.5901, 17.4009], [78.5905, 17.4008], [78.5909, 17.4008], [78.5917, 17.4003]]]}, "properties": {"objectid": 72074, "statename": "Telangana", "statecode": "36", "districtname": "Medchal Malkagiri", "districtcode": "685", "ulbname": "Peerzadiguda", "ulbcode": "900476", "wardname": "19", "wardcode": "19", "id": null, "status": "APPROVED", "misglobalid": null, "approved_by": null, "createdate": 1641817598000, "updateddate": 1641817756000, "globalid": null, "gisglobalid": "RdRK5dca-5d46-PRsP-aca5-onRKnols6nKK", "remark": "", "st_area(shape)": 3.3559228931230155e-05, "st_perimeter(shape)": 0.030140981354962786}}, {"type": "Feature", "geometry": {"type": "Polygon", "coordinates": [[[78.5922, 17.4031], [78.5922, 17.4022], [78.592, 17.4012], [78.5917, 17.4003], [78.5909, 17.4008], [78.5905, 17.4008], [78.5901, 17.4009], [78.5897, 17.3997], [78.5892, 17.3999], [78.5891, 17.3997], [78.589, 17.3996], [78.5889, 17.3992], [78.5885, 17.3992], [78.5876, 17.3977], [78.5875, 17.3978], [78.5867, 17.3983], [78.5858, 17.3988], [78.5849, 17.3994], [78.5841, 17.3996], [78.5836, 17.3998], [78.5837, 17.4], [78.5833, 17.4001], [78.5829, 17.4003], [78.5822, 17.4008], [78.5821, 17.4007], [78.5815, 17.4009], [78.5816, 17.4012], [78.5815, 17.4013], [78.5816, 17.4013], [78.5816, 17.4014], [78.5817, 17.4014], [78.5819, 17.4015], [78.5825, 17.4021], [78.5832, 17.4028], [78.5838, 17.4032], [78.5847, 17.4038], [78.5853, 17.4042], [78.586, 17.4045], [78.587, 17.4047], [78.5874, 17.4049], [78.5896, 17.4055], [78.5903, 17.4057], [78.5916, 17.4062], [78.5917, 17.4058], [78.5919, 17.4051], [78.592, 17.4044], [78.5921, 17.404], [78.5922, 17.4032], [78.5922, 17.4031]]]}, "properties": {"objectid": 73670, "statename": "Telangana", "statecode": "36", "districtname": "Medchal Malkagiri", "districtcode": "685", "ulbname": "Peerzadiguda", "ulbcode": "900476", "wardname": "20", "wardcode": "20", "id": null, "status": "APPROVED", "misglobalid": null, "approved_by": null, "createdate": 1641817598000, "updateddate": 1641817761000, "globalid": null, "gisglobalid": "doKQmPKs-KoaB-PKla-ansR-Pl4n5PKoP5ma", "remark": "", "st_area(shape)": 4.992958736801706e-05, "st_perimeter(shape)": 0.03172907120684741}}, {"type": "Feature", "geometry": {"type": "Polygon", "coordinates": [[[78.5903, 17.4057], [78.5896, 17.4055], [78.5874, 17.4049], [78.587, 17.4047], [78.5866, 17.4073], [78.5866, 17.4074], [78.5869, 17.4075], [78.5875, 17.4077], [78.5883, 17.408], [78.5891, 17.4082], [78.5899, 17.4085], [78.5899, 17.4082], [78.59, 17.4073], [78.5901, 17.4068], [78.5903, 17.4057]]]}, "properties": {"objectid": 72502, "statename": "Telangana", "statecode": "36", "districtname": "Medchal Malkagiri", "districtcode": "685", "ulbname": "Peerzadiguda", "ulbcode": "900476", "wardname": "21", "wardcode": "21", "id": null, "status": "APPROVED", "misglobalid": null, "approved_by": null, "createdate": 1641817598000, "updateddate": 1641817769000, "globalid": null, "gisglobalid": "B6P6Rl6c-K6nl-PBa6-QdKK-n5snacPP4doB", "remark": "", "st_area(shape)": 9.421021509740302e-06, "st_perimeter(shape)": 0.012391823227880504}}, {"type": "Feature", "geometry": {"type": "Polygon", "coordinates": [[[78.5939, 17.4069], [78.5932, 17.4067], [78.5916, 17.4062], [78.5903, 17.4057], [78.5901, 17.4068], [78.59, 17.4073], [78.5899, 17.4082], [78.5899, 17.4085], [78.5909, 17.4088], [78.5929, 17.4094], [78.5935, 17.4079], [78.5939, 17.4069]]]}, "properties": {"objectid": 74022, "statename": "Telangana", "statecode": "36", "districtname": "Medchal Malkagiri", "districtcode": "685", "ulbname": "Peerzadiguda", "ulbcode": "900476", "wardname": "22", "wardcode": "22", "id": null, "status": "APPROVED", "misglobalid": null, "approved_by": null, "createdate": 1641817598000, "updateddate": 1641817774000, "globalid": null, "gisglobalid": "Koos6lac-5s5a-Ps5l-soKQ-RcKKsdsd5RQs", "remark": "", "st_area(shape)": 9.375324613290081e-06, "st_perimeter(shape)": 0.012364406590949627}}, {"type": "Feature", "geometry": {"type": "Polygon", "coordinates": [[[78.5975, 17.4049], [78.5958, 17.4046], [78.5951, 17.4045], [78.5949, 17.4045], [78.5949, 17.4042], [78.5944, 17.4042], [78.5944, 17.4038], [78.5938, 17.4038], [78.5936, 17.403], [78.5926, 17.4031], [78.5922, 17.4031], [78.5922, 17.4032], [78.5921, 17.404], [78.592, 17.4044], [78.5919, 17.4051], [78.5917, 17.4058], [78.5916, 17.4062], [78.5932, 17.4067], [78.5939, 17.4069], [78.5964, 17.4077], [78.597, 17.4079], [78.5971, 17.4073], [78.5971, 17.4072], [78.5973, 17.4062], [78.5974, 17.4058], [78.5975, 17.4051], [78.5975, 17.4049]]]}, "properties": {"objectid": 72500, "statename": "Telangana", "statecode": "36", "districtname": "Medchal Malkagiri", "districtcode": "685", "ulbname": "Peerzadiguda", "ulbcode": "900476", "wardname": "23", "wardcode": "23", "id": null, "status": "APPROVED", "misglobalid": null, "approved_by": null, "createdate": 1641817598000, "updateddate": 1641817779000, "globalid": null, "gisglobalid": "KBl5cocQ-d66m-PQPs-Rl4l-nlm6PoaB5PQl", "remark": "", "st_area(shape)": 1.686329371342453e-05, "st_perimeter(shape)": 0.01845606446498191}}, {"type": "Feature", "geometry": {"type": "Polygon", "coordinates": [[[78.6003, 17.4056], [78.6003, 17.4055], [78.6004, 17.4049], [78.6004, 17.4048], [78.6004, 17.4047], [78.6005, 17.4047], [78.6006, 17.4047], [78.6006, 17.4046], [78.6007, 17.4045], [78.6008, 17.4038], [78.601, 17.4026], [78.5999, 17.4025], [78.5987, 17.4023], [78.5979, 17.4022], [78.5978, 17.4023], [78.5977, 17.4026], [78.5977, 17.4028], [78.5977, 17.4031], [78.5976, 17.404], [78.5975, 17.4049], [78.5975, 17.4051], [78.5974, 17.4058], [78.5973, 17.4062], [78.5971, 17.4072], [78.5971, 17.4073], [78.597, 17.4079], [78.5989, 17.4084], [78.5999, 17.4087], [78.6, 17.4084], [78.6001, 17.4075], [78.6002, 17.4065], [78.6003, 17.4056]]]}, "properties": {"objectid": 71319, "statename": "Telangana", "statecode": "36", "districtname": "Medchal Malkagiri", "districtcode": "685", "ulbname": "Peerzadiguda", "ulbcode": "900476", "wardname": "24", "wardcode": "24", "id": null, "status": "APPROVED", "misglobalid": null, "approved_by": null, "createdate": 1641817598000, "updateddate": 1641817787000, "globalid": null, "gisglobalid": "BQmmBR6l-Qsaa-Pns5-Ql4l-K4saBaKQKdsP", "remark": "", "st_area(shape)": 1.7942500158482358e-05, "st_perimeter(shape)": 0.018353039848491494}}, {"type": "Feature", "geometry": {"type": "Polygon", "coordinates": [[[78.6027, 17.4059], [78.6029, 17.4055], [78.6029, 17.4051], [78.6028, 17.405], [78.6028, 17.4044], [78.603, 17.4037], [78.6031, 17.4029], [78.603, 17.4028], [78.6032, 17.4016], [78.6033, 17.401], [78.6033, 17.4009], [78.6033, 17.4006], [78.6032, 17.4006], [78.6025, 17.4007], [78.6022, 17.4007], [78.6021, 17.4007], [78.6019, 17.4007], [78.6018, 17.4007], [78.6017, 17.4007], [78.6015, 17.4007], [78.6015, 17.4006], [78.6012, 17.4006], [78.601, 17.4005], [78.6001, 17.4005], [78.5996, 17.4006], [78.5996, 17.4004], [78.5992, 17.4004], [78.5991, 17.4004], [78.5991, 17.4002], [78.5988, 17.4003], [78.5986, 17.4004], [78.5985, 17.4006], [78.5983, 17.4011], [78.5981, 17.4014], [78.5981, 17.4016], [78.598, 17.4019], [78.5979, 17.4022], [78.5987, 17.4023], [78.5999, 17.4025], [78.601, 17.4026], [78.6008, 17.4038], [78.6007, 17.4045], [78.6006, 17.4046], [78.6006, 17.4047], [78.6005, 17.4047], [78.6004, 17.4047], [78.6004, 17.4048], [78.6004, 17.4049], [78.6003, 17.4055], [78.6003, 17.4056], [78.6009, 17.4057], [78.6018, 17.4058], [78.6026, 17.4059], [78.6027, 17.4059]]]}, "properties": {"objectid": 72913, "statename": "Telangana", "statecode": "36", "districtname": "Medchal Malkagiri", "districtcode": "685", "ulbname": "Peerzadiguda", "ulbcode": "900476", "wardname": "25", "wardcode": "25", "id": null, "status": "APPROVED", "misglobalid": null, "approved_by": null, "createdate": 1641817598000, "updateddate": 1641817829000, "globalid": null, "gisglobalid": "5RmcBl54-KdP4-PaRa-RcBs-P6al5RK6am6P", "remark": "", "st_area(shape)": 1.7005810333529763e-05, "st_perimeter(shape)": 0.02143784806016589}}, {"type": "Feature", "geometry": {"type": "Polygon", "coordinates": [[[78.5942, 17.3995], [78.5941, 17.3992], [78.5938, 17.3993], [78.5937, 17.3994], [78.5936, 17.3994], [78.5936, 17.3995], [78.5936, 17.3996], [78.5936, 17.3997], [78.5936, 17.3998], [78.5935, 17.3999], [78.5935, 17.4], [78.5934, 17.4001], [78.5934, 17.4002], [78.5933, 17.4003], [78.5932, 17.4004], [78.5931, 17.4004], [78.593, 17.4003], [78.5929, 17.4002], [78.5928, 17.4001], [78.5928, 17.4], [78.5927, 17.3999], [78.5926, 17.3997], [78.5925, 17.3995], [78.5916, 17.3999], [78.5917, 17.4003], [78.592, 17.4012], [78.5922, 17.4022], [78.5922, 17.4031], [78.5926, 17.4031], [78.5936, 17.403], [78.5938, 17.4038], [78.5944, 17.4038], [78.5944, 17.4042], [78.5949, 17.4042], [78.5949, 17.4045], [78.5951, 17.4045], [78.5958, 17.4046], [78.5975, 17.4049], [78.5976, 17.404], [78.5977, 17.4031], [78.5977, 17.4028], [78.5977, 17.4026], [78.5978, 17.4023], [78.5979, 17.4022], [78.5975, 17.4022], [78.5969, 17.4023], [78.5968, 17.4013], [78.5963, 17.4014], [78.5959, 17.4004], [78.5957, 17.4004], [78.5954, 17.4005], [78.5947, 17.4007], [78.5942, 17.3995]]]}, "properties": {"objectid": 72076, "statename": "Telangana", "statecode": "36", "districtname": "Medchal Malkagiri", "districtcode": "685", "ulbname": "Peerzadiguda", "ulbcode": "900476", "wardname": "26", "wardcode": "26", "id": null, "status": "APPROVED", "misglobalid": null, "approved_by": null, "createdate": 1641817598000, "updateddate": 1641817837000, "globalid": null, "gisglobalid": "dsdRcQsm-oQcd-PPa6-RPlK-KRclo6PRRQoP", "remark": "", "st_area(shape)": 1.96776860876367e-05, "st_perimeter(shape)": 0.022872431329326814}}]}
