{"type": "FeatureCollection", "features": [{"type": "Feature", "geometry": {"type": "Polygon", "coordinates": [[[76.893, 9.0303], [76.893, 9.0297], [76.8932, 9.029], [76.8935, 9.0284], [76.8939, 9.0277], [76.8939, 9.0272], [76.8934, 9.0275], [76.8929, 9.028], [76.8925, 9.0282], [76.892, 9.0283], [76.8914, 9.0287], [76.8907, 9.0289], [76.8903, 9.0286], [76.8901, 9.0277], [76.8899, 9.027], [76.8899, 9.0268], [76.8897, 9.0269], [76.8892, 9.027], [76.8886, 9.0272], [76.8883, 9.0272], [76.8881, 9.0273], [76.8877, 9.0274], [76.8875, 9.0275], [76.8874, 9.0276], [76.8871, 9.0277], [76.8864, 9.0278], [76.8862, 9.0278], [76.8858, 9.0279], [76.8857, 9.0279], [76.8854, 9.0281], [76.8851, 9.0283], [76.8848, 9.0287], [76.8847, 9.0288], [76.8846, 9.0288], [76.8844, 9.0287], [76.8842, 9.0286], [76.8836, 9.0286], [76.8836, 9.0287], [76.8836, 9.0288], [76.8834, 9.0287], [76.8832, 9.0287], [76.8829, 9.0285], [76.8824, 9.0286], [76.8824, 9.0289], [76.8823, 9.0289], [76.8818, 9.0292], [76.8817, 9.0292], [76.8818, 9.0298], [76.8813, 9.0297], [76.8807, 9.0296], [76.8804, 9.0297], [76.8802, 9.0297], [76.88, 9.0298], [76.88, 9.0301], [76.8801, 9.0303], [76.88, 9.0303], [76.8799, 9.0303], [76.8797, 9.0301], [76.8795, 9.03], [76.8794, 9.03], [76.8792, 9.0299], [76.8791, 9.0298], [76.8789, 9.0297], [76.8788, 9.0296], [76.8785, 9.0297], [76.8784, 9.0297], [76.8784, 9.0298], [76.8783, 9.0298], [76.8783, 9.0299], [76.8781, 9.0301], [76.8778, 9.0301], [76.8777, 9.0302], [76.8776, 9.0302], [76.8774, 9.0305], [76.8772, 9.0306], [76.8769, 9.0309], [76.8768, 9.031], [76.8765, 9.0311], [76.8764, 9.0311], [76.8764, 9.0312], [76.8761, 9.0314], [76.8756, 9.0314], [76.8754, 9.0314], [76.875, 9.0313], [76.8748, 9.0313], [76.8743, 9.0312], [76.874, 9.0312], [76.8738, 9.0312], [76.8735, 9.0314], [76.8732, 9.0315], [76.8731, 9.0315], [76.873, 9.0315], [76.8725, 9.0316], [76.8727, 9.0319], [76.8729, 9.0322], [76.8732, 9.0325], [76.8734, 9.0325], [76.8736, 9.0324], [76.8744, 9.0321], [76.8745, 9.0321], [76.875, 9.0318], [76.875, 9.0321], [76.8759, 9.032], [76.8762, 9.032], [76.8768, 9.0319], [76.8772, 9.0318], [76.8779, 9.0318], [76.8783, 9.0318], [76.8788, 9.0319], [76.8794, 9.0319], [76.8799, 9.0318], [76.8804, 9.0319], [76.8807, 9.032], [76.8809, 9.032], [76.8813, 9.0321], [76.8816, 9.0322], [76.882, 9.0323], [76.882, 9.0318], [76.8826, 9.0318], [76.8828, 9.0319], [76.8828, 9.032], [76.8828, 9.0321], [76.8828, 9.0323], [76.8832, 9.0323], [76.8832, 9.0321], [76.8833, 9.0321], [76.8834, 9.0317], [76.8834, 9.0313], [76.883, 9.0314], [76.883, 9.0309], [76.8832, 9.0309], [76.8837, 9.0308], [76.8837, 9.0305], [76.8841, 9.0304], [76.8842, 9.0301], [76.8845, 9.0301], [76.8847, 9.0302], [76.8848, 9.0303], [76.8849, 9.0306], [76.8849, 9.0309], [76.8848, 9.031], [76.8848, 9.0311], [76.8847, 9.0312], [76.8846, 9.0314], [76.8844, 9.0314], [76.8843, 9.0315], [76.8843, 9.0316], [76.8844, 9.0317], [76.8846, 9.032], [76.8846, 9.0323], [76.8845, 9.0325], [76.8844, 9.0328], [76.8843, 9.0328], [76.8843, 9.033], [76.8844, 9.0332], [76.8846, 9.0334], [76.8848, 9.0334], [76.885, 9.0334], [76.8852, 9.0335], [76.8854, 9.0334], [76.8855, 9.0334], [76.8856, 9.0335], [76.8857, 9.0336], [76.8863, 9.0333], [76.8875, 9.0326], [76.8888, 9.0322], [76.8899, 9.0316], [76.8911, 9.031], [76.8927, 9.0304], [76.893, 9.0303]]]}, "properties": {"objectid": 291442, "statename": "Kerala", "statecode": "32", "districtname": "Kollam", "districtcode": "600", "ulbname": "Punalur (M)", "ulbcode": "803307", "wardname": "Ward 1", "wardcode": "1", "id": null, "status": "APPROVED", "misglobalid": null, "approved_by": null, "createdate": 1663313001000, "updateddate": 1670562901000, "globalid": null, "gisglobalid": "oPK6d4Bs-BQmo-P4lm-slos-6BK4cdl4BdnR", "remark": "", "st_area(shape)": 5.6262070433339294e-05, "st_perimeter(shape)": 0.06008457651470592}}, {"type": "Feature", "geometry": {"type": "Polygon", "coordinates": [[[76.907, 9.0265], [76.9063, 9.0265], [76.905, 9.0265], [76.9048, 9.0265], [76.9032, 9.0267], [76.9024, 9.0271], [76.9014, 9.0272], [76.9003, 9.0277], [76.8992, 9.0282], [76.8984, 9.0285], [76.897, 9.0291], [76.8959, 9.0294], [76.8945, 9.0297], [76.893, 9.0303], [76.8927, 9.0304], [76.8911, 9.031], [76.8899, 9.0316], [76.8888, 9.0322], [76.8875, 9.0326], [76.8863, 9.0333], [76.8857, 9.0336], [76.8858, 9.0337], [76.8859, 9.0335], [76.8861, 9.0336], [76.8863, 9.0338], [76.8863, 9.0339], [76.8864, 9.0339], [76.8866, 9.0342], [76.8867, 9.0342], [76.8868, 9.0341], [76.8869, 9.034], [76.8871, 9.0337], [76.8873, 9.0335], [76.888, 9.0328], [76.8881, 9.0328], [76.8885, 9.0327], [76.8886, 9.0327], [76.8889, 9.0328], [76.8892, 9.0331], [76.8892, 9.0332], [76.8892, 9.0335], [76.8892, 9.0336], [76.8893, 9.0337], [76.8894, 9.0338], [76.8895, 9.0339], [76.8896, 9.034], [76.8898, 9.034], [76.89, 9.0343], [76.8902, 9.0341], [76.8905, 9.0339], [76.8906, 9.0338], [76.8907, 9.0336], [76.8907, 9.0334], [76.8908, 9.0333], [76.8909, 9.033], [76.8911, 9.0328], [76.8913, 9.0328], [76.8918, 9.0326], [76.8921, 9.0325], [76.8926, 9.0324], [76.8929, 9.0323], [76.893, 9.0323], [76.8935, 9.0323], [76.8939, 9.0323], [76.894, 9.0323], [76.8941, 9.0321], [76.8945, 9.0318], [76.8948, 9.0317], [76.8953, 9.0315], [76.8957, 9.0314], [76.8958, 9.0312], [76.8962, 9.0308], [76.8963, 9.0308], [76.8966, 9.0305], [76.897, 9.0301], [76.8973, 9.03], [76.8974, 9.03], [76.898, 9.03], [76.8984, 9.0299], [76.8989, 9.0299], [76.8992, 9.0299], [76.8994, 9.03], [76.8997, 9.0301], [76.9, 9.0302], [76.9002, 9.0303], [76.9002, 9.0304], [76.9005, 9.0306], [76.9007, 9.0306], [76.9008, 9.0307], [76.9009, 9.0307], [76.901, 9.0307], [76.9014, 9.0309], [76.9014, 9.031], [76.9019, 9.0311], [76.9021, 9.0312], [76.9022, 9.0312], [76.9028, 9.0313], [76.903, 9.0313], [76.9034, 9.0306], [76.904, 9.0302], [76.9046, 9.0296], [76.905, 9.0291], [76.9055, 9.0285], [76.906, 9.0279], [76.9067, 9.0271], [76.907, 9.0268], [76.907, 9.0265]]]}, "properties": {"objectid": 291443, "statename": "Kerala", "statecode": "32", "districtname": "Kollam", "districtcode": "600", "ulbname": "Punalur (M)", "ulbcode": "803307", "wardname": "Kanjiramala", "wardcode": "2", "id": null, "status": "APPROVED", "misglobalid": null, "approved_by": null, "createdate": 1663313001000, "updateddate": 1670860277000, "globalid": null, "gisglobalid": "BacKsBa4-PllQ-PPna-Rc4l-l6Q5B4QnlnsQ", "remark": "", "st_area(shape)": 4.3030062367303975e-05, "st_perimeter(shape)": 0.0504521154478184}}, {"type": "Feature", "geometry": {"type": "Polygon", "coordinates": [[[76.907, 9.0265], [76.907, 9.0268], [76.9067, 9.0271], [76.906, 9.0279], [76.9055, 9.0285], [76.905, 9.0291], [76.9046, 9.0296], [76.904, 9.0302], [76.9034, 9.0306], [76.903, 9.0313], [76.9033, 9.0315], [76.9036, 9.0316], [76.9041, 9.0316], [76.9042, 9.0317], [76.9047, 9.0317], [76.905, 9.0315], [76.9052, 9.0315], [76.9056, 9.0316], [76.9063, 9.0316], [76.9068, 9.0315], [76.9069, 9.0318], [76.9072, 9.0315], [76.9075, 9.0311], [76.9079, 9.0308], [76.9082, 9.0306], [76.9085, 9.0303], [76.9087, 9.0302], [76.909, 9.0301], [76.9092, 9.0299], [76.9095, 9.0297], [76.9099, 9.0297], [76.9104, 9.0296], [76.9107, 9.0296], [76.911, 9.0296], [76.911, 9.0295], [76.9109, 9.0293], [76.9106, 9.0292], [76.9104, 9.029], [76.9104, 9.0288], [76.9106, 9.0287], [76.9111, 9.0286], [76.9114, 9.0286], [76.9118, 9.0285], [76.912, 9.0278], [76.9121, 9.0271], [76.9115, 9.0271], [76.9111, 9.0267], [76.9109, 9.0261], [76.9107, 9.0255], [76.9105, 9.0251], [76.9102, 9.0252], [76.9095, 9.0256], [76.9089, 9.0257], [76.9082, 9.0258], [76.9074, 9.026], [76.9072, 9.0262], [76.907, 9.0265]]]}, "properties": {"objectid": 287168, "statename": "Kerala", "statecode": "32", "districtname": "Kollam", "districtcode": "600", "ulbname": "Punalur (M)", "ulbcode": "803307", "wardname": "Chalakodu", "wardcode": "3", "id": null, "status": "APPROVED", "misglobalid": null, "approved_by": null, "createdate": 1663313001000, "updateddate": 1670860331000, "globalid": null, "gisglobalid": "BBRlQ5cB-55Qn-Pn4n-s5sc-asQ5Qdca4QBc", "remark": "", "st_area(shape)": 2.9557360458840373e-05, "st_perimeter(shape)": 0.026080681580291098}}, {"type": "Feature", "geometry": {"type": "Polygon", "coordinates": [[[76.9067, 9.0378], [76.9083, 9.0374], [76.9091, 9.0368], [76.91, 9.0363], [76.9102, 9.0361], [76.9106, 9.0359], [76.9118, 9.0355], [76.9131, 9.0352], [76.9141, 9.0346], [76.9141, 9.0344], [76.9142, 9.0341], [76.9143, 9.0336], [76.9146, 9.0331], [76.9148, 9.0329], [76.9149, 9.0326], [76.915, 9.0324], [76.9148, 9.0324], [76.9145, 9.0323], [76.9141, 9.0322], [76.9138, 9.0323], [76.9134, 9.0328], [76.9131, 9.0333], [76.9127, 9.0336], [76.9123, 9.0338], [76.9118, 9.0335], [76.9114, 9.0333], [76.911, 9.0331], [76.9104, 9.033], [76.9098, 9.033], [76.9094, 9.0331], [76.9088, 9.0334], [76.9085, 9.0335], [76.9084, 9.0338], [76.9085, 9.0339], [76.9086, 9.0341], [76.9085, 9.0346], [76.9086, 9.0346], [76.9087, 9.0348], [76.9084, 9.035], [76.9083, 9.0353], [76.9083, 9.0355], [76.9081, 9.0358], [76.9079, 9.036], [76.9078, 9.0361], [76.9075, 9.0364], [76.9075, 9.0365], [76.9072, 9.0368], [76.907, 9.0368], [76.9067, 9.0378]]]}, "properties": {"objectid": 291832, "statename": "Kerala", "statecode": "32", "districtname": "Kollam", "districtcode": "600", "ulbname": "Punalur (M)", "ulbcode": "803307", "wardname": "Paper Mill", "wardcode": "4", "id": null, "status": "APPROVED", "misglobalid": null, "approved_by": null, "createdate": 1663313001000, "updateddate": 1670860409000, "globalid": null, "gisglobalid": "oam6lRaa-4cR6-PBaK-s5PP-RPoQc6l5loaa", "remark": "", "st_area(shape)": 1.781775446309833e-05, "st_perimeter(shape)": 0.023396917207730444}}, {"type": "Feature", "geometry": {"type": "Polygon", "coordinates": [[[76.9118, 9.0285], [76.9114, 9.0286], [76.9111, 9.0286], [76.9106, 9.0287], [76.9104, 9.0288], [76.9104, 9.029], [76.9106, 9.0292], [76.9109, 9.0293], [76.911, 9.0295], [76.911, 9.0296], [76.9107, 9.0296], [76.9104, 9.0296], [76.9099, 9.0297], [76.9095, 9.0297], [76.9092, 9.0299], [76.909, 9.0301], [76.9087, 9.0302], [76.9085, 9.0303], [76.9082, 9.0306], [76.9079, 9.0308], [76.9075, 9.0311], [76.9072, 9.0315], [76.9069, 9.0318], [76.9069, 9.0321], [76.9069, 9.0323], [76.9072, 9.0327], [76.9076, 9.0331], [76.908, 9.0331], [76.9084, 9.0331], [76.9085, 9.0333], [76.9085, 9.0335], [76.9088, 9.0334], [76.9094, 9.0331], [76.9098, 9.033], [76.9104, 9.033], [76.911, 9.0331], [76.9114, 9.0333], [76.9118, 9.0335], [76.9123, 9.0338], [76.9127, 9.0336], [76.9131, 9.0333], [76.9134, 9.0328], [76.9138, 9.0323], [76.9141, 9.0322], [76.9145, 9.0323], [76.9148, 9.0324], [76.915, 9.0324], [76.9151, 9.0318], [76.9154, 9.0314], [76.916, 9.0312], [76.9168, 9.0311], [76.9174, 9.0309], [76.9176, 9.0308], [76.9184, 9.0306], [76.9187, 9.0305], [76.9189, 9.03], [76.9189, 9.0295], [76.9188, 9.029], [76.9187, 9.0285], [76.9187, 9.028], [76.9187, 9.0275], [76.9183, 9.0275], [76.9176, 9.0276], [76.9166, 9.0277], [76.916, 9.0277], [76.915, 9.0277], [76.9142, 9.0276], [76.9136, 9.0278], [76.9132, 9.0281], [76.9128, 9.0285], [76.9123, 9.0286], [76.9118, 9.0285]]]}, "properties": {"objectid": 292263, "statename": "Kerala", "statecode": "32", "districtname": "Kollam", "districtcode": "600", "ulbname": "Punalur (M)", "ulbcode": "803307", "wardname": "Nedumkayam", "wardcode": "5", "id": null, "status": "APPROVED", "misglobalid": null, "approved_by": null, "createdate": 1663313001000, "updateddate": 1670860520000, "globalid": null, "gisglobalid": "cdBa5lcd-mRlP-PodP-amBP-n6clncnPPnlB", "remark": "", "st_area(shape)": 4.3860833091428955e-05, "st_perimeter(shape)": 0.03268331265525468}}, {"type": "Feature", "geometry": {"type": "Polygon", "coordinates": [[[76.9213, 9.0303], [76.9207, 9.0303], [76.92, 9.0302], [76.9192, 9.0302], [76.9188, 9.0304], [76.9187, 9.0305], [76.9184, 9.0306], [76.9176, 9.0308], [76.9174, 9.0309], [76.9168, 9.0311], [76.916, 9.0312], [76.9154, 9.0314], [76.9151, 9.0318], [76.915, 9.0324], [76.9149, 9.0326], [76.9148, 9.0329], [76.9146, 9.0331], [76.9143, 9.0336], [76.9142, 9.0341], [76.9141, 9.0344], [76.9141, 9.0346], [76.9143, 9.0346], [76.9152, 9.0343], [76.9159, 9.0341], [76.9164, 9.0342], [76.9168, 9.0346], [76.917, 9.0349], [76.917, 9.035], [76.9172, 9.0361], [76.9174, 9.0371], [76.9178, 9.0383], [76.9179, 9.0387], [76.918, 9.0389], [76.9182, 9.0387], [76.9185, 9.0382], [76.919, 9.0376], [76.9192, 9.0372], [76.9193, 9.0367], [76.9196, 9.0361], [76.92, 9.0357], [76.9202, 9.0351], [76.9204, 9.0346], [76.9204, 9.0339], [76.9205, 9.0334], [76.9206, 9.0329], [76.9207, 9.0324], [76.9212, 9.0311], [76.9213, 9.0307], [76.9213, 9.0303]]]}, "properties": {"objectid": 291833, "statename": "Kerala", "statecode": "32", "districtname": "Kollam", "districtcode": "600", "ulbname": "Punalur (M)", "ulbcode": "803307", "wardname": "Sastamkonam", "wardcode": "6", "id": null, "status": "APPROVED", "misglobalid": null, "approved_by": null, "createdate": 1663313001000, "updateddate": 1670860570000, "globalid": null, "gisglobalid": "noosQPla-QQaa-Pm5o-sQ6o-Kd4Qm5Qa44dm", "remark": "", "st_area(shape)": 3.073090094862939e-05, "st_perimeter(shape)": 0.02635604017548504}}, {"type": "Feature", "geometry": {"type": "Polygon", "coordinates": [[[76.9187, 9.0275], [76.9187, 9.0268], [76.9187, 9.0261], [76.9186, 9.0255], [76.9185, 9.0247], [76.9184, 9.0241], [76.9183, 9.0234], [76.917, 9.0233], [76.9161, 9.0233], [76.9152, 9.0234], [76.9142, 9.0236], [76.9132, 9.0238], [76.9116, 9.0245], [76.9105, 9.0251], [76.9107, 9.0255], [76.9109, 9.0261], [76.9111, 9.0267], [76.9115, 9.0271], [76.9121, 9.0271], [76.912, 9.0278], [76.9118, 9.0285], [76.9123, 9.0286], [76.9128, 9.0285], [76.9132, 9.0281], [76.9136, 9.0278], [76.9142, 9.0276], [76.915, 9.0277], [76.916, 9.0277], [76.9166, 9.0277], [76.9176, 9.0276], [76.9183, 9.0275], [76.9187, 9.0275]]]}, "properties": {"objectid": 287169, "statename": "Kerala", "statecode": "32", "districtname": "Kollam", "districtcode": "600", "ulbname": "Punalur (M)", "ulbcode": "803307", "wardname": "Musavary", "wardcode": "7", "id": null, "status": "APPROVED", "misglobalid": null, "approved_by": null, "createdate": 1663313001000, "updateddate": 1670860622000, "globalid": null, "gisglobalid": "mn5cRP4n-dadn-PQQn-RKaQ-KmKPBalBdBlo", "remark": "", "st_area(shape)": 3.095583083419256e-05, "st_perimeter(shape)": 0.023765538063145783}}, {"type": "Feature", "geometry": {"type": "Polygon", "coordinates": [[[76.9187, 9.0275], [76.9187, 9.028], [76.9187, 9.0285], [76.9188, 9.029], [76.9189, 9.0295], [76.9189, 9.03], [76.9187, 9.0305], [76.9188, 9.0304], [76.9192, 9.0302], [76.92, 9.0302], [76.9207, 9.0303], [76.9213, 9.0303], [76.9212, 9.0302], [76.9213, 9.0297], [76.9219, 9.0292], [76.9221, 9.0289], [76.9221, 9.028], [76.9214, 9.0279], [76.9208, 9.0275], [76.9203, 9.0269], [76.9199, 9.026], [76.9194, 9.0251], [76.9189, 9.0243], [76.9185, 9.0237], [76.9183, 9.0234], [76.9184, 9.0241], [76.9185, 9.0247], [76.9186, 9.0255], [76.9187, 9.0261], [76.9187, 9.0268], [76.9187, 9.0275]]]}, "properties": {"objectid": 292265, "statename": "Kerala", "statecode": "32", "districtname": "Kollam", "districtcode": "600", "ulbname": "Punalur (M)", "ulbcode": "803307", "wardname": "Bharanikavu", "wardcode": "8", "id": null, "status": "APPROVED", "misglobalid": null, "approved_by": null, "createdate": 1663313001000, "updateddate": 1670860660000, "globalid": null, "gisglobalid": "5scanolP-cocc-PdPn-QK6K-c65l5sKllnPB", "remark": "", "st_area(shape)": 1.220216128912093e-05, "st_perimeter(shape)": 0.018703473319757837}}, {"type": "Feature", "geometry": {"type": "Polygon", "coordinates": [[[76.9226, 9.0295], [76.9231, 9.0285], [76.9237, 9.0277], [76.9242, 9.0269], [76.9247, 9.0263], [76.9255, 9.0254], [76.9259, 9.0243], [76.9262, 9.0236], [76.9265, 9.0229], [76.9259, 9.023], [76.925, 9.0231], [76.924, 9.0231], [76.9229, 9.0231], [76.9222, 9.0234], [76.9212, 9.0234], [76.9202, 9.0235], [76.9194, 9.0236], [76.9183, 9.0234], [76.9185, 9.0237], [76.9189, 9.0243], [76.9194, 9.0251], [76.9199, 9.026], [76.9203, 9.0269], [76.9208, 9.0275], [76.9214, 9.0279], [76.9221, 9.028], [76.9221, 9.0289], [76.9219, 9.0292], [76.9223, 9.0293], [76.9226, 9.0295]]]}, "properties": {"objectid": 287166, "statename": "Kerala", "statecode": "32", "districtname": "Kollam", "districtcode": "600", "ulbname": "Punalur (M)", "ulbcode": "803307", "wardname": "Nellipalli", "wardcode": "9", "id": null, "status": "APPROVED", "misglobalid": null, "approved_by": null, "createdate": 1663313001000, "updateddate": 1670860706000, "globalid": null, "gisglobalid": "Qmo6Ran5-nscl-PBBs-acBQ-nR4ddKsRa5oQ", "remark": "", "st_area(shape)": 2.682743009367354e-05, "st_perimeter(shape)": 0.024313776267028905}}, {"type": "Feature", "geometry": {"type": "Polygon", "coordinates": [[[76.9268, 9.0305], [76.9265, 9.0303], [76.9257, 9.0302], [76.9243, 9.03], [76.9231, 9.0298], [76.9226, 9.0295], [76.9223, 9.0293], [76.9219, 9.0292], [76.9213, 9.0297], [76.9212, 9.0302], [76.9213, 9.0303], [76.9213, 9.0307], [76.9212, 9.0311], [76.9207, 9.0324], [76.9206, 9.0329], [76.9205, 9.0334], [76.9204, 9.0339], [76.9204, 9.0346], [76.9202, 9.0351], [76.92, 9.0357], [76.9196, 9.0361], [76.9193, 9.0367], [76.9192, 9.0372], [76.919, 9.0376], [76.9185, 9.0382], [76.9182, 9.0387], [76.918, 9.0389], [76.9182, 9.0392], [76.9184, 9.0396], [76.919, 9.0401], [76.9197, 9.0407], [76.9201, 9.041], [76.9205, 9.0413], [76.9205, 9.0414], [76.9207, 9.0414], [76.921, 9.0414], [76.9213, 9.0414], [76.922, 9.0412], [76.9225, 9.041], [76.9228, 9.0408], [76.9229, 9.0407], [76.923, 9.0405], [76.9232, 9.0402], [76.9234, 9.0398], [76.9238, 9.0388], [76.9239, 9.0387], [76.924, 9.0384], [76.9241, 9.0383], [76.9242, 9.0381], [76.9243, 9.0381], [76.9244, 9.0383], [76.9245, 9.0384], [76.9247, 9.0385], [76.9247, 9.0386], [76.9249, 9.0388], [76.925, 9.0388], [76.9255, 9.0392], [76.9261, 9.0396], [76.9267, 9.0401], [76.9276, 9.0407], [76.9281, 9.0411], [76.9284, 9.0413], [76.9285, 9.0415], [76.9284, 9.0417], [76.9282, 9.0419], [76.928, 9.0422], [76.9278, 9.0424], [76.9277, 9.0426], [76.9278, 9.0427], [76.9279, 9.0427], [76.928, 9.0426], [76.9282, 9.0425], [76.9283, 9.0424], [76.9286, 9.0422], [76.9289, 9.0421], [76.9295, 9.0418], [76.929, 9.041], [76.9288, 9.04], [76.9288, 9.0394], [76.9287, 9.0386], [76.9285, 9.0377], [76.9283, 9.0371], [76.928, 9.0363], [76.9276, 9.0358], [76.9271, 9.0351], [76.9265, 9.0346], [76.9257, 9.0341], [76.9254, 9.0335], [76.9253, 9.033], [76.9253, 9.0326], [76.9253, 9.032], [76.9258, 9.0314], [76.9265, 9.0309], [76.9268, 9.0305]]]}, "properties": {"objectid": 292262, "statename": "Kerala", "statecode": "32", "districtname": "Kollam", "districtcode": "600", "ulbname": "Punalur (M)", "ulbcode": "803307", "wardname": "Vilakkuvettom ", "wardcode": "10", "id": null, "status": "APPROVED", "misglobalid": null, "approved_by": null, "createdate": 1663313001000, "updateddate": 1670860722000, "globalid": null, "gisglobalid": "sRPcs5oK-sBPd-PKK4-Qnmc-omQRomBsmPmd", "remark": "", "st_area(shape)": 7.64578158432973e-05, "st_perimeter(shape)": 0.047077091133006815}}, {"type": "Feature", "geometry": {"type": "Polygon", "coordinates": [[[76.9358, 9.0305], [76.9359, 9.0306], [76.9364, 9.0312], [76.9367, 9.0315], [76.9372, 9.0318], [76.9376, 9.0321], [76.9379, 9.0324], [76.9378, 9.033], [76.9374, 9.0333], [76.937, 9.0336], [76.9366, 9.0338], [76.9364, 9.0343], [76.9362, 9.0345], [76.9364, 9.0345], [76.9366, 9.0344], [76.9368, 9.0345], [76.9369, 9.0346], [76.937, 9.0349], [76.9373, 9.0355], [76.9374, 9.0358], [76.9377, 9.0362], [76.9379, 9.0365], [76.9381, 9.0366], [76.9382, 9.0367], [76.9384, 9.0367], [76.9386, 9.0367], [76.9389, 9.0367], [76.9393, 9.0366], [76.9394, 9.0366], [76.9396, 9.0365], [76.9397, 9.0365], [76.9398, 9.0365], [76.9399, 9.0366], [76.94, 9.0367], [76.9402, 9.037], [76.9403, 9.0371], [76.9404, 9.0372], [76.9405, 9.0372], [76.9406, 9.0372], [76.9409, 9.0371], [76.9411, 9.037], [76.9414, 9.0371], [76.9417, 9.0372], [76.9419, 9.0374], [76.9419, 9.0376], [76.9422, 9.0375], [76.9425, 9.0375], [76.9426, 9.0374], [76.9428, 9.0374], [76.9428, 9.0373], [76.9431, 9.0372], [76.9432, 9.037], [76.9433, 9.037], [76.9433, 9.0369], [76.9434, 9.0368], [76.9435, 9.0368], [76.9436, 9.0368], [76.9438, 9.0366], [76.9439, 9.0366], [76.944, 9.0366], [76.9441, 9.0366], [76.9442, 9.0365], [76.9443, 9.0364], [76.9444, 9.0364], [76.9447, 9.0365], [76.9448, 9.0365], [76.945, 9.0365], [76.9452, 9.0365], [76.9455, 9.0362], [76.9456, 9.0362], [76.9457, 9.0361], [76.9459, 9.0361], [76.946, 9.036], [76.9461, 9.0359], [76.9462, 9.0358], [76.9464, 9.0357], [76.9465, 9.0358], [76.9467, 9.0358], [76.9467, 9.0357], [76.9469, 9.0356], [76.947, 9.0355], [76.947, 9.0354], [76.9471, 9.0353], [76.9473, 9.0351], [76.9474, 9.0351], [76.9475, 9.0351], [76.9479, 9.035], [76.948, 9.035], [76.948, 9.0349], [76.948, 9.0348], [76.9484, 9.0346], [76.9485, 9.0347], [76.9488, 9.035], [76.9489, 9.0354], [76.9489, 9.0355], [76.9493, 9.0356], [76.9497, 9.0359], [76.95, 9.036], [76.9503, 9.0361], [76.9506, 9.0361], [76.9508, 9.0361], [76.9509, 9.0354], [76.9511, 9.0352], [76.9512, 9.0351], [76.9513, 9.035], [76.9515, 9.0348], [76.9516, 9.0346], [76.9517, 9.0343], [76.9518, 9.0341], [76.952, 9.0341], [76.9521, 9.0341], [76.9524, 9.034], [76.9525, 9.034], [76.9526, 9.034], [76.9527, 9.0339], [76.9529, 9.0338], [76.9531, 9.0337], [76.9533, 9.0335], [76.9535, 9.0335], [76.9536, 9.0333], [76.9538, 9.033], [76.954, 9.0328], [76.9539, 9.0326], [76.9533, 9.032], [76.9528, 9.0312], [76.9525, 9.0303], [76.9522, 9.03], [76.9515, 9.0298], [76.9506, 9.0298], [76.95, 9.0298], [76.9495, 9.0301], [76.949, 9.0307], [76.9486, 9.0314], [76.9479, 9.0318], [76.9469, 9.0319], [76.9463, 9.0314], [76.9454, 9.0313], [76.9446, 9.0313], [76.9441, 9.0312], [76.9436, 9.03], [76.9432, 9.0293], [76.9423, 9.0285], [76.9414, 9.0282], [76.9409, 9.0283], [76.9404, 9.029], [76.9397, 9.0297], [76.939, 9.03], [76.9378, 9.0302], [76.9369, 9.0304], [76.9358, 9.0305]]]}, "properties": {"objectid": 291831, "statename": "Kerala", "statecode": "32", "districtname": "Kollam", "districtcode": "600", "ulbname": "Punalur (M)", "ulbcode": "803307", "wardname": "Kallar", "wardcode": "11", "id": null, "status": "APPROVED", "misglobalid": null, "approved_by": null, "createdate": 1663313001000, "updateddate": 1670860742000, "globalid": null, "gisglobalid": "nQascddR-dKBK-P4Pc-RRKR-cdcB4o5P44do", "remark": "", "st_area(shape)": 9.427099572669057e-05, "st_perimeter(shape)": 0.05256351319761756}}, {"type": "Feature", "geometry": {"type": "Polygon", "coordinates": [[[76.9315, 9.0254], [76.9316, 9.0258], [76.9312, 9.0262], [76.9308, 9.0267], [76.9306, 9.0273], [76.9305, 9.0279], [76.9304, 9.0281], [76.93, 9.0284], [76.9289, 9.0291], [76.9285, 9.0296], [76.9281, 9.0299], [76.9276, 9.03], [76.9268, 9.0305], [76.9265, 9.0309], [76.9258, 9.0314], [76.9253, 9.032], [76.9253, 9.0326], [76.9253, 9.033], [76.9254, 9.0335], [76.9257, 9.0341], [76.9265, 9.0346], [76.9271, 9.0351], [76.9276, 9.0358], [76.928, 9.0363], [76.9283, 9.0371], [76.9285, 9.0377], [76.9287, 9.0386], [76.9288, 9.0394], [76.9288, 9.04], [76.929, 9.041], [76.9295, 9.0418], [76.9303, 9.0414], [76.9306, 9.0411], [76.9307, 9.0409], [76.9306, 9.0407], [76.9306, 9.0406], [76.9304, 9.0406], [76.9301, 9.0405], [76.9298, 9.0403], [76.9297, 9.0401], [76.9296, 9.04], [76.9296, 9.0399], [76.9296, 9.0397], [76.9297, 9.0394], [76.9299, 9.0391], [76.9303, 9.039], [76.931, 9.0388], [76.9316, 9.0385], [76.9321, 9.0383], [76.9327, 9.038], [76.9339, 9.0373], [76.9345, 9.037], [76.9347, 9.0368], [76.935, 9.0366], [76.9353, 9.0362], [76.9355, 9.0359], [76.9358, 9.0351], [76.9358, 9.035], [76.9359, 9.0348], [76.936, 9.0347], [76.9361, 9.0345], [76.9362, 9.0345], [76.9364, 9.0343], [76.9366, 9.0338], [76.937, 9.0336], [76.9374, 9.0333], [76.9378, 9.033], [76.9379, 9.0324], [76.9376, 9.0321], [76.9372, 9.0318], [76.9367, 9.0315], [76.9364, 9.0312], [76.9359, 9.0306], [76.9358, 9.0305], [76.9355, 9.03], [76.9352, 9.0296], [76.9354, 9.0288], [76.9355, 9.0283], [76.9357, 9.0277], [76.9357, 9.0271], [76.9358, 9.0266], [76.9359, 9.0263], [76.9359, 9.0259], [76.936, 9.0252], [76.9359, 9.0248], [76.9357, 9.0249], [76.935, 9.0248], [76.9343, 9.0246], [76.9338, 9.0248], [76.9333, 9.0247], [76.9325, 9.0247], [76.932, 9.0249], [76.9315, 9.0254]]]}, "properties": {"objectid": 291441, "statename": "Kerala", "statecode": "32", "districtname": "Kollam", "districtcode": "600", "ulbname": "Punalur (M)", "ulbcode": "803307", "wardname": "Kallar", "wardcode": "12", "id": null, "status": "APPROVED", "misglobalid": null, "approved_by": null, "createdate": 1663313001000, "updateddate": 1670919690000, "globalid": null, "gisglobalid": "4dPKlc4a-4laP-PmcK-RRl4-cPcRBQPRRPnQ", "remark": "", "st_area(shape)": 0.00010815705484807437, "st_perimeter(shape)": 0.04944961819206396}}, {"type": "Feature", "geometry": {"type": "Polygon", "coordinates": [[[76.9315, 9.0254], [76.9312, 9.0248], [76.9308, 9.0242], [76.9307, 9.0238], [76.9306, 9.0232], [76.9304, 9.0228], [76.9304, 9.0223], [76.9305, 9.0219], [76.9305, 9.0211], [76.9304, 9.0202], [76.9301, 9.0196], [76.9297, 9.0192], [76.9287, 9.0192], [76.9276, 9.0194], [76.9269, 9.0197], [76.927, 9.0198], [76.927, 9.0205], [76.9268, 9.0219], [76.9265, 9.0229], [76.9262, 9.0236], [76.9259, 9.0243], [76.9255, 9.0254], [76.9247, 9.0263], [76.9242, 9.0269], [76.9237, 9.0277], [76.9231, 9.0285], [76.9226, 9.0295], [76.9231, 9.0298], [76.9243, 9.03], [76.9257, 9.0302], [76.9265, 9.0303], [76.9268, 9.0305], [76.9276, 9.03], [76.9281, 9.0299], [76.9285, 9.0296], [76.9289, 9.0291], [76.93, 9.0284], [76.9304, 9.0281], [76.9305, 9.0279], [76.9306, 9.0273], [76.9308, 9.0267], [76.9312, 9.0262], [76.9316, 9.0258], [76.9315, 9.0254]]]}, "properties": {"objectid": 292259, "statename": "Kerala", "statecode": "32", "districtname": "Kollam", "districtcode": "600", "ulbname": "Punalur (M)", "ulbcode": "803307", "wardname": "High School Ward", "wardcode": "13", "id": null, "status": "APPROVED", "misglobalid": null, "approved_by": null, "createdate": 1663313001000, "updateddate": 1670860911000, "globalid": null, "gisglobalid": "snsaPo5d-Qcsm-PRco-s5Bc-d56aK6QP4cB4", "remark": "", "st_area(shape)": 5.486958699972935e-05, "st_perimeter(shape)": 0.03236622745698421}}, {"type": "Feature", "geometry": {"type": "Polygon", "coordinates": [[[76.9315, 9.0254], [76.932, 9.0249], [76.9325, 9.0247], [76.9333, 9.0247], [76.9338, 9.0248], [76.9343, 9.0246], [76.935, 9.0248], [76.9357, 9.0249], [76.9359, 9.0248], [76.9356, 9.0242], [76.9355, 9.0233], [76.9356, 9.0225], [76.9358, 9.0221], [76.9356, 9.0215], [76.9355, 9.021], [76.9357, 9.0206], [76.9357, 9.0202], [76.9356, 9.0198], [76.9354, 9.0189], [76.9354, 9.0185], [76.9354, 9.0176], [76.9351, 9.0178], [76.9345, 9.0183], [76.9338, 9.0187], [76.9332, 9.0192], [76.9323, 9.0193], [76.9309, 9.0193], [76.9297, 9.0192], [76.9301, 9.0196], [76.9304, 9.0202], [76.9305, 9.0211], [76.9305, 9.0219], [76.9304, 9.0223], [76.9304, 9.0228], [76.9306, 9.0232], [76.9307, 9.0238], [76.9308, 9.0242], [76.9312, 9.0248], [76.9315, 9.0254]]]}, "properties": {"objectid": 292260, "statename": "Kerala", "statecode": "32", "districtname": "Kollam", "districtcode": "600", "ulbname": "Punalur (M)", "ulbcode": "803307", "wardname": "Thumpodu", "wardcode": "14", "id": null, "status": "APPROVED", "misglobalid": null, "approved_by": null, "createdate": 1663313001000, "updateddate": 1670860956000, "globalid": null, "gisglobalid": "aQm6RaPd-6l4K-PRP5-aK6l-sP4c46lcddn6", "remark": "", "st_area(shape)": 3.025072639465813e-05, "st_perimeter(shape)": 0.025029467612641677}}, {"type": "Feature", "geometry": {"type": "Polygon", "coordinates": [[[76.9354, 9.0176], [76.9354, 9.0185], [76.9354, 9.0189], [76.9356, 9.0198], [76.9357, 9.0202], [76.9357, 9.0206], [76.9355, 9.021], [76.9356, 9.0215], [76.9358, 9.0221], [76.9356, 9.0225], [76.9355, 9.0233], [76.9356, 9.0242], [76.9359, 9.0248], [76.936, 9.0252], [76.9359, 9.0259], [76.9359, 9.0263], [76.9358, 9.0266], [76.9357, 9.0271], [76.9357, 9.0277], [76.9355, 9.0283], [76.9354, 9.0288], [76.9352, 9.0296], [76.9355, 9.03], [76.9358, 9.0305], [76.9369, 9.0304], [76.9378, 9.0302], [76.939, 9.03], [76.9397, 9.0297], [76.9404, 9.029], [76.9409, 9.0283], [76.9414, 9.0282], [76.9423, 9.0285], [76.9432, 9.0293], [76.9436, 9.03], [76.9441, 9.0312], [76.9446, 9.0313], [76.9454, 9.0313], [76.9463, 9.0314], [76.9469, 9.0319], [76.9479, 9.0318], [76.9486, 9.0314], [76.949, 9.0307], [76.9495, 9.0301], [76.95, 9.0298], [76.9506, 9.0298], [76.9515, 9.0298], [76.9522, 9.03], [76.9525, 9.0303], [76.9528, 9.0312], [76.9533, 9.032], [76.9539, 9.0326], [76.954, 9.0328], [76.9541, 9.0326], [76.9542, 9.0323], [76.9545, 9.0322], [76.9547, 9.0321], [76.9549, 9.0321], [76.9551, 9.032], [76.9554, 9.0318], [76.9555, 9.0316], [76.9556, 9.0316], [76.9557, 9.0316], [76.9558, 9.0316], [76.956, 9.0316], [76.9561, 9.0315], [76.9562, 9.0313], [76.9563, 9.0311], [76.9565, 9.0309], [76.9569, 9.031], [76.9573, 9.0309], [76.9574, 9.0308], [76.9576, 9.0307], [76.9575, 9.0306], [76.957, 9.03], [76.9562, 9.0292], [76.9556, 9.0286], [76.9551, 9.028], [76.9548, 9.0275], [76.9544, 9.0272], [76.9541, 9.0267], [76.9539, 9.026], [76.9538, 9.0255], [76.9534, 9.0251], [76.9531, 9.0248], [76.9527, 9.0242], [76.9526, 9.0237], [76.9524, 9.0232], [76.9522, 9.0227], [76.9517, 9.0221], [76.9516, 9.0216], [76.9512, 9.0211], [76.9511, 9.0207], [76.9511, 9.0202], [76.951, 9.0197], [76.9511, 9.0192], [76.951, 9.0187], [76.9508, 9.0185], [76.9506, 9.0181], [76.9506, 9.0175], [76.9506, 9.0172], [76.9504, 9.0171], [76.9499, 9.017], [76.9493, 9.017], [76.9487, 9.0171], [76.9479, 9.017], [76.9472, 9.017], [76.9464, 9.0172], [76.9459, 9.0174], [76.9451, 9.0177], [76.9443, 9.0178], [76.9435, 9.0177], [76.943, 9.0175], [76.9427, 9.0173], [76.9418, 9.017], [76.9407, 9.0164], [76.9397, 9.0162], [76.9384, 9.0162], [76.9369, 9.0166], [76.9365, 9.0168], [76.9361, 9.0171], [76.9354, 9.0176]]]}, "properties": {"objectid": 287163, "statename": "Kerala", "statecode": "32", "districtname": "Kollam", "districtcode": "600", "ulbname": "Punalur (M)", "ulbcode": "803307", "wardname": "Kalayanadu", "wardcode": "15", "id": null, "status": "APPROVED", "misglobalid": null, "approved_by": null, "createdate": 1663313001000, "updateddate": 1670860993000, "globalid": null, "gisglobalid": "alBlooPR-nasa-PssB-s6Bm-RKns5cQaPaoR", "remark": "", "st_area(shape)": 0.0002361779329973222, "st_perimeter(shape)": 0.07324527096687534}}, {"type": "Feature", "geometry": {"type": "Polygon", "coordinates": [[[76.9372, 9.0106], [76.9367, 9.0106], [76.936, 9.0108], [76.9354, 9.0112], [76.9347, 9.012], [76.9344, 9.0122], [76.9338, 9.0124], [76.9332, 9.0128], [76.9326, 9.0131], [76.932, 9.0133], [76.9312, 9.0137], [76.9306, 9.014], [76.9296, 9.0143], [76.929, 9.0145], [76.9284, 9.0148], [76.928, 9.0152], [76.9278, 9.0159], [76.9275, 9.0166], [76.9274, 9.0172], [76.9272, 9.0177], [76.9271, 9.0184], [76.9267, 9.0195], [76.9269, 9.0197], [76.9276, 9.0194], [76.9287, 9.0192], [76.9297, 9.0192], [76.9309, 9.0193], [76.9323, 9.0193], [76.9332, 9.0192], [76.9338, 9.0187], [76.9345, 9.0183], [76.9351, 9.0178], [76.9354, 9.0176], [76.9361, 9.0171], [76.9365, 9.0168], [76.9365, 9.0156], [76.9369, 9.0142], [76.9375, 9.0132], [76.9375, 9.0127], [76.9373, 9.0121], [76.9371, 9.0118], [76.9371, 9.0113], [76.9372, 9.0106]]]}, "properties": {"objectid": 287161, "statename": "Kerala", "statecode": "32", "districtname": "Kollam", "districtcode": "600", "ulbname": "Punalur (M)", "ulbcode": "803307", "wardname": "Valacodu", "wardcode": "16", "id": null, "status": "APPROVED", "misglobalid": null, "approved_by": null, "createdate": 1663313001000, "updateddate": 1670861037000, "globalid": null, "gisglobalid": "lBKBBB5d-lBQd-PsQQ-aKKm-daRdRmnmQRco", "remark": "", "st_area(shape)": 5.407598082644273e-05, "st_perimeter(shape)": 0.03233173999890483}}, {"type": "Feature", "geometry": {"type": "Polygon", "coordinates": [[[76.935, 9.0119], [76.935, 9.0124], [76.9345, 9.0134], [76.934, 9.0148], [76.9341, 9.0161], [76.9345, 9.0159], [76.936, 9.0154], [76.9373, 9.0154], [76.9382, 9.0156], [76.9393, 9.0162], [76.9402, 9.0165], [76.9401, 9.0161], [76.9399, 9.0158], [76.9397, 9.0153], [76.9394, 9.0148], [76.9391, 9.0144], [76.9388, 9.0144], [76.9384, 9.0143], [76.9383, 9.0138], [76.938, 9.0133], [76.9377, 9.0129], [76.9373, 9.0125], [76.9368, 9.0119], [76.9366, 9.0115], [76.9365, 9.0112], [76.936, 9.0113], [76.9355, 9.0116], [76.935, 9.0119]]]}, "properties": {"objectid": 291827, "statename": "Kerala", "statecode": "32", "districtname": "Kollam", "districtcode": "600", "ulbname": "Punalur (M)", "ulbcode": "803307", "wardname": "Karakkadu", "wardcode": "17", "id": null, "status": "APPROVED", "misglobalid": null, "approved_by": null, "createdate": 1663313001000, "updateddate": 1670861071000, "globalid": null, "gisglobalid": "oR5d6csB-lPnQ-Plac-s5Rd-RdlsBnnmlQls", "remark": "", "st_area(shape)": 1.5868089208907816e-05, "st_perimeter(shape)": 0.01929250748131144}}, {"type": "Feature", "geometry": {"type": "Polygon", "coordinates": [[[76.9548, 9.0112], [76.9544, 9.0112], [76.9539, 9.0112], [76.9534, 9.011], [76.9529, 9.0107], [76.9523, 9.0104], [76.952, 9.0102], [76.9515, 9.0097], [76.9512, 9.0094], [76.951, 9.0093], [76.9508, 9.0092], [76.9503, 9.0091], [76.9499, 9.0091], [76.9493, 9.0094], [76.9487, 9.0097], [76.9483, 9.0101], [76.9479, 9.0103], [76.9474, 9.0103], [76.9466, 9.0104], [76.9463, 9.0106], [76.9462, 9.0109], [76.946, 9.0112], [76.9454, 9.0115], [76.9449, 9.0118], [76.9446, 9.0121], [76.9443, 9.0127], [76.9439, 9.0132], [76.9438, 9.0137], [76.9437, 9.0143], [76.9436, 9.0148], [76.9435, 9.0151], [76.9434, 9.0156], [76.9432, 9.0161], [76.9429, 9.0164], [76.9428, 9.0167], [76.9427, 9.0173], [76.943, 9.0175], [76.9435, 9.0177], [76.9443, 9.0178], [76.9451, 9.0177], [76.9459, 9.0174], [76.9464, 9.0172], [76.9472, 9.017], [76.9479, 9.017], [76.9487, 9.0171], [76.9493, 9.017], [76.9499, 9.017], [76.9504, 9.0171], [76.9506, 9.0172], [76.9506, 9.0175], [76.9506, 9.0181], [76.9508, 9.0185], [76.951, 9.0187], [76.9511, 9.0192], [76.951, 9.0197], [76.9511, 9.0202], [76.9511, 9.0207], [76.9512, 9.0211], [76.9516, 9.0216], [76.9517, 9.0221], [76.9522, 9.0227], [76.9524, 9.0232], [76.9526, 9.0237], [76.9527, 9.0242], [76.9531, 9.0248], [76.9534, 9.0251], [76.9538, 9.0255], [76.9539, 9.026], [76.9541, 9.0267], [76.9544, 9.0272], [76.9548, 9.0275], [76.9551, 9.028], [76.9556, 9.0286], [76.9562, 9.0292], [76.957, 9.03], [76.9575, 9.0306], [76.9576, 9.0307], [76.9577, 9.0306], [76.9578, 9.0304], [76.9577, 9.0304], [76.9574, 9.0301], [76.9571, 9.0298], [76.9571, 9.0297], [76.957, 9.0292], [76.9568, 9.0289], [76.9566, 9.0287], [76.9564, 9.0286], [76.9564, 9.0282], [76.9564, 9.0276], [76.9567, 9.0276], [76.9569, 9.0275], [76.957, 9.0274], [76.9571, 9.0273], [76.9574, 9.0271], [76.9578, 9.0268], [76.958, 9.0267], [76.9585, 9.0263], [76.9586, 9.0262], [76.9589, 9.0261], [76.9592, 9.0258], [76.9595, 9.0256], [76.9599, 9.0253], [76.9602, 9.0251], [76.9605, 9.0249], [76.9607, 9.0248], [76.9611, 9.0247], [76.9613, 9.0246], [76.9613, 9.0245], [76.9613, 9.0243], [76.9614, 9.0241], [76.9614, 9.024], [76.9615, 9.0236], [76.9615, 9.0231], [76.9616, 9.0229], [76.9618, 9.0226], [76.9621, 9.0221], [76.9622, 9.0219], [76.9625, 9.0215], [76.9626, 9.0211], [76.9626, 9.0209], [76.9626, 9.0206], [76.9627, 9.0202], [76.9628, 9.0201], [76.9629, 9.0199], [76.9631, 9.0197], [76.9633, 9.0195], [76.9635, 9.0193], [76.9638, 9.0191], [76.964, 9.019], [76.9641, 9.0189], [76.9641, 9.0186], [76.9641, 9.0179], [76.9642, 9.0175], [76.9642, 9.017], [76.9642, 9.0164], [76.9642, 9.0163], [76.9641, 9.0161], [76.9641, 9.0159], [76.9639, 9.0156], [76.9638, 9.0152], [76.9637, 9.0148], [76.9636, 9.0144], [76.9635, 9.0143], [76.9635, 9.0142], [76.9631, 9.0143], [76.9627, 9.0144], [76.9625, 9.0144], [76.9621, 9.0144], [76.9612, 9.0148], [76.9609, 9.0151], [76.9603, 9.0153], [76.9596, 9.0155], [76.959, 9.0157], [76.9584, 9.0159], [76.9577, 9.016], [76.9569, 9.016], [76.9564, 9.0161], [76.9557, 9.0164], [76.9553, 9.0166], [76.9547, 9.017], [76.9543, 9.017], [76.9538, 9.017], [76.9534, 9.017], [76.9532, 9.0169], [76.9531, 9.0163], [76.9535, 9.0157], [76.9539, 9.0154], [76.9543, 9.015], [76.9547, 9.0147], [76.9551, 9.0145], [76.9557, 9.0145], [76.9561, 9.0141], [76.9562, 9.0136], [76.956, 9.0132], [76.9558, 9.013], [76.9555, 9.0126], [76.9553, 9.0121], [76.9551, 9.0118], [76.9549, 9.0114], [76.9548, 9.0112]]]}, "properties": {"objectid": 287160, "statename": "Kerala", "statecode": "32", "districtname": "Kollam", "districtcode": "600", "ulbname": "Punalur (M)", "ulbcode": "803307", "wardname": "Thamarapally", "wardcode": "18", "id": null, "status": "APPROVED", "misglobalid": null, "approved_by": null, "createdate": 1663313001000, "updateddate": 1670861098000, "globalid": null, "gisglobalid": "5noPdom6-5Bml-PacP-sKl6-KPdPnBBmRPdP", "remark": "", "st_area(shape)": 0.00019182492636773347, "st_perimeter(shape)": 0.08135696926891124}}, {"type": "Feature", "geometry": {"type": "Polygon", "coordinates": [[[76.9593, 8.9964], [76.9591, 8.9965], [76.9589, 8.9966], [76.9587, 8.997], [76.9586, 8.9974], [76.9586, 8.9979], [76.9584, 8.9984], [76.9578, 8.9994], [76.9576, 9.0], [76.9575, 9.001], [76.9575, 9.0017], [76.9576, 9.0022], [76.9575, 9.0026], [76.9573, 9.0034], [76.9571, 9.004], [76.9571, 9.0046], [76.9568, 9.0052], [76.9566, 9.006], [76.9563, 9.0064], [76.956, 9.0071], [76.9556, 9.0076], [76.9553, 9.0082], [76.9551, 9.009], [76.9549, 9.0094], [76.9546, 9.0101], [76.9547, 9.0107], [76.9548, 9.0112], [76.9549, 9.0114], [76.9551, 9.0118], [76.9553, 9.0121], [76.9555, 9.0126], [76.9558, 9.013], [76.956, 9.0132], [76.9562, 9.0136], [76.9561, 9.0141], [76.9557, 9.0145], [76.9551, 9.0145], [76.9547, 9.0147], [76.9543, 9.015], [76.9539, 9.0154], [76.9535, 9.0157], [76.9531, 9.0163], [76.9532, 9.0169], [76.9534, 9.017], [76.9538, 9.017], [76.9543, 9.017], [76.9547, 9.017], [76.9553, 9.0166], [76.9557, 9.0164], [76.9564, 9.0161], [76.9569, 9.016], [76.9577, 9.016], [76.9584, 9.0159], [76.959, 9.0157], [76.9596, 9.0155], [76.9603, 9.0153], [76.9609, 9.0151], [76.9612, 9.0148], [76.9621, 9.0144], [76.9625, 9.0144], [76.9627, 9.0144], [76.9631, 9.0143], [76.9635, 9.0142], [76.9634, 9.0141], [76.9635, 9.0139], [76.9636, 9.0137], [76.9637, 9.0135], [76.9639, 9.0134], [76.9641, 9.0132], [76.9644, 9.0131], [76.9647, 9.0129], [76.9648, 9.0128], [76.9648, 9.0127], [76.9649, 9.0125], [76.9647, 9.0124], [76.9649, 9.012], [76.9651, 9.0117], [76.9653, 9.0114], [76.9655, 9.0114], [76.9654, 9.0112], [76.9654, 9.0111], [76.9655, 9.011], [76.9655, 9.0108], [76.9656, 9.0107], [76.9653, 9.0108], [76.9653, 9.0107], [76.9652, 9.0107], [76.965, 9.0106], [76.965, 9.0102], [76.9649, 9.0098], [76.965, 9.0094], [76.965, 9.0088], [76.965, 9.0086], [76.9652, 9.0084], [76.9656, 9.0082], [76.9658, 9.008], [76.966, 9.0079], [76.9663, 9.0078], [76.9664, 9.0076], [76.9665, 9.0075], [76.9667, 9.0073], [76.9668, 9.0072], [76.9671, 9.0071], [76.9673, 9.0071], [76.9675, 9.0069], [76.9677, 9.0068], [76.9679, 9.0067], [76.9681, 9.0066], [76.9686, 9.0064], [76.969, 9.0062], [76.9691, 9.0062], [76.9692, 9.0061], [76.9694, 9.006], [76.9696, 9.0059], [76.9698, 9.0058], [76.9699, 9.0058], [76.9701, 9.0055], [76.9703, 9.0053], [76.9704, 9.0052], [76.9705, 9.0051], [76.9706, 9.005], [76.9707, 9.0047], [76.9707, 9.0042], [76.9709, 9.0036], [76.9712, 9.003], [76.9715, 9.003], [76.9718, 9.0025], [76.9718, 9.0023], [76.9717, 9.0022], [76.9716, 9.0017], [76.9716, 9.0015], [76.9715, 9.0014], [76.9714, 9.0013], [76.9713, 9.0011], [76.9712, 9.001], [76.9711, 9.0007], [76.971, 9.0006], [76.9708, 9.0003], [76.9708, 9.0001], [76.9706, 8.9997], [76.9704, 8.9995], [76.9703, 8.9992], [76.9703, 8.9991], [76.9701, 8.9988], [76.97, 8.9985], [76.9701, 8.9984], [76.9704, 8.9981], [76.9705, 8.9979], [76.9707, 8.9979], [76.9708, 8.9976], [76.9705, 8.9977], [76.97, 8.998], [76.9694, 8.9983], [76.9687, 8.9983], [76.9681, 8.9984], [76.9676, 8.9983], [76.9666, 8.9981], [76.9656, 8.998], [76.9647, 8.998], [76.964, 8.9983], [76.9635, 8.9986], [76.9631, 8.9992], [76.9627, 8.9996], [76.9624, 8.9999], [76.9619, 9.0004], [76.9614, 9.0006], [76.9607, 9.0006], [76.9599, 9.0003], [76.9588, 9.0002], [76.9586, 9.0001], [76.9586, 8.9998], [76.9587, 8.9994], [76.9591, 8.9987], [76.9594, 8.998], [76.9594, 8.9971], [76.9593, 8.9964]]]}, "properties": {"objectid": 291440, "statename": "Kerala", "statecode": "32", "districtname": "Kollam", "districtcode": "600", "ulbname": "Punalur (M)", "ulbcode": "803307", "wardname": "Plachery", "wardcode": "19", "id": null, "status": "APPROVED", "misglobalid": null, "approved_by": null, "createdate": 1663313001000, "updateddate": 1670861135000, "globalid": null, "gisglobalid": "Kdac6mam-RQm4-Pd6n-QdaR-dcRand56Rlao", "remark": "", "st_area(shape)": 0.00019290661758970855, "st_perimeter(shape)": 0.0751970186032324}}, {"type": "Feature", "geometry": {"type": "Polygon", "coordinates": [[[76.9548, 9.0112], [76.9547, 9.0107], [76.9546, 9.0101], [76.9549, 9.0094], [76.9551, 9.009], [76.9553, 9.0082], [76.9556, 9.0076], [76.956, 9.0071], [76.9563, 9.0064], [76.9566, 9.006], [76.9568, 9.0052], [76.9571, 9.0046], [76.9571, 9.004], [76.9573, 9.0034], [76.9575, 9.0026], [76.9576, 9.0022], [76.9575, 9.0017], [76.9575, 9.001], [76.9576, 9.0], [76.9578, 8.9994], [76.9584, 8.9984], [76.9586, 8.9979], [76.9586, 8.9974], [76.9587, 8.997], [76.9589, 8.9966], [76.9591, 8.9965], [76.9593, 8.9964], [76.9593, 8.9952], [76.9592, 8.9944], [76.959, 8.994], [76.9585, 8.9934], [76.9581, 8.9933], [76.9572, 8.9934], [76.9561, 8.9934], [76.9553, 8.9935], [76.9547, 8.9938], [76.954, 8.9942], [76.9533, 8.9944], [76.9528, 8.9944], [76.9523, 8.9944], [76.9519, 8.9943], [76.9513, 8.9946], [76.9505, 8.995], [76.9497, 8.9954], [76.9491, 8.9957], [76.9494, 8.9967], [76.9497, 8.9973], [76.9497, 8.9982], [76.9496, 8.9992], [76.9492, 8.9999], [76.9491, 9.0007], [76.9493, 9.0024], [76.9496, 9.0033], [76.9497, 9.0037], [76.95, 9.0042], [76.9503, 9.0045], [76.9511, 9.0048], [76.9513, 9.0054], [76.9514, 9.0063], [76.9516, 9.0072], [76.9513, 9.0083], [76.951, 9.0093], [76.9512, 9.0094], [76.9515, 9.0097], [76.952, 9.0102], [76.9523, 9.0104], [76.9529, 9.0107], [76.9534, 9.011], [76.9539, 9.0112], [76.9544, 9.0112], [76.9548, 9.0112]]]}, "properties": {"objectid": 287162, "statename": "Kerala", "statecode": "32", "districtname": "Kollam", "districtcode": "600", "ulbname": "Punalur (M)", "ulbcode": "803307", "wardname": "Mylackal", "wardcode": "20", "id": null, "status": "APPROVED", "misglobalid": null, "approved_by": null, "createdate": 1663313001000, "updateddate": 1670861198000, "globalid": null, "gisglobalid": "nPlK6lsm-dQan-P56P-so5s-564coBKa5RQ5", "remark": "", "st_area(shape)": 0.00011800300422821984, "st_perimeter(shape)": 0.04821452222186771}}, {"type": "Feature", "geometry": {"type": "Polygon", "coordinates": [[[76.9375, 9.0127], [76.938, 9.0123], [76.9384, 9.0121], [76.9389, 9.012], [76.939, 9.0123], [76.9392, 9.0127], [76.9397, 9.0133], [76.9402, 9.0137], [76.9405, 9.0141], [76.9407, 9.0146], [76.9409, 9.0151], [76.9412, 9.0152], [76.9416, 9.0152], [76.9419, 9.0156], [76.9421, 9.0161], [76.9424, 9.0166], [76.9425, 9.0169], [76.9427, 9.0173], [76.9428, 9.0167], [76.9429, 9.0164], [76.9432, 9.0161], [76.9434, 9.0156], [76.9435, 9.0151], [76.9436, 9.0148], [76.9437, 9.0143], [76.9438, 9.0137], [76.9439, 9.0132], [76.9443, 9.0127], [76.9446, 9.0121], [76.9449, 9.0118], [76.9454, 9.0115], [76.946, 9.0112], [76.9462, 9.0109], [76.9463, 9.0106], [76.9466, 9.0104], [76.9474, 9.0103], [76.9479, 9.0103], [76.9483, 9.0101], [76.9487, 9.0097], [76.9493, 9.0094], [76.9499, 9.0091], [76.9503, 9.0091], [76.9508, 9.0092], [76.951, 9.0093], [76.9513, 9.0083], [76.9516, 9.0072], [76.9514, 9.0063], [76.9513, 9.0054], [76.9511, 9.0048], [76.9503, 9.0045], [76.95, 9.0042], [76.9497, 9.0037], [76.9496, 9.0033], [76.9492, 9.0033], [76.9489, 9.0035], [76.9484, 9.0041], [76.948, 9.0047], [76.947, 9.0049], [76.9461, 9.0051], [76.9453, 9.0054], [76.9447, 9.0059], [76.9436, 9.0061], [76.9427, 9.0064], [76.9423, 9.0069], [76.9418, 9.0072], [76.9417, 9.0074], [76.9411, 9.0082], [76.9404, 9.0087], [76.94, 9.009], [76.9394, 9.0095], [76.9385, 9.0101], [76.9378, 9.0104], [76.9373, 9.0106], [76.9372, 9.0106], [76.9371, 9.0113], [76.9371, 9.0118], [76.9373, 9.0121], [76.9375, 9.0127]]]}, "properties": {"objectid": 292258, "statename": "Kerala", "statecode": "32", "districtname": "Kollam", "districtcode": "600", "ulbname": "Punalur (M)", "ulbcode": "803307", "wardname": "Gracing Block", "wardcode": "21", "id": null, "status": "APPROVED", "misglobalid": null, "approved_by": null, "createdate": 1663313001000, "updateddate": 1670861260000, "globalid": null, "gisglobalid": "Qsnl4Q54-Rm4K-Po4l-sm6l-KRlso4nocsnd", "remark": "", "st_area(shape)": 8.079971349966958e-05, "st_perimeter(shape)": 0.045537596313717794}}, {"type": "Feature", "geometry": {"type": "Polygon", "coordinates": [[[76.9375, 9.0127], [76.938, 9.0123], [76.9384, 9.0121], [76.9389, 9.012], [76.939, 9.0123], [76.9392, 9.0127], [76.9397, 9.0133], [76.9402, 9.0137], [76.9405, 9.0141], [76.9407, 9.0146], [76.9409, 9.0151], [76.9412, 9.0152], [76.9416, 9.0152], [76.9419, 9.0156], [76.9421, 9.0161], [76.9424, 9.0166], [76.9425, 9.0169], [76.9427, 9.0173], [76.9428, 9.0167], [76.9429, 9.0164], [76.9432, 9.0161], [76.9434, 9.0156], [76.9435, 9.0151], [76.9436, 9.0148], [76.9437, 9.0143], [76.9438, 9.0137], [76.9439, 9.0132], [76.9443, 9.0127], [76.9446, 9.0121], [76.9449, 9.0118], [76.9454, 9.0115], [76.946, 9.0112], [76.9462, 9.0109], [76.9463, 9.0106], [76.9466, 9.0104], [76.9474, 9.0103], [76.9479, 9.0103], [76.9483, 9.0101], [76.9487, 9.0097], [76.9493, 9.0094], [76.9499, 9.0091], [76.9503, 9.0091], [76.9508, 9.0092], [76.951, 9.0093], [76.9513, 9.0083], [76.9516, 9.0072], [76.9514, 9.0063], [76.9513, 9.0054], [76.9511, 9.0048], [76.9503, 9.0045], [76.95, 9.0042], [76.9497, 9.0037], [76.9496, 9.0033], [76.9492, 9.0033], [76.9489, 9.0035], [76.9484, 9.0041], [76.948, 9.0047], [76.947, 9.0049], [76.9461, 9.0051], [76.9453, 9.0054], [76.9447, 9.0059], [76.9436, 9.0061], [76.9427, 9.0064], [76.9423, 9.0069], [76.9418, 9.0072], [76.9417, 9.0074], [76.9411, 9.0082], [76.9404, 9.0087], [76.94, 9.009], [76.9394, 9.0095], [76.9385, 9.0101], [76.9378, 9.0104], [76.9373, 9.0106], [76.9372, 9.0106], [76.9371, 9.0113], [76.9371, 9.0118], [76.9373, 9.0121], [76.9375, 9.0127]]]}, "properties": {"objectid": 292264, "statename": "Kerala", "statecode": "32", "districtname": "Kollam", "districtcode": "600", "ulbname": "Punalur (M)", "ulbcode": "803307", "wardname": "Kakkodu", "wardcode": "22", "id": null, "status": "APPROVED", "misglobalid": null, "approved_by": null, "createdate": 1663313001000, "updateddate": 1670861305000, "globalid": null, "gisglobalid": "5K65loal-6smK-Pcc4-aaan-QPdsldBanQdP", "remark": "", "st_area(shape)": 8.079971349966958e-05, "st_perimeter(shape)": 0.045537596313717794}}, {"type": "Feature", "geometry": {"type": "Polygon", "coordinates": [[[76.9375, 9.0127], [76.938, 9.0123], [76.9384, 9.0121], [76.9389, 9.012], [76.939, 9.0123], [76.9392, 9.0127], [76.9397, 9.0133], [76.9402, 9.0137], [76.9405, 9.0141], [76.9407, 9.0146], [76.9409, 9.0151], [76.9412, 9.0152], [76.9416, 9.0152], [76.9419, 9.0156], [76.9421, 9.0161], [76.9424, 9.0166], [76.9425, 9.0169], [76.9427, 9.0173], [76.9428, 9.0167], [76.9429, 9.0164], [76.9432, 9.0161], [76.9434, 9.0156], [76.9435, 9.0151], [76.9436, 9.0148], [76.9437, 9.0143], [76.9438, 9.0137], [76.9439, 9.0132], [76.9443, 9.0127], [76.9446, 9.0121], [76.9449, 9.0118], [76.9454, 9.0115], [76.946, 9.0112], [76.9462, 9.0109], [76.9463, 9.0106], [76.9466, 9.0104], [76.9474, 9.0103], [76.9479, 9.0103], [76.9483, 9.0101], [76.9487, 9.0097], [76.9493, 9.0094], [76.9499, 9.0091], [76.9503, 9.0091], [76.9508, 9.0092], [76.951, 9.0093], [76.9513, 9.0083], [76.9516, 9.0072], [76.9514, 9.0063], [76.9513, 9.0054], [76.9511, 9.0048], [76.9503, 9.0045], [76.95, 9.0042], [76.9497, 9.0037], [76.9496, 9.0033], [76.9492, 9.0033], [76.9489, 9.0035], [76.9484, 9.0041], [76.948, 9.0047], [76.947, 9.0049], [76.9461, 9.0051], [76.9453, 9.0054], [76.9447, 9.0059], [76.9436, 9.0061], [76.9427, 9.0064], [76.9423, 9.0069], [76.9418, 9.0072], [76.9417, 9.0074], [76.9411, 9.0082], [76.9404, 9.0087], [76.94, 9.009], [76.9394, 9.0095], [76.9385, 9.0101], [76.9378, 9.0104], [76.9373, 9.0106], [76.9372, 9.0106], [76.9371, 9.0113], [76.9371, 9.0118], [76.9373, 9.0121], [76.9375, 9.0127]]]}, "properties": {"objectid": 291445, "statename": "Kerala", "statecode": "32", "districtname": "Kollam", "districtcode": "600", "ulbname": "Punalur (M)", "ulbcode": "803307", "wardname": "Aikarakonam", "wardcode": "23", "id": null, "status": "APPROVED", "misglobalid": null, "approved_by": null, "createdate": 1663313001000, "updateddate": 1670861376000, "globalid": null, "gisglobalid": "aKoQadld-BPcQ-PBRR-soBm-o5o5KnQK6R44", "remark": "", "st_area(shape)": 8.079971349966958e-05, "st_perimeter(shape)": 0.045537596313717794}}, {"type": "Feature", "geometry": {"type": "Polygon", "coordinates": [[[76.9406, 8.9873], [76.9419, 8.9873], [76.9429, 8.9872], [76.9441, 8.9869], [76.9448, 8.9865], [76.9448, 8.9856], [76.9446, 8.9848], [76.9448, 8.9843], [76.9454, 8.9836], [76.946, 8.983], [76.9463, 8.9825], [76.9467, 8.9822], [76.9474, 8.9821], [76.9481, 8.9818], [76.9487, 8.9813], [76.9492, 8.9809], [76.9499, 8.9809], [76.9504, 8.9812], [76.9514, 8.9813], [76.9525, 8.9814], [76.9534, 8.9821], [76.9541, 8.9822], [76.955, 8.9823], [76.9562, 8.9826], [76.9569, 8.9829], [76.9577, 8.9835], [76.958, 8.9842], [76.958, 8.9849], [76.9581, 8.9856], [76.9579, 8.9866], [76.9575, 8.9878], [76.9572, 8.989], [76.9566, 8.9899], [76.9553, 8.9906], [76.9547, 8.9909], [76.9537, 8.9913], [76.9531, 8.9917], [76.9527, 8.992], [76.9522, 8.9931], [76.9524, 8.9937], [76.9528, 8.9944], [76.9533, 8.9944], [76.954, 8.9942], [76.9547, 8.9938], [76.9553, 8.9935], [76.9561, 8.9934], [76.9572, 8.9934], [76.9581, 8.9933], [76.9585, 8.9934], [76.959, 8.994], [76.9592, 8.9944], [76.9593, 8.9952], [76.9593, 8.9964], [76.9594, 8.9971], [76.9594, 8.998], [76.9591, 8.9987], [76.9587, 8.9994], [76.9586, 8.9998], [76.9586, 9.0001], [76.9588, 9.0002], [76.9599, 9.0003], [76.9607, 9.0006], [76.9614, 9.0006], [76.9619, 9.0004], [76.9624, 8.9999], [76.9627, 8.9996], [76.9631, 8.9992], [76.9635, 8.9986], [76.964, 8.9983], [76.9647, 8.998], [76.9656, 8.998], [76.9666, 8.9981], [76.9676, 8.9983], [76.9681, 8.9984], [76.9687, 8.9983], [76.9694, 8.9983], [76.97, 8.998], [76.9705, 8.9977], [76.9708, 8.9976], [76.9709, 8.9973], [76.9709, 8.9969], [76.9709, 8.9965], [76.9708, 8.996], [76.9707, 8.9953], [76.9707, 8.9946], [76.9707, 8.9941], [76.9706, 8.9938], [76.9705, 8.9937], [76.9705, 8.9934], [76.9705, 8.993], [76.9702, 8.9926], [76.9701, 8.9927], [76.9698, 8.9927], [76.9692, 8.993], [76.9687, 8.9929], [76.9681, 8.993], [76.9678, 8.9933], [76.9672, 8.9932], [76.9664, 8.9931], [76.9662, 8.9932], [76.9658, 8.9933], [76.9655, 8.9933], [76.9652, 8.9934], [76.965, 8.9933], [76.9645, 8.9931], [76.9643, 8.993], [76.964, 8.9929], [76.964, 8.9925], [76.964, 8.9921], [76.964, 8.992], [76.9638, 8.9914], [76.9638, 8.991], [76.9637, 8.9909], [76.9634, 8.9903], [76.9632, 8.99], [76.9631, 8.9896], [76.963, 8.9892], [76.9629, 8.989], [76.9625, 8.9885], [76.9621, 8.9881], [76.9618, 8.9879], [76.9614, 8.9877], [76.9619, 8.9872], [76.9621, 8.987], [76.9624, 8.9866], [76.9624, 8.9865], [76.9627, 8.986], [76.9631, 8.9856], [76.9632, 8.9854], [76.9632, 8.9852], [76.9633, 8.985], [76.9636, 8.9844], [76.9642, 8.984], [76.9644, 8.9836], [76.9646, 8.9829], [76.9649, 8.9825], [76.965, 8.9823], [76.9651, 8.9818], [76.9647, 8.9815], [76.9644, 8.9813], [76.9642, 8.9808], [76.9643, 8.9805], [76.9642, 8.98], [76.9642, 8.9798], [76.9642, 8.9793], [76.9643, 8.9791], [76.9643, 8.9789], [76.9642, 8.9786], [76.9643, 8.9785], [76.9643, 8.9783], [76.9644, 8.978], [76.9646, 8.9775], [76.9643, 8.9774], [76.9639, 8.9771], [76.9635, 8.9768], [76.9633, 8.976], [76.9632, 8.9754], [76.963, 8.9748], [76.9631, 8.9745], [76.9628, 8.9743], [76.9623, 8.9739], [76.9623, 8.9736], [76.9621, 8.9734], [76.9619, 8.9731], [76.9618, 8.9728], [76.9613, 8.9723], [76.9606, 8.9717], [76.9598, 8.9719], [76.9594, 8.9718], [76.9592, 8.9718], [76.9587, 8.9717], [76.9578, 8.9715], [76.957, 8.9714], [76.9567, 8.9713], [76.9566, 8.9712], [76.9559, 8.9708], [76.9551, 8.9704], [76.9543, 8.9699], [76.9543, 8.97], [76.9542, 8.9702], [76.9542, 8.9704], [76.954, 8.9708], [76.9542, 8.9709], [76.9544, 8.9711], [76.9544, 8.9714], [76.9544, 8.9716], [76.9543, 8.9719], [76.9541, 8.9718], [76.9539, 8.9716], [76.9537, 8.9715], [76.9536, 8.9715], [76.9535, 8.9716], [76.9534, 8.9718], [76.9533, 8.9721], [76.9532, 8.9723], [76.9532, 8.9725], [76.9533, 8.9726], [76.9534, 8.9728], [76.9535, 8.9729], [76.9536, 8.973], [76.9536, 8.9731], [76.9536, 8.9732], [76.9538, 8.9733], [76.9538, 8.9734], [76.9538, 8.9735], [76.954, 8.9736], [76.954, 8.9737], [76.9539, 8.974], [76.9539, 8.9741], [76.9539, 8.9744], [76.9537, 8.9742], [76.9536, 8.974], [76.9535, 8.9739], [76.9535, 8.9738], [76.9532, 8.9738], [76.9531, 8.9737], [76.9531, 8.9736], [76.9528, 8.9734], [76.9527, 8.9732], [76.9523, 8.9731], [76.9523, 8.9729], [76.9518, 8.9733], [76.9518, 8.9734], [76.9516, 8.9735], [76.9514, 8.9738], [76.9513, 8.9739], [76.9512, 8.974], [76.9509, 8.9744], [76.9509, 8.9745], [76.9507, 8.9747], [76.9506, 8.9748], [76.9505, 8.9748], [76.9503, 8.9748], [76.9503, 8.9749], [76.9505, 8.9749], [76.9505, 8.9752], [76.9507, 8.9752], [76.951, 8.9752], [76.9513, 8.9752], [76.9514, 8.9755], [76.9514, 8.9757], [76.9515, 8.9757], [76.9518, 8.976], [76.952, 8.9762], [76.9518, 8.9764], [76.9518, 8.9763], [76.9516, 8.9762], [76.9515, 8.9761], [76.9513, 8.976], [76.9512, 8.9759], [76.951, 8.9759], [76.9507, 8.976], [76.9506, 8.9762], [76.9504, 8.9764], [76.9503, 8.9765], [76.9501, 8.9765], [76.95, 8.9767], [76.9498, 8.9767], [76.9495, 8.9768], [76.9494, 8.9768], [76.9492, 8.9767], [76.9491, 8.9768], [76.9489, 8.9769], [76.9487, 8.9771], [76.9484, 8.9774], [76.9484, 8.9776], [76.9482, 8.9776], [76.9481, 8.9777], [76.9476, 8.9781], [76.9474, 8.9783], [76.9471, 8.9785], [76.9471, 8.9786], [76.947, 8.9787], [76.9466, 8.9787], [76.9465, 8.9787], [76.9464, 8.9789], [76.9462, 8.979], [76.9461, 8.9791], [76.9461, 8.9792], [76.9459, 8.9794], [76.9457, 8.9796], [76.9457, 8.9797], [76.9458, 8.9799], [76.9459, 8.9801], [76.9461, 8.9804], [76.9462, 8.9804], [76.9463, 8.9805], [76.9462, 8.9806], [76.9463, 8.9807], [76.9464, 8.9807], [76.9465, 8.9807], [76.9464, 8.9808], [76.9463, 8.9808], [76.9462, 8.9808], [76.946, 8.9807], [76.946, 8.9806], [76.9459, 8.9806], [76.9457, 8.9803], [76.9456, 8.9803], [76.9455, 8.9802], [76.9453, 8.9801], [76.9452, 8.9801], [76.945, 8.9802], [76.9449, 8.9804], [76.9448, 8.9804], [76.9447, 8.9807], [76.9445, 8.9811], [76.9444, 8.9813], [76.9445, 8.9815], [76.9444, 8.9815], [76.9444, 8.9816], [76.9443, 8.9817], [76.9445, 8.9818], [76.9446, 8.982], [76.9446, 8.9821], [76.9446, 8.9823], [76.9448, 8.9825], [76.9449, 8.9825], [76.9448, 8.9826], [76.9445, 8.9824], [76.9445, 8.9823], [76.9444, 8.9822], [76.9443, 8.9821], [76.9443, 8.9822], [76.9442, 8.9823], [76.9439, 8.9826], [76.9438, 8.9827], [76.9433, 8.9829], [76.9429, 8.9829], [76.9425, 8.983], [76.9423, 8.9827], [76.9421, 8.9825], [76.9418, 8.9827], [76.9417, 8.9828], [76.9415, 8.9829], [76.9414, 8.9829], [76.9413, 8.983], [76.9413, 8.9831], [76.9412, 8.9832], [76.941, 8.9833], [76.941, 8.9834], [76.9412, 8.9838], [76.9413, 8.9839], [76.941, 8.984], [76.9407, 8.9842], [76.9405, 8.9844], [76.9404, 8.9846], [76.9403, 8.9847], [76.9402, 8.9849], [76.9401, 8.985], [76.9398, 8.9851], [76.9399, 8.9854], [76.9401, 8.9852], [76.9402, 8.9851], [76.9404, 8.985], [76.9406, 8.9849], [76.9409, 8.9847], [76.941, 8.9847], [76.941, 8.985], [76.941, 8.9852], [76.9412, 8.9856], [76.9409, 8.9856], [76.9406, 8.9856], [76.9404, 8.9857], [76.9403, 8.9858], [76.9402, 8.9859], [76.9402, 8.986], [76.9402, 8.9861], [76.9402, 8.9863], [76.9403, 8.9864], [76.9402, 8.9866], [76.9403, 8.9867], [76.9404, 8.9869], [76.9405, 8.9869], [76.9407, 8.9869], [76.9407, 8.987], [76.9407, 8.9871], [76.9407, 8.9872], [76.9406, 8.9873]]]}, "properties": {"objectid": 291444, "statename": "Kerala", "statecode": "32", "districtname": "Kollam", "districtcode": "600", "ulbname": "Punalur (M)", "ulbcode": "803307", "wardname": "Kelankavu ", "wardcode": "24", "id": null, "status": "APPROVED", "misglobalid": null, "approved_by": null, "createdate": 1663313001000, "updateddate": 1670861409000, "globalid": null, "gisglobalid": "PPBaaasP-cBRl-P6K6-QBsa-dd65ldKndlos", "remark": "", "st_area(shape)": 0.00031712877071598877, "st_perimeter(shape)": 0.14736410794567048}}, {"type": "Feature", "geometry": {"type": "Polygon", "coordinates": [[[76.9522, 8.9931], [76.9527, 8.992], [76.9531, 8.9917], [76.9537, 8.9913], [76.9547, 8.9909], [76.9553, 8.9906], [76.9566, 8.9899], [76.9572, 8.989], [76.9575, 8.9878], [76.9579, 8.9866], [76.9581, 8.9856], [76.958, 8.9849], [76.958, 8.9842], [76.9577, 8.9835], [76.9569, 8.9829], [76.9562, 8.9826], [76.955, 8.9823], [76.9541, 8.9822], [76.9534, 8.9821], [76.9525, 8.9814], [76.9514, 8.9813], [76.9504, 8.9812], [76.9499, 8.9809], [76.9492, 8.9809], [76.9487, 8.9813], [76.9481, 8.9818], [76.9474, 8.9821], [76.9467, 8.9822], [76.9463, 8.9825], [76.946, 8.983], [76.9454, 8.9836], [76.9448, 8.9843], [76.9446, 8.9848], [76.9448, 8.9856], [76.9448, 8.9865], [76.9441, 8.9869], [76.9429, 8.9872], [76.9419, 8.9873], [76.9406, 8.9873], [76.9402, 8.9873], [76.9401, 8.9874], [76.9413, 8.9879], [76.9425, 8.9885], [76.9433, 8.9888], [76.9439, 8.9888], [76.9449, 8.989], [76.9459, 8.9891], [76.9466, 8.9892], [76.9476, 8.9892], [76.9484, 8.9892], [76.9491, 8.9891], [76.9497, 8.989], [76.9507, 8.989], [76.9514, 8.9894], [76.9516, 8.9902], [76.9516, 8.9911], [76.9517, 8.9916], [76.9519, 8.9921], [76.9521, 8.9928], [76.9522, 8.9931]]]}, "properties": {"objectid": 287165, "statename": "Kerala", "statecode": "32", "districtname": "Kollam", "districtcode": "600", "ulbname": "Punalur (M)", "ulbcode": "803307", "wardname": "Ashtamangalam", "wardcode": "25", "id": null, "status": "APPROVED", "misglobalid": null, "approved_by": null, "createdate": 1663313001000, "updateddate": 1670861465000, "globalid": null, "gisglobalid": "sP6oaloK-Pma4-Pm44-RPPK-KK5KKomKmmos", "remark": "", "st_area(shape)": 0.0001078107542104662, "st_perimeter(shape)": 0.04994868264104219}}, {"type": "Feature", "geometry": {"type": "Polygon", "coordinates": [[[76.9522, 8.9931], [76.9527, 8.992], [76.9531, 8.9917], [76.9537, 8.9913], [76.9547, 8.9909], [76.9553, 8.9906], [76.9566, 8.9899], [76.9572, 8.989], [76.9575, 8.9878], [76.9579, 8.9866], [76.9581, 8.9856], [76.958, 8.9849], [76.958, 8.9842], [76.9577, 8.9835], [76.9569, 8.9829], [76.9562, 8.9826], [76.955, 8.9823], [76.9541, 8.9822], [76.9534, 8.9821], [76.9525, 8.9814], [76.9514, 8.9813], [76.9504, 8.9812], [76.9499, 8.9809], [76.9492, 8.9809], [76.9487, 8.9813], [76.9481, 8.9818], [76.9474, 8.9821], [76.9467, 8.9822], [76.9463, 8.9825], [76.946, 8.983], [76.9454, 8.9836], [76.9448, 8.9843], [76.9446, 8.9848], [76.9448, 8.9856], [76.9448, 8.9865], [76.9441, 8.9869], [76.9429, 8.9872], [76.9419, 8.9873], [76.9406, 8.9873], [76.9402, 8.9873], [76.9401, 8.9874], [76.9413, 8.9879], [76.9425, 8.9885], [76.9433, 8.9888], [76.9439, 8.9888], [76.9449, 8.989], [76.9459, 8.9891], [76.9466, 8.9892], [76.9476, 8.9892], [76.9484, 8.9892], [76.9491, 8.9891], [76.9497, 8.989], [76.9507, 8.989], [76.9514, 8.9894], [76.9516, 8.9902], [76.9516, 8.9911], [76.9517, 8.9916], [76.9519, 8.9921], [76.9521, 8.9928], [76.9522, 8.9931]]]}, "properties": {"objectid": 291830, "statename": "Kerala", "statecode": "32", "districtname": "Kollam", "districtcode": "600", "ulbname": "Punalur (M)", "ulbcode": "803307", "wardname": "Maniyar", "wardcode": "26", "id": null, "status": "APPROVED", "misglobalid": null, "approved_by": null, "createdate": 1663313001000, "updateddate": 1670861493000, "globalid": null, "gisglobalid": "m4ll444s-KBsn-Pm6d-RPcP-54P5nnmo54oo", "remark": "", "st_area(shape)": 0.0001078107542104662, "st_perimeter(shape)": 0.04994868264104219}}, {"type": "Feature", "geometry": {"type": "Polygon", "coordinates": [[[76.9522, 8.9931], [76.9527, 8.992], [76.9531, 8.9917], [76.9537, 8.9913], [76.9547, 8.9909], [76.9553, 8.9906], [76.9566, 8.9899], [76.9572, 8.989], [76.9575, 8.9878], [76.9579, 8.9866], [76.9581, 8.9856], [76.958, 8.9849], [76.958, 8.9842], [76.9577, 8.9835], [76.9569, 8.9829], [76.9562, 8.9826], [76.955, 8.9823], [76.9541, 8.9822], [76.9534, 8.9821], [76.9525, 8.9814], [76.9514, 8.9813], [76.9504, 8.9812], [76.9499, 8.9809], [76.9492, 8.9809], [76.9487, 8.9813], [76.9481, 8.9818], [76.9474, 8.9821], [76.9467, 8.9822], [76.9463, 8.9825], [76.946, 8.983], [76.9454, 8.9836], [76.9448, 8.9843], [76.9446, 8.9848], [76.9448, 8.9856], [76.9448, 8.9865], [76.9441, 8.9869], [76.9429, 8.9872], [76.9419, 8.9873], [76.9406, 8.9873], [76.9402, 8.9873], [76.9401, 8.9874], [76.9413, 8.9879], [76.9425, 8.9885], [76.9433, 8.9888], [76.9439, 8.9888], [76.9449, 8.989], [76.9459, 8.9891], [76.9466, 8.9892], [76.9476, 8.9892], [76.9484, 8.9892], [76.9491, 8.9891], [76.9497, 8.989], [76.9507, 8.989], [76.9514, 8.9894], [76.9516, 8.9902], [76.9516, 8.9911], [76.9517, 8.9916], [76.9519, 8.9921], [76.9521, 8.9928], [76.9522, 8.9931]]]}, "properties": {"objectid": 291439, "statename": "Kerala", "statecode": "32", "districtname": "Kollam", "districtcode": "600", "ulbname": "Punalur (M)", "ulbcode": "803307", "wardname": "Paravatom", "wardcode": "27", "id": null, "status": "APPROVED", "misglobalid": null, "approved_by": null, "createdate": 1663313001000, "updateddate": 1670861527000, "globalid": null, "gisglobalid": "6RKda5do-lm6s-Pa4l-adlc-PoRKcPRRcQmo", "remark": "", "st_area(shape)": 0.0001078107542104662, "st_perimeter(shape)": 0.04994868264104219}}, {"type": "Feature", "geometry": {"type": "Polygon", "coordinates": [[[76.9237, 9.0105], [76.9242, 9.0104], [76.9247, 9.0103], [76.9253, 9.0099], [76.9256, 9.0099], [76.9261, 9.0099], [76.9267, 9.0097], [76.9273, 9.0098], [76.928, 9.0096], [76.9285, 9.0094], [76.9289, 9.0088], [76.9288, 9.0082], [76.9286, 9.0075], [76.9287, 9.0071], [76.9288, 9.0067], [76.9286, 9.0061], [76.9283, 9.0055], [76.928, 9.0052], [76.9275, 9.0039], [76.927, 9.003], [76.9267, 9.0026], [76.9265, 9.0021], [76.9262, 9.0016], [76.9257, 9.0007], [76.9251, 8.9998], [76.9245, 8.9989], [76.9241, 8.9991], [76.9238, 8.9993], [76.9237, 8.9994], [76.9234, 8.9996], [76.9233, 8.9999], [76.9232, 9.0003], [76.923, 9.0008], [76.923, 9.0009], [76.9233, 9.0009], [76.9238, 9.0009], [76.9244, 9.0007], [76.9245, 9.0008], [76.9245, 9.0011], [76.9246, 9.0016], [76.9247, 9.0018], [76.9248, 9.0021], [76.9248, 9.0022], [76.9246, 9.0025], [76.9242, 9.003], [76.9239, 9.0035], [76.9239, 9.0036], [76.9236, 9.004], [76.9237, 9.0041], [76.9237, 9.0042], [76.9231, 9.0046], [76.9226, 9.0051], [76.9228, 9.0052], [76.9234, 9.0053], [76.9237, 9.0054], [76.9236, 9.0055], [76.9233, 9.0058], [76.9231, 9.006], [76.923, 9.0061], [76.9228, 9.0063], [76.9225, 9.0063], [76.9224, 9.0063], [76.9223, 9.0063], [76.9223, 9.0064], [76.9224, 9.0065], [76.9223, 9.0066], [76.9221, 9.0067], [76.922, 9.0068], [76.9221, 9.0077], [76.9221, 9.0086], [76.9225, 9.0092], [76.923, 9.0096], [76.9235, 9.0101], [76.9237, 9.0105]]]}, "properties": {"objectid": 292257, "statename": "Kerala", "statecode": "32", "districtname": "Kollam", "districtcode": "600", "ulbname": "Punalur (M)", "ulbcode": "803307", "wardname": "Tholikodu", "wardcode": "28", "id": null, "status": "APPROVED", "misglobalid": null, "approved_by": null, "createdate": 1663313001000, "updateddate": 1670861603000, "globalid": null, "gisglobalid": "BB4na6al-4nPs-PKBa-QmPQ-oRsPs6o44dPa", "remark": "", "st_area(shape)": 4.5079263195926e-05, "st_perimeter(shape)": 0.03429063544928335}}, {"type": "Feature", "geometry": {"type": "Polygon", "coordinates": [[[76.9285, 9.0094], [76.928, 9.0096], [76.9273, 9.0098], [76.9267, 9.0097], [76.9261, 9.0099], [76.9256, 9.0099], [76.9253, 9.0099], [76.9247, 9.0103], [76.9242, 9.0104], [76.9237, 9.0105], [76.9231, 9.011], [76.9225, 9.0116], [76.9224, 9.0121], [76.922, 9.0127], [76.9224, 9.0133], [76.9231, 9.0142], [76.9234, 9.015], [76.9232, 9.0157], [76.9227, 9.0159], [76.9222, 9.0159], [76.9217, 9.0156], [76.9215, 9.0153], [76.921, 9.0153], [76.9206, 9.0156], [76.9208, 9.0163], [76.9208, 9.0169], [76.9208, 9.0173], [76.921, 9.0173], [76.9216, 9.0174], [76.9221, 9.0176], [76.9228, 9.018], [76.9234, 9.018], [76.924, 9.018], [76.9246, 9.0183], [76.9252, 9.0187], [76.9264, 9.0192], [76.9267, 9.0195], [76.9271, 9.0184], [76.9272, 9.0177], [76.9274, 9.0172], [76.9275, 9.0166], [76.9278, 9.0159], [76.928, 9.0152], [76.928, 9.0151], [76.9282, 9.0142], [76.9283, 9.0133], [76.9285, 9.012], [76.9285, 9.0112], [76.9285, 9.0105], [76.9285, 9.0099], [76.9285, 9.0094]]]}, "properties": {"objectid": 291826, "statename": "Kerala", "statecode": "32", "districtname": "Kollam", "districtcode": "600", "ulbname": "Punalur (M)", "ulbcode": "803307", "wardname": "Powerhouse ", "wardcode": "29", "id": null, "status": "APPROVED", "misglobalid": null, "approved_by": null, "createdate": 1663313001000, "updateddate": 1670861635000, "globalid": null, "gisglobalid": "c4l64QQl-dlR4-P6cs-sdnd-6PKmKP64RP6R", "remark": "", "st_area(shape)": 4.811676994145436e-05, "st_perimeter(shape)": 0.03261104214955444}}, {"type": "Feature", "geometry": {"type": "Polygon", "coordinates": [[[76.9208, 9.0173], [76.9208, 9.0169], [76.9208, 9.0163], [76.9206, 9.0156], [76.921, 9.0153], [76.9215, 9.0153], [76.9217, 9.0156], [76.9222, 9.0159], [76.9227, 9.0159], [76.9232, 9.0157], [76.9234, 9.015], [76.9231, 9.0142], [76.9224, 9.0133], [76.922, 9.0127], [76.9224, 9.0121], [76.9225, 9.0116], [76.9231, 9.011], [76.9237, 9.0105], [76.9234, 9.0107], [76.9229, 9.0108], [76.9223, 9.0109], [76.9215, 9.0112], [76.9205, 9.0114], [76.9196, 9.0117], [76.919, 9.012], [76.9186, 9.0123], [76.9176, 9.0126], [76.9168, 9.0129], [76.9162, 9.0135], [76.9156, 9.014], [76.9148, 9.0142], [76.9142, 9.0142], [76.9142, 9.0144], [76.9143, 9.0155], [76.9145, 9.0167], [76.9148, 9.0173], [76.9153, 9.0179], [76.9157, 9.0185], [76.9162, 9.0192], [76.917, 9.02], [76.9175, 9.0199], [76.9183, 9.0196], [76.9187, 9.019], [76.9187, 9.0181], [76.9184, 9.0172], [76.9185, 9.0169], [76.9191, 9.0169], [76.92, 9.0173], [76.9208, 9.0173]]]}, "properties": {"objectid": 287167, "statename": "Kerala", "statecode": "32", "districtname": "Kollam", "districtcode": "600", "ulbname": "Punalur (M)", "ulbcode": "803307", "wardname": "Komalamkunnu", "wardcode": "30", "id": null, "status": "APPROVED", "misglobalid": null, "approved_by": null, "createdate": 1663313001000, "updateddate": 1670861670000, "globalid": null, "gisglobalid": "m4RP6d6K-Pa4n-Pda6-addB-KKRdBd6cRna5", "remark": "", "st_area(shape)": 4.488611409223454e-05, "st_perimeter(shape)": 0.034668536335720875}}, {"type": "Feature", "geometry": {"type": "Polygon", "coordinates": [[[76.9208, 9.0173], [76.9208, 9.0169], [76.9208, 9.0163], [76.9206, 9.0156], [76.921, 9.0153], [76.9215, 9.0153], [76.9217, 9.0156], [76.9222, 9.0159], [76.9227, 9.0159], [76.9232, 9.0157], [76.9234, 9.015], [76.9231, 9.0142], [76.9224, 9.0133], [76.922, 9.0127], [76.9224, 9.0121], [76.9225, 9.0116], [76.9231, 9.011], [76.9237, 9.0105], [76.9234, 9.0107], [76.9229, 9.0108], [76.9223, 9.0109], [76.9215, 9.0112], [76.9205, 9.0114], [76.9196, 9.0117], [76.919, 9.012], [76.9186, 9.0123], [76.9176, 9.0126], [76.9168, 9.0129], [76.9162, 9.0135], [76.9156, 9.014], [76.9148, 9.0142], [76.9142, 9.0142], [76.9142, 9.0144], [76.9143, 9.0155], [76.9145, 9.0167], [76.9148, 9.0173], [76.9153, 9.0179], [76.9157, 9.0185], [76.9162, 9.0192], [76.917, 9.02], [76.9175, 9.0199], [76.9183, 9.0196], [76.9187, 9.019], [76.9187, 9.0181], [76.9184, 9.0172], [76.9185, 9.0169], [76.9191, 9.0169], [76.92, 9.0173], [76.9208, 9.0173]]]}, "properties": {"objectid": 291828, "statename": "Kerala", "statecode": "32", "districtname": "Kollam", "districtcode": "600", "ulbname": "Punalur (M)", "ulbcode": "803307", "wardname": "College Ward", "wardcode": "31", "id": null, "status": "APPROVED", "misglobalid": null, "approved_by": null, "createdate": 1663313001000, "updateddate": 1670861717000, "globalid": null, "gisglobalid": "nRm444ds-R4RK-P5dB-aodo-cK4maQPoQnmK", "remark": "", "st_area(shape)": 4.488611409223454e-05, "st_perimeter(shape)": 0.034668536335720875}}, {"type": "Feature", "geometry": {"type": "Polygon", "coordinates": [[[76.9142, 9.0142], [76.9148, 9.0142], [76.9156, 9.014], [76.9162, 9.0135], [76.9168, 9.0129], [76.9176, 9.0126], [76.9186, 9.0123], [76.919, 9.012], [76.9196, 9.0117], [76.9205, 9.0114], [76.9215, 9.0112], [76.9223, 9.0109], [76.9229, 9.0108], [76.9234, 9.0107], [76.9237, 9.0105], [76.9235, 9.0101], [76.923, 9.0096], [76.9225, 9.0092], [76.9221, 9.0086], [76.9221, 9.0077], [76.922, 9.0068], [76.9217, 9.007], [76.9214, 9.0071], [76.9213, 9.0071], [76.9212, 9.0072], [76.9211, 9.0074], [76.9208, 9.0073], [76.9207, 9.0073], [76.9206, 9.0073], [76.9205, 9.0073], [76.9204, 9.007], [76.9204, 9.0067], [76.9203, 9.0067], [76.9201, 9.0067], [76.92, 9.0067], [76.9199, 9.0068], [76.9199, 9.0069], [76.92, 9.007], [76.9201, 9.0072], [76.9202, 9.0073], [76.92, 9.0073], [76.9199, 9.0074], [76.9197, 9.0075], [76.9195, 9.0076], [76.9192, 9.0077], [76.9189, 9.0077], [76.9187, 9.0077], [76.9185, 9.0076], [76.9186, 9.0074], [76.9188, 9.0071], [76.9191, 9.0067], [76.9189, 9.0066], [76.919, 9.0065], [76.9191, 9.0064], [76.919, 9.0064], [76.9189, 9.0062], [76.9189, 9.0061], [76.9188, 9.0059], [76.9187, 9.0058], [76.9186, 9.0058], [76.9182, 9.0059], [76.9182, 9.0063], [76.9182, 9.0066], [76.9183, 9.0068], [76.9184, 9.007], [76.9182, 9.0072], [76.918, 9.0073], [76.9179, 9.0074], [76.9178, 9.0075], [76.9178, 9.0076], [76.9177, 9.0077], [76.9176, 9.0076], [76.9175, 9.0076], [76.9174, 9.0075], [76.9172, 9.0074], [76.9167, 9.0075], [76.9163, 9.0076], [76.9162, 9.0076], [76.916, 9.0077], [76.9159, 9.0077], [76.9159, 9.0078], [76.9158, 9.0078], [76.9156, 9.0079], [76.9155, 9.0079], [76.9156, 9.0078], [76.9156, 9.0077], [76.9156, 9.0076], [76.9155, 9.0076], [76.9152, 9.0075], [76.9149, 9.0074], [76.9147, 9.0073], [76.9145, 9.0073], [76.9143, 9.0072], [76.9142, 9.0071], [76.9141, 9.007], [76.9139, 9.007], [76.9137, 9.007], [76.9135, 9.0071], [76.9135, 9.0072], [76.9134, 9.0072], [76.9134, 9.0073], [76.9134, 9.0074], [76.9135, 9.0075], [76.9136, 9.0077], [76.9136, 9.0078], [76.9139, 9.008], [76.914, 9.0081], [76.9141, 9.0082], [76.9141, 9.0085], [76.9142, 9.0086], [76.9142, 9.0088], [76.9139, 9.0089], [76.9136, 9.009], [76.9138, 9.0094], [76.9137, 9.0099], [76.9136, 9.0108], [76.9138, 9.0112], [76.9141, 9.0115], [76.914, 9.0119], [76.9142, 9.0119], [76.9142, 9.012], [76.9145, 9.0122], [76.9145, 9.0123], [76.9145, 9.0131], [76.9143, 9.013], [76.9143, 9.0128], [76.9141, 9.0128], [76.9141, 9.0129], [76.9141, 9.013], [76.9141, 9.0131], [76.914, 9.0132], [76.9139, 9.0133], [76.9138, 9.0134], [76.9137, 9.0134], [76.9141, 9.0139], [76.9142, 9.0142]]]}, "properties": {"objectid": 292261, "statename": "Kerala", "statecode": "32", "districtname": "Kollam", "districtcode": "600", "ulbname": "Punalur (M)", "ulbcode": "803307", "wardname": "Kalangum Mukal", "wardcode": "32", "id": null, "status": "APPROVED", "misglobalid": null, "approved_by": null, "createdate": 1663313001000, "updateddate": 1670861815000, "globalid": null, "gisglobalid": "Qcn5nldl-4odn-PR5o-Rns5-mBsdso4nQman", "remark": "", "st_area(shape)": 4.5647429244691635e-05, "st_perimeter(shape)": 0.03964461875375011}}, {"type": "Feature", "geometry": {"type": "Polygon", "coordinates": [[[76.9265, 9.0229], [76.9268, 9.0219], [76.927, 9.0205], [76.927, 9.0198], [76.9269, 9.0197], [76.9267, 9.0195], [76.9264, 9.0192], [76.9252, 9.0187], [76.9246, 9.0183], [76.924, 9.018], [76.9234, 9.018], [76.9228, 9.018], [76.9221, 9.0176], [76.9216, 9.0174], [76.921, 9.0173], [76.9208, 9.0173], [76.92, 9.0173], [76.9191, 9.0169], [76.9185, 9.0169], [76.9184, 9.0172], [76.9187, 9.0181], [76.9187, 9.019], [76.9183, 9.0196], [76.9175, 9.0199], [76.917, 9.02], [76.9171, 9.0206], [76.9172, 9.0213], [76.9173, 9.0221], [76.9177, 9.0226], [76.9181, 9.0231], [76.9183, 9.0234], [76.9194, 9.0236], [76.9202, 9.0235], [76.9212, 9.0234], [76.9222, 9.0234], [76.9229, 9.0231], [76.924, 9.0231], [76.925, 9.0231], [76.9259, 9.023], [76.9265, 9.0229]]]}, "properties": {"objectid": 291829, "statename": "Kerala", "statecode": "32", "districtname": "Kollam", "districtcode": "600", "ulbname": "Punalur (M)", "ulbcode": "803307", "wardname": "Town", "wardcode": "33", "id": null, "status": "APPROVED", "misglobalid": null, "approved_by": null, "createdate": 1663313001000, "updateddate": 1670861848000, "globalid": null, "gisglobalid": "s6cndQlo-4aa5-PsKo-aRRm-R5lddKPnlnd6", "remark": "", "st_area(shape)": 4.837651258792151e-05, "st_perimeter(shape)": 0.028743802130690787}}, {"type": "Feature", "geometry": {"type": "Polygon", "coordinates": [[[76.905, 9.0265], [76.9063, 9.0265], [76.907, 9.0265], [76.9072, 9.0262], [76.9074, 9.026], [76.9082, 9.0258], [76.9089, 9.0257], [76.9095, 9.0256], [76.9102, 9.0252], [76.9105, 9.0251], [76.9116, 9.0245], [76.9132, 9.0238], [76.9142, 9.0236], [76.9152, 9.0234], [76.9161, 9.0233], [76.917, 9.0233], [76.9183, 9.0234], [76.9181, 9.0231], [76.9177, 9.0226], [76.9173, 9.0221], [76.9172, 9.0213], [76.9171, 9.0206], [76.917, 9.02], [76.9162, 9.02], [76.9151, 9.0203], [76.9142, 9.0206], [76.9134, 9.021], [76.9117, 9.0212], [76.9105, 9.0211], [76.9095, 9.0208], [76.9086, 9.0206], [76.9071, 9.0204], [76.9069, 9.0208], [76.9068, 9.021], [76.9065, 9.022], [76.9064, 9.0227], [76.9061, 9.0233], [76.906, 9.0239], [76.9058, 9.0242], [76.9055, 9.0249], [76.9052, 9.0258], [76.905, 9.0265]]]}, "properties": {"objectid": 287159, "statename": "Kerala", "statecode": "32", "districtname": "Kollam", "districtcode": "600", "ulbname": "Punalur (M)", "ulbcode": "803307", "wardname": "Chemmanthur", "wardcode": "34", "id": null, "status": "APPROVED", "misglobalid": null, "approved_by": null, "createdate": 1663313001000, "updateddate": 1670861884000, "globalid": null, "gisglobalid": "mKaQ4QRo-KB46-PnK4-Qm46-QnllBo5nsld5", "remark": "", "st_area(shape)": 4.518673989869369e-05, "st_perimeter(shape)": 0.034458338756713974}}, {"type": "Feature", "geometry": {"type": "Polygon", "coordinates": [[[76.893, 9.0303], [76.8945, 9.0297], [76.8959, 9.0294], [76.897, 9.0291], [76.8984, 9.0285], [76.8992, 9.0282], [76.9003, 9.0277], [76.9014, 9.0272], [76.9024, 9.0271], [76.9032, 9.0267], [76.9048, 9.0265], [76.905, 9.0265], [76.9052, 9.0258], [76.9055, 9.0249], [76.9058, 9.0242], [76.906, 9.0239], [76.9061, 9.0233], [76.9064, 9.0227], [76.9065, 9.022], [76.9068, 9.021], [76.9069, 9.0208], [76.9071, 9.0204], [76.9069, 9.0203], [76.9068, 9.0204], [76.9068, 9.0205], [76.9065, 9.0207], [76.9063, 9.0208], [76.9059, 9.0207], [76.9057, 9.0207], [76.9055, 9.0206], [76.9051, 9.0207], [76.9049, 9.0207], [76.9048, 9.0208], [76.9046, 9.0208], [76.9044, 9.0209], [76.9044, 9.0208], [76.9039, 9.0208], [76.9037, 9.0208], [76.9033, 9.0208], [76.9031, 9.0207], [76.9027, 9.0208], [76.9026, 9.0207], [76.9022, 9.0207], [76.902, 9.0207], [76.9017, 9.0207], [76.9012, 9.0209], [76.9009, 9.0209], [76.9006, 9.021], [76.9004, 9.0211], [76.9003, 9.0212], [76.9001, 9.0213], [76.8998, 9.0215], [76.8997, 9.0216], [76.8995, 9.0219], [76.8993, 9.0221], [76.8992, 9.0221], [76.899, 9.0222], [76.8988, 9.0222], [76.8987, 9.0222], [76.8985, 9.0222], [76.8985, 9.0223], [76.8984, 9.0224], [76.8982, 9.0226], [76.8975, 9.0226], [76.8972, 9.0227], [76.897, 9.0227], [76.8966, 9.0227], [76.896, 9.0228], [76.8958, 9.0229], [76.8957, 9.0229], [76.8953, 9.023], [76.8951, 9.023], [76.8945, 9.023], [76.8945, 9.0231], [76.894, 9.0231], [76.8936, 9.0232], [76.8934, 9.0233], [76.8932, 9.0233], [76.893, 9.0233], [76.893, 9.0235], [76.8931, 9.0236], [76.8929, 9.0239], [76.8928, 9.0241], [76.8929, 9.0245], [76.8923, 9.0246], [76.8919, 9.0251], [76.8919, 9.0252], [76.8913, 9.0255], [76.8915, 9.0259], [76.891, 9.0261], [76.8911, 9.0266], [76.8907, 9.0268], [76.8907, 9.0266], [76.8906, 9.0266], [76.8904, 9.0267], [76.8903, 9.0267], [76.89, 9.0267], [76.8899, 9.0268], [76.8899, 9.027], [76.8901, 9.0277], [76.8903, 9.0286], [76.8907, 9.0289], [76.8914, 9.0287], [76.892, 9.0283], [76.8925, 9.0282], [76.8929, 9.028], [76.8934, 9.0275], [76.8939, 9.0272], [76.8939, 9.0277], [76.8935, 9.0284], [76.8932, 9.029], [76.893, 9.0297], [76.893, 9.0303]]]}, "properties": {"objectid": 287164, "statename": "Kerala", "statecode": "32", "districtname": "Kollam", "districtcode": "600", "ulbname": "Punalur (M)", "ulbcode": "803307", "wardname": "Pathekkar", "wardcode": "35", "id": null, "status": "APPROVED", "misglobalid": null, "approved_by": null, "createdate": 1663313001000, "updateddate": 1670861915000, "globalid": null, "gisglobalid": "aRPmBamR-Bso4-PdKQ-asdn-56Qm5Bc54sKB", "remark": "", "st_area(shape)": 8.932636359928412e-05, "st_perimeter(shape)": 0.049932537096013856}}]}
