{"type": "FeatureCollection", "features": [{"type": "Feature", "geometry": {"type": "Polygon", "coordinates": [[[78.5768, 12.5804], [78.5762, 12.5804], [78.5743, 12.5806], [78.5738, 12.5807], [78.5735, 12.5809], [78.5732, 12.5809], [78.5729, 12.5807], [78.5726, 12.5805], [78.5725, 12.5802], [78.5724, 12.5796], [78.5723, 12.5794], [78.5721, 12.5792], [78.5718, 12.579], [78.5715, 12.5788], [78.5708, 12.5786], [78.5706, 12.5783], [78.5706, 12.5775], [78.5688, 12.5774], [78.5686, 12.5774], [78.5685, 12.5774], [78.5685, 12.5775], [78.5685, 12.5782], [78.5685, 12.5784], [78.5685, 12.5785], [78.5685, 12.5787], [78.5684, 12.5792], [78.5682, 12.5797], [78.5681, 12.5802], [78.5681, 12.5804], [78.568, 12.5806], [78.5679, 12.5813], [78.5679, 12.582], [78.5678, 12.5822], [78.5678, 12.5826], [78.5677, 12.5827], [78.5677, 12.5837], [78.5678, 12.5843], [78.5678, 12.5845], [78.5678, 12.5847], [78.568, 12.5849], [78.568, 12.585], [78.568, 12.5851], [78.5679, 12.5851], [78.568, 12.5852], [78.5681, 12.5853], [78.5682, 12.5854], [78.5684, 12.5854], [78.5685, 12.5855], [78.5689, 12.5855], [78.5691, 12.5855], [78.5693, 12.5855], [78.5696, 12.5855], [78.5697, 12.5855], [78.5698, 12.5855], [78.57, 12.5856], [78.5701, 12.5856], [78.5702, 12.5858], [78.5702, 12.5859], [78.5702, 12.586], [78.5703, 12.5861], [78.5703, 12.5862], [78.5705, 12.586], [78.5707, 12.5859], [78.5708, 12.5857], [78.5709, 12.5856], [78.571, 12.5856], [78.5711, 12.5856], [78.5714, 12.5856], [78.5715, 12.5856], [78.5716, 12.5856], [78.5717, 12.5857], [78.5719, 12.5857], [78.5723, 12.5858], [78.5724, 12.5858], [78.5727, 12.5859], [78.5729, 12.586], [78.5731, 12.586], [78.5735, 12.5861], [78.5736, 12.5861], [78.5738, 12.5861], [78.574, 12.5862], [78.5742, 12.5863], [78.5744, 12.5865], [78.5744, 12.5866], [78.5746, 12.587], [78.5749, 12.5869], [78.5752, 12.5871], [78.5754, 12.5874], [78.5756, 12.5877], [78.5762, 12.5878], [78.5767, 12.5813], [78.5768, 12.5804]]]}, "properties": {"objectid": 301757, "statename": "Tamil Nadu", "statecode": "33", "districtname": "Thirupathur", "districtcode": "732", "ulbname": "Jolarpet", "ulbcode": "803409", "wardname": "Ward 1", "wardcode": "1", "id": null, "status": "OPEN", "misglobalid": null, "approved_by": null, "createdate": 1675164990000, "updateddate": null, "globalid": null, "gisglobalid": "lQdBQQQK-sB6c-PBm4-sPlo-nasmnPQKc5dK", "remark": "--", "st_area(shape)": 5.8380283406081264e-05, "st_perimeter(shape)": 0.035816560878223824}}, {"type": "Feature", "geometry": {"type": "Polygon", "coordinates": [[[78.5949, 12.5801], [78.5936, 12.5776], [78.5918, 12.5781], [78.5912, 12.5782], [78.589, 12.5788], [78.5883, 12.5789], [78.5865, 12.5789], [78.5853, 12.5788], [78.5848, 12.5787], [78.5837, 12.5785], [78.5827, 12.5781], [78.5823, 12.5766], [78.5821, 12.5766], [78.58, 12.5767], [78.5796, 12.5766], [78.5791, 12.5765], [78.5788, 12.5764], [78.5785, 12.5761], [78.5771, 12.5759], [78.5771, 12.5774], [78.5768, 12.5804], [78.5767, 12.5813], [78.5762, 12.5878], [78.5765, 12.5878], [78.577, 12.5877], [78.5773, 12.5876], [78.5774, 12.5875], [78.5776, 12.5874], [78.5778, 12.5875], [78.5779, 12.5874], [78.5778, 12.5872], [78.5778, 12.5869], [78.5778, 12.5868], [78.5777, 12.5863], [78.5777, 12.586], [78.5777, 12.5859], [78.5778, 12.5856], [78.5779, 12.5855], [78.5782, 12.5853], [78.5784, 12.5853], [78.5791, 12.585], [78.5796, 12.5848], [78.58, 12.5847], [78.5801, 12.5847], [78.5805, 12.5846], [78.5806, 12.5839], [78.5813, 12.5838], [78.5816, 12.5837], [78.5817, 12.5837], [78.5822, 12.5837], [78.5825, 12.5836], [78.5826, 12.5834], [78.5828, 12.5833], [78.5829, 12.5833], [78.5836, 12.5832], [78.5838, 12.5832], [78.5843, 12.5828], [78.5846, 12.5827], [78.5849, 12.5826], [78.585, 12.5828], [78.5851, 12.5829], [78.5866, 12.5826], [78.5872, 12.5828], [78.5876, 12.5826], [78.589, 12.5825], [78.5891, 12.5825], [78.5894, 12.5825], [78.5896, 12.5825], [78.5902, 12.5825], [78.5904, 12.5824], [78.591, 12.5822], [78.5919, 12.5818], [78.5925, 12.5817], [78.5937, 12.5813], [78.5936, 12.5811], [78.5937, 12.581], [78.5939, 12.5806], [78.5946, 12.5803], [78.5949, 12.5801]]]}, "properties": {"objectid": 301758, "statename": "Tamil Nadu", "statecode": "33", "districtname": "Thirupathur", "districtcode": "732", "ulbname": "Jolarpet", "ulbcode": "803409", "wardname": "Ward 2", "wardcode": "2", "id": null, "status": "OPEN", "misglobalid": null, "approved_by": null, "createdate": 1675165038000, "updateddate": null, "globalid": null, "gisglobalid": "Q6Pln4aP-K5ca-Pcd4-Rdcc-ammQBsonns6R", "remark": "--", "st_area(shape)": 9.721349241122033e-05, "st_perimeter(shape)": 0.055877196528438665}}, {"type": "Feature", "geometry": {"type": "Polygon", "coordinates": [[[78.5918, 12.5781], [78.5911, 12.5754], [78.5906, 12.5733], [78.5905, 12.5727], [78.5902, 12.5724], [78.5892, 12.5722], [78.5881, 12.5718], [78.5875, 12.5714], [78.5869, 12.5717], [78.5866, 12.572], [78.5853, 12.5727], [78.5835, 12.5735], [78.5828, 12.5736], [78.5817, 12.5735], [78.5808, 12.5731], [78.5801, 12.5727], [78.5794, 12.5723], [78.5775, 12.5721], [78.5775, 12.5724], [78.5773, 12.5737], [78.5771, 12.5759], [78.5785, 12.5761], [78.5788, 12.5764], [78.5791, 12.5765], [78.5796, 12.5766], [78.58, 12.5767], [78.5821, 12.5766], [78.5823, 12.5766], [78.5827, 12.5781], [78.5837, 12.5785], [78.5848, 12.5787], [78.5853, 12.5788], [78.5865, 12.5789], [78.5883, 12.5789], [78.589, 12.5788], [78.5912, 12.5782], [78.5918, 12.5781]]]}, "properties": {"objectid": 300215, "statename": "Tamil Nadu", "statecode": "33", "districtname": "Thirupathur", "districtcode": "732", "ulbname": "Jolarpet", "ulbcode": "803409", "wardname": "Ward 3", "wardcode": "3", "id": null, "status": "OPEN", "misglobalid": null, "approved_by": null, "createdate": 1675165085000, "updateddate": null, "globalid": null, "gisglobalid": "sc6oll4c-QdPR-PQcd-Q56B-B66dnanl5Kal", "remark": "--", "st_area(shape)": 7.242935204194034e-05, "st_perimeter(shape)": 0.03963587082436362}}, {"type": "Feature", "geometry": {"type": "Polygon", "coordinates": [[[78.5768, 12.5804], [78.5771, 12.5774], [78.5771, 12.5759], [78.5773, 12.5737], [78.5775, 12.5724], [78.5775, 12.5721], [78.5777, 12.5707], [78.5766, 12.5707], [78.5718, 12.5709], [78.572, 12.5774], [78.571, 12.5775], [78.5706, 12.5775], [78.5706, 12.5783], [78.5708, 12.5786], [78.5715, 12.5788], [78.5718, 12.579], [78.5721, 12.5792], [78.5723, 12.5794], [78.5724, 12.5796], [78.5725, 12.5802], [78.5726, 12.5805], [78.5729, 12.5807], [78.5732, 12.5809], [78.5735, 12.5809], [78.5738, 12.5807], [78.5743, 12.5806], [78.5762, 12.5804], [78.5768, 12.5804]]]}, "properties": {"objectid": 300216, "statename": "Tamil Nadu", "statecode": "33", "districtname": "Thirupathur", "districtcode": "732", "ulbname": "Jolarpet", "ulbcode": "803409", "wardname": "Ward 4", "wardcode": "4", "id": null, "status": "OPEN", "misglobalid": null, "approved_by": null, "createdate": 1675165134000, "updateddate": null, "globalid": null, "gisglobalid": "nK4mQPm5-c4ma-PBc5-a5Ra-oKR4Pn6coanR", "remark": "--", "st_area(shape)": 5.295185185090172e-05, "st_perimeter(shape)": 0.0319233734318046}}, {"type": "Feature", "geometry": {"type": "Polygon", "coordinates": [[[78.5685, 12.5774], [78.5686, 12.5774], [78.5688, 12.5774], [78.5706, 12.5775], [78.571, 12.5775], [78.572, 12.5774], [78.5718, 12.5709], [78.5766, 12.5707], [78.5777, 12.5707], [78.5778, 12.569], [78.5767, 12.5689], [78.5747, 12.5688], [78.5734, 12.5689], [78.5716, 12.5692], [78.5708, 12.5693], [78.5712, 12.5709], [78.5701, 12.5713], [78.5699, 12.5711], [78.5694, 12.5696], [78.5679, 12.5698], [78.5677, 12.5699], [78.5643, 12.5724], [78.5659, 12.5772], [78.566, 12.5774], [78.567, 12.5772], [78.567, 12.5773], [78.5671, 12.5776], [78.5678, 12.5775], [78.5685, 12.5774]]]}, "properties": {"objectid": 301759, "statename": "Tamil Nadu", "statecode": "33", "districtname": "Thirupathur", "districtcode": "732", "ulbname": "Jolarpet", "ulbcode": "803409", "wardname": "Ward 5", "wardcode": "5", "id": null, "status": "OPEN", "misglobalid": null, "approved_by": null, "createdate": 1675165222000, "updateddate": null, "globalid": null, "gisglobalid": "BR45l4a4-l4Qm-PllB-Qaoa-K66sBn6mPcQa", "remark": "--", "st_area(shape)": 5.9075000793170474e-05, "st_perimeter(shape)": 0.043494003394382495}}, {"type": "Feature", "geometry": {"type": "Polygon", "coordinates": [[[78.566, 12.5774], [78.5659, 12.5772], [78.5643, 12.5724], [78.563, 12.5686], [78.5623, 12.5688], [78.5615, 12.5685], [78.5614, 12.5683], [78.5615, 12.568], [78.5621, 12.5672], [78.5626, 12.5666], [78.5627, 12.5666], [78.5627, 12.5665], [78.5626, 12.5663], [78.5625, 12.566], [78.5624, 12.5657], [78.5623, 12.5655], [78.5621, 12.565], [78.562, 12.565], [78.5619, 12.565], [78.5618, 12.5648], [78.5617, 12.5643], [78.5615, 12.5637], [78.5614, 12.5637], [78.5607, 12.5639], [78.5605, 12.5647], [78.5599, 12.565], [78.5593, 12.565], [78.5581, 12.5651], [78.5571, 12.5652], [78.5573, 12.5662], [78.5575, 12.5669], [78.5576, 12.5672], [78.5569, 12.5672], [78.5563, 12.5674], [78.5557, 12.5676], [78.5554, 12.5679], [78.5543, 12.5683], [78.5529, 12.5688], [78.5528, 12.5693], [78.553, 12.57], [78.5534, 12.5711], [78.5535, 12.5714], [78.5522, 12.5719], [78.5508, 12.5723], [78.5499, 12.5726], [78.5491, 12.5729], [78.5498, 12.5742], [78.5501, 12.5746], [78.5503, 12.5752], [78.5504, 12.5753], [78.549, 12.5758], [78.5482, 12.5761], [78.5484, 12.5764], [78.5485, 12.5765], [78.5489, 12.5772], [78.5493, 12.5777], [78.5496, 12.5787], [78.5501, 12.5802], [78.5504, 12.5808], [78.5502, 12.581], [78.5504, 12.5813], [78.5506, 12.5815], [78.5508, 12.5816], [78.5509, 12.5818], [78.5512, 12.5822], [78.5512, 12.5827], [78.5515, 12.5831], [78.5518, 12.5832], [78.5524, 12.583], [78.5528, 12.5832], [78.5531, 12.5832], [78.5537, 12.5832], [78.5545, 12.5829], [78.5554, 12.5825], [78.5559, 12.5823], [78.5564, 12.5822], [78.5569, 12.5821], [78.5574, 12.582], [78.5576, 12.5824], [78.5576, 12.5825], [78.5577, 12.5825], [78.5582, 12.5824], [78.5588, 12.5821], [78.5592, 12.582], [78.5594, 12.582], [78.56, 12.5818], [78.5604, 12.5817], [78.5615, 12.5826], [78.5621, 12.5829], [78.5624, 12.5835], [78.5633, 12.5831], [78.5642, 12.5831], [78.5646, 12.583], [78.5652, 12.5828], [78.5654, 12.5827], [78.5655, 12.5829], [78.5657, 12.5831], [78.5658, 12.5831], [78.566, 12.583], [78.5661, 12.583], [78.5661, 12.5828], [78.5661, 12.5827], [78.5661, 12.5826], [78.566, 12.5821], [78.5658, 12.5816], [78.5658, 12.5814], [78.5658, 12.5813], [78.5658, 12.5809], [78.5658, 12.5805], [78.5657, 12.5803], [78.5657, 12.58], [78.5656, 12.5798], [78.5656, 12.5795], [78.5655, 12.5793], [78.5655, 12.5789], [78.5654, 12.5786], [78.5654, 12.5784], [78.5653, 12.5783], [78.5653, 12.5782], [78.5656, 12.5781], [78.5661, 12.578], [78.566, 12.5776], [78.566, 12.5775], [78.566, 12.5774]]]}, "properties": {"objectid": 301760, "statename": "Tamil Nadu", "statecode": "33", "districtname": "Thirupathur", "districtcode": "732", "ulbname": "Jolarpet", "ulbcode": "803409", "wardname": "Ward 6", "wardcode": "6", "id": null, "status": "OPEN", "misglobalid": null, "approved_by": null, "createdate": 1675167312000, "updateddate": null, "globalid": null, "gisglobalid": "RnPdcnPd-5odo-PlB4-sQRm-RdmcBmlQsRnn", "remark": "--", "st_area(shape)": 0.00022312458335461272, "st_perimeter(shape)": 0.07203872907417821}}, {"type": "Feature", "geometry": {"type": "Polygon", "coordinates": [[[78.5716, 12.5692], [78.5715, 12.5689], [78.5707, 12.5662], [78.5705, 12.5656], [78.5698, 12.5658], [78.5694, 12.566], [78.5671, 12.5667], [78.5645, 12.5669], [78.5637, 12.5669], [78.5621, 12.5672], [78.5615, 12.568], [78.5614, 12.5683], [78.5615, 12.5685], [78.5623, 12.5688], [78.563, 12.5686], [78.5643, 12.5724], [78.5677, 12.5699], [78.5679, 12.5698], [78.5694, 12.5696], [78.5699, 12.5711], [78.5701, 12.5713], [78.5712, 12.5709], [78.5708, 12.5693], [78.5716, 12.5692]]]}, "properties": {"objectid": 300217, "statename": "Tamil Nadu", "statecode": "33", "districtname": "Thirupathur", "districtcode": "732", "ulbname": "Jolarpet", "ulbcode": "803409", "wardname": "Ward 7", "wardcode": "7", "id": null, "status": "OPEN", "misglobalid": null, "approved_by": null, "createdate": 1675167401000, "updateddate": null, "globalid": null, "gisglobalid": "asd4K6lQ-4RBm-PRP6-Qc54-RBo4Rl5KacKl", "remark": "--", "st_area(shape)": 3.569374683896456e-05, "st_perimeter(shape)": 0.030962502646761387}}, {"type": "Feature", "geometry": {"type": "Polygon", "coordinates": [[[78.5778, 12.569], [78.5778, 12.5689], [78.5779, 12.568], [78.5781, 12.5661], [78.5781, 12.565], [78.5771, 12.565], [78.5761, 12.565], [78.5754, 12.5648], [78.5746, 12.5646], [78.574, 12.5646], [78.5734, 12.5647], [78.5722, 12.5651], [78.5724, 12.5657], [78.5707, 12.5662], [78.5715, 12.5689], [78.5716, 12.5692], [78.5734, 12.5689], [78.5747, 12.5688], [78.5767, 12.5689], [78.5778, 12.569]]]}, "properties": {"objectid": 300214, "statename": "Tamil Nadu", "statecode": "33", "districtname": "Thirupathur", "districtcode": "732", "ulbname": "Jolarpet", "ulbcode": "803409", "wardname": "Ward 8", "wardcode": "8", "id": null, "status": "OPEN", "misglobalid": null, "approved_by": null, "createdate": 1675164840000, "updateddate": null, "globalid": null, "gisglobalid": "c5RQPlnd-odRc-Pold-Rssl-R4B6QcsQ6Q55", "remark": "--", "st_area(shape)": 2.678305681086848e-05, "st_perimeter(shape)": 0.0217009780096487}}, {"type": "Feature", "geometry": {"type": "Polygon", "coordinates": [[[78.5869, 12.5717], [78.5867, 12.5715], [78.5858, 12.5706], [78.5843, 12.5691], [78.5838, 12.5686], [78.5834, 12.5679], [78.5831, 12.5669], [78.5829, 12.567], [78.5826, 12.5671], [78.5803, 12.5679], [78.5794, 12.5682], [78.5793, 12.5683], [78.5778, 12.5689], [78.5778, 12.569], [78.5777, 12.5707], [78.5775, 12.5721], [78.5794, 12.5723], [78.5801, 12.5727], [78.5808, 12.5731], [78.5817, 12.5735], [78.5828, 12.5736], [78.5835, 12.5735], [78.5853, 12.5727], [78.5866, 12.572], [78.5869, 12.5717]]]}, "properties": {"objectid": 300218, "statename": "Tamil Nadu", "statecode": "33", "districtname": "Thirupathur", "districtcode": "732", "ulbname": "Jolarpet", "ulbcode": "803409", "wardname": "Ward 9", "wardcode": "9", "id": null, "status": "OPEN", "misglobalid": null, "approved_by": null, "createdate": 1675167505000, "updateddate": null, "globalid": null, "gisglobalid": "lBlKKPlB-5QcR-P54K-Rasd-BBlcK5oRomcc", "remark": "--", "st_area(shape)": 3.857007122574058e-05, "st_perimeter(shape)": 0.02534384661114954}}, {"type": "Feature", "geometry": {"type": "Polygon", "coordinates": [[[78.5883, 12.5648], [78.586, 12.5664], [78.5851, 12.5669], [78.5849, 12.5671], [78.5849, 12.5675], [78.585, 12.5678], [78.5856, 12.5691], [78.5863, 12.5702], [78.5866, 12.5705], [78.5875, 12.5714], [78.5881, 12.5718], [78.5892, 12.5722], [78.5902, 12.5724], [78.5905, 12.5727], [78.5906, 12.5733], [78.5911, 12.5754], [78.5918, 12.5781], [78.5936, 12.5776], [78.5949, 12.5801], [78.5954, 12.5798], [78.5956, 12.5797], [78.5967, 12.5785], [78.597, 12.5782], [78.5971, 12.5781], [78.5969, 12.5777], [78.5977, 12.5774], [78.5991, 12.577], [78.5994, 12.577], [78.6029, 12.5772], [78.6069, 12.5774], [78.6075, 12.5775], [78.6076, 12.5775], [78.6066, 12.575], [78.6065, 12.5746], [78.6064, 12.5745], [78.6064, 12.5741], [78.6065, 12.5735], [78.6063, 12.5724], [78.606, 12.5712], [78.6058, 12.5705], [78.6055, 12.5696], [78.6052, 12.5688], [78.6048, 12.5677], [78.6046, 12.567], [78.6043, 12.5656], [78.6043, 12.5652], [78.6041, 12.5642], [78.604, 12.5641], [78.6037, 12.5639], [78.6038, 12.5636], [78.6034, 12.5629], [78.6032, 12.5625], [78.6012, 12.5629], [78.598, 12.5634], [78.5972, 12.5634], [78.5963, 12.5632], [78.595, 12.5629], [78.5949, 12.5629], [78.5945, 12.5629], [78.5944, 12.5628], [78.5941, 12.5628], [78.5941, 12.5632], [78.5937, 12.5634], [78.5932, 12.5636], [78.5929, 12.5637], [78.5926, 12.5639], [78.5925, 12.5639], [78.5924, 12.564], [78.5923, 12.5641], [78.5923, 12.5645], [78.5922, 12.5645], [78.5921, 12.5645], [78.5919, 12.5646], [78.5917, 12.5645], [78.5916, 12.5644], [78.5912, 12.5646], [78.591, 12.5647], [78.5905, 12.5651], [78.5904, 12.5652], [78.59, 12.5655], [78.5899, 12.5656], [78.5896, 12.5657], [78.5895, 12.5658], [78.5893, 12.566], [78.5891, 12.5661], [78.5889, 12.566], [78.5888, 12.5661], [78.5886, 12.5657], [78.5885, 12.5656], [78.5883, 12.5651], [78.5883, 12.5648]]]}, "properties": {"objectid": 301761, "statename": "Tamil Nadu", "statecode": "33", "districtname": "Thirupathur", "districtcode": "732", "ulbname": "Jolarpet", "ulbcode": "803409", "wardname": "Ward 10", "wardcode": "10", "id": null, "status": "OPEN", "misglobalid": null, "approved_by": null, "createdate": 1675167570000, "updateddate": null, "globalid": null, "gisglobalid": "5s5dcaoR-n6ds-PKm4-anBK-R5lo4d4cBclQ", "remark": "--", "st_area(shape)": 0.0002441617509942083, "st_perimeter(shape)": 0.07048616992872934}}, {"type": "Feature", "geometry": {"type": "Polygon", "coordinates": [[[78.5875, 12.5714], [78.5866, 12.5705], [78.5863, 12.5702], [78.5856, 12.5691], [78.585, 12.5678], [78.5849, 12.5675], [78.5849, 12.5671], [78.5851, 12.5669], [78.586, 12.5664], [78.5883, 12.5648], [78.5883, 12.5643], [78.5883, 12.5641], [78.5882, 12.5639], [78.5883, 12.5637], [78.5883, 12.5635], [78.5883, 12.5633], [78.5882, 12.5628], [78.5882, 12.5627], [78.5882, 12.5625], [78.5881, 12.5622], [78.588, 12.5619], [78.5845, 12.5626], [78.5821, 12.5633], [78.5824, 12.5644], [78.5827, 12.5652], [78.583, 12.5664], [78.5831, 12.5669], [78.5834, 12.5679], [78.5838, 12.5686], [78.5843, 12.5691], [78.5858, 12.5706], [78.5867, 12.5715], [78.5869, 12.5717], [78.5875, 12.5714]]]}, "properties": {"objectid": 300219, "statename": "Tamil Nadu", "statecode": "33", "districtname": "Thirupathur", "districtcode": "732", "ulbname": "Jolarpet", "ulbcode": "803409", "wardname": "Ward 11", "wardcode": "11", "id": null, "status": "OPEN", "misglobalid": null, "approved_by": null, "createdate": 1675167635000, "updateddate": null, "globalid": null, "gisglobalid": "KK44dQla-Rl45-PRo4-sc6B-oK4co4dnKdBB", "remark": "--", "st_area(shape)": 2.7940035500616102e-05, "st_perimeter(shape)": 0.02897861239925295}}, {"type": "Feature", "geometry": {"type": "Polygon", "coordinates": [[[78.5829, 12.567], [78.5824, 12.5648], [78.5804, 12.5654], [78.5795, 12.5657], [78.5793, 12.5659], [78.5793, 12.5683], [78.5794, 12.5682], [78.5803, 12.5679], [78.5826, 12.5671], [78.5829, 12.567]]]}, "properties": {"objectid": 301062, "statename": "Tamil Nadu", "statecode": "33", "districtname": "Thirupathur", "districtcode": "732", "ulbname": "Jolarpet", "ulbcode": "803409", "wardname": "Ward 12", "wardcode": "12", "id": null, "status": "OPEN", "misglobalid": null, "approved_by": null, "createdate": 1675167689000, "updateddate": null, "globalid": null, "gisglobalid": "B64oslo4-Q6aR-P6Kd-QsoB-nPa4omKocPsm", "remark": "--", "st_area(shape)": 8.27033150273391e-06, "st_perimeter(shape)": 0.011865304586935809}}, {"type": "Feature", "geometry": {"type": "Polygon", "coordinates": [[[78.5781, 12.565], [78.5781, 12.5633], [78.5781, 12.5621], [78.5762, 12.5623], [78.5714, 12.5634], [78.5715, 12.5638], [78.5718, 12.5648], [78.5705, 12.5652], [78.5705, 12.5656], [78.5707, 12.5662], [78.5724, 12.5657], [78.5722, 12.5651], [78.5734, 12.5647], [78.574, 12.5646], [78.5746, 12.5646], [78.5754, 12.5648], [78.5761, 12.565], [78.5771, 12.565], [78.5781, 12.565]]]}, "properties": {"objectid": 300220, "statename": "Tamil Nadu", "statecode": "33", "districtname": "Thirupathur", "districtcode": "732", "ulbname": "Jolarpet", "ulbcode": "803409", "wardname": "Ward 13", "wardcode": "13", "id": null, "status": "OPEN", "misglobalid": null, "approved_by": null, "createdate": 1675167768000, "updateddate": null, "globalid": null, "gisglobalid": "54K644KK-cdsm-Pcnm-soRB-clcP5oaaR5cB", "remark": "--", "st_area(shape)": 1.604871059436855e-05, "st_perimeter(shape)": 0.02182259858815787}}, {"type": "Feature", "geometry": {"type": "Polygon", "coordinates": [[[78.5781, 12.5621], [78.5781, 12.5615], [78.578, 12.5605], [78.5778, 12.5592], [78.5757, 12.5595], [78.572, 12.5602], [78.5719, 12.5603], [78.5715, 12.5608], [78.5712, 12.5621], [78.5712, 12.5626], [78.5714, 12.5634], [78.5762, 12.5623], [78.5781, 12.5621]]]}, "properties": {"objectid": 301063, "statename": "Tamil Nadu", "statecode": "33", "districtname": "Thirupathur", "districtcode": "732", "ulbname": "Jolarpet", "ulbcode": "803409", "wardname": "Ward 14", "wardcode": "14", "id": null, "status": "OPEN", "misglobalid": null, "approved_by": null, "createdate": 1675167855000, "updateddate": null, "globalid": null, "gisglobalid": "4doRmsPl-B6BQ-P6m6-RKR6-Ra6c4PBnPQno", "remark": "--", "st_area(shape)": 1.9575943880181488e-05, "st_perimeter(shape)": 0.01909574480977825}}, {"type": "Feature", "geometry": {"type": "Polygon", "coordinates": [[[78.5705, 12.5656], [78.5705, 12.5652], [78.5718, 12.5648], [78.5715, 12.5638], [78.5714, 12.5634], [78.5712, 12.5626], [78.5712, 12.5621], [78.5715, 12.5608], [78.5719, 12.5603], [78.572, 12.5602], [78.5757, 12.5595], [78.5778, 12.5592], [78.5777, 12.5584], [78.5765, 12.5522], [78.5766, 12.5522], [78.5765, 12.5517], [78.5764, 12.5514], [78.5764, 12.5513], [78.576, 12.5513], [78.5758, 12.551], [78.5757, 12.5508], [78.5752, 12.5502], [78.574, 12.5488], [78.5735, 12.549], [78.5734, 12.5488], [78.5733, 12.549], [78.5745, 12.5502], [78.575, 12.5506], [78.5758, 12.5521], [78.5759, 12.5526], [78.576, 12.5527], [78.5761, 12.5531], [78.5763, 12.5537], [78.5754, 12.554], [78.575, 12.5541], [78.575, 12.5542], [78.5749, 12.5542], [78.5743, 12.5543], [78.574, 12.5544], [78.5736, 12.5546], [78.5734, 12.5546], [78.5724, 12.5548], [78.5721, 12.5549], [78.5718, 12.5549], [78.5716, 12.555], [78.5715, 12.555], [78.571, 12.5551], [78.5704, 12.5552], [78.5704, 12.5553], [78.5703, 12.5553], [78.5703, 12.5554], [78.5702, 12.5554], [78.5702, 12.5555], [78.5701, 12.5556], [78.5701, 12.5558], [78.5702, 12.5559], [78.5702, 12.556], [78.5702, 12.5563], [78.5703, 12.5565], [78.5703, 12.5569], [78.5705, 12.5573], [78.5705, 12.5576], [78.5705, 12.5578], [78.5704, 12.5579], [78.5706, 12.5581], [78.5706, 12.5583], [78.5706, 12.5585], [78.5708, 12.5592], [78.5708, 12.5594], [78.5708, 12.5597], [78.5707, 12.56], [78.5707, 12.5603], [78.5708, 12.5609], [78.5707, 12.561], [78.5707, 12.5616], [78.5703, 12.5617], [78.5705, 12.5624], [78.5707, 12.5624], [78.5707, 12.5625], [78.5709, 12.5633], [78.5706, 12.5634], [78.5704, 12.5635], [78.5703, 12.5635], [78.57, 12.5636], [78.57, 12.5638], [78.57, 12.5642], [78.57, 12.5643], [78.5701, 12.5649], [78.5691, 12.5652], [78.5691, 12.5653], [78.5691, 12.5655], [78.5693, 12.5659], [78.5692, 12.566], [78.5687, 12.5661], [78.568, 12.5664], [78.5671, 12.5666], [78.5669, 12.566], [78.5667, 12.5661], [78.5666, 12.5661], [78.5663, 12.5662], [78.5663, 12.5659], [78.5662, 12.566], [78.5656, 12.566], [78.5654, 12.566], [78.565, 12.566], [78.5645, 12.5662], [78.564, 12.5663], [78.5639, 12.5663], [78.5638, 12.5663], [78.5632, 12.5665], [78.5629, 12.5665], [78.5627, 12.5666], [78.5626, 12.5666], [78.5621, 12.5672], [78.5637, 12.5669], [78.5645, 12.5669], [78.5671, 12.5667], [78.5694, 12.566], [78.5698, 12.5658], [78.5705, 12.5656]]]}, "properties": {"objectid": 301762, "statename": "Tamil Nadu", "statecode": "33", "districtname": "Thirupathur", "districtcode": "732", "ulbname": "Jolarpet", "ulbcode": "803409", "wardname": "Ward 15", "wardcode": "15", "id": null, "status": "OPEN", "misglobalid": null, "approved_by": null, "createdate": 1675167898000, "updateddate": null, "globalid": null, "gisglobalid": "R4cnBRdn-PBRo-PPPs-snoc-Ko5Rs4KanPQo", "remark": "--", "st_area(shape)": 4.974937717739021e-05, "st_perimeter(shape)": 0.06694210420895884}}, {"type": "Feature", "geometry": {"type": "Polygon", "coordinates": [[[78.5793, 12.5683], [78.5793, 12.5659], [78.5795, 12.5657], [78.5804, 12.5654], [78.5824, 12.5648], [78.5823, 12.5645], [78.5819, 12.5634], [78.5813, 12.5623], [78.5807, 12.5615], [78.5805, 12.5612], [78.58, 12.5611], [78.5793, 12.5609], [78.5786, 12.5607], [78.578, 12.5605], [78.5781, 12.5615], [78.5781, 12.5621], [78.5781, 12.5633], [78.5781, 12.565], [78.5781, 12.5661], [78.5779, 12.568], [78.5778, 12.5689], [78.5793, 12.5683]]]}, "properties": {"objectid": 301064, "statename": "Tamil Nadu", "statecode": "33", "districtname": "Thirupathur", "districtcode": "732", "ulbname": "Jolarpet", "ulbcode": "803409", "wardname": "Ward 16", "wardcode": "16", "id": null, "status": "OPEN", "misglobalid": null, "approved_by": null, "createdate": 1675167930000, "updateddate": null, "globalid": null, "gisglobalid": "P6mdml5Q-mRPl-P6KQ-sdnd-snBmo5o6cQaa", "remark": "--", "st_area(shape)": 1.9853222993004095e-05, "st_perimeter(shape)": 0.022524146457785953}}, {"type": "Feature", "geometry": {"type": "Polygon", "coordinates": [[[78.5831, 12.5669], [78.583, 12.5664], [78.5827, 12.5652], [78.5824, 12.5644], [78.5821, 12.5633], [78.5817, 12.5625], [78.5812, 12.5618], [78.5808, 12.5612], [78.5806, 12.561], [78.5805, 12.5609], [78.5803, 12.5608], [78.5803, 12.5609], [78.5798, 12.5608], [78.5797, 12.5608], [78.5792, 12.5607], [78.579, 12.5606], [78.5787, 12.5605], [78.5785, 12.5602], [78.5785, 12.56], [78.5784, 12.5598], [78.5782, 12.5589], [78.5782, 12.5584], [78.5781, 12.5581], [78.5781, 12.558], [78.5781, 12.5579], [78.5781, 12.5578], [78.5781, 12.5576], [78.5781, 12.5568], [78.5781, 12.5567], [78.5781, 12.5564], [78.5781, 12.5559], [78.5781, 12.5556], [78.5782, 12.5547], [78.5782, 12.5546], [78.5782, 12.5543], [78.5781, 12.5538], [78.5781, 12.5533], [78.5781, 12.5531], [78.578, 12.5529], [78.578, 12.5528], [78.5779, 12.5522], [78.5779, 12.552], [78.5775, 12.5521], [78.5769, 12.5521], [78.5767, 12.5521], [78.5766, 12.5522], [78.5765, 12.5522], [78.5777, 12.5584], [78.5778, 12.5592], [78.578, 12.5605], [78.5786, 12.5607], [78.5793, 12.5609], [78.58, 12.5611], [78.5805, 12.5612], [78.5807, 12.5615], [78.5813, 12.5623], [78.5819, 12.5634], [78.5823, 12.5645], [78.5824, 12.5648], [78.5829, 12.567], [78.5831, 12.5669]]]}, "properties": {"objectid": 301065, "statename": "Tamil Nadu", "statecode": "33", "districtname": "Thirupathur", "districtcode": "732", "ulbname": "Jolarpet", "ulbcode": "803409", "wardname": "Ward 17", "wardcode": "17", "id": null, "status": "OPEN", "misglobalid": null, "approved_by": null, "createdate": 1675167966000, "updateddate": null, "globalid": null, "gisglobalid": "cQlam6o5-l4cs-PnmP-asQn-6aansoKBlaQK", "remark": "--", "st_area(shape)": 8.949697889828443e-06, "st_perimeter(shape)": 0.03627209062074574}}, {"type": "Feature", "geometry": {"type": "Polygon", "coordinates": [[[78.588, 12.5619], [78.5879, 12.5617], [78.5878, 12.5617], [78.5878, 12.5614], [78.5876, 12.5611], [78.5875, 12.5609], [78.5874, 12.5605], [78.5874, 12.5602], [78.5873, 12.5602], [78.5872, 12.5599], [78.5871, 12.5596], [78.5869, 12.5589], [78.587, 12.5589], [78.587, 12.5584], [78.5871, 12.5584], [78.5871, 12.5582], [78.5868, 12.558], [78.5868, 12.5579], [78.5867, 12.5578], [78.5861, 12.558], [78.5858, 12.5581], [78.5859, 12.5582], [78.586, 12.5586], [78.5858, 12.5586], [78.5857, 12.5584], [78.5856, 12.5583], [78.585, 12.5585], [78.5849, 12.5585], [78.5849, 12.5586], [78.5848, 12.5588], [78.5847, 12.5586], [78.5846, 12.5583], [78.5845, 12.5582], [78.5845, 12.5581], [78.5843, 12.558], [78.584, 12.5579], [78.5837, 12.5578], [78.5835, 12.5578], [78.5833, 12.5579], [78.583, 12.5581], [78.5825, 12.5585], [78.5824, 12.5586], [78.582, 12.5588], [78.5818, 12.5589], [78.5818, 12.559], [78.5818, 12.5592], [78.5816, 12.5593], [78.5808, 12.5597], [78.5802, 12.56], [78.5801, 12.56], [78.5801, 12.5601], [78.5801, 12.5602], [78.5803, 12.5608], [78.5805, 12.5609], [78.5806, 12.561], [78.5808, 12.5612], [78.5812, 12.5618], [78.5817, 12.5625], [78.5821, 12.5633], [78.5845, 12.5626], [78.588, 12.5619]]]}, "properties": {"objectid": 301763, "statename": "Tamil Nadu", "statecode": "33", "districtname": "Thirupathur", "districtcode": "732", "ulbname": "Jolarpet", "ulbcode": "803409", "wardname": "Ward 18", "wardcode": "18", "id": null, "status": "OPEN", "misglobalid": null, "approved_by": null, "createdate": 1675167999000, "updateddate": null, "globalid": null, "gisglobalid": "KcBsd5Ql-aKQ6-PnKB-R5Rm-4RKl4l5mlQR5", "remark": "--", "st_area(shape)": 2.759111298329381e-05, "st_perimeter(shape)": 0.023749708197677896}}]}
