{"type": "FeatureCollection", "features": [{"type": "Feature", "geometry": {"type": "Polygon", "coordinates": [[[75.2248, 33.6886], [75.2298, 33.6895], [75.2338, 33.6897], [75.237, 33.6888], [75.2383, 33.6872], [75.2351, 33.684], [75.2296, 33.6818], [75.2256, 33.6826], [75.2242, 33.6842], [75.2239, 33.6843], [75.2228, 33.6845], [75.2221, 33.6845], [75.2229, 33.6857], [75.223, 33.686], [75.2238, 33.687], [75.2242, 33.6878], [75.2244, 33.6881], [75.2248, 33.6886]]]}, "properties": {"objectid": 127808, "statename": "Jammu &Amp; Kashmir", "statecode": "1", "districtname": "Anantnag", "districtcode": "14", "ulbname": "Achabal", "ulbcode": "800034", "wardname": "Jogigund", "wardcode": "1", "id": null, "status": "APPROVED", "misglobalid": null, "approved_by": null, "createdate": 1643874758000, "updateddate": 1731582175000, "globalid": null, "gisglobalid": "dPPK6cc4-QdBR-PR56-RKmm-64lPdQcnom4a", "remark": "ok", "st_area(shape)": 8.483284389290338e-05, "st_perimeter(shape)": 0.03827977548170763}}, {"type": "Feature", "geometry": {"type": "Polygon", "coordinates": [[[75.2221, 33.6845], [75.222, 33.6844], [75.2206, 33.6839], [75.2197, 33.6835], [75.2199, 33.6845], [75.2194, 33.6847], [75.2196, 33.685], [75.2202, 33.6852], [75.2204, 33.686], [75.2203, 33.6863], [75.22, 33.6868], [75.22, 33.6873], [75.2205, 33.6887], [75.2216, 33.6893], [75.2224, 33.69], [75.2247, 33.6887], [75.223, 33.686], [75.2228, 33.6857], [75.2221, 33.6845]]]}, "properties": {"objectid": 130525, "statename": "Jammu &Amp; Kashmir", "statecode": "1", "districtname": "Anantnag", "districtcode": "14", "ulbname": "Achabal", "ulbcode": "800034", "wardname": "Magray Moahalla-A", "wardcode": "2", "id": null, "status": "APPROVED", "misglobalid": null, "approved_by": null, "createdate": 1643874830000, "updateddate": 1731582190000, "globalid": null, "gisglobalid": "R66QPR4n-lQB6-Podc-asca-QQ5o56lBc5oQ", "remark": "Ok", "st_area(shape)": 1.7163640260292417e-05, "st_perimeter(shape)": 0.018841324431475442}}, {"type": "Feature", "geometry": {"type": "Polygon", "coordinates": [[[75.2199, 33.6845], [75.2196, 33.6833], [75.2192, 33.6835], [75.2183, 33.6845], [75.218, 33.6847], [75.2184, 33.6849], [75.2184, 33.6853], [75.2184, 33.6858], [75.2185, 33.6864], [75.2185, 33.6879], [75.2182, 33.6887], [75.2183, 33.6899], [75.2189, 33.6907], [75.219, 33.6913], [75.2204, 33.6927], [75.2218, 33.6905], [75.2223, 33.6901], [75.2216, 33.6893], [75.2205, 33.6888], [75.22, 33.6873], [75.22, 33.6868], [75.2204, 33.686], [75.2202, 33.6852], [75.2195, 33.685], [75.2194, 33.6847], [75.2199, 33.6845]]]}, "properties": {"objectid": 129802, "statename": "Jammu &Amp; Kashmir", "statecode": "1", "districtname": "Anantnag", "districtcode": "14", "ulbname": "Achabal", "ulbcode": "800034", "wardname": "Magray Moahalla-B", "wardcode": "3", "id": null, "status": "APPROVED", "misglobalid": null, "approved_by": null, "createdate": 1643874879000, "updateddate": 1731582199000, "globalid": null, "gisglobalid": "lca5l4Bd-cdo6-PB4R-s655-5cnKl46Bl6nB", "remark": "Ok", "st_area(shape)": 1.770736683707257e-05, "st_perimeter(shape)": 0.02319792543681057}}, {"type": "Feature", "geometry": {"type": "Polygon", "coordinates": [[[75.2183, 33.6849], [75.218, 33.6846], [75.2175, 33.6852], [75.2171, 33.6859], [75.2159, 33.6871], [75.2147, 33.6872], [75.2132, 33.6873], [75.211, 33.689], [75.2076, 33.6912], [75.2059, 33.6924], [75.2073, 33.6943], [75.2129, 33.6972], [75.2147, 33.6968], [75.2159, 33.6951], [75.2175, 33.6947], [75.2195, 33.6942], [75.2203, 33.6928], [75.2189, 33.6913], [75.2188, 33.6907], [75.2183, 33.69], [75.2181, 33.6888], [75.2184, 33.6878], [75.2185, 33.6864], [75.2183, 33.6857], [75.2183, 33.6849]]]}, "properties": {"objectid": 131323, "statename": "Jammu &Amp; Kashmir", "statecode": "1", "districtname": "Anantnag", "districtcode": "14", "ulbname": "Achabal", "ulbcode": "800034", "wardname": "Gurimohalla", "wardcode": "4", "id": null, "status": "APPROVED", "misglobalid": null, "approved_by": null, "createdate": 1643874922000, "updateddate": 1731582213000, "globalid": null, "gisglobalid": "BKmdQKas-KQKB-Psad-s64R-PmRR6BQcm4od", "remark": "Ok", "st_area(shape)": 9.187888541379937e-05, "st_perimeter(shape)": 0.04198812109542557}}, {"type": "Feature", "geometry": {"type": "Polygon", "coordinates": [[[75.22, 33.6801], [75.2198, 33.6809], [75.2197, 33.6833], [75.2203, 33.6838], [75.2222, 33.6844], [75.2234, 33.6843], [75.2242, 33.6841], [75.2254, 33.6825], [75.2296, 33.6816], [75.2349, 33.6838], [75.2371, 33.6802], [75.2353, 33.6759], [75.2334, 33.6733], [75.2257, 33.6689], [75.2247, 33.67], [75.2232, 33.671], [75.2212, 33.6733], [75.2196, 33.6748], [75.2209, 33.6768], [75.221, 33.6774], [75.2203, 33.6791], [75.22, 33.6801]]]}, "properties": {"objectid": 131324, "statename": "Jammu &Amp; Kashmir", "statecode": "1", "districtname": "Anantnag", "districtcode": "14", "ulbname": "Achabal", "ulbcode": "800034", "wardname": "Sofi Mohalla", "wardcode": "5", "id": null, "status": "APPROVED", "misglobalid": null, "approved_by": null, "createdate": 1643874984000, "updateddate": 1731582226000, "globalid": null, "gisglobalid": "no6cd5sK-aoRs-PKaP-sB6K-Ro6dcBBP4ond", "remark": "Ok", "st_area(shape)": 0.00017707303679842314, "st_perimeter(shape)": 0.05543460948296167}}, {"type": "Feature", "geometry": {"type": "Polygon", "coordinates": [[[75.2196, 33.6832], [75.2197, 33.6808], [75.2202, 33.6791], [75.221, 33.6774], [75.2209, 33.6768], [75.2198, 33.6752], [75.2196, 33.6748], [75.2191, 33.6749], [75.2181, 33.676], [75.2181, 33.6769], [75.2183, 33.6773], [75.2185, 33.6793], [75.2186, 33.68], [75.2179, 33.6802], [75.218, 33.6811], [75.2177, 33.6813], [75.2175, 33.6815], [75.2179, 33.6827], [75.2184, 33.6829], [75.2187, 33.6832], [75.2193, 33.6833], [75.2196, 33.6832]]]}, "properties": {"objectid": 130137, "statename": "Jammu &Amp; Kashmir", "statecode": "1", "districtname": "Anantnag", "districtcode": "14", "ulbname": "Achabal", "ulbcode": "800034", "wardname": "Khazirshah Moahalla", "wardcode": "6", "id": null, "status": "APPROVED", "misglobalid": null, "approved_by": null, "createdate": 1643875885000, "updateddate": 1731582239000, "globalid": null, "gisglobalid": "cQommK66-nsK6-Psao-R6lR-Q6d466PllaRR", "remark": "Ok", "st_area(shape)": 1.621911664643513e-05, "st_perimeter(shape)": 0.02048630011813324}}, {"type": "Feature", "geometry": {"type": "Polygon", "coordinates": [[[75.2193, 33.6835], [75.2178, 33.6827], [75.2165, 33.6827], [75.2149, 33.6825], [75.2124, 33.682], [75.2111, 33.6813], [75.2096, 33.6829], [75.2066, 33.6891], [75.2058, 33.6902], [75.2056, 33.6917], [75.2058, 33.6923], [75.2111, 33.6887], [75.2132, 33.6871], [75.2159, 33.687], [75.217, 33.6859], [75.2177, 33.6848], [75.2182, 33.6844], [75.2193, 33.6835]]]}, "properties": {"objectid": 131325, "statename": "Jammu &Amp; Kashmir", "statecode": "1", "districtname": "Anantnag", "districtcode": "14", "ulbname": "Achabal", "ulbcode": "800034", "wardname": "Mir Mohalla", "wardcode": "7", "id": null, "status": "APPROVED", "misglobalid": null, "approved_by": null, "createdate": 1643875706000, "updateddate": 1731582252000, "globalid": null, "gisglobalid": "RKs4dKnd-m4al-PaQ6-QccQ-sQcQnKmcacPc", "remark": "Ok", "st_area(shape)": 5.996588004257373e-05, "st_perimeter(shape)": 0.03777447061580789}}, {"type": "Feature", "geometry": {"type": "Polygon", "coordinates": [[[75.2114, 33.6811], [75.2113, 33.6813], [75.2125, 33.6819], [75.2162, 33.6826], [75.2178, 33.6826], [75.2175, 33.6816], [75.2176, 33.6812], [75.2179, 33.6811], [75.2179, 33.6802], [75.2186, 33.6799], [75.2184, 33.6793], [75.2182, 33.6773], [75.2181, 33.6769], [75.2181, 33.676], [75.219, 33.6749], [75.2197, 33.6747], [75.2217, 33.6726], [75.2231, 33.6711], [75.2257, 33.6689], [75.2247, 33.6685], [75.2182, 33.6667], [75.2145, 33.6683], [75.2093, 33.6717], [75.2093, 33.6766], [75.2107, 33.6787], [75.2114, 33.6811]]]}, "properties": {"objectid": 128953, "statename": "Jammu &Amp; Kashmir", "statecode": "1", "districtname": "Anantnag", "districtcode": "14", "ulbname": "Achabal", "ulbcode": "800034", "wardname": "Cheki Achabal", "wardcode": "8", "id": null, "status": "APPROVED", "misglobalid": null, "approved_by": null, "createdate": 1643875792000, "updateddate": 1731582260000, "globalid": null, "gisglobalid": "KcQcdlP6-oB6s-Pd64-R5R4-Rl4cRoddBaBR", "remark": "Ok", "st_area(shape)": 0.0001435861540701389, "st_perimeter(shape)": 0.05300759158906754}}]}
