{"type": "FeatureCollection", "features": [{"type": "Feature", "geometry": {"type": "Polygon", "coordinates": [[[76.8668, 30.1734], [76.8669, 30.1729], [76.867, 30.1727], [76.8671, 30.1722], [76.8675, 30.1712], [76.8678, 30.1712], [76.868, 30.1712], [76.8683, 30.1712], [76.8685, 30.1712], [76.8686, 30.1704], [76.8683, 30.1703], [76.8679, 30.1703], [76.8678, 30.1704], [76.8676, 30.1704], [76.8675, 30.1704], [76.8673, 30.1704], [76.8671, 30.1704], [76.8667, 30.1701], [76.8664, 30.17], [76.8655, 30.1703], [76.8652, 30.1703], [76.8651, 30.1703], [76.865, 30.1702], [76.8649, 30.1697], [76.8647, 30.1687], [76.8646, 30.1687], [76.8645, 30.1687], [76.8636, 30.1685], [76.8635, 30.1685], [76.863, 30.1684], [76.8629, 30.1688], [76.8629, 30.1692], [76.8618, 30.1692], [76.8615, 30.1691], [76.861, 30.1691], [76.8606, 30.1715], [76.8604, 30.1729], [76.8602, 30.1741], [76.8599, 30.1757], [76.8594, 30.1784], [76.8609, 30.1785], [76.8622, 30.1784], [76.8628, 30.1784], [76.8638, 30.178], [76.8638, 30.1778], [76.8639, 30.1773], [76.8638, 30.1769], [76.8637, 30.1765], [76.8634, 30.1759], [76.8627, 30.1746], [76.8625, 30.1741], [76.8624, 30.1738], [76.8623, 30.1735], [76.8623, 30.1733], [76.8623, 30.1728], [76.8626, 30.1728], [76.8649, 30.1731], [76.8659, 30.1732], [76.8668, 30.1733], [76.8668, 30.1734]]]}, "properties": {"objectid": 197867, "statename": "Haryana", "statecode": "6", "districtname": "", "districtcode": "72", "ulbname": "Shahbad", "ulbcode": "800370", "wardname": "Ward 1", "wardcode": "1", "id": null, "status": "APPROVED", "misglobalid": null, "approved_by": null, "createdate": 1646389829000, "updateddate": 1726723864000, "globalid": null, "gisglobalid": "n4P5ldPl-45B4-P6Rs-aQ6P-KPKKBnKoRcaK", "remark": "Verify by building branch", "st_area(shape)": 4.312371982353907e-05, "st_perimeter(shape)": 0.03805512770696218}}, {"type": "Feature", "geometry": {"type": "Polygon", "coordinates": [[[76.8713, 30.1726], [76.8713, 30.1725], [76.8713, 30.172], [76.8713, 30.1714], [76.8713, 30.1712], [76.8713, 30.1708], [76.871, 30.1708], [76.8708, 30.1708], [76.8707, 30.1708], [76.8706, 30.1708], [76.8703, 30.1708], [76.8702, 30.1707], [76.87, 30.1707], [76.8699, 30.1706], [76.8698, 30.1706], [76.8696, 30.1705], [76.8694, 30.1705], [76.8689, 30.1704], [76.8686, 30.1704], [76.8685, 30.1712], [76.8683, 30.1712], [76.868, 30.1712], [76.8678, 30.1712], [76.8675, 30.1712], [76.8671, 30.1722], [76.867, 30.1727], [76.8669, 30.1729], [76.8668, 30.1734], [76.8672, 30.1735], [76.8677, 30.1735], [76.8684, 30.1735], [76.8691, 30.1734], [76.8702, 30.1731], [76.8713, 30.1726]]]}, "properties": {"objectid": 199046, "statename": "Haryana", "statecode": "6", "districtname": "", "districtcode": "72", "ulbname": "Shahbad", "ulbcode": "800370", "wardname": "Ward 2", "wardcode": "2", "id": null, "status": "APPROVED", "misglobalid": null, "approved_by": null, "createdate": 1646389829000, "updateddate": 1726723925000, "globalid": null, "gisglobalid": "P65dPoRl-Rmdn-Pc5B-Raml-Ka5lPs5n6Q4l", "remark": "verify by building branch", "st_area(shape)": 1.0169526779765947e-05, "st_perimeter(shape)": 0.0134592969792186}}, {"type": "Feature", "geometry": {"type": "Polygon", "coordinates": [[[76.8714, 30.1725], [76.8742, 30.1713], [76.874, 30.171], [76.8739, 30.1708], [76.8738, 30.1708], [76.8737, 30.1705], [76.8738, 30.1704], [76.8743, 30.1701], [76.8744, 30.17], [76.8741, 30.1697], [76.8738, 30.1695], [76.8736, 30.1693], [76.8735, 30.1692], [76.8734, 30.1691], [76.8733, 30.1689], [76.8732, 30.1687], [76.8731, 30.1687], [76.8729, 30.1688], [76.8729, 30.1687], [76.8728, 30.1687], [76.8728, 30.1686], [76.8727, 30.1687], [76.8726, 30.1687], [76.8725, 30.1688], [76.8724, 30.1688], [76.8723, 30.1689], [76.8722, 30.169], [76.8721, 30.169], [76.872, 30.169], [76.8719, 30.169], [76.8718, 30.169], [76.8716, 30.169], [76.8715, 30.169], [76.8714, 30.169], [76.8713, 30.169], [76.8713, 30.1691], [76.8713, 30.1692], [76.8714, 30.1693], [76.8715, 30.1694], [76.8714, 30.1695], [76.8714, 30.1696], [76.8713, 30.1696], [76.8711, 30.1697], [76.8713, 30.17], [76.871, 30.1702], [76.8713, 30.1707], [76.8713, 30.1708], [76.8713, 30.1712], [76.8713, 30.1714], [76.8713, 30.172], [76.8713, 30.1725], [76.8714, 30.1725]]]}, "properties": {"objectid": 196254, "statename": "Haryana", "statecode": "6", "districtname": "", "districtcode": "72", "ulbname": "Shahbad", "ulbcode": "800370", "wardname": "Ward 3", "wardcode": "3", "id": null, "status": "APPROVED", "misglobalid": null, "approved_by": null, "createdate": 1646389829000, "updateddate": 1726723936000, "globalid": null, "gisglobalid": "olaRdKmo-l6Kd-P466-aoad-a6oololBmQd6", "remark": "verify by building branch", "st_area(shape)": 8.214861629266604e-06, "st_perimeter(shape)": 0.01321127141898783}}, {"type": "Feature", "geometry": {"type": "Polygon", "coordinates": [[[76.8754, 30.1708], [76.8753, 30.1706], [76.8752, 30.1703], [76.875, 30.1699], [76.8749, 30.1697], [76.8748, 30.1694], [76.8749, 30.1693], [76.8746, 30.169], [76.8745, 30.1688], [76.8743, 30.1686], [76.8744, 30.1685], [76.8744, 30.1684], [76.8745, 30.1684], [76.8745, 30.1683], [76.8744, 30.1683], [76.8744, 30.1682], [76.8744, 30.1681], [76.8744, 30.168], [76.8743, 30.1679], [76.8743, 30.1678], [76.8743, 30.1677], [76.8744, 30.1676], [76.8745, 30.1675], [76.8744, 30.1673], [76.8743, 30.1673], [76.8742, 30.1674], [76.874, 30.1674], [76.8738, 30.1675], [76.8736, 30.1676], [76.8733, 30.1677], [76.8732, 30.1677], [76.8731, 30.1677], [76.8729, 30.1677], [76.8728, 30.1677], [76.8726, 30.1678], [76.8725, 30.1679], [76.8723, 30.1678], [76.8722, 30.1679], [76.8721, 30.1679], [76.872, 30.168], [76.8719, 30.168], [76.8717, 30.168], [76.8716, 30.168], [76.8715, 30.1681], [76.8715, 30.1682], [76.8716, 30.1683], [76.8716, 30.1684], [76.8715, 30.1685], [76.8716, 30.1687], [76.8715, 30.1687], [76.8716, 30.1688], [76.8716, 30.1689], [76.8716, 30.169], [76.8718, 30.169], [76.8719, 30.169], [76.872, 30.169], [76.8721, 30.169], [76.8722, 30.169], [76.8723, 30.1689], [76.8724, 30.1688], [76.8725, 30.1688], [76.8726, 30.1687], [76.8727, 30.1687], [76.8728, 30.1686], [76.8728, 30.1687], [76.8729, 30.1687], [76.8729, 30.1688], [76.8731, 30.1687], [76.8732, 30.1687], [76.8733, 30.1689], [76.8734, 30.1691], [76.8735, 30.1692], [76.8736, 30.1693], [76.8738, 30.1695], [76.8741, 30.1697], [76.8744, 30.17], [76.8743, 30.1701], [76.8738, 30.1704], [76.8737, 30.1705], [76.8738, 30.1708], [76.8739, 30.1708], [76.874, 30.171], [76.8742, 30.1713], [76.8746, 30.1711], [76.8754, 30.1708]]]}, "properties": {"objectid": 198646, "statename": "Haryana", "statecode": "6", "districtname": "", "districtcode": "72", "ulbname": "Shahbad", "ulbcode": "800370", "wardname": "Ward 4", "wardcode": "4", "id": null, "status": "APPROVED", "misglobalid": null, "approved_by": null, "createdate": 1646389829000, "updateddate": 1726723947000, "globalid": null, "gisglobalid": "Q46ddndc-oR4K-PQmK-so4c-lo5QsmKoBdnd", "remark": "verify by building branch", "st_area(shape)": 5.796327078140918e-06, "st_perimeter(shape)": 0.01497362224290122}}, {"type": "Feature", "geometry": {"type": "Polygon", "coordinates": [[[76.8769, 30.1675], [76.8768, 30.1675], [76.8766, 30.1673], [76.8763, 30.1672], [76.8761, 30.1671], [76.8758, 30.1671], [76.8757, 30.1671], [76.8756, 30.1671], [76.8752, 30.1673], [76.8752, 30.1671], [76.8751, 30.1672], [76.8751, 30.1671], [76.8749, 30.1669], [76.8748, 30.167], [76.8748, 30.1669], [76.8747, 30.167], [76.8746, 30.167], [76.8744, 30.167], [76.8743, 30.167], [76.8744, 30.1673], [76.8745, 30.1675], [76.8744, 30.1676], [76.8743, 30.1677], [76.8743, 30.1678], [76.8743, 30.1679], [76.8744, 30.168], [76.8744, 30.1681], [76.8744, 30.1682], [76.8744, 30.1683], [76.8745, 30.1683], [76.8745, 30.1684], [76.8744, 30.1684], [76.8744, 30.1685], [76.8743, 30.1686], [76.8745, 30.1688], [76.8746, 30.169], [76.8749, 30.1693], [76.8754, 30.1692], [76.8756, 30.1691], [76.8762, 30.1689], [76.8763, 30.169], [76.8766, 30.1689], [76.8771, 30.1687], [76.8772, 30.1691], [76.8773, 30.1695], [76.8776, 30.1695], [76.8778, 30.1695], [76.8778, 30.1692], [76.8778, 30.169], [76.8778, 30.1689], [76.8777, 30.1689], [76.8777, 30.1688], [76.8775, 30.1688], [76.8775, 30.1685], [76.8771, 30.1685], [76.8772, 30.1683], [76.8772, 30.1682], [76.8771, 30.1681], [76.8771, 30.1679], [76.877, 30.1677], [76.8769, 30.1675]]]}, "properties": {"objectid": 193949, "statename": "Haryana", "statecode": "6", "districtname": "", "districtcode": "72", "ulbname": "Shahbad", "ulbcode": "800370", "wardname": "Ward 5", "wardcode": "5", "id": null, "status": "APPROVED", "misglobalid": null, "approved_by": null, "createdate": 1646389829000, "updateddate": 1726723960000, "globalid": null, "gisglobalid": "QaoaonQ4-PBR4-Pd4d-sPms-mdPcPlaa6Poa", "remark": "verify by building branch", "st_area(shape)": 5.547393975952897e-06, "st_perimeter(shape)": 0.012030545499293385}}, {"type": "Feature", "geometry": {"type": "Polygon", "coordinates": [[[76.8954, 30.1678], [76.8954, 30.1664], [76.8954, 30.1627], [76.8955, 30.1627], [76.8954, 30.1612], [76.8949, 30.1612], [76.8944, 30.1613], [76.8942, 30.1613], [76.8938, 30.1613], [76.8934, 30.1614], [76.8919, 30.1616], [76.8911, 30.1617], [76.8898, 30.162], [76.8885, 30.1623], [76.887, 30.1631], [76.8869, 30.1631], [76.8849, 30.1641], [76.8845, 30.1643], [76.8841, 30.1645], [76.8835, 30.1648], [76.883, 30.165], [76.8826, 30.1652], [76.8822, 30.1654], [76.882, 30.1655], [76.8815, 30.1656], [76.8815, 30.1657], [76.8815, 30.166], [76.8815, 30.1666], [76.8815, 30.1668], [76.8808, 30.1668], [76.88, 30.1668], [76.8793, 30.1668], [76.8789, 30.1668], [76.8782, 30.1668], [76.878, 30.1668], [76.8771, 30.167], [76.8771, 30.1675], [76.8769, 30.1675], [76.877, 30.1677], [76.8771, 30.1679], [76.8771, 30.1681], [76.8772, 30.1682], [76.8772, 30.1683], [76.8771, 30.1685], [76.8775, 30.1685], [76.8775, 30.1688], [76.8777, 30.1688], [76.8777, 30.1689], [76.8778, 30.1689], [76.8778, 30.169], [76.8778, 30.1692], [76.8778, 30.1695], [76.8776, 30.1695], [76.8773, 30.1695], [76.8772, 30.1691], [76.8771, 30.1687], [76.8766, 30.1689], [76.8763, 30.169], [76.8762, 30.1689], [76.8756, 30.1691], [76.8754, 30.1692], [76.8749, 30.1693], [76.8748, 30.1694], [76.8749, 30.1697], [76.875, 30.1699], [76.8752, 30.1703], [76.8753, 30.1706], [76.8754, 30.1708], [76.876, 30.1706], [76.8766, 30.1704], [76.8769, 30.1703], [76.8772, 30.1703], [76.8773, 30.1703], [76.8776, 30.1702], [76.8779, 30.1702], [76.8783, 30.1702], [76.8788, 30.1702], [76.8792, 30.1702], [76.8796, 30.1702], [76.8812, 30.1703], [76.8829, 30.1704], [76.8842, 30.1704], [76.8851, 30.1704], [76.8868, 30.1705], [76.8883, 30.1705], [76.889, 30.1706], [76.8892, 30.1706], [76.8893, 30.1706], [76.8896, 30.1706], [76.8909, 30.1709], [76.8947, 30.1717], [76.8965, 30.1721], [76.8965, 30.1714], [76.8964, 30.1714], [76.8963, 30.1714], [76.8962, 30.1698], [76.8963, 30.1698], [76.8963, 30.1688], [76.8963, 30.1686], [76.8963, 30.1685], [76.8962, 30.1685], [76.8961, 30.1685], [76.896, 30.1684], [76.8959, 30.1684], [76.8958, 30.1683], [76.8956, 30.1682], [76.8955, 30.1681], [76.8955, 30.168], [76.8954, 30.1679], [76.8954, 30.1678]]]}, "properties": {"objectid": 197869, "statename": "Haryana", "statecode": "6", "districtname": "", "districtcode": "72", "ulbname": "Shahbad", "ulbcode": "800370", "wardname": "Ward 6", "wardcode": "6", "id": null, "status": "APPROVED", "misglobalid": null, "approved_by": null, "createdate": 1646389829000, "updateddate": 1726723978000, "globalid": null, "gisglobalid": "dnBlQ4ds-Km56-Pson-QQs5-dRolPPssKPQ4", "remark": "verify by building branch", "st_area(shape)": 0.00013137488029704895, "st_perimeter(shape)": 0.06205383649461062}}, {"type": "Feature", "geometry": {"type": "Polygon", "coordinates": [[[76.8722, 30.1679], [76.8723, 30.1678], [76.8725, 30.1679], [76.8726, 30.1678], [76.8728, 30.1677], [76.8729, 30.1677], [76.8731, 30.1677], [76.8732, 30.1677], [76.8733, 30.1677], [76.8736, 30.1676], [76.8738, 30.1675], [76.874, 30.1674], [76.8742, 30.1674], [76.8743, 30.1673], [76.8744, 30.1673], [76.8743, 30.167], [76.8744, 30.167], [76.8746, 30.167], [76.8747, 30.167], [76.8748, 30.1669], [76.8748, 30.167], [76.8749, 30.1669], [76.8751, 30.1671], [76.8751, 30.1672], [76.8752, 30.1671], [76.8752, 30.1673], [76.8756, 30.1671], [76.8757, 30.1671], [76.8758, 30.1671], [76.8761, 30.1671], [76.8763, 30.1672], [76.8766, 30.1673], [76.8768, 30.1675], [76.8769, 30.1675], [76.8771, 30.1675], [76.8771, 30.167], [76.878, 30.1668], [76.8782, 30.1668], [76.8784, 30.1661], [76.8786, 30.1657], [76.8786, 30.1655], [76.8786, 30.1641], [76.8781, 30.1641], [76.878, 30.1641], [76.8779, 30.1641], [76.8778, 30.1641], [76.8777, 30.1641], [76.8773, 30.1641], [76.8768, 30.1643], [76.8766, 30.1643], [76.8765, 30.1644], [76.8761, 30.1646], [76.876, 30.1646], [76.8759, 30.1648], [76.8755, 30.1648], [76.8748, 30.1648], [76.8738, 30.1647], [76.8733, 30.1654], [76.8732, 30.1655], [76.8728, 30.1659], [76.8726, 30.1662], [76.8726, 30.1663], [76.8726, 30.1664], [76.8726, 30.1665], [76.8727, 30.1667], [76.8725, 30.1668], [76.8719, 30.167], [76.8718, 30.1672], [76.8718, 30.1674], [76.8717, 30.1675], [76.8717, 30.1676], [76.8717, 30.1677], [76.8717, 30.1678], [76.8716, 30.1679], [76.8716, 30.168], [76.8717, 30.168], [76.8719, 30.168], [76.872, 30.168], [76.8721, 30.1679], [76.8722, 30.1679]]]}, "properties": {"objectid": 197461, "statename": "Haryana", "statecode": "6", "districtname": "", "districtcode": "72", "ulbname": "Shahbad", "ulbcode": "800370", "wardname": "Ward 7", "wardcode": "7", "id": null, "status": "APPROVED", "misglobalid": null, "approved_by": null, "createdate": 1646389829000, "updateddate": 1726723993000, "globalid": null, "gisglobalid": "n46dRRRR-lsn6-PK4K-aKn6-RnnB5lddlnls", "remark": "verify by building branch", "st_area(shape)": 1.588120193869869e-05, "st_perimeter(shape)": 0.020243916999159898}}, {"type": "Feature", "geometry": {"type": "Polygon", "coordinates": [[[76.8733, 30.1654], [76.8738, 30.1647], [76.8748, 30.1648], [76.8755, 30.1648], [76.8759, 30.1648], [76.876, 30.1646], [76.8761, 30.1646], [76.8765, 30.1644], [76.8766, 30.1643], [76.8768, 30.1643], [76.8773, 30.1641], [76.8777, 30.1641], [76.8778, 30.1641], [76.8779, 30.1641], [76.878, 30.1641], [76.8781, 30.1641], [76.8786, 30.1641], [76.8786, 30.164], [76.8785, 30.1624], [76.8785, 30.1617], [76.8785, 30.1611], [76.8784, 30.1609], [76.8783, 30.1606], [76.8782, 30.1604], [76.8781, 30.1603], [76.8779, 30.1601], [76.8778, 30.16], [76.8775, 30.1597], [76.8772, 30.1594], [76.877, 30.1592], [76.8768, 30.159], [76.8767, 30.1589], [76.8767, 30.1588], [76.8766, 30.1587], [76.8765, 30.1586], [76.8762, 30.1579], [76.8744, 30.1588], [76.8724, 30.1598], [76.8714, 30.1603], [76.8708, 30.1606], [76.8709, 30.1607], [76.871, 30.1612], [76.871, 30.1614], [76.8713, 30.1612], [76.8717, 30.161], [76.8717, 30.1619], [76.8717, 30.162], [76.8717, 30.1621], [76.8717, 30.1622], [76.8717, 30.1625], [76.8717, 30.1627], [76.8717, 30.163], [76.872, 30.163], [76.872, 30.1633], [76.872, 30.1638], [76.872, 30.1639], [76.8722, 30.164], [76.8723, 30.1642], [76.8729, 30.1651], [76.8731, 30.1653], [76.8732, 30.1655], [76.8733, 30.1654]]]}, "properties": {"objectid": 198244, "statename": "Haryana", "statecode": "6", "districtname": "", "districtcode": "72", "ulbname": "Shahbad", "ulbcode": "800370", "wardname": "Ward 8", "wardcode": "8", "id": null, "status": "APPROVED", "misglobalid": null, "approved_by": null, "createdate": 1646389829000, "updateddate": 1726724003000, "globalid": null, "gisglobalid": "QRsalRKs-aB5K-P4Bd-RBal-soBo454RQm6s", "remark": "verify by building branch", "st_area(shape)": 3.663522545157258e-05, "st_perimeter(shape)": 0.02579961082175905}}, {"type": "Feature", "geometry": {"type": "Polygon", "coordinates": [[[76.8954, 30.1606], [76.8952, 30.1574], [76.8951, 30.1555], [76.8951, 30.154], [76.8951, 30.153], [76.8951, 30.1498], [76.8944, 30.1499], [76.8944, 30.1491], [76.8934, 30.1496], [76.8922, 30.1501], [76.8922, 30.1498], [76.8922, 30.1488], [76.892, 30.1488], [76.892, 30.1487], [76.8915, 30.1487], [76.8915, 30.1477], [76.8902, 30.1477], [76.8901, 30.1477], [76.8901, 30.1479], [76.8896, 30.1481], [76.8878, 30.1481], [76.8858, 30.1482], [76.8844, 30.1493], [76.884, 30.1496], [76.883, 30.1496], [76.8829, 30.1485], [76.8822, 30.1485], [76.8821, 30.1485], [76.882, 30.1484], [76.882, 30.1483], [76.882, 30.1479], [76.8819, 30.1478], [76.8818, 30.1478], [76.8816, 30.1478], [76.8815, 30.1478], [76.8813, 30.1478], [76.8812, 30.1477], [76.8811, 30.1475], [76.8798, 30.1475], [76.8797, 30.1475], [76.8796, 30.1474], [76.8796, 30.1472], [76.8796, 30.1471], [76.8795, 30.1471], [76.879, 30.1471], [76.8776, 30.1471], [76.8766, 30.1471], [76.8764, 30.1471], [76.876, 30.1476], [76.8757, 30.148], [76.8754, 30.1484], [76.8752, 30.1486], [76.8752, 30.1487], [76.8751, 30.1487], [76.875, 30.1488], [76.8749, 30.1489], [76.8745, 30.1491], [76.8742, 30.1492], [76.8741, 30.1493], [76.874, 30.1494], [76.874, 30.1495], [76.8739, 30.1495], [76.8739, 30.1496], [76.8738, 30.1498], [76.8736, 30.1505], [76.8733, 30.1505], [76.8732, 30.1507], [76.8731, 30.1507], [76.8731, 30.1505], [76.8728, 30.1505], [76.8724, 30.1505], [76.8717, 30.1505], [76.8714, 30.1506], [76.8714, 30.1507], [76.8708, 30.1507], [76.8708, 30.151], [76.87, 30.1511], [76.8695, 30.1512], [76.8692, 30.1512], [76.8691, 30.1512], [76.8693, 30.1521], [76.8694, 30.1526], [76.8696, 30.1533], [76.8697, 30.1538], [76.8698, 30.1542], [76.8698, 30.1543], [76.8698, 30.1546], [76.8698, 30.1549], [76.8698, 30.1553], [76.8697, 30.1554], [76.8713, 30.1554], [76.8713, 30.1553], [76.8715, 30.1548], [76.8716, 30.1545], [76.8723, 30.1545], [76.8723, 30.1544], [76.8723, 30.1542], [76.8728, 30.1542], [76.8735, 30.1541], [76.8743, 30.1541], [76.8743, 30.156], [76.8744, 30.156], [76.8744, 30.157], [76.8744, 30.1585], [76.8744, 30.1588], [76.8762, 30.1579], [76.8765, 30.1586], [76.8766, 30.1587], [76.8767, 30.1588], [76.8767, 30.1589], [76.8768, 30.159], [76.877, 30.1592], [76.8772, 30.1594], [76.8775, 30.1597], [76.8778, 30.16], [76.8779, 30.1601], [76.8781, 30.1603], [76.8782, 30.1604], [76.8783, 30.1606], [76.8784, 30.1609], [76.8785, 30.1611], [76.8785, 30.1617], [76.8785, 30.1624], [76.8786, 30.164], [76.8786, 30.1641], [76.8786, 30.1655], [76.8786, 30.1657], [76.8784, 30.1661], [76.8782, 30.1668], [76.8789, 30.1668], [76.8793, 30.1668], [76.88, 30.1668], [76.8808, 30.1668], [76.8815, 30.1668], [76.8815, 30.1666], [76.8815, 30.166], [76.8815, 30.1657], [76.8815, 30.1656], [76.882, 30.1655], [76.8822, 30.1654], [76.8826, 30.1652], [76.883, 30.165], [76.8835, 30.1648], [76.8841, 30.1645], [76.8845, 30.1643], [76.8849, 30.1641], [76.8869, 30.1631], [76.887, 30.1631], [76.8885, 30.1623], [76.8898, 30.162], [76.8911, 30.1617], [76.8919, 30.1616], [76.8934, 30.1614], [76.8938, 30.1613], [76.8942, 30.1613], [76.8944, 30.1613], [76.8949, 30.1612], [76.8954, 30.1612], [76.8954, 30.1611], [76.8954, 30.1606]]]}, "properties": {"objectid": 196256, "statename": "Haryana", "statecode": "6", "districtname": "", "districtcode": "72", "ulbname": "Shahbad", "ulbcode": "800370", "wardname": "Ward 9", "wardcode": "9", "id": null, "status": "APPROVED", "misglobalid": null, "approved_by": null, "createdate": 1646389829000, "updateddate": 1726724016000, "globalid": null, "gisglobalid": "d4cdnn4l-5BaK-P4oQ-Rssa-QnmQ4mK65PRK", "remark": "verify by building branch", "st_area(shape)": 0.0003187036497500577, "st_perimeter(shape)": 0.0917792224092922}}, {"type": "Feature", "geometry": {"type": "Polygon", "coordinates": [[[76.8743, 30.156], [76.8743, 30.1541], [76.8735, 30.1541], [76.8728, 30.1542], [76.8723, 30.1542], [76.8723, 30.1544], [76.8723, 30.1545], [76.8716, 30.1545], [76.8715, 30.1548], [76.8713, 30.1553], [76.8713, 30.1554], [76.8697, 30.1554], [76.8697, 30.1555], [76.8697, 30.1564], [76.8697, 30.1573], [76.8697, 30.158], [76.871, 30.1585], [76.8719, 30.1589], [76.8724, 30.1598], [76.8744, 30.1588], [76.8744, 30.1585], [76.8744, 30.157], [76.8744, 30.156], [76.8743, 30.156]]]}, "properties": {"objectid": 199047, "statename": "Haryana", "statecode": "6", "districtname": "", "districtcode": "72", "ulbname": "Shahbad", "ulbcode": "800370", "wardname": "Ward 10", "wardcode": "10", "id": null, "status": "APPROVED", "misglobalid": null, "approved_by": null, "createdate": 1646389829000, "updateddate": 1726724029000, "globalid": null, "gisglobalid": "6556PPQK-mscd-Po6K-Q5Bl-4o5nKaldKllo", "remark": "verify by building branch", "st_area(shape)": 1.978185496077295e-05, "st_perimeter(shape)": 0.018435903525493205}}, {"type": "Feature", "geometry": {"type": "Polygon", "coordinates": [[[76.8656, 30.1647], [76.8658, 30.1647], [76.8659, 30.1646], [76.866, 30.1646], [76.8661, 30.1646], [76.8662, 30.1645], [76.8663, 30.1644], [76.8662, 30.1643], [76.8667, 30.1641], [76.8664, 30.1637], [76.8662, 30.1628], [76.8663, 30.1628], [76.8677, 30.1621], [76.8696, 30.1612], [76.8698, 30.1611], [76.8705, 30.1607], [76.8708, 30.1606], [76.8714, 30.1603], [76.8724, 30.1598], [76.8719, 30.1589], [76.871, 30.1585], [76.8697, 30.158], [76.8697, 30.1573], [76.8697, 30.1564], [76.8697, 30.1555], [76.8697, 30.1554], [76.8698, 30.1553], [76.8698, 30.1549], [76.8698, 30.1546], [76.8698, 30.1543], [76.8698, 30.1542], [76.8697, 30.1538], [76.8692, 30.1538], [76.8682, 30.1538], [76.8677, 30.1538], [76.8677, 30.154], [76.8677, 30.1542], [76.8676, 30.1542], [76.8676, 30.1541], [76.8674, 30.1542], [76.8673, 30.1543], [76.867, 30.1543], [76.8668, 30.1544], [76.8667, 30.1544], [76.8668, 30.1546], [76.8664, 30.1546], [76.8659, 30.1546], [76.8657, 30.1546], [76.8655, 30.1546], [76.8653, 30.1546], [76.8652, 30.1546], [76.8649, 30.1564], [76.8646, 30.1581], [76.8644, 30.1595], [76.8642, 30.161], [76.8641, 30.1618], [76.8637, 30.1639], [76.8641, 30.1638], [76.8643, 30.164], [76.8643, 30.1641], [76.8644, 30.164], [76.8646, 30.1642], [76.8647, 30.1644], [76.8648, 30.1644], [76.8648, 30.1645], [76.8651, 30.1645], [76.8654, 30.1644], [76.8654, 30.1645], [76.8654, 30.1646], [76.8655, 30.1646], [76.8655, 30.1647], [76.8656, 30.1647]]]}, "properties": {"objectid": 198243, "statename": "Haryana", "statecode": "6", "districtname": "", "districtcode": "72", "ulbname": "Shahbad", "ulbcode": "800370", "wardname": "Ward 11", "wardcode": "11", "id": null, "status": "APPROVED", "misglobalid": null, "approved_by": null, "createdate": 1646389829000, "updateddate": 1726724041000, "globalid": null, "gisglobalid": "QBn5Kc6s-4dK5-Pnmd-RsRR-lol5QQdolBKd", "remark": "verify by building branch", "st_area(shape)": 5.057129433549524e-05, "st_perimeter(shape)": 0.03477009865939391}}, {"type": "Feature", "geometry": {"type": "Polygon", "coordinates": [[[76.8649, 30.1564], [76.8652, 30.1546], [76.8653, 30.1546], [76.8655, 30.1546], [76.8657, 30.1546], [76.8659, 30.1546], [76.8664, 30.1546], [76.8668, 30.1546], [76.8667, 30.1544], [76.8668, 30.1544], [76.867, 30.1543], [76.8673, 30.1543], [76.8674, 30.1542], [76.8676, 30.1541], [76.8676, 30.1542], [76.8677, 30.1542], [76.8677, 30.154], [76.8677, 30.1538], [76.8682, 30.1538], [76.8692, 30.1538], [76.8697, 30.1538], [76.8696, 30.1533], [76.8694, 30.1526], [76.8693, 30.1521], [76.8691, 30.1512], [76.8692, 30.1512], [76.8695, 30.1512], [76.8695, 30.1511], [76.8694, 30.1509], [76.8694, 30.1508], [76.8694, 30.1506], [76.8694, 30.1504], [76.8694, 30.1499], [76.8693, 30.1495], [76.869, 30.1495], [76.8686, 30.1495], [76.8682, 30.1495], [76.8673, 30.1495], [76.8666, 30.1495], [76.8661, 30.1495], [76.8659, 30.1495], [76.866, 30.149], [76.8654, 30.149], [76.8646, 30.149], [76.8645, 30.149], [76.8639, 30.149], [76.863, 30.149], [76.8623, 30.149], [76.8618, 30.149], [76.8616, 30.1491], [76.8613, 30.1492], [76.8606, 30.1494], [76.8602, 30.1495], [76.8605, 30.151], [76.8607, 30.1522], [76.8609, 30.1532], [76.8611, 30.1542], [76.8612, 30.1546], [76.8614, 30.1555], [76.8616, 30.1562], [76.8617, 30.157], [76.8619, 30.1575], [76.862, 30.1582], [76.862, 30.1588], [76.8621, 30.1596], [76.8621, 30.1601], [76.8621, 30.1611], [76.8621, 30.1614], [76.8621, 30.1615], [76.8623, 30.1615], [76.8624, 30.1616], [76.8626, 30.1616], [76.8629, 30.1617], [76.863, 30.1617], [76.8631, 30.1617], [76.8637, 30.1618], [76.8641, 30.1618], [76.8642, 30.161], [76.8644, 30.1595], [76.8646, 30.1581], [76.8649, 30.1564]]]}, "properties": {"objectid": 197460, "statename": "Haryana", "statecode": "6", "districtname": "", "districtcode": "72", "ulbname": "Shahbad", "ulbcode": "800370", "wardname": "Ward 12", "wardcode": "12", "id": null, "status": "APPROVED", "misglobalid": null, "approved_by": null, "createdate": 1646389829000, "updateddate": 1726724053000, "globalid": null, "gisglobalid": "sc6Rn6c6-cmaQ-PcK4-RnQc-dK56Qn5nllP4", "remark": "verify by building branch", "st_area(shape)": 6.503949672348613e-05, "st_perimeter(shape)": 0.04156987192491917}}, {"type": "Feature", "geometry": {"type": "Polygon", "coordinates": [[[76.8629, 30.1688], [76.863, 30.1684], [76.8635, 30.1685], [76.8636, 30.1685], [76.8645, 30.1687], [76.8646, 30.1687], [76.8647, 30.1687], [76.865, 30.1687], [76.8653, 30.1687], [76.8656, 30.1686], [76.8656, 30.1685], [76.8658, 30.1684], [76.866, 30.1683], [76.8661, 30.1682], [76.8663, 30.1681], [76.8665, 30.168], [76.8666, 30.168], [76.8667, 30.168], [76.8668, 30.1679], [76.8669, 30.1679], [76.8669, 30.168], [76.867, 30.168], [76.8671, 30.168], [76.8672, 30.168], [76.8672, 30.1679], [76.8673, 30.1679], [76.8672, 30.1678], [76.8672, 30.1676], [76.8672, 30.1672], [76.8673, 30.1672], [76.8673, 30.1671], [76.8673, 30.167], [76.8673, 30.1669], [76.8672, 30.1668], [76.8671, 30.1668], [76.867, 30.1667], [76.8669, 30.1667], [76.8669, 30.1666], [76.8668, 30.1665], [76.8667, 30.1665], [76.8665, 30.1666], [76.8665, 30.1665], [76.8664, 30.1665], [76.8663, 30.1665], [76.8662, 30.1666], [76.8661, 30.1666], [76.866, 30.1665], [76.8659, 30.1666], [76.8658, 30.1666], [76.8658, 30.1667], [76.8657, 30.1667], [76.8657, 30.1668], [76.8656, 30.1668], [76.8654, 30.1669], [76.8653, 30.1669], [76.8654, 30.1671], [76.8651, 30.1672], [76.8648, 30.1671], [76.8645, 30.167], [76.8644, 30.167], [76.8643, 30.1669], [76.8641, 30.1669], [76.864, 30.1668], [76.8637, 30.1665], [76.8636, 30.1665], [76.8633, 30.1663], [76.8637, 30.1639], [76.8641, 30.1618], [76.8637, 30.1618], [76.8631, 30.1617], [76.863, 30.1617], [76.8629, 30.1617], [76.8626, 30.1616], [76.8624, 30.1616], [76.8623, 30.1615], [76.8621, 30.1615], [76.862, 30.1615], [76.862, 30.1616], [76.862, 30.162], [76.862, 30.1624], [76.8619, 30.1628], [76.8618, 30.1632], [76.8618, 30.1637], [76.8617, 30.1642], [76.8617, 30.1645], [76.8616, 30.1649], [76.8615, 30.1655], [76.8614, 30.1659], [76.8614, 30.1664], [76.8613, 30.1669], [76.8612, 30.1675], [76.8611, 30.1681], [76.861, 30.1685], [76.861, 30.1691], [76.8615, 30.1691], [76.8618, 30.1692], [76.8629, 30.1692], [76.8629, 30.1688]]]}, "properties": {"objectid": 197071, "statename": "Haryana", "statecode": "6", "districtname": "", "districtcode": "72", "ulbname": "Shahbad", "ulbcode": "800370", "wardname": "Ward 13", "wardcode": "13", "id": null, "status": "APPROVED", "misglobalid": null, "approved_by": null, "createdate": 1646389829000, "updateddate": 1726724069000, "globalid": null, "gisglobalid": "5dR6Pmam-QRcs-PQ4s-QaPK-dd4dPP5R4lKs", "remark": "verify by building branch", "st_area(shape)": 2.1502988610659426e-05, "st_perimeter(shape)": 0.027877819357730434}}, {"type": "Feature", "geometry": {"type": "Polygon", "coordinates": [[[76.866, 30.1665], [76.8661, 30.1666], [76.8662, 30.1666], [76.8663, 30.1665], [76.8664, 30.1665], [76.8665, 30.1665], [76.8665, 30.1666], [76.8667, 30.1665], [76.8668, 30.1665], [76.8669, 30.1666], [76.8669, 30.1667], [76.867, 30.1666], [76.8671, 30.1665], [76.8672, 30.1665], [76.8673, 30.1664], [76.8672, 30.1663], [76.8672, 30.1662], [76.8671, 30.1662], [76.8671, 30.1661], [76.8671, 30.166], [76.867, 30.166], [76.8669, 30.166], [76.8668, 30.1659], [76.8667, 30.1659], [76.8666, 30.1658], [76.8665, 30.1658], [76.8664, 30.1658], [76.8662, 30.1657], [76.866, 30.1657], [76.866, 30.1656], [76.8658, 30.1656], [76.8656, 30.1652], [76.8658, 30.1651], [76.8661, 30.165], [76.8662, 30.165], [76.8664, 30.165], [76.8665, 30.165], [76.8668, 30.1649], [76.867, 30.1649], [76.8671, 30.1649], [76.8669, 30.1646], [76.8667, 30.1641], [76.8662, 30.1643], [76.8663, 30.1644], [76.8662, 30.1645], [76.8661, 30.1646], [76.866, 30.1646], [76.8659, 30.1646], [76.8658, 30.1647], [76.8656, 30.1647], [76.8655, 30.1647], [76.8655, 30.1646], [76.8654, 30.1646], [76.8654, 30.1645], [76.8654, 30.1644], [76.8651, 30.1645], [76.8648, 30.1645], [76.8648, 30.1644], [76.8647, 30.1644], [76.8646, 30.1642], [76.8644, 30.164], [76.8643, 30.1641], [76.8643, 30.164], [76.8641, 30.1638], [76.8637, 30.1639], [76.8633, 30.1663], [76.8636, 30.1665], [76.8637, 30.1665], [76.864, 30.1668], [76.8641, 30.1669], [76.8643, 30.1669], [76.8644, 30.167], [76.8645, 30.167], [76.8648, 30.1671], [76.8651, 30.1672], [76.8654, 30.1671], [76.8653, 30.1669], [76.8654, 30.1669], [76.8656, 30.1668], [76.8657, 30.1668], [76.8657, 30.1667], [76.8658, 30.1667], [76.8658, 30.1666], [76.8659, 30.1666], [76.866, 30.1665]]]}, "properties": {"objectid": 193950, "statename": "Haryana", "statecode": "6", "districtname": "", "districtcode": "72", "ulbname": "Shahbad", "ulbcode": "800370", "wardname": "Ward 14", "wardcode": "14", "id": null, "status": "APPROVED", "misglobalid": null, "approved_by": null, "createdate": 1646389829000, "updateddate": 1726724107000, "globalid": null, "gisglobalid": "6Bca6moo-6als-Po4s-aaa4-RRlQoRKRnnnR", "remark": "verify by building branch", "st_area(shape)": 7.728905106434117e-06, "st_perimeter(shape)": 0.016205356827184967}}, {"type": "Feature", "geometry": {"type": "Polygon", "coordinates": [[[76.8677, 30.1669], [76.8678, 30.1669], [76.8678, 30.1668], [76.8678, 30.1669], [76.8679, 30.1669], [76.868, 30.1668], [76.868, 30.1669], [76.8681, 30.1669], [76.8682, 30.1668], [76.8683, 30.1668], [76.8684, 30.1668], [76.8685, 30.1668], [76.8686, 30.1669], [76.8688, 30.1668], [76.8689, 30.1667], [76.869, 30.1666], [76.8691, 30.1666], [76.8692, 30.1665], [76.8692, 30.1664], [76.8693, 30.1663], [76.8693, 30.1662], [76.8694, 30.1662], [76.8694, 30.1661], [76.8695, 30.1661], [76.8695, 30.166], [76.8697, 30.166], [76.8696, 30.1658], [76.8696, 30.1657], [76.8695, 30.1656], [76.8694, 30.1655], [76.8694, 30.1652], [76.8693, 30.1648], [76.8694, 30.1644], [76.8694, 30.1641], [76.8696, 30.1632], [76.8697, 30.163], [76.8697, 30.1628], [76.8699, 30.1625], [76.8699, 30.162], [76.8698, 30.1611], [76.8696, 30.1612], [76.8677, 30.1621], [76.8663, 30.1628], [76.8662, 30.1628], [76.8664, 30.1637], [76.8667, 30.1641], [76.8669, 30.1646], [76.8671, 30.1649], [76.867, 30.1649], [76.8668, 30.1649], [76.8665, 30.165], [76.8664, 30.165], [76.8662, 30.165], [76.8661, 30.165], [76.8658, 30.1651], [76.8656, 30.1652], [76.8658, 30.1656], [76.866, 30.1656], [76.866, 30.1657], [76.8662, 30.1657], [76.8664, 30.1658], [76.8665, 30.1658], [76.8666, 30.1658], [76.8667, 30.1659], [76.8668, 30.1659], [76.8669, 30.166], [76.867, 30.166], [76.8671, 30.166], [76.8671, 30.1661], [76.8671, 30.1662], [76.8672, 30.1662], [76.8672, 30.1663], [76.8673, 30.1664], [76.8672, 30.1665], [76.8671, 30.1665], [76.867, 30.1666], [76.8669, 30.1667], [76.867, 30.1667], [76.8671, 30.1668], [76.8672, 30.1668], [76.8673, 30.1669], [76.8674, 30.1669], [76.8675, 30.1669], [76.8676, 30.1668], [76.8676, 30.1669], [76.8677, 30.1669]]]}, "properties": {"objectid": 199049, "statename": "Haryana", "statecode": "6", "districtname": "", "districtcode": "72", "ulbname": "Shahbad", "ulbcode": "800370", "wardname": "Ward 15", "wardcode": "15", "id": null, "status": "APPROVED", "misglobalid": null, "approved_by": null, "createdate": 1646389829000, "updateddate": 1726724129000, "globalid": null, "gisglobalid": "6KasasaP-l65P-PPPK-Qsol-nQ5dR6ln4RsQ", "remark": "verify by building branch", "st_area(shape)": 1.4839332706433404e-05, "st_perimeter(shape)": 0.019294301480163378}}, {"type": "Feature", "geometry": {"type": "Polygon", "coordinates": [[[76.8717, 30.167], [76.8718, 30.167], [76.8719, 30.167], [76.8725, 30.1668], [76.8727, 30.1667], [76.8726, 30.1665], [76.8726, 30.1664], [76.8726, 30.1663], [76.8726, 30.1662], [76.8728, 30.1659], [76.8732, 30.1655], [76.8731, 30.1653], [76.8729, 30.1651], [76.8723, 30.1642], [76.8722, 30.164], [76.872, 30.1639], [76.872, 30.1638], [76.872, 30.1633], [76.872, 30.163], [76.8717, 30.163], [76.8717, 30.1627], [76.8717, 30.1625], [76.8717, 30.1622], [76.8717, 30.1621], [76.8717, 30.162], [76.8717, 30.1619], [76.8717, 30.161], [76.8713, 30.1612], [76.871, 30.1614], [76.871, 30.1612], [76.8709, 30.1607], [76.8708, 30.1606], [76.8705, 30.1607], [76.8698, 30.1611], [76.8699, 30.162], [76.8699, 30.1625], [76.8697, 30.1628], [76.8697, 30.163], [76.8696, 30.1632], [76.8694, 30.1641], [76.8694, 30.1644], [76.8693, 30.1648], [76.8694, 30.1652], [76.8694, 30.1655], [76.8695, 30.1656], [76.8696, 30.1657], [76.8696, 30.1658], [76.8697, 30.166], [76.8695, 30.166], [76.8695, 30.1661], [76.8694, 30.1661], [76.8694, 30.1662], [76.8693, 30.1662], [76.8693, 30.1663], [76.8694, 30.1663], [76.8695, 30.1664], [76.8696, 30.1664], [76.8697, 30.1663], [76.8698, 30.1663], [76.8698, 30.1665], [76.87, 30.1664], [76.8701, 30.1664], [76.8703, 30.1665], [76.8708, 30.1666], [76.8709, 30.1666], [76.871, 30.1668], [76.8714, 30.1671], [76.8715, 30.167], [76.8717, 30.167]]]}, "properties": {"objectid": 197868, "statename": "Haryana", "statecode": "6", "districtname": "", "districtcode": "72", "ulbname": "Shahbad", "ulbcode": "800370", "wardname": "Ward 16", "wardcode": "16", "id": null, "status": "APPROVED", "misglobalid": null, "approved_by": null, "createdate": 1646389829000, "updateddate": 1726724147000, "globalid": null, "gisglobalid": "PQs5RBaB-nP4o-PPmP-Rolo-naBss6BRdsl5", "remark": "verify by building branch", "st_area(shape)": 1.5047173632649588e-05, "st_perimeter(shape)": 0.01868432910948418}}, {"type": "Feature", "geometry": {"type": "Polygon", "coordinates": [[[76.8716, 30.1688], [76.8715, 30.1687], [76.8716, 30.1687], [76.8715, 30.1685], [76.8716, 30.1684], [76.8716, 30.1683], [76.8715, 30.1682], [76.8715, 30.1681], [76.8716, 30.168], [76.8716, 30.1679], [76.8717, 30.1678], [76.8717, 30.1677], [76.8717, 30.1676], [76.8717, 30.1675], [76.8718, 30.1674], [76.8718, 30.1672], [76.8719, 30.167], [76.8718, 30.167], [76.8717, 30.167], [76.8715, 30.167], [76.8714, 30.1671], [76.871, 30.1668], [76.8709, 30.1666], [76.8708, 30.1666], [76.8703, 30.1665], [76.8701, 30.1664], [76.87, 30.1664], [76.8698, 30.1665], [76.8698, 30.1663], [76.8697, 30.1663], [76.8696, 30.1664], [76.8695, 30.1664], [76.8694, 30.1663], [76.8693, 30.1663], [76.8692, 30.1664], [76.8692, 30.1665], [76.8691, 30.1666], [76.869, 30.1666], [76.8689, 30.1667], [76.8688, 30.1668], [76.8686, 30.1669], [76.8685, 30.1668], [76.8684, 30.1668], [76.8683, 30.1668], [76.8682, 30.1668], [76.8681, 30.1669], [76.868, 30.1669], [76.868, 30.1668], [76.8679, 30.1669], [76.8678, 30.1669], [76.8678, 30.1668], [76.8678, 30.1669], [76.8677, 30.1669], [76.8676, 30.1669], [76.8676, 30.1668], [76.8675, 30.1669], [76.8674, 30.1669], [76.8673, 30.1669], [76.8673, 30.167], [76.8673, 30.1671], [76.8673, 30.1672], [76.8672, 30.1672], [76.8672, 30.1676], [76.8672, 30.1678], [76.8673, 30.1679], [76.8674, 30.1679], [76.8674, 30.168], [76.8675, 30.168], [76.8676, 30.168], [76.8678, 30.168], [76.8679, 30.168], [76.868, 30.1682], [76.868, 30.1683], [76.8681, 30.1684], [76.8681, 30.1685], [76.8681, 30.1686], [76.8682, 30.1686], [76.8682, 30.1687], [76.8683, 30.1689], [76.8683, 30.169], [76.8684, 30.1692], [76.8685, 30.1692], [76.8686, 30.1692], [76.8686, 30.1691], [76.8687, 30.1691], [76.8686, 30.169], [76.8688, 30.169], [76.8689, 30.1689], [76.869, 30.1689], [76.8691, 30.1689], [76.8692, 30.1689], [76.8694, 30.1688], [76.8695, 30.1688], [76.8695, 30.1689], [76.8697, 30.1688], [76.8698, 30.1688], [76.87, 30.1689], [76.8701, 30.169], [76.8701, 30.1689], [76.8702, 30.1688], [76.8703, 30.1688], [76.8704, 30.1688], [76.8706, 30.1688], [76.8706, 30.1687], [76.8707, 30.1688], [76.8708, 30.1687], [76.8708, 30.1688], [76.8709, 30.1688], [76.871, 30.1688], [76.8711, 30.1688], [76.8712, 30.1688], [76.8712, 30.1689], [76.8713, 30.1689], [76.8714, 30.1689], [76.8715, 30.1688], [76.8716, 30.1688]]]}, "properties": {"objectid": 199048, "statename": "Haryana", "statecode": "6", "districtname": "", "districtcode": "72", "ulbname": "Shahbad", "ulbcode": "800370", "wardname": "Ward 17", "wardcode": "17", "id": null, "status": "APPROVED", "misglobalid": null, "approved_by": null, "createdate": 1646389829000, "updateddate": 1726724168000, "globalid": null, "gisglobalid": "oscdncao-RoB5-Panm-aPKP-RaQaKRsRno5d", "remark": "verify by building branch", "st_area(shape)": 8.92993566514022e-06, "st_perimeter(shape)": 0.015046565985632799}}, {"type": "Feature", "geometry": {"type": "Polygon", "coordinates": [[[76.8713, 30.1708], [76.8713, 30.1707], [76.871, 30.1702], [76.8713, 30.17], [76.8711, 30.1697], [76.8713, 30.1696], [76.8714, 30.1696], [76.8714, 30.1695], [76.8715, 30.1694], [76.8714, 30.1693], [76.8713, 30.1692], [76.8713, 30.1691], [76.8713, 30.169], [76.8714, 30.169], [76.8715, 30.169], [76.8716, 30.169], [76.8716, 30.1689], [76.8716, 30.1688], [76.8715, 30.1688], [76.8714, 30.1689], [76.8713, 30.1689], [76.8712, 30.1689], [76.8712, 30.1688], [76.8711, 30.1688], [76.871, 30.1688], [76.8709, 30.1688], [76.8708, 30.1688], [76.8708, 30.1687], [76.8707, 30.1688], [76.8706, 30.1687], [76.8706, 30.1688], [76.8704, 30.1688], [76.8703, 30.1688], [76.8702, 30.1688], [76.8701, 30.1689], [76.8701, 30.169], [76.87, 30.1689], [76.8698, 30.1688], [76.8697, 30.1688], [76.8695, 30.1689], [76.8695, 30.1688], [76.8694, 30.1688], [76.8692, 30.1689], [76.8691, 30.1689], [76.869, 30.1689], [76.8689, 30.1689], [76.8688, 30.169], [76.8686, 30.169], [76.8687, 30.1691], [76.8686, 30.1691], [76.8686, 30.1692], [76.8685, 30.1692], [76.8684, 30.1692], [76.8684, 30.1693], [76.8683, 30.1693], [76.8684, 30.1694], [76.8685, 30.1695], [76.8684, 30.1696], [76.8685, 30.1697], [76.8684, 30.1698], [76.8683, 30.1699], [76.8681, 30.1701], [76.868, 30.1702], [76.8679, 30.1703], [76.8683, 30.1703], [76.8686, 30.1704], [76.8689, 30.1704], [76.8694, 30.1705], [76.8696, 30.1705], [76.8698, 30.1706], [76.8699, 30.1706], [76.87, 30.1707], [76.8702, 30.1707], [76.8703, 30.1708], [76.8706, 30.1708], [76.8707, 30.1708], [76.8708, 30.1708], [76.871, 30.1708], [76.8713, 30.1708]]]}, "properties": {"objectid": 198245, "statename": "Haryana", "statecode": "6", "districtname": "", "districtcode": "72", "ulbname": "Shahbad", "ulbcode": "800370", "wardname": "Ward 18", "wardcode": "18", "id": null, "status": "APPROVED", "misglobalid": null, "approved_by": null, "createdate": 1646389829000, "updateddate": 1726724183000, "globalid": null, "gisglobalid": "cKQdR5aP-5s6s-Pn4l-saa5-msn5K6R55a5a", "remark": "verify by building branch", "st_area(shape)": 5.148065641829988e-06, "st_perimeter(shape)": 0.01195391402249957}}, {"type": "Feature", "geometry": {"type": "Polygon", "coordinates": [[[76.8679, 30.1703], [76.868, 30.1702], [76.8681, 30.1701], [76.8683, 30.1699], [76.8684, 30.1698], [76.8685, 30.1697], [76.8684, 30.1696], [76.8685, 30.1695], [76.8684, 30.1694], [76.8683, 30.1693], [76.8684, 30.1693], [76.8684, 30.1692], [76.8683, 30.169], [76.8683, 30.1689], [76.8682, 30.1687], [76.8682, 30.1686], [76.8681, 30.1686], [76.8681, 30.1685], [76.8681, 30.1684], [76.868, 30.1683], [76.868, 30.1682], [76.8679, 30.168], [76.8678, 30.168], [76.8676, 30.168], [76.8675, 30.168], [76.8674, 30.168], [76.8674, 30.1679], [76.8673, 30.1679], [76.8672, 30.1679], [76.8672, 30.168], [76.8671, 30.168], [76.867, 30.168], [76.8669, 30.168], [76.8669, 30.1679], [76.8668, 30.1679], [76.8667, 30.168], [76.8666, 30.168], [76.8665, 30.168], [76.8663, 30.1681], [76.8661, 30.1682], [76.866, 30.1683], [76.8658, 30.1684], [76.8656, 30.1685], [76.8656, 30.1686], [76.8653, 30.1687], [76.865, 30.1687], [76.8647, 30.1687], [76.8649, 30.1697], [76.865, 30.1702], [76.8651, 30.1703], [76.8652, 30.1703], [76.8655, 30.1703], [76.8664, 30.17], [76.8667, 30.1701], [76.8671, 30.1704], [76.8673, 30.1704], [76.8675, 30.1704], [76.8676, 30.1704], [76.8678, 30.1704], [76.8679, 30.1703]]]}, "properties": {"objectid": 196255, "statename": "Haryana", "statecode": "6", "districtname": "", "districtcode": "72", "ulbname": "Shahbad", "ulbcode": "800370", "wardname": "Ward 19", "wardcode": "19", "id": null, "status": "APPROVED", "misglobalid": null, "approved_by": null, "createdate": 1646389829000, "updateddate": 1726724197000, "globalid": null, "gisglobalid": "5aodm5n5-cl6m-PcBc-aKRR-Qsl45Ka5ccQm", "remark": "verify by building branch", "st_area(shape)": 6.887127103398777e-06, "st_perimeter(shape)": 0.011500396932128003}}]}
