{"type":"Topology","arcs":[[[39876,81849],[309,-2081]],[[40185,79768],[-10819,-1618],[-2627,809]],[[26739,78959],[-1237,8439],[7573,6011],[3555,6590]],[[36630,99999],[3246,-18150]],[[40340,78728],[463,-1619]],[[40803,77109],[155,-1272]],[[40958,75837],[464,-2543]],[[41422,73294],[-10820,116],[-5564,-3931]],[[25038,69479],[1701,9480]],[[40185,79768],[155,-1040]],[[41422,73294],[309,-1618]],[[41731,71676],[-155,-6474]],[[41576,65202],[-9737,462]],[[31839,65664],[-8346,694]],[[23493,66358],[1545,3121]],[[31839,65664],[-1700,-3584],[-4637,-1965]],[[25502,60115],[-8346,231]],[[17156,60346],[6337,6012]],[[40958,60809],[0,-116]],[[40958,60693],[-8037,-694],[-2937,-2312]],[[29984,57687],[-154,0]],[[29830,57687],[-928,116]],[[28902,57803],[-4018,462]],[[24884,58265],[618,1850]],[[41576,65202],[-464,-3584]],[[41112,61618],[-154,-809]],[[40958,60693],[-618,-4046]],[[40340,56647],[-5410,578]],[[34930,57225],[-3246,231]],[[31684,57456],[-1700,231]],[[40340,56647],[-155,-925]],[[40185,55722],[-309,-2197]],[[39876,53525],[-309,-2890]],[[39567,50635],[-6182,347]],[[33385,50982],[-1237,116]],[[32148,51098],[-2009,115]],[[30139,51213],[4791,6012]],[[30139,51213],[-1546,116]],[[28593,51329],[-463,1850]],[[28130,53179],[772,4624]],[[29830,57687],[1854,-231]],[[28130,53179],[-5410,1618]],[[22720,54797],[1082,1965]],[[23802,56762],[1082,1503]],[[23802,56762],[-6955,-1271]],[[16847,55491],[-2937,1734]],[[13910,57225],[3246,3121]],[[22720,54797],[-773,-1040]],[[21947,53757],[-4791,1387]],[[17156,55144],[-309,347]],[[17156,55144],[-1700,-4393]],[[15456,50751],[-618,-578]],[[14838,50173],[-8192,2659]],[[6646,52832],[7264,4393]],[[21947,53757],[-309,-4162]],[[21638,49595],[-1545,347]],[[20093,49942],[-4637,809]],[[28593,51329],[-3245,-2197]],[[25348,49132],[-3710,463]],[[38949,46820],[-9892,1041],[3709,3121]],[[32766,50982],[619,0]],[[39567,50635],[-309,-1387]],[[39258,49248],[-309,-2428]],[[38949,46820],[-619,-3930]],[[38330,42890],[-618,-2659]],[[37712,40231],[-9119,4624]],[[28593,44855],[-3245,4277]],[[32148,51098],[618,-116]],[[28593,44855],[-1700,116]],[[26893,44971],[-6955,809]],[[19938,45780],[155,4162]],[[19938,45780],[-3246,694]],[[16692,46474],[-1700,809]],[[14992,47283],[-154,2890]],[[14992,47283],[-2782,347]],[[12210,47630],[-8655,693]],[[3555,48323],[-928,463]],[[2627,48786],[4019,4046]],[[12210,47630],[-3555,-4740]],[[8655,42890],[-2627,231]],[[6028,43121],[-2473,5202]],[[16692,46474],[-1391,-3237]],[[15301,43237],[-2009,-810]],[[13292,42427],[-4637,463]],[[26429,41156],[-1391,1040],[-4327,116],[0,-1041],[-773,0],[-1855,463]],[[18083,41734],[464,693]],[[18547,42427],[-3246,810]],[[26893,44971],[-309,-2197]],[[26584,42774],[-155,-1618]],[[37867,41040],[309,0],[927,-116],[618,-578],[773,694],[6801,-1387],[-2782,-3237]],[[44513,36416],[-6955,231]],[[37558,36647],[-11747,0]],[[25811,36647],[618,4393]],[[26429,41040],[155,1734]],[[37712,40231],[155,809]],[[23184,36763],[-4946,231]],[[18238,36994],[-155,4624]],[[18083,41618],[0,116]],[[26429,41156],[0,-116]],[[25811,36647],[-2627,116]],[[18547,42427],[-464,-809]],[[18238,36994],[-7110,578]],[[11128,37572],[2164,4855]],[[11128,37572],[-2936,809]],[[8192,38381],[-2164,4740]],[[8192,38381],[-928,-115]],[[7264,38266],[-6491,3583],[-773,5203],[2627,1734]],[[23184,36763],[-2628,-2081],[0,-6705]],[[20556,27977],[155,-116]],[[20711,27861],[-309,-116],[-1700,0],[-2010,463],[-2009,-3353],[-11437,463]],[[3246,25318],[3245,6242],[773,6706]],[[25811,36647],[-1236,-10751]],[[24575,25896],[-3555,231]],[[21020,26127],[-155,1387]],[[20865,27514],[-309,463]],[[37558,36647],[-3710,-6011],[-6800,462],[309,-6705]],[[27357,24393],[-3401,-2890]],[[23956,21503],[619,4393]],[[21020,26358],[0,-231]],[[23956,21503],[-618,-3353]],[[23338,18150],[-6491,2890]],[[16847,21040],[0,2197]],[[16847,23237],[618,2659],[927,578],[2164,-116],[464,0]],[[16847,23237],[-8192,462],[-5409,-1734]],[[3246,21965],[0,3353]],[[20711,27861],[154,-347]],[[20865,27514],[155,-1156]],[[16847,21040],[-4019,-3237],[-4018,810],[154,-6821],[-2318,-6937]],[[6646,4855],[-2318,7399],[-2782,2197],[1700,7514]],[[23338,18150],[0,-694]],[[23338,17456],[773,-5433],[-3091,-10289]],[[21020,1734],[-14374,3121]],[[30912,15260],[-6337,-12254]],[[24575,3006],[-3555,-1272]],[[23338,17456],[0,694]],[[27357,24393],[4018,-1619],[-5100,-6358],[4637,-1156]],[[51313,36300],[0,-693]],[[51313,35607],[-618,-6012]],[[50695,29595],[-618,-6011]],[[50077,23584],[-773,-5896],[-6337,231]],[[42967,17919],[-8655,347],[-3400,-3006]],[[44513,36416],[6800,-116]],[[43122,7977],[-18547,-4971]],[[42967,17919],[155,-9942]],[[50231,25549],[155,0],[618,-116],[773,-115],[2473,115],[5873,-347],[309,6243],[10819,-1965],[3246,8092]],[[74497,37456],[2318,-693]],[[76815,36763],[4482,-1388]],[[81297,35375],[-10664,-10289],[-5100,-5895],[6336,-4393]],[[71869,14798],[155,-7168],[-4173,-7399],[-2937,-231],[-13446,3237],[-6492,-2775],[1855,7630],[-3709,-115]],[[50077,23584],[154,1965]],[[50231,25549],[464,4046]],[[51313,35607],[464,4855]],[[51777,40462],[309,3353]],[[52086,43815],[12519,-3122]],[[64605,40693],[8037,-2659]],[[72642,38034],[1855,-578]],[[83307,34913],[7882,-2197]],[[91189,32716],[6337,-1618],[-8501,-16532],[-17156,232]],[[81297,35375],[2010,-462]],[[93971,38497],[-2782,-5781]],[[83307,34913],[4173,4624]],[[87480,39537],[6491,-1040]],[[87480,39537],[3400,3584],[-7573,2196]],[[83307,45317],[1545,4509]],[[84852,49826],[4019,3584]],[[88871,53410],[11128,-5087],[-6028,-9826]],[[77279,41618],[6028,3699]],[[81297,35375],[-4636,3353],[618,2890]],[[77279,41618],[-2009,463]],[[75270,42081],[3709,6589],[-1855,1387]],[[77124,50057],[7728,-231]],[[76815,36763],[-4173,1271]],[[64605,40693],[1700,2890]],[[66305,43583],[8965,-1502]],[[70015,50173],[5564,0]],[[75579,50173],[1545,-116]],[[66305,43583],[2628,6821]],[[68933,50404],[1082,-231]],[[60741,50751],[6183,-231]],[[66924,50520],[2009,-116]],[[52086,43815],[464,5317]],[[52550,49132],[309,2544]],[[52859,51676],[7882,-925]],[[51777,40462],[-464,-4162]],[[37867,41040],[463,1850]],[[38330,42890],[464,3237]],[[38794,46127],[309,0],[2164,-463],[6182,-809],[4637,-1040]],[[38794,46127],[155,693]],[[39258,49248],[154,1272]],[[39412,50520],[155,-116],[2009,-115],[2473,-347],[8501,-810]],[[39412,50520],[155,115]],[[39876,53525],[12983,-1156]],[[52859,52369],[0,-693]],[[52859,52369],[463,4047]],[[53322,56416],[9583,-116]],[[62905,56300],[-2164,-5549]],[[70478,57803],[-3245,-7283]],[[67233,50520],[-309,0]],[[62905,56300],[7573,1503]],[[72951,58381],[-3245,-8092]],[[69706,50289],[-773,115]],[[68933,50404],[-1700,116]],[[70478,57803],[2473,578]],[[75733,50173],[-154,0]],[[70015,50173],[-309,116]],[[72951,58381],[4328,1618]],[[77279,59999],[927,116]],[[78206,60115],[464,0]],[[78670,60115],[155,-5318]],[[78825,54797],[-3092,-4624]],[[78670,60115],[464,0]],[[79134,60115],[11592,-3353]],[[90726,56762],[-1855,-3352]],[[77124,50057],[-1391,116]],[[79134,60115],[-928,0]],[[77279,59999],[4328,7284],[-11129,-1966],[-4945,9711]],[[65533,75028],[17156,9942]],[[82689,84970],[3554,-8439],[6337,-5780],[1082,-4740],[-2936,-9249]],[[53322,56416],[0,1040]],[[53322,57456],[-618,7052]],[[52704,64508],[2010,4277],[10819,6243]],[[40185,55722],[155,809],[0,116]],[[40340,56647],[3709,1040],[9273,-231]],[[40958,60693],[154,925]],[[41576,65202],[11128,-694]],[[51159,73178],[1545,-8670]],[[41731,71676],[9273,2543]],[[51004,74219],[155,-1041]],[[51159,73178],[17465,16532]],[[68624,89710],[7882,-1503],[6183,-3237]],[[40958,75837],[9582,925]],[[50540,76762],[464,-2543]],[[50386,78150],[154,-1388]],[[40803,77109],[-309,925]],[[40494,78034],[309,0],[3555,347],[618,115],[5410,-346]],[[40494,78034],[-154,694]],[[39876,81849],[9583,1040],[927,-4739]],[[36630,99999],[6492,-1156],[3245,-3468],[7110,-2544],[15147,-3121]]],"transform":{"scale":[6.470064700647205e-7,8.650086500865099e-7],"translate":[76.5879,27.5242]},"objects":{"wards":{"type":"GeometryCollection","geometries":[{"arcs":[[0,1,2,3]],"type":"Polygon","properties":{"objectid":184739,"statename":"Rajasthan","statecode":"8","districtname":"","districtcode":"104","ulbname":"Alwar","ulbcode":"800490","wardname":"Ward 1","wardcode":"1","id":null,"status":"APPROVED","misglobalid":null,"approved_by":null,"createdate":1646043138000,"updateddate":1646045951000,"globalid":null,"gisglobalid":"a6maB4nd-5c4l-PonQ-scPd-sRmcsP4RBdso","remark":"","st_area(shape)":0.00010372034914111704,"st_perimeter(shape)":0.048584927674421165}},{"arcs":[[4,5,6,7,8,-2,9]],"type":"Polygon","properties":{"objectid":184740,"statename":"Rajasthan","statecode":"8","districtname":"","districtcode":"104","ulbname":"Alwar","ulbcode":"800490","wardname":"Ward 2","wardcode":"2","id":null,"status":"APPROVED","misglobalid":null,"approved_by":null,"createdate":1646043232000,"updateddate":1646045977000,"globalid":null,"gisglobalid":"ad6monRQ-so6c-PcoR-smdd-PBoPc5l6KmQs","remark":"","st_area(shape)":0.00005156102735815792,"st_perimeter(shape)":0.03723520392028326}},{"arcs":[[10,11,12,13,14,-8]],"type":"Polygon","properties":{"objectid":185282,"statename":"Rajasthan","statecode":"8","districtname":"","districtcode":"104","ulbname":"Alwar","ulbcode":"800490","wardname":"Ward 3","wardcode":"3","id":null,"status":"APPROVED","misglobalid":null,"approved_by":null,"createdate":1646043299000,"updateddate":1646045985000,"globalid":null,"gisglobalid":"KRdoRa5o-onm6-PQ5l-Qnod-ad4d5sn4onoR","remark":"","st_area(shape)":0.00006565292352070532,"st_perimeter(shape)":0.034780265555466774}},{"arcs":[[15,16,17,-14]],"type":"Polygon","properties":{"objectid":186205,"statename":"Rajasthan","statecode":"8","districtname":"","districtcode":"104","ulbname":"Alwar","ulbcode":"800490","wardname":"Ward 4","wardcode":"4","id":null,"status":"APPROVED","misglobalid":null,"approved_by":null,"createdate":1646043310000,"updateddate":1646045990000,"globalid":null,"gisglobalid":"Q6mRR4dR-Rn5o-PP4c-ac46-QPmRPlsRPRdl","remark":"","st_area(shape)":0.000036152499561381806,"st_perimeter(shape)":0.028804171597213882}},{"arcs":[[18,19,20,21,22,23,-16,-13,24,25]],"type":"Polygon","properties":{"objectid":177170,"statename":"Rajasthan","statecode":"8","districtname":"","districtcode":"104","ulbname":"Alwar","ulbcode":"800490","wardname":"Ward 5","wardcode":"5","id":null,"status":"APPROVED","misglobalid":null,"approved_by":null,"createdate":1646043327000,"updateddate":1646046004000,"globalid":null,"gisglobalid":"mKsKRoBK-ocB4-Pm4B-alom-ls5sRRoo5sso","remark":"","st_area(shape)":0.00003518907935224952,"st_perimeter(shape)":0.0359106187451441}},{"arcs":[[18,26,27,28,29,-20,-19]],"type":"Polygon","properties":{"objectid":185283,"statename":"Rajasthan","statecode":"8","districtname":"","districtcode":"104","ulbname":"Alwar","ulbcode":"800490","wardname":"Ward 6","wardcode":"6","id":null,"status":"APPROVED","misglobalid":null,"approved_by":null,"createdate":1646043343000,"updateddate":1646046015000,"globalid":null,"gisglobalid":"4sclanB4-dm4a-PPdB-a5nQ-B4cR5aP6K6Q6","remark":"","st_area(shape)":0.00001984133202610089,"st_perimeter(shape)":0.023361221563495148}},{"arcs":[[30,31,32,33,34,35,36,-28]],"type":"Polygon","properties":{"objectid":185823,"statename":"Rajasthan","statecode":"8","districtname":"","districtcode":"104","ulbname":"Alwar","ulbcode":"800490","wardname":"Ward 7","wardcode":"7","id":null,"status":"APPROVED","misglobalid":null,"approved_by":null,"createdate":1646043607000,"updateddate":1646046026000,"globalid":null,"gisglobalid":"Q4nmsdl5-dcKQ-PlQR-s6Pn-ldcnnaoRsK6a","remark":"","st_area(shape)":0.000026213375324717423,"st_perimeter(shape)":0.021353871513163137}},{"arcs":[[-37,37,38,39,-22,40,-29]],"type":"Polygon","properties":{"objectid":185824,"statename":"Rajasthan","statecode":"8","districtname":"","districtcode":"104","ulbname":"Alwar","ulbcode":"800490","wardname":"Ward 8","wardcode":"8","id":null,"status":"APPROVED","misglobalid":null,"approved_by":null,"createdate":1646043679000,"updateddate":1646046034000,"globalid":null,"gisglobalid":"KKPldoBl-BRK5-P5Rm-Q4sQ-QPKmoaQQldRQ","remark":"","st_area(shape)":0.000015135393262389523,"st_perimeter(shape)":0.017230779423040715}},{"arcs":[[-40,41,42,43,-23]],"type":"Polygon","properties":{"objectid":185287,"statename":"Rajasthan","statecode":"8","districtname":"","districtcode":"104","ulbname":"Alwar","ulbcode":"800490","wardname":"Ward 9","wardcode":"9","id":null,"status":"APPROVED","misglobalid":null,"approved_by":null,"createdate":1646043789000,"updateddate":1646046041000,"globalid":null,"gisglobalid":"KQP6Q4Bd-QPmR-PoRl-RB66-6BaR46sKccP5","remark":"","st_area(shape)":0.000013000711125321314,"st_perimeter(shape)":0.014410249280735088}},{"arcs":[[-24,-44,44,45,46,-17]],"type":"Polygon","properties":{"objectid":185288,"statename":"Rajasthan","statecode":"8","districtname":"","districtcode":"104","ulbname":"Alwar","ulbcode":"800490","wardname":"Ward 10","wardcode":"10","id":null,"status":"APPROVED","misglobalid":null,"approved_by":null,"createdate":1646043800000,"updateddate":1646046048000,"globalid":null,"gisglobalid":"cBnsPaln-Poco-PsR4-Qndn-KPRRQ4mslnmd","remark":"","st_area(shape)":0.000018431992755904268,"st_perimeter(shape)":0.023143990898974443}},{"arcs":[[47,48,49,-45,-43]],"type":"Polygon","properties":{"objectid":185441,"statename":"Rajasthan","statecode":"8","districtname":"","districtcode":"104","ulbname":"Alwar","ulbcode":"800490","wardname":"Ward 11","wardcode":"11","id":null,"status":"APPROVED","misglobalid":null,"approved_by":null,"createdate":1646043814000,"updateddate":1646046067000,"globalid":null,"gisglobalid":"55ndQsnl-mPPs-PdlP-RQdK-aRlQc5RaRdsQ","remark":"","st_area(shape)":0.000005245529678176816,"st_perimeter(shape)":0.011502880203660023}},{"arcs":[[-50,50,51,52,53,-46]],"type":"Polygon","properties":{"objectid":185289,"statename":"Rajasthan","statecode":"8","districtname":"","districtcode":"104","ulbname":"Alwar","ulbcode":"800490","wardname":"Ward 12","wardcode":"12","id":null,"status":"APPROVED","misglobalid":null,"approved_by":null,"createdate":1646043839000,"updateddate":1646046074000,"globalid":null,"gisglobalid":"5Rc5m5sm-5K66-PsoK-sK5c-PB5BmscaR666","remark":"","st_area(shape)":0.000024038577047792185,"st_perimeter(shape)":0.025522039331813004}},{"arcs":[[54,55,56,-51,-49]],"type":"Polygon","properties":{"objectid":185291,"statename":"Rajasthan","statecode":"8","districtname":"","districtcode":"104","ulbname":"Alwar","ulbcode":"800490","wardname":"Ward 13","wardcode":"13","id":null,"status":"APPROVED","misglobalid":null,"approved_by":null,"createdate":1646043988000,"updateddate":1646046079000,"globalid":null,"gisglobalid":"lmsPoncK-P6Bc-Pasn-QnPQ-Bossomaoldl6","remark":"","st_area(shape)":0.000015069761817815795,"st_perimeter(shape)":0.016788589098254997}},{"arcs":[[-39,57,58,-55,-48,-42]],"type":"Polygon","properties":{"objectid":185825,"statename":"Rajasthan","statecode":"8","districtname":"","districtcode":"104","ulbname":"Alwar","ulbcode":"800490","wardname":"Ward 14","wardcode":"14","id":null,"status":"APPROVED","misglobalid":null,"approved_by":null,"createdate":1646044004000,"updateddate":1646046089000,"globalid":null,"gisglobalid":"mcl4mlPP-dnaK-P5Km-sn6s-K4mn4amlsP45","remark":"","st_area(shape)":0.000014164843709215621,"st_perimeter(shape)":0.01620433232276603}},{"arcs":[[59,60,-34,61,62]],"type":"Polygon","properties":{"objectid":185442,"statename":"Rajasthan","statecode":"8","districtname":"","districtcode":"104","ulbname":"Alwar","ulbcode":"800490","wardname":"Ward 15","wardcode":"15","id":null,"status":"APPROVED","misglobalid":null,"approved_by":null,"createdate":1646044028000,"updateddate":1646046099000,"globalid":null,"gisglobalid":"RR6Bosna-oBPa-PPBK-aQn4-cdanKBRdoadK","remark":"","st_area(shape)":0.000018597821343337356,"st_perimeter(shape)":0.020709556547673633}},{"arcs":[[-60,63,64,65,66,-58,-38,-36,67]],"type":"Polygon","properties":{"objectid":185826,"statename":"Rajasthan","statecode":"8","districtname":"","districtcode":"104","ulbname":"Alwar","ulbcode":"800490","wardname":"Ward 16","wardcode":"16","id":null,"status":"APPROVED","misglobalid":null,"approved_by":null,"createdate":1646044206000,"updateddate":1646046104000,"globalid":null,"gisglobalid":"dm4RK6BR-RBsm-PmPn-s54o-BnsmB5soKsd5","remark":"","st_area(shape)":0.00003452472668361491,"st_perimeter(shape)":0.03599804283859094}},{"arcs":[[-59,-67,68,69,70,-56]],"type":"Polygon","properties":{"objectid":184742,"statename":"Rajasthan","statecode":"8","districtname":"","districtcode":"104","ulbname":"Alwar","ulbcode":"800490","wardname":"Ward 17","wardcode":"17","id":null,"status":"APPROVED","misglobalid":null,"approved_by":null,"createdate":1646044296000,"updateddate":1646046108000,"globalid":null,"gisglobalid":"KlodRo6P-slK6-PBon-scco-B6RsaPQRdcac","remark":"","st_area(shape)":0.00001745012882091627,"st_perimeter(shape)":0.018720672325515244}},{"arcs":[[-71,71,72,73,-52,-57]],"type":"Polygon","properties":{"objectid":185827,"statename":"Rajasthan","statecode":"8","districtname":"","districtcode":"104","ulbname":"Alwar","ulbcode":"800490","wardname":"Ward 18","wardcode":"18","id":null,"status":"APPROVED","misglobalid":null,"approved_by":null,"createdate":1646044336000,"updateddate":1646046115000,"globalid":null,"gisglobalid":"l44Rdn5a-4cdd-PKms-Qnda-aRanQQPacoQ5","remark":"","st_area(shape)":0.000010317120678399661,"st_perimeter(shape)":0.01503400322065638}},{"arcs":[[-74,74,75,76,77,-53]],"type":"Polygon","properties":{"objectid":181521,"statename":"Rajasthan","statecode":"8","districtname":"","districtcode":"104","ulbname":"Alwar","ulbcode":"800490","wardname":"Ward 19","wardcode":"19","id":null,"status":"APPROVED","misglobalid":null,"approved_by":null,"createdate":1646044364000,"updateddate":1646046124000,"globalid":null,"gisglobalid":"QKR6Km5P-dano-Pmod-sBa6-R4Qdsnso5654","remark":"","st_area(shape)":0.000024043923711980742,"st_perimeter(shape)":0.023419183632011186}},{"arcs":[[78,79,80,-76]],"type":"Polygon","properties":{"objectid":185294,"statename":"Rajasthan","statecode":"8","districtname":"","districtcode":"104","ulbname":"Alwar","ulbcode":"800490","wardname":"Ward 20","wardcode":"20","id":null,"status":"APPROVED","misglobalid":null,"approved_by":null,"createdate":1646066664000,"updateddate":1646066668000,"globalid":null,"gisglobalid":"Qn5m4scP-s6sR-PmdP-sQ6l-5ldons4PsaPa","remark":"","st_area(shape)":0.00001551439346699376,"st_perimeter(shape)":0.018386378293150832}},{"arcs":[[-73,81,82,83,-79,-75]],"type":"Polygon","properties":{"objectid":177174,"statename":"Rajasthan","statecode":"8","districtname":"","districtcode":"104","ulbname":"Alwar","ulbcode":"800490","wardname":"Ward 21","wardcode":"21","id":null,"status":"APPROVED","misglobalid":null,"approved_by":null,"createdate":1646044399000,"updateddate":1646047296000,"globalid":null,"gisglobalid":"5mdldQK4-alKa-P4sc-sQRR-K6QlacPcRdPK","remark":"","st_area(shape)":0.00001580982212647575,"st_perimeter(shape)":0.018363417792739825}},{"arcs":[[84,85,86,-82,-72,-70,87,88]],"type":"Polygon","properties":{"objectid":185295,"statename":"Rajasthan","statecode":"8","districtname":"","districtcode":"104","ulbname":"Alwar","ulbcode":"800490","wardname":"Ward 22","wardcode":"22","id":null,"status":"APPROVED","misglobalid":null,"approved_by":null,"createdate":1646044427000,"updateddate":1646047305000,"globalid":null,"gisglobalid":"PBQP4Rnl-6mlR-PsPl-smmn-R65dKa6snKsK","remark":"","st_area(shape)":0.000023441074134320544,"st_perimeter(shape)":0.023609471413285316}},{"arcs":[[89,90,91,92,93,-88,-69,-66,94]],"type":"Polygon","properties":{"objectid":185297,"statename":"Rajasthan","statecode":"8","districtname":"","districtcode":"104","ulbname":"Alwar","ulbcode":"800490","wardname":"Ward 23","wardcode":"23","id":null,"status":"APPROVED","misglobalid":null,"approved_by":null,"createdate":1646044441000,"updateddate":1646047310000,"globalid":null,"gisglobalid":"o4mlam6c-6PBn-PBsc-a5aQ-lKlmKd5ld4RB","remark":"","st_area(shape)":0.00005771706827356411,"st_perimeter(shape)":0.03923248251047876}},{"arcs":[[95,96,97,-85,98,-93,99]],"type":"Polygon","properties":{"objectid":181522,"statename":"Rajasthan","statecode":"8","districtname":"","districtcode":"104","ulbname":"Alwar","ulbcode":"800490","wardname":"Ward 24","wardcode":"24","id":null,"status":"APPROVED","misglobalid":null,"approved_by":null,"createdate":1646044453000,"updateddate":1646047315000,"globalid":null,"gisglobalid":"mBRKBaaK-scao-Pnoo-sssn-asRnnQl6Psan","remark":"","st_area(shape)":0.000022602182548056798,"st_perimeter(shape)":0.020406445566351895}},{"arcs":[[-87,100,-97,101,102,-83]],"type":"Polygon","properties":{"objectid":177175,"statename":"Rajasthan","statecode":"8","districtname":"","districtcode":"104","ulbname":"Alwar","ulbcode":"800490","wardname":"Ward 25","wardcode":"25","id":null,"status":"APPROVED","misglobalid":null,"approved_by":null,"createdate":1646044474000,"updateddate":1646047320000,"globalid":null,"gisglobalid":"BQKdmoal-P5ls-PmPd-RQdR-RPK464l4aaRm","remark":"","st_area(shape)":0.000019645600982479354,"st_perimeter(shape)":0.01793236834322466}},{"arcs":[[-84,-103,103,104,-80]],"type":"Polygon","properties":{"objectid":184751,"statename":"Rajasthan","statecode":"8","districtname":"","districtcode":"104","ulbname":"Alwar","ulbcode":"800490","wardname":"Ward 26","wardcode":"26","id":null,"status":"APPROVED","misglobalid":null,"approved_by":null,"createdate":1646045203000,"updateddate":1646047329000,"globalid":null,"gisglobalid":"Plalm4cs-PmRB-PoRl-aml4-6455Knc5lKsK","remark":"","st_area(shape)":0.000012785439215682377,"st_perimeter(shape)":0.016760425005643193}},{"arcs":[[-81,-105,105,106,-77]],"type":"Polygon","properties":{"objectid":185449,"statename":"Rajasthan","statecode":"8","districtname":"","districtcode":"104","ulbname":"Alwar","ulbcode":"800490","wardname":"Ward 27","wardcode":"27","id":null,"status":"APPROVED","misglobalid":null,"approved_by":null,"createdate":1646045228000,"updateddate":1646047341000,"globalid":null,"gisglobalid":"BPm45KoK-PnPa-PQKB-QmKQ-6Qa4no5odl55","remark":"","st_area(shape)":0.0000226572526815469,"st_perimeter(shape)":0.025926548525779154}},{"arcs":[[-96,107,108,109,110,-106,-104,-102]],"type":"Polygon","properties":{"objectid":186214,"statename":"Rajasthan","statecode":"8","districtname":"","districtcode":"104","ulbname":"Alwar","ulbcode":"800490","wardname":"Ward 28","wardcode":"28","id":null,"status":"APPROVED","misglobalid":null,"approved_by":null,"createdate":1646045260000,"updateddate":1646047355000,"globalid":null,"gisglobalid":"Bcl6RdmK-dnnd-PBPo-aaPR-moc6cmcPslRs","remark":"","st_area(shape)":0.00009689121742902264,"st_perimeter(shape)":0.04698836336939294}},{"arcs":[[111,112,113,114,-108,-100]],"type":"Polygon","properties":{"objectid":184479,"statename":"Rajasthan","statecode":"8","districtname":"","districtcode":"104","ulbname":"Alwar","ulbcode":"800490","wardname":"Ward 29","wardcode":"29","id":null,"status":"APPROVED","misglobalid":null,"approved_by":null,"createdate":1646045289000,"updateddate":1646047361000,"globalid":null,"gisglobalid":"scnsoPPK-RPno-PdPm-s6on-BKQsd5cKlcla","remark":"","st_area(shape)":0.00002475325074666063,"st_perimeter(shape)":0.024093650723610482}},{"arcs":[[115,116,117,-112,-92]],"type":"Polygon","properties":{"objectid":177181,"statename":"Rajasthan","statecode":"8","districtname":"","districtcode":"104","ulbname":"Alwar","ulbcode":"800490","wardname":"Ward 30","wardcode":"30","id":null,"status":"APPROVED","misglobalid":null,"approved_by":null,"createdate":1646045323000,"updateddate":1646047368000,"globalid":null,"gisglobalid":"Rd5RoPla-oK6m-Ps4R-sPn6-4P66PBns6PBm","remark":"","st_area(shape)":0.000044724537881475505,"st_perimeter(shape)":0.04118089115499243}},{"arcs":[[118,-113,-118,119,120,121,122]],"type":"Polygon","properties":{"objectid":185841,"statename":"Rajasthan","statecode":"8","districtname":"","districtcode":"104","ulbname":"Alwar","ulbcode":"800490","wardname":"Ward 31","wardcode":"31","id":null,"status":"APPROVED","misglobalid":null,"approved_by":null,"createdate":1646045340000,"updateddate":1646047456000,"globalid":null,"gisglobalid":"56amQdQK-aKsR-P56n-a5no-BnR55ssBsK6d","remark":"","st_area(shape)":0.000024243863576003145,"st_perimeter(shape)":0.022896509206113386}},{"arcs":[[123,124,-110,125,126,-123]],"type":"Polygon","properties":{"objectid":185309,"statename":"Rajasthan","statecode":"8","districtname":"","districtcode":"104","ulbname":"Alwar","ulbcode":"800490","wardname":"Ward 32","wardcode":"32","id":null,"status":"APPROVED","misglobalid":null,"approved_by":null,"createdate":1646045361000,"updateddate":1646047471000,"globalid":null,"gisglobalid":"caRRmKnd-QPRs-P6ms-sdsd-manod5RmoRBd","remark":"","st_area(shape)":0.000025583761651074755,"st_perimeter(shape)":0.035674155994602615}},{"arcs":[[127,128,-124,-122]],"type":"Polygon","properties":{"objectid":181528,"statename":"Rajasthan","statecode":"8","districtname":"","districtcode":"104","ulbname":"Alwar","ulbcode":"800490","wardname":"Ward 33","wardcode":"33","id":null,"status":"APPROVED","misglobalid":null,"approved_by":null,"createdate":1646045392000,"updateddate":1646047483000,"globalid":null,"gisglobalid":"nR5daRon-PQQm-P4BK-RsoK-oc44a4d4RsaP","remark":"","st_area(shape)":0.00006393781316099245,"st_perimeter(shape)":0.04884832575761847}},{"arcs":[[-128,-121,129,130,131]],"type":"Polygon","properties":{"objectid":185310,"statename":"Rajasthan","statecode":"8","districtname":"","districtcode":"104","ulbname":"Alwar","ulbcode":"800490","wardname":"Ward 34","wardcode":"34","id":null,"status":"APPROVED","misglobalid":null,"approved_by":null,"createdate":1646045417000,"updateddate":1646047505000,"globalid":null,"gisglobalid":"QoKm4Bal-RQoB-PRPm-Qno5-nnlQoQsRsalB","remark":"","st_area(shape)":0.00014042586244347903,"st_perimeter(shape)":0.050426632010425076}},{"arcs":[[132,133,-131,134,-120,-117,135]],"type":"Polygon","properties":{"objectid":177183,"statename":"Rajasthan","statecode":"8","districtname":"","districtcode":"104","ulbname":"Alwar","ulbcode":"800490","wardname":"Ward 35","wardcode":"35","id":null,"status":"APPROVED","misglobalid":null,"approved_by":null,"createdate":1646045443000,"updateddate":1646047522000,"globalid":null,"gisglobalid":"6s4ondso-PPlR-PnmP-Radc-mB6PsBalB6m6","remark":"","st_area(shape)":0.000055395522522156905,"st_perimeter(shape)":0.05058719560399998}},{"arcs":[[136,137,138,139,140,-136,-116,-91,141]],"type":"Polygon","properties":{"objectid":185844,"statename":"Rajasthan","statecode":"8","districtname":"","districtcode":"104","ulbname":"Alwar","ulbcode":"800490","wardname":"Ward 36","wardcode":"36","id":null,"status":"APPROVED","misglobalid":null,"approved_by":null,"createdate":1646045795000,"updateddate":1646047572000,"globalid":null,"gisglobalid":"PolmdBRc-os6o-P4ms-Ql46-RBo5alPoPP44","remark":"","st_area(shape)":0.00021209475448390265,"st_perimeter(shape)":0.06928425735233114}},{"arcs":[[142,-133,-141,143]],"type":"Polygon","properties":{"objectid":186221,"statename":"Rajasthan","statecode":"8","districtname":"","districtcode":"104","ulbname":"Alwar","ulbcode":"800490","wardname":"Ward 37","wardcode":"37","id":null,"status":"APPROVED","misglobalid":null,"approved_by":null,"createdate":1646045817000,"updateddate":1646047582000,"globalid":null,"gisglobalid":"mloldRs5-l6lP-P5cl-a4Qd-oRQaP6sc444a","remark":"","st_area(shape)":0.0000946305332962318,"st_perimeter(shape)":0.044969984687087565}},{"arcs":[[144,145,146,147,148,-144,-140,149]],"type":"Polygon","properties":{"objectid":181529,"statename":"Rajasthan","statecode":"8","districtname":"","districtcode":"104","ulbname":"Alwar","ulbcode":"800490","wardname":"Ward 38","wardcode":"38","id":null,"status":"APPROVED","misglobalid":null,"approved_by":null,"createdate":1646045833000,"updateddate":1646047593000,"globalid":null,"gisglobalid":"mlK6BoQl-cKBo-P4Ks-RR6o-amBRQlK4Klc4","remark":"","st_area(shape)":0.00038169739628144127,"st_perimeter(shape)":0.11587790775885765}},{"arcs":[[-145,150,-138,151,152,153,154,155]],"type":"Polygon","properties":{"objectid":181530,"statename":"Rajasthan","statecode":"8","districtname":"","districtcode":"104","ulbname":"Alwar","ulbcode":"800490","wardname":"Ward 3","wardcode":"39","id":null,"status":"APPROVED","misglobalid":null,"approved_by":null,"createdate":1646045846000,"updateddate":1646047606000,"globalid":null,"gisglobalid":"oaP5B6QP-4Q5l-PPld-aoln-mdasKBQsRm5Q","remark":"","st_area(shape)":0.00015886430550944726,"st_perimeter(shape)":0.058113594286767246}},{"arcs":[[156,157,-148,158]],"type":"Polygon","properties":{"objectid":184754,"statename":"Rajasthan","statecode":"8","districtname":"","districtcode":"104","ulbname":"Alwar","ulbcode":"800490","wardname":"Ward 40","wardcode":"40","id":null,"status":"APPROVED","misglobalid":null,"approved_by":null,"createdate":1646045861000,"updateddate":1646047618000,"globalid":null,"gisglobalid":"QoBlmBc5-cPRm-PcaK-RdsP-QPQ6lB4cKmsP","remark":"","st_area(shape)":0.0002327237697474344,"st_perimeter(shape)":0.06153534505754939}},{"arcs":[[159,-157,160,161]],"type":"Polygon","properties":{"objectid":185845,"statename":"Rajasthan","statecode":"8","districtname":"","districtcode":"104","ulbname":"Alwar","ulbcode":"800490","wardname":"Ward 41","wardcode":"41","id":null,"status":"APPROVED","misglobalid":null,"approved_by":null,"createdate":1646045884000,"updateddate":1646047640000,"globalid":null,"gisglobalid":"da5ll4R5-5QnB-PKl6-Q65o-cR4ca4l5BKoP","remark":"","st_area(shape)":0.000025994295205619273,"st_perimeter(shape)":0.020075981968031998}},{"arcs":[[-162,162,163,164,165]],"type":"Polygon","properties":{"objectid":185315,"statename":"Rajasthan","statecode":"8","districtname":"","districtcode":"104","ulbname":"Alwar","ulbcode":"800490","wardname":"Ward 42","wardcode":"42","id":null,"status":"APPROVED","misglobalid":null,"approved_by":null,"createdate":1646045897000,"updateddate":1646047661000,"globalid":null,"gisglobalid":"d5QaocP4-4Q4K-PRQn-QdmR-dl5BlaQQaama","remark":"","st_area(shape)":0.00007147385339844421,"st_perimeter(shape)":0.04046692720812695}},{"arcs":[[166,-163,-161,-159,167]],"type":"Polygon","properties":{"objectid":185316,"statename":"Rajasthan","statecode":"8","districtname":"","districtcode":"104","ulbname":"Alwar","ulbcode":"800490","wardname":"Ward 43","wardcode":"43","id":null,"status":"APPROVED","misglobalid":null,"approved_by":null,"createdate":1646045909000,"updateddate":1646047669000,"globalid":null,"gisglobalid":"B6PnPsRm-nBs4-PlRP-a66n-nBaQ6QKKmlRc","remark":"","st_area(shape)":0.00004189642201953023,"st_perimeter(shape)":0.03108964369028263}},{"arcs":[[-164,-167,168,169,170]],"type":"Polygon","properties":{"objectid":186222,"statename":"Rajasthan","statecode":"8","districtname":"","districtcode":"104","ulbname":"Alwar","ulbcode":"800490","wardname":"Ward 44","wardcode":"44","id":null,"status":"APPROVED","misglobalid":null,"approved_by":null,"createdate":1646045934000,"updateddate":1646047679000,"globalid":null,"gisglobalid":"sR6646nQ-5aP4-Psm6-QmaP-65nnKmsK646R","remark":"","st_area(shape)":0.000027266185469358594,"st_perimeter(shape)":0.025693991965327748}},{"arcs":[[-169,-168,-147,171,-155,172,173]],"type":"Polygon","properties":{"objectid":185318,"statename":"Rajasthan","statecode":"8","districtname":"","districtcode":"104","ulbname":"Alwar","ulbcode":"800490","wardname":"Ward 45","wardcode":"45","id":null,"status":"APPROVED","misglobalid":null,"approved_by":null,"createdate":1646045963000,"updateddate":1646047691000,"globalid":null,"gisglobalid":"R5lc46Kn-damc-PQl4-Q5nc-PnPBssaaQQ5l","remark":"","st_area(shape)":0.00003239809210008794,"st_perimeter(shape)":0.030467047284491885}},{"arcs":[[174,175,-170,-174,176,177]],"type":"Polygon","properties":{"objectid":181536,"statename":"Rajasthan","statecode":"8","districtname":"","districtcode":"104","ulbname":"Alwar","ulbcode":"800490","wardname":"Ward 46","wardcode":"46","id":null,"status":"APPROVED","misglobalid":null,"approved_by":null,"createdate":1646046764000,"updateddate":1646047705000,"globalid":null,"gisglobalid":"BQBPBQdP-oscR-P5mc-slsc-54m6smssBdKd","remark":"","st_area(shape)":0.00004031793317556851,"st_perimeter(shape)":0.025918243696813056}},{"arcs":[[178,179,-177,-173,-154,180,181,182]],"type":"Polygon","properties":{"objectid":185849,"statename":"Rajasthan","statecode":"8","districtname":"","districtcode":"104","ulbname":"Alwar","ulbcode":"800490","wardname":"Ward 47","wardcode":"47","id":null,"status":"APPROVED","misglobalid":null,"approved_by":null,"createdate":1646046774000,"updateddate":1646047713000,"globalid":null,"gisglobalid":"a5c6KQ6s-QRQa-Pm4l-QRPB-QdPsQclBaodm","remark":"","st_area(shape)":0.00007379172344926187,"st_perimeter(shape)":0.03477538655773662}},{"arcs":[[-153,183,-142,-90,184,185,186]],"type":"Polygon","properties":{"objectid":185455,"statename":"Rajasthan","statecode":"8","districtname":"","districtcode":"104","ulbname":"Alwar","ulbcode":"800490","wardname":"Ward 48","wardcode":"48","id":null,"status":"APPROVED","misglobalid":null,"approved_by":null,"createdate":1646046785000,"updateddate":1646047734000,"globalid":null,"gisglobalid":"P5mmlmsn-5lKd-Pdmd-QlQ6-ccKmncnmlndl","remark":"","st_area(shape)":0.000048476187474627193,"st_perimeter(shape)":0.03525599322271661}},{"arcs":[[-181,-187,187,-63,188,189]],"type":"Polygon","properties":{"objectid":185328,"statename":"Rajasthan","statecode":"8","districtname":"","districtcode":"104","ulbname":"Alwar","ulbcode":"800490","wardname":"Ward 49","wardcode":"49","id":null,"status":"APPROVED","misglobalid":null,"approved_by":null,"createdate":1646046797000,"updateddate":1646047741000,"globalid":null,"gisglobalid":"P6dlm45n-adns-PaKs-Q5Km-naaaQssaRQBc","remark":"","st_area(shape)":0.00003527160535535551,"st_perimeter(shape)":0.02571200843677424}},{"arcs":[[-190,190,-33,191,192,-182]],"type":"Polygon","properties":{"objectid":177188,"statename":"Rajasthan","statecode":"8","districtname":"","districtcode":"104","ulbname":"Alwar","ulbcode":"800490","wardname":"Ward 50","wardcode":"50","id":null,"status":"APPROVED","misglobalid":null,"approved_by":null,"createdate":1646046809000,"updateddate":1646047761000,"globalid":null,"gisglobalid":"QPQsnaPP-6cmn-PlBm-QQPn-sm5cBKRaKmKQ","remark":"","st_area(shape)":0.00002307137889977872,"st_perimeter(shape)":0.02247368390938051}},{"arcs":[[-183,-193,193,194,195]],"type":"Polygon","properties":{"objectid":185329,"statename":"Rajasthan","statecode":"8","districtname":"","districtcode":"104","ulbname":"Alwar","ulbcode":"800490","wardname":"Ward 51","wardcode":"51","id":null,"status":"APPROVED","misglobalid":null,"approved_by":null,"createdate":1646046886000,"updateddate":1646047791000,"globalid":null,"gisglobalid":"4RKcmn6o-ac6K-PmQ6-sl4n-s5mBso66Rclo","remark":"","st_area(shape)":0.000022846144788348812,"st_perimeter(shape)":0.02262751395773439}},{"arcs":[[196,197,-179,-196,198]],"type":"Polygon","properties":{"objectid":184758,"statename":"Rajasthan","statecode":"8","districtname":"","districtcode":"104","ulbname":"Alwar","ulbcode":"800490","wardname":"Ward 52","wardcode":"52","id":null,"status":"APPROVED","misglobalid":null,"approved_by":null,"createdate":1646046907000,"updateddate":1646047799000,"globalid":null,"gisglobalid":"nRncdcQo-KKoK-P64o-sKBR-sl6lR4RdKBBs","remark":"","st_area(shape)":0.00002725882896816087,"st_perimeter(shape)":0.02482926699610507}},{"arcs":[[199,200,201,-197,202]],"type":"Polygon","properties":{"objectid":185330,"statename":"Rajasthan","statecode":"8","districtname":"","districtcode":"104","ulbname":"Alwar","ulbcode":"800490","wardname":"Ward 53","wardcode":"53","id":null,"status":"APPROVED","misglobalid":null,"approved_by":null,"createdate":1646046923000,"updateddate":1646047809000,"globalid":null,"gisglobalid":"d6alsRPP-cKsB-Pns6-Qo4n-s44BcP6PQcn5","remark":"","st_area(shape)":0.00001460026586196552,"st_perimeter(shape)":0.02056001541255661}},{"arcs":[[203,-175,204,-200,205,206,207,208,209]],"type":"Polygon","properties":{"objectid":184759,"statename":"Rajasthan","statecode":"8","districtname":"","districtcode":"104","ulbname":"Alwar","ulbcode":"800490","wardname":"Ward 54","wardcode":"54","id":null,"status":"APPROVED","misglobalid":null,"approved_by":null,"createdate":1646046941000,"updateddate":1646047817000,"globalid":null,"gisglobalid":"KnRKsQB6-6m4P-PmdK-sBmo-cQ5mRosnRmnQ","remark":"","st_area(shape)":0.00003180392495835345,"st_perimeter(shape)":0.02920233968358629}},{"arcs":[[-210,-209,210,211,212,-165,-171,213]],"type":"Polygon","properties":{"objectid":185331,"statename":"Rajasthan","statecode":"8","districtname":"","districtcode":"104","ulbname":"Alwar","ulbcode":"800490","wardname":"Ward 55","wardcode":"55","id":null,"status":"APPROVED","misglobalid":null,"approved_by":null,"createdate":1646046971000,"updateddate":1646047836000,"globalid":null,"gisglobalid":"nBQcQmmn-oa4P-PmnQ-Rodd-PRR4l6QBl4R6","remark":"","st_area(shape)":0.000054281132941456025,"st_perimeter(shape)":0.0336465028410874}},{"arcs":[[-212,214,-207,215,216,217]],"type":"Polygon","properties":{"objectid":181538,"statename":"Rajasthan","statecode":"8","districtname":"","districtcode":"104","ulbname":"Alwar","ulbcode":"800490","wardname":"Ward 56","wardcode":"56","id":null,"status":"APPROVED","misglobalid":null,"approved_by":null,"createdate":1646047110000,"updateddate":1646048073000,"globalid":null,"gisglobalid":"4lc6ncdB-ssRR-Ps6P-aoco-lsmloBcP5nRl","remark":"","st_area(shape)":0.000231427698154446,"st_perimeter(shape)":0.07407982488565153}},{"arcs":[[-206,-203,-199,-195,218,219,220,-216]],"type":"Polygon","properties":{"objectid":181539,"statename":"Rajasthan","statecode":"8","districtname":"","districtcode":"104","ulbname":"Alwar","ulbcode":"800490","wardname":"Ward 57","wardcode":"57","id":null,"status":"APPROVED","misglobalid":null,"approved_by":null,"createdate":1646047125000,"updateddate":1646048077000,"globalid":null,"gisglobalid":"oQnBmQ5n-PPo4-PRQR-QmRn-KdPmo4c6QdsK","remark":"","st_area(shape)":0.0001779480752069812,"st_perimeter(shape)":0.06224872176820742}},{"arcs":[[-219,-194,-192,-32,221,222]],"type":"Polygon","properties":{"objectid":185333,"statename":"Rajasthan","statecode":"8","districtname":"","districtcode":"104","ulbname":"Alwar","ulbcode":"800490","wardname":"Ward 58","wardcode":"58","id":null,"status":"APPROVED","misglobalid":null,"approved_by":null,"createdate":1646047139000,"updateddate":1646048081000,"globalid":null,"gisglobalid":"6sQcnBam-PKon-Pma4-Rss6-B4l5BsRscRsc","remark":"","st_area(shape)":0.00003296857523443782,"st_perimeter(shape)":0.02416448787854853}},{"arcs":[[-223,-27,223,-25,224,-220]],"type":"Polygon","properties":{"objectid":185334,"statename":"Rajasthan","statecode":"8","districtname":"","districtcode":"104","ulbname":"Alwar","ulbcode":"800490","wardname":"Ward 59","wardcode":"59","id":null,"status":"APPROVED","misglobalid":null,"approved_by":null,"createdate":1646047154000,"updateddate":1646048088000,"globalid":null,"gisglobalid":"RQc4Rlao-5nBa-PRcn-QKBK-6mdodRBdlPBa","remark":"","st_area(shape)":0.000049609220677829694,"st_perimeter(shape)":0.029412430356425396}},{"arcs":[[225,-225,-12,226,227]],"type":"Polygon","properties":{"objectid":184760,"statename":"Rajasthan","statecode":"8","districtname":"","districtcode":"104","ulbname":"Alwar","ulbcode":"800490","wardname":"Ward 60","wardcode":"60","id":null,"status":"APPROVED","misglobalid":null,"approved_by":null,"createdate":1646047177000,"updateddate":1646048095000,"globalid":null,"gisglobalid":"P55ms6al-mdnn-PoQm-ssd5-QdmKncQanRKc","remark":"","st_area(shape)":0.00004597552951657843,"st_perimeter(shape)":0.028892624264778545}},{"arcs":[[-217,-221,-226,228,229]],"type":"Polygon","properties":{"objectid":185335,"statename":"Rajasthan","statecode":"8","districtname":"","districtcode":"104","ulbname":"Alwar","ulbcode":"800490","wardname":"Ward 61","wardcode":"61","id":null,"status":"APPROVED","misglobalid":null,"approved_by":null,"createdate":1646047188000,"updateddate":1646048100000,"globalid":null,"gisglobalid":"RaaQ6Bmm-nBcd-PQnd-slPm-lPcQ5QKmssdn","remark":"","st_area(shape)":0.00014828168586353215,"st_perimeter(shape)":0.06282688263440073}},{"arcs":[[-227,-11,-7,230,231]],"type":"Polygon","properties":{"objectid":185457,"statename":"Rajasthan","statecode":"8","districtname":"","districtcode":"104","ulbname":"Alwar","ulbcode":"800490","wardname":"Ward 62","wardcode":"62","id":null,"status":"APPROVED","misglobalid":null,"approved_by":null,"createdate":1646047214000,"updateddate":1646048105000,"globalid":null,"gisglobalid":"ddccRo5m-nnnR-PdKK-R6K6-6BmKB46oRnlQ","remark":"","st_area(shape)":0.000018752581184719816,"st_perimeter(shape)":0.019626297860876916}},{"arcs":[[232,-231,-6,233,234]],"type":"Polygon","properties":{"objectid":185336,"statename":"Rajasthan","statecode":"8","districtname":"","districtcode":"104","ulbname":"Alwar","ulbcode":"800490","wardname":"Ward 63","wardcode":"63","id":null,"status":"APPROVED","misglobalid":null,"approved_by":null,"createdate":1646047229000,"updateddate":1646048115000,"globalid":null,"gisglobalid":"l5ndQdmQ-Pn5K-PRsd-aa6R-l4ddlPcQa4oc","remark":"","st_area(shape)":0.000011183702344618516,"st_perimeter(shape)":0.016293009298890476}},{"arcs":[[-235,235,-10,-1,236]],"type":"Polygon","properties":{"objectid":177189,"statename":"Rajasthan","statecode":"8","districtname":"","districtcode":"104","ulbname":"Alwar","ulbcode":"800490","wardname":"Ward 64","wardcode":"64","id":null,"status":"APPROVED","misglobalid":null,"approved_by":null,"createdate":1646047240000,"updateddate":1646048119000,"globalid":null,"gisglobalid":"4lPRPBQo-s4c6-PnKa-QBlo-5dnaccd6l4no","remark":"","st_area(shape)":0.000023732402062254935,"st_perimeter(shape)":0.021964421682656922}},{"arcs":[[-229,-228,-232,-233,-237,-4,237]],"type":"Polygon","properties":{"objectid":185337,"statename":"Rajasthan","statecode":"8","districtname":"","districtcode":"104","ulbname":"Alwar","ulbcode":"800490","wardname":"Ward 65","wardcode":"65","id":null,"status":"APPROVED","misglobalid":null,"approved_by":null,"createdate":1646047259000,"updateddate":1646048125000,"globalid":null,"gisglobalid":"4lcPPnPQ-KKPn-Pssc-a4a6-6oRcRlolKlQ6","remark":"","st_area(shape)":0.0002065195901307237,"st_perimeter(shape)":0.07478189233863025}}]}}}