{"type":"Topology","arcs":[[[44827,60594],[-766,-372]],[[44061,60222],[-2299,1116]],[[41762,61338],[-8812,20446],[13410,4089],[-1533,-25279]],[[65133,71003],[-3831,-1487]],[[61302,69516],[-6896,-5948]],[[54406,63568],[-2299,-3346]],[[52107,60222],[-1916,-371]],[[50191,59851],[-1916,-744]],[[48275,59107],[-2298,1487]],[[45977,60594],[1149,25650],[16475,-3345],[1532,-11896]],[[52107,60222],[2299,3346]],[[54406,63568],[6896,5948]],[[65133,71003],[3832,-15613]],[[68965,55390],[-2299,-12639]],[[66666,42751],[-8812,2973]],[[57854,45724],[0,2231]],[[57854,47955],[1149,5204]],[[59003,53159],[-2299,1487]],[[56704,54646],[384,2974]],[[57088,57620],[-1533,-1858]],[[55555,55762],[-766,-372]],[[54789,55390],[-1150,372]],[[53639,55762],[-766,371]],[[52873,56133],[-383,0]],[[52490,56133],[0,2231]],[[52490,58364],[-383,1858]],[[57471,45724],[-1150,0]],[[56321,45724],[-5364,6320]],[[50957,52044],[-383,1115]],[[50574,53159],[-1915,4461]],[[48659,57620],[-384,1487]],[[48275,59107],[1916,744]],[[52490,58364],[0,-2231]],[[52873,56133],[766,-371]],[[54789,55390],[766,372]],[[55555,55762],[1533,1858]],[[57088,57620],[-384,-2974]],[[59003,53159],[-1149,-5204]],[[57854,45724],[-383,0]],[[41762,61338],[1533,-2603]],[[43295,58735],[-384,-1487]],[[42911,57248],[-2682,-2230]],[[40229,55018],[-766,0]],[[39463,55018],[-766,372]],[[38697,55390],[0,1115]],[[38697,56505],[0,1859]],[[38697,58364],[-1149,371]],[[37548,58735],[4214,2603]],[[20306,59107],[-11877,3718],[6897,37174],[15325,-12639],[5364,-27881],[-15709,-372]],[[35632,40520],[-3832,-2230]],[[31800,38290],[-383,1115]],[[31417,39405],[-1149,372]],[[30268,39777],[-1150,0]],[[29118,39777],[-1532,371]],[[27586,40148],[2682,2603]],[[30268,42751],[1532,1486]],[[31800,44237],[0,1487]],[[31800,45724],[0,2231]],[[31800,47955],[-1149,2974]],[[30651,50929],[383,3717]],[[31034,54646],[-5364,-743]],[[25670,53903],[-1149,0]],[[24521,53903],[-8046,-1115]],[[16475,52788],[21073,5947]],[[38697,58364],[0,-1859]],[[38697,55390],[-383,-744]],[[38314,54646],[-383,-371]],[[37931,54275],[-767,-1116]],[[37164,53159],[0,-743]],[[37164,52416],[-383,-1487]],[[36781,50929],[-383,-3718]],[[36398,47211],[0,-743]],[[36398,46468],[-383,-1487]],[[36015,44981],[-383,-2602]],[[35632,42379],[0,-1859]],[[42911,57248],[384,1487]],[[43295,58735],[766,1487]],[[44827,60594],[1150,0]],[[48275,59107],[384,-1487]],[[48659,57620],[1915,-4461]],[[50957,52044],[-383,-5576]],[[50574,46468],[-3831,-2231]],[[46743,44237],[-4215,-371]],[[42528,43866],[-1915,0]],[[40613,43866],[-1533,371]],[[39080,44237],[-1532,1116]],[[37548,45353],[-1150,1115]],[[36398,47211],[383,3718]],[[36781,50929],[383,1487]],[[37164,53159],[767,1116]],[[38314,54646],[1149,372]],[[40229,55018],[2682,2230]],[[68965,55390],[15325,-10037],[1916,-15985],[-17624,13383],[383,12639]],[[85440,28996],[14559,-13011],[-20689,-1487],[6130,14498]],[[67432,14126],[-12643,8179],[16475,15241],[5747,-23048],[-9579,-372]],[[45977,41264],[4597,5204]],[[50574,46468],[5747,-744]],[[57471,45724],[9195,-2973]],[[66666,42751],[-3448,-11153],[-11878,-2230],[5364,-20446],[-13793,-3718],[-3831,12640],[11494,18215],[-4597,5205]],[[28352,28253],[5747,1115]],[[34099,29368],[-2682,-29368],[-11877,9294],[8812,18959]],[[36781,32342],[-383,3345]],[[36398,35687],[-383,2974]],[[36015,38661],[-383,1859]],[[35632,40520],[0,1859]],[[35632,42379],[383,2602]],[[36015,44981],[383,1487]],[[36398,46468],[1150,-1115]],[[37548,45353],[1532,-1116]],[[39080,44237],[1533,-371]],[[40613,43866],[1915,0]],[[42528,43866],[4215,371]],[[46743,44237],[-766,-2973]],[[45977,41264],[-9196,-8922]],[[27586,40148],[1532,-371]],[[29118,39777],[1150,0]],[[31417,39405],[383,-1115]],[[36015,38661],[-1916,-743]],[[34099,37918],[-7662,-744]],[[26437,37174],[-16859,1859],[6897,13755]],[[16475,52788],[8046,1115]],[[25670,53903],[5364,743]],[[30651,50929],[1149,-2974]],[[31800,47955],[0,-2231]],[[31800,45724],[0,-1487]],[[31800,44237],[-1532,-1486]],[[30268,42751],[-2682,-2603]],[[26437,37174],[4597,-2230]],[[31034,34944],[-383,-1115]],[[30651,33829],[-2299,-4833]],[[28352,28996],[0,-743]],[[28352,28253],[-7279,-14498],[-21073,3717],[1916,18959],[24521,743]],[[34099,37918],[2299,-2231]],[[36398,35687],[383,-3345]],[[36781,32342],[-2682,-2974]],[[34099,29368],[-5747,-372]],[[28352,28996],[2299,4833]],[[30651,33829],[383,1115]],[[31034,34944],[3065,2974]]],"transform":{"scale":[2.6100261002609593e-7,2.6900269002691283e-7],"translate":[75.4418,18.2566]},"objects":{"wards":{"type":"GeometryCollection","geometries":[{"arcs":[[0,1,2]],"type":"Polygon","properties":{"objectid":52255,"statename":"Maharashtra","statecode":"27","districtname":"Osmanabad","districtcode":"525","ulbname":"Municipal Council Paranda","ulbcode":"802845","wardname":"Mujavar Galli","wardcode":"1","id":null,"status":"APPROVED","misglobalid":null,"approved_by":null,"createdate":1643544845000,"updateddate":1646046913000,"globalid":null,"gisglobalid":"aPdmKB55-PaP4-PB6l-acnc-BnBBm4noc4o4","remark":"Ok","st_area(shape)":0.00001740448092547276,"st_perimeter(shape)":0.02046148476335028}},{"arcs":[[3,4,5,6,7,8,9]],"type":"Polygon","properties":{"objectid":49917,"statename":"Maharashtra","statecode":"27","districtname":"Osmanabad","districtcode":"525","ulbname":"Paranda Municipal Council","ulbcode":"802845","wardname":"Kasab Galli","wardcode":"2","id":null,"status":"APPROVED","misglobalid":null,"approved_by":null,"createdate":1639725010000,"updateddate":1646046923000,"globalid":null,"gisglobalid":"f452bb25-8ff3-4c97-bbc6-fa34338aa057","remark":"02","st_area(shape)":0.000025959591008226377,"st_perimeter(shape)":0.021947884674805514}},{"arcs":[[10,11,-4,12,13,14,15,16,17,18,19,20,21,22,23,24,25]],"type":"Polygon","properties":{"objectid":51067,"statename":"Maharashtra","statecode":"27","districtname":"Osmanabad","districtcode":"525","ulbname":"Paranda Municipal Council","ulbcode":"802845","wardname":"Kashid Galli","wardcode":"3","id":null,"status":"APPROVED","misglobalid":null,"approved_by":null,"createdate":1639725183000,"updateddate":1646046931000,"globalid":null,"gisglobalid":"6082d374-5bb2-46fa-b761-df79f33da61f","remark":"03","st_area(shape)":0.00002064347561233981,"st_perimeter(shape)":0.021393456841192336}},{"arcs":[[26,27,28,29,30,31,-7,-26,32,-24,33,-22,34,35,36,-18,37,-16,38]],"type":"Polygon","properties":{"objectid":50300,"statename":"Maharashtra","statecode":"27","districtname":"Osmanabad","districtcode":"525","ulbname":"Paranda Municipal Council","ulbcode":"802845","wardname":"Momin Galli (East)","wardcode":"4","id":null,"status":"APPROVED","misglobalid":null,"approved_by":null,"createdate":1639725292000,"updateddate":1646046939000,"globalid":null,"gisglobalid":"6564ad6f-4b9d-4181-9571-a9735a780d0b","remark":"04","st_area(shape)":0.000006531140354537927,"st_perimeter(shape)":0.01305974263788065}},{"arcs":[[39,40,41,42,43,44,45,46,47]],"type":"Polygon","properties":{"objectid":50302,"statename":"Maharashtra","statecode":"27","districtname":"Osmanabad","districtcode":"525","ulbname":"Municipal Council Paranda","ulbcode":"802845","wardname":"Mandai, Kurahad Galli","wardcode":"5","id":null,"status":"APPROVED","misglobalid":null,"approved_by":null,"createdate":1643562594000,"updateddate":1646046947000,"globalid":null,"gisglobalid":"BmommnPR-sR5l-P46B-anl5-K5KoBsQa5oKR","remark":"05","st_area(shape)":0.0000026653348311980507,"st_perimeter(shape)":0.0077805301475664295}},{"arcs":[[48]],"type":"Polygon","properties":{"objectid":110515,"statename":"Maharashtra","statecode":"27","districtname":"Osmanabad","districtcode":"525","ulbname":"Municipal Council Paranda","ulbcode":"802845","wardname":"Mali Galli","wardcode":"6","id":null,"status":"APPROVED","misglobalid":null,"approved_by":null,"createdate":1643549394000,"updateddate":1646046978000,"globalid":null,"gisglobalid":"RaQ5on5n-PQdo-PnK6-Q4d6-Qnloa4cmQ6KB","remark":"06","st_area(shape)":0.000053823319391475185,"st_perimeter(shape)":0.03292512829359412}},{"arcs":[[49,50,51,52,53,54,55,56,57,58,59,60,61,62,63,-47,64,-45,65,66,67,68,69,70,71,72,73,74]],"type":"Polygon","properties":{"objectid":50349,"statename":"Maharashtra","statecode":"27","districtname":"Osmanabad","districtcode":"525","ulbname":"Paranda Municipal Council","ulbcode":"802845","wardname":"Killa Parisar","wardcode":"7","id":null,"status":"APPROVED","misglobalid":null,"approved_by":null,"createdate":1639729936000,"updateddate":1646046986000,"globalid":null,"gisglobalid":"e7bfdc12-e277-4d62-a764-8d8763204284","remark":"07","st_area(shape)":0.0000168576333508613,"st_perimeter(shape)":0.029361694930356685}},{"arcs":[[75,76,-1,77,-9,78,79,-29,80,81,82,83,84,85,86,-72,87,88,-69,89,-67,90,-43,91]],"type":"Polygon","properties":{"objectid":52662,"statename":"Maharashtra","statecode":"27","districtname":"Osmanabad","districtcode":"525","ulbname":"Paranda Municipal Council","ulbcode":"802845","wardname":"Momin Galli (West)","wardcode":"8","id":null,"status":"APPROVED","misglobalid":null,"approved_by":null,"createdate":1639731540000,"updateddate":1646046994000,"globalid":null,"gisglobalid":"a50f0e52-fd53-4b9a-944a-b23a8ecf2037","remark":"08","st_area(shape)":0.000012181074601448043,"st_perimeter(shape)":0.01398866028890283}},{"arcs":[[92]],"type":"Polygon","properties":{"objectid":106676,"statename":"Maharashtra","statecode":"27","districtname":"Osmanabad","districtcode":"525","ulbname":"Municipal Council Paranda","ulbcode":"802845","wardname":"Samarth Nagar","wardcode":"9","id":null,"status":"APPROVED","misglobalid":null,"approved_by":null,"createdate":1643562701000,"updateddate":1646047007000,"globalid":null,"gisglobalid":"KKm5aRsQ-RQ5Q-PBPo-ad46-omRR5Bsc4Pda","remark":"09","st_area(shape)":0.000031401612528943684,"st_perimeter(shape)":0.03940402351399194}},{"arcs":[[93]],"type":"Polygon","properties":{"objectid":111652,"statename":"Maharashtra","statecode":"27","districtname":"Osmanabad","districtcode":"525","ulbname":"Municipal Council Paranda","ulbcode":"802845","wardname":"Waiduwadi, Gosavi Galli","wardcode":"10","id":null,"status":"APPROVED","misglobalid":null,"approved_by":null,"createdate":1643548767000,"updateddate":1646047015000,"globalid":null,"gisglobalid":"lncBQRPB-mcRs-Plcl-RBRd-sQomRBmsRPad","remark":"10","st_area(shape)":0.000020972189596567448,"st_perimeter(shape)":0.023103285858402177}},{"arcs":[[94]],"type":"Polygon","properties":{"objectid":111255,"statename":"Maharashtra","statecode":"27","districtname":"Osmanabad","districtcode":"525","ulbname":"Municipal Council Paranda","ulbcode":"802845","wardname":"Kawate Bhim Nagar","wardcode":"11","id":null,"status":"APPROVED","misglobalid":null,"approved_by":null,"createdate":1643547898000,"updateddate":1646047023000,"globalid":null,"gisglobalid":"c6adPdQB-mBaQ-P4Pd-ssRa-nKclls4smlBQ","remark":"","st_area(shape)":0.00002136760455203454,"st_perimeter(shape)":0.022414301599425056}},{"arcs":[[95,96,-27,97,98]],"type":"Polygon","properties":{"objectid":111650,"statename":"Maharashtra","statecode":"27","districtname":"Osmanabad","districtcode":"525","ulbname":"Municipal Council Paranda","ulbcode":"802845","wardname":"Shivaji Nagar/Narsing Nagar","wardcode":"12","id":null,"status":"APPROVED","misglobalid":null,"approved_by":null,"createdate":1643547032000,"updateddate":1646047029000,"globalid":null,"gisglobalid":"QmBs4ocK-slKl-Pcsl-QoQd-adnonQaQ6BRK","remark":"","st_area(shape)":0.000040995597176879564,"st_perimeter(shape)":0.03550932867504424}},{"arcs":[[99,100]],"type":"Polygon","properties":{"objectid":106664,"statename":"Maharashtra","statecode":"27","districtname":"Osmanabad","districtcode":"525","ulbname":"Municipal Council Paranda","ulbcode":"802845","wardname":"Palla Galli","wardcode":"13","id":null,"status":"APPROVED","misglobalid":null,"approved_by":null,"createdate":1643547159000,"updateddate":1646047040000,"globalid":null,"gisglobalid":"4BlRnnBm-6mQP-PPlB-s5Rs-sc5m6sdlRKs6","remark":"","st_area(shape)":0.00003354862364882063,"st_perimeter(shape)":0.029492441094063713}},{"arcs":[[101,102,103,104,105,106,107,108,109,110,111,112,113]],"type":"Polygon","properties":{"objectid":53832,"statename":"Maharashtra","statecode":"27","districtname":"Osmanabad","districtcode":"525","ulbname":"Municipal Council Paranda","ulbcode":"802845","wardname":"Sahabarfiwale Galli, Somwar  Galli West","wardcode":"14","id":null,"status":"APPROVED","misglobalid":null,"approved_by":null,"createdate":1642591286000,"updateddate":1646047056000,"globalid":null,"gisglobalid":"anBK6nPo-aRRP-Pd4K-adB6-6s44mll6cmoa","remark":"","st_area(shape)":0.00000591324481280237,"st_perimeter(shape)":0.011457628535145327}},{"arcs":[[114,115,-52,116,-50,-104,117,118,119,120,-62,121,-60,122,123,124,125,126]],"type":"Polygon","properties":{"objectid":111651,"statename":"Maharashtra","statecode":"27","districtname":"Osmanabad","districtcode":"525","ulbname":"Municipal Council Paranda","ulbcode":"802845","wardname":"Sikalkar Galli","wardcode":"15","id":null,"status":"APPROVED","misglobalid":null,"approved_by":null,"createdate":1643547332000,"updateddate":1646047065000,"globalid":null,"gisglobalid":"5R6oBQ66-ns4c-Pdls-RasP-RaaoKQndd6RQ","remark":"","st_area(shape)":0.000029292510275256033,"st_perimeter(shape)":0.026266916582511513}},{"arcs":[[127,128,129,130,131]],"type":"Polygon","properties":{"objectid":111254,"statename":"Maharashtra","statecode":"27","districtname":"Osmanabad","districtcode":"525","ulbname":"Municipal Council Paranda","ulbcode":"802845","wardname":"Indira Nagar","wardcode":"16","id":null,"status":"APPROVED","misglobalid":null,"approved_by":null,"createdate":1643547790000,"updateddate":1646047080000,"globalid":null,"gisglobalid":"B4QadoP6-naQ6-PKmo-Rlm5-ccc5R544Q45B","remark":"","st_area(shape)":0.00004135277700426939,"st_perimeter(shape)":0.03061425441144933}},{"arcs":[[132,133,134,135,136,137,138]],"type":"Polygon","properties":{"objectid":53833,"statename":"Maharashtra","statecode":"27","districtname":"Osmanabad","districtcode":"525","ulbname":"Municipal Council Paranda","ulbcode":"802845","wardname":"Shikshak Society, B &Amp; C Colony","wardcode":"17","id":null,"status":"APPROVED","misglobalid":null,"approved_by":null,"createdate":1642591239000,"updateddate":1646047094000,"globalid":null,"gisglobalid":"oKsmn5ld-ocK5-PKRl-Q6P5-ads6aQmsRos4","remark":"","st_area(shape)":0.000003482523098512307,"st_perimeter(shape)":0.007957639836939527}}]}}}