{"type":"Topology","arcs":[[[70763,49539],[258,7369],[10996,-1330],[1941,4810]],[[83958,60388],[-906,205]],[[83052,60593],[-776,2661]],[[82276,63254],[9185,-819],[4528,-12180],[-1035,-7062],[-4657,-3071]],[[90297,40122],[-2846,819]],[[87451,40941],[-10220,5016]],[[77231,45957],[-3105,1842]],[[74126,47799],[-3363,1740]],[[27555,65404],[2975,-307]],[[30530,65097],[5175,-922],[2587,1536]],[[38292,65711],[-259,-512]],[[38033,65199],[388,-1024]],[[38421,64175],[259,-409]],[[38680,63766],[1423,-2252]],[[40103,61514],[129,-409]],[[40232,61105],[259,-1535]],[[40491,59570],[-2328,-1024]],[[38163,58546],[-2329,-1024]],[[35834,57522],[-776,-1330],[-906,-2968]],[[34152,53224],[-5562,-8905],[-6081,4503],[8539,3480],[-12678,5220]],[[18370,57522],[1293,4811]],[[19663,62333],[130,409]],[[19793,62742],[5563,1843]],[[25356,64585],[2199,819]],[[18370,57522],[-15265,6244],[5304,11054],[8020,3071]],[[16429,77891],[4269,-5630]],[[20698,72261],[1423,-1535]],[[22121,70726],[906,-1331]],[[23027,69395],[776,-204]],[[23803,69191],[259,-307]],[[24062,68884],[647,-922]],[[24709,67962],[1681,-1740]],[[26390,66222],[-1034,-1637]],[[19793,62742],[-130,-409]],[[31694,19447],[4399,-409]],[[36093,19038],[647,409]],[[36740,19447],[2328,1740]],[[39068,21187],[1682,512]],[[40750,21699],[24062,-3890]],[[64812,17809],[11513,7472],[8668,-4503],[4657,1637],[10349,-7779],[-8279,-9314],[-27038,-5322],[-16170,4299],[-3234,4401],[-10608,-1638],[-6598,2354],[3622,10031]],[[69857,84339],[5692,-716]],[[75549,83623],[8926,-308],[-12031,-11258],[6857,-6449],[-4916,-5220]],[[74385,60388],[-6598,717]],[[67787,61105],[-1811,5015],[-4916,3787],[2976,14330],[5821,102]],[[27296,29785],[3881,-512]],[[31177,29273],[129,-2354]],[[31306,26919],[2329,-307]],[[33635,26612],[1552,819]],[[35187,27431],[1294,4503],[15912,-6243],[2975,511]],[[55368,26202],[3364,-921]],[[58732,25281],[5950,-102]],[[64682,25179],[9185,2661]],[[73867,27840],[518,102]],[[74385,27942],[1811,-2558],[-11384,-7575]],[[64812,17809],[-24062,3890]],[[40750,21699],[-1682,-512]],[[39068,21187],[-2328,-1740]],[[36740,19447],[-647,-409]],[[31694,19447],[-2069,-3275],[-11126,102],[2329,11464],[6468,2047]],[[59120,62845],[8667,-1740]],[[67787,61105],[6598,-717]],[[74385,60388],[7891,2866]],[[82276,63254],[776,-2661]],[[83052,60593],[906,-205]],[[83958,60388],[-2458,-4503],[-12549,1637]],[[68951,57522],[-1034,205]],[[67917,57727],[-1423,512]],[[66494,58239],[-2329,1126]],[[64165,59365],[-129,1023]],[[64036,60388],[-518,307]],[[63518,60695],[-1035,307]],[[62483,61002],[-1682,103]],[[60801,61105],[-776,-410]],[[60025,60695],[-776,-102]],[[59249,60593],[129,1945]],[[59378,62538],[-258,307]],[[33894,72466],[517,1024]],[[34411,73490],[5045,-717]],[[39456,72773],[-1681,-2252]],[[37775,70521],[-3881,1945]],[[60025,60695],[776,410]],[[62483,61002],[1035,-307]],[[63518,60695],[518,-307]],[[64165,59365],[2329,-1126]],[[66494,58239],[1423,-512]],[[68951,57522],[-1811,-7574]],[[67140,49948],[-1423,205]],[[65717,50153],[-2846,205]],[[62871,50358],[-5562,921],[1940,9314]],[[39456,72773],[9056,-5220]],[[48512,67553],[-1423,-1638]],[[47089,65915],[-130,-614]],[[46959,65301],[-129,-614]],[[46830,64687],[-388,-614]],[[46442,64073],[-388,-205]],[[46054,63868],[-776,1638]],[[45278,65506],[-130,0]],[[45148,65506],[-2975,2252]],[[42173,67758],[-518,512]],[[41655,68270],[-258,204]],[[41397,68474],[-1294,921]],[[40103,69395],[-2328,1126]],[[47477,39508],[1294,0]],[[48771,39508],[129,0]],[[48900,39508],[647,-102]],[[49547,39406],[905,102]],[[50452,39508],[0,512]],[[50452,40020],[130,307]],[[50582,40327],[0,307]],[[50582,40634],[258,205]],[[50840,40839],[388,2559]],[[51228,43398],[777,3787]],[[52005,47185],[4398,-512],[-4010,-20880],[-15912,6244],[-1294,-4606]],[[35187,27431],[-1552,-819]],[[31306,26919],[-129,2354]],[[31177,29273],[-3881,512]],[[27296,29785],[11384,11156],[8797,-1433]],[[18758,81166],[-13713,5015],[3364,6346],[6985,-2354]],[[15394,90173],[-517,-1433]],[[14877,88740],[259,-716]],[[15136,88024],[2199,-1126]],[[17335,86898],[5433,-3583]],[[22768,83315],[2329,-3480]],[[25097,79835],[-6339,1331]],[[28590,92015],[129,-2354],[-6210,-818],[-4915,716],[-9703,3173],[5045,4913],[9573,2354],[6081,-7984]],[[18758,81166],[-18758,-10338],[2070,12385],[2846,2866],[13842,-4913]],[[60284,37564],[1423,-307]],[[61707,37257],[5304,2251]],[[67011,39508],[1294,1433]],[[68305,40941],[19404,-4708],[-6468,-6755],[-6856,-1536]],[[73867,27840],[-9185,-2661]],[[58732,25281],[-3364,921]],[[55368,26202],[-776,10747],[5692,615]],[[75549,83623],[-5692,716]],[[69857,84339],[-5821,0],[-3105,-14432],[6080,-6857],[-7244,409],[-15783,7881],[7374,1638],[5304,12999],[10478,4503],[8409,-6857]],[[49676,54964],[9185,4401],[-2458,-12590],[-9185,3480],[2587,2866],[389,1433],[-518,410]],[[51358,65813],[-647,-1638]],[[50711,64175],[-129,-307]],[[50582,63868],[-518,-716]],[[50064,63152],[-259,-102]],[[49805,63050],[-258,-205]],[[49547,62845],[-130,-410]],[[49417,62435],[-129,-307]],[[49288,62128],[-129,-204]],[[49159,61924],[-130,-307]],[[49029,61617],[-129,-512]],[[48900,61105],[-2587,409]],[[46313,61514],[388,1638]],[[46701,63152],[-259,921]],[[46442,64073],[388,614]],[[46830,64687],[129,614]],[[46959,65301],[130,614]],[[48512,67553],[2846,-1740]],[[24709,44933],[4139,-716],[5434,6755],[13454,-1433],[-10738,-9928],[-12419,-8905],[130,14227]],[[33894,64585],[-3364,512]],[[30530,65097],[2329,6653]],[[32859,71750],[4916,-1229]],[[37775,70521],[-259,-307]],[[37516,70214],[0,-409]],[[37516,69805],[-388,-717]],[[37128,69088],[-259,-307]],[[36869,68781],[-647,-716]],[[36222,68065],[-2328,-3480]],[[50582,47697],[-130,-205]],[[50452,47492],[-129,-103]],[[50323,47389],[-259,-102]],[[50064,47287],[-259,0]],[[49805,47287],[-388,0]],[[49417,47287],[-258,102]],[[49159,47389],[-647,103]],[[48512,47492],[2070,205]],[[59120,62845],[258,-307]],[[59378,62538],[-6338,-2764]],[[53040,59774],[-518,1740]],[[52522,61514],[1164,3276]],[[53686,64790],[5434,-1945]],[[39198,69805],[905,-410]],[[40103,69395],[1294,-921]],[[41655,68270],[518,-512]],[[42173,67758],[2975,-2252]],[[45148,65506],[-3493,-512]],[[41655,64994],[-258,0]],[[41397,64994],[-776,307]],[[40621,65301],[-1294,410]],[[39327,65711],[-129,204]],[[39198,65915],[-518,205]],[[38680,66120],[-259,-102]],[[38421,66018],[-129,-307]],[[38292,65711],[-647,511]],[[37645,66222],[647,1638]],[[38292,67860],[259,205]],[[38551,68065],[129,205]],[[38680,68270],[518,1535]],[[16429,77891],[13196,-5630]],[[29625,72261],[-1294,-409]],[[28331,71852],[-776,-102]],[[27555,71750],[-388,-103]],[[27167,71647],[-1165,-205]],[[26002,71442],[-1423,103]],[[24579,71545],[-1681,409]],[[22898,71954],[-1812,205]],[[21086,72159],[-388,102]],[[36222,68065],[647,716]],[[36869,68781],[259,307]],[[37128,69088],[388,717]],[[37516,69805],[0,409]],[[37516,70214],[1682,-409]],[[39198,69805],[-518,-1535]],[[38680,68270],[-129,-205]],[[38551,68065],[-259,-205]],[[38292,67860],[-647,-1638]],[[37645,66222],[-3751,-1637]],[[56015,43705],[6856,6653]],[[62871,50358],[2846,-205]],[[65717,50153],[1423,-205]],[[67140,49948],[-3234,-5424],[-7891,-819]],[[15394,90173],[2200,-716],[4915,-717],[6598,819],[3234,-3582]],[[32341,85977],[-4139,-4709]],[[28202,81268],[-259,-1228]],[[27943,80040],[-776,-921]],[[27167,79119],[-259,-2252]],[[26908,76867],[-388,-614]],[[26520,76253],[-388,-1023]],[[26132,75230],[-1035,4605]],[[25097,79835],[-2329,3480]],[[17335,86898],[-2199,1126]],[[15136,88024],[-259,716]],[[56015,43705],[7891,716],[6857,5118]],[[70763,49539],[3363,-1740]],[[74126,47799],[3105,-1842]],[[77231,45957],[10220,-5016]],[[87451,40941],[2846,-819]],[[90297,40122],[-2588,-3787],[-19404,4606]],[[67011,39508],[-5304,-2251]],[[60284,37564],[-4269,6141]],[[46183,51893],[906,1126]],[[47089,53019],[-906,614]],[[46183,53633],[-129,102]],[[46054,53735],[129,205]],[[46183,53940],[259,205]],[[46442,54145],[776,102]],[[47218,54247],[259,614]],[[47477,54861],[-518,410]],[[46959,55271],[130,102]],[[47089,55373],[129,205]],[[47218,55578],[1941,-410],[905,-1023],[-905,-1740],[-2070,-2047],[-6210,0]],[[40879,50358],[0,307]],[[40879,50665],[130,716]],[[41009,51381],[388,921]],[[41397,52302],[647,1331]],[[42044,53633],[129,102]],[[42173,53735],[388,0]],[[42561,53735],[1682,-102]],[[44243,53633],[388,-102]],[[44631,53531],[647,-103]],[[45278,53428],[258,-204]],[[45536,53224],[-258,-410]],[[45278,52814],[905,-921]],[[28719,74513],[-2587,717]],[[26132,75230],[388,1023]],[[26520,76253],[388,614]],[[26908,76867],[259,2252]],[[27167,79119],[776,921]],[[27943,80040],[259,1228]],[[28202,81268],[4139,4709]],[[32341,85977],[-517,-5220]],[[31824,80757],[-1294,-1331]],[[30530,79426],[-1035,-2047]],[[29495,77379],[-259,-614]],[[29236,76765],[-517,-2252]],[[21086,72159],[1812,-205]],[[22898,71954],[1681,-409]],[[24579,71545],[1423,-103]],[[26002,71442],[1165,205]],[[27555,71750],[776,102]],[[28331,71852],[1294,409]],[[29625,72261],[-2070,-6857]],[[27555,65404],[-1165,818]],[[26390,66222],[-1681,1740]],[[24709,67962],[-647,922]],[[24062,68884],[-259,307]],[[23027,69395],[-906,1331]],[[22121,70726],[-1423,1535]],[[39456,56090],[1682,-205]],[[41138,55885],[1940,512]],[[43078,56397],[518,204]],[[43596,56601],[259,-102]],[[43855,56499],[0,-205]],[[43855,56294],[-130,-409]],[[43725,55885],[0,-205]],[[43725,55680],[-129,-205]],[[43596,55475],[0,-102]],[[43596,55373],[1811,-409]],[[45407,54964],[129,0]],[[45536,54964],[-258,-717]],[[45278,54247],[-259,-102]],[[45019,54145],[-129,-307]],[[44890,53838],[-130,-205]],[[44760,53633],[-129,-102]],[[44631,53531],[-388,102]],[[42561,53735],[-388,0]],[[42044,53633],[-647,-1331]],[[41397,52302],[-388,-921]],[[41009,51381],[-130,-716]],[[40879,50665],[0,-307]],[[40879,50358],[-1423,5732]],[[51228,43398],[-388,-2559]],[[50840,40839],[-258,-205]],[[50582,40327],[-130,-307]],[[50452,39508],[-905,-102]],[[49547,39406],[-647,102]],[[48771,39508],[-1294,0]],[[47477,39508],[1035,7984]],[[48512,47492],[647,-103]],[[49159,47389],[258,-102]],[[49417,47287],[388,0]],[[49805,47287],[259,0]],[[50064,47287],[259,102]],[[50452,47492],[130,205]],[[50582,47697],[1423,-512]],[[45278,65506],[776,-1638]],[[46054,63868],[647,-716]],[[46701,63152],[-647,-1740]],[[46054,61412],[-518,-205]],[[45536,61207],[-258,-102]],[[45278,61105],[-388,102]],[[44890,61207],[-518,103]],[[44372,61310],[-129,0]],[[44243,61310],[-518,102]],[[43725,61412],[-258,-102]],[[43467,61310],[-777,0]],[[42690,61310],[-2458,-205]],[[40103,61514],[-1423,2252]],[[38680,63766],[-259,409]],[[38033,65199],[259,512]],[[38421,66018],[259,102]],[[38680,66120],[518,-205]],[[39327,65711],[1294,-410]],[[40621,65301],[776,-307]],[[41655,64994],[3493,512]],[[38163,58546],[2328,1024]],[[42690,61310],[777,0]],[[43467,61310],[258,102]],[[43725,61412],[518,-102]],[[44372,61310],[518,-103]],[[44890,61207],[388,-102]],[[45278,61105],[258,102]],[[45536,61207],[518,205]],[[46054,61412],[129,0]],[[46183,61412],[0,-102]],[[46183,61310],[-258,-615]],[[45925,60695],[-130,-511]],[[45795,60184],[0,-205]],[[45795,59979],[-129,-614]],[[45666,59365],[-518,102]],[[45148,59467],[-129,103]],[[45019,59570],[-1164,102]],[[43855,59672],[-259,-1126]],[[43596,58546],[1035,-512]],[[44631,58034],[-388,-102]],[[44243,57932],[-130,-205]],[[44113,57727],[0,-307]],[[44113,57420],[-129,-205]],[[43984,57215],[-388,-614]],[[43596,56601],[-518,-204]],[[43078,56397],[-1940,-512]],[[41138,55885],[-1682,205]],[[39456,56090],[-776,102]],[[38680,56192],[-3105,819]],[[35575,57011],[259,511]],[[49676,54964],[-1164,2866]],[[48512,57830],[129,1535]],[[48641,59365],[130,1535]],[[48771,60900],[129,205]],[[48900,61105],[647,-307]],[[49547,60798],[647,-410]],[[50194,60388],[776,-307]],[[50970,60081],[2070,-307]],[[53040,59774],[-3364,-4810]],[[50970,60081],[-776,307]],[[49547,60798],[-647,307]],[[48900,61105],[129,512]],[[49029,61617],[130,307]],[[49159,61924],[129,204]],[[49288,62128],[129,307]],[[49417,62435],[130,410]],[[49547,62845],[258,205]],[[49805,63050],[259,102]],[[50064,63152],[518,716]],[[50582,63868],[129,307]],[[50711,64175],[647,1638]],[[51358,65813],[2328,-1023]],[[52522,61514],[-1552,-1433]],[[30142,75025],[1423,1842]],[[31565,76867],[1423,-512]],[[32988,76355],[776,1024]],[[33764,77379],[647,-3889]],[[34411,73490],[-517,-1024]],[[33894,72466],[-1035,-716]],[[32859,71750],[-3364,1432]],[[29495,73182],[259,615]],[[29754,73797],[259,818]],[[30013,74615],[129,410]],[[29495,73182],[-776,1331]],[[28719,74513],[517,2252]],[[29495,77379],[1035,2047]],[[31824,80757],[1940,-3378]],[[33764,77379],[-776,-1024]],[[32988,76355],[-1423,512]],[[30142,75025],[-129,-410]],[[30013,74615],[-259,-818]],[[46183,57932],[-258,716]],[[45925,58648],[-130,1331]],[[45795,59979],[0,205]],[[45795,60184],[130,511]],[[45925,60695],[258,615]],[[46183,61412],[130,102]],[[46313,61514],[2458,-614]],[[48771,60900],[-130,-1535]],[[48641,59365],[-129,-1535]],[[48512,57830],[-2458,-1433]],[[46054,56397],[129,1535]],[[45666,59365],[259,-717]],[[45925,58648],[258,-716]],[[46183,57932],[-129,-1535]],[[46054,56397],[1164,-819]],[[47218,55578],[-129,-205]],[[47089,55373],[-130,-102]],[[46959,55271],[518,-410]],[[47218,54247],[-776,-102]],[[46183,53940],[-129,-205]],[[46183,53633],[906,-614]],[[47089,53019],[-906,-1126]],[[45278,52814],[258,410]],[[45278,53428],[-518,205]],[[44760,53633],[130,205]],[[44890,53838],[129,307]],[[45278,54247],[258,717]],[[45407,54964],[-1811,409]],[[43596,55475],[129,205]],[[43725,55885],[130,409]],[[43855,56294],[0,205]],[[43984,57215],[129,205]],[[44113,57420],[0,307]],[[44113,57727],[130,205]],[[44243,57932],[388,102]],[[44631,58034],[-1035,512]],[[43855,59672],[1164,-102]],[[45148,59467],[518,-102]],[[38680,56192],[-4528,-2968]],[[34152,53224],[1423,3787]]],"transform":{"scale":[7.730077300772401e-7,9.770097700976978e-7],"translate":[83.5232,25.8866]},"objects":{"wards":{"type":"GeometryCollection","geometries":[{"arcs":[[0,1,2,3,4,5,6,7]],"type":"Polygon","properties":{"objectid":162534,"statename":"Uttar Pradesh","statecode":"9","districtname":"","districtcode":"192","ulbname":"Maunath Bhanjan (Npp)","ulbcode":"801200","wardname":"Galibpur","wardcode":"1","id":null,"status":"APPROVED","misglobalid":null,"approved_by":null,"createdate":1645702523000,"updateddate":1645721906000,"globalid":null,"gisglobalid":"4BQRQm55-6oo5-P6dQ-asPo-QlclQ4l5Bs54","remark":"","st_area(shape)":0.00027662247724673705,"st_perimeter(shape)":0.08125795957450317}},{"arcs":[[8,9,10,11,12,13,14,15,16,17,18,19,20,21,22,23]],"type":"Polygon","properties":{"objectid":172910,"statename":"Uttar Pradesh","statecode":"9","districtname":"","districtcode":"192","ulbname":"Maunath Bhanjan (Npp)","ulbcode":"801200","wardname":"Puradurjan Rai","wardcode":"2","id":null,"status":"APPROVED","misglobalid":null,"approved_by":null,"createdate":1645702556000,"updateddate":1645721915000,"globalid":null,"gisglobalid":"cmR45mcs-55B6-PoRa-aoom-maaBKcdR6QdK","remark":"","st_area(shape)":0.0001854396813758887,"st_perimeter(shape)":0.07559304955672835}},{"arcs":[[24,25,26,27,28,29,30,31,32,-23,33,-21]],"type":"Polygon","properties":{"objectid":172911,"statename":"Uttar Pradesh","statecode":"9","districtname":"","districtcode":"192","ulbname":"Maunath Bhanjan (Npp)","ulbcode":"801200","wardname":"Rampur Chakiya","wardcode":"3","id":null,"status":"APPROVED","misglobalid":null,"approved_by":null,"createdate":1645702571000,"updateddate":1645721928000,"globalid":null,"gisglobalid":"B4QlsQ6m-lsam-PKco-QPaQ-BaPPPPmP6loP","remark":"","st_area(shape)":0.00018808288362421596,"st_perimeter(shape)":0.06301173551178671}},{"arcs":[[34,35,36,37,38,39]],"type":"Polygon","properties":{"objectid":172506,"statename":"Uttar Pradesh","statecode":"9","districtname":"","districtcode":"192","ulbname":"Maunath Bhanjan (Npp)","ulbcode":"801200","wardname":"Tajopur","wardcode":"4","id":null,"status":"APPROVED","misglobalid":null,"approved_by":null,"createdate":1645705836000,"updateddate":1645721938000,"globalid":null,"gisglobalid":"PsccRlos-dsQa-Pdmn-s4Kl-RKR6BsoaoPcd","remark":"","st_area(shape)":0.0008320202976159588,"st_perimeter(shape)":0.14724887782670987}},{"arcs":[[40,41,42,43]],"type":"Polygon","properties":{"objectid":173682,"statename":"Uttar Pradesh","statecode":"9","districtname":"","districtcode":"192","ulbname":"Maunath Bhanjan (Npp)","ulbcode":"801200","wardname":"Chandrabhanpur","wardcode":"5","id":null,"status":"APPROVED","misglobalid":null,"approved_by":null,"createdate":1645705858000,"updateddate":1645721948000,"globalid":null,"gisglobalid":"l6cl5saB-Qcna-Pl5c-s6KB-6nRQmadsnPQB","remark":"","st_area(shape)":0.00025098475155279433,"st_perimeter(shape)":0.08918190089237464}},{"arcs":[[44,45,46,47,48,49,50,51,52,53,54,55,56,57,-35,58]],"type":"Polygon","properties":{"objectid":172960,"statename":"Uttar Pradesh","statecode":"9","districtname":"","districtcode":"192","ulbname":"Maunath Bhanjan (Npp)","ulbcode":"801200","wardname":"Pardahan Dakshini","wardcode":"6","id":null,"status":"APPROVED","misglobalid":null,"approved_by":null,"createdate":1645705890000,"updateddate":1645721969000,"globalid":null,"gisglobalid":"5RdB4P5d-snBP-PRcd-Qd4K-mdnR64KsnR4Q","remark":"","st_area(shape)":0.00034171466718821837,"st_perimeter(shape)":0.12125429035065823}},{"arcs":[[59,60,61,62,63,64,65,66,67,68,69,70,71,72,73,74,75]],"type":"Polygon","properties":{"objectid":175611,"statename":"Uttar Pradesh","statecode":"9","districtname":"","districtcode":"192","ulbname":"Maunath Bhanjan (Npp)","ulbcode":"801200","wardname":"Bhiti","wardcode":"7","id":null,"status":"APPROVED","misglobalid":null,"approved_by":null,"createdate":1645705910000,"updateddate":1645721986000,"globalid":null,"gisglobalid":"4aKnmsc6-PRdo-PKsR-Rls5-nPcnKmocPnBo","remark":"","st_area(shape)":0.00007205513181460856,"st_perimeter(shape)":0.05406297473243868}},{"arcs":[[76,77,78,79]],"type":"Polygon","properties":{"objectid":172508,"statename":"Uttar Pradesh","statecode":"9","districtname":"","districtcode":"192","ulbname":"Maunath Bhanjan (Npp)","ulbcode":"801200","wardname":"Aurangabad","wardcode":"8","id":null,"status":"APPROVED","misglobalid":null,"approved_by":null,"createdate":1645705952000,"updateddate":1645721996000,"globalid":null,"gisglobalid":"4doPQlKa-Bl64-PR6c-QPld-aPRKsona6KRB","remark":"","st_area(shape)":0.000012494732750903273,"st_perimeter(shape)":0.015279959434764715}},{"arcs":[[-74,80,-72,81,82,-69,83,84,-66,85,86,87,88]],"type":"Polygon","properties":{"objectid":174087,"statename":"Uttar Pradesh","statecode":"9","districtname":"","districtcode":"192","ulbname":"Maunath Bhanjan (Npp)","ulbcode":"801200","wardname":"Nizamuddinpura","wardcode":"9","id":null,"status":"APPROVED","misglobalid":null,"approved_by":null,"createdate":1645705964000,"updateddate":1645722009000,"globalid":null,"gisglobalid":"6a5oK5on-dRQ6-P4ca-Rdl6-mPB5Bcnc46da","remark":"","st_area(shape)":0.00007593027295609424,"st_perimeter(shape)":0.03461920095195593}},{"arcs":[[89,90,91,92,93,94,95,96,97,98,99,100,101,-79]],"type":"Polygon","properties":{"objectid":175194,"statename":"Uttar Pradesh","statecode":"9","districtname":"","districtcode":"192","ulbname":"Maunath Bhanjan (Npp)","ulbcode":"801200","wardname":"Harikeshpura","wardcode":"10","id":null,"status":"APPROVED","misglobalid":null,"approved_by":null,"createdate":1645705974000,"updateddate":1645722017000,"globalid":null,"gisglobalid":"csK5s4Bn-6d4l-PBQ4-aRPl-nmlo6QdQRRKQ","remark":"","st_area(shape)":0.000029857617401199544,"st_perimeter(shape)":0.026385639457624253}},{"arcs":[[102,103,104,105,106,107,108,109,110,111,112,113,-47,114,115,116]],"type":"Polygon","properties":{"objectid":175195,"statename":"Uttar Pradesh","statecode":"9","districtname":"","districtcode":"192","ulbname":"Maunath Bhanjan (Npp)","ulbcode":"801200","wardname":"Pardahan Uttari","wardcode":"11","id":null,"status":"APPROVED","misglobalid":null,"approved_by":null,"createdate":1645705987000,"updateddate":1645722025000,"globalid":null,"gisglobalid":"4KQRKK5l-QQdo-PK6c-ac5n-464llRlBRomR","remark":"","st_area(shape)":0.0002200824008450232,"st_perimeter(shape)":0.08576591938287388}},{"arcs":[[117,118,119,120,121,122,123]],"type":"Polygon","properties":{"objectid":174088,"statename":"Uttar Pradesh","statecode":"9","districtname":"","districtcode":"192","ulbname":"Maunath Bhanjan (Npp)","ulbcode":"801200","wardname":"Bhatawan Patti Dayarai","wardcode":"12","id":null,"status":"APPROVED","misglobalid":null,"approved_by":null,"createdate":1645706006000,"updateddate":1645722033000,"globalid":null,"gisglobalid":"QRlRRP5P-occ4-PRn4-RBlQ-s5Bc5clQB5K6","remark":"","st_area(shape)":0.000096071852454878,"st_perimeter(shape)":0.053071707026493636}},{"arcs":[[124]],"type":"Polygon","properties":{"objectid":172963,"statename":"Uttar Pradesh","statecode":"9","districtname":"","districtcode":"192","ulbname":"Maunath Bhanjan (Npp)","ulbcode":"801200","wardname":"Bakhtawarganj","wardcode":"13","id":null,"status":"APPROVED","misglobalid":null,"approved_by":null,"createdate":1645706025000,"updateddate":1645722042000,"globalid":null,"gisglobalid":"slmQlRmK-oRmQ-Pnsd-Q4ml-P4cQcK6RmKmn","remark":"","st_area(shape)":0.00011766789022762854,"st_perimeter(shape)":0.04255837816430136}},{"arcs":[[125]],"type":"Polygon","properties":{"objectid":172509,"statename":"Uttar Pradesh","statecode":"9","districtname":"","districtcode":"192","ulbname":"Maunath Bhanjan (Npp)","ulbcode":"801200","wardname":"Hakikatpur","wardcode":"14","id":null,"status":"APPROVED","misglobalid":null,"approved_by":null,"createdate":1645706052000,"updateddate":1645722052000,"globalid":null,"gisglobalid":"BRs6mscK-s5aB-P6P5-QlcR-nlmBQ5K6n6nK","remark":"","st_area(shape)":0.00016425940876057678,"st_perimeter(shape)":0.06464296207748316}},{"arcs":[[126,127,128,129,-53,130,-51,131,132]],"type":"Polygon","properties":{"objectid":173684,"statename":"Uttar Pradesh","statecode":"9","districtname":"","districtcode":"192","ulbname":"Maunath Bhanjan (Npp)","ulbcode":"801200","wardname":"Imiliya","wardcode":"15","id":null,"status":"APPROVED","misglobalid":null,"approved_by":null,"createdate":1645706411000,"updateddate":1645722066000,"globalid":null,"gisglobalid":"RmBac6K5-smPR-Pmns-RsoR-oKcRcnn5ooa4","remark":"","st_area(shape)":0.0002785904858534946,"st_perimeter(shape)":0.0705207220501746}},{"arcs":[[133,134]],"type":"Polygon","properties":{"objectid":172964,"statename":"Uttar Pradesh","statecode":"9","districtname":"","districtcode":"192","ulbname":"Maunath Bhanjan (Npp)","ulbcode":"801200","wardname":"Khwajajanpur","wardcode":"16","id":null,"status":"APPROVED","misglobalid":null,"approved_by":null,"createdate":1645706448000,"updateddate":1645722075000,"globalid":null,"gisglobalid":"o6Rdann5-c4Kd-P4Rs-QKlo-nKQQasaPoKan","remark":"","st_area(shape)":0.00025329362517301283,"st_perimeter(shape)":0.11281538708061416}},{"arcs":[[135]],"type":"Polygon","properties":{"objectid":172510,"statename":"Uttar Pradesh","statecode":"9","districtname":"","districtcode":"192","ulbname":"Maunath Bhanjan (Npp)","ulbcode":"801200","wardname":"Mohasinpura Relways Coloni","wardcode":"17","id":null,"status":"APPROVED","misglobalid":null,"approved_by":null,"createdate":1645706473000,"updateddate":1645722088000,"globalid":null,"gisglobalid":"no6dlnPm-oanl-P4BP-Q4c4-6aQ5Raa4mllB","remark":"","st_area(shape)":0.00006871130796132173,"st_perimeter(shape)":0.03546054141842993}},{"arcs":[[136,137,138,139,140,141,142,143,144,145,146,147,148,149,150,151,-91,152]],"type":"Polygon","properties":{"objectid":165422,"statename":"Uttar Pradesh","statecode":"9","districtname":"","districtcode":"192","ulbname":"Maunath Bhanjan (Npp)","ulbcode":"801200","wardname":"Pathan Tolai","wardcode":"18","id":null,"status":"APPROVED","misglobalid":null,"approved_by":null,"createdate":1645706498000,"updateddate":1645722097000,"globalid":null,"gisglobalid":"Bcd6dlQR-l5cn-P4RK-Qol5-5K65a45nRm5B","remark":"","st_area(shape)":0.000015340852065817485,"st_perimeter(shape)":0.017111668630458057}},{"arcs":[[153]],"type":"Polygon","properties":{"objectid":172511,"statename":"Uttar Pradesh","statecode":"9","districtname":"","districtcode":"192","ulbname":"Maunath Bhanjan (Npp)","ulbcode":"801200","wardname":"Badi Kamhariya","wardcode":"19","id":null,"status":"APPROVED","misglobalid":null,"approved_by":null,"createdate":1645706525000,"updateddate":1645722105000,"globalid":null,"gisglobalid":"lQRs6dom-l5nd-PsBB-sQms-anlP6KmQ6mlK","remark":"","st_area(shape)":0.00016201210443712839,"st_perimeter(shape)":0.0624387615581452}},{"arcs":[[154,155,156,157,158,159,160,161,162]],"type":"Polygon","properties":{"objectid":165423,"statename":"Uttar Pradesh","statecode":"9","districtname":"","districtcode":"192","ulbname":"Maunath Bhanjan (Npp)","ulbcode":"801200","wardname":"Astupura","wardcode":"20","id":null,"status":"APPROVED","misglobalid":null,"approved_by":null,"createdate":1645706541000,"updateddate":1645722118000,"globalid":null,"gisglobalid":"5oaoKPd4-nomc-PQc6-soc5-omco46dRcdK4","remark":"","st_area(shape)":0.000021510758848955728,"st_perimeter(shape)":0.020014782191312867}},{"arcs":[[163,164,165,166,167,168,169,170]],"type":"Polygon","properties":{"objectid":173685,"statename":"Uttar Pradesh","statecode":"9","districtname":"","districtcode":"192","ulbname":"Maunath Bhanjan (Npp)","ulbcode":"801200","wardname":"Munshipura Pashchimi","wardcode":"21","id":null,"status":"APPROVED","misglobalid":null,"approved_by":null,"createdate":1645706575000,"updateddate":1645722128000,"globalid":null,"gisglobalid":"lmQBccQm-R5da-Pm44-Ra5o-5RRQsllPooc5","remark":"","st_area(shape)":0.000040781015933554614,"st_perimeter(shape)":0.03055835771274578}},{"arcs":[[171,172,173,174,175]],"type":"Polygon","properties":{"objectid":165424,"statename":"Uttar Pradesh","statecode":"9","districtname":"","districtcode":"192","ulbname":"Maunath Bhanjan (Npp)","ulbcode":"801200","wardname":"Hatthimadari","wardcode":"22","id":null,"status":"APPROVED","misglobalid":null,"approved_by":null,"createdate":1645706603000,"updateddate":1645722140000,"globalid":null,"gisglobalid":"BacPQdPR-RamP-PaBa-ssnl-o65Pn55asaPP","remark":"","st_area(shape)":0.00002085138162231712,"st_perimeter(shape)":0.018797371009669262}},{"arcs":[[176,177,-100,178,179,180,181,182,183,184,185,186,187,188,189,190,191,192]],"type":"Polygon","properties":{"objectid":175613,"statename":"Uttar Pradesh","statecode":"9","districtname":"","districtcode":"192","ulbname":"Maunath Bhanjan (Npp)","ulbcode":"801200","wardname":"Katra","wardcode":"23","id":null,"status":"APPROVED","misglobalid":null,"approved_by":null,"createdate":1645706664000,"updateddate":1645722157000,"globalid":null,"gisglobalid":"RRc5K46R-dBnd-PPBB-QlRB-5K44c5Q44Pc5","remark":"","st_area(shape)":0.000013017645441908556,"st_perimeter(shape)":0.017659026629106494}},{"arcs":[[193,194,195,196,197,198,199,200,201,-26]],"type":"Polygon","properties":{"objectid":175196,"statename":"Uttar Pradesh","statecode":"9","districtname":"","districtcode":"192","ulbname":"Maunath Bhanjan (Npp)","ulbcode":"801200","wardname":"Madanpura Uttari","wardcode":"24","id":null,"status":"APPROVED","misglobalid":null,"approved_by":null,"createdate":1645706677000,"updateddate":1645722166000,"globalid":null,"gisglobalid":"oPsKKPda-4cnB-Pmca-RsQl-PcBBmacdB4B6","remark":"","st_area(shape)":0.00002988521270375196,"st_perimeter(shape)":0.03046703174228263}},{"arcs":[[-163,202,203,204,205,206,207,208,209,210,211]],"type":"Polygon","properties":{"objectid":175197,"statename":"Uttar Pradesh","statecode":"9","districtname":"","districtcode":"192","ulbname":"Maunath Bhanjan (Npp)","ulbcode":"801200","wardname":"Pyarepura","wardcode":"25","id":null,"status":"APPROVED","misglobalid":null,"approved_by":null,"createdate":1645706692000,"updateddate":1645722174000,"globalid":null,"gisglobalid":"RsdPRoQm-Pd5Q-Pcsd-QRdn-n6sPodo66d6s","remark":"","st_area(shape)":0.000009517120609815557,"st_perimeter(shape)":0.015628811359811614}},{"arcs":[[212,213,214,215]],"type":"Polygon","properties":{"objectid":172969,"statename":"Uttar Pradesh","statecode":"9","districtname":"","districtcode":"192","ulbname":"Maunath Bhanjan (Npp)","ulbcode":"801200","wardname":"Sahadatpura Uttar","wardcode":"26","id":null,"status":"APPROVED","misglobalid":null,"approved_by":null,"createdate":1645706705000,"updateddate":1645722186000,"globalid":null,"gisglobalid":"6Pds5mPm-PlP4-PoP5-Rasm-BmsnQsm54KRm","remark":"","st_area(shape)":0.000043118100595466205,"st_perimeter(shape)":0.02851598628977546}},{"arcs":[[216,217,218,219,220,221,222,223,224,-122,225,226,-119]],"type":"Polygon","properties":{"objectid":174089,"statename":"Uttar Pradesh","statecode":"9","districtname":"","districtcode":"192","ulbname":"Maunath Bhanjan (Npp)","ulbcode":"801200","wardname":"Bhatakuwan Patti Singharai","wardcode":"27","id":null,"status":"APPROVED","misglobalid":null,"approved_by":null,"createdate":1645706730000,"updateddate":1645722196000,"globalid":null,"gisglobalid":"sR4BQssl-4ldK-PnR5-RlnK-RP6m6mQomccR","remark":"","st_area(shape)":0.00007421034097823611,"st_perimeter(shape)":0.04824885810842639}},{"arcs":[[227,228,229,230,231,232,-129,233,-127,234]],"type":"Polygon","properties":{"objectid":172970,"statename":"Uttar Pradesh","statecode":"9","districtname":"","districtcode":"192","ulbname":"Maunath Bhanjan (Npp)","ulbcode":"801200","wardname":"Sahadatpura Dakshin Pu0","wardcode":"28","id":null,"status":"APPROVED","misglobalid":null,"approved_by":null,"createdate":1645706747000,"updateddate":1645722213000,"globalid":null,"gisglobalid":"cK6dml5c-sBds-Pl4o-s4sn-aa4R6aaaKld4","remark":"","st_area(shape)":0.0001815534410942278,"st_perimeter(shape)":0.07849849810535323}},{"arcs":[[235,236,237,238,239,240,241,242,243,244,245,246,247,248,249,250,251,252,253,254,255,256,257]],"type":"Polygon","properties":{"objectid":172546,"statename":"Uttar Pradesh","statecode":"9","districtname":"","districtcode":"192","ulbname":"Maunath Bhanjan (Npp)","ulbcode":"801200","wardname":"Husainpura","wardcode":"29","id":null,"status":"APPROVED","misglobalid":null,"approved_by":null,"createdate":1645721668000,"updateddate":1645722222000,"globalid":null,"gisglobalid":"R4onoaa5-Qln5-PoP6-a45o-B6BPnPd54R6K","remark":"","st_area(shape)":0.000018964005969321158,"st_perimeter(shape)":0.02662026096354823}},{"arcs":[[258,259,260,261,262,263,264,265,266,267,268,269]],"type":"Polygon","properties":{"objectid":173053,"statename":"Uttar Pradesh","statecode":"9","districtname":"","districtcode":"192","ulbname":"Maunath Bhanjan (Npp)","ulbcode":"801200","wardname":"Domanpura Pashchim","wardcode":"30","id":null,"status":"APPROVED","misglobalid":null,"approved_by":null,"createdate":1645721681000,"updateddate":1645722231000,"globalid":null,"gisglobalid":"cnoBKnQl-Q64n-PamB-Qsms-sacnBso6Qm6R","remark":"","st_area(shape)":0.000027342844800923695,"st_perimeter(shape)":0.02938198928653239}},{"arcs":[[-202,270,271,272,273,-197,274,275,276,277,278,279,280,-29,281,282]],"type":"Polygon","properties":{"objectid":175994,"statename":"Uttar Pradesh","statecode":"9","districtname":"","districtcode":"192","ulbname":"Maunath Bhanjan (Npp)","ulbcode":"801200","wardname":"Madanpura Dakshin","wardcode":"31","id":null,"status":"APPROVED","misglobalid":null,"approved_by":null,"createdate":1645721694000,"updateddate":1645722244000,"globalid":null,"gisglobalid":"os6Qsmao-cBaQ-PQQd-smon-d6BnKom6cP6P","remark":"","st_area(shape)":0.00003627245130422302,"st_perimeter(shape)":0.02857797965944011}},{"arcs":[[283,284,285,286,287,288,289,290,291,292,293,294,295,296,297,298,299,-253,300,-251,301,302,303,304,305]],"type":"Polygon","properties":{"objectid":175995,"statename":"Uttar Pradesh","statecode":"9","districtname":"","districtcode":"192","ulbname":"Maunath Bhanjan (Npp)","ulbcode":"801200","wardname":"Chhitanpura","wardcode":"32","id":null,"status":"APPROVED","misglobalid":null,"approved_by":null,"createdate":1645721706000,"updateddate":1645722254000,"globalid":null,"gisglobalid":"mPs4Qa4d-na54-PK45-sdns-ln4B6s4QPR6P","remark":"","st_area(shape)":0.000023223943904500237,"st_perimeter(shape)":0.023975428805379104}},{"arcs":[[-112,306,307,-109,308,-107,309,310,-104,311,312,313,314,315,316,317,-165,318,319]],"type":"Polygon","properties":{"objectid":175997,"statename":"Uttar Pradesh","statecode":"9","districtname":"","districtcode":"192","ulbname":"Maunath Bhanjan (Npp)","ulbcode":"801200","wardname":"Munshipura Purvi","wardcode":"33","id":null,"status":"APPROVED","misglobalid":null,"approved_by":null,"createdate":1645721719000,"updateddate":1645722270000,"globalid":null,"gisglobalid":"Qn4sQBBR-QBmm-Pm4l-sdKc-c6caQQcnPmda","remark":"","st_area(shape)":0.000020406349321238328,"st_perimeter(shape)":0.021242383299279875}},{"arcs":[[-97,320,321,322,323,324,325,326,327,328,329,330,331,-15,332,333,-12,334,-188,335,336,-185,337,338,-182,339]],"type":"Polygon","properties":{"objectid":172547,"statename":"Uttar Pradesh","statecode":"9","districtname":"","districtcode":"192","ulbname":"Maunath Bhanjan (Npp)","ulbcode":"801200","wardname":"Bhojmamman Doyam","wardcode":"34","id":null,"status":"APPROVED","misglobalid":null,"approved_by":null,"createdate":1645721734000,"updateddate":1645722285000,"globalid":null,"gisglobalid":"cc6R4doa-4B5l-PQc6-a5KB-clnmonK5lKm5","remark":"","st_area(shape)":0.000022331535505605124,"st_perimeter(shape)":0.020950788031850225}},{"arcs":[[340,-16,-332,341,342,343,-328,344,345,346,347,348,349,350,351,352,353,354,355,356,357,358,359,360,361,362,363,364,365,366,367,368,369,-18]],"type":"Polygon","properties":{"objectid":172549,"statename":"Uttar Pradesh","statecode":"9","districtname":"","districtcode":"192","ulbname":"Maunath Bhanjan (Npp)","ulbcode":"801200","wardname":"Bulakipura","wardcode":"35","id":null,"status":"APPROVED","misglobalid":null,"approved_by":null,"createdate":1645721749000,"updateddate":1645722295000,"globalid":null,"gisglobalid":"aQo6Rdam-Kc4B-P5dm-QP55-Ps45n5aRmsB4","remark":"","st_area(shape)":0.00002274363672813506,"st_perimeter(shape)":0.027136995934968204}},{"arcs":[[370,371,372,373,374,375,376,377,378]],"type":"Polygon","properties":{"objectid":173054,"statename":"Uttar Pradesh","statecode":"9","districtname":"","districtcode":"192","ulbname":"Maunath Bhanjan (Npp)","ulbcode":"801200","wardname":"Neyaz Muhammad Pura","wardcode":"36","id":null,"status":"APPROVED","misglobalid":null,"approved_by":null,"createdate":1645721763000,"updateddate":1645722307000,"globalid":null,"gisglobalid":"Kc6dacla-mBsP-PPPR-sRnR-PmPKQQQnnPsa","remark":"","st_area(shape)":0.000015453318290910883,"st_perimeter(shape)":0.018370543742055576}},{"arcs":[[379,-376,380,381,382,383,384,385,386,387,388,389,390,391,-175,392]],"type":"Polygon","properties":{"objectid":162553,"statename":"Uttar Pradesh","statecode":"9","districtname":"","districtcode":"192","ulbname":"Maunath Bhanjan (Npp)","ulbcode":"801200","wardname":"Malik Tahir Pura","wardcode":"37","id":null,"status":"APPROVED","misglobalid":null,"approved_by":null,"createdate":1645721802000,"updateddate":1645722333000,"globalid":null,"gisglobalid":"dPs5nQaP-omo4-PsKK-RQnm-cms5R6laocPc","remark":"","st_area(shape)":0.000011512724330433361,"st_perimeter(shape)":0.01464021170424049}},{"arcs":[[393,394,395,396,397,398,399,400,401,402]],"type":"Polygon","properties":{"objectid":173055,"statename":"Uttar Pradesh","statecode":"9","districtname":"","districtcode":"192","ulbname":"Maunath Bhanjan (Npp)","ulbcode":"801200","wardname":"Mirzahadipura","wardcode":"38","id":null,"status":"APPROVED","misglobalid":null,"approved_by":null,"createdate":1645721817000,"updateddate":1645722319000,"globalid":null,"gisglobalid":"nmRR6mdK-a6cP-PBdR-sca4-K6ooBosm5asR","remark":"","st_area(shape)":0.00001571713227012191,"st_perimeter(shape)":0.017094507612658644}},{"arcs":[[403,404,-269,405,-267,406,407,408,-394,409,410,-401]],"type":"Polygon","properties":{"objectid":175998,"statename":"Uttar Pradesh","statecode":"9","districtname":"","districtcode":"192","ulbname":"Maunath Bhanjan (Npp)","ulbcode":"801200","wardname":"Domanpura Purvi","wardcode":"39","id":null,"status":"APPROVED","misglobalid":null,"approved_by":null,"createdate":1645721831000,"updateddate":1645722341000,"globalid":null,"gisglobalid":"sdcRasmo-655o-Pcnm-Qsac-4RsRodPQmKB5","remark":"","st_area(shape)":0.000013572844768773317,"st_perimeter(shape)":0.020413837254807447}},{"arcs":[[411,412,413,414,415,-350,416,417,418,419,420,421]],"type":"Polygon","properties":{"objectid":172550,"statename":"Uttar Pradesh","statecode":"9","districtname":"","districtcode":"192","ulbname":"Maunath Bhanjan (Npp)","ulbcode":"801200","wardname":"Kasimpura","wardcode":"40","id":null,"status":"APPROVED","misglobalid":null,"approved_by":null,"createdate":1645721844000,"updateddate":1645722351000,"globalid":null,"gisglobalid":"cnQcm4od-KsPK-PaoR-scc5-4nc46c6PsKda","remark":"","st_area(shape)":0.000010668057194944509,"st_perimeter(shape)":0.015073967171671532}},{"arcs":[[422,423,424,425,426,427,428,-242,429,-240,430,-238,431,432,-258,433,-256,434,435,436,-296,437,-294,438,-292,439,-290,440,441,-287,-364,442,443,444,445,446,-358,447,-356,448]],"type":"Polygon","properties":{"objectid":175999,"statename":"Uttar Pradesh","statecode":"9","districtname":"","districtcode":"192","ulbname":"Maunath Bhanjan (Npp)","ulbcode":"801200","wardname":"Pahadpura","wardcode":"41","id":null,"status":"APPROVED","misglobalid":null,"approved_by":null,"createdate":1645721859000,"updateddate":1645722366000,"globalid":null,"gisglobalid":"PPm4Rlmo-4655-Pm6m-Qcod-4dnsPQnK6Pn5","remark":"","st_area(shape)":0.000010773428178388907,"st_perimeter(shape)":0.023571396375884887}},{"arcs":[[-369,449,450]],"type":"Polygon","properties":{"objectid":173056,"statename":"Uttar Pradesh","statecode":"9","districtname":"","districtcode":"192","ulbname":"Maunath Bhanjan (Npp)","ulbcode":"801200","wardname":"Raghunathpura","wardcode":"42","id":null,"status":"APPROVED","misglobalid":null,"approved_by":null,"createdate":1645721872000,"updateddate":1645722380000,"globalid":null,"gisglobalid":"sacs5oK4-slPo-PooR-Q5aR-Q65PK6sc6aaQ","remark":"","st_area(shape)":0.0000097307884385893,"st_perimeter(shape)":0.013984131429738467}}]}}}