{"type": "FeatureCollection", "features": [{"type": "Feature", "geometry": {"type": "Polygon", "coordinates": [[[82.1639, 27.4179], [82.1644, 27.4172], [82.1653, 27.4169], [82.166, 27.4169], [82.1656, 27.4157], [82.166, 27.4158], [82.1663, 27.4155], [82.1659, 27.415], [82.1649, 27.4137], [82.1641, 27.4128], [82.1626, 27.412], [82.1617, 27.4117], [82.1614, 27.4111], [82.1608, 27.4106], [82.1601, 27.4099], [82.1591, 27.4104], [82.1591, 27.4107], [82.1589, 27.4111], [82.1596, 27.4117], [82.1608, 27.4128], [82.16, 27.4133], [82.1591, 27.4142], [82.1618, 27.4163], [82.1639, 27.4179]]]}, "properties": {"objectid": 115238, "statename": "Uttar Pradesh", "statecode": "9", "districtname": "Balrampur", "districtcode": "182", "ulbname": "Npp Balrampur", "ulbcode": "801129", "wardname": "Bhagwatiganj Dakshni", "wardcode": "1", "id": null, "status": "APPROVED", "misglobalid": null, "approved_by": null, "createdate": 1643614930000, "updateddate": 1643616926000, "globalid": null, "gisglobalid": "6o4maa6c-6Qdn-P5n6-R6cQ-dm4RdB6mlo4n", "remark": "Ok", "st_area(shape)": 2.7676456659173973e-05, "st_perimeter(shape)": 0.02584707464266849}}, {"type": "Feature", "geometry": {"type": "Polygon", "coordinates": [[[82.1853, 27.434], [82.1854, 27.4335], [82.1851, 27.4333], [82.1851, 27.4331], [82.1852, 27.4323], [82.1851, 27.432], [82.1845, 27.4317], [82.1832, 27.4315], [82.1824, 27.4313], [82.1835, 27.4307], [82.183, 27.4299], [82.1821, 27.4302], [82.1819, 27.43], [82.1811, 27.4305], [82.1804, 27.4308], [82.1789, 27.4317], [82.1778, 27.4322], [82.177, 27.4327], [82.1776, 27.4338], [82.1777, 27.434], [82.178, 27.4338], [82.1785, 27.4345], [82.1794, 27.4351], [82.1806, 27.4362], [82.1827, 27.435], [82.1838, 27.435], [82.1853, 27.434]]]}, "properties": {"objectid": 113260, "statename": "Uttar Pradesh", "statecode": "9", "districtname": "Balrampur", "districtcode": "182", "ulbname": "Npp Balrampur", "ulbcode": "801129", "wardname": "Tulsi Park", "wardcode": "2", "id": null, "status": "APPROVED", "misglobalid": null, "approved_by": null, "createdate": 1643615245000, "updateddate": 1643616939000, "globalid": null, "gisglobalid": "cs56cBnB-RRcl-PK4m-a6nl-m6dRBRPnKKR5", "remark": "Ok", "st_area(shape)": 2.9914396132566696e-05, "st_perimeter(shape)": 0.024710941277599503}}, {"type": "Feature", "geometry": {"type": "Polygon", "coordinates": [[[82.1901, 27.4259], [82.1903, 27.4264], [82.1907, 27.4272], [82.1917, 27.4269], [82.1928, 27.4266], [82.1935, 27.4264], [82.1947, 27.4262], [82.1954, 27.4258], [82.1962, 27.4253], [82.1955, 27.4245], [82.1964, 27.4238], [82.196, 27.4231], [82.1968, 27.4228], [82.197, 27.4225], [82.1972, 27.4226], [82.198, 27.4223], [82.1981, 27.4222], [82.1979, 27.4218], [82.1969, 27.4217], [82.1958, 27.4216], [82.1955, 27.4215], [82.1949, 27.4203], [82.1944, 27.4195], [82.1938, 27.42], [82.1943, 27.421], [82.1939, 27.4213], [82.1932, 27.4217], [82.1921, 27.4224], [82.1918, 27.4229], [82.1915, 27.4237], [82.191, 27.4244], [82.1904, 27.4248], [82.1903, 27.4248], [82.1903, 27.4249], [82.1898, 27.4252], [82.1901, 27.4259]]]}, "properties": {"objectid": 110124, "statename": "Uttar Pradesh", "statecode": "9", "districtname": "Balrampur", "districtcode": "182", "ulbname": "Npp Balrampur", "ulbcode": "801129", "wardname": "Khalwa Dakshni", "wardcode": "3", "id": null, "status": "APPROVED", "misglobalid": null, "approved_by": null, "createdate": 1643615245000, "updateddate": 1643616948000, "globalid": null, "gisglobalid": "asmoKBQm-PPP6-PsKd-aPod-B5KQQ4mdclm6", "remark": "Ok", "st_area(shape)": 2.761183984938064e-05, "st_perimeter(shape)": 0.0269316117764425}}, {"type": "Feature", "geometry": {"type": "Polygon", "coordinates": [[[82.1899, 27.4323], [82.1896, 27.4324], [82.1895, 27.4324], [82.1894, 27.4324], [82.1893, 27.4324], [82.188, 27.4324], [82.1878, 27.4323], [82.1853, 27.4321], [82.1851, 27.4333], [82.1854, 27.4335], [82.1853, 27.434], [82.1849, 27.4343], [82.1839, 27.435], [82.1844, 27.4352], [82.1894, 27.4361], [82.1907, 27.4363], [82.1925, 27.4365], [82.1923, 27.4362], [82.1911, 27.4344], [82.1901, 27.4323], [82.1899, 27.4323]]]}, "properties": {"objectid": 116045, "statename": "Uttar Pradesh", "statecode": "9", "districtname": "Balrampur", "districtcode": "182", "ulbname": "Npp Balrampur", "ulbcode": "801129", "wardname": "Nayi Basti", "wardcode": "4", "id": null, "status": "APPROVED", "misglobalid": null, "approved_by": null, "createdate": 1643616864000, "updateddate": 1643616964000, "globalid": null, "gisglobalid": "BnmcmKdB-R46m-PBal-sPns-s45K6Bmod6Bo", "remark": "Ok", "st_area(shape)": 2.1920708789303827e-05, "st_perimeter(shape)": 0.02221437588641069}}, {"type": "Feature", "geometry": {"type": "MultiPolygon", "coordinates": [[[[82.1601, 27.4099], [82.162, 27.4115], [82.1621, 27.4117], [82.1642, 27.4128], [82.165, 27.4138], [82.1664, 27.4153], [82.1673, 27.4159], [82.1685, 27.4166], [82.1693, 27.4161], [82.1698, 27.4166], [82.1698, 27.4177], [82.1694, 27.4185], [82.1696, 27.4194], [82.1702, 27.422], [82.1706, 27.424], [82.1721, 27.4234], [82.1722, 27.4218], [82.1727, 27.4208], [82.1755, 27.4185], [82.1753, 27.4178], [82.1759, 27.4164], [82.1785, 27.4141], [82.1801, 27.412], [82.1849, 27.4116], [82.185, 27.4113], [82.185, 27.4095], [82.1837, 27.4094], [82.1807, 27.4091], [82.1776, 27.4083], [82.1735, 27.4072], [82.1697, 27.4061], [82.167, 27.4052], [82.1661, 27.4049], [82.1658, 27.4055], [82.1653, 27.4066], [82.1649, 27.4072], [82.164, 27.4077], [82.1601, 27.4099]]], [[[82.1601, 27.4099]]]]}, "properties": {"objectid": 115258, "statename": "Uttar Pradesh", "statecode": "9", "districtname": "Balrampur", "districtcode": "182", "ulbname": "Npp Balrampur", "ulbcode": "801129", "wardname": "Vishnupuri Reserve", "wardcode": "5", "id": null, "status": "APPROVED", "misglobalid": null, "approved_by": null, "createdate": 1643616864000, "updateddate": 1643616974000, "globalid": null, "gisglobalid": "5n4sP4a6-aKno-PcdR-ssdl-QK6dPc4Bl4cR", "remark": "Ok", "st_area(shape)": 0.00018735706738910165, "st_perimeter(shape)": 0.0711257803893142}}, {"type": "Feature", "geometry": {"type": "Polygon", "coordinates": [[[82.1696, 27.4378], [82.1699, 27.4386], [82.17, 27.4387], [82.1704, 27.4385], [82.171, 27.4381], [82.1718, 27.4377], [82.1729, 27.4371], [82.1734, 27.4369], [82.1735, 27.437], [82.1741, 27.4367], [82.174, 27.4361], [82.1754, 27.4354], [82.1772, 27.4343], [82.1777, 27.434], [82.1769, 27.4327], [82.1723, 27.4356], [82.1696, 27.4378]]]}, "properties": {"objectid": 116443, "statename": "Uttar Pradesh", "statecode": "9", "districtname": "Balrampur", "districtcode": "182", "ulbname": "Npp Balrampur", "ulbcode": "801129", "wardname": "Pahalwara", "wardcode": "6", "id": null, "status": "APPROVED", "misglobalid": null, "approved_by": null, "createdate": 1643616864000, "updateddate": 1643617004000, "globalid": null, "gisglobalid": "QKcBPlQa-6no6-PKKo-Qno5-lnndddc55o4a", "remark": "Ok", "st_area(shape)": 1.2808674331787382e-05, "st_perimeter(shape)": 0.021104168704757176}}, {"type": "Feature", "geometry": {"type": "MultiPolygon", "coordinates": [[[[82.1695, 27.4378], [82.1701, 27.4373], [82.1726, 27.4353], [82.175, 27.4337], [82.1748, 27.4337], [82.1747, 27.4334], [82.1737, 27.4318], [82.1729, 27.4315], [82.1706, 27.4312], [82.1711, 27.4296], [82.171, 27.4287], [82.1713, 27.4273], [82.1717, 27.4269], [82.1714, 27.4271], [82.1701, 27.4283], [82.1685, 27.4297], [82.1677, 27.4303], [82.166, 27.431], [82.165, 27.4309], [82.1637, 27.4316], [82.1631, 27.4315], [82.1622, 27.432], [82.1618, 27.4323], [82.1627, 27.4337], [82.1639, 27.4354], [82.1645, 27.4361], [82.1654, 27.4356], [82.1659, 27.4359], [82.1663, 27.4366], [82.1672, 27.4365], [82.168, 27.4362], [82.1682, 27.436], [82.1684, 27.4363], [82.1688, 27.4368], [82.1692, 27.4373], [82.1695, 27.4378]]], [[[82.1695, 27.4378]]], [[[82.175, 27.4337], [82.1751, 27.4338], [82.175, 27.4337]]], [[[82.175, 27.4337], [82.1751, 27.4337], [82.175, 27.4337]]]]}, "properties": {"objectid": 110134, "statename": "Uttar Pradesh", "statecode": "9", "districtname": "Balrampur", "districtcode": "182", "ulbname": "Npp Balrampur", "ulbcode": "801129", "wardname": "Achalpur Neelbagh", "wardcode": "7", "id": null, "status": "APPROVED", "misglobalid": null, "approved_by": null, "createdate": 1643616864000, "updateddate": 1643617322000, "globalid": null, "gisglobalid": "cms55dsd-5mKK-PQnK-Q5sR-msQB5Qa5sd4P", "remark": "Ok", "st_area(shape)": 6.307919713601117e-05, "st_perimeter(shape)": 0.04006120331947465}}, {"type": "Feature", "geometry": {"type": "Polygon", "coordinates": [[[82.185, 27.4208], [82.1858, 27.4214], [82.1863, 27.422], [82.1878, 27.4223], [82.1883, 27.4225], [82.1887, 27.4228], [82.1891, 27.4231], [82.1892, 27.4232], [82.1899, 27.4227], [82.1904, 27.4224], [82.191, 27.4225], [82.1918, 27.4227], [82.1923, 27.4222], [82.1935, 27.4214], [82.1942, 27.421], [82.1938, 27.42], [82.1944, 27.4194], [82.1944, 27.4191], [82.1938, 27.4183], [82.1936, 27.4179], [82.1919, 27.415], [82.1916, 27.4146], [82.1903, 27.4139], [82.1894, 27.4134], [82.1886, 27.4126], [82.1881, 27.412], [82.1877, 27.4118], [82.1867, 27.4117], [82.1858, 27.4118], [82.1851, 27.4117], [82.1849, 27.4117], [82.185, 27.4123], [82.1849, 27.4131], [82.185, 27.414], [82.1849, 27.4154], [82.1848, 27.4165], [82.1847, 27.4185], [82.1848, 27.4195], [82.1849, 27.4204], [82.185, 27.4208]]]}, "properties": {"objectid": 116442, "statename": "Uttar Pradesh", "statecode": "9", "districtname": "Balrampur", "districtcode": "182", "ulbname": "Npp Balrampur", "ulbcode": "801129", "wardname": "Gadurahwa Dakshini", "wardcode": "8", "id": null, "status": "APPROVED", "misglobalid": null, "approved_by": null, "createdate": 1643616864000, "updateddate": 1643617249000, "globalid": null, "gisglobalid": "l4R64Blm-cRl4-PsPR-aQKR-5laQammssm4n", "remark": "Ok", "st_area(shape)": 7.758984066045328e-05, "st_perimeter(shape)": 0.035278822851173196}}, {"type": "Feature", "geometry": {"type": "Polygon", "coordinates": [[[82.1704, 27.424], [82.1699, 27.4216], [82.1696, 27.4199], [82.1691, 27.4186], [82.1694, 27.4182], [82.1697, 27.4176], [82.1696, 27.4167], [82.1693, 27.4162], [82.1683, 27.4169], [82.1676, 27.4165], [82.1671, 27.4161], [82.1663, 27.4155], [82.1659, 27.4158], [82.1657, 27.4158], [82.1662, 27.4169], [82.1659, 27.4171], [82.1654, 27.4169], [82.1649, 27.417], [82.1645, 27.4172], [82.1644, 27.4174], [82.164, 27.418], [82.1645, 27.4183], [82.1667, 27.4199], [82.1677, 27.4206], [82.1686, 27.4216], [82.1692, 27.4225], [82.1696, 27.4231], [82.1698, 27.4235], [82.1699, 27.425], [82.1699, 27.4256], [82.1698, 27.426], [82.1689, 27.428], [82.1697, 27.4281], [82.1702, 27.4282], [82.1716, 27.4269], [82.1719, 27.4266], [82.1705, 27.4243], [82.1704, 27.424]]]}, "properties": {"objectid": 115261, "statename": "Uttar Pradesh", "statecode": "9", "districtname": "Balrampur", "districtcode": "182", "ulbname": "Npp Balrampur", "ulbcode": "801129", "wardname": "Bhagwatiganj Uttari", "wardcode": "9", "id": null, "status": "APPROVED", "misglobalid": null, "approved_by": null, "createdate": 1643616864000, "updateddate": 1643617228000, "globalid": null, "gisglobalid": "n5KKBBcs-d4Rm-PR66-aBds-4ldcdn446sBd", "remark": "Ok", "st_area(shape)": 2.6825932041098507e-05, "st_perimeter(shape)": 0.03602139938276986}}, {"type": "Feature", "geometry": {"type": "Polygon", "coordinates": [[[82.1906, 27.4272], [82.1903, 27.4265], [82.19, 27.4257], [82.1895, 27.4245], [82.1888, 27.4246], [82.188, 27.4249], [82.1874, 27.4255], [82.1867, 27.4258], [82.1871, 27.4267], [82.1877, 27.4281], [82.1893, 27.4276], [82.1906, 27.4272]]]}, "properties": {"objectid": 114843, "statename": "Uttar Pradesh", "statecode": "9", "districtname": "Balrampur", "districtcode": "182", "ulbname": "Npp Balrampur", "ulbcode": "801129", "wardname": "Terhi Bazar", "wardcode": "10", "id": null, "status": "APPROVED", "misglobalid": null, "approved_by": null, "createdate": 1643616864000, "updateddate": 1643617284000, "globalid": null, "gisglobalid": "nc66QlPn-BPKa-Pooo-amlQ-KBm4moKPaolQ", "remark": "Ok", "st_area(shape)": 8.740628637623091e-06, "st_perimeter(shape)": 0.011796676670194003}}, {"type": "Feature", "geometry": {"type": "Polygon", "coordinates": [[[82.1776, 27.43], [82.1782, 27.4301], [82.1789, 27.4303], [82.1791, 27.43], [82.1793, 27.4296], [82.179, 27.4288], [82.1786, 27.4289], [82.1776, 27.4286], [82.1772, 27.4285], [82.1769, 27.4283], [82.1762, 27.4281], [82.176, 27.428], [82.1757, 27.4279], [82.1751, 27.4278], [82.1747, 27.4276], [82.1741, 27.4274], [82.1737, 27.4271], [82.1735, 27.4268], [82.1732, 27.4267], [82.173, 27.4263], [82.1729, 27.426], [82.1725, 27.4255], [82.1723, 27.4251], [82.1726, 27.4248], [82.1724, 27.4244], [82.1723, 27.4238], [82.1722, 27.4236], [82.1718, 27.4237], [82.1714, 27.4239], [82.1711, 27.424], [82.171, 27.424], [82.1704, 27.4242], [82.1711, 27.4253], [82.1721, 27.4263], [82.1718, 27.4269], [82.1722, 27.4273], [82.1742, 27.4291], [82.1764, 27.4305], [82.1775, 27.4299], [82.1776, 27.43]]]}, "properties": {"objectid": 116046, "statename": "Uttar Pradesh", "statecode": "9", "districtname": "Balrampur", "districtcode": "182", "ulbname": "Npp Balrampur", "ulbcode": "801129", "wardname": "Naushahra Chikini", "wardcode": "11", "id": null, "status": "APPROVED", "misglobalid": null, "approved_by": null, "createdate": 1643616864000, "updateddate": 1643617216000, "globalid": null, "gisglobalid": "nRmcQ4lR-sRoo-PP6n-aBno-anl5P46cd5ss", "remark": "Ok", "st_area(shape)": 1.5213313916280058e-05, "st_perimeter(shape)": 0.025186917708055125}}, {"type": "Feature", "geometry": {"type": "MultiPolygon", "coordinates": [[[[82.1922, 27.4268], [82.1918, 27.4269], [82.1926, 27.428], [82.1932, 27.4289], [82.1936, 27.4294], [82.1936, 27.4299], [82.1956, 27.4292], [82.1949, 27.4282], [82.1965, 27.4277], [82.1974, 27.4274], [82.1982, 27.427], [82.1986, 27.4267], [82.1993, 27.4266], [82.1998, 27.4264], [82.2001, 27.4264], [82.2003, 27.4263], [82.2003, 27.426], [82.2, 27.4255], [82.1996, 27.4249], [82.1993, 27.4245], [82.1991, 27.424], [82.1988, 27.4234], [82.1985, 27.4229], [82.1983, 27.4225], [82.1982, 27.4223], [82.1981, 27.4223], [82.1979, 27.4224], [82.1974, 27.4226], [82.1972, 27.4226], [82.197, 27.4226], [82.1969, 27.4227], [82.1967, 27.4228], [82.1964, 27.423], [82.1961, 27.4231], [82.196, 27.4231], [82.1962, 27.4234], [82.1964, 27.4237], [82.1964, 27.4238], [82.1964, 27.4239], [82.1959, 27.4243], [82.1956, 27.4245], [82.1963, 27.4253], [82.1962, 27.4254], [82.1953, 27.4259], [82.195, 27.4261], [82.1947, 27.4262], [82.1941, 27.4263], [82.1936, 27.4264], [82.1933, 27.4264], [82.193, 27.4266], [82.1927, 27.4268], [82.1922, 27.4268]]], [[[82.1919, 27.4269], [82.1922, 27.4268], [82.192, 27.4269], [82.1919, 27.4269]]]]}, "properties": {"objectid": 115256, "statename": "Uttar Pradesh", "statecode": "9", "districtname": "Balrampur", "districtcode": "182", "ulbname": "Npp Balrampur", "ulbcode": "801129", "wardname": "Khalwa Uttari", "wardcode": "12", "id": null, "status": "APPROVED", "misglobalid": null, "approved_by": null, "createdate": 1643616864000, "updateddate": 1643617204000, "globalid": null, "gisglobalid": "QRnKaRQm-nlmQ-P45n-RPK6-dn5444BRaoa4", "remark": "Ok", "st_area(shape)": 2.5258188841422203e-05, "st_perimeter(shape)": 0.027804668611751845}}, {"type": "Feature", "geometry": {"type": "Polygon", "coordinates": [[[82.1722, 27.4235], [82.1725, 27.4243], [82.1729, 27.426], [82.1743, 27.4274], [82.1786, 27.4287], [82.1822, 27.428], [82.1827, 27.4282], [82.1831, 27.4271], [82.1837, 27.4252], [82.1855, 27.4237], [82.1851, 27.4225], [82.1847, 27.4196], [82.1846, 27.4188], [82.1847, 27.4173], [82.1849, 27.4147], [82.1848, 27.4117], [82.1802, 27.4121], [82.1787, 27.4141], [82.178, 27.4147], [82.176, 27.4164], [82.1758, 27.4171], [82.1754, 27.4178], [82.1756, 27.4185], [82.1743, 27.4196], [82.1732, 27.4206], [82.1731, 27.4207], [82.1727, 27.4211], [82.1727, 27.4212], [82.1726, 27.4212], [82.1726, 27.4213], [82.1723, 27.4222], [82.1722, 27.4235]]]}, "properties": {"objectid": 112863, "statename": "Uttar Pradesh", "statecode": "9", "districtname": "Balrampur", "districtcode": "182", "ulbname": "Npp Balrampur", "ulbcode": "801129", "wardname": "Andhiyaribagh", "wardcode": "13", "id": null, "status": "APPROVED", "misglobalid": null, "approved_by": null, "createdate": 1643607302000, "updateddate": 1643613926000, "globalid": null, "gisglobalid": "Pssm5PK5-d4oK-PRcR-RK6o-loQQ6RonRQPd", "remark": "Ok", "st_area(shape)": 0.00015601275626122635, "st_perimeter(shape)": 0.050410095303050524}}, {"type": "Feature", "geometry": {"type": "Polygon", "coordinates": [[[82.1774, 27.4324], [82.1785, 27.4318], [82.1796, 27.4312], [82.1804, 27.4308], [82.1797, 27.4305], [82.1784, 27.4302], [82.1775, 27.43], [82.1764, 27.4305], [82.1756, 27.4301], [82.1745, 27.4294], [82.1738, 27.4288], [82.1731, 27.4282], [82.1723, 27.4274], [82.1717, 27.4269], [82.1713, 27.4275], [82.1711, 27.4288], [82.1711, 27.4299], [82.1706, 27.4312], [82.1728, 27.4314], [82.1737, 27.4317], [82.1742, 27.4324], [82.1749, 27.4336], [82.1755, 27.4335], [82.1774, 27.4324]]]}, "properties": {"objectid": 115260, "statename": "Uttar Pradesh", "statecode": "9", "districtname": "Balrampur", "districtcode": "182", "ulbname": "Npp Balrampur", "ulbcode": "801129", "wardname": "Bus Station", "wardcode": "14", "id": null, "status": "APPROVED", "misglobalid": null, "approved_by": null, "createdate": 1643616864000, "updateddate": 1643617185000, "globalid": null, "gisglobalid": "d6QmdKl4-mclo-PRmP-RoaQ-nn45Bo5Pld5Q", "remark": "Ok", "st_area(shape)": 2.498452446496232e-05, "st_perimeter(shape)": 0.026160440170360715}}, {"type": "Feature", "geometry": {"type": "Polygon", "coordinates": [[[82.1825, 27.4313], [82.1829, 27.4314], [82.1881, 27.4323], [82.1879, 27.4321], [82.1875, 27.4311], [82.1872, 27.4303], [82.1874, 27.4302], [82.1863, 27.4296], [82.1852, 27.43], [82.1835, 27.4308], [82.1825, 27.4313]]]}, "properties": {"objectid": 115259, "statename": "Uttar Pradesh", "statecode": "9", "districtname": "Balrampur", "districtcode": "182", "ulbname": "Npp Balrampur", "ulbcode": "801129", "wardname": "Aspatal Ward", "wardcode": "15", "id": null, "status": "APPROVED", "misglobalid": null, "approved_by": null, "createdate": 1643616864000, "updateddate": 1643617175000, "globalid": null, "gisglobalid": "o56PoRnn-s6aa-PR5m-RnP4-mcmR54olK5Qs", "remark": "Ok", "st_area(shape)": 7.599546521185897e-06, "st_perimeter(shape)": 0.013456521061575775}}, {"type": "Feature", "geometry": {"type": "Polygon", "coordinates": [[[82.1926, 27.4366], [82.1967, 27.4371], [82.1984, 27.4373], [82.1984, 27.4369], [82.1984, 27.4367], [82.1985, 27.4365], [82.1984, 27.4364], [82.1983, 27.4361], [82.1975, 27.4354], [82.1975, 27.4352], [82.1984, 27.4347], [82.1987, 27.4347], [82.1993, 27.435], [82.1993, 27.4346], [82.1993, 27.4341], [82.1993, 27.4337], [82.1994, 27.4334], [82.1995, 27.433], [82.1985, 27.433], [82.1985, 27.4329], [82.1973, 27.431], [82.1976, 27.4309], [82.199, 27.4305], [82.199, 27.4299], [82.1991, 27.4297], [82.1999, 27.4292], [82.2004, 27.429], [82.1999, 27.4281], [82.2003, 27.4276], [82.2, 27.4267], [82.1999, 27.4265], [82.1986, 27.4268], [82.1983, 27.427], [82.1973, 27.4275], [82.1962, 27.4278], [82.195, 27.4283], [82.1956, 27.4292], [82.1945, 27.4296], [82.1936, 27.43], [82.1932, 27.4309], [82.1926, 27.4313], [82.1916, 27.4316], [82.1902, 27.4323], [82.1912, 27.4344], [82.1926, 27.4366]]]}, "properties": {"objectid": 111809, "statename": "Uttar Pradesh", "statecode": "9", "districtname": "Balrampur", "districtcode": "182", "ulbname": "Npp Balrampur", "ulbcode": "801129", "wardname": "Poorabtola Poorvi", "wardcode": "16", "id": null, "status": "APPROVED", "misglobalid": null, "approved_by": null, "createdate": 1643616864000, "updateddate": 1643617165000, "globalid": null, "gisglobalid": "coB5Kso5-sBdl-PRPP-soQ6-dPP6PmK6nods", "remark": "Ok", "st_area(shape)": 5.950165794928089e-05, "st_perimeter(shape)": 0.040481476248815075}}, {"type": "Feature", "geometry": {"type": "Polygon", "coordinates": [[[82.1907, 27.4319], [82.19, 27.4306], [82.1903, 27.4304], [82.1897, 27.429], [82.1883, 27.4298], [82.1872, 27.4303], [82.1874, 27.4308], [82.1878, 27.4315], [82.188, 27.4319], [82.1879, 27.4321], [82.188, 27.4322], [82.1881, 27.4323], [82.1895, 27.4324], [82.1903, 27.4321], [82.1907, 27.4319]]]}, "properties": {"objectid": 110133, "statename": "Uttar Pradesh", "statecode": "9", "districtname": "Balrampur", "districtcode": "182", "ulbname": "Npp Balrampur", "ulbcode": "801129", "wardname": "Nai Bazar Uttari", "wardcode": "17", "id": null, "status": "APPROVED", "misglobalid": null, "approved_by": null, "createdate": 1643616864000, "updateddate": 1643617153000, "globalid": null, "gisglobalid": "l4Qa4oBK-odPP-PmKn-Q4PB-RdnBRadKm4Kn", "remark": "Ok", "st_area(shape)": 7.339650395575005e-06, "st_perimeter(shape)": 0.011227463314632466}}, {"type": "Feature", "geometry": {"type": "Polygon", "coordinates": [[[82.1864, 27.4296], [82.1863, 27.4293], [82.1861, 27.4287], [82.185, 27.4287], [82.1845, 27.4279], [82.1834, 27.4286], [82.1834, 27.429], [82.1819, 27.4299], [82.1821, 27.4301], [82.183, 27.4298], [82.1835, 27.4307], [82.1847, 27.4302], [82.1864, 27.4296]]]}, "properties": {"objectid": 116047, "statename": "Uttar Pradesh", "statecode": "9", "districtname": "Balrampur", "districtcode": "182", "ulbname": "Npp Balrampur", "ulbcode": "801129", "wardname": "Nagar Palika Ward", "wardcode": "18", "id": null, "status": "APPROVED", "misglobalid": null, "approved_by": null, "createdate": 1643616864000, "updateddate": 1643617139000, "globalid": null, "gisglobalid": "PdomQ56R-nmmR-Plmd-RdmB-QKPsnlRmQP4l", "remark": "Ok", "st_area(shape)": 5.61761837625122e-06, "st_perimeter(shape)": 0.011725781906657379}}, {"type": "Feature", "geometry": {"type": "Polygon", "coordinates": [[[82.1882, 27.4298], [82.1877, 27.4282], [82.1871, 27.4268], [82.1867, 27.4259], [82.1861, 27.427], [82.1854, 27.4273], [82.1845, 27.4278], [82.185, 27.4286], [82.1861, 27.4287], [82.1864, 27.4296], [82.1874, 27.4302], [82.1882, 27.4298]]]}, "properties": {"objectid": 113268, "statename": "Uttar Pradesh", "statecode": "9", "districtname": "Balrampur", "districtcode": "182", "ulbname": "Npp Balrampur", "ulbcode": "801129", "wardname": "Sabjimandi Ward", "wardcode": "19", "id": null, "status": "APPROVED", "misglobalid": null, "approved_by": null, "createdate": 1643616864000, "updateddate": 1643617122000, "globalid": null, "gisglobalid": "n5ldcdPa-lnl6-PccP-QBaP-s66sonalaadB", "remark": "Ok", "st_area(shape)": 6.868784736976624e-06, "st_perimeter(shape)": 0.0121701406526612}}, {"type": "Feature", "geometry": {"type": "Polygon", "coordinates": [[[82.1883, 27.4297], [82.1898, 27.429], [82.1904, 27.4287], [82.1912, 27.4286], [82.1906, 27.4273], [82.1889, 27.4279], [82.1878, 27.4282], [82.1879, 27.4286], [82.1883, 27.4297]]]}, "properties": {"objectid": 115257, "statename": "Uttar Pradesh", "statecode": "9", "districtname": "Balrampur", "districtcode": "182", "ulbname": "Npp Balrampur", "ulbcode": "801129", "wardname": "Nai Barak Dakshini", "wardcode": "20", "id": null, "status": "APPROVED", "misglobalid": null, "approved_by": null, "createdate": 1643616864000, "updateddate": 1643617111000, "globalid": null, "gisglobalid": "odnsaldl-4PRn-PdBd-R6Ql-nKc5Bo4ammoo", "remark": "Ok", "st_area(shape)": 4.288295962974756e-06, "st_perimeter(shape)": 0.00919119853055631}}, {"type": "Feature", "geometry": {"type": "Polygon", "coordinates": [[[82.1789, 27.4303], [82.1797, 27.4304], [82.1804, 27.4307], [82.181, 27.4305], [82.1834, 27.429], [82.1833, 27.4286], [82.1824, 27.4281], [82.1822, 27.4281], [82.1813, 27.4284], [82.1809, 27.4286], [82.1797, 27.4287], [82.179, 27.4287], [82.1793, 27.4295], [82.1793, 27.4297], [82.179, 27.4302], [82.1789, 27.4303]]]}, "properties": {"objectid": 116044, "statename": "Uttar Pradesh", "statecode": "9", "districtname": "Balrampur", "districtcode": "182", "ulbname": "Npp Balrampur", "ulbcode": "801129", "wardname": "Kovind Bagh", "wardcode": "21", "id": null, "status": "APPROVED", "misglobalid": null, "approved_by": null, "createdate": 1643616864000, "updateddate": 1643617099000, "globalid": null, "gisglobalid": "dPcPa6QK-ldP6-Pla5-Qodo-RQsKssPacQBP", "remark": "Ok", "st_area(shape)": 6.769945473437833e-06, "st_perimeter(shape)": 0.011668002532265293}}, {"type": "Feature", "geometry": {"type": "Polygon", "coordinates": [[[82.1907, 27.4319], [82.1909, 27.4318], [82.1918, 27.4314], [82.1926, 27.4313], [82.1931, 27.4308], [82.1936, 27.43], [82.1936, 27.4294], [82.1932, 27.429], [82.1928, 27.4286], [82.1923, 27.4277], [82.1918, 27.4269], [82.1907, 27.4273], [82.1909, 27.4277], [82.1913, 27.4286], [82.1904, 27.4287], [82.1897, 27.429], [82.1904, 27.4304], [82.19, 27.4307], [82.1907, 27.4319]]]}, "properties": {"objectid": 111807, "statename": "Uttar Pradesh", "statecode": "9", "districtname": "Balrampur", "districtcode": "182", "ulbname": "Npp Balrampur", "ulbcode": "801129", "wardname": "Poorabtola Pashchimi", "wardcode": "22", "id": null, "status": "APPROVED", "misglobalid": null, "approved_by": null, "createdate": 1643616864000, "updateddate": 1643617088000, "globalid": null, "gisglobalid": "RcsdBQn6-dQcd-PPc5-soBR-56a65KBBsdK5", "remark": "Ok", "st_area(shape)": 1.1131415145356452e-05, "st_perimeter(shape)": 0.014979679286360183}}, {"type": "Feature", "geometry": {"type": "Polygon", "coordinates": [[[82.1864, 27.4251], [82.1869, 27.4248], [82.1872, 27.4245], [82.1877, 27.4243], [82.1881, 27.4238], [82.1886, 27.4236], [82.1891, 27.4233], [82.1891, 27.4231], [82.1887, 27.423], [82.1885, 27.4228], [82.1877, 27.4223], [82.187, 27.4222], [82.1863, 27.4221], [82.1857, 27.4215], [82.1852, 27.421], [82.1851, 27.4208], [82.1853, 27.4223], [82.1854, 27.4231], [82.1857, 27.4237], [82.1864, 27.4251]]]}, "properties": {"objectid": 116048, "statename": "Uttar Pradesh", "statecode": "9", "districtname": "Balrampur", "districtcode": "182", "ulbname": "Npp Balrampur", "ulbcode": "801129", "wardname": "Baluha", "wardcode": "23", "id": null, "status": "APPROVED", "misglobalid": null, "approved_by": null, "createdate": 1643616864000, "updateddate": 1643617073000, "globalid": null, "gisglobalid": "ncn5Q5Rm-oo6R-PnQQ-aQ5a-K4QodKadl5ml", "remark": "Ok", "st_area(shape)": 7.2967194700540115e-06, "st_perimeter(shape)": 0.012820632877884418}}, {"type": "Feature", "geometry": {"type": "Polygon", "coordinates": [[[82.1833, 27.4286], [82.1834, 27.4285], [82.1845, 27.4278], [82.1861, 27.4269], [82.1867, 27.4259], [82.1865, 27.4256], [82.1862, 27.4251], [82.1859, 27.4244], [82.1855, 27.4237], [82.1845, 27.4246], [82.1837, 27.4253], [82.1831, 27.4271], [82.1827, 27.4283], [82.1833, 27.4286]]]}, "properties": {"objectid": 113269, "statename": "Uttar Pradesh", "statecode": "9", "districtname": "Balrampur", "districtcode": "182", "ulbname": "Npp Balrampur", "ulbcode": "801129", "wardname": "Gadurahwa Uttari", "wardcode": "24", "id": null, "status": "APPROVED", "misglobalid": null, "approved_by": null, "createdate": 1643616864000, "updateddate": 1643617055000, "globalid": null, "gisglobalid": "mKQ656cB-osaB-PQlm-Qo46-aoaosscaccRK", "remark": "Ok", "st_area(shape)": 9.662648663702335e-06, "st_perimeter(shape)": 0.013058385531189756}}, {"type": "Feature", "geometry": {"type": "Polygon", "coordinates": [[[82.1867, 27.4258], [82.1866, 27.4258], [82.1874, 27.4254], [82.1878, 27.4249], [82.1883, 27.4247], [82.1895, 27.4244], [82.1898, 27.4251], [82.1903, 27.4248], [82.1904, 27.4247], [82.191, 27.4244], [82.1915, 27.4237], [82.1918, 27.4228], [82.1909, 27.4225], [82.1905, 27.4225], [82.19, 27.4228], [82.1893, 27.4232], [82.1888, 27.4236], [82.1882, 27.4238], [82.1881, 27.4241], [82.1877, 27.4244], [82.1874, 27.4245], [82.187, 27.4247], [82.187, 27.4248], [82.1864, 27.4252], [82.1867, 27.4258]]]}, "properties": {"objectid": 111808, "statename": "Uttar Pradesh", "statecode": "9", "districtname": "Balrampur", "districtcode": "182", "ulbname": "Npp Balrampur", "ulbcode": "801129", "wardname": "Purani Bazar", "wardcode": "25", "id": null, "status": "APPROVED", "misglobalid": null, "approved_by": null, "createdate": 1643616864000, "updateddate": 1643617031000, "globalid": null, "gisglobalid": "lo5m5QKn-5mQc-PQmo-a4Bs-sQoPB4smBdB4", "remark": "Ok", "st_area(shape)": 6.549516941807516e-06, "st_perimeter(shape)": 0.01432169946388457}}]}
