{"type":"Topology","arcs":[[[2477,99999],[18694,-74314],[-20045,-16439],[10811,41438],[-11937,39384],[2477,9931]],[[21621,17123],[-9234,-342]],[[12387,16781],[9234,342]],[[23648,32191],[1127,-3082]],[[24775,29109],[1351,-3082]],[[26126,26027],[-2478,6164]],[[29955,31849],[-2027,-2740]],[[27928,29109],[2027,2740]],[[26126,26027],[-1351,3082]],[[23648,32191],[4280,-3082]],[[27928,29109],[2027,2740]],[[29955,31849],[4955,16781],[23198,5479],[-676,-43835],[42567,6164],[-225,-13698],[-23874,6164],[-47297,2740],[-2477,14383]],[[22748,14726],[-1802,685]],[[20946,15411],[-3829,0]],[[17117,15411],[4504,1712]],[[21621,17123],[1127,-2397]],[[20946,15411],[1802,-685]],[[22748,14726],[-1802,685]],[[17117,15411],[-3604,-5822]],[[13513,9589],[-1126,7192]],[[12387,16781],[4730,-1370]]],"transform":{"scale":[4.440044400443604e-7,2.920029200291948e-7],"translate":[75.2827,30.6765]},"objects":{"wards":{"type":"GeometryCollection","geometries":[{"arcs":[[0]],"type":"Polygon","properties":{"objectid":32354,"statename":"Punjab","statecode":"3","districtname":null,"districtcode":"42","ulbname":"Badhni Kalan (Np)","ulbcode":"800200","wardname":"","wardcode":"1","id":null,"status":"APPROVED","misglobalid":null,"approved_by":"ULB Nodal Officer","createdate":1636612951000,"updateddate":1636615058000,"globalid":"nalP6Klc-KPao-P4Q6-RQKd-QondnBBQQlKo","gisglobalid":"65be0d4f-6d01-47d3-9898-5f0d35b28e4d","remark":"Ward No.1 Is Approved By Ulb","st_area(shape)":0.000082039645557999,"st_perimeter(shape)":0.06836019651220025}},{"arcs":[[1,2]],"type":"Polygon","properties":{"objectid":32355,"statename":"Punjab","statecode":"3","districtname":null,"districtcode":"42","ulbname":"Badhni Kalan (Np)","ulbcode":"800200","wardname":"","wardcode":"2","id":null,"status":"APPROVED","misglobalid":null,"approved_by":"ULB Nodal Officer","createdate":1636612980000,"updateddate":1636615085000,"globalid":"RcnnlcBa-c4B4-PQoB-RP6o-5n4RnadlQlsa","gisglobalid":"bdae004a-ecc9-49b6-9256-65a31ac80b14","remark":"Ward No.2 Is Approved By Ulb","st_area(shape)":0.000007714327757595264,"st_perimeter(shape)":0.013437238472162187}},{"arcs":[[3,4,5]],"type":"Polygon","properties":{"objectid":34578,"statename":"Punjab","statecode":"3","districtname":"Moga","districtcode":"42","ulbname":"Badhni Kalan (Np)","ulbcode":"800200","wardname":"Bhajan Basti & Amp; Power House","wardcode":"3","id":null,"status":"APPROVED","misglobalid":null,"approved_by":null,"createdate":1656923878000,"updateddate":1657104452000,"globalid":"BlmsnBPa-5c4n-P66m-sKc6-6c5KncQKnm4K","gisglobalid":"nnaRBsl4-PKsn-P4PK-Rdno-Qc6QBo6c4dc6","remark":"Ok","st_area(shape)":0.000004131688194968979,"st_perimeter(shape)":0.00971130958018249}},{"arcs":[[6,7]],"type":"Polygon","properties":{"objectid":32357,"statename":"Punjab","statecode":"3","districtname":null,"districtcode":"42","ulbname":"Badhni Kalan (Np)","ulbcode":"800200","wardname":"","wardcode":"4","id":null,"status":"APPROVED","misglobalid":null,"approved_by":"ULB Nodal Officer","createdate":1636613160000,"updateddate":1636615098000,"globalid":"n4aPQcnl-dK6d-PPls-RsKd-clo6l5nPcBBR","gisglobalid":"be889d2d-7b29-4619-a6e4-7ec1781b20f2","remark":"Ward No.4 Is Approved By Ulb","st_area(shape)":0.0000809649775015596,"st_perimeter(shape)":0.0598975537709671}},{"arcs":[[8,-4,9,10,11]],"type":"Polygon","properties":{"objectid":32358,"statename":"Punjab","statecode":"3","districtname":null,"districtcode":"42","ulbname":"Badhni Kalan (Np)","ulbcode":"800200","wardname":"","wardcode":"5","id":null,"status":"APPROVED","misglobalid":null,"approved_by":"ULB Nodal Officer","createdate":1636613194000,"updateddate":1636615113000,"globalid":"oaKK6dPB-mKRc-Pd6a-soRl-alalds5ssc4m","gisglobalid":"66e5b93b-90e2-4b9b-84f2-cd5fc69b97ac","remark":"Ward No.5 Is Approved By Ulb","st_area(shape)":0.00018133620476202205,"st_perimeter(shape)":0.10608093602686196}},{"type":null,"properties":{"objectid":33567,"statename":"Punjab","statecode":"3","districtname":null,"districtcode":"42","ulbname":"Badhni Kalan (Np)","ulbcode":"800200","wardname":"","wardcode":"6","id":null,"status":"APPROVED","misglobalid":null,"approved_by":"ULB Nodal Officer","createdate":1636613840000,"updateddate":1636615019000,"globalid":"KcPK5dlK-Kndo-PQ6a-amco-nsKQo4sPodRo","gisglobalid":"e1d6916f-35ea-44aa-be0a-4ee2585120db","remark":"Ward No.6 Is Approved By Ulb","st_area(shape)":0.00007965685063175127,"st_perimeter(shape)":0.06675025772700756}},{"arcs":[[12,13,14,15]],"type":"Polygon","properties":{"objectid":32359,"statename":"Punjab","statecode":"3","districtname":null,"districtcode":"42","ulbname":"Badhni Kalan (Np)","ulbcode":"800200","wardname":"","wardcode":"7","id":null,"status":"APPROVED","misglobalid":null,"approved_by":"ULB Nodal Officer","createdate":1636613860000,"updateddate":1636615148000,"globalid":"KaPRllcd-Qsn4-PB4m-RnB4-n6cKQoKBPmcP","gisglobalid":"080fb8df-f8be-4f35-8eb2-44a01452de91","remark":"Ward No.7 Is Approved By Ulb","st_area(shape)":0.000004127993431570191,"st_perimeter(shape)":0.012856986517738162}},{"arcs":[[16,17]],"type":"Polygon","properties":{"objectid":32765,"statename":"Punjab","statecode":"3","districtname":null,"districtcode":"42","ulbname":"Badhni Kalan (Np)","ulbcode":"800200","wardname":"","wardcode":"8","id":null,"status":"APPROVED","misglobalid":null,"approved_by":"ULB Nodal Officer","createdate":1636613880000,"updateddate":1636615185000,"globalid":"dB4naBQ6-aKRQ-PnQn-RmQ4-5n65alKmKm55","gisglobalid":"fe731d30-e40d-4725-9902-bc91865ad2cd","remark":"Ward No.8 Is Approved By Ulb","st_area(shape)":0.000011985574895009445,"st_perimeter(shape)":0.01692464147319593}},{"type":null,"properties":{"objectid":32360,"statename":"Punjab","statecode":"3","districtname":null,"districtcode":"42","ulbname":"Badhni Kalan (Np)","ulbcode":"800200","wardname":"","wardcode":"9","id":null,"status":"APPROVED","misglobalid":null,"approved_by":"ULB Nodal Officer","createdate":1636613901000,"updateddate":1636615199000,"globalid":"PBRmsBln-o4aB-Poa4-a5no-4QBoRoa5sQRo","gisglobalid":"5423d7fa-86d8-4878-8f6f-14ae4d57ad24","remark":"Ward No.9 Is Approved By Ulb","st_area(shape)":0.0000784341874693544,"st_perimeter(shape)":0.07857595284329247}},{"type":null,"properties":{"objectid":32361,"statename":"Punjab","statecode":"3","districtname":null,"districtcode":"42","ulbname":"Badhni Kalan (Np)","ulbcode":"800200","wardname":"","wardcode":"10","id":null,"status":"APPROVED","misglobalid":null,"approved_by":"ULB Nodal Officer","createdate":1636613923000,"updateddate":1636615212000,"globalid":"lsla5cPm-slmB-P4Pa-aRa4-oPoclaaPQ4BB","gisglobalid":"27c915df-a15b-4f67-9be8-b52fa0723487","remark":"Ward No.10 Is Approved By Ulb","st_area(shape)":0.000023849670917719156,"st_perimeter(shape)":0.02178245304462631}},{"type":null,"properties":{"objectid":32362,"statename":"Punjab","statecode":"3","districtname":null,"districtcode":"42","ulbname":"Badhni Kalan (Np)","ulbcode":"800200","wardname":"","wardcode":"11","id":null,"status":"APPROVED","misglobalid":null,"approved_by":"ULB Nodal Officer","createdate":1636613945000,"updateddate":1636615225000,"globalid":"64RsnQa5-KKRQ-PoR5-snRd-PondoP4aad6c","gisglobalid":"14c15920-d4f3-4073-a4b6-fb3f1bc52cc6","remark":"Ward No.11 Is Approved By Ulb","st_area(shape)":0.0000033614710669481803,"st_perimeter(shape)":0.007273030471272484}},{"type":null,"properties":{"objectid":34579,"statename":"Punjab","statecode":"3","districtname":"Moga","districtcode":"42","ulbname":"Badhni Kalan(Np)","ulbcode":"800200","wardname":"Vero Patti & Amp; Gaame Shah Dera","wardcode":"12","id":null,"status":"APPROVED","misglobalid":null,"approved_by":null,"createdate":1656928031000,"updateddate":1657104464000,"globalid":"PnddsKdB-P5KP-Plao-RaPd-maQnadQKBmsd","gisglobalid":"P4ldl6Rm-c6oB-P4s5-aKas-mKB4KQsQmsP4","remark":"Ok","st_area(shape)":0.000005069796878357322,"st_perimeter(shape)":0.010621625054581434}},{"arcs":[[18,19,20]],"type":"Polygon","properties":{"objectid":32363,"statename":"Punjab","statecode":"3","districtname":null,"districtcode":"42","ulbname":"Badhni Kalan (Np)","ulbcode":"800200","wardname":"","wardcode":"13","id":null,"status":"APPROVED","misglobalid":null,"approved_by":"ULB Nodal Officer","createdate":1636614000000,"updateddate":1636615241000,"globalid":"md4lnaQP-lsaR-PQcm-Q46Q-s6KonQm4RsPQ","gisglobalid":"5ee19f60-75cf-4c60-a4fa-415b087e71d8","remark":"Ward No.13 Is Approved By Ulb","st_area(shape)":0.000004976599135132236,"st_perimeter(shape)":0.0112433882074079}}]}}}