{"type":"Topology","arcs":[[[95999,85496],[-9778,1796]],[[86221,87292],[-5333,276]],[[80888,87568],[-10666,-690]],[[70222,86878],[-2223,138]],[[67999,87016],[-8000,967]],[[59999,87983],[-2888,276]],[[57111,88259],[-3556,967]],[[53555,89226],[-1556,-2072]],[[51999,87154],[-1111,-1519]],[[50888,85635],[-444,-967]],[[50444,84668],[-1111,-3039]],[[49333,81629],[-2222,0]],[[47111,81629],[-667,1519]],[[46444,83148],[222,415]],[[46666,83563],[-3111,828]],[[43555,84391],[-8444,1934]],[[35111,86325],[9333,3453]],[[44444,89778],[3778,2486]],[[48222,92264],[-6000,3039]],[[42222,95303],[-5778,4144],[10667,552],[12666,-1934],[7778,-2348],[15333,415],[17111,-4006],[-4000,-6630]],[[49333,81629],[1111,3039]],[[50888,85635],[1111,1519]],[[53555,89226],[3556,-967]],[[57111,88259],[2888,-276]],[[59999,87983],[8000,-967]],[[70222,86878],[10666,690]],[[80888,87568],[5333,-276]],[[86221,87292],[9778,-1796]],[[95999,85496],[-4889,-3315],[-4889,-8701]],[[86221,73480],[-1111,1934]],[[85110,75414],[222,552]],[[85332,75966],[2223,2210]],[[87555,78176],[0,691]],[[87555,78867],[-2889,4696]],[[84666,83563],[-4889,1243]],[[79777,84806],[-3778,276]],[[75999,85082],[-4889,-967]],[[71110,84115],[-2222,-552]],[[68888,83563],[1334,-3591]],[[70222,79972],[-445,-1658]],[[69777,78314],[-222,-414]],[[69555,77900],[-1111,-415]],[[68444,77485],[-11333,1382]],[[57111,78867],[-7778,2762]],[[57111,78867],[10444,-1934],[-2889,-1934]],[[64666,74999],[-3556,-414]],[[61110,74585],[-2444,-414]],[[58666,74171],[-1778,0]],[[56888,74171],[-6666,1381]],[[50222,75552],[-2667,690]],[[47555,76242],[1778,5387]],[[50222,75552],[2444,-553]],[[52666,74999],[0,-690]],[[52666,74309],[-222,-1382]],[[52444,72927],[-222,-276]],[[52222,72651],[-667,138]],[[51555,72789],[-2000,277]],[[49555,73066],[-444,0]],[[49111,73066],[-2445,552]],[[46666,73618],[889,2624]],[[47555,76242],[2667,-690]],[[45777,71270],[889,2348]],[[46666,73618],[2445,-552]],[[49555,73066],[2000,-277]],[[51555,72789],[667,-138]],[[52222,72651],[-223,-276]],[[51999,72375],[-888,-967]],[[51111,71408],[-223,-690]],[[50888,70718],[-1111,138]],[[49777,70856],[0,-277]],[[49777,70579],[-666,0]],[[49111,70579],[-3334,691]],[[51333,66436],[-1778,138]],[[49555,66574],[-1778,276]],[[47777,66850],[-3555,415]],[[44222,67265],[444,966]],[[44666,68231],[445,1796]],[[45111,70027],[666,1243]],[[45777,71270],[3334,-691]],[[49111,70579],[666,0]],[[49777,70856],[1111,-138]],[[50888,70718],[445,0]],[[51333,70718],[0,-829]],[[51333,69889],[1778,-415]],[[53111,69474],[444,-828]],[[53555,68646],[-1556,-1381]],[[51999,67265],[-666,-829]],[[52666,74999],[4000,-828]],[[56666,74171],[-444,-967]],[[56222,73204],[-223,-967]],[[55999,72237],[-222,-1105]],[[55777,71132],[-444,-1105]],[[55333,70027],[-4000,691]],[[51111,71408],[888,967]],[[52444,72927],[222,1382]],[[55333,69198],[-222,276]],[[55111,69474],[222,553]],[[55333,70027],[444,1105]],[[55777,71132],[222,1105]],[[55999,72237],[223,967]],[[56666,74171],[222,0]],[[58666,74171],[1778,276]],[[60444,74447],[-1778,-4420]],[[58666,70027],[-444,-691]],[[58222,69336],[-1556,277]],[[56666,69613],[-889,138],[-444,-553]],[[55999,66021],[-1777,139]],[[54222,66160],[-1778,276]],[[52444,66436],[-1111,0]],[[51333,66436],[666,829]],[[51999,67265],[1556,1381]],[[53111,69474],[-1778,415]],[[51333,70718],[4000,-691]],[[55111,69474],[444,-276]],[[55555,69198],[889,-1657]],[[56444,67541],[-222,-829]],[[56222,66712],[-223,-691]],[[58888,67679],[-1111,-829]],[[57777,66850],[0,-276]],[[57777,66574],[-444,-691]],[[57333,65883],[-1334,138]],[[56222,66712],[222,829]],[[55555,69198],[-222,0]],[[56666,69613],[1556,-277]],[[58666,70027],[1778,4420]],[[60444,74447],[666,138]],[[61110,74585],[3556,414]],[[64666,74999],[-222,-3453]],[[64444,71546],[-889,-967]],[[63555,70579],[-445,-966]],[[63110,69613],[-222,-139]],[[62888,69474],[-222,-690]],[[62666,68784],[-667,-1105]],[[61999,67679],[-666,-414]],[[61333,67265],[-445,138]],[[60888,67403],[-1777,414]],[[59111,67817],[-223,-138]],[[61333,67265],[666,414]],[[62666,68784],[222,690]],[[63110,69613],[445,966]],[[64444,71546],[222,3453]],[[64666,74999],[3778,2486]],[[69555,77900],[0,-3729]],[[69555,74171],[0,-4420]],[[69555,69751],[889,-1658]],[[70444,68093],[-445,0]],[[69999,68093],[-1111,138]],[[68888,68231],[-3333,277]],[[65555,68508],[-222,-967]],[[65333,67541],[-223,-691]],[[65110,66850],[-2222,276]],[[62888,67126],[0,-276]],[[62888,66850],[-889,138]],[[61999,66988],[-666,277]],[[67777,63673],[667,1796]],[[68444,65469],[-2222,276]],[[66222,65745],[-1556,-276]],[[64666,65469],[-3556,138]],[[61110,65607],[0,1658]],[[61110,67265],[223,0]],[[61999,66988],[889,-138]],[[62888,67126],[2222,-276]],[[65110,66850],[223,691]],[[65333,67541],[222,967]],[[68888,68231],[1111,-138]],[[70444,68093],[-889,1658]],[[69555,69751],[0,4420]],[[69555,74171],[0,3729]],[[69777,78314],[445,1658]],[[68888,83563],[2222,552]],[[71110,84115],[4889,967]],[[75999,85082],[3778,-276]],[[79777,84806],[4889,-1243]],[[84666,83563],[2889,-4696]],[[87555,78176],[-2223,-2210]],[[85110,75414],[1111,-1934]],[[86221,73480],[-3777,-8564],[-11111,0],[-2223,-2209]],[[69110,62707],[-1777,138]],[[67333,62845],[444,828]],[[61999,62845],[223,1243]],[[62222,64088],[-223,967]],[[61999,65055],[-889,0]],[[61110,65055],[0,552]],[[61110,65607],[3556,-138]],[[64666,65469],[1556,276]],[[68444,65469],[-667,-1796]],[[67333,62845],[1777,-138]],[[69110,62707],[-2444,-5940]],[[66666,56767],[-1333,277]],[[65333,57044],[1777,4972]],[[67110,62016],[-3555,552]],[[63555,62568],[-1556,277]],[[58444,64640],[667,276]],[[59111,64916],[-2000,277]],[[57111,65193],[222,690]],[[57333,65883],[444,691]],[[57777,66850],[1111,829]],[[59111,67817],[1777,-414]],[[60888,67403],[222,-138]],[[61110,65607],[0,-552]],[[61110,65055],[889,0]],[[62222,64088],[-1778,552]],[[60444,64640],[-222,138]],[[60222,64778],[-1111,138]],[[58444,64226],[-222,-553]],[[58222,63673],[222,967]],[[58444,64640],[0,-414]],[[55999,62983],[445,829]],[[56444,63812],[1778,-139]],[[60222,64778],[222,-138]],[[62222,64088],[-223,-1243]],[[63555,62568],[3555,-552]],[[65333,57044],[-2223,276]],[[63110,57320],[-4444,414]],[[58666,57734],[-889,-138]],[[57777,57596],[-3111,414]],[[54666,58010],[222,1934],[223,967]],[[55111,60911],[888,2072]],[[55999,62983],[-888,-2072]],[[55111,60911],[0,-829]],[[55111,60082],[-1334,138]],[[53777,60220],[-1778,277]],[[51999,60497],[445,966],[1111,1105]],[[53555,62568],[0,415]],[[53555,62983],[0,276]],[[53555,63259],[222,553]],[[53777,63812],[-1111,966]],[[52666,64778],[667,0]],[[53333,64778],[1111,-276]],[[54444,64502],[2000,-690]],[[56444,63812],[-445,-829]],[[57111,65193],[2000,-277]],[[58444,64226],[-222,-553]],[[58222,63673],[-1778,139]],[[54444,64502],[-1111,276]],[[53333,64778],[-3333,277]],[[50000,65055],[222,276]],[[50222,65331],[444,552]],[[50666,65883],[-222,277],[222,138],[0,138],[0,138]],[[50666,66574],[667,-138]],[[52444,66436],[1778,-276]],[[54222,66160],[1777,-139]],[[49111,61187],[-445,415]],[[48666,61602],[222,138],[445,276],[444,552]],[[49777,62568],[0,415]],[[49777,62983],[0,276]],[[49777,63259],[0,829]],[[49777,64088],[0,967]],[[49777,65055],[2889,-277]],[[53777,63812],[-222,-553]],[[53555,62983],[0,-415]],[[51999,60497],[-666,138]],[[51333,60635],[-889,138]],[[50444,60773],[-667,138]],[[49777,60911],[-666,276]],[[44000,66298],[222,967]],[[44222,67265],[3555,-415]],[[47777,66850],[1778,-276]],[[49555,66574],[1111,0]],[[50222,65331],[-222,-276]],[[50000,65055],[-223,0]],[[49777,64088],[0,-829]],[[49777,62983],[0,-415]],[[48666,61602],[-666,828]],[[48000,62430],[-889,829]],[[47111,63259],[-223,553]],[[46888,63812],[-444,828]],[[46444,64640],[-2444,1658]],[[51999,53453],[2667,4557]],[[54666,58010],[3111,-414]],[[58666,57734],[4444,-414]],[[63110,57320],[3556,-553]],[[66666,56767],[-1111,-5386],[2667,-1658],[-4889,-4972],[-2445,-6768],[-2444,-11326],[-3111,-4696],[-3556,-17127],[-2444,-4834],[-19111,1934]],[[30222,1934],[222,4281]],[[30444,6215],[1333,0]],[[31777,6215],[445,1658]],[[32222,7873],[2000,138]],[[34222,8011],[444,1381]],[[34666,9392],[1556,2348]],[[36222,11740],[3555,4834]],[[39777,16574],[0,415]],[[39777,16989],[-1555,552]],[[38222,17541],[444,1105]],[[38666,18646],[445,691]],[[39111,19337],[889,829]],[[40000,20166],[222,1105]],[[40222,21271],[0,828]],[[40222,22099],[889,2348]],[[41111,24447],[0,1520]],[[41111,25967],[2666,6077]],[[43777,32044],[445,276]],[[44222,32320],[1333,2348]],[[45555,34668],[445,2072]],[[46000,36740],[1555,3591]],[[47555,40331],[1333,4834]],[[48888,45165],[3111,8288]],[[46444,64640],[444,-828]],[[47111,63259],[889,-829]],[[48000,62430],[666,-552],[445,-691]],[[49777,60911],[667,-138]],[[51333,60635],[1333,-276],[1111,-139]],[[55111,60082],[-445,-2072]],[[54666,58010],[-444,-966]],[[54222,57044],[-6000,1105],[-3778,828]],[[44444,58977],[-3111,691]],[[41333,59668],[-1778,414]],[[39555,60082],[3778,4282]],[[43333,64364],[667,1934]],[[54222,57044],[-2223,-3591]],[[51999,53453],[-3111,-8288]],[[48888,45165],[-1333,-4834]],[[47555,40331],[-1555,-3591]],[[46000,36740],[-445,-2072]],[[45555,34668],[-1333,-2348]],[[43777,32044],[-2666,-6077]],[[41111,25967],[0,-1520]],[[41111,24447],[-889,-2348]],[[40222,22099],[0,-828]],[[40000,20166],[-889,-829]],[[38666,18646],[-444,-1105]],[[38222,17541],[1555,-552]],[[39777,16574],[-3555,-4834]],[[36222,11740],[-1556,-2348]],[[34222,8011],[-2000,-138]],[[32222,7873],[-445,-1658]],[[30444,6215],[-222,-4281]],[[30222,1934],[-15555,414],[3333,8563],[-1778,3592],[5333,10911],[-18444,4420],[-3111,2072],[5778,9806],[7111,19475],[-4000,967],[3555,8564]],[[12444,70718],[6445,-829]],[[18889,69889],[2666,-415]],[[21555,69474],[14222,-1933]],[[35777,67541],[4000,-415]],[[39777,67126],[445,277]],[[40222,67403],[1555,-277]],[[41777,67126],[2223,-828]],[[43333,64364],[-3778,-4282]],[[39555,60082],[1778,-414]],[[44444,58977],[2444,-552],[889,-138],[667,-138],[5778,-1105]],[[45111,70303],[0,-276]],[[45111,70027],[-445,-1796]],[[44222,67265],[-222,-967]],[[44000,66298],[-2223,828]],[[40222,67403],[222,414]],[[40444,67817],[222,967]],[[40666,68784],[889,-138]],[[41555,68646],[445,1381]],[[42000,70027],[3111,276]],[[25111,80248],[444,-691]],[[25555,79557],[1778,-414]],[[27333,79143],[2000,-1658]],[[29333,77485],[1111,-1933]],[[30444,75552],[5778,-277]],[[36222,75275],[222,-138]],[[36444,75137],[222,-690],[445,-967]],[[37111,73480],[222,-553]],[[37333,72927],[222,-414]],[[37555,72513],[2222,-1795]],[[39777,70718],[1111,0]],[[40888,70718],[1112,138]],[[42000,70856],[222,0]],[[42222,70856],[0,-138]],[[42222,70718],[-667,-2072]],[[40666,68784],[-222,-967]],[[39777,67126],[-4000,415]],[[35777,67541],[-14222,1933]],[[21555,69474],[-2666,415]],[[18889,69889],[0,2762]],[[18889,72651],[0,691]],[[18889,73342],[222,1381]],[[19111,74723],[667,967]],[[19778,75690],[5333,4558]],[[46222,72651],[-445,-1381]],[[45777,71270],[-666,-967]],[[42000,70027],[222,691]],[[42222,70856],[444,2348]],[[42666,73204],[445,-138]],[[43111,73066],[889,-139]],[[44000,72927],[2222,-276]],[[42000,72927],[222,415]],[[42222,73342],[444,-138]],[[42000,70856],[-1112,-138]],[[39777,70718],[-2222,1795]],[[37333,72927],[0,139]],[[37333,73066],[1556,0]],[[38889,73066],[3111,-139]],[[42444,74309],[-222,-967]],[[42000,72927],[-3111,139]],[[37333,73066],[-222,414]],[[37111,73480],[-667,1381]],[[36444,74861],[889,0],[1111,138]],[[38444,74999],[4000,-690]],[[46222,72651],[-2222,276]],[[44000,72927],[-889,139]],[[43111,73066],[-889,276]],[[42222,73342],[222,967]],[[42444,74309],[-4000,690]],[[38444,74999],[-2000,-138]],[[36444,74861],[0,276]],[[36222,75275],[-5778,277]],[[30444,75552],[-1111,1933]],[[29333,77485],[-2000,1658]],[[27333,79143],[-1778,414]],[[25111,80248],[4000,3591]],[[29111,83839],[666,414]],[[29777,84253],[0,-138]],[[29777,84115],[1778,-690]],[[31555,83425],[445,-277]],[[32000,83148],[666,-828]],[[32666,82320],[445,-415]],[[33111,81905],[3111,-1795]],[[36222,80110],[4666,-967]],[[40888,79143],[1112,-415]],[[42000,78728],[1111,-414]],[[43111,78314],[1777,-829]],[[44888,77485],[2667,-1243]],[[47555,76242],[-1333,-3591]],[[29777,84253],[5334,2072]],[[35111,86325],[8444,-1934]],[[43555,84391],[3111,-828]],[[46444,83148],[667,-1519]],[[49333,81629],[-1778,-5387]],[[47555,76242],[-2667,1243]],[[44888,77485],[-1777,829]],[[42000,78728],[-1112,415]],[[40888,79143],[-4666,967]],[[36222,80110],[-3111,1795]],[[33111,81905],[-445,415]],[[32666,82320],[-666,828]],[[31555,83425],[-1778,690]],[[48222,92264],[-3778,-2486]],[[44444,89778],[-9333,-3453]],[[29111,83839],[-9333,-8149]],[[19111,74723],[-222,-1381]],[[18889,73342],[0,-691]],[[18889,72651],[0,-2762]],[[18889,69889],[-6445,829]],[[12444,70718],[-1111,3453],[-7111,552],[0,4420],[6889,10359],[6222,414],[10667,4696],[8666,4696],[5556,-4005]]],"transform":{"scale":[4.500045000450175e-7,7.240072400723832e-7],"translate":[81.9064,16.814]},"objects":{"wards":{"type":"GeometryCollection","geometries":[{"arcs":[[0,1,2,3,4,5,6,7,8,9,10,11,12,13,14,15,16,17,18,19]],"type":"Polygon","properties":{"objectid":46068,"statename":"Andhra Pradhesh","statecode":"28","districtname":"East Godavari","districtcode":"545","ulbname":"Mandapeta","ulbcode":"802956","wardname":"Mehar Nagar ","wardcode":"1","id":null,"status":"APPROVED","misglobalid":null,"approved_by":null,"createdate":1639568419000,"updateddate":1655112858000,"globalid":"mmsQ5dQ6-45as-P5m5-RoBa-RQdsPmK5am4a","gisglobalid":"e59e1af4-7f99-4635-9ee5-e9929199577e","remark":"","st_area(shape)":0.00018671540382367342,"st_perimeter(shape)":0.08351723953847998}},{"arcs":[[20,-10,21,-8,22,23,24,-4,25,26,27,28,29,30,31,32,33,34,35,36,37,38,39,40,41,42,43]],"type":"Polygon","properties":{"objectid":48644,"statename":"Andhra Pradhesh","statecode":"28","districtname":"East Godavari","districtcode":"545","ulbname":"Mandapeta","ulbcode":"802956","wardname":"Srinagar ","wardcode":"2","id":null,"status":"APPROVED","misglobalid":null,"approved_by":null,"createdate":1639568234000,"updateddate":1655112881000,"globalid":"555RQPBd-n5n4-Pl5P-a6oK-6sRnBomBsRKP","gisglobalid":"c1e1add2-d183-4e06-9b4d-4f0379fac4cd","remark":"","st_area(shape)":0.00008994762190708614,"st_perimeter(shape)":0.06786530172219285}},{"arcs":[[-44,44,45,46,47,48,49,50]],"type":"Polygon","properties":{"objectid":45289,"statename":"Andhra Pradhesh","statecode":"28","districtname":"East Godavari","districtcode":"545","ulbname":"Mandapeta","ulbcode":"802956","wardname":"Bapuji School Area","wardcode":"3","id":null,"status":"APPROVED","misglobalid":null,"approved_by":null,"createdate":1639568234000,"updateddate":1655112901000,"globalid":"4lB5mPad-sRQc-Pmno-Rd5n-am5BlP6mcRcd","gisglobalid":"6ed9c237-bd9b-4056-b10e-006d2331e01d","remark":"","st_area(shape)":0.000025924363277690642,"st_perimeter(shape)":0.02477435695156824}},{"arcs":[[51,52,53,54,55,56,57,58,59,60]],"type":"Polygon","properties":{"objectid":45284,"statename":"Andhra Pradhesh","statecode":"28","districtname":"East Godavari","districtcode":"545","ulbname":"Mandapeta","ulbcode":"802956","wardname":"Pallela Ramalayam Area ","wardcode":"4","id":null,"status":"APPROVED","misglobalid":null,"approved_by":null,"createdate":1639568419000,"updateddate":1655112921000,"globalid":"Ba6d4slP-d5ss-PKoQ-R6dB-PnlRBncdaaPB","gisglobalid":"fdb4ab4c-7200-435e-b902-a41e9a945219","remark":"","st_area(shape)":0.00000463801109128479,"st_perimeter(shape)":0.008983411611477405}},{"arcs":[[61,62,-58,63,64,65,66,67,68,69,70,71]],"type":"Polygon","properties":{"objectid":44879,"statename":"Andhra Pradhesh","statecode":"28","districtname":"East Godavari","districtcode":"545","ulbname":"Mandapeta","ulbcode":"802956","wardname":"Tharvanipeta Saibaba Temple Area","wardcode":"5","id":null,"status":"APPROVED","misglobalid":null,"approved_by":null,"createdate":1639568419000,"updateddate":1655112940000,"globalid":"aanl5RoR-nsd4-PR5B-QKlP-dl54nRmnBmQo","gisglobalid":"92761e34-3d41-4529-b664-b561156f15fa","remark":"","st_area(shape)":0.000004058204949813496,"st_perimeter(shape)":0.008474822992147427}},{"arcs":[[72,73,74,75,76,77,78,79,-70,80,81,82,83,84,85,86]],"type":"Polygon","properties":{"objectid":48277,"statename":"Andhra Pradhesh","statecode":"28","districtname":"East Godavari","districtcode":"545","ulbname":"Mandapeta","ulbcode":"802956","wardname":"Rama Hindu Municipal School Area ","wardcode":"6","id":null,"status":"APPROVED","misglobalid":null,"approved_by":null,"createdate":1639568234000,"updateddate":1655112966000,"globalid":"slnBRs6c-c5BK-PRod-RPo5-n545dBPB6R4l","gisglobalid":"896a9ee8-000b-4f62-8f9d-796edecebb68","remark":"","st_area(shape)":0.000009938112623367713,"st_perimeter(shape)":0.013035385900297396}},{"arcs":[[87,88,89,90,91,92,-82,-68,93,-66,-55,94,-53]],"type":"Polygon","properties":{"objectid":45283,"statename":"Andhra Pradhesh","statecode":"28","districtname":"East Godavari","districtcode":"545","ulbname":"Mandapeta","ulbcode":"802956","wardname":"Annapurna Temple Area ","wardcode":"7","id":null,"status":"APPROVED","misglobalid":null,"approved_by":null,"createdate":1639568419000,"updateddate":1655112983000,"globalid":"Koms6Rn5-54Rn-PBdB-Qsao-ooBo6s6o4lR6","gisglobalid":"27827a08-0e4f-4077-94c5-b35ea1a4e6b4","remark":"","st_area(shape)":0.0000057866420517968776,"st_perimeter(shape)":0.010182643026090527}},{"arcs":[[95,96,97,98,99,-89,100,-48,101,102,103,104,105]],"type":"Polygon","properties":{"objectid":46458,"statename":"Andhra Pradhesh","statecode":"28","districtname":"East Godavari","districtcode":"545","ulbname":"Mandapeta","ulbcode":"802956","wardname":"Kondapallivari Street Durgamma Temple Area ","wardcode":"8","id":null,"status":"APPROVED","misglobalid":null,"approved_by":null,"createdate":1639568214000,"updateddate":1655113002000,"globalid":"amQa54RP-RlRa-PQ4Q-Rnns-mB6KocQmBcss","gisglobalid":"1a6ab90c-4aee-43fb-a3c9-a7de7876fe62","remark":"","st_area(shape)":0.000005690336195422827,"st_perimeter(shape)":0.011002065594879828}},{"arcs":[[106,107,108,109,110,-85,111,-83,112,-97,113,114,115,116]],"type":"Polygon","properties":{"objectid":48641,"statename":"Andhra Pradhesh","statecode":"28","districtname":"East Godavari","districtcode":"545","ulbname":"Mandapeta","ulbcode":"802956","wardname":"Rajakula Ramalayam Area","wardcode":"9","id":null,"status":"APPROVED","misglobalid":null,"approved_by":null,"createdate":1639568234000,"updateddate":1655113019000,"globalid":"l5sQ6lal-KP56-Plo4-sQ6Q-5nRdPoccssoR","gisglobalid":"debd84cd-91c3-47b4-831e-e30b8db2ac09","remark":"","st_area(shape)":0.0000050048885207257836,"st_perimeter(shape)":0.011805515310407525}},{"arcs":[[117,118,119,120,-117,121,-115,122,-106,123,-104,124,125,126,127,128,129,130,131,132,133,134,135,136]],"type":"Polygon","properties":{"objectid":44874,"statename":"Andhra Pradhesh","statecode":"28","districtname":"East Godavari","districtcode":"545","ulbname":"Mandapeta","ulbcode":"802956","wardname":"Harijanapeta Area","wardcode":"10","id":null,"status":"APPROVED","misglobalid":null,"approved_by":null,"createdate":1639568234000,"updateddate":1655113040000,"globalid":"5oan4PaQ-RlnP-PoQl-anoR-BcsKd4sa4anl","gisglobalid":"d3749470-55e5-4242-a1b9-b9bc181518d2","remark":"","st_area(shape)":0.000012583085837165983,"st_perimeter(shape)":0.019719797867453457}},{"arcs":[[137,-133,138,-131,139,-129,140,141,-42,142,143,144,145,146,147,148,149,150,151,152,153]],"type":"Polygon","properties":{"objectid":45678,"statename":"Andhra Pradhesh","statecode":"28","districtname":"East Godavari","districtcode":"545","ulbname":"Mandapeta","ulbcode":"802956","wardname":"Kunthidevi Temple Area ","wardcode":"11","id":null,"status":"APPROVED","misglobalid":null,"approved_by":null,"createdate":1639568419000,"updateddate":1655113050000,"globalid":"B4aa5Q6o-Qdnl-PPnQ-sBPd-nnlQBBmlQRsQ","gisglobalid":"62e6fbd1-6937-4344-bb0c-4b5042f4a4a5","remark":"","st_area(shape)":0.000016614434014571763,"st_perimeter(shape)":0.02149114846200289}},{"arcs":[[154,155,156,157,158,159,-154,160,-152,161,162,163,-148,164,-146,165,166,167,-41,168,-39,169,170,171,172,173,-33,174,-31,175,176,177,178]],"type":"Polygon","properties":{"objectid":48271,"statename":"Andhra Pradhesh","statecode":"28","districtname":"East Godavari","districtcode":"545","ulbname":"Mandapeta","ulbcode":"802956","wardname":"Prakasam School New Colony Area","wardcode":"12","id":null,"status":"APPROVED","misglobalid":null,"approved_by":null,"createdate":1639568419000,"updateddate":1655113068000,"globalid":"R5K5Basn-44a5-PPca-Q5sa-K66PPKssaRda","gisglobalid":"01680480-107c-4139-9d70-803a1979f33f","remark":"","st_area(shape)":0.00010680707538530746,"st_perimeter(shape)":0.054151211103173426}},{"arcs":[[179,180,181,182,183,184,-156,185,-179,186,187,188,189,190,191]],"type":"Polygon","properties":{"objectid":46455,"statename":"Andhra Pradhesh","statecode":"28","districtname":"East Godavari","districtcode":"545","ulbname":"Mandapeta","ulbcode":"802956","wardname":"Veterinary Area And Anand Nagar Area ","wardcode":"13","id":null,"status":"APPROVED","misglobalid":null,"approved_by":null,"createdate":1639568419000,"updateddate":1655113077000,"globalid":"cRos4BQd-dn5R-Ps5d-sRKQ-BBslRnRB5Q5l","gisglobalid":"e5a1c19b-53b0-45d5-90c1-a9aa9b052be8","remark":"","st_area(shape)":0.000009128535365546873,"st_perimeter(shape)":0.019816157305491553}},{"arcs":[[[192,193,194,195,-119,196,-137,197,198,-159,199,200,-181,201,202,203,-193]],[[204,205,206]]],"type":"MultiPolygon","properties":{"objectid":48273,"statename":"Andhra Pradhesh","statecode":"28","districtname":"East Godavari","districtcode":"545","ulbname":"Mandapeta","ulbcode":"802956","wardname":"Gowthami School Area\t","wardcode":"14","id":null,"status":"APPROVED","misglobalid":null,"approved_by":null,"createdate":1639568419000,"updateddate":1655113096000,"globalid":"aKmQclm6-lda6-PodQ-sKRa-Rn4RRPlPsdom","gisglobalid":"73580aee-f219-44ae-83e8-9a446e196c2c","remark":"","st_area(shape)":0.0000032704221386493567,"st_perimeter(shape)":0.012163658686761168}},{"arcs":[[207,208,205,192,-204,209,-202,210,-192,211,-190,212,213,214,215,216,217]],"type":"Polygon","properties":{"objectid":46454,"statename":"Andhra Pradhesh","statecode":"28","districtname":"East Godavari","districtcode":"545","ulbname":"Mandapeta","ulbcode":"802956","wardname":"Msettibalija Ramalayam Area ","wardcode":"15","id":null,"status":"APPROVED","misglobalid":null,"approved_by":null,"createdate":1639568419000,"updateddate":1655113106000,"globalid":"c4n64s56-comm-P66K-aonc-KBBoRmQ54omQ","gisglobalid":"3e5eaebb-e72d-4f96-ab20-d9be02187c5e","remark":"","st_area(shape)":0.00002157213977502192,"st_perimeter(shape)":0.020062934205521535}},{"arcs":[[218,219,220,221,222,223,224,225,226,227,228,229,230]],"type":"Polygon","properties":{"objectid":48637,"statename":"Andhra Pradhesh","statecode":"28","districtname":"East Godavari","districtcode":"545","ulbname":"Mandapeta","ulbcode":"802956","wardname":"Tammavari Street Area And Kothapeta Area","wardcode":"16","id":null,"status":"APPROVED","misglobalid":null,"approved_by":null,"createdate":1639568419000,"updateddate":1655113123000,"globalid":"5sa44sRl-QRcB-PK44-R4lP-s5slBP655Bso","gisglobalid":"0440d126-9d75-4f30-b6f8-e6da7ef6e286","remark":"","st_area(shape)":0.000003776029250711516,"st_perimeter(shape)":0.01012930699223569}},{"arcs":[[-121,-195,231,-193,206,232,233,-230,234,235,236,237,238,239,-109,240,241]],"type":"Polygon","properties":{"objectid":46071,"statename":"Andhra Pradhesh","statecode":"28","districtname":"East Godavari","districtcode":"545","ulbname":"Mandapeta","ulbcode":"802956","wardname":"Gollapuntha Ramalayam And Chinna Kancharaveedhi\t","wardcode":"17","id":null,"status":"APPROVED","misglobalid":null,"approved_by":null,"createdate":1639568419000,"updateddate":1655113141000,"globalid":"6dRP5RRQ-dcnn-P4Q4-Rod4-olQP4cdKB4sl","gisglobalid":"4fe06f10-a1a3-4336-b4ff-502a1ac24c61","remark":"","st_area(shape)":0.000004403603201100592,"st_perimeter(shape)":0.010769684597803447}},{"arcs":[[242,243,244,245,246,247,248,-227,249,-225,250,-223,251,252,253,254]],"type":"Polygon","properties":{"objectid":44877,"statename":"Andhra Pradhesh","statecode":"28","districtname":"East Godavari","districtcode":"545","ulbname":"Mandapeta","ulbcode":"802956","wardname":"Jawaharlal Municipal School Area","wardcode":"18","id":null,"status":"APPROVED","misglobalid":null,"approved_by":null,"createdate":1639568419000,"updateddate":1655113162000,"globalid":"Q5Kac4Pl-odoB-PP5n-sm46-Pccmmno6aomd","gisglobalid":"bed26ae8-0a18-409b-b633-b24926d01f8a","remark":"","st_area(shape)":0.0000047958958252695976,"st_perimeter(shape)":0.009678389093297738}},{"arcs":[[255,256,257,258,-239,-238,259,260,-248,261,-246,262,-244,263,264,265,266,267]],"type":"Polygon","properties":{"objectid":46857,"statename":"Andhra Pradhesh","statecode":"28","districtname":"East Godavari","districtcode":"545","ulbname":"Mandapeta","ulbcode":"802956","wardname":"Matam Street Bhasveswara Swamy Temple Area ","wardcode":"19","id":null,"status":"APPROVED","misglobalid":null,"approved_by":null,"createdate":1639568214000,"updateddate":1655113179000,"globalid":"oBPa5coB-l5ma-PQBs-Rn5d-dK6sRlcBcdsm","gisglobalid":"2d9e1995-d52a-4231-acec-b7ce833fe43e","remark":"","st_area(shape)":0.000005981318088695962,"st_perimeter(shape)":0.011971025186485445}},{"arcs":[[268,269,-215,270,271,272,273,274,275,276,277,278,279,280,281,282,283,284,285,286,287,288,289,290,291,292,293,294,295]],"type":"Polygon","properties":{"objectid":45682,"statename":"Andhra Pradhesh","statecode":"28","districtname":"East Godavari","districtcode":"545","ulbname":"Mandapeta","ulbcode":"802956","wardname":"Marripeta Junction Area","wardcode":"20","id":null,"status":"APPROVED","misglobalid":null,"approved_by":null,"createdate":1639568419000,"updateddate":1655113202000,"globalid":"soncmaln-P56s-PQsm-a4an-ao565l5KKas4","gisglobalid":"b4e9df17-fd03-4220-b042-e489bab3181b","remark":"","st_area(shape)":0.00029686568378915675,"st_perimeter(shape)":0.10225201323795417}},{"arcs":[[-268,296,-266,297,298,-255,299,-253,300,-221,301,302,303,304,305,306,307]],"type":"Polygon","properties":{"objectid":45285,"statename":"Andhra Pradhesh","statecode":"28","districtname":"East Godavari","districtcode":"545","ulbname":"Mandapeta","ulbcode":"802956","wardname":"Ravulapeta Janardhana Municipal School Area ","wardcode":"21","id":null,"status":"APPROVED","misglobalid":null,"approved_by":null,"createdate":1639568419000,"updateddate":1655113221000,"globalid":"6mRcsQRB-4QoR-PB4P-Qsal-6lld6lQdlQPa","gisglobalid":"0c0d5a05-4a1d-414d-ab88-b03c21434e0c","remark":"","st_area(shape)":0.000019498150165245034,"st_perimeter(shape)":0.02165576078270881}},{"arcs":[[308,309,310,311,312,313,-291,314,315,316,317,-286,318,-284,319,320,-281,321,322,-278,323,324,-275,325,326,327,328,329,330,331,332,333,-308,334,335,-305,336]],"type":"Polygon","properties":{"objectid":48638,"statename":"Andhra Pradhesh","statecode":"28","districtname":"East Godavari","districtcode":"545","ulbname":"Mandapeta","ulbcode":"802956","wardname":"Medharapeta Area ","wardcode":"22","id":null,"status":"APPROVED","misglobalid":null,"approved_by":null,"createdate":1639568419000,"updateddate":1655113238000,"globalid":"6cQaQald-mRcP-PsKo-ac56-mQRaBQBQ4sBd","gisglobalid":"fd127058-4992-49e7-90ff-4f8b7fd096c2","remark":"","st_area(shape)":0.0006837802750580655,"st_perimeter(shape)":0.13729144492339965}},{"arcs":[[337,338,-76,339,340,-333,341,342,343,344,345]],"type":"Polygon","properties":{"objectid":48639,"statename":"Andhra Pradhesh","statecode":"28","districtname":"East Godavari","districtcode":"545","ulbname":"Mandapeta","ulbcode":"802956","wardname":"Alamuru Road And Medharapeta 2","wardcode":"23","id":null,"status":"APPROVED","misglobalid":null,"approved_by":null,"createdate":1639568419000,"updateddate":1655113249000,"globalid":"dlB5amco-54n6-PanR-sn6c-4o54Bmodd6Ro","gisglobalid":"1f0ad19d-667b-45ed-b354-37b46bc4393d","remark":"","st_area(shape)":0.0000039114726775632045,"st_perimeter(shape)":0.009120377980795574}},{"arcs":[[346,347,348,349,350,351,352,353,354,355,356,357,358,359,360,-344,361,-342,-332,362,363,364,365,366,367,368,369]],"type":"Polygon","properties":{"objectid":46856,"statename":"Andhra Pradhesh","statecode":"28","districtname":"East Godavari","districtcode":"545","ulbname":"Mandapeta","ulbcode":"802956","wardname":"Sydhilpeta Ramalayam Area","wardcode":"24","id":null,"status":"APPROVED","misglobalid":null,"approved_by":null,"createdate":1639568419000,"updateddate":1655113266000,"globalid":"dKsmc4Q4-oBPa-PP45-QoBR-dmKn5Qas4nBK","gisglobalid":"8840ffa7-9d54-4d12-a5b9-8359199efc9c","remark":"","st_area(shape)":0.00005547335927077527,"st_perimeter(shape)":0.0335764893524218}},{"arcs":[[370,371,-346,372,-360,373,374,375,376]],"type":"Polygon","properties":{"objectid":45280,"statename":"Andhra Pradhesh","statecode":"28","districtname":"East Godavari","districtcode":"545","ulbname":"Mandapeta","ulbcode":"802956","wardname":"Gandhinagar Ramalakshmana Lodge Area ","wardcode":"25","id":null,"status":"APPROVED","misglobalid":null,"approved_by":null,"createdate":1639568419000,"updateddate":1655113275000,"globalid":"Pald6nRK-nRd6-Pco5-saQd-s5RlQRnsRPRa","gisglobalid":"6662b97c-7d0c-46f3-a7fe-6a8c476b1617","remark":"","st_area(shape)":0.000003252076546447767,"st_perimeter(shape)":0.007409660847543499}},{"arcs":[[377,378,-374,-359,379,-357,380,-355,381,382,383]],"type":"Polygon","properties":{"objectid":46855,"statename":"Andhra Pradhesh","statecode":"28","districtname":"East Godavari","districtcode":"545","ulbname":"Mandapeta","ulbcode":"802956","wardname":"Lalbahudoor Municipal School Area ","wardcode":"26","id":null,"status":"APPROVED","misglobalid":null,"approved_by":null,"createdate":1639568419000,"updateddate":1655113292000,"globalid":"KnsR5RPo-olPl-Pssn-RKld-R4KlosdsRc5n","gisglobalid":"d4996121-0c01-4224-b6ad-8691b824c549","remark":"","st_area(shape)":0.0000028560662664880327,"st_perimeter(shape)":0.007598657016321076}},{"arcs":[[384,-378,385,-383,386,387,388,389]],"type":"Polygon","properties":{"objectid":45679,"statename":"Andhra Pradhesh","statecode":"28","districtname":"East Godavari","districtcode":"545","ulbname":"Mandapeta","ulbcode":"802956","wardname":"Pardhasaradhi Nagar Water Works Area ","wardcode":"27","id":null,"status":"APPROVED","misglobalid":null,"approved_by":null,"createdate":1639568419000,"updateddate":1655113303000,"globalid":"5oPmollc-466a-PPBB-s5cn-PQ5PRmK5asdl","gisglobalid":"bf1be395-8a26-4029-b2f3-43c1886ea2f8","remark":"","st_area(shape)":0.0000029417683578362644,"st_perimeter(shape)":0.007171175966996992}},{"arcs":[[390,391,392,393,394,395,396,-352,397,398,399,400,-347,401,402,403,404,405,406,407,408,409,410,411,412,413,414]],"type":"Polygon","properties":{"objectid":48640,"statename":"Andhra Pradhesh","statecode":"28","districtname":"East Godavari","districtcode":"545","ulbname":"Mandapeta","ulbcode":"802956","wardname":"Vegulla Veerraju Municipal School Area & Sangam\t ","wardcode":"28","id":null,"status":"APPROVED","misglobalid":null,"approved_by":null,"createdate":1639568419000,"updateddate":1655113320000,"globalid":"RR6PQBnn-RaBd-PomQ-RPdn-PBcsncPaB4lc","gisglobalid":"2727fb46-2103-4257-8153-db78b526f6b1","remark":"","st_area(shape)":0.00003617592861473665,"st_perimeter(shape)":0.02897393743160895}},{"arcs":[[415,416,417,-14,418,-12,419,420,421,-412,422,423,424,425,426,-406,427,-404]],"type":"Polygon","properties":{"objectid":48642,"statename":"Andhra Pradhesh","statecode":"28","districtname":"East Godavari","districtcode":"545","ulbname":"Mandapeta","ulbcode":"802956","wardname":"Vijayalakshmi Nagar Area ","wardcode":"29","id":null,"status":"APPROVED","misglobalid":null,"approved_by":null,"createdate":1639568419000,"updateddate":1655113337000,"globalid":"lK5c55Pl-dsP6-PQo4-a4Kl-PcKlRK56d4dd","gisglobalid":"238aea22-ef19-4af6-bde5-2c8ba52820d0","remark":"","st_area(shape)":0.00003085203112174581,"st_perimeter(shape)":0.025187563080626904}},{"arcs":[[-19,428,429,-416,-403,430,-369,431,432,433,434,435]],"type":"Polygon","properties":{"objectid":46453,"statename":"Andhra Pradhesh","statecode":"28","districtname":"East Godavari","districtcode":"545","ulbname":"Mandapeta","ulbcode":"802956","wardname":"30 Ward","wardcode":"30","id":null,"status":"APPROVED","misglobalid":null,"approved_by":null,"createdate":1639568419000,"updateddate":1655113357000,"globalid":"d4dK4aKK-al6l-PP6P-adnl-P54lQoPnsaRm","gisglobalid":"a89546fe-7fc9-4d61-b394-0b82fc7315ba","remark":"","st_area(shape)":0.0001713637281527625,"st_perimeter(shape)":0.06992947177885556}}]}}}