{"type":"Topology","arcs":[[[25833,74611],[-1250,25388],[33542,-518],[9792,-8549],[23958,-44041],[3958,-11917],[-44375,-518]],[[51458,34456],[625,5958]],[[52083,40414],[-7500,518]],[[44583,40932],[625,2073]],[[45208,43005],[2084,777]],[[47292,43782],[1875,1554]],[[49167,45336],[3958,778]],[[53125,46114],[1875,2849]],[[55000,48963],[-5625,0]],[[49375,48963],[-2083,2332]],[[47292,51295],[-8334,-2332]],[[38958,48963],[-2291,18135],[-1459,3886]],[[35208,70984],[-9375,3627]],[[51458,34456],[44584,518],[3958,-5959]],[[100000,29015],[-39792,-5440]],[[60208,23575],[-2708,777]],[[57500,24352],[-7292,4922]],[[50208,29274],[-5208,3886]],[[45000,33160],[7083,7254]],[[40208,40155],[1042,0]],[[41250,40155],[2708,0]],[[43958,40155],[625,777]],[[44583,40932],[417,-7772]],[[45000,33160],[5208,-3886]],[[50208,29274],[2917,-4145]],[[53125,25129],[-1250,518]],[[51875,25647],[-1458,519]],[[50417,26166],[-4584,2849]],[[45833,29015],[-625,259]],[[45208,29274],[-2500,0]],[[42708,29274],[-208,1814]],[[42500,31088],[-208,2331]],[[42292,33419],[-834,2332]],[[41458,35751],[-1041,1554]],[[40417,37305],[-209,259]],[[40208,37564],[0,2591]],[[41250,40155],[-1250,2591]],[[40000,42746],[2708,0]],[[42708,42746],[2500,259]],[[44583,40932],[-625,-777]],[[43958,40155],[-2708,0]],[[39792,43005],[-417,4145]],[[39375,47150],[-417,1813]],[[38958,48963],[8334,2332]],[[49375,48963],[5625,0]],[[53125,46114],[-3958,-778]],[[49167,45336],[-1875,-1554]],[[47292,43782],[-2084,-777]],[[45208,43005],[-2500,-259]],[[42708,42746],[-2916,259]],[[40000,42746],[-2292,-2073]],[[37708,40673],[-1250,777]],[[36458,41450],[-1458,518]],[[35000,41968],[-625,260]],[[34375,42228],[0,518]],[[34375,42746],[-2917,-518]],[[31458,42228],[-208,4663]],[[31250,46891],[-8333,7513]],[[22917,54404],[-3750,2331]],[[19167,56735],[-834,-518]],[[18333,56217],[-2500,0]],[[15833,56217],[-6458,5699]],[[9375,61916],[16458,12695]],[[35208,70984],[1250,-3886],[625,-3109],[625,-6995],[1042,-7513],[625,-2331]],[[39792,43005],[208,-259]],[[34583,41709],[-208,519]],[[35000,41968],[1458,-518]],[[36458,41450],[1250,-777]],[[37708,40673],[2500,-518]],[[40208,37564],[-2083,-1036]],[[38125,36528],[208,1036]],[[38333,37564],[-416,519]],[[37917,38083],[-2500,1036]],[[35417,39119],[-417,1554]],[[35000,40673],[-417,1036]],[[30833,35751],[209,2072]],[[31042,37823],[1458,-259]],[[32500,37564],[833,0]],[[33333,37564],[834,259]],[[34167,37823],[625,0]],[[34792,37823],[-1250,2591]],[[33542,40414],[1041,1295]],[[34583,41709],[417,-1036]],[[35417,39119],[2500,-1036]],[[37917,38083],[416,-519]],[[38333,37564],[-208,-1036]],[[38125,36528],[-3542,-259]],[[34583,36269],[-2708,-259]],[[31875,36010],[-1042,-259]],[[34792,37823],[-625,0]],[[33333,37564],[-833,0]],[[31042,37823],[0,1555]],[[31042,39378],[-2917,8549]],[[28125,47927],[-2292,3109]],[[25833,51036],[-3958,3368]],[[21875,54404],[-2083,1036]],[[19792,55440],[-2709,777]],[[17083,56217],[1250,0]],[[19167,56735],[3750,-2331]],[[22917,54404],[8333,-7513]],[[31250,46891],[208,-4663]],[[34375,42746],[208,-1037]],[[33542,40414],[1250,-2591]],[[31042,39378],[-2084,0]],[[28958,39378],[-2083,-1814]],[[26875,37564],[-417,519]],[[26458,38083],[-3750,3626]],[[22708,41709],[-3958,778]],[[18750,42487],[-10417,6994]],[[8333,49481],[1042,12435]],[[15833,56217],[1250,0]],[[19792,55440],[2083,-1036]],[[25833,51036],[2292,-3109]],[[26875,37564],[2083,1814]],[[28958,39378],[2084,0]],[[31042,39378],[-209,-3627]],[[30833,35751],[0,-518]],[[30833,35233],[0,-518]],[[30833,34715],[-6666,1295]],[[24167,36010],[-24167,0],[8333,13471]],[[8333,49481],[10417,-6994]],[[22708,41709],[3750,-3626]],[[30833,35233],[3750,518]],[[34583,35751],[834,-2332]],[[35417,33419],[2708,-2590]],[[38125,30829],[-14792,-24611],[-16250,9067],[3542,18652],[13542,2073]],[[24167,36010],[6666,-1295]],[[31875,36010],[2708,259]],[[38125,36528],[208,-2591]],[[38333,33937],[-208,-3108]],[[35417,33419],[-834,2332]],[[40417,37305],[1041,-1554]],[[41458,35751],[834,-2332]],[[42500,31088],[-4167,2849]],[[42500,31088],[208,-2591]],[[42708,28497],[-1666,-259]],[[41042,28238],[-3542,-20207]],[[37500,8031],[-1250,-777]],[[36250,7254],[1875,23575]],[[37500,8031],[3542,20207]],[[42708,28497],[0,777]],[[42708,29274],[2500,0]],[[45208,29274],[625,-259]],[[45833,29015],[417,-518]],[[46250,28497],[625,-5699]],[[46875,22798],[417,-5441]],[[47292,17357],[1666,-17357],[-12708,7254]],[[46250,28497],[4167,-2331]],[[50417,26166],[1458,-519]],[[51875,25647],[1250,-518]],[[53125,25129],[4375,-777]],[[57500,24352],[2708,-777]],[[60208,23575],[39792,5440]],[[100000,29015],[-28333,-20466],[-22292,-8290],[-2083,17098]],[[47292,17357],[-417,5441]],[[46875,22798],[-625,5699]]],"transform":{"scale":[4.800000000000182e-7,3.8600386003858893e-7],"translate":[75.4978,18.0191]},"objects":{"wards":{"type":"GeometryCollection","geometries":[{"arcs":[[0,1,2,3,4,5,6,7,8,9,10,11,12]],"type":"Polygon","properties":{"objectid":172383,"statename":"Maharashtra","statecode":"27","districtname":"","districtcode":"526","ulbname":"Madha","ulbcode":"900315","wardname":"Indira Nagar","wardcode":"1","id":null,"status":"APPROVED","misglobalid":null,"approved_by":null,"createdate":1645524846000,"updateddate":1646983682000,"globalid":null,"gisglobalid":"mcsacom6-lccn-Plas-QBBs-lBQadB5l5K4d","remark":"","st_area(shape)":0.000546070196916895,"st_perimeter(shape)":0.11507726952815972}},{"arcs":[[-2,13,14,15,16,17,18]],"type":"Polygon","properties":{"objectid":165234,"statename":"Maharashtra","statecode":"27","districtname":"","districtcode":"526","ulbname":"Madha","ulbcode":"900315","wardname":"Shri Ram Nagar","wardcode":"2","id":null,"status":"APPROVED","misglobalid":null,"approved_by":null,"createdate":1645525063000,"updateddate":1646983699000,"globalid":null,"gisglobalid":"5cnQ4nms-s65c-PBmQ-Rald-4daaao6KRn54","remark":"","st_area(shape)":0.00007549915843169284,"st_perimeter(shape)":0.059485498598564966}},{"arcs":[[19,20,21,22,23,24,25,26,27,28,29,30,31,32,33,34,35]],"type":"Polygon","properties":{"objectid":173974,"statename":"Maharashtra","statecode":"27","districtname":"","districtcode":"526","ulbname":"Madha","ulbcode":"900315","wardname":"Kharat Galli","wardcode":"3","id":null,"status":"APPROVED","misglobalid":null,"approved_by":null,"createdate":1645525449000,"updateddate":1646983711000,"globalid":null,"gisglobalid":"BRaQdB4n-mdmQ-PKsQ-sldK-saaPQKQnBddm","remark":"","st_area(shape)":0.000014609408258431566,"st_perimeter(shape)":0.023185869018668263}},{"arcs":[[36,37,38,-4,39,40]],"type":"Polygon","properties":{"objectid":172387,"statename":"Maharashtra","statecode":"27","districtname":"","districtcode":"526","ulbname":"Madha","ulbcode":"900315","wardname":"Mangalwar Peth","wardcode":"4","id":null,"status":"APPROVED","misglobalid":null,"approved_by":null,"createdate":1645525643000,"updateddate":1646983724000,"globalid":null,"gisglobalid":"acacP6na-PPoa-PR5s-Rn4B-Bclo5mR6omB5","remark":"","st_area(shape)":0.0000024031703998331454,"st_perimeter(shape)":0.006804325673865038}},{"arcs":[[41,42,43,-10,44,-8,45,46,47,48,49]],"type":"Polygon","properties":{"objectid":173167,"statename":"Maharashtra","statecode":"27","districtname":"","districtcode":"526","ulbname":"Madha","ulbcode":"900315","wardname":"Kranti Nagar","wardcode":"5","id":null,"status":"APPROVED","misglobalid":null,"approved_by":null,"createdate":1645525887000,"updateddate":1646983738000,"globalid":null,"gisglobalid":"5P6llQKa-dPsP-PaP6-aPnB-snaBK5s6nsmd","remark":"","st_area(shape)":0.000015542673560177913,"st_perimeter(shape)":0.018873566679978925}},{"arcs":[[50,51,52,53,54,55,56,57,58,59,60,61,62,-13,63,-42,64]],"type":"Polygon","properties":{"objectid":174367,"statename":"Maharashtra","statecode":"27","districtname":"","districtcode":"526","ulbname":"Madha","ulbcode":"900315","wardname":"Bhange Galli","wardcode":"6","id":null,"status":"APPROVED","misglobalid":null,"approved_by":null,"createdate":1645526312000,"updateddate":1646983751000,"globalid":null,"gisglobalid":"BPsPRKBR-5ncl-P6ol-RlQs-amBmmnnca65o","remark":"","st_area(shape)":0.00011856782657641471,"st_perimeter(shape)":0.054382985980694326}},{"arcs":[[65,-54,66,67,68,-36,69,70,71,72,73,74]],"type":"Polygon","properties":{"objectid":172388,"statename":"Maharashtra","statecode":"27","districtname":"","districtcode":"526","ulbname":"Madha","ulbcode":"900315","wardname":"Chaware Wada","wardcode":"7","id":null,"status":"APPROVED","misglobalid":null,"approved_by":null,"createdate":1645526447000,"updateddate":1646983761000,"globalid":null,"gisglobalid":"6scl4sQ5-Ba6l-PPlm-RP4P-m5RQ4oKBndod","remark":"","st_area(shape)":0.00000291961514862333,"st_perimeter(shape)":0.008479443231669296}},{"arcs":[[75,76,77,78,79,80,81,82,-74,83,84,85,86,87,88]],"type":"Polygon","properties":{"objectid":162451,"statename":"Maharashtra","statecode":"27","districtname":"","districtcode":"526","ulbname":"Madha","ulbcode":"900315","wardname":"Markad Wada","wardcode":"8","id":null,"status":"APPROVED","misglobalid":null,"approved_by":null,"createdate":1645526718000,"updateddate":1646983772000,"globalid":null,"gisglobalid":"m46s4PPK-nK4B-P4ln-aac6-RmQm54alsnPm","remark":"","st_area(shape)":0.000003219436720646091,"st_perimeter(shape)":0.011294231039773943}},{"arcs":[[89,-79,90,-77,91,92,93,94,95,96,97,-60,98,99,100,-56,101,-82,102]],"type":"Polygon","properties":{"objectid":162452,"statename":"Maharashtra","statecode":"27","districtname":"","districtcode":"526","ulbname":"Madha","ulbcode":"900315","wardname":"Fakir Wada","wardcode":"9","id":null,"status":"APPROVED","misglobalid":null,"approved_by":null,"createdate":1645526903000,"updateddate":1646983784000,"globalid":null,"gisglobalid":"RBQnlmam-l64c-PBcK-aoRc-nQalBBmcQmK6","remark":"","st_area(shape)":0.000007962307187131466,"st_perimeter(shape)":0.026635706515366658}},{"arcs":[[103,104,105,106,107,108,109,-62,110,-97,111,-95,112,-93]],"type":"Polygon","properties":{"objectid":172389,"statename":"Maharashtra","statecode":"27","districtname":"","districtcode":"526","ulbname":"Madha","ulbcode":"900315","wardname":"Shikalkar Galli","wardcode":"10","id":null,"status":"APPROVED","misglobalid":null,"approved_by":null,"createdate":1645527086000,"updateddate":1646983822000,"globalid":null,"gisglobalid":"4aKBPR6o-PRo6-Pa6d-sRos-4oQm4Qcdonsl","remark":"","st_area(shape)":0.00006718211915225892,"st_perimeter(shape)":0.04189261419742989}},{"arcs":[[-106,113,114,115,116,117,118,119,120,-108,121]],"type":"Polygon","properties":{"objectid":162453,"statename":"Maharashtra","statecode":"27","districtname":"","districtcode":"526","ulbname":"Madha","ulbcode":"900315","wardname":"Bajar Patangan","wardcode":"11","id":null,"status":"APPROVED","misglobalid":null,"approved_by":null,"createdate":1645527262000,"updateddate":1646983835000,"globalid":null,"gisglobalid":"Q4ndnldR-6B6l-PmlK-aa45-ndaPm5K644cc","remark":"","st_area(shape)":0.00006443328856332117,"st_perimeter(shape)":0.04604098409091406}},{"arcs":[[-118,122,123,124,125,126]],"type":"Polygon","properties":{"objectid":162454,"statename":"Maharashtra","statecode":"27","districtname":"","districtcode":"526","ulbname":"Madha","ulbcode":"900315","wardname":"Hanuman Nagar","wardcode":"12","id":null,"status":"APPROVED","misglobalid":null,"approved_by":null,"createdate":1645527433000,"updateddate":1646983861000,"globalid":null,"gisglobalid":"mmsQ4l5d-KoBa-Psc4-s5al-lm65RRl4dBml","remark":"","st_area(shape)":0.0001227599105173477,"st_perimeter(shape)":0.053582701159550106}},{"arcs":[[-117,-89,127,-87,128,129,-125,130,-123]],"type":"Polygon","properties":{"objectid":172390,"statename":"Maharashtra","statecode":"27","districtname":"","districtcode":"526","ulbname":"Madha","ulbcode":"900315","wardname":"Rajratn Nagar","wardcode":"13","id":null,"status":"APPROVED","misglobalid":null,"approved_by":null,"createdate":1645527547000,"updateddate":1646983886000,"globalid":null,"gisglobalid":"KcQ4dP6s-aocs-Pl6a-sKol-msRBBmQKmcQo","remark":"","st_area(shape)":0.0000033173876251779194,"st_perimeter(shape)":0.010766622390517502}},{"arcs":[[-129,-70,-35,131,132,-32,133]],"type":"Polygon","properties":{"objectid":172769,"statename":"Maharashtra","statecode":"27","districtname":"","districtcode":"526","ulbname":"Madha","ulbcode":"900315","wardname":"Abs Nagar","wardcode":"14","id":null,"status":"APPROVED","misglobalid":null,"approved_by":null,"createdate":1645527683000,"updateddate":1646983915000,"globalid":null,"gisglobalid":"KcRBanac-lldK-Po6B-Qmdd-sl5Roac45RKB","remark":"","st_area(shape)":0.000002949990598509511,"st_perimeter(shape)":0.008240597681369321}},{"arcs":[[-134,134,135,136,137,138,-130]],"type":"Polygon","properties":{"objectid":173976,"statename":"Maharashtra","statecode":"27","districtname":"","districtcode":"526","ulbname":"Madha","ulbcode":"900315","wardname":"Pawar Plot","wardcode":"15","id":null,"status":"APPROVED","misglobalid":null,"approved_by":null,"createdate":1645527823000,"updateddate":1646983929000,"globalid":null,"gisglobalid":"d645nal6-4sn6-Pon4-R5ll-5ccnR4Rsnn5B","remark":"","st_area(shape)":0.000050818989461392696,"st_perimeter(shape)":0.039327563911770516}},{"arcs":[[-138,139,-136,140,141,142,143,144,145,146]],"type":"Polygon","properties":{"objectid":162456,"statename":"Maharashtra","statecode":"27","districtname":"","districtcode":"526","ulbname":"Madha","ulbcode":"900315","wardname":"Shivaji Nagar","wardcode":"16","id":null,"status":"APPROVED","misglobalid":null,"approved_by":null,"createdate":1645527981000,"updateddate":1646983950000,"globalid":null,"gisglobalid":"m6BKlQaK-macc-PPol-sdls-6PmsKdBB6PPo","remark":"","st_area(shape)":0.0000569186885350715,"st_perimeter(shape)":0.034173716091794815}},{"arcs":[[147,148,149,150,151,152,153,154,155]],"type":"Polygon","properties":{"objectid":174369,"statename":"Maharashtra","statecode":"27","districtname":"","districtcode":"526","ulbname":"Madha","ulbcode":"900315","wardname":"Sanmati Nagar","wardcode":"17","id":null,"status":"APPROVED","misglobalid":null,"approved_by":null,"createdate":1645528119000,"updateddate":1646983973000,"globalid":null,"gisglobalid":"6cdKPdnR-KK5d-Pmna-QQQd-4donKmKsB6ss","remark":"","st_area(shape)":0.00013922282328686212,"st_perimeter(shape)":0.06571238041856364}}]}}}