{"type": "FeatureCollection", "features": [{"type": "Feature", "geometry": {"type": "Polygon", "coordinates": [[[74.3942, 29.2684], [74.39, 29.2691], [74.3908, 29.2717], [74.3944, 29.2718], [74.3967, 29.2717], [74.397, 29.2692], [74.397, 29.2677], [74.3969, 29.2663], [74.3956, 29.2673], [74.3942, 29.2684]]]}, "properties": {"objectid": 182900, "statename": "Rajasthan", "statecode": "8", "districtname": "Hanumangarh", "districtcode": "100", "ulbname": "Rawatsar", "ulbcode": "800457", "wardname": "Ward 1", "wardcode": "1", "id": null, "status": "APPROVED", "misglobalid": null, "approved_by": null, "createdate": 1647337585000, "updateddate": 1647337597000, "globalid": null, "gisglobalid": "mPPc4nPn-QndP-PaBm-sd4B-KBdRc64BRoPl", "remark": "", "st_area(shape)": 2.356049501263627e-05, "st_perimeter(shape)": 0.02172911123104426}}, {"type": "Feature", "geometry": {"type": "Polygon", "coordinates": [[[74.3928, 29.2635], [74.389, 29.2636], [74.39, 29.269], [74.3942, 29.2683], [74.3966, 29.2664], [74.3967, 29.2661], [74.3972, 29.265], [74.3969, 29.2639], [74.3956, 29.2632], [74.3957, 29.2627], [74.3957, 29.2623], [74.3931, 29.2623], [74.3928, 29.2635]]]}, "properties": {"objectid": 183708, "statename": "Rajasthan", "statecode": "8", "districtname": "Hanumangarh", "districtcode": "100", "ulbname": "Rawatsar", "ulbcode": "800457", "wardname": "Ward 2", "wardcode": "2", "id": null, "status": "APPROVED", "misglobalid": null, "approved_by": null, "createdate": 1647332964000, "updateddate": 1647332974000, "globalid": null, "gisglobalid": "aKaB4Rms-aQKc-PoPd-snc6-PdRRdmsQ6PRs", "remark": "Ok", "st_area(shape)": 3.791640930317666e-05, "st_perimeter(shape)": 0.025585596063250123}}, {"type": "Feature", "geometry": {"type": "Polygon", "coordinates": [[[74.3957, 29.2605], [74.3924, 29.2603], [74.3895, 29.2612], [74.3891, 29.2635], [74.3927, 29.2635], [74.393, 29.2623], [74.3948, 29.2622], [74.3954, 29.2622], [74.3957, 29.2622], [74.3958, 29.2616], [74.3957, 29.261], [74.3957, 29.2608], [74.3957, 29.2605]]]}, "properties": {"objectid": 182909, "statename": "Rajasthan", "statecode": "8", "districtname": "Hanumangarh", "districtcode": "100", "ulbname": "Rawatsar", "ulbcode": "800457", "wardname": "Ward 3", "wardcode": "3", "id": null, "status": "APPROVED", "misglobalid": null, "approved_by": null, "createdate": 1647332985000, "updateddate": 1647337551000, "globalid": null, "gisglobalid": "soc6aQRd-c5Pl-Pa65-a65B-nanadsnKnomd", "remark": "", "st_area(shape)": 1.5101716773860167e-05, "st_perimeter(shape)": 0.01794084025281317}}, {"type": "Feature", "geometry": {"type": "Polygon", "coordinates": [[[74.398, 29.2591], [74.3955, 29.2587], [74.3925, 29.2579], [74.3925, 29.2603], [74.3956, 29.2604], [74.3957, 29.2603], [74.3981, 29.2605], [74.398, 29.2591]]]}, "properties": {"objectid": 184512, "statename": "Rajasthan", "statecode": "8", "districtname": "", "districtcode": "100", "ulbname": "Rawatsar", "ulbcode": "800457", "wardname": "Ward 4", "wardcode": "4", "id": null, "status": "APPROVED", "misglobalid": null, "approved_by": null, "createdate": 1645869798000, "updateddate": 1645873553000, "globalid": null, "gisglobalid": "5dmoPl4c-6ssQ-P4Ra-Qs6m-BoQ56sKancmK", "remark": "", "st_area(shape)": 9.837899324127201e-06, "st_perimeter(shape)": 0.014944320890509158}}, {"type": "Feature", "geometry": {"type": "Polygon", "coordinates": [[[74.3984, 29.2579], [74.3949, 29.2557], [74.3919, 29.2524], [74.3907, 29.2503], [74.3891, 29.2506], [74.3926, 29.2554], [74.3925, 29.2579], [74.3959, 29.2587], [74.3968, 29.2589], [74.398, 29.2591], [74.3984, 29.2579]]]}, "properties": {"objectid": 182910, "statename": "Rajasthan", "statecode": "8", "districtname": "", "districtcode": "100", "ulbname": "Rawatsar", "ulbcode": "800457", "wardname": "Ward 5", "wardcode": "5", "id": null, "status": "APPROVED", "misglobalid": null, "approved_by": null, "createdate": 1645869807000, "updateddate": 1645873567000, "globalid": null, "gisglobalid": "amnsmPPs-sQ5K-PKoB-snKP-BP4dQmP4l5d5", "remark": "", "st_area(shape)": 2.199195751799191e-05, "st_perimeter(shape)": 0.027877981351571622}}, {"type": "Feature", "geometry": {"type": "Polygon", "coordinates": [[[74.3968, 29.2567], [74.3985, 29.2516], [74.3962, 29.2515], [74.3949, 29.2511], [74.3928, 29.2515], [74.3924, 29.2506], [74.3924, 29.2503], [74.3908, 29.2504], [74.392, 29.2524], [74.3949, 29.2555], [74.3968, 29.2567]]]}, "properties": {"objectid": 182511, "statename": "Rajasthan", "statecode": "8", "districtname": "", "districtcode": "100", "ulbname": "Rawatsar", "ulbcode": "800457", "wardname": "Ward 6", "wardcode": "6", "id": null, "status": "APPROVED", "misglobalid": null, "approved_by": null, "createdate": 1645869819000, "updateddate": 1645873606000, "globalid": null, "gisglobalid": "4odRQncK-Kaac-PPRB-aB5s-oldl5sKnoanK", "remark": "", "st_area(shape)": 2.2946879103168235e-05, "st_perimeter(shape)": 0.023014963063968847}}, {"type": "Feature", "geometry": {"type": "Polygon", "coordinates": [[[74.3968, 29.2568], [74.4024, 29.2592], [74.404, 29.2564], [74.4006, 29.2551], [74.401, 29.2518], [74.4003, 29.2516], [74.3985, 29.2516], [74.3968, 29.2568]]]}, "properties": {"objectid": 182911, "statename": "Rajasthan", "statecode": "8", "districtname": "", "districtcode": "100", "ulbname": "Rawatsar", "ulbcode": "800457", "wardname": "Ward 7", "wardcode": "7", "id": null, "status": "APPROVED", "misglobalid": null, "approved_by": null, "createdate": 1645869831000, "updateddate": 1645873622000, "globalid": null, "gisglobalid": "l45s4l6K-4B4K-P5mo-sQom-Q6KQQlo5dPmB", "remark": "", "st_area(shape)": 2.7892215583055453e-05, "st_perimeter(shape)": 0.02427170041117118}}, {"type": "Feature", "geometry": {"type": "Polygon", "coordinates": [[[74.402, 29.2591], [74.3985, 29.2576], [74.398, 29.259], [74.398, 29.2593], [74.3981, 29.2605], [74.3999, 29.2604], [74.4016, 29.2601], [74.4019, 29.2601], [74.402, 29.2594], [74.402, 29.2591]]]}, "properties": {"objectid": 184513, "statename": "Rajasthan", "statecode": "8", "districtname": "", "districtcode": "100", "ulbname": "Rawatsar", "ulbcode": "800457", "wardname": "Ward 8", "wardcode": "8", "id": null, "status": "APPROVED", "misglobalid": null, "approved_by": null, "createdate": 1645869843000, "updateddate": 1645873630000, "globalid": null, "gisglobalid": "RlR5mKdn-dcon-PcmB-aBal-R4ssRnBKRclo", "remark": "", "st_area(shape)": 7.88745736996227e-06, "st_perimeter(shape)": 0.011616676212998136}}, {"type": "Feature", "geometry": {"type": "Polygon", "coordinates": [[[74.3982, 29.2605], [74.3957, 29.2604], [74.3957, 29.2607], [74.3959, 29.2618], [74.3958, 29.2623], [74.3956, 29.2631], [74.3969, 29.263], [74.3977, 29.263], [74.3986, 29.2629], [74.3997, 29.2629], [74.3999, 29.2607], [74.3999, 29.2604], [74.3982, 29.2605]]]}, "properties": {"objectid": 184514, "statename": "Rajasthan", "statecode": "8", "districtname": "", "districtcode": "100", "ulbname": "Rawatsar", "ulbcode": "800457", "wardname": "Ward 9", "wardcode": "9", "id": null, "status": "APPROVED", "misglobalid": null, "approved_by": null, "createdate": 1645869875000, "updateddate": 1645873643000, "globalid": null, "gisglobalid": "RsPlQmoK-aKa5-Pado-QldB-d5B6sanlc6K4", "remark": "", "st_area(shape)": 1.0097211370074758e-05, "st_perimeter(shape)": 0.013486850116624241}}, {"type": "Feature", "geometry": {"type": "Polygon", "coordinates": [[[74.3997, 29.2629], [74.3956, 29.2631], [74.397, 29.2639], [74.3972, 29.265], [74.3967, 29.2663], [74.4, 29.2655], [74.3998, 29.2634], [74.3997, 29.2629]]]}, "properties": {"objectid": 182912, "statename": "Rajasthan", "statecode": "8", "districtname": "", "districtcode": "100", "ulbname": "Rawatsar", "ulbcode": "800457", "wardname": "Ward 10", "wardcode": "10", "id": null, "status": "APPROVED", "misglobalid": null, "approved_by": null, "createdate": 1645869885000, "updateddate": 1645873656000, "globalid": null, "gisglobalid": "c4R6onRB-PaQ5-PaKP-QR5n-K6cKBRRaBR4n", "remark": "", "st_area(shape)": 8.729852675326981e-06, "st_perimeter(shape)": 0.01417906807015153}}, {"type": "Feature", "geometry": {"type": "Polygon", "coordinates": [[[74.4, 29.2688], [74.4012, 29.2687], [74.4027, 29.2672], [74.403, 29.2659], [74.4029, 29.2648], [74.397, 29.2663], [74.397, 29.2678], [74.3992, 29.2675], [74.3991, 29.2687], [74.4, 29.2688]]]}, "properties": {"objectid": 182512, "statename": "Rajasthan", "statecode": "8", "districtname": "", "districtcode": "100", "ulbname": "Rawatsar", "ulbcode": "800457", "wardname": "Ward 11", "wardcode": "11", "id": null, "status": "APPROVED", "misglobalid": null, "approved_by": null, "createdate": 1645870029000, "updateddate": 1645873672000, "globalid": null, "gisglobalid": "PosQlRsm-acam-PasR-QQlP-o5KQ5mBQ5ac6", "remark": "", "st_area(shape)": 1.517824157708543e-05, "st_perimeter(shape)": 0.017823223490268082}}, {"type": "Feature", "geometry": {"type": "Polygon", "coordinates": [[[74.402, 29.2711], [74.401, 29.2699], [74.4012, 29.2688], [74.3999, 29.2689], [74.3993, 29.2714], [74.402, 29.2711]]]}, "properties": {"objectid": 182913, "statename": "Rajasthan", "statecode": "8", "districtname": "", "districtcode": "100", "ulbname": "Rawatsar", "ulbcode": "800457", "wardname": "Ward 12", "wardcode": "12", "id": null, "status": "APPROVED", "misglobalid": null, "approved_by": null, "createdate": 1645869894000, "updateddate": 1645873680000, "globalid": null, "gisglobalid": "snRmQa66-nK6Q-P6lQ-sl45-c54oRdRnB6BR", "remark": "", "st_area(shape)": 4.139893225357261e-06, "st_perimeter(shape)": 0.00921198883681569}}, {"type": "Feature", "geometry": {"type": "Polygon", "coordinates": [[[74.4018, 29.2752], [74.4022, 29.2737], [74.4021, 29.272], [74.4019, 29.2712], [74.4, 29.2713], [74.3998, 29.275], [74.4018, 29.2752]]]}, "properties": {"objectid": 177056, "statename": "Rajasthan", "statecode": "8", "districtname": "", "districtcode": "100", "ulbname": "Rawatsar", "ulbcode": "800457", "wardname": "Ward 13", "wardcode": "13", "id": null, "status": "APPROVED", "misglobalid": null, "approved_by": null, "createdate": 1645870039000, "updateddate": 1645873694000, "globalid": null, "gisglobalid": "Pod4cPs4-Pcsn-Psna-Rc4n-RdcdBl5m4P5s", "remark": "", "st_area(shape)": 8.332983331887543e-06, "st_perimeter(shape)": 0.01170369965984251}}, {"type": "Feature", "geometry": {"type": "Polygon", "coordinates": [[[74.4029, 29.2782], [74.4036, 29.2752], [74.4045, 29.2751], [74.4036, 29.2721], [74.4023, 29.2721], [74.4024, 29.2739], [74.402, 29.2753], [74.4021, 29.2761], [74.4023, 29.277], [74.4023, 29.2773], [74.4027, 29.278], [74.4029, 29.2782]]]}, "properties": {"objectid": 182914, "statename": "Rajasthan", "statecode": "8", "districtname": "", "districtcode": "100", "ulbname": "Rawatsar", "ulbcode": "800457", "wardname": "Ward 14", "wardcode": "14", "id": null, "status": "APPROVED", "misglobalid": null, "approved_by": null, "createdate": 1645870446000, "updateddate": 1645873720000, "globalid": null, "gisglobalid": "lPdaQ5oQ-BoPd-PndK-Rmcd-lloQRodc64P5", "remark": "", "st_area(shape)": 8.256225458791556e-06, "st_perimeter(shape)": 0.014621060527418009}}, {"type": "Feature", "geometry": {"type": "Polygon", "coordinates": [[[74.4058, 29.2747], [74.4082, 29.2694], [74.4033, 29.2676], [74.4033, 29.2677], [74.4031, 29.2705], [74.4036, 29.2721], [74.4045, 29.275], [74.4058, 29.2747]]]}, "properties": {"objectid": 182915, "statename": "Rajasthan", "statecode": "8", "districtname": "", "districtcode": "100", "ulbname": "Rawatsar", "ulbcode": "800457", "wardname": "Ward 15", "wardcode": "15", "id": null, "status": "APPROVED", "misglobalid": null, "approved_by": null, "createdate": 1645870453000, "updateddate": 1645873734000, "globalid": null, "gisglobalid": "KmaP5na5-nsQs-P5Bl-aclm-nPcnnscacQln", "remark": "", "st_area(shape)": 2.2662202378270532e-05, "st_perimeter(shape)": 0.020082279972616284}}, {"type": "Feature", "geometry": {"type": "Polygon", "coordinates": [[[74.4023, 29.2721], [74.4033, 29.2721], [74.4036, 29.2721], [74.4036, 29.2719], [74.4034, 29.2714], [74.4031, 29.2709], [74.4031, 29.2696], [74.4033, 29.2675], [74.4037, 29.2662], [74.4031, 29.266], [74.4027, 29.2673], [74.4012, 29.2687], [74.4011, 29.2699], [74.402, 29.271], [74.4023, 29.2721]]]}, "properties": {"objectid": 182916, "statename": "Rajasthan", "statecode": "8", "districtname": "", "districtcode": "100", "ulbname": "Rawatsar", "ulbcode": "800457", "wardname": "Ward 16", "wardcode": "16", "id": null, "status": "APPROVED", "misglobalid": null, "approved_by": null, "createdate": 1645870460000, "updateddate": 1645874021000, "globalid": null, "gisglobalid": "cm5nRQms-RsaK-PsnP-sl6c-5Qmo6RlPlBdB", "remark": "", "st_area(shape)": 8.03516860925487e-06, "st_perimeter(shape)": 0.015187889513690829}}, {"type": "Feature", "geometry": {"type": "Polygon", "coordinates": [[[74.4033, 29.2675], [74.4083, 29.2692], [74.4094, 29.2666], [74.4094, 29.2659], [74.4089, 29.2649], [74.4068, 29.2649], [74.4066, 29.2656], [74.406, 29.2656], [74.4054, 29.2652], [74.404, 29.2651], [74.4037, 29.2662], [74.4033, 29.2675]]]}, "properties": {"objectid": 182917, "statename": "Rajasthan", "statecode": "8", "districtname": "", "districtcode": "100", "ulbname": "Rawatsar", "ulbcode": "800457", "wardname": "Ward 17", "wardcode": "17", "id": null, "status": "APPROVED", "misglobalid": null, "approved_by": null, "createdate": 1645870473000, "updateddate": 1645873755000, "globalid": null, "gisglobalid": "K65cd5cn-nmcd-PnQc-QBm6-R4BBll4csocB", "remark": "", "st_area(shape)": 1.8336914130042856e-05, "st_perimeter(shape)": 0.01800341127628351}}, {"type": "Feature", "geometry": {"type": "Polygon", "coordinates": [[[74.4086, 29.2648], [74.4072, 29.2629], [74.405, 29.2631], [74.4052, 29.2641], [74.4053, 29.2651], [74.4057, 29.2653], [74.406, 29.2655], [74.4065, 29.2655], [74.4068, 29.2648], [74.4086, 29.2648]]]}, "properties": {"objectid": 177469, "statename": "Rajasthan", "statecode": "8", "districtname": "", "districtcode": "100", "ulbname": "Rawatsar", "ulbcode": "800457", "wardname": "Ward 18", "wardcode": "18", "id": null, "status": "APPROVED", "misglobalid": null, "approved_by": null, "createdate": 1645870502000, "updateddate": 1645873763000, "globalid": null, "gisglobalid": "4BBmo4cR-sssn-PRd5-R4an-RBmlQnBsBsRd", "remark": "", "st_area(shape)": 5.874272381706778e-06, "st_perimeter(shape)": 0.010552746015249501}}, {"type": "Feature", "geometry": {"type": "Polygon", "coordinates": [[[74.3999, 29.2644], [74.4, 29.2655], [74.4029, 29.2648], [74.403, 29.2655], [74.4031, 29.266], [74.4037, 29.2662], [74.404, 29.2651], [74.4053, 29.2652], [74.405, 29.2631], [74.4031, 29.2636], [74.4016, 29.2627], [74.4012, 29.2638], [74.3999, 29.2644]]]}, "properties": {"objectid": 182918, "statename": "Rajasthan", "statecode": "8", "districtname": "", "districtcode": "100", "ulbname": "Rawatsar", "ulbcode": "800457", "wardname": "Ward 19", "wardcode": "19", "id": null, "status": "APPROVED", "misglobalid": null, "approved_by": null, "createdate": 1645872130000, "updateddate": 1645873773000, "globalid": null, "gisglobalid": "dB4PKmmc-RolQ-PBln-sQmR-dnPR65sRlKoQ", "remark": "", "st_area(shape)": 9.52170275080814e-06, "st_perimeter(shape)": 0.016771553591094262}}, {"type": "Feature", "geometry": {"type": "Polygon", "coordinates": [[[74.3999, 29.2644], [74.4012, 29.2638], [74.4015, 29.2627], [74.4031, 29.2635], [74.4051, 29.263], [74.4039, 29.2622], [74.4043, 29.2621], [74.4042, 29.262], [74.4036, 29.2618], [74.4035, 29.2616], [74.4031, 29.2611], [74.403, 29.2613], [74.4018, 29.2607], [74.4019, 29.2601], [74.4, 29.2605], [74.3997, 29.263], [74.3999, 29.2644]]]}, "properties": {"objectid": 182919, "statename": "Rajasthan", "statecode": "8", "districtname": "", "districtcode": "100", "ulbname": "Rawatsar", "ulbcode": "800457", "wardname": "Ward 20", "wardcode": "20", "id": null, "status": "APPROVED", "misglobalid": null, "approved_by": null, "createdate": 1645870523000, "updateddate": 1645873780000, "globalid": null, "gisglobalid": "Q5BslKs4-5n5K-PQds-sRBn-nB5PRlQmPalR", "remark": "", "st_area(shape)": 1.1853219959561805e-05, "st_perimeter(shape)": 0.01799195171990698}}, {"type": "Feature", "geometry": {"type": "Polygon", "coordinates": [[[74.4036, 29.2617], [74.4043, 29.262], [74.4046, 29.2603], [74.4021, 29.2592], [74.4018, 29.2607], [74.403, 29.2613], [74.4031, 29.261], [74.4036, 29.2617]]]}, "properties": {"objectid": 183716, "statename": "Rajasthan", "statecode": "8", "districtname": "", "districtcode": "100", "ulbname": "Rawatsar", "ulbcode": "800457", "wardname": "Ward 21", "wardcode": "21", "id": null, "status": "APPROVED", "misglobalid": null, "approved_by": null, "createdate": 1645870535000, "updateddate": 1645873791000, "globalid": null, "gisglobalid": "c46PlmRd-5sBR-P6as-aKo4-m6soQad6aQ4m", "remark": "", "st_area(shape)": 4.316795116184741e-06, "st_perimeter(shape)": 0.009251289360965587}}, {"type": "Feature", "geometry": {"type": "Polygon", "coordinates": [[[74.4047, 29.2603], [74.4044, 29.2619], [74.4044, 29.2621], [74.4044, 29.2622], [74.4045, 29.2622], [74.4042, 29.2622], [74.404, 29.2622], [74.4045, 29.2626], [74.405, 29.2629], [74.4052, 29.263], [74.4056, 29.263], [74.4075, 29.2628], [74.4076, 29.2627], [74.4068, 29.2618], [74.4062, 29.261], [74.4047, 29.2603]]]}, "properties": {"objectid": 184516, "statename": "Rajasthan", "statecode": "8", "districtname": "", "districtcode": "100", "ulbname": "Rawatsar", "ulbcode": "800457", "wardname": "Ward 22", "wardcode": "22", "id": null, "status": "APPROVED", "misglobalid": null, "approved_by": null, "createdate": 1645870547000, "updateddate": 1645873803000, "globalid": null, "gisglobalid": "4dacldl4-a5K6-Polc-RcnQ-m5dl54cPa6Qc", "remark": "", "st_area(shape)": 5.528797725013259e-06, "st_perimeter(shape)": 0.010229179097800039}}, {"type": "Feature", "geometry": {"type": "Polygon", "coordinates": [[[74.406, 29.261], [74.4084, 29.2582], [74.409, 29.2577], [74.4084, 29.2571], [74.4077, 29.2565], [74.4079, 29.2559], [74.4051, 29.2546], [74.4024, 29.2593], [74.406, 29.261]]]}, "properties": {"objectid": 183717, "statename": "Rajasthan", "statecode": "8", "districtname": "", "districtcode": "100", "ulbname": "Rawatsar", "ulbcode": "800457", "wardname": "Ward 23", "wardcode": "23", "id": null, "status": "APPROVED", "misglobalid": null, "approved_by": null, "createdate": 1645870585000, "updateddate": 1645873823000, "globalid": null, "gisglobalid": "B5BQnaB4-l45m-PPPK-Rldc-mQnQoBRsKc6n", "remark": "", "st_area(shape)": 2.297485613341291e-05, "st_perimeter(shape)": 0.019425903770539175}}, {"type": "Feature", "geometry": {"type": "Polygon", "coordinates": [[[74.4007, 29.2551], [74.404, 29.2564], [74.4048, 29.255], [74.403, 29.254], [74.4028, 29.2519], [74.401, 29.2518], [74.401, 29.2526], [74.4007, 29.2551]]]}, "properties": {"objectid": 182515, "statename": "Rajasthan", "statecode": "8", "districtname": "", "districtcode": "100", "ulbname": "Rawatsar", "ulbcode": "800457", "wardname": "Ward 24", "wardcode": "24", "id": null, "status": "APPROVED", "misglobalid": null, "approved_by": null, "createdate": 1645870594000, "updateddate": 1645873832000, "globalid": null, "gisglobalid": "oPmK6lKR-6cla-P4c5-acPs-44osladPB44B", "remark": "", "st_area(shape)": 1.0298657872257125e-05, "st_perimeter(shape)": 0.014488778244747097}}, {"type": "Feature", "geometry": {"type": "Polygon", "coordinates": [[[74.4082, 29.2514], [74.4105, 29.2511], [74.4103, 29.2503], [74.4071, 29.2503], [74.4053, 29.2503], [74.4042, 29.2527], [74.4029, 29.2519], [74.403, 29.254], [74.4048, 29.255], [74.4051, 29.2546], [74.408, 29.2559], [74.4078, 29.2565], [74.4091, 29.2577], [74.4096, 29.2571], [74.4104, 29.2572], [74.4108, 29.2572], [74.4108, 29.2571], [74.4118, 29.2571], [74.4127, 29.2571], [74.413, 29.2568], [74.4133, 29.2565], [74.4138, 29.256], [74.4131, 29.2557], [74.4128, 29.2556], [74.4125, 29.2555], [74.412, 29.2553], [74.4112, 29.2553], [74.4109, 29.2553], [74.41, 29.2555], [74.4084, 29.2555], [74.4121, 29.2531], [74.4095, 29.2524], [74.4085, 29.2522], [74.4083, 29.2518], [74.4082, 29.2514]]]}, "properties": {"objectid": 182925, "statename": "Rajasthan", "statecode": "8", "districtname": "", "districtcode": "100", "ulbname": "Rawatsar", "ulbcode": "800457", "wardname": "Ward 25", "wardcode": "25", "id": null, "status": "APPROVED", "misglobalid": null, "approved_by": null, "createdate": 1645871431000, "updateddate": 1645874041000, "globalid": null, "gisglobalid": "KnKnP5B4-Ba6R-P64c-sd55-ldsK45loPRm5", "remark": "", "st_area(shape)": 3.8777580059304366e-05, "st_perimeter(shape)": 0.04260717821801739}}, {"type": "Feature", "geometry": {"type": "Polygon", "coordinates": [[[74.4077, 29.2627], [74.4095, 29.2617], [74.4091, 29.2606], [74.4115, 29.2604], [74.4105, 29.2592], [74.4107, 29.2579], [74.4108, 29.2575], [74.4108, 29.2572], [74.4105, 29.2572], [74.4101, 29.2572], [74.4099, 29.2572], [74.4098, 29.2572], [74.4097, 29.2572], [74.4096, 29.2572], [74.4084, 29.2582], [74.4078, 29.2589], [74.406, 29.2611], [74.4077, 29.2627]]]}, "properties": {"objectid": 182921, "statename": "Rajasthan", "statecode": "8", "districtname": "", "districtcode": "100", "ulbname": "Rawatsar", "ulbcode": "800457", "wardname": "Ward 26", "wardcode": "26", "id": null, "status": "APPROVED", "misglobalid": null, "approved_by": null, "createdate": 1645870621000, "updateddate": 1645873843000, "globalid": null, "gisglobalid": "P5nlcmR5-5laR-PR4K-s666-5smmPcdsPP4l", "remark": "", "st_area(shape)": 1.4427817917370091e-05, "st_perimeter(shape)": 0.018106879857559467}}, {"type": "Feature", "geometry": {"type": "Polygon", "coordinates": [[[74.4098, 29.2668], [74.41, 29.2668], [74.4102, 29.2638], [74.4133, 29.2647], [74.4134, 29.2622], [74.4123, 29.2616], [74.4116, 29.2605], [74.4105, 29.2605], [74.4092, 29.2606], [74.4095, 29.2617], [74.4074, 29.263], [74.4086, 29.2647], [74.4088, 29.2646], [74.4096, 29.2661], [74.4095, 29.2667], [74.4098, 29.2668]]]}, "properties": {"objectid": 182923, "statename": "Rajasthan", "statecode": "8", "districtname": "", "districtcode": "100", "ulbname": "Rawatsar", "ulbcode": "800457", "wardname": "Ward 27", "wardcode": "27", "id": null, "status": "APPROVED", "misglobalid": null, "approved_by": null, "createdate": 1645870788000, "updateddate": 1645873853000, "globalid": null, "gisglobalid": "6cRoPcKc-n5mP-Pll4-RPsR-cl5ccQmd5s5s", "remark": "", "st_area(shape)": 1.8613293028202366e-05, "st_perimeter(shape)": 0.022599937961651377}}, {"type": "Feature", "geometry": {"type": "Polygon", "coordinates": [[[74.41, 29.2682], [74.4117, 29.2682], [74.4118, 29.2643], [74.4102, 29.2639], [74.41, 29.2682]]]}, "properties": {"objectid": 183707, "statename": "Rajasthan", "statecode": "8", "districtname": "", "districtcode": "100", "ulbname": "Rawatsar", "ulbcode": "800457", "wardname": "Ward 28", "wardcode": "28", "id": null, "status": "APPROVED", "misglobalid": null, "approved_by": null, "createdate": 1645868880000, "updateddate": 1645873862000, "globalid": null, "gisglobalid": "oscmlmaB-6nml-Pdsd-Ql4Q-acPoBsaoKnKn", "remark": "", "st_area(shape)": 6.655301886762339e-06, "st_perimeter(shape)": 0.01152851373976204}}, {"type": "Feature", "geometry": {"type": "Polygon", "coordinates": [[[74.4096, 29.2689], [74.4096, 29.2695], [74.4116, 29.2696], [74.4117, 29.2683], [74.4101, 29.2683], [74.41, 29.2684], [74.4097, 29.2684], [74.4096, 29.2689]]]}, "properties": {"objectid": 184507, "statename": "Rajasthan", "statecode": "8", "districtname": "", "districtcode": "100", "ulbname": "Rawatsar", "ulbcode": "800457", "wardname": "Ward 29", "wardcode": "29", "id": null, "status": "APPROVED", "misglobalid": null, "approved_by": null, "createdate": 1645869116000, "updateddate": 1645873883000, "globalid": null, "gisglobalid": "osRmdcKP-sa4Q-P6cs-QsP5-n6mm45RsBoPQ", "remark": "", "st_area(shape)": 2.5598920219163355e-06, "st_perimeter(shape)": 0.0065623023229685815}}, {"type": "Feature", "geometry": {"type": "Polygon", "coordinates": [[[74.4117, 29.2721], [74.4117, 29.2697], [74.4115, 29.2696], [74.4109, 29.2696], [74.4105, 29.2696], [74.4095, 29.2695], [74.4097, 29.2683], [74.41, 29.2683], [74.4101, 29.2669], [74.4095, 29.2668], [74.4072, 29.2717], [74.4117, 29.2721]]]}, "properties": {"objectid": 182504, "statename": "Rajasthan", "statecode": "8", "districtname": "", "districtcode": "100", "ulbname": "Rawatsar", "ulbcode": "800457", "wardname": "Ward 30", "wardcode": "30", "id": null, "status": "APPROVED", "misglobalid": null, "approved_by": null, "createdate": 1645869123000, "updateddate": 1645873906000, "globalid": null, "gisglobalid": "aommn56d-andn-Pal4-sQsP-oB5QscBd5aR4", "remark": "", "st_area(shape)": 1.2150861327817311e-05, "st_perimeter(shape)": 0.017977428530549552}}, {"type": "Feature", "geometry": {"type": "Polygon", "coordinates": [[[74.4087, 29.2718], [74.408, 29.273], [74.41, 29.2737], [74.409, 29.277], [74.409, 29.2781], [74.4109, 29.2777], [74.4112, 29.2765], [74.4118, 29.2757], [74.4132, 29.2758], [74.4132, 29.2748], [74.4132, 29.2743], [74.413, 29.2734], [74.4129, 29.2725], [74.4127, 29.2722], [74.4109, 29.2721], [74.4096, 29.2719], [74.4087, 29.2718]]]}, "properties": {"objectid": 182898, "statename": "Rajasthan", "statecode": "8", "districtname": "", "districtcode": "100", "ulbname": "Hanumangarh", "ulbcode": "800457", "wardname": "Thirtyone", "wardcode": "31", "id": null, "status": "APPROVED", "misglobalid": null, "approved_by": null, "createdate": 1645867526000, "updateddate": 1645873914000, "globalid": null, "gisglobalid": "R4mmPaml-QR4o-PnmB-Q4Rn-oKB4mnPPom4c", "remark": "", "st_area(shape)": 1.8764970200990495e-05, "st_perimeter(shape)": 0.021275138609793798}}, {"type": "Feature", "geometry": {"type": "Polygon", "coordinates": [[[74.399, 29.2857], [74.4057, 29.2851], [74.4056, 29.2782], [74.409, 29.278], [74.409, 29.277], [74.4094, 29.2752], [74.41, 29.2737], [74.408, 29.273], [74.4086, 29.2719], [74.4073, 29.2718], [74.4059, 29.2749], [74.4036, 29.2752], [74.4029, 29.2782], [74.403, 29.2784], [74.4029, 29.2784], [74.4019, 29.2799], [74.4, 29.2832], [74.399, 29.2857]]]}, "properties": {"objectid": 182505, "statename": "Rajasthan", "statecode": "8", "districtname": "", "districtcode": "100", "ulbname": "Rawatsar", "ulbcode": "800457", "wardname": "Ward 32", "wardcode": "32", "id": null, "status": "APPROVED", "misglobalid": null, "approved_by": null, "createdate": 1645869135000, "updateddate": 1645873925000, "globalid": null, "gisglobalid": "na4a555d-RPs5-PmdP-Q455-dmcKKsB4daa6", "remark": "", "st_area(shape)": 6.013527170483845e-05, "st_perimeter(shape)": 0.04354452990175931}}, {"type": "Feature", "geometry": {"type": "Polygon", "coordinates": [[[74.398, 29.283], [74.4, 29.283], [74.4018, 29.2799], [74.4028, 29.2783], [74.4022, 29.2772], [74.402, 29.2755], [74.401, 29.2753], [74.3998, 29.2751], [74.3988, 29.2765], [74.399, 29.2765], [74.3981, 29.2766], [74.3979, 29.2783], [74.398, 29.283]]]}, "properties": {"objectid": 183720, "statename": "Rajasthan", "statecode": "8", "districtname": "", "districtcode": "100", "ulbname": "Rawatsar", "ulbcode": "800457", "wardname": "Ward 33", "wardcode": "33", "id": null, "status": "APPROVED", "misglobalid": null, "approved_by": null, "createdate": 1645870901000, "updateddate": 1645873973000, "globalid": null, "gisglobalid": "KclmdodK-aQ5d-PoRQ-aPQo-QacQPoc4Kc6n", "remark": "", "st_area(shape)": 2.7507678981652792e-05, "st_perimeter(shape)": 0.021940300972276047}}, {"type": "Feature", "geometry": {"type": "Polygon", "coordinates": [[[74.3978, 29.278], [74.3981, 29.2765], [74.399, 29.2763], [74.3997, 29.2751], [74.3998, 29.2715], [74.3968, 29.2718], [74.3944, 29.2719], [74.3947, 29.2765], [74.3978, 29.278]]]}, "properties": {"objectid": 184517, "statename": "Rajasthan", "statecode": "8", "districtname": "", "districtcode": "100", "ulbname": "Rawatsar", "ulbcode": "800457", "wardname": "Ward 34", "wardcode": "34", "id": null, "status": "APPROVED", "misglobalid": null, "approved_by": null, "createdate": 1645870943000, "updateddate": 1645873989000, "globalid": null, "gisglobalid": "5mRcPd4m-BQKm-P6mR-QnKl-Rlol6d4am4nc", "remark": "", "st_area(shape)": 2.661094384942084e-05, "st_perimeter(shape)": 0.020929624701096067}}, {"type": "Feature", "geometry": {"type": "Polygon", "coordinates": [[[74.3968, 29.2717], [74.3993, 29.2714], [74.3999, 29.2689], [74.3991, 29.2688], [74.3992, 29.2675], [74.3971, 29.2678], [74.397, 29.2696], [74.3968, 29.2717]]]}, "properties": {"objectid": 183721, "statename": "Rajasthan", "statecode": "8", "districtname": "", "districtcode": "100", "ulbname": "Rawatsar", "ulbcode": "800457", "wardname": "Ward 35", "wardcode": "35", "id": null, "status": "APPROVED", "misglobalid": null, "approved_by": null, "createdate": 1645870913000, "updateddate": 1645873591000, "globalid": null, "gisglobalid": "QKK4ms66-B5nl-Pdnc-QdKm-54Rn46R6nccn", "remark": "", "st_area(shape)": 9.537233615088793e-06, "st_perimeter(shape)": 0.013175618045609088}}]}
