{"type":"Topology","arcs":[[[46586,9138],[3614,-1044],[-8433,-8094],[-8836,522],[-10040,4439],[-2008,3394],[5221,3133]],[[26104,11488],[1205,-261]],[[27309,11227],[1606,1306]],[[28915,12533],[2812,-1306]],[[31727,11227],[1204,-522]],[[32931,10705],[6426,-783]],[[39357,9922],[402,522]],[[39759,10444],[2811,-784]],[[42570,9660],[2008,-522]],[[44578,9138],[2008,0]],[[54618,48302],[-402,784]],[[54216,49086],[-803,1305]],[[53413,50391],[3615,3917]],[[57028,54308],[3614,3133]],[[60642,57441],[2008,1566]],[[62650,59007],[10040,-4438],[5221,783]],[[77911,55352],[401,1044]],[[78312,56396],[0,261]],[[78312,56657],[402,1045]],[[78714,57702],[3614,-1306]],[[82328,56396],[3213,-4699]],[[85541,51697],[-8835,2349],[-8032,-5483],[-7630,1306],[-402,0]],[[60642,49869],[-2410,0]],[[58232,49869],[-803,-1044]],[[57429,48825],[-2811,-523]],[[70280,65796],[2008,783]],[[72288,66579],[2008,-261]],[[74296,66318],[2008,-261]],[[76304,66057],[1205,-522]],[[77509,65535],[-803,0]],[[76706,65535],[-402,0]],[[76304,65535],[-401,-523]],[[75903,65012],[-2008,-261]],[[73895,64751],[-402,-783]],[[73493,63968],[803,0]],[[74296,63968],[-803,-2089]],[[73493,61879],[-1606,0]],[[71887,61879],[-402,-261]],[[71485,61618],[-401,-261]],[[71084,61357],[0,-522]],[[71084,60835],[-804,-522]],[[70280,60313],[-803,261]],[[69477,60574],[-1205,522]],[[68272,61096],[-1204,261]],[[67068,61357],[-2008,2089]],[[65060,63446],[-402,1044]],[[64658,64490],[0,1306]],[[64658,65796],[0,2350]],[[64658,68146],[4418,-1045]],[[69076,67101],[0,261]],[[69076,67101],[1204,-1305]],[[57429,48825],[803,1044]],[[85541,51697],[-2811,-7050],[2410,-8355],[-7229,-11227],[-5623,261],[-11244,4439],[-4016,14882],[-2410,3655]],[[65863,60835],[1205,522]],[[67068,61357],[1204,-261]],[[69477,60574],[803,-261]],[[70280,60313],[804,261]],[[71084,60574],[7228,-2611]],[[78312,57963],[402,-261]],[[78714,57702],[-402,-1045]],[[78312,56396],[-401,-1044]],[[62650,59007],[3213,1828]],[[53815,65535],[2811,-523]],[[56626,65012],[-803,-783]],[[55823,64229],[0,-522]],[[55823,63707],[-803,-1306]],[[55020,62401],[-3615,262]],[[51405,62663],[-4418,1044]],[[46987,63707],[-3212,783]],[[43775,64490],[-5623,1306]],[[38152,65796],[0,261]],[[38152,66057],[803,522]],[[38955,66579],[-401,261]],[[38554,66840],[2811,1306]],[[41365,68146],[2410,1827]],[[43775,69973],[9638,-1044]],[[53413,68929],[2410,-1045]],[[55823,67884],[-2008,-2349]],[[69879,83550],[401,522]],[[70280,84072],[1607,784]],[[71887,84856],[803,522]],[[72690,85378],[4819,4961]],[[77509,90339],[4016,-784],[18474,-9660],[-5221,-5483],[-8433,2611]],[[86345,77023],[-4017,-1567]],[[82328,75456],[-1204,522]],[[81124,75978],[-3213,1306]],[[77911,77284],[-1205,522]],[[76706,77806],[-2410,261]],[[74296,78067],[-2008,522]],[[72288,78589],[-1204,522]],[[71084,79111],[-2008,262]],[[69076,79373],[-804,-1045]],[[68272,78328],[-803,-1044]],[[67469,77284],[-1205,0]],[[66264,77284],[2008,3133]],[[68272,80417],[1607,3133]],[[72690,75978],[-2008,-1044]],[[70682,74934],[-3213,-1305]],[[67469,73629],[0,261]],[[67469,73890],[-401,522]],[[67068,74412],[-804,783]],[[66264,75195],[-803,261]],[[65461,75456],[-803,0]],[[64658,75456],[-3213,522]],[[61445,75978],[-3614,523]],[[57831,76501],[-402,-1045]],[[57429,75456],[-401,-783]],[[57028,74673],[3212,-1044]],[[60240,73629],[804,-523]],[[61044,73106],[-8836,-522]],[[52208,72584],[-1204,522]],[[51004,73106],[-804,523]],[[50200,73629],[-4417,261]],[[45783,73890],[-1205,0]],[[44578,73890],[-803,261]],[[43775,74151],[-4418,783]],[[39357,74934],[-2008,261]],[[37349,75195],[-2008,261]],[[35341,75456],[-2811,522]],[[32530,75978],[-2410,523]],[[30120,76501],[-803,261]],[[29317,76762],[-2811,783]],[[26506,77545],[-1607,261]],[[24899,77806],[-4016,1044]],[[20883,78850],[-2008,261]],[[18875,79111],[-1204,523]],[[17671,79634],[-1205,261]],[[16466,79895],[2409,2611],[15261,-3395],[1607,1567]],[[35743,80678],[0,-261]],[[35743,80417],[3614,-1044]],[[39357,79373],[2410,-262]],[[41767,79111],[1204,-261]],[[42971,78850],[804,0]],[[43775,78850],[1204,-522]],[[44979,78328],[6025,2089]],[[51004,80417],[2008,-783]],[[53012,79634],[7630,-1828]],[[60642,77806],[5622,-522]],[[66264,77284],[1205,0]],[[68272,78328],[804,1045]],[[69076,79373],[2008,-262]],[[71084,79111],[1204,-522]],[[72288,78589],[2008,-522]],[[74296,78067],[-1606,-2089]],[[35743,73106],[401,-261]],[[36144,72845],[9237,-1827]],[[45381,71018],[-1606,-1045]],[[43775,69973],[-2410,-1827]],[[38554,66840],[-3213,1044]],[[35341,67884],[-4819,-1305]],[[30522,66579],[-402,-261]],[[30120,66318],[-6425,1828]],[[23695,68146],[401,522]],[[24096,68668],[803,1044]],[[24899,69712],[804,783]],[[25703,70495],[5622,-1566]],[[31325,68929],[402,261]],[[31727,69190],[3212,3133]],[[34939,72323],[804,522]],[[35743,72845],[0,261]],[[48192,59529],[402,1045]],[[48594,60574],[9237,1044]],[[57831,61618],[7229,1828]],[[67068,61357],[-1205,-522]],[[65863,60835],[-3213,-1828]],[[62650,59007],[-2008,-1566]],[[60642,57441],[-3614,-3133]],[[57028,54308],[-2812,783]],[[54216,55091],[-1606,261]],[[52610,55352],[-402,0]],[[52208,55352],[402,261]],[[52610,55613],[803,1044]],[[53413,56657],[-1205,523]],[[52208,57180],[-4016,2349]],[[69879,83550],[-1607,-3133]],[[66264,77284],[-5622,522]],[[53012,79634],[-2008,783]],[[44979,78328],[-1204,522]],[[43775,78850],[-804,0]],[[41767,79111],[-2410,262]],[[39357,79373],[-3614,1044]],[[35743,80678],[6827,11749],[3213,-522]],[[45783,91905],[401,-522]],[[46184,91383],[3213,-6266]],[[49397,85117],[17671,-523]],[[67068,84594],[3212,-522]],[[52610,70495],[803,-1566]],[[45381,71018],[-9237,1827]],[[36144,72845],[-5221,1306]],[[30923,74151],[1205,1305]],[[32128,75456],[803,-261]],[[32931,75195],[0,522],[0,261]],[[32931,75978],[2410,-522]],[[37349,75195],[2008,-261]],[[39357,74934],[4418,-783]],[[44578,73890],[1205,0]],[[50200,73629],[804,-523]],[[52208,72584],[0,-522]],[[52208,72062],[402,-1567]],[[30923,74151],[4820,-1045]],[[35743,72845],[-804,-522]],[[31727,69190],[-402,-261]],[[25703,70495],[-804,-783]],[[24096,68668],[-401,-522]],[[23695,68146],[-20884,6266],[2008,2872],[11647,2611]],[[16466,79895],[1205,-261]],[[18875,79111],[2008,-261]],[[24899,77806],[1607,-261]],[[26506,77545],[2811,-783]],[[29317,76762],[803,-261]],[[32530,75978],[401,0]],[[32931,75195],[-803,261]],[[32128,75456],[-1205,-1305]],[[2410,57180],[803,0]],[[3213,57180],[2409,522]],[[5622,57702],[10040,1827]],[[15662,59529],[1607,262]],[[17269,59791],[8835,2088]],[[26104,61879],[3615,784]],[[29719,62663],[4417,1044]],[[34136,63707],[803,522]],[[34939,64229],[3213,1567]],[[38152,65796],[1607,-2872]],[[39759,62924],[803,-1828]],[[40562,61096],[401,-783]],[[40963,60313],[-1204,-2350]],[[39759,57963],[-804,0]],[[38955,57963],[-6024,0]],[[32931,57963],[-1606,1044]],[[31325,59007],[-6827,-261]],[[24498,58746],[6425,-3133]],[[30923,55613],[-1606,-522]],[[29317,55091],[0,-783]],[[29317,54308],[4016,-2089]],[[33333,52219],[2811,-1567]],[[36144,50652],[-9237,-2611],[-22489,1045],[-2008,8094]],[[72288,66579],[-2008,-783]],[[69076,67101],[401,783]],[[69477,67884],[0,2089]],[[69477,69973],[402,261]],[[69879,70234],[401,522]],[[70280,70756],[1607,-261]],[[71887,70495],[1205,784]],[[73092,71279],[3212,261]],[[76304,71540],[3615,-784]],[[79919,70756],[401,523]],[[80320,71279],[2812,-523]],[[83132,70756],[4016,-3394]],[[87148,67362],[9237,2089],[-1205,-7050],[-10843,-261]],[[84337,62140],[-8434,1567]],[[75903,63707],[-1607,261]],[[73493,63968],[402,783]],[[75903,65012],[401,523]],[[76706,65535],[803,0]],[[76304,66057],[-2008,261]],[[55020,62401],[1606,-261]],[[56626,62140],[1205,-522]],[[48594,60574],[-402,-1045]],[[48192,59529],[4016,-2349]],[[53413,56657],[-803,-1044]],[[52208,55352],[-803,0]],[[51405,55352],[-401,261]],[[51004,55613],[-2009,0]],[[48995,55613],[-7228,1567],[-10844,-1567]],[[31325,59007],[1606,-1044]],[[38955,57963],[804,0]],[[40963,60313],[-401,783]],[[40562,61096],[-803,1828]],[[43775,64490],[3212,-783]],[[51405,62663],[3615,-262]],[[72690,85378],[-803,-522]],[[70280,84072],[-3212,522]],[[49397,85117],[-3213,6266]],[[45783,91905],[20883,8094],[15261,-5222],[-4418,-4438]],[[63453,71279],[-803,522]],[[62650,71801],[-803,-783]],[[61847,71018],[-803,-523]],[[61044,70495],[-402,-522]],[[60642,69973],[0,-522]],[[60642,69451],[803,-522]],[[61445,68929],[803,-783]],[[62248,68146],[1205,0]],[[63453,68146],[803,261]],[[64256,68407],[402,-261]],[[64658,65796],[-5221,261]],[[59437,66057],[-2811,1566]],[[56626,67623],[-803,261]],[[52610,70495],[-402,1567]],[[61044,73106],[-804,523]],[[57028,74673],[401,783]],[[57429,75456],[402,1045]],[[61445,75978],[3213,-522]],[[64658,75456],[803,0]],[[65461,75456],[803,-261]],[[67068,74412],[401,-522]],[[67469,73629],[-803,-262]],[[66666,73367],[-2008,-1305]],[[64658,72062],[-1205,-783]],[[66666,73367],[4016,1567]],[[70682,74934],[2008,1044]],[[76706,77806],[1205,-522]],[[81124,75978],[1204,-522]],[[82328,75456],[4017,1567]],[[86345,77023],[803,-9661]],[[83132,70756],[-2812,523]],[[79919,70756],[-3615,784]],[[73092,71279],[-1205,-784]],[[70280,70756],[-401,-522]],[[69879,70234],[-402,-261]],[[69477,67884],[-401,-522]],[[64256,68407],[-803,-261]],[[62248,68146],[-803,783]],[[61445,68929],[-803,522]],[[60642,69451],[0,522]],[[60642,69973],[402,522]],[[61044,70495],[803,523]],[[62650,71801],[803,-522]],[[63453,71279],[1205,783]],[[39759,10444],[-402,-522]],[[32931,10705],[-1204,522]],[[31727,11227],[-2812,1306]],[[28915,12533],[-1606,-1306]],[[26104,11488],[6827,6005],[7229,-261],[7229,25065],[-4819,5744]],[[42570,48041],[803,784]],[[43373,48825],[803,0]],[[44176,48825],[803,0]],[[44979,48825],[3213,-262]],[[48192,48563],[-401,784]],[[47791,49347],[-1205,1566]],[[46586,50913],[3614,2611]],[[50200,53524],[804,1045]],[[51004,54569],[401,783]],[[51405,55352],[803,0]],[[52610,55352],[1606,-261]],[[53413,50391],[803,-1305]],[[54618,48302],[-6426,-6005],[-7229,-23759],[7631,-6789],[-2008,-2611]],[[44578,9138],[-2008,522]],[[44578,52480],[-2410,1566]],[[42168,54046],[-2409,-783]],[[39759,53263],[-402,-522]],[[39357,52741],[-402,-261]],[[38955,52480],[-803,-522]],[[38152,51958],[-2008,-1306]],[[33333,52219],[-4016,2089]],[[29317,55091],[1606,522]],[[48995,55613],[2009,0]],[[51004,54569],[-804,-1045]],[[46586,50913],[-2008,1567]],[[30120,66318],[402,261]],[[35341,67884],[3213,-1044]],[[38955,66579],[-803,-522]],[[38152,65796],[-3213,-1567]],[[34136,63707],[-4417,-1044]],[[29719,62663],[-3615,-784]],[[26104,61879],[-8835,-2088]],[[15662,59529],[-10040,-1827]],[[5622,57702],[-2409,-522]],[[2410,57180],[-2410,2611],[7229,8355],[8433,-1828],[8033,1828]],[[38152,51958],[803,522]],[[38955,52480],[402,261]],[[39357,52741],[402,522]],[[42168,54046],[2410,-1566]],[[47791,49347],[401,-784]],[[48192,48563],[-3213,262]],[[44176,48825],[-803,0]],[[42570,48041],[-6426,2611]],[[55823,63707],[0,522]],[[56626,65012],[-2811,523]],[[53815,65535],[2008,2349]],[[56626,67623],[2811,-1566]],[[64658,65796],[0,-1306]],[[57831,61618],[-1205,522]],[[75903,63707],[8434,-1567]],[[84337,62140],[-2009,-5744]],[[78312,57963],[-7228,2611]],[[71084,60835],[0,522]],[[71485,61618],[402,261]],[[71887,61879],[1606,0]]],"transform":{"scale":[2.490024900249239e-7,3.8300383003829595e-7],"translate":[77.9079,29.0775]},"objects":{"wards":{"type":"GeometryCollection","geometries":[{"arcs":[[0,1,2,3,4,5,6,7,8,9]],"type":"Polygon","properties":{"objectid":111246,"statename":"Uttar Pradesh","statecode":"9","districtname":"Meerut","districtcode":"138","ulbname":"Mawana","ulbcode":"800713","wardname":"Kalyan Singh Dhikoli Pratham","wardcode":"1","id":null,"status":"APPROVED","misglobalid":null,"approved_by":null,"createdate":1643545897000,"updateddate":1643711408000,"globalid":null,"gisglobalid":"K64Pm6RP-4Qam-PmB6-QnaR-cmd6a4Rsaml6","remark":"Approved","st_area(shape)":0.000020485717081768674,"st_perimeter(shape)":0.02031000409973593}},{"arcs":[[10,11,12,13,14,15,16,17,18,19,20,21,22,23,24]],"type":"Polygon","properties":{"objectid":111248,"statename":"Uttar Pradesh","statecode":"9","districtname":"Meerut","districtcode":"138","ulbname":"Mawana","ulbcode":"800713","wardname":"Tihai Pratham","wardcode":"2","id":null,"status":"APPROVED","misglobalid":null,"approved_by":null,"createdate":1643545897000,"updateddate":1643711561000,"globalid":null,"gisglobalid":"QRdKQ5ll-nlQ6-PcKB-RcRo-d6mccmaKaQn5","remark":"Approved","st_area(shape)":0.000017547822852626694,"st_perimeter(shape)":0.026063668331916045}},{"arcs":[[25,26,27,28,29,30,31,32,33,34,35,36,37,38,39,40,41,42,43,44,45,46,47,48,49,-50,50]],"type":"Polygon","properties":{"objectid":106663,"statename":"Uttar Pradesh","statecode":"9","districtname":"Meerut","districtcode":"138","ulbname":"Mawana","ulbcode":"800713","wardname":"Tihai Tritiya","wardcode":"3","id":null,"status":"APPROVED","misglobalid":null,"approved_by":null,"createdate":1643545898000,"updateddate":1726039349000,"globalid":null,"gisglobalid":"QcK5dQ5R-n666-PK6a-a5mQ-oBc4o6Q5clPd","remark":"","st_area(shape)":0.000004790049801859336,"st_perimeter(shape)":0.012323957394392905}},{"arcs":[[51,-23,-22,52,-25]],"type":"Polygon","properties":{"objectid":111247,"statename":"Uttar Pradesh","statecode":"9","districtname":"Meerut","districtcode":"138","ulbname":"Mawana","ulbcode":"800713","wardname":"Tihai Pancham Mil","wardcode":"4","id":null,"status":"APPROVED","misglobalid":null,"approved_by":null,"createdate":1643545897000,"updateddate":1643711292000,"globalid":null,"gisglobalid":"KlBKnBm5-Kl4l-PKm4-QP6R-R66ld46RQc5d","remark":"Approved","st_area(shape)":0.00005706304766961863,"st_perimeter(shape)":0.03562278807483016}},{"arcs":[[53,54,-43,55,56,57,58,59,-18,60,-16,61]],"type":"Polygon","properties":{"objectid":111253,"statename":"Uttar Pradesh","statecode":"9","districtname":"Meerut","districtcode":"138","ulbname":"Mawana","ulbcode":"800713","wardname":"Tihai Diwtiya","wardcode":"5","id":null,"status":"APPROVED","misglobalid":null,"approved_by":null,"createdate":1643545898000,"updateddate":1643711583000,"globalid":null,"gisglobalid":"cc6B5nRn-RBcm-PnPR-aP5n-KR45Rad4o45Q","remark":"Approved","st_area(shape)":0.00000535614441593273,"st_perimeter(shape)":0.011280503754365958}},{"arcs":[[62,63,64,65,66,67,68,69,70,71,72,73,74,75,76,77]],"type":"Polygon","properties":{"objectid":111645,"statename":"Uttar Pradesh","statecode":"9","districtname":"Meerut","districtcode":"138","ulbname":"Mawana","ulbcode":"800713","wardname":"Kabali Gate","wardcode":"6","id":null,"status":"APPROVED","misglobalid":null,"approved_by":null,"createdate":1643545898000,"updateddate":1643711785000,"globalid":null,"gisglobalid":"lRo5clsK-4aRs-Pals-aQcn-dsR45oQKc5Ko","remark":"Approved","st_area(shape)":0.0000078046933552555,"st_perimeter(shape)":0.012971385620129412}},{"arcs":[[78,79,80,81,82,83,84,85,86,87,88,89,90,91,92,93,94,95]],"type":"Polygon","properties":{"objectid":111643,"statename":"Uttar Pradesh","statecode":"9","districtname":"Meerut","districtcode":"138","ulbname":"Mawana","ulbcode":"800713","wardname":"Heeralal Tritiya","wardcode":"7","id":null,"status":"APPROVED","misglobalid":null,"approved_by":null,"createdate":1643545897000,"updateddate":1726039372000,"globalid":null,"gisglobalid":"dl4B46d4-s66c-PKdc-QmKl-4P65mPacaBQd","remark":"","st_area(shape)":0.000027006311730725975,"st_perimeter(shape)":0.024054030841036193}},{"arcs":[[96,97,98,99,100,101,102,103,104,105,106,107,108,109,110,111,112,113,114,115,116,117,118,119,120,121,122,123,124,125,126,127,128,129,130,131,132,133,134,135,136,137,138,-93,139,140,141,142,143]],"type":"Polygon","properties":{"objectid":111252,"statename":"Uttar Pradesh","statecode":"9","districtname":"Meerut","districtcode":"138","ulbname":"Mawana","ulbcode":"800713","wardname":"Munnalal Pancham","wardcode":"8","id":null,"status":"APPROVED","misglobalid":null,"approved_by":null,"createdate":1643545898000,"updateddate":1726039386000,"globalid":null,"gisglobalid":"BaQdBalR-Qosn-PddP-RmBl-5sKslo46KKnn","remark":"","st_area(shape)":0.00002169979254203195,"st_perimeter(shape)":0.037589369735925596}},{"arcs":[[144,145,146,147,-74,148,149,150,151,152,153,154,155,156,157,158,159]],"type":"Polygon","properties":{"objectid":111646,"statename":"Uttar Pradesh","statecode":"9","districtname":"Meerut","districtcode":"138","ulbname":"Mawana","ulbcode":"800713","wardname":"Munnalal Tritiya","wardcode":"9","id":null,"status":"APPROVED","misglobalid":null,"approved_by":null,"createdate":1643545898000,"updateddate":1643711928000,"globalid":null,"gisglobalid":"PsomB66l-aRnB-P4sn-R5md-nKl6aaaRlnRK","remark":"Approved","st_area(shape)":0.00000688943445750945,"st_perimeter(shape)":0.014425588365908664}},{"arcs":[[160,161,162,-45,163,164,165,166,167,168,169,170,171,172,173]],"type":"Polygon","properties":{"objectid":106661,"statename":"Uttar Pradesh","statecode":"9","districtname":"Meerut","districtcode":"138","ulbname":"Mawana","ulbcode":"800713","wardname":"Kalyan Singh Pratham","wardcode":"10","id":null,"status":"APPROVED","misglobalid":null,"approved_by":null,"createdate":1643545898000,"updateddate":1643711512000,"globalid":null,"gisglobalid":"5KBKPBoP-aod6-PQPP-Qa5P-BBBlaRa4mBcK","remark":"Approved","st_area(shape)":0.000007330434722169272,"st_perimeter(shape)":0.013991332298131867}},{"arcs":[[-79,174,-95,175,-137,176,-135,177,178,-132,179,180,-129,181,182,183,184,185]],"type":"Polygon","properties":{"objectid":110509,"statename":"Uttar Pradesh","statecode":"9","districtname":"Meerut","districtcode":"138","ulbname":"Mawana","ulbcode":"800713","wardname":"Kabali Gate Diwtiya","wardcode":"11","id":null,"status":"APPROVED","misglobalid":null,"approved_by":null,"createdate":1643545898000,"updateddate":1726039323000,"globalid":null,"gisglobalid":"4mcddaoK-nPKP-PPBQ-aRRK-md6PBRsnsn6o","remark":"","st_area(shape)":0.000024742222110739934,"st_perimeter(shape)":0.02577104069108312}},{"arcs":[[186,-76,-147,187,188,189,190,191,192,-118,193,194,-115,195,-113,196,-111,197,198]],"type":"Polygon","properties":{"objectid":105467,"statename":"Uttar Pradesh","statecode":"9","districtname":"Meerut","districtcode":"138","ulbname":"Mawana","ulbcode":"800713","wardname":"Munna Lal Pratham","wardcode":"12","id":null,"status":"APPROVED","misglobalid":null,"approved_by":null,"createdate":1643545898000,"updateddate":1643711980000,"globalid":null,"gisglobalid":"s6ac5Qs5-4Pcc-Pomn-am4B-BKslldQs4cal","remark":"Approved","st_area(shape)":0.00000684861512565175,"st_perimeter(shape)":0.01473119540904758}},{"arcs":[[199,-160,200,-158,201,-156,202,-154,203,204,205,-126,206,-124,207,208,209,-120,210,-192,211,212]],"type":"Polygon","properties":{"objectid":111251,"statename":"Uttar Pradesh","statecode":"9","districtname":"Meerut","districtcode":"138","ulbname":"Mawana","ulbcode":"800713","wardname":"Munna Lal Diwtiya","wardcode":"13","id":null,"status":"APPROVED","misglobalid":null,"approved_by":null,"createdate":1643545898000,"updateddate":1643711846000,"globalid":null,"gisglobalid":"Kn655lQ5-ancR-Pln6-smm6-BRslQRBQK4RB","remark":"Approved","st_area(shape)":0.000019883659243056245,"st_perimeter(shape)":0.02261966515199174}},{"arcs":[[213,214,215,216,217,218,219,220,221,222,223,224,225,226,227,228,229,230,231,232,233,234,235]],"type":"Polygon","properties":{"objectid":111647,"statename":"Uttar Pradesh","statecode":"9","districtname":"Meerut","districtcode":"138","ulbname":"Mawana","ulbcode":"800713","wardname":"Kalyan Singh Tritiya","wardcode":"14","id":null,"status":"APPROVED","misglobalid":null,"approved_by":null,"createdate":1643545898000,"updateddate":1643711534000,"globalid":null,"gisglobalid":"dsmd6cR5-Rs46-PRRm-RPmn-PR5R4lm4mcsa","remark":"Approved","st_area(shape)":0.00003532749952218877,"st_perimeter(shape)":0.03516895765600009}},{"arcs":[[236,-51,237,238,239,240,241,242,243,244,245,246,247,248,249,250,-35,251,-33,252,-31,253,-29,254,-27]],"type":"Polygon","properties":{"objectid":110507,"statename":"Uttar Pradesh","statecode":"9","districtname":"Meerut","districtcode":"138","ulbname":"Mawana","ulbcode":"800713","wardname":"Heera Lal Pratham","wardcode":"15","id":null,"status":"APPROVED","misglobalid":null,"approved_by":null,"createdate":1643545897000,"updateddate":1726039406000,"globalid":null,"gisglobalid":"acncosmB-P5om-P4oo-QcQn-msP5doBm5R6Q","remark":"","st_area(shape)":0.000015828057384038823,"st_perimeter(shape)":0.02509406154107137}},{"arcs":[[255,256,-162,257,258,-173,259,-171,260,261,262,263,-231,-230,264,-228,265,-226,266,267,-223,-70,268,-68,269]],"type":"Polygon","properties":{"objectid":110510,"statename":"Uttar Pradesh","statecode":"9","districtname":"Meerut","districtcode":"138","ulbname":"Mawana","ulbcode":"800713","wardname":"Kalyan Singh Diwtiya","wardcode":"16","id":null,"status":"APPROVED","misglobalid":null,"approved_by":null,"createdate":1643545898000,"updateddate":1643711496000,"globalid":null,"gisglobalid":"K4an5oRo-K5md-P456-alR6-nd5RaBQ5KccP","remark":"Approved","st_area(shape)":0.000012502835226576952,"st_perimeter(shape)":0.02928321343570374}},{"arcs":[[270,-80,271,-185,272,-183,273,-82]],"type":"Polygon","properties":{"objectid":111249,"statename":"Uttar Pradesh","statecode":"9","districtname":"Meerut","districtcode":"138","ulbname":"Mawana","ulbcode":"800713","wardname":"Kabali Gate Pratham","wardcode":"17","id":null,"status":"APPROVED","misglobalid":null,"approved_by":null,"createdate":1643545897000,"updateddate":1726039420000,"globalid":null,"gisglobalid":"6Rcl4Qol-coca-PB6c-RPQn-4KBosBsKRsoc","remark":"","st_area(shape)":0.00003463149943296348,"st_perimeter(shape)":0.023494640251929044}},{"arcs":[[274,275,276,277,278,279,280,281,282,283,-48,284,285,286,-77,-187,287,-198,-110,288,-108,289,290,-105,291,292,293,-101,294,-99,295,296,297]],"type":"Polygon","properties":{"objectid":111644,"statename":"Uttar Pradesh","statecode":"9","districtname":"Meerut","districtcode":"138","ulbname":"Mawana","ulbcode":"800713","wardname":"Kabali Gate Chaturth","wardcode":"18","id":null,"status":"APPROVED","misglobalid":null,"approved_by":null,"createdate":1643545898000,"updateddate":1726039435000,"globalid":null,"gisglobalid":"5momB5dc-ssl4-PR6l-Rn56-loa4sd5c5nml","remark":"","st_area(shape)":0.000007365974253775765,"st_perimeter(shape)":0.017348580498971367}},{"arcs":[[-297,298,299,-144,-88,300,-86,301,302,303,-248,304,-246,305,-244,306,-242,307,308,-239,309,-50,-49,-284,310,-282,311,312,313,314,315,-276,316,317]],"type":"Polygon","properties":{"objectid":110508,"statename":"Uttar Pradesh","statecode":"9","districtname":"Meerut","districtcode":"138","ulbname":"Mawana","ulbcode":"800713","wardname":"Heera Lal Diwtiya","wardcode":"19","id":null,"status":"APPROVED","misglobalid":null,"approved_by":null,"createdate":1643545897000,"updateddate":1726039509000,"globalid":null,"gisglobalid":"Pc4cn6oc-n5R6-Pdcm-R4Qn-R4mRnoB4dmsc","remark":"","st_area(shape)":0.000014350077837608237,"st_perimeter(shape)":0.02320073231394213}},{"arcs":[[318,-6,319,320,321,-2,322,323,324,325,326,327,328,329,330,331,332,-170,333,-168,-13,334,-11,335,-10,336,-8]],"type":"Polygon","properties":{"objectid":106660,"statename":"Uttar Pradesh","statecode":"9","districtname":"Meerut","districtcode":"138","ulbname":"Mawana","ulbcode":"800713","wardname":"Kalyan Singh Dhikoli Diwtiya","wardcode":"20","id":null,"status":"APPROVED","misglobalid":null,"approved_by":null,"createdate":1643545898000,"updateddate":1643711353000,"globalid":null,"gisglobalid":"Bclldlac-cscl-PoP6-aPdo-l5cd4s6d6nRB","remark":"Approved","st_area(shape)":0.00002335810071475843,"st_perimeter(shape)":0.055060421485947135}},{"arcs":[[337,338,339,340,341,342,-235,343,-233,344,-264,345,-262,-332,346,-330,347]],"type":"Polygon","properties":{"objectid":110086,"statename":"Uttar Pradesh","statecode":"9","districtname":"Meerut","districtcode":"138","ulbname":"Mawana","ulbcode":"800713","wardname":"Kalyan Singh Chaturth","wardcode":"21","id":null,"status":"APPROVED","misglobalid":null,"approved_by":null,"createdate":1643545898000,"updateddate":1643711477000,"globalid":null,"gisglobalid":"BcR6oPad-aBB5-Ps65-adP6-4PBBaonBRcnn","remark":"Approved","st_area(shape)":0.0000062047354507226925,"st_perimeter(shape)":0.016060132517269378}},{"arcs":[[348,-150,349,-73,350,-71,351,-221,352,353,354,-217,355,356,-214,357,-152]],"type":"Polygon","properties":{"objectid":111250,"statename":"Uttar Pradesh","statecode":"9","districtname":"Meerut","districtcode":"138","ulbname":"Mawana","ulbcode":"800713","wardname":"Munna Lal Chaturth","wardcode":"22","id":null,"status":"APPROVED","misglobalid":null,"approved_by":null,"createdate":1643545898000,"updateddate":1643711747000,"globalid":null,"gisglobalid":"mmnBQKcK-RBBc-Ps66-QRBQ-R6Qs45PmndRm","remark":"Approved","st_area(shape)":0.000022891031656195777,"st_perimeter(shape)":0.02840168034885327}},{"arcs":[[-343,358,359,360,-339,361,-348,-329,362,363,-326,364,-324,365]],"type":"Polygon","properties":{"objectid":111648,"statename":"Uttar Pradesh","statecode":"9","districtname":"Meerut","districtcode":"138","ulbname":"Mawana","ulbcode":"800713","wardname":"Kalyan Singh Pancham","wardcode":"23","id":null,"status":"APPROVED","misglobalid":null,"approved_by":null,"createdate":1643545898000,"updateddate":1643711381000,"globalid":null,"gisglobalid":"QasPBmnP-PddR-PQ6d-aosl-laKRmn6clmdB","remark":"","st_area(shape)":0.00000380286969467859,"st_perimeter(shape)":0.008457334477087984}},{"arcs":[[-66,366,-64,367,368,-287,369,-285,370,-46,-163,371,-256]],"type":"Polygon","properties":{"objectid":106662,"statename":"Uttar Pradesh","statecode":"9","districtname":"Meerut","districtcode":"138","ulbname":"Mawana","ulbcode":"800713","wardname":"Khairat Ali","wardcode":"24","id":null,"status":"APPROVED","misglobalid":null,"approved_by":null,"createdate":1643545898000,"updateddate":1643711764000,"globalid":null,"gisglobalid":"R6Ka6Bm4-QPma-PKls-Qcom-adKBaoQl54Q4","remark":"Approved","st_area(shape)":0.000004079043870564677,"st_perimeter(shape)":0.009090239386392553}},{"arcs":[[-251,372,373,-20,-59,374,-57,-41,375,-39,376,377,-36]],"type":"Polygon","properties":{"objectid":111649,"statename":"Uttar Pradesh","statecode":"9","districtname":"Meerut","districtcode":"138","ulbname":"Mawana","ulbcode":"800713","wardname":"Tihai Chaturth","wardcode":"25","id":null,"status":"APPROVED","misglobalid":null,"approved_by":null,"createdate":1643545898000,"updateddate":1643711631000,"globalid":null,"gisglobalid":"6K5BsPla-lBdo-PQm6-RB6l-6scn5mBKdmm4","remark":"Approved","st_area(shape)":0.000006020075591858095,"st_perimeter(shape)":0.011148960534552086}}]}}}