{"type":"Topology","arcs":[[[38010,65230],[-2486,-3538]],[[35524,61692],[-8881,-6769]],[[26643,54923],[-2132,-1847]],[[24511,53076],[-1243,-2153]],[[23268,50923],[-9591,-6462]],[[13677,44461],[-5151,-6769]],[[8526,37692],[-5329,-308]],[[3197,37384],[711,8308],[-2842,14307],[4618,3231],[6394,14000],[7638,4923],[-13499,9846],[27530,8000],[11190,-12461],[356,-7385],[-13499,-10769],[6216,-4154]],[[35524,61692],[1776,-6308]],[[37300,55384],[-4441,-4000]],[[32859,51384],[-6216,3539]],[[37300,55384],[-2309,-6154]],[[34991,49230],[-2132,2154]],[[34991,49230],[-355,0]],[[34636,49230],[-10125,3846]],[[34636,49230],[-533,-769]],[[34103,48461],[-10835,2154]],[[23268,50615],[0,308]],[[34103,48461],[-2842,-2154]],[[31261,46307],[-6927,769]],[[24334,47076],[-1066,3539]],[[31261,46307],[-4263,-4000]],[[26998,42307],[-711,-615]],[[26287,41692],[-888,769]],[[25399,42461],[-1065,4615]],[[26287,41692],[-7992,-5539]],[[18295,36153],[-711,770]],[[17584,36923],[888,5077]],[[18472,42000],[6927,461]],[[18472,42000],[-4795,2461]],[[17584,36923],[-9058,769]],[[18295,36153],[-11901,-8307]],[[6394,27846],[-4795,-4769]],[[1599,23077],[-1599,4461],[3197,9846]],[[16163,22615],[-3730,-7077],[888,-8153],[-12966,8615],[1244,7077]],[[6394,27846],[9769,-5231]],[[36767,42615],[7638,-16308]],[[44405,26307],[-20071,2462],[-8171,-6154]],[[26998,42307],[1776,769]],[[28774,43076],[7993,-461]],[[40497,51538],[-2131,-4769]],[[38366,46769],[-9592,-3693]],[[37300,55384],[3197,-3846]],[[39786,45846],[-3019,-3231]],[[38366,46769],[1420,-923]],[[39786,45846],[3198,-2154]],[[42984,43692],[11190,-8462],[23090,-3846],[18472,-9846],[4263,-4615],[-7815,-7385],[-4974,462],[-8525,-8615],[-5506,-1385],[-8171,6923],[-8881,2769],[-533,13385],[-11189,3230]],[[41563,51384],[1421,-7692]],[[40497,51538],[1066,-154]],[[93072,66153],[-1954,-6615],[-6394,-3077],[-2309,-7692],[-9236,461],[-4974,6154],[-10657,4462],[6395,8153],[29129,-1846]],[[38010,65230],[8881,6000],[2132,-8923],[-2309,-8615],[-5151,-2308]]],"transform":{"scale":[5.630056300562319e-7,6.500065000650135e-7],"translate":[74.6924,14.933200000000001]},"objects":{"wards":{"type":"GeometryCollection","geometries":[{"arcs":[[0,1,2,3,4,5,6,7]],"type":"Polygon","properties":{"objectid":150682,"statename":"Karnataka","statecode":"29","districtname":"","districtcode":"563","ulbname":"Yellapur","ulbcode":"803092","wardname":"Ward 1","wardcode":"1","id":null,"status":"APPROVED","misglobalid":null,"approved_by":null,"createdate":1644513310000,"updateddate":1644911338000,"globalid":null,"gisglobalid":"RKaPBBKo-a5QB-P66a-a4mo-65Rd5a4oclsK","remark":"","st_area(shape)":0.0005248009834024997,"st_perimeter(shape)":0.12314038928852847}},{"arcs":[[8,9,10,-2]],"type":"Polygon","properties":{"objectid":152288,"statename":"Karnataka","statecode":"29","districtname":"","districtcode":"563","ulbname":"Yellapur","ulbcode":"803092","wardname":"Ward 2","wardcode":"2","id":null,"status":"APPROVED","misglobalid":null,"approved_by":null,"createdate":1644513310000,"updateddate":1644911470000,"globalid":null,"gisglobalid":"6dnKnsdR-B4ld-PsPl-QPmK-ndoBld4nBnBl","remark":"","st_area(shape)":0.00002274448025756516,"st_perimeter(shape)":0.021604140434393414}},{"arcs":[[11,12,-10]],"type":"Polygon","properties":{"objectid":155824,"statename":"Karnataka","statecode":"29","districtname":"","districtcode":"563","ulbname":"Yellapur","ulbcode":"803092","wardname":"Ward 3","wardcode":"3","id":null,"status":"APPROVED","misglobalid":null,"approved_by":null,"createdate":1644513310000,"updateddate":1644911736000,"globalid":null,"gisglobalid":"osams4mm-KPPB-Ps5m-Q4K4-QQBocRsPnP56","remark":"","st_area(shape)":0.000006104150943943376,"st_perimeter(shape)":0.011525122147877303}},{"arcs":[[-13,13,14,-3,-11]],"type":"Polygon","properties":{"objectid":154253,"statename":"Karnataka","statecode":"29","districtname":"","districtcode":"563","ulbname":"Yellapur","ulbcode":"803092","wardname":"Ward 4","wardcode":"4","id":null,"status":"APPROVED","misglobalid":null,"approved_by":null,"createdate":1644513310000,"updateddate":1644911763000,"globalid":null,"gisglobalid":"Kaad5dnm-Q65n-Paos-slPs-lm5sPlaRPoP4","remark":"","st_area(shape)":0.00000504762214506135,"st_perimeter(shape)":0.014529897408726736}},{"arcs":[[15,16,17,-4,-15]],"type":"Polygon","properties":{"objectid":156236,"statename":"Karnataka","statecode":"29","districtname":"","districtcode":"563","ulbname":"Yellapur","ulbcode":"803092","wardname":"Ward 5","wardcode":"5","id":null,"status":"APPROVED","misglobalid":null,"approved_by":null,"createdate":1644513310000,"updateddate":1644911804000,"globalid":null,"gisglobalid":"ccnasBRm-BsPB-Pccn-R5sl-lcPlsaP4BlPP","remark":"","st_area(shape)":0.000006990247067860872,"st_perimeter(shape)":0.015512129849061305}},{"arcs":[[18,19,20,-17]],"type":"Polygon","properties":{"objectid":155419,"statename":"Karnataka","statecode":"29","districtname":"","districtcode":"563","ulbname":"Yellapur","ulbcode":"803092","wardname":"Ward 6","wardcode":"6","id":null,"status":"APPROVED","misglobalid":null,"approved_by":null,"createdate":1644513310000,"updateddate":1644911860000,"globalid":null,"gisglobalid":"nRKaPn6c-BoKd-PKm6-Rmn4-snnaR4mKdQBl","remark":"","st_area(shape)":0.000009483506419329998,"st_perimeter(shape)":0.01622917472061436}},{"arcs":[[21,22,23,24,-20]],"type":"Polygon","properties":{"objectid":156235,"statename":"Karnataka","statecode":"29","districtname":"","districtcode":"563","ulbname":"Yellapur","ulbcode":"803092","wardname":"Ward 7","wardcode":"7","id":null,"status":"APPROVED","misglobalid":null,"approved_by":null,"createdate":1644513310000,"updateddate":1644911899000,"globalid":null,"gisglobalid":"aPaoooad-RQRd-Pmo5-RmmQ-ln5n6csaP6Bn","remark":"","st_area(shape)":0.000007312925597059087,"st_perimeter(shape)":0.013542645990297933}},{"arcs":[[-24,25,26,27,28]],"type":"Polygon","properties":{"objectid":156239,"statename":"Karnataka","statecode":"29","districtname":"","districtcode":"563","ulbname":"Yellapur","ulbcode":"803092","wardname":"Ward 8","wardcode":"8","id":null,"status":"APPROVED","misglobalid":null,"approved_by":null,"createdate":1644513310000,"updateddate":1644911917000,"globalid":null,"gisglobalid":"Qd4BlolQ-d6oK-Pd5P-s456-d664lcaBQRsQ","remark":"","st_area(shape)":0.000013167399602712275,"st_perimeter(shape)":0.01588304443807569}},{"arcs":[[-18,-21,-25,-29,29,-5]],"type":"Polygon","properties":{"objectid":153833,"statename":"Karnataka","statecode":"29","districtname":"","districtcode":"563","ulbname":"Yellapur","ulbcode":"803092","wardname":"Ward 9","wardcode":"9","id":null,"status":"APPROVED","misglobalid":null,"approved_by":null,"createdate":1644513310000,"updateddate":1644928302000,"globalid":null,"gisglobalid":"6nPmP45m-slm6-Plcn-sB4n-dRla4PPKn4dQ","remark":"","st_area(shape)":0.000025876937498472083,"st_perimeter(shape)":0.02300718288978245}},{"arcs":[[-28,30,-6,-30]],"type":"Polygon","properties":{"objectid":152289,"statename":"Karnataka","statecode":"29","districtname":"","districtcode":"563","ulbname":"Yellapur","ulbcode":"803092","wardname":"Ward 10","wardcode":"10","id":null,"status":"APPROVED","misglobalid":null,"approved_by":null,"createdate":1644513310000,"updateddate":1644928317000,"globalid":null,"gisglobalid":"6las6QQa-54sm-P5Ql-aKBK-PBcs5assmcRR","remark":"","st_area(shape)":0.000019497638259310523,"st_perimeter(shape)":0.018815268274552176}},{"arcs":[[-27,31,32,33,-7,-31]],"type":"Polygon","properties":{"objectid":154633,"statename":"Karnataka","statecode":"29","districtname":"","districtcode":"563","ulbname":"Yellapur","ulbcode":"803092","wardname":"Ward 11","wardcode":"11","id":null,"status":"APPROVED","misglobalid":null,"approved_by":null,"createdate":1644513310000,"updateddate":1644928361000,"globalid":null,"gisglobalid":"dnP6n4Pl-5aQB-P4B5-snQm-K5sBmmsm6PBm","remark":"","st_area(shape)":0.00004183255395635968,"st_perimeter(shape)":0.04689688843695036}},{"arcs":[[34,-33,35]],"type":"Polygon","properties":{"objectid":153834,"statename":"Karnataka","statecode":"29","districtname":"","districtcode":"563","ulbname":"Yellapur","ulbcode":"803092","wardname":"Ward 12","wardcode":"12","id":null,"status":"APPROVED","misglobalid":null,"approved_by":null,"createdate":1644513310000,"updateddate":1644928381000,"globalid":null,"gisglobalid":"nma44Qda-Pala-PcQK-acsd-csl5noQoK4mc","remark":"","st_area(shape)":0.00007144102770771944,"st_perimeter(shape)":0.04997800036711393}},{"arcs":[[36,37,-36,-32,-26,-23,38,39]],"type":"Polygon","properties":{"objectid":154254,"statename":"Karnataka","statecode":"29","districtname":"","districtcode":"563","ulbname":"Yellapur","ulbcode":"803092","wardname":"Ward 13","wardcode":"13","id":null,"status":"APPROVED","misglobalid":null,"approved_by":null,"createdate":1644513310000,"updateddate":1644928414000,"globalid":null,"gisglobalid":"c5s555aK-s4as-P64l-Qd45-Pl5soPs4RnBo","remark":"","st_area(shape)":0.0001417149719704669,"st_perimeter(shape)":0.06830484229160749}},{"arcs":[[40,41,-39,-22,-19,-16,-14,-12,42]],"type":"Polygon","properties":{"objectid":156237,"statename":"Karnataka","statecode":"29","districtname":"","districtcode":"563","ulbname":"Yellapur","ulbcode":"803092","wardname":"Ward 14","wardcode":"14","id":null,"status":"APPROVED","misglobalid":null,"approved_by":null,"createdate":1644513310000,"updateddate":1644929257000,"globalid":null,"gisglobalid":"QKmdBc6R-5do6-P5lc-sRlK-5RaKm56mKmla","remark":"","st_area(shape)":0.00001919941131248213,"st_perimeter(shape)":0.027293892253580643}},{"arcs":[[43,-40,-42,44]],"type":"Polygon","properties":{"objectid":150684,"statename":"Karnataka","statecode":"29","districtname":"","districtcode":"563","ulbname":"Yellapur","ulbcode":"803092","wardname":"Ward 15","wardcode":"15","id":null,"status":"APPROVED","misglobalid":null,"approved_by":null,"createdate":1644513310000,"updateddate":1644929267000,"globalid":null,"gisglobalid":"n5aac56d-KsBd-Pco6-QaPB-m6dPcPc6sBmK","remark":"","st_area(shape)":0.00001031158366396203,"st_perimeter(shape)":0.016716084218000794}},{"arcs":[[45,46,-37,-44]],"type":"Polygon","properties":{"objectid":152291,"statename":"Karnataka","statecode":"29","districtname":"","districtcode":"563","ulbname":"Yellapur","ulbcode":"803092","wardname":"Ward 16","wardcode":"16","id":null,"status":"APPROVED","misglobalid":null,"approved_by":null,"createdate":1644513310000,"updateddate":1644929279000,"globalid":null,"gisglobalid":"lsna6KKm-KcPQ-P5KK-R55n-5amc6ll5mdR4","remark":"","st_area(shape)":0.00043800755819927713,"st_perimeter(shape)":0.11635464116867815}},{"arcs":[[47,-46,-45,-41,48]],"type":"Polygon","properties":{"objectid":150683,"statename":"Karnataka","statecode":"29","districtname":"","districtcode":"563","ulbname":"Yellapur","ulbcode":"803092","wardname":"Ward 17","wardcode":"17","id":null,"status":"APPROVED","misglobalid":null,"approved_by":null,"createdate":1644513310000,"updateddate":1644929289000,"globalid":null,"gisglobalid":"lcoRll5d-a4dQ-PRcl-s5P6-R5olKdBn6K4m","remark":"","st_area(shape)":0.000010139410269062163,"st_perimeter(shape)":0.015623242871555514}},{"arcs":[[49]],"type":"Polygon","properties":{"objectid":156238,"statename":"Karnataka","statecode":"29","districtname":"","districtcode":"563","ulbname":"Yellapur","ulbcode":"803092","wardname":"Ward 18","wardcode":"18","id":null,"status":"APPROVED","misglobalid":null,"approved_by":null,"createdate":1644513310000,"updateddate":1644929301000,"globalid":null,"gisglobalid":"RdPsccca-4cKK-PP4P-ssRl-RoKQasBoRld4","remark":"","st_area(shape)":0.00016027670106532075,"st_perimeter(shape)":0.05764454533366208}},{"arcs":[[-49,-43,-9,-1,50]],"type":"Polygon","properties":{"objectid":152290,"statename":"Karnataka","statecode":"29","districtname":"","districtcode":"563","ulbname":"Yellapur","ulbcode":"803092","wardname":"Ward 19","wardcode":"19","id":null,"status":"APPROVED","misglobalid":null,"approved_by":null,"createdate":1644513310000,"updateddate":1644929317000,"globalid":null,"gisglobalid":"5c5dR4PQ-54a5-P5nQ-QdKd-a6d6m5llB6nl","remark":"","st_area(shape)":0.00006130608995502742,"st_perimeter(shape)":0.03509487951848303}}]}}}