{"type":"Topology","arcs":[[[44029,16518],[5971,-4911],[746,-8036]],[[50746,3571],[-15672,-3571]],[[35074,0],[2737,16071]],[[37811,16071],[497,2232]],[[38308,18303],[249,-446]],[[38557,17857],[5472,-1339]],[[37811,16518],[0,-447]],[[35074,0],[-9452,893]],[[25622,893],[-1244,10714],[2487,8036]],[[26865,19643],[10946,-3125]],[[38308,18303],[-497,-1785]],[[26865,19643],[498,3125]],[[27363,22768],[4975,-893]],[[32338,21875],[5473,2678]],[[37811,24553],[746,-6696]],[[25622,893],[-25622,446],[1741,46428],[-497,10715],[5472,1339],[7960,25446],[11941,0],[497,12500],[7463,1339]],[[34577,99106],[249,-9375],[-2737,-6250],[4229,-10714],[-6965,-15625],[-498,-12946]],[[28855,44196],[-1741,-8036]],[[27114,36160],[0,-1339]],[[27114,34821],[249,-12053]],[[32338,21875],[1244,8928]],[[33582,30803],[4726,-2232]],[[38308,28571],[-497,-4018]],[[33582,30803],[3482,8929]],[[37064,39732],[747,0]],[[37811,39732],[497,-4464]],[[38308,35268],[0,-893]],[[38308,34375],[249,-1786]],[[38557,32589],[-249,-4018]],[[27114,35268],[5970,-447],[3980,4911]],[[27114,34821],[0,447]],[[38308,43303],[-497,-3571]],[[27114,35268],[0,892]],[[28855,44196],[9204,-893]],[[38059,43303],[249,0]],[[84328,89731],[-4976,-7143],[-8955,-7142],[-6467,-7590],[-9702,-4910],[-8955,-10268],[-3731,-8928]],[[41542,43750],[-498,0]],[[41044,43750],[-2487,-447]],[[38557,43303],[-498,0]],[[34577,99106],[7214,893],[1741,-4911],[15920,-2232],[4478,-4464],[9701,3571],[10697,-2232]],[[43532,23660],[-249,0]],[[43283,23660],[746,-7142]],[[38557,32589],[4726,-8929]],[[41542,35268],[-3234,-447]],[[38308,34821],[0,447]],[[38308,43303],[249,0]],[[41044,43750],[249,0]],[[41293,43750],[0,-1340]],[[41293,42410],[249,-7142]],[[38308,34375],[0,446]],[[41542,35268],[1990,-11608]],[[45771,32589],[497,-12500],[12438,-3571],[13930,-1340],[25870,0]],[[98506,15178],[-746,-10267],[-37810,446],[-9204,-1786]],[[41293,42410],[4975,-4018],[-497,-5803]],[[45771,32589],[9701,-7143],[17662,-2678],[25372,446]],[[98506,23214],[0,-8036]],[[41293,43750],[249,0]],[[84328,89731],[2736,-3571],[9950,-1339],[-995,-19643],[3980,-3125],[-3731,-11161],[1741,-12053],[497,-15625]]],"transform":{"scale":[4.020040200401872e-7,2.2400224002241108e-7],"translate":[75.5716,22.1694]},"objects":{"wards":{"type":"GeometryCollection","geometries":[{"arcs":[[0,1,2,3,4,5]],"type":"Polygon","properties":{"objectid":133387,"statename":"Madhya Pradesh","statecode":"23","districtname":"","districtcode":"440","ulbname":"Maheshwar","ulbcode":"802280","wardname":"Ahilya Bai Ward","wardcode":"1","id":null,"status":"APPROVED","misglobalid":null,"approved_by":null,"createdate":1644061354000,"updateddate":1646300415000,"globalid":null,"gisglobalid":"5QRo6sdR-PRdQ-Pa5Q-s6ml-lnQPolBsmndB","remark":"","st_area(shape)":0.000018870003248799383,"st_perimeter(shape)":0.018071426840207027}},{"arcs":[[6,-3,7,8,9]],"type":"Polygon","properties":{"objectid":135005,"statename":"Madhya Pradesh","statecode":"23","districtname":"","districtcode":"440","ulbname":"Maheshwar","ulbcode":"802280","wardname":"Tilak Ward","wardcode":"2","id":null,"status":"APPROVED","misglobalid":null,"approved_by":null,"createdate":1644061369000,"updateddate":1646300428000,"globalid":null,"gisglobalid":"6BdosRlR-lKKB-PR66-Rsn6-KQ4Q6Ps55loR","remark":"","st_area(shape)":0.000018216885896633114,"st_perimeter(shape)":0.017909323874380774}},{"arcs":[[-5,10,-10,11,12,13,14]],"type":"Polygon","properties":{"objectid":127994,"statename":"Madhya Pradesh","statecode":"23","districtname":"","districtcode":"440","ulbname":"Maheshwar","ulbcode":"802280","wardname":"Bhagat Singh Ward","wardcode":"3","id":null,"status":"APPROVED","misglobalid":null,"approved_by":null,"createdate":1644061384000,"updateddate":1646300435000,"globalid":null,"gisglobalid":"RQ5osRll-a65K-PKaB-R4do-RQPPsocnKmsR","remark":"","st_area(shape)":0.00000388582252371495,"st_perimeter(shape)":0.012853051683547976}},{"arcs":[[15,16,17,18,19,-12,-9]],"type":"Polygon","properties":{"objectid":135006,"statename":"Madhya Pradesh","statecode":"23","districtname":"","districtcode":"440","ulbname":"Maheshwar","ulbcode":"802280","wardname":"Indira Gandhi Ward","wardcode":"4","id":null,"status":"APPROVED","misglobalid":null,"approved_by":null,"createdate":1644061402000,"updateddate":1646300443000,"globalid":null,"gisglobalid":"cPQBRss6-nd6K-P5K6-QoRR-Pmas54ldmQPR","remark":"","st_area(shape)":0.0002014926204577532,"st_perimeter(shape)":0.06882472599675808}},{"arcs":[[-14,20,21,22]],"type":"Polygon","properties":{"objectid":135803,"statename":"Madhya Pradesh","statecode":"23","districtname":"","districtcode":"440","ulbname":"Maheshwar","ulbcode":"802280","wardname":"Mahatma Gandhi Ward","wardcode":"5","id":null,"status":"APPROVED","misglobalid":null,"approved_by":null,"createdate":1644061418000,"updateddate":1646300449000,"globalid":null,"gisglobalid":"QPs5mlRR-6sdn-PPm5-RoRl-KcBK5msaB6nR","remark":"","st_area(shape)":0.000003872349064436311,"st_perimeter(shape)":0.008241248749606796}},{"arcs":[[-22,23,24,25,26,27,28]],"type":"Polygon","properties":{"objectid":133388,"statename":"Madhya Pradesh","statecode":"23","districtname":"","districtcode":"440","ulbname":"Maheshwar","ulbcode":"802280","wardname":"Jawahar Ward","wardcode":"6","id":null,"status":"APPROVED","misglobalid":null,"approved_by":null,"createdate":1644061434000,"updateddate":1646300456000,"globalid":null,"gisglobalid":"lo6cdQ46-lRK5-PcB4-Rl66-QRdRnQBlQn5d","remark":"","st_area(shape)":0.0000022134968165625666,"st_perimeter(shape)":0.0090765793592295}},{"arcs":[[29,-24,-21,-13,-20,30]],"type":"Polygon","properties":{"objectid":127996,"statename":"Madhya Pradesh","statecode":"23","districtname":"","districtcode":"440","ulbname":"Maheshwar","ulbcode":"802280","wardname":"Nageshwar Ward","wardcode":"7","id":null,"status":"APPROVED","misglobalid":null,"approved_by":null,"createdate":1644061474000,"updateddate":1646300475000,"globalid":null,"gisglobalid":"45dP4BPm-nddo-P4od-sQmn-4BPl6BKcdKl6","remark":"","st_area(shape)":0.000008607766225021154,"st_perimeter(shape)":0.015828185736573446}},{"arcs":[[31,-25,-30,32,-18,33,34]],"type":"Polygon","properties":{"objectid":127997,"statename":"Madhya Pradesh","statecode":"23","districtname":"","districtcode":"440","ulbname":"Maheshwar","ulbcode":"802280","wardname":"Dr. Ambedkar Ward","wardcode":"8","id":null,"status":"APPROVED","misglobalid":null,"approved_by":null,"createdate":1644061491000,"updateddate":1646300488000,"globalid":null,"gisglobalid":"ndK6snmK-nKsP-PPP5-sm6s-66BcKBmnBRQR","remark":"","st_area(shape)":0.0000067646267608060485,"st_perimeter(shape)":0.012023350159592827}},{"arcs":[[35,36,37,38,-34,-17,39]],"type":"Polygon","properties":{"objectid":134163,"statename":"Madhya Pradesh","statecode":"23","districtname":"","districtcode":"440","ulbname":"Maheshwar","ulbcode":"802280","wardname":"Chandrashekhar Azad Ward","wardcode":"9","id":null,"status":"APPROVED","misglobalid":null,"approved_by":null,"createdate":1644061507000,"updateddate":1646300496000,"globalid":null,"gisglobalid":"KKsPRcac-nd6o-PQsR-QmK4-nBdoladPKRm4","remark":"","st_area(shape)":0.00013789680042146198,"st_perimeter(shape)":0.062962626620803}},{"arcs":[[40,41,-6,-15,-23,-29,42,-41]],"type":"Polygon","properties":{"objectid":133389,"statename":"Madhya Pradesh","statecode":"23","districtname":"","districtcode":"440","ulbname":"Maheshwar","ulbcode":"802280","wardname":"Mahaveer Ward","wardcode":"10","id":null,"status":"APPROVED","misglobalid":null,"approved_by":null,"createdate":1644061520000,"updateddate":1646300502000,"globalid":null,"gisglobalid":"oPnmPmoP-BmoQ-PKoK-amBd-mB5PPmaQBcQK","remark":"","st_area(shape)":0.000004645724130723141,"st_perimeter(shape)":0.010296298219304811}},{"arcs":[[43,44,-26,-32,45,-38,46,47,48]],"type":"Polygon","properties":{"objectid":136135,"statename":"Madhya Pradesh","statecode":"23","districtname":"","districtcode":"440","ulbname":"Maheshwar","ulbcode":"802280","wardname":"Shahstrajun Ward","wardcode":"11","id":null,"status":"APPROVED","misglobalid":null,"approved_by":null,"createdate":1644061534000,"updateddate":1646300510000,"globalid":null,"gisglobalid":"dammoQ4l-ca4Q-Pc4d-alcP-lmKPB6mlsKKR","remark":"","st_area(shape)":0.0000026526059005976114,"st_perimeter(shape)":0.006496509193346861}},{"arcs":[[40,-43,-28,49,-44,50]],"type":"Polygon","properties":{"objectid":133035,"statename":"Madhya Pradesh","statecode":"23","districtname":"","districtcode":"440","ulbname":"Maheshwar","ulbcode":"802280","wardname":"Shivaji Ward","wardcode":"12","id":null,"status":"APPROVED","misglobalid":null,"approved_by":null,"createdate":1644061555000,"updateddate":1646300519000,"globalid":null,"gisglobalid":"66QKK45B-cnBc-P4on-sQ56-cdQnnR5dRK4Q","remark":"","st_area(shape)":0.0000027332443621177703,"st_perimeter(shape)":0.008135038059573342}},{"arcs":[[51,52,-1,-42,-41,-51,-49,53]],"type":"Polygon","properties":{"objectid":135008,"statename":"Madhya Pradesh","statecode":"23","districtname":"","districtcode":"440","ulbname":"Maheshwar","ulbcode":"802280","wardname":"Molana Azad Ward","wardcode":"13","id":null,"status":"APPROVED","misglobalid":null,"approved_by":null,"createdate":1644061569000,"updateddate":1646300529000,"globalid":null,"gisglobalid":"oaKaRPQm-Ronl-P5cQ-aK5s-PP6sBocQlRn5","remark":"","st_area(shape)":0.00005590110933367498,"st_perimeter(shape)":0.06059402880176669}},{"arcs":[[-52,54,55]],"type":"Polygon","properties":{"objectid":135009,"statename":"Madhya Pradesh","statecode":"23","districtname":"","districtcode":"440","ulbname":"Maheshwar","ulbcode":"802280","wardname":"Rajiv Gandhi Ward","wardcode":"14","id":null,"status":"APPROVED","misglobalid":null,"approved_by":null,"createdate":1644061585000,"updateddate":1646300539000,"globalid":null,"gisglobalid":"PlKoo4RP-Kd55-Po4a-a5an-Bnm466KRQ6dK","remark":"","st_area(shape)":0.00004063711897275631,"st_perimeter(shape)":0.04798637686991161}},{"arcs":[[-55,-54,-48,56,-36,57]],"type":"Polygon","properties":{"objectid":134162,"statename":"Madhya Pradesh","statecode":"23","districtname":"","districtcode":"440","ulbname":"Maheshwar","ulbcode":"802280","wardname":"Sanjay Gandhi Ward","wardcode":"15","id":null,"status":"APPROVED","misglobalid":null,"approved_by":null,"createdate":1644060830000,"updateddate":1646300548000,"globalid":null,"gisglobalid":"oan5BBP6-K4cP-PaBR-QRmd-6BQo4KBmalcQ","remark":"","st_area(shape)":0.00023870983322188394,"st_perimeter(shape)":0.07017812211750482}}]}}}