{"type":"Topology","arcs":[[[53027,50000],[2296,-758]],[[55323,49242],[1879,-2652]],[[57202,46590],[-209,-1893]],[[56993,44697],[-1252,-3031]],[[55741,41666],[0,-757]],[[55741,40909],[1670,-1137]],[[57411,39772],[208,-757]],[[57619,39015],[-835,-1137]],[[56784,37878],[-417,0]],[[56367,37878],[-209,-757]],[[56158,37121],[0,-379]],[[56158,36742],[-626,379]],[[55532,37121],[-1253,0]],[[54279,37121],[-626,0]],[[53653,37121],[-1461,0]],[[52192,37121],[835,12879]],[[53027,50000],[-19624,30681],[12108,18182],[6472,1136],[7307,-9091]],[[59290,90908],[-1044,-6818]],[[58246,84090],[-4802,-10606]],[[53444,73484],[9603,-9091]],[[63047,64393],[3341,-3409]],[[66388,60984],[1461,-1515]],[[67849,59469],[-626,-1515]],[[67223,57954],[-627,-2652]],[[66596,55302],[-417,-1515]],[[66179,53787],[-1461,-4166]],[[64718,49621],[-1253,-2652]],[[63465,46969],[-1461,-3030]],[[62004,43939],[-627,-2273]],[[61377,41666],[-1044,-1136]],[[60333,40530],[-626,-379]],[[59707,40151],[-1044,-1894]],[[58663,38257],[-1044,758]],[[57619,39015],[-208,757]],[[55741,40909],[0,757]],[[56993,44697],[209,1893]],[[55323,49242],[-2296,758]],[[56158,37121],[209,757]],[[56367,37878],[417,0]],[[58663,38257],[835,-757]],[[59498,37500],[835,0]],[[60333,37500],[418,-1516]],[[60751,35984],[-209,0]],[[60542,35984],[-417,0]],[[60125,35984],[-209,-2651]],[[59916,33333],[-209,-379]],[[59707,32954],[-1044,0]],[[58663,32954],[-1044,1515]],[[57619,34469],[-1461,2273]],[[62004,43560],[417,-379]],[[62421,43181],[-209,-1894]],[[62212,41287],[-417,-757]],[[61795,40530],[-418,-1136]],[[61377,39394],[0,-379]],[[61377,39015],[0,-2273]],[[61377,36742],[0,-379]],[[61377,36363],[-626,-379]],[[60751,35984],[0,-2651]],[[60751,33333],[-209,-379]],[[60542,32954],[-626,379]],[[60125,35984],[417,0]],[[60333,37500],[-835,0]],[[59707,40151],[626,379]],[[61377,41666],[627,1894]],[[66388,60984],[-3341,3409]],[[63047,64393],[-9603,9091]],[[58246,84090],[1044,6818]],[[59290,90908],[9603,-17424],[209,-15530],[7515,-10985]],[[76617,46969],[-1670,-3030]],[[74947,43939],[-417,-1136]],[[74530,42803],[-418,-1516]],[[74112,41287],[-835,-1136]],[[73277,40151],[-1044,-757]],[[72233,39394],[-626,-379]],[[71607,39015],[-1044,-379]],[[70563,38636],[-418,0]],[[70145,38636],[-1252,-379]],[[68893,38257],[-626,-757]],[[68267,37500],[-836,-379]],[[67431,37121],[-835,-379]],[[66596,36742],[-626,0]],[[65970,36742],[-626,379]],[[65344,37121],[-1253,379]],[[64091,37500],[-417,0]],[[63674,37500],[-209,0]],[[63465,37500],[-418,-758]],[[63047,36742],[-1670,-379]],[[61377,36742],[0,2273]],[[61377,39394],[418,1136]],[[62212,41287],[209,1894]],[[62004,43560],[0,379]],[[62004,43939],[1461,3030]],[[63465,46969],[1253,2652]],[[64718,49621],[1461,4166]],[[66179,53787],[417,1515]],[[66596,55302],[627,2652]],[[67223,57954],[626,1515]],[[59498,32954],[209,0]],[[60542,32954],[209,379]],[[63047,36742],[418,758]],[[63674,37500],[208,0]],[[63882,37500],[-1670,-2652]],[[62212,34848],[-417,-379]],[[61795,34469],[-1044,-2651]],[[60751,31818],[0,-758]],[[60751,31060],[-418,-378]],[[60333,30682],[-208,757]],[[60125,31439],[-418,379]],[[59707,31818],[-417,757]],[[59290,32575],[208,379]],[[58663,32954],[835,0]],[[59290,32575],[417,-757]],[[60125,31439],[208,-757]],[[60333,30682],[-208,-1516]],[[60125,29166],[-1670,0]],[[58455,29166],[-1671,1516]],[[56784,30682],[0,1515]],[[56784,32197],[835,2272]],[[60751,31060],[0,758]],[[61795,34469],[417,379]],[[62212,34848],[209,-1894]],[[62421,32954],[-626,-1515]],[[61795,31439],[-209,-1136]],[[61586,30303],[-418,-1137]],[[61168,29166],[-208,-1136]],[[60960,28030],[-627,0]],[[60333,28030],[-208,1136]],[[61168,29166],[418,1137]],[[61795,31439],[626,1515]],[[62421,32954],[1044,-7575]],[[63465,25379],[-835,-1516]],[[62630,23863],[-1462,379]],[[61168,24242],[0,758]],[[61168,25000],[-208,3030]],[[63465,25379],[209,-1894]],[[63674,23485],[-418,-3409]],[[63256,20076],[-3758,378]],[[59498,20454],[1670,3788]],[[62630,23863],[835,1516]],[[60960,28030],[208,-3030]],[[59498,20454],[3758,-378]],[[63256,20076],[418,3409]],[[63674,23485],[1461,-1516]],[[65135,21969],[5846,-1893]],[[70981,20076],[-5220,-1137]],[[65761,18939],[-2087,379]],[[63674,19318],[-1670,0]],[[62004,19318],[-2714,379]],[[59290,19697],[-4384,757]],[[54906,20454],[1461,4167]],[[56367,24621],[3966,3409]],[[52192,37121],[1461,0]],[[54279,37121],[1253,0]],[[56784,32197],[0,-1515]],[[58455,29166],[1878,-1136]],[[56367,24621],[-1461,-4167]],[[54906,20454],[-9186,-1136]],[[45720,19318],[-3132,2273]],[[42588,21591],[-2296,1515]],[[40292,23106],[-1670,2273]],[[38622,25379],[-4802,4166]],[[33820,29545],[-12735,18561]],[[21085,48106],[19416,-20834],[2505,7955],[9186,1894]],[[40292,23106],[2296,-1515]],[[42588,21591],[3132,-2273]],[[45720,19318],[9186,1136]],[[54906,20454],[-627,-2272]],[[54279,18182],[-1670,-758]],[[52609,17424],[-3549,-4167]],[[49060,13257],[-5219,-5681]],[[43841,7576],[-1253,1136]],[[42588,8712],[-3131,5303]],[[39457,14015],[0,1136]],[[39457,15151],[-2714,-1515]],[[36743,13636],[-2714,1894]],[[34029,15530],[-4175,2273],[-29854,38636],[1461,12878],[19624,-21211]],[[21085,48106],[12735,-18561]],[[33820,29545],[4802,-4166]],[[38622,25379],[1670,-2273]],[[43841,7576],[5219,5681]],[[52609,17424],[1670,758]],[[54279,18182],[627,2272]],[[54906,20454],[4384,-757]],[[59290,19697],[2714,-379]],[[62004,19318],[1670,0]],[[63674,19318],[2087,-379]],[[70981,20076],[7515,-1137]],[[78496,18939],[21503,-7197]],[[99999,11742],[-13570,-11742],[-17745,12121],[-11900,-3788],[-10020,-7954],[-7933,4545],[-4802,10606]],[[36743,13636],[2714,1515]],[[39457,14015],[3131,-5303]],[[76617,46969],[11900,3031],[835,-9849],[10647,-28409]],[[99999,11742],[-21503,7197]],[[65135,21969],[-1461,1516]],[[63882,37500],[209,0]],[[65344,37121],[626,-379]],[[65970,36742],[626,0]],[[67431,37121],[836,379]],[[68267,37500],[626,757]],[[68893,38257],[1252,379]],[[70563,38636],[1044,379]],[[72233,39394],[1044,757]],[[73277,40151],[835,1136]],[[74530,42803],[417,1136]],[[74947,43939],[1670,3030]]],"transform":{"scale":[4.790047900478855e-7,2.640026400264245e-7],"translate":[82.4533,22.1303]},"objects":{"wards":{"type":"GeometryCollection","geometries":[{"arcs":[[0,1,2,3,4,5,6,7,8,9,10,11,12,13,14,15]],"type":"Polygon","properties":{"objectid":43836,"statename":"Chhattisgarh","statecode":"22","districtname":null,"districtcode":"405","ulbname":"Baloda","ulbcode":"801952","wardname":"Dronacharya Ward","wardcode":"1","id":null,"status":"APPROVED","misglobalid":null,"approved_by":null,"createdate":1638586903000,"updateddate":1643105292000,"globalid":null,"gisglobalid":"7e602c1a-83bd-41f8-9fbb-95c2d1d55b2f","remark":"Approved Ward No. 01","st_area(shape)":0.000005692661611500183,"st_perimeter(shape)":0.012784980612133966}},{"arcs":[[16,17,18,19,20,21,22,23,24,25,26,27,28,29,30,31,32,33,-6,34,-4,35,-2,36]],"type":"Polygon","properties":{"objectid":43943,"statename":"Chhattisgarh","statecode":"22","districtname":null,"districtcode":"405","ulbname":"Baloda","ulbcode":"801952","wardname":"Gurughasidas Ward/Td&Gt;\n\n","wardcode":"2","id":null,"status":"APPROVED","misglobalid":null,"approved_by":null,"createdate":1638599661000,"updateddate":1643105410000,"globalid":null,"gisglobalid":"142570ac-ff3e-4d59-99e3-66d34c2930d5","remark":"Approved Ward No.2","st_area(shape)":0.00012179985861382093,"st_perimeter(shape)":0.05599932424792939}},{"arcs":[[-11,37,38,-8,-33,39,40,41,42,43,44,45,46,47,48]],"type":"Polygon","properties":{"objectid":41961,"statename":"Chhattisgarh","statecode":"22","districtname":null,"districtcode":"405","ulbname":"Baloda","ulbcode":"801952","wardname":"Chandra Sekhar Azaad Ward/Td & Gt","wardcode":"3","id":null,"status":"APPROVED","misglobalid":null,"approved_by":null,"createdate":1638586932000,"updateddate":1643105573000,"globalid":null,"gisglobalid":"a93965ca-918e-4f8a-9b98-645e8daa3a02","remark":"Approved Ward No. 3","st_area(shape)":0.0000019472253003351507,"st_perimeter(shape)":0.006257392581150203}},{"arcs":[[49,50,51,52,53,54,55,56,57,58,59,-45,60,-43,-42,61,-40,-32,62,-30,63]],"type":"Polygon","properties":{"objectid":44218,"statename":"Chhattisgarh","statecode":"22","districtname":null,"districtcode":"405","ulbname":"Baloda","ulbcode":"801952","wardname":"Abdul Kalam/Td&Gt;\n\n","wardcode":"4","id":null,"status":"APPROVED","misglobalid":null,"approved_by":null,"createdate":1638586944000,"updateddate":1643105751000,"globalid":null,"gisglobalid":"b47d8e2f-695b-48cf-9340-c8cdc993b54a","remark":"Approved Ward No. 4","st_area(shape)":0.000001674777571019796,"st_perimeter(shape)":0.008581794798741282}},{"arcs":[[-22,64,65,-19,66,67,68,69,70,71,72,73,74,75,76,77,78,79,80,81,82,83,84,85,86,-56,87,-54,88,-52,89,-50,90,91,92,93,94,95,96]],"type":"Polygon","properties":{"objectid":44311,"statename":"Chhattisgarh","statecode":"22","districtname":null,"districtcode":"405","ulbname":"Baloda","ulbcode":"801952","wardname":"Tatya Tope Ward/Td&Gt;\n\n","wardcode":"5","id":null,"status":"APPROVED","misglobalid":null,"approved_by":null,"createdate":1638599684000,"updateddate":1643105820000,"globalid":null,"gisglobalid":"1e9c31b7-4b92-42e8-a986-c66e4a07ca77","remark":"Approved Ward No. 5","st_area(shape)":0.00005612880226637346,"st_perimeter(shape)":0.047020026751626906}},{"arcs":[[97,-46,-60,98,-58,-57,-87,99,-85,100,101,102,103,104,105,106,107,108,109]],"type":"Polygon","properties":{"objectid":44219,"statename":"Chhattisgarh","statecode":"22","districtname":null,"districtcode":"405","ulbname":"Baloda","ulbcode":"801952","wardname":"Maharana Pratap Ward","wardcode":"6","id":null,"status":"APPROVED","misglobalid":null,"approved_by":null,"createdate":1638586967000,"updateddate":1643105965000,"globalid":null,"gisglobalid":"da7c637e-fa96-4edb-93f9-c5e7f0da7615","remark":"Approved Ward No. 6","st_area(shape)":9.938907645255887e-7,"st_perimeter(shape)":0.006829897854719946}},{"arcs":[[-48,110,-110,111,-108,112,113,114,115,116,117]],"type":"Polygon","properties":{"objectid":44220,"statename":"Chhattisgarh","statecode":"22","districtname":null,"districtcode":"405","ulbname":"Baloda","ulbcode":"801952","wardname":"Subhash Chandra Ward","wardcode":"7","id":null,"status":"APPROVED","misglobalid":null,"approved_by":null,"createdate":1638586980000,"updateddate":1643105999000,"globalid":null,"gisglobalid":"d678b3cc-add3-4862-8d1a-487bfdfbe0fa","remark":"Approved Ward No. 7","st_area(shape)":0.0000015990496264341333,"st_perimeter(shape)":0.005242017049887993}},{"arcs":[[-114,-106,118,-104,119,120,121,122,123,124,125,126]],"type":"Polygon","properties":{"objectid":44221,"statename":"Chhattisgarh","statecode":"22","districtname":null,"districtcode":"405","ulbname":"Baloda","ulbcode":"801952","wardname":"Mahatma Gandhi Ward","wardcode":"8","id":null,"status":"APPROVED","misglobalid":null,"approved_by":null,"createdate":1638586992000,"updateddate":1643106040000,"globalid":null,"gisglobalid":"32b51cfc-6e18-4696-8cc6-e57d4bd2c8cb","remark":"Approved Ward No 8","st_area(shape)":7.290998732686315e-7,"st_perimeter(shape)":0.004561659122063424}},{"arcs":[[-125,127,-123,128,129,130,131,132,133]],"type":"Polygon","properties":{"objectid":44222,"statename":"Chhattisgarh","statecode":"22","districtname":null,"districtcode":"405","ulbname":"Baloda","ulbcode":"801952","wardname":"Dr. Bhim Rao Ambedkar Ward","wardcode":"9","id":null,"status":"APPROVED","misglobalid":null,"approved_by":null,"createdate":1638587005000,"updateddate":1643106060000,"globalid":null,"gisglobalid":"c9a235c3-3b0b-441b-969e-7f806d8f02b2","remark":"Approved Ward No 9","st_area(shape)":0.0000026133003026485838,"st_perimeter(shape)":0.006543842767753969}},{"arcs":[[134,135,136,137,-132,138]],"type":"Polygon","properties":{"objectid":40167,"statename":"Chhattisgarh","statecode":"22","districtname":null,"districtcode":"405","ulbname":"Baloda","ulbcode":"801952","wardname":"Maharani Laxmibai Ward","wardcode":"10","id":null,"status":"APPROVED","misglobalid":null,"approved_by":null,"createdate":1637942598000,"updateddate":1643106088000,"globalid":null,"gisglobalid":"d541eb12-8c21-452e-8b93-a867ed3e0cf8","remark":"Approved Ward No 10","st_area(shape)":0.0000017590695255339993,"st_perimeter(shape)":0.005779039490927252}},{"arcs":[[-126,139,-133,-138,140,141,142,143,144,145,146,147,148,149,150]],"type":"Polygon","properties":{"objectid":42035,"statename":"Chhattisgarh","statecode":"22","districtname":null,"districtcode":"405","ulbname":"Baloda","ulbcode":"801952","wardname":"Veer Sawarkar Ward","wardcode":"11","id":null,"status":"APPROVED","misglobalid":null,"approved_by":null,"createdate":1637942617000,"updateddate":1643106135000,"globalid":null,"gisglobalid":"571e9371-3454-48eb-ad1a-9fd37ae646c1","remark":"Approved Ward No 11","st_area(shape)":0.00000621453245887568,"st_perimeter(shape)":0.02086186912799784}},{"arcs":[[151,-14,152,-12,-49,-118,153,-116,154,-151,155,156,157,158,159,160,161,162]],"type":"Polygon","properties":{"objectid":43944,"statename":"Chhattisgarh","statecode":"22","districtname":null,"districtcode":"405","ulbname":"Baloda","ulbcode":"801952","wardname":"Rani Durgawati Ward","wardcode":"12","id":null,"status":"APPROVED","misglobalid":null,"approved_by":null,"createdate":1638599705000,"updateddate":1643106160000,"globalid":null,"gisglobalid":"3c9fe324-6d0d-40db-828a-07f7d3884c5a","remark":"","st_area(shape)":0.00004329979013365415,"st_perimeter(shape)":0.04762665552518517}},{"arcs":[[163,164,165,166,167,168,169,170,171,172,173,174,175,176,177,178]],"type":"Polygon","properties":{"objectid":44312,"statename":"Chhattisgarh","statecode":"22","districtname":null,"districtcode":"405","ulbname":"Baloda","ulbcode":"801952","wardname":"Sardar Vallabh Bhai Patel Ward","wardcode":"13","id":null,"status":"APPROVED","misglobalid":null,"approved_by":null,"createdate":1638599722000,"updateddate":1643106314000,"globalid":null,"gisglobalid":"58dc2a9b-596a-48df-a962-4b43cf41184f","remark":"Approved Ward No 13","st_area(shape)":0.00009272579383696222,"st_perimeter(shape)":0.06733053139629584}},{"arcs":[[179,-169,180,181,182,183,184,185,-145,186,187,188,-175,189,-173,190,-171]],"type":"Polygon","properties":{"objectid":44315,"statename":"Chhattisgarh","statecode":"22","districtname":null,"districtcode":"405","ulbname":"Baloda","ulbcode":"801952","wardname":"Bhagat Singh Ward","wardcode":"14","id":null,"status":"APPROVED","misglobalid":null,"approved_by":null,"createdate":1638600019000,"updateddate":1643106434000,"globalid":null,"gisglobalid":"c6c2a04e-bbbc-4883-b7dd-41845df18fce","remark":"Approved Ward No. 14","st_area(shape)":0.00008397780752464939,"st_perimeter(shape)":0.07074885602954178}},{"arcs":[[191,192,-187,-144,193,-135,-130,-121,-102,194,-83,195,196,-80,197,198,199,-76,200,-74,201,202,-71,203,204]],"type":"Polygon","properties":{"objectid":43946,"statename":"Chhattisgarh","statecode":"22","districtname":null,"districtcode":"405","ulbname":"Baloda","ulbcode":"801952","wardname":"Lokmanya Tilak Ward","wardcode":"15","id":null,"status":"APPROVED","misglobalid":null,"approved_by":null,"createdate":1638599749000,"updateddate":1643106463000,"globalid":null,"gisglobalid":"7e276a69-145f-49c0-b689-39a689d227ed","remark":"Approved Ward No 15","st_area(shape)":0.00010340660523082248,"st_perimeter(shape)":0.04831642332319283}}]}}}