{"type": "FeatureCollection", "features": [{"type": "Feature", "geometry": {"type": "Polygon", "coordinates": [[[79.1473, 26.6475], [79.1471, 26.6474], [79.147, 26.6475], [79.1469, 26.6475], [79.1468, 26.6476], [79.1467, 26.6477], [79.1466, 26.6478], [79.1466, 26.6479], [79.1465, 26.648], [79.1465, 26.6481], [79.1464, 26.6482], [79.1463, 26.6483], [79.1462, 26.6483], [79.1461, 26.6483], [79.1461, 26.6484], [79.146, 26.6485], [79.1459, 26.6486], [79.1458, 26.6486], [79.1457, 26.6487], [79.1456, 26.6488], [79.1457, 26.6489], [79.1458, 26.6491], [79.1459, 26.6493], [79.146, 26.6494], [79.1461, 26.6494], [79.1462, 26.6493], [79.1464, 26.6493], [79.1464, 26.6492], [79.1466, 26.6491], [79.1468, 26.6489], [79.147, 26.6488], [79.1472, 26.6485], [79.1474, 26.6483], [79.1476, 26.6482], [79.1479, 26.648], [79.148, 26.6479], [79.1478, 26.6478], [79.1477, 26.6478], [79.1475, 26.6476], [79.1474, 26.6475], [79.1473, 26.6475]]]}, "properties": {"objectid": 264472, "statename": "Uttar Pradesh", "statecode": "9", "districtname": "Etawah", "districtcode": "161", "ulbname": "Lakhna (Np)", "ulbcode": "800985", "wardname": "Ambedkarnagar", "wardcode": "1", "id": null, "status": "APPROVED", "misglobalid": null, "approved_by": null, "createdate": 1649304743000, "updateddate": 1731658687000, "globalid": null, "gisglobalid": "lc4sP5P6-QR4s-P6s6-RPoK-P6PBRaPPQddo", "remark": "", "st_area(shape)": 1.973320672076722e-06, "st_perimeter(shape)": 0.006419453042229648}}, {"type": "Feature", "geometry": {"type": "Polygon", "coordinates": [[[79.1463, 26.6512], [79.1464, 26.6512], [79.1466, 26.6511], [79.1467, 26.651], [79.1468, 26.6509], [79.1469, 26.6509], [79.147, 26.6509], [79.147, 26.6508], [79.1469, 26.6507], [79.1468, 26.6506], [79.1467, 26.6504], [79.1466, 26.6504], [79.1466, 26.6503], [79.1466, 26.6502], [79.1463, 26.6499], [79.1461, 26.6497], [79.146, 26.6495], [79.1459, 26.6495], [79.1459, 26.6496], [79.1458, 26.6496], [79.1457, 26.6496], [79.1456, 26.6497], [79.1455, 26.6497], [79.1455, 26.6498], [79.1454, 26.6499], [79.145, 26.6502], [79.1448, 26.6504], [79.1463, 26.6512]]]}, "properties": {"objectid": 264471, "statename": "Uttar Pradesh", "statecode": "9", "districtname": "Etawah", "districtcode": "161", "ulbname": "Lakhna (Np)", "ulbcode": "800985", "wardname": "Adarshnagar", "wardcode": "2", "id": null, "status": "APPROVED", "misglobalid": null, "approved_by": null, "createdate": 1649304743000, "updateddate": 1731658701000, "globalid": null, "gisglobalid": "6QRaPKBP-nQdR-PlmP-sKs5-s65nlsdda5no", "remark": "", "st_area(shape)": 1.8966370279999935e-06, "st_perimeter(shape)": 0.005779388467578434}}, {"type": "Feature", "geometry": {"type": "Polygon", "coordinates": [[[79.1504, 26.6496], [79.1527, 26.6507], [79.1542, 26.6513], [79.1561, 26.6522], [79.1564, 26.6517], [79.1567, 26.6513], [79.1568, 26.6512], [79.1554, 26.6499], [79.1544, 26.6491], [79.154, 26.6493], [79.1534, 26.6489], [79.1525, 26.6479], [79.1518, 26.6484], [79.1514, 26.6488], [79.1512, 26.6489], [79.1511, 26.6488], [79.1508, 26.649], [79.1507, 26.649], [79.1506, 26.6492], [79.1505, 26.6492], [79.1503, 26.6494], [79.1501, 26.6495], [79.1504, 26.6496]]]}, "properties": {"objectid": 264074, "statename": "Uttar Pradesh", "statecode": "9", "districtname": "Etawah", "districtcode": "161", "ulbname": "Lakhna (Np)", "ulbcode": "800985", "wardname": "Kalikadevinagar First", "wardcode": "3", "id": null, "status": "APPROVED", "misglobalid": null, "approved_by": null, "createdate": 1649304743000, "updateddate": 1731658725000, "globalid": null, "gisglobalid": "BcBK46nc-Kml6-Pls4-RRm6-QR4sPaoload5", "remark": "", "st_area(shape)": 1.1247992553785785e-05, "st_perimeter(shape)": 0.01650513017824363}}, {"type": "Feature", "geometry": {"type": "Polygon", "coordinates": [[[79.1482, 26.6478], [79.1483, 26.648], [79.1484, 26.6481], [79.1486, 26.6483], [79.1487, 26.6482], [79.1488, 26.6483], [79.1492, 26.6481], [79.1493, 26.6482], [79.1493, 26.6483], [79.1494, 26.6484], [79.1494, 26.6485], [79.1494, 26.6486], [79.1494, 26.6487], [79.1494, 26.6488], [79.1495, 26.6488], [79.1497, 26.6491], [79.15, 26.6495], [79.1501, 26.6495], [79.1502, 26.6494], [79.1503, 26.6493], [79.1505, 26.6492], [79.1507, 26.649], [79.151, 26.6489], [79.1511, 26.6488], [79.1512, 26.6489], [79.1513, 26.6489], [79.1515, 26.6487], [79.1518, 26.6484], [79.152, 26.6483], [79.1525, 26.6479], [79.1531, 26.6474], [79.1533, 26.6472], [79.1545, 26.6463], [79.1563, 26.6449], [79.1552, 26.6446], [79.1537, 26.6444], [79.153, 26.6442], [79.1526, 26.6441], [79.1524, 26.644], [79.1516, 26.6447], [79.1511, 26.6452], [79.1509, 26.6454], [79.1505, 26.6456], [79.1499, 26.6462], [79.1497, 26.6464], [79.1495, 26.6465], [79.1492, 26.6468], [79.149, 26.6469], [79.1488, 26.6471], [79.1484, 26.6476], [79.1483, 26.6477], [79.1482, 26.6478]]]}, "properties": {"objectid": 263674, "statename": "Uttar Pradesh", "statecode": "9", "districtname": "Etawah", "districtcode": "161", "ulbname": "Lakhna (Np)", "ulbcode": "800985", "wardname": "Ghandhinagar", "wardcode": "4", "id": null, "status": "APPROVED", "misglobalid": null, "approved_by": null, "createdate": 1649304743000, "updateddate": 1731658742000, "globalid": null, "gisglobalid": "nRlQK5KB-BQ46-PRoR-RPcQ-lRdamdRQlQan", "remark": "", "st_area(shape)": 1.9381612833564182e-05, "st_perimeter(shape)": 0.020856176902373454}}, {"type": "Feature", "geometry": {"type": "Polygon", "coordinates": [[[79.1478, 26.6506], [79.1475, 26.6507], [79.1473, 26.6507], [79.1472, 26.6508], [79.1471, 26.6508], [79.1471, 26.6509], [79.1469, 26.6509], [79.1468, 26.651], [79.1467, 26.651], [79.1465, 26.6511], [79.1464, 26.6512], [79.1469, 26.6515], [79.1472, 26.6516], [79.1478, 26.6519], [79.148, 26.652], [79.1482, 26.652], [79.1487, 26.6521], [79.1493, 26.6521], [79.1499, 26.6521], [79.1503, 26.6521], [79.1507, 26.652], [79.1509, 26.652], [79.1507, 26.6517], [79.1507, 26.6516], [79.1505, 26.6514], [79.1502, 26.6511], [79.1499, 26.6507], [79.1498, 26.6505], [79.1499, 26.6503], [79.1502, 26.6501], [79.1505, 26.6497], [79.1503, 26.6497], [79.1501, 26.6496], [79.15, 26.6495], [79.1499, 26.6495], [79.1498, 26.6496], [79.1496, 26.6497], [79.1492, 26.6499], [79.1489, 26.65], [79.1487, 26.6501], [79.1486, 26.6502], [79.1485, 26.6502], [79.1484, 26.6503], [79.1481, 26.6504], [79.1478, 26.6506]]]}, "properties": {"objectid": 263284, "statename": "Uttar Pradesh", "statecode": "9", "districtname": "Etawah", "districtcode": "161", "ulbname": "Lakhna (Np)", "ulbcode": "800985", "wardname": "Subhashnagar", "wardcode": "5", "id": null, "status": "APPROVED", "misglobalid": null, "approved_by": null, "createdate": 1649304743000, "updateddate": 1731658788000, "globalid": null, "gisglobalid": "clKaaa5a-nR6l-PKPl-QK6o-cPoQRBm6dmmd", "remark": "", "st_area(shape)": 6.280030614918171e-06, "st_perimeter(shape)": 0.012188768481436943}}, {"type": "Feature", "geometry": {"type": "Polygon", "coordinates": [[[79.1464, 26.6493], [79.1462, 26.6494], [79.146, 26.6495], [79.1461, 26.6496], [79.1463, 26.6498], [79.1464, 26.65], [79.1467, 26.6503], [79.1467, 26.6504], [79.1467, 26.6505], [79.1468, 26.6505], [79.1469, 26.6507], [79.1471, 26.6508], [79.1472, 26.6507], [79.1473, 26.6507], [79.1473, 26.6506], [79.1478, 26.6505], [79.1479, 26.6505], [79.1484, 26.6503], [79.1484, 26.6502], [79.1485, 26.6502], [79.149, 26.6499], [79.1489, 26.6497], [79.1488, 26.6495], [79.1487, 26.6493], [79.1486, 26.649], [79.1484, 26.6488], [79.1482, 26.6485], [79.148, 26.6483], [79.1479, 26.6481], [79.1478, 26.6481], [79.1464, 26.6493]]]}, "properties": {"objectid": 263675, "statename": "Uttar Pradesh", "statecode": "9", "districtname": "Etawah", "districtcode": "161", "ulbname": "Lakhna (Np)", "ulbcode": "800985", "wardname": "Sadbhavnanagar", "wardcode": "6", "id": null, "status": "APPROVED", "misglobalid": null, "approved_by": null, "createdate": 1649304743000, "updateddate": 1731658799000, "globalid": null, "gisglobalid": "5PQnPmdP-BlKa-P4QR-QKda-lddPassQB6RP", "remark": "", "st_area(shape)": 4.401633008264327e-06, "st_perimeter(shape)": 0.008497406571172783}}, {"type": "Feature", "geometry": {"type": "Polygon", "coordinates": [[[79.1457, 26.6471], [79.1454, 26.6475], [79.145, 26.648], [79.1446, 26.6485], [79.1442, 26.6492], [79.1437, 26.6499], [79.1447, 26.6504], [79.1452, 26.65], [79.1453, 26.6499], [79.1454, 26.6498], [79.1455, 26.6498], [79.1456, 26.6497], [79.1456, 26.6496], [79.1458, 26.6496], [79.1459, 26.6495], [79.146, 26.6495], [79.146, 26.6494], [79.1458, 26.6492], [79.1457, 26.649], [79.1455, 26.6488], [79.1456, 26.6488], [79.1457, 26.6487], [79.1458, 26.6486], [79.146, 26.6485], [79.1461, 26.6484], [79.1461, 26.6483], [79.1462, 26.6483], [79.1463, 26.6483], [79.1464, 26.6482], [79.1465, 26.6481], [79.1465, 26.648], [79.1466, 26.6479], [79.1466, 26.6478], [79.1467, 26.6477], [79.1468, 26.6476], [79.1469, 26.6475], [79.147, 26.6474], [79.1471, 26.6474], [79.147, 26.6472], [79.1471, 26.6471], [79.1469, 26.6469], [79.1467, 26.6467], [79.1466, 26.6466], [79.1464, 26.6464], [79.1463, 26.6465], [79.146, 26.6468], [79.1457, 26.6471]]]}, "properties": {"objectid": 262876, "statename": "Uttar Pradesh", "statecode": "9", "districtname": "Etawah", "districtcode": "161", "ulbname": "Lakhna (Np)", "ulbcode": "800985", "wardname": "Matadevinagar", "wardcode": "7", "id": null, "status": "APPROVED", "misglobalid": null, "approved_by": null, "createdate": 1649304743000, "updateddate": 1731658809000, "globalid": null, "gisglobalid": "csc6asKd-K6l6-P4mn-Q6Ks-RP6cm4n4snad", "remark": "", "st_area(shape)": 5.22801411236773e-06, "st_perimeter(shape)": 0.011474477837794168}}, {"type": "Feature", "geometry": {"type": "Polygon", "coordinates": [[[79.1465, 26.6462], [79.1464, 26.6464], [79.1466, 26.6466], [79.1469, 26.6468], [79.1471, 26.647], [79.1471, 26.6471], [79.1471, 26.6472], [79.1471, 26.6473], [79.1471, 26.6474], [79.1473, 26.6475], [79.1474, 26.6475], [79.1475, 26.6474], [79.1476, 26.6474], [79.1477, 26.6473], [79.1478, 26.6473], [79.1478, 26.6472], [79.1479, 26.6471], [79.148, 26.647], [79.1481, 26.6469], [79.1483, 26.6467], [79.1485, 26.6466], [79.1486, 26.6465], [79.1487, 26.6465], [79.1488, 26.6465], [79.149, 26.6462], [79.1492, 26.6461], [79.1492, 26.646], [79.1492, 26.6459], [79.1493, 26.6458], [79.1493, 26.6457], [79.1493, 26.6456], [79.1494, 26.6456], [79.1494, 26.6455], [79.1496, 26.6453], [79.1497, 26.6453], [79.1497, 26.6452], [79.1498, 26.6451], [79.1499, 26.645], [79.1502, 26.6448], [79.1505, 26.6446], [79.1507, 26.6445], [79.1511, 26.6442], [79.1513, 26.644], [79.1518, 26.6435], [79.1512, 26.6427], [79.1503, 26.6433], [79.1497, 26.6437], [79.149, 26.6442], [79.1482, 26.6448], [79.1477, 26.6452], [79.1465, 26.6462]]]}, "properties": {"objectid": 263285, "statename": "Uttar Pradesh", "statecode": "9", "districtname": "Etawah", "districtcode": "161", "ulbname": "Lakhna (Np)", "ulbcode": "800985", "wardname": "Loyhiyanagar", "wardcode": "8", "id": null, "status": "APPROVED", "misglobalid": null, "approved_by": null, "createdate": 1649304743000, "updateddate": 1731658757000, "globalid": null, "gisglobalid": "mlsl4ssm-nnna-PcdQ-aold-doQ4Pl4csmBl", "remark": "", "st_area(shape)": 8.183690986609061e-06, "st_perimeter(shape)": 0.014867974406864751}}, {"type": "Feature", "geometry": {"type": "Polygon", "coordinates": [[[79.1503, 26.6499], [79.1498, 26.6505], [79.1499, 26.6507], [79.1503, 26.6512], [79.1508, 26.6516], [79.1507, 26.6517], [79.1509, 26.652], [79.1516, 26.6519], [79.1523, 26.6518], [79.1529, 26.6523], [79.1547, 26.6537], [79.156, 26.6523], [79.1554, 26.652], [79.1541, 26.6514], [79.1534, 26.6511], [79.1529, 26.6508], [79.1524, 26.6506], [79.1519, 26.6504], [79.1515, 26.6502], [79.1512, 26.6501], [79.1508, 26.6499], [79.1505, 26.6497], [79.1503, 26.6499]]]}, "properties": {"objectid": 264473, "statename": "Uttar Pradesh", "statecode": "9", "districtname": "Etawah", "districtcode": "161", "ulbname": "Lakhna (Np)", "ulbcode": "800985", "wardname": "Kalikadevinagar Second", "wardcode": "9", "id": null, "status": "APPROVED", "misglobalid": null, "approved_by": null, "createdate": 1649304743000, "updateddate": 1731658838000, "globalid": null, "gisglobalid": "BosaPloP-n6md-PKPc-Qcdn-cnaBmaPmK6KP", "remark": "", "st_area(shape)": 8.962066909606087e-06, "st_perimeter(shape)": 0.015500025099951437}}, {"type": "Feature", "geometry": {"type": "Polygon", "coordinates": [[[79.148, 26.6482], [79.1483, 26.6485], [79.1484, 26.6487], [79.1485, 26.6489], [79.1486, 26.6491], [79.1487, 26.6492], [79.1488, 26.6494], [79.1489, 26.6495], [79.1491, 26.6499], [79.1495, 26.6496], [79.1496, 26.6496], [79.1497, 26.6496], [79.1498, 26.6495], [79.1499, 26.6494], [79.1496, 26.6491], [79.1495, 26.6489], [79.1494, 26.6488], [79.1494, 26.6487], [79.1494, 26.6486], [79.1494, 26.6485], [79.1493, 26.6484], [79.1492, 26.6482], [79.1492, 26.6481], [79.1488, 26.6484], [79.1487, 26.6483], [79.1485, 26.6483], [79.1484, 26.6481], [79.1482, 26.6479], [79.1482, 26.6478], [79.148, 26.6479], [79.1479, 26.648], [79.148, 26.6482]]]}, "properties": {"objectid": 264474, "statename": "Uttar Pradesh", "statecode": "9", "districtname": "Etawah", "districtcode": "161", "ulbname": "Lakhna (Np)", "ulbcode": "800985", "wardname": "Kesavnagar", "wardcode": "10", "id": null, "status": "APPROVED", "misglobalid": null, "approved_by": null, "createdate": 1649304743000, "updateddate": 1731658852000, "globalid": null, "gisglobalid": "5444oBKK-lo5c-Pmnm-QslR-oRPl5Qa5saP5", "remark": "", "st_area(shape)": 1.6156018677979685e-06, "st_perimeter(shape)": 0.006462394386472674}}, {"type": "Feature", "geometry": {"type": "Polygon", "coordinates": [[[79.1474, 26.6475], [79.1474, 26.6476], [79.1475, 26.6476], [79.1476, 26.6477], [79.1477, 26.6477], [79.1477, 26.6478], [79.1478, 26.6477], [79.1478, 26.6478], [79.148, 26.6479], [79.1481, 26.6478], [79.1482, 26.6477], [79.1483, 26.6476], [79.1484, 26.6476], [79.1484, 26.6475], [79.1485, 26.6474], [79.1487, 26.6472], [79.1488, 26.6471], [79.149, 26.6469], [79.1493, 26.6467], [79.1495, 26.6465], [79.1498, 26.6463], [79.1501, 26.646], [79.1504, 26.6457], [79.1507, 26.6454], [79.1511, 26.6452], [79.1513, 26.6449], [79.1517, 26.6446], [79.1524, 26.644], [79.1522, 26.6438], [79.1521, 26.6437], [79.1519, 26.6435], [79.1508, 26.6445], [79.1505, 26.6447], [79.1502, 26.6449], [79.1499, 26.6451], [79.1498, 26.6451], [79.1498, 26.6452], [79.1497, 26.6452], [79.1495, 26.6455], [79.1494, 26.6456], [79.1493, 26.6457], [79.1493, 26.6458], [79.1492, 26.646], [79.1492, 26.6461], [79.1487, 26.6466], [79.1487, 26.6465], [79.1486, 26.6466], [79.1485, 26.6466], [79.1483, 26.6467], [79.148, 26.647], [79.148, 26.6471], [79.1478, 26.6473], [79.1477, 26.6474], [79.1476, 26.6474], [79.1475, 26.6474], [79.1474, 26.6475]]]}, "properties": {"objectid": 264075, "statename": "Uttar Pradesh", "statecode": "9", "districtname": "Etawah", "districtcode": "161", "ulbname": "Lakhna (Np)", "ulbcode": "800985", "wardname": "Kidvainagar", "wardcode": "11", "id": null, "status": "APPROVED", "misglobalid": null, "approved_by": null, "createdate": 1649304743000, "updateddate": 1731658879000, "globalid": null, "gisglobalid": "RslBP6oQ-BBnP-PloB-QmmK-Kcm5cKm6cmQ6", "remark": "", "st_area(shape)": 3.912230383467819e-06, "st_perimeter(shape)": 0.01362731246399283}}]}
