{"type": "FeatureCollection", "features": [{"type": "Feature", "geometry": {"type": "Polygon", "coordinates": [[[79.1019, 18.5], [79.0974, 18.4961], [79.0966, 18.496], [79.0961, 18.4958], [79.0955, 18.4957], [79.0947, 18.4957], [79.094, 18.4957], [79.0947, 18.4967], [79.0948, 18.497], [79.0955, 18.4989], [79.0968, 18.4989], [79.0966, 18.4982], [79.0972, 18.4981], [79.0984, 18.4995], [79.0969, 18.5008], [79.0956, 18.5012], [79.096, 18.5043], [79.0966, 18.5039], [79.0973, 18.5034], [79.098, 18.5027], [79.1019, 18.5]]]}, "properties": {"objectid": 61167, "statename": "Telanagana", "statecode": "36", "districtname": "Karimnagar", "districtcode": "534", "ulbname": "Kothapally", "ulbcode": "900545", "wardname": "Thooorpu Wada", "wardcode": "1", "id": null, "status": "APPROVED", "misglobalid": null, "approved_by": null, "createdate": 1640694601000, "updateddate": 1641274599000, "globalid": null, "gisglobalid": "dQ4dKRKR-Kmsm-PRBB-aRK5-n5B5llKo4dma", "remark": "", "st_area(shape)": 2.6842073611802765e-05, "st_perimeter(shape)": 0.03128242835047669}}, {"type": "Feature", "geometry": {"type": "Polygon", "coordinates": [[[79.1108, 18.4918], [79.1107, 18.4913], [79.112, 18.4916], [79.1135, 18.4915], [79.115, 18.4909], [79.1156, 18.4897], [79.1173, 18.4878], [79.1215, 18.4855], [79.1257, 18.4837], [79.1241, 18.4807], [79.1199, 18.4826], [79.1168, 18.4843], [79.1164, 18.4846], [79.108, 18.4903], [79.1065, 18.4913], [79.1026, 18.4913], [79.1017, 18.4914], [79.1001, 18.4924], [79.0986, 18.4933], [79.0971, 18.4935], [79.098, 18.494], [79.0981, 18.4947], [79.0974, 18.4961], [79.1019, 18.5], [79.104, 18.4987], [79.1061, 18.4966], [79.1097, 18.494], [79.1105, 18.4934], [79.1108, 18.4927], [79.1108, 18.4918]]]}, "properties": {"objectid": 60848, "statename": "Telanagana", "statecode": "36", "districtname": "Karimnagar", "districtcode": "534", "ulbname": "Kothapally", "ulbcode": "900545", "wardname": "Ranipoor, Thoorpuwada", "wardcode": "2", "id": null, "status": "APPROVED", "misglobalid": null, "approved_by": null, "createdate": 1640694601000, "updateddate": 1641274812000, "globalid": null, "gisglobalid": "mQcBR44l-cdQl-Plc6-aR46-loPl6PlssRoR", "remark": "", "st_area(shape)": 0.00013406006195247665, "st_perimeter(shape)": 0.07414267511580501}}, {"type": "Feature", "geometry": {"type": "Polygon", "coordinates": [[[79.1001, 18.4924], [79.1017, 18.4914], [79.1026, 18.4913], [79.1065, 18.4913], [79.108, 18.4903], [79.1164, 18.4846], [79.1168, 18.4843], [79.1199, 18.4826], [79.1241, 18.4807], [79.1228, 18.4771], [79.1203, 18.4751], [79.1184, 18.4753], [79.117, 18.4743], [79.1158, 18.474], [79.1151, 18.4745], [79.1152, 18.4737], [79.1141, 18.4746], [79.1133, 18.4751], [79.1123, 18.4754], [79.1104, 18.477], [79.1091, 18.476], [79.1078, 18.475], [79.1075, 18.4727], [79.1037, 18.4796], [79.0991, 18.4876], [79.1001, 18.4901], [79.0995, 18.4904], [79.0982, 18.4919], [79.0973, 18.4918], [79.0953, 18.4917], [79.0971, 18.4935], [79.0986, 18.4933], [79.1001, 18.4924]]]}, "properties": {"objectid": 64350, "statename": "Telanagana", "statecode": "36", "districtname": "Karimnagar", "districtcode": "534", "ulbname": "Kothapally", "ulbcode": "900545", "wardname": "Shivalayam, Rachabanda", "wardcode": "3", "id": null, "status": "APPROVED", "misglobalid": null, "approved_by": null, "createdate": 1640694601000, "updateddate": 1641274608000, "globalid": null, "gisglobalid": "PKP6nBcm-dmKa-PQ6Q-QaBn-KRQPKaK5Kcad", "remark": "", "st_area(shape)": 0.0002582862876579706, "st_perimeter(shape)": 0.08343551760192175}}, {"type": "Feature", "geometry": {"type": "Polygon", "coordinates": [[[79.1075, 18.4727], [79.1065, 18.4727], [79.1059, 18.4726], [79.1053, 18.4727], [79.1046, 18.4725], [79.1037, 18.4722], [79.1032, 18.472], [79.1029, 18.4722], [79.1023, 18.4725], [79.1016, 18.4728], [79.1008, 18.4726], [79.1, 18.4727], [79.0994, 18.4731], [79.0989, 18.4738], [79.0984, 18.4745], [79.0979, 18.4749], [79.0972, 18.4749], [79.0963, 18.475], [79.0955, 18.4757], [79.0959, 18.4765], [79.0968, 18.4762], [79.0984, 18.4806], [79.0987, 18.4813], [79.0993, 18.4831], [79.0993, 18.4836], [79.0992, 18.484], [79.0981, 18.4854], [79.0976, 18.4874], [79.0969, 18.4899], [79.0963, 18.4906], [79.0953, 18.4917], [79.0973, 18.4918], [79.0982, 18.4919], [79.0995, 18.4904], [79.1001, 18.4901], [79.0991, 18.4876], [79.1037, 18.4796], [79.1075, 18.4727]]]}, "properties": {"objectid": 65585, "statename": "Telanagana", "statecode": "36", "districtname": "Karimnagar", "districtcode": "534", "ulbname": "Kothapally", "ulbcode": "900545", "wardname": "Ambedkar Nagar", "wardcode": "4", "id": null, "status": "APPROVED", "misglobalid": null, "approved_by": null, "createdate": 1640694601000, "updateddate": 1641274711000, "globalid": null, "gisglobalid": "ndlols6K-R5a5-PRKQ-sn5Q-acdlsnlmco4c", "remark": "", "st_area(shape)": 9.034004061258845e-05, "st_perimeter(shape)": 0.05778131732917281}}, {"type": "Feature", "geometry": {"type": "Polygon", "coordinates": [[[79.0971, 18.4935], [79.0953, 18.4917], [79.0963, 18.4906], [79.0969, 18.4899], [79.0976, 18.4874], [79.0981, 18.4854], [79.0992, 18.484], [79.0993, 18.4836], [79.0993, 18.4831], [79.0987, 18.4813], [79.0984, 18.4806], [79.0968, 18.4762], [79.0959, 18.4765], [79.0955, 18.4757], [79.082, 18.4788], [79.0842, 18.4809], [79.0879, 18.4847], [79.0937, 18.4908], [79.0937, 18.4923], [79.0941, 18.4928], [79.0946, 18.4931], [79.0945, 18.4937], [79.0951, 18.4939], [79.0957, 18.4937], [79.0969, 18.4939], [79.098, 18.494], [79.0971, 18.4935]]]}, "properties": {"objectid": 66715, "statename": "Telanagana", "statecode": "36", "districtname": "Karimnagar", "districtcode": "534", "ulbname": "Kothapally", "ulbcode": "900545", "wardname": "Indira Nagar, Erukalawada", "wardcode": "5", "id": null, "status": "APPROVED", "misglobalid": null, "approved_by": null, "createdate": 1640694601000, "updateddate": 1641274626000, "globalid": null, "gisglobalid": "mKcm4dP6-n564-PmKm-sK56-lPaadnnQmQam", "remark": "", "st_area(shape)": 0.00015392801344770425, "st_perimeter(shape)": 0.0600578170408213}}, {"type": "Feature", "geometry": {"type": "Polygon", "coordinates": [[[79.098, 18.494], [79.0969, 18.4939], [79.0957, 18.4937], [79.0951, 18.4939], [79.0945, 18.4937], [79.0946, 18.4931], [79.0941, 18.4928], [79.0937, 18.4923], [79.0935, 18.4928], [79.0933, 18.4931], [79.0928, 18.4937], [79.0933, 18.4942], [79.0936, 18.4949], [79.094, 18.4957], [79.0947, 18.4957], [79.0955, 18.4957], [79.0961, 18.4958], [79.0966, 18.496], [79.0974, 18.4961], [79.0981, 18.4947], [79.098, 18.494]]]}, "properties": {"objectid": 65217, "statename": "Telanagana", "statecode": "36", "districtname": "Karimnagar", "districtcode": "534", "ulbname": "Kothapally", "ulbcode": "900545", "wardname": "Gandhi Chowrasta, Madigalawada", "wardcode": "6", "id": null, "status": "APPROVED", "misglobalid": null, "approved_by": null, "createdate": 1640694601000, "updateddate": 1641274617000, "globalid": null, "gisglobalid": "PlRmdPn5-acQB-PsB6-QmmK-dcRnBRQ5Bo4Q", "remark": "", "st_area(shape)": 1.0002638094027806e-05, "st_perimeter(shape)": 0.014936046280953597}}, {"type": "Feature", "geometry": {"type": "Polygon", "coordinates": [[[79.0874, 18.4999], [79.0881, 18.4995], [79.089, 18.4988], [79.0899, 18.4983], [79.0917, 18.4971], [79.0925, 18.4965], [79.0947, 18.4967], [79.094, 18.4957], [79.0936, 18.4949], [79.0933, 18.4942], [79.0928, 18.4937], [79.0933, 18.4931], [79.0935, 18.4928], [79.0937, 18.4923], [79.0937, 18.4908], [79.0879, 18.4847], [79.0842, 18.4809], [79.082, 18.4788], [79.0721, 18.4799], [79.0771, 18.4843], [79.0775, 18.4846], [79.0782, 18.4858], [79.0783, 18.4867], [79.0783, 18.4875], [79.0781, 18.488], [79.0778, 18.4888], [79.0776, 18.4891], [79.0773, 18.4897], [79.0771, 18.4903], [79.0777, 18.4913], [79.0786, 18.4929], [79.0794, 18.4941], [79.0797, 18.4952], [79.0804, 18.4962], [79.081, 18.4971], [79.081, 18.4983], [79.081, 18.4989], [79.0827, 18.4998], [79.0841, 18.5021], [79.0861, 18.5007], [79.0874, 18.4999]]]}, "properties": {"objectid": 66714, "statename": "Telanagana", "statecode": "36", "districtname": "Karimnagar", "districtcode": "534", "ulbname": "Kothapally", "ulbcode": "900545", "wardname": "Mck Office Road", "wardcode": "7", "id": null, "status": "APPROVED", "misglobalid": null, "approved_by": null, "createdate": 1640694601000, "updateddate": 1641274636000, "globalid": null, "gisglobalid": "QBdsQRld-mn4l-Pao4-QdmQ-5dRnPmQ56l4P", "remark": "", "st_area(shape)": 0.0002548971861990585, "st_perimeter(shape)": 0.07338832471630637}}, {"type": "Feature", "geometry": {"type": "Polygon", "coordinates": [[[79.0932, 18.4991], [79.0955, 18.4989], [79.0948, 18.497], [79.0947, 18.4967], [79.0925, 18.4965], [79.0917, 18.4971], [79.0899, 18.4983], [79.0908, 18.4993], [79.0927, 18.4986], [79.0932, 18.4991]]]}, "properties": {"objectid": 64799, "statename": "Telanagana", "statecode": "36", "districtname": "Karimnagar", "districtcode": "534", "ulbname": "Kothapally", "ulbcode": "900545", "wardname": "Sangam Chowrasta, Edgha", "wardcode": "8", "id": null, "status": "APPROVED", "misglobalid": null, "approved_by": null, "createdate": 1640694601000, "updateddate": 1641274832000, "globalid": null, "gisglobalid": "n46c6RQd-4alP-Pccd-RloR-BmBKRK66BdQs", "remark": "", "st_area(shape)": 9.960284248212824e-06, "st_perimeter(shape)": 0.014127575684704151}}, {"type": "Feature", "geometry": {"type": "Polygon", "coordinates": [[[79.0908, 18.4993], [79.0899, 18.4983], [79.089, 18.4988], [79.0881, 18.4995], [79.0874, 18.4999], [79.0883, 18.5008], [79.0873, 18.5015], [79.0882, 18.5025], [79.0908, 18.4993]]]}, "properties": {"objectid": 61166, "statename": "Telanagana", "statecode": "36", "districtname": "Karimnagar", "districtcode": "534", "ulbname": "Kothapally", "ulbcode": "900545", "wardname": "Katte Machine", "wardcode": "9", "id": null, "status": "APPROVED", "misglobalid": null, "approved_by": null, "createdate": 1640694601000, "updateddate": 1641274845000, "globalid": null, "gisglobalid": "oQllQldo-noms-P4Kc-QnBc-66sdosKPc6sQ", "remark": "", "st_area(shape)": 6.568305628754085e-06, "st_perimeter(shape)": 0.012136692595144171}}, {"type": "Feature", "geometry": {"type": "Polygon", "coordinates": [[[79.0829, 18.5085], [79.085, 18.5061], [79.0858, 18.5051], [79.0882, 18.5025], [79.0873, 18.5015], [79.0883, 18.5008], [79.0874, 18.4999], [79.0861, 18.5007], [79.0841, 18.5021], [79.0827, 18.4998], [79.081, 18.4989], [79.081, 18.4983], [79.081, 18.4971], [79.0804, 18.4962], [79.0797, 18.4952], [79.0794, 18.4941], [79.0786, 18.4929], [79.0777, 18.4913], [79.0771, 18.4903], [79.0773, 18.4897], [79.0776, 18.4891], [79.0778, 18.4888], [79.0781, 18.488], [79.0783, 18.4875], [79.0783, 18.4867], [79.0782, 18.4858], [79.0775, 18.4846], [79.0771, 18.4843], [79.0721, 18.4799], [79.0657, 18.4818], [79.0682, 18.4851], [79.0678, 18.4859], [79.0675, 18.4867], [79.0679, 18.4871], [79.0682, 18.4893], [79.0688, 18.4917], [79.0683, 18.4922], [79.0685, 18.4929], [79.0684, 18.4941], [79.0683, 18.4963], [79.0692, 18.4971], [79.0692, 18.4986], [79.0699, 18.4998], [79.0712, 18.5005], [79.0697, 18.5014], [79.0709, 18.5049], [79.0696, 18.5058], [79.0709, 18.5088], [79.0713, 18.5097], [79.0709, 18.5102], [79.0708, 18.5108], [79.0756, 18.5072], [79.0794, 18.5114], [79.0798, 18.5109], [79.0822, 18.5092], [79.0829, 18.5085]]]}, "properties": {"objectid": 61165, "statename": "Telanagana", "statecode": "36", "districtname": "Karimnagar", "districtcode": "534", "ulbname": "Kothapally", "ulbcode": "900545", "wardname": "Reddy Ramaiah Palle Road", "wardcode": "10", "id": null, "status": "APPROVED", "misglobalid": null, "approved_by": null, "createdate": 1640694601000, "updateddate": 1641274650000, "globalid": null, "gisglobalid": "Bn44o6Rd-KcQ4-Pm4c-a65c-RldPRBcPomQm", "remark": "", "st_area(shape)": 0.0003366574734365325, "st_perimeter(shape)": 0.10041000960439773}}, {"type": "Feature", "geometry": {"type": "Polygon", "coordinates": [[[79.0804, 18.5149], [79.0883, 18.5114], [79.092, 18.5094], [79.0926, 18.5096], [79.0938, 18.5083], [79.0922, 18.5066], [79.0944, 18.505], [79.093, 18.5004], [79.0939, 18.5], [79.0932, 18.4991], [79.0927, 18.4986], [79.0908, 18.4993], [79.0882, 18.5025], [79.0858, 18.5051], [79.085, 18.5061], [79.0829, 18.5085], [79.0822, 18.5092], [79.0798, 18.5109], [79.0794, 18.5114], [79.0756, 18.5072], [79.0708, 18.5108], [79.0742, 18.5135], [79.0764, 18.5122], [79.0786, 18.5138], [79.0795, 18.514], [79.0804, 18.5149]]]}, "properties": {"objectid": 65216, "statename": "Telanagana", "statecode": "36", "districtname": "Karimnagar", "districtcode": "534", "ulbname": "Kothapally", "ulbcode": "900545", "wardname": "Gokul Nagar", "wardcode": "11", "id": null, "status": "APPROVED", "misglobalid": null, "approved_by": null, "createdate": 1640694601000, "updateddate": 1641274574000, "globalid": null, "gisglobalid": "nn6Pcms4-oQ5d-PBQd-QBdP-6csa4odsKn4Q", "remark": "", "st_area(shape)": 0.00013814593948775726, "st_perimeter(shape)": 0.07002384865096219}}, {"type": "Feature", "geometry": {"type": "Polygon", "coordinates": [[[79.0984, 18.4995], [79.0972, 18.4981], [79.0966, 18.4982], [79.0968, 18.4989], [79.0955, 18.4989], [79.0932, 18.4991], [79.0939, 18.5], [79.093, 18.5004], [79.0944, 18.505], [79.0922, 18.5066], [79.0938, 18.5083], [79.0963, 18.5064], [79.096, 18.5043], [79.0956, 18.5012], [79.0969, 18.5008], [79.0984, 18.4995]]]}, "properties": {"objectid": 66716, "statename": "Telanagana", "statecode": "36", "districtname": "Karimnagar", "districtcode": "534", "ulbname": "Kothapally", "ulbcode": "900545", "wardname": "Padmanagar", "wardcode": "12", "id": null, "status": "APPROVED", "misglobalid": null, "approved_by": null, "createdate": 1640694601000, "updateddate": 1641274585000, "globalid": null, "gisglobalid": "smamBa6P-PRl5-PanK-s6KB-oR4aPP6al5md", "remark": "", "st_area(shape)": 2.5791230136580742e-05, "st_perimeter(shape)": 0.03062488999594932}}]}
