{"type":"Topology","arcs":[[[26117,38843],[687,2479]],[[26804,41322],[0,1240]],[[26804,42562],[1375,413]],[[28179,42975],[10309,-2480]],[[38488,40495],[-1031,-4132]],[[37457,36363],[-344,-1239]],[[37113,35124],[-7216,413],[-4467,-4546]],[[25430,30991],[-1031,414]],[[24399,31405],[-1031,413]],[[23368,31818],[-2406,2892]],[[20962,34710],[344,827]],[[21306,35537],[4811,3306]],[[21306,35537],[-344,-827]],[[23368,31818],[1031,-413]],[[25430,30991],[-344,-413]],[[25086,30578],[-6529,-1653],[-5155,-5785]],[[13402,23140],[687,-413]],[[14089,22727],[-6185,-5372]],[[7904,17355],[-4124,10744]],[[3780,28099],[12028,4545],[4811,9504]],[[20619,42148],[687,0]],[[21306,42148],[5498,414]],[[26804,41322],[-687,-2479]],[[37113,35124],[0,-414]],[[37113,34710],[-4467,-7024]],[[32646,27686],[687,-827]],[[33333,26859],[-8247,3719]],[[14777,60330],[10309,-4545]],[[25086,55785],[3093,413]],[[28179,56198],[343,-1653],[0,-6198],[-1374,-2480],[1031,-2892]],[[21306,42148],[-1375,0]],[[19931,42148],[-15120,7852]],[[4811,50000],[-2406,413]],[[2405,50413],[12372,9917]],[[14089,22727],[-687,413]],[[33333,26859],[2406,0]],[[35739,26859],[-2749,-16942],[1374,-7438]],[[34364,2479],[0,-2479]],[[34364,0],[-12371,2479],[-8935,6199],[-5154,8677]],[[54983,47520],[2405,2066]],[[57388,49586],[7560,9504]],[[64948,59090],[5842,-2479]],[[70790,56611],[2406,-826]],[[73196,55785],[-1031,-1653],[-2749,-6612],[-344,-3719],[2406,-7438]],[[71478,36363],[-7560,4546]],[[63918,40909],[-1031,413]],[[62887,41322],[-1719,826]],[[61168,42148],[-1374,827]],[[59794,42975],[-4811,4545]],[[38832,57024],[-344,-14876]],[[38488,42148],[0,-1653]],[[28179,56198],[687,0]],[[28866,56198],[8591,826]],[[37457,57024],[1375,0]],[[34364,80991],[7560,-3719],[14777,-413]],[[56701,76859],[0,-2066]],[[56701,74793],[-3093,-7025],[-7560,-827],[2406,-7437]],[[48454,59504],[-5842,-1653]],[[42612,57851],[-2749,-414]],[[39863,57437],[-2406,-413]],[[28866,56198],[-3780,-413]],[[14777,60330],[11683,10744],[7904,9917]],[[60825,59504],[-12371,0]],[[56701,74793],[12715,-8265]],[[69416,66528],[-687,-1239]],[[68729,65289],[-688,-1240]],[[68041,64049],[-3093,-4959]],[[64948,59090],[-4123,414]],[[48454,42562],[1031,1652]],[[49485,44214],[-5842,2480],[-2406,10743]],[[41237,57437],[1375,414]],[[60825,59504],[4123,-414]],[[57388,49586],[-2405,-2066]],[[54983,47520],[-3780,-4132]],[[51203,43388],[-1375,-826]],[[49828,42562],[-1374,0]],[[2405,50413],[2406,-413]],[[19931,42148],[688,0]],[[3780,28099],[-3780,19008],[2405,3306]],[[78351,28925],[1030,1653]],[[79381,30578],[-7903,5785]],[[73196,55785],[344,-414]],[[73540,55371],[5841,-4132]],[[79381,51239],[4124,-3719]],[[83505,47520],[6529,-4132]],[[90034,43388],[8591,-3719]],[[98625,39669],[1375,-8678]],[[100000,30991],[-8591,-3719],[-13058,1653]],[[91409,25206],[-12028,-11570],[-11340,-6611],[-24055,-7025],[-9622,0]],[[34364,2479],[11684,0],[2406,4133],[-3780,16115]],[[44674,22727],[12027,-8678],[7217,1653],[2749,10331]],[[66667,26033],[6185,2066],[4124,-5785],[6186,3306],[8247,-414]],[[57732,79338],[-1031,-2479]],[[34364,80991],[17526,19008],[15464,-5785]],[[67354,94214],[2405,-7025]],[[69759,87189],[1031,-4132]],[[70790,83057],[-3780,0]],[[67010,83057],[-7903,-4545]],[[59107,78512],[-1375,826]],[[68041,64049],[688,1240]],[[69416,66528],[2062,3306],[-688,13223]],[[69759,87189],[-2405,7025]],[[67354,94214],[16838,-6198],[7904,-26860],[1375,-9504],[5154,-11983]],[[98625,39669],[-8591,3719]],[[90034,43388],[-6529,4132]],[[83505,47520],[-4124,3719]],[[73540,55371],[-2750,1240]],[[57732,79338],[1375,-826]],[[67010,83057],[3780,0]],[[56701,74793],[0,2066]],[[35739,26859],[3093,1240]],[[38832,28099],[5842,-4959]],[[44674,23140],[0,-413]],[[63230,41322],[688,-413]],[[79381,30578],[-1030,-1653]],[[78351,28925],[-13746,4959]],[[64605,33884],[-687,826]],[[63918,34710],[-688,414]],[[63230,35124],[-1718,826]],[[61512,35950],[-687,826]],[[60825,36776],[1718,1653],[687,2893]],[[61512,35950],[1718,-826]],[[63918,34710],[687,-826]],[[100000,30991],[-8591,-5785]],[[66667,26033],[-7560,8677]],[[59107,34710],[1718,2066]],[[45017,35950],[-2749,2893]],[[42268,38843],[-1718,413]],[[40550,39256],[-2062,1239]],[[38488,40495],[0,1653]],[[38832,57024],[1031,413]],[[39863,57437],[1374,0]],[[49485,44214],[-1031,-1652]],[[48454,42562],[-3437,-6612]],[[49828,42562],[5155,-9091]],[[54983,33471],[-1031,-413]],[[53952,33058],[-2406,-2480]],[[51546,30578],[-6529,5372]],[[44674,23140],[6872,7438]],[[53952,33058],[2062,826]],[[56014,33884],[3093,826]],[[33333,26859],[-687,827]],[[37113,34710],[344,1653]],[[40550,39256],[1374,-413]],[[41924,38843],[-3092,-10744]],[[49828,42562],[1375,826]],[[59794,42975],[1374,-827]],[[62887,41322],[343,0]],[[56014,33884],[-1031,-413]],[[41924,38843],[344,0]]],"transform":{"scale":[2.909999999999968e-7,2.4200242002416915e-7],"translate":[79.1194,25.2356]},"objects":{"wards":{"type":"GeometryCollection","geometries":[{"arcs":[[0,1,2,3,4,5,6,7,8,9,10,11]],"type":"Polygon","properties":{"objectid":197909,"statename":"Uttar Pradesh","statecode":"9","districtname":"","districtcode":"166","ulbname":"Mauranipur","ulbcode":"801025","wardname":"Gopalganj Utari","wardcode":"1","id":null,"status":"APPROVED","misglobalid":null,"approved_by":null,"createdate":1646410028000,"updateddate":1670595641000,"globalid":null,"gisglobalid":"mBcP4lPB-aoo4-PKad-QnKl-Q4PR5lKdon6o","remark":"Approved","st_area(shape)":0.000007917724978945928,"st_perimeter(shape)":0.013820628886181168}},{"arcs":[[12,-10,13,-8,14,15,16,17,18,19,20,21,-2,22,-12]],"type":"Polygon","properties":{"objectid":199485,"statename":"Uttar Pradesh","statecode":"9","districtname":"","districtcode":"166","ulbname":"Mauranipur","ulbcode":"801025","wardname":"Shivganj Purvi","wardcode":"2","id":null,"status":"APPROVED","misglobalid":null,"approved_by":null,"createdate":1646410028000,"updateddate":1670595897000,"globalid":null,"gisglobalid":"RcmPKKKs-R564-PKoK-RllB-n5cPonBKBQml","remark":"Approved ","st_area(shape)":0.000013984715982674067,"st_perimeter(shape)":0.026393199477854873}},{"arcs":[[23,24,25,26,-15,-7]],"type":"Polygon","properties":{"objectid":199483,"statename":"Uttar Pradesh","statecode":"9","districtname":"","districtcode":"166","ulbname":"Mauranipur","ulbcode":"801025","wardname":"Gopalganj Dakshini","wardcode":"3","id":null,"status":"APPROVED","misglobalid":null,"approved_by":null,"createdate":1646410028000,"updateddate":1670596044000,"globalid":null,"gisglobalid":"Rdasan5Q-4Rmm-PPod-RBd4-cQRdmPsnaPcl","remark":"Approved","st_area(shape)":0.000004218389761532814,"st_perimeter(shape)":0.010433370935613999}},{"arcs":[[27,28,29,-3,-22,30,31,32,33]],"type":"Polygon","properties":{"objectid":199062,"statename":"Uttar Pradesh","statecode":"9","districtname":"","districtcode":"166","ulbname":"Mauranipur","ulbcode":"801025","wardname":"Puranimau","wardcode":"4","id":null,"status":"APPROVED","misglobalid":null,"approved_by":null,"createdate":1646410028000,"updateddate":1670596189000,"globalid":null,"gisglobalid":"RcnmdolQ-slmm-Pado-RR6a-aalRlsBl5Qns","remark":"Approved","st_area(shape)":0.000019546001215930845,"st_perimeter(shape)":0.020162140682789483}},{"arcs":[[-18,34,-16,-27,35,36,37,38]],"type":"Polygon","properties":{"objectid":199479,"statename":"Uttar Pradesh","statecode":"9","districtname":"","districtcode":"166","ulbname":"Mauranipur","ulbcode":"801025","wardname":"Kurechanaka","wardcode":"5","id":null,"status":"APPROVED","misglobalid":null,"approved_by":null,"createdate":1646410028000,"updateddate":1670596214000,"globalid":null,"gisglobalid":"mdKno5ac-aPPd-PP6l-aKQl-dPBPdn4moaml","remark":"Approved","st_area(shape)":0.00003917655476034061,"st_perimeter(shape)":0.02887571703115211}},{"arcs":[[39,40,41,42,43,44,45,46,47,48]],"type":"Polygon","properties":{"objectid":197908,"statename":"Uttar Pradesh","statecode":"9","districtname":"","districtcode":"166","ulbname":"Mauranipur","ulbcode":"801025","wardname":"Gandhiganj Utari","wardcode":"6","id":null,"status":"APPROVED","misglobalid":null,"approved_by":null,"createdate":1646410028000,"updateddate":1670596249000,"globalid":null,"gisglobalid":"Q44lKmmQ-Q5oc-P5oP-sKs4-oPBlnolKcdoP","remark":"Approved","st_area(shape)":0.0000138889142907452,"st_perimeter(shape)":0.017159010597420282}},{"arcs":[[49,50,-4,-30,51,52,53]],"type":"Polygon","properties":{"objectid":198256,"statename":"Uttar Pradesh","statecode":"9","districtname":"","districtcode":"166","ulbname":"Mauranipur","ulbcode":"801025","wardname":"Chaukadmela","wardcode":"7","id":null,"status":"APPROVED","misglobalid":null,"approved_by":null,"createdate":1646410028000,"updateddate":1670596316000,"globalid":null,"gisglobalid":"mmommQol-KKQ5-PsQa-RPd5-4dlm4Rc5Ksm5","remark":"Approved","st_area(shape)":0.000011651697097376963,"st_perimeter(shape)":0.013838980880763463}},{"arcs":[[54,55,56,57,58,59,-53,60,-28,61]],"type":"Polygon","properties":{"objectid":199476,"statename":"Uttar Pradesh","statecode":"9","districtname":"","districtcode":"166","ulbname":"Mauranipur","ulbcode":"801025","wardname":"Nadipaar Katra Paschimi","wardcode":"8","id":null,"status":"APPROVED","misglobalid":null,"approved_by":null,"createdate":1646410028000,"updateddate":1670596351000,"globalid":null,"gisglobalid":"KcQmRRK4-ndQP-PBaP-QPBl-d4alPPoPsnm5","remark":"Approved","st_area(shape)":0.00004018184050657335,"st_perimeter(shape)":0.03992766899116801}},{"arcs":[[62,-57,63,64,65,66,67]],"type":"Polygon","properties":{"objectid":193962,"statename":"Uttar Pradesh","statecode":"9","districtname":"","districtcode":"166","ulbname":"Mauranipur","ulbcode":"801025","wardname":"Nadipaar Katra Purvi","wardcode":"9","id":null,"status":"APPROVED","misglobalid":null,"approved_by":null,"createdate":1646410028000,"updateddate":1670596417000,"globalid":null,"gisglobalid":"nssKQsQQ-PsBP-PBP4-RRnn-aQ46dnddlP6R","remark":"Approved","st_area(shape)":0.000019064381952467625,"st_perimeter(shape)":0.025535104962187735}},{"arcs":[[68,69,70,-58,-63,71,-41,72,73,74,75]],"type":"Polygon","properties":{"objectid":199850,"statename":"Uttar Pradesh","statecode":"9","districtname":"","districtcode":"166","ulbname":"Mauranipur","ulbcode":"801025","wardname":"Katra Shaher","wardcode":"10","id":null,"status":"APPROVED","misglobalid":null,"approved_by":null,"createdate":1646410028000,"updateddate":1670596472000,"globalid":null,"gisglobalid":"4lnBRmBK-sBa4-P5sc-Rn4R-P6n6Klmn5BRP","remark":"Approved","st_area(shape)":0.00001774387268447846,"st_perimeter(shape)":0.01863673823799658}},{"arcs":[[76,-32,77,-20,78]],"type":"Polygon","properties":{"objectid":199480,"statename":"Uttar Pradesh","statecode":"9","districtname":"","districtcode":"166","ulbname":"Mauranipur","ulbcode":"801025","wardname":"Shivganj Paschimi","wardcode":"11","id":null,"status":"APPROVED","misglobalid":null,"approved_by":null,"createdate":1646410028000,"updateddate":1670596510000,"globalid":null,"gisglobalid":"PccPcmPs-d65R-PQoK-sQsK-dPl5dPodRRRB","remark":"Approved","st_area(shape)":0.000019576791502428327,"st_perimeter(shape)":0.019911395382609727}},{"arcs":[[79,80,-44,81,82,83,84,85,86,87]],"type":"Polygon","properties":{"objectid":199478,"statename":"Uttar Pradesh","statecode":"9","districtname":"","districtcode":"166","ulbname":"Mauranipur","ulbcode":"801025","wardname":"Gandhiganj Purvi","wardcode":"12","id":null,"status":"APPROVED","misglobalid":null,"approved_by":null,"createdate":1646410028000,"updateddate":1670596583000,"globalid":null,"gisglobalid":"nKcocPd6-4acs-Psld-snBR-BR64lsB4464P","remark":"Approved","st_area(shape)":0.00003299098323094851,"st_perimeter(shape)":0.02726223794125801}},{"arcs":[[88,-38,89,90,91]],"type":"Polygon","properties":{"objectid":197907,"statename":"Uttar Pradesh","statecode":"9","districtname":"","districtcode":"166","ulbname":"Mauranipur","ulbcode":"801025","wardname":"Parvaripura Purvi","wardcode":"13","id":null,"status":"APPROVED","misglobalid":null,"approved_by":null,"createdate":1646410028000,"updateddate":1670596773000,"globalid":null,"gisglobalid":"P5BcKRPs-KdcQ-Pso4-Rol4-od5mccnRoasc","remark":"Approved","st_area(shape)":0.00003901455490407078,"st_perimeter(shape)":0.045332493730905546}},{"arcs":[[92,-55,93,94,95,96,97,98]],"type":"Polygon","properties":{"objectid":197902,"statename":"Uttar Pradesh","statecode":"9","districtname":"","districtcode":"166","ulbname":"Mauranipur","ulbcode":"801025","wardname":"Nadipaar Station Utari","wardcode":"14","id":null,"status":"APPROVED","misglobalid":null,"approved_by":null,"createdate":1646410028000,"updateddate":1670596812000,"globalid":null,"gisglobalid":"adQsc4Pa-4lca-PRRd-a5dB-cadRaadlRsml","remark":"Approved","st_area(shape)":0.00003732079536388377,"st_perimeter(shape)":0.029103339872749153}},{"arcs":[[99,-65,100,-96,101,102,103,104,105,-83,106,-42,-67]],"type":"Polygon","properties":{"objectid":199848,"statename":"Uttar Pradesh","statecode":"9","districtname":"","districtcode":"166","ulbname":"Mauranipur","ulbcode":"801025","wardname":"Nehru Nagar","wardcode":"15","id":null,"status":"APPROVED","misglobalid":null,"approved_by":null,"createdate":1646410028000,"updateddate":1670596866000,"globalid":null,"gisglobalid":"m5a4545P-a6lR-PKRR-adPo-5KK5sda5Rodo","remark":"Approved","st_area(shape)":0.00005870475696200229,"st_perimeter(shape)":0.03804807843825274}},{"arcs":[[107,-98,108,-101,-64,109,-93]],"type":"Polygon","properties":{"objectid":200260,"statename":"Uttar Pradesh","statecode":"9","districtname":"","districtcode":"166","ulbname":"Mauranipur","ulbcode":"801025","wardname":"Nadipaar Station Dakshini","wardcode":"16","id":null,"status":"APPROVED","misglobalid":null,"approved_by":null,"createdate":1646410028000,"updateddate":1670596917000,"globalid":null,"gisglobalid":"45aBP6od-BQ4c-PmPR-RRR6-64mmQ6Rd4KQP","remark":"Approved","st_area(shape)":0.000009257141507679045,"st_perimeter(shape)":0.016070196412921522}},{"arcs":[[-37,110,111,112,-90]],"type":"Polygon","properties":{"objectid":199849,"statename":"Uttar Pradesh","statecode":"9","districtname":"","districtcode":"166","ulbname":"Mauranipur","ulbcode":"801025","wardname":"Parvaripura Paschimi","wardcode":"17","id":null,"status":"APPROVED","misglobalid":null,"approved_by":null,"createdate":1646410028000,"updateddate":1670596947000,"globalid":null,"gisglobalid":"BPm5nsmQ-clBc-P5cP-RPBo-cRnPacdRd6a5","remark":"Approved","st_area(shape)":0.00002028267299137137,"st_perimeter(shape)":0.019408690372898548}},{"arcs":[[113,-45,-81,114,115,116,117,118,119,120]],"type":"Polygon","properties":{"objectid":199482,"statename":"Uttar Pradesh","statecode":"9","districtname":"","districtcode":"166","ulbname":"Mauranipur","ulbcode":"801025","wardname":"Gandhiganj Paschimi","wardcode":"18","id":null,"status":"APPROVED","misglobalid":null,"approved_by":null,"createdate":1646410028000,"updateddate":1670596972000,"globalid":null,"gisglobalid":"PlRBm4Pd-daPB-PmKP-am5Q-PK6aBmQs4sds","remark":"Approved","st_area(shape)":0.0000061176997585505215,"st_perimeter(shape)":0.01659327313265218}},{"arcs":[[-120,121,-118,122,-116,-88,123,-92,124,125]],"type":"Polygon","properties":{"objectid":197906,"statename":"Uttar Pradesh","statecode":"9","districtname":"","districtcode":"166","ulbname":"Mauranipur","ulbcode":"801025","wardname":"Gandhiganj Dakshini","wardcode":"19","id":null,"status":"APPROVED","misglobalid":null,"approved_by":null,"createdate":1646410028000,"updateddate":1670597012000,"globalid":null,"gisglobalid":"QdosPBRQ-46dP-P4dc-RmBQ-BoosoKcm4lld","remark":"Approved","st_area(shape)":0.000013272770437140896,"st_perimeter(shape)":0.029893894163149446}},{"arcs":[[126,127,128,129,-50,130,131,-70,132,133]],"type":"Polygon","properties":{"objectid":199477,"statename":"Uttar Pradesh","statecode":"9","districtname":"","districtcode":"166","ulbname":"Mauranipur","ulbcode":"801025","wardname":"Chipyaat","wardcode":"20","id":null,"status":"APPROVED","misglobalid":null,"approved_by":null,"createdate":1646410028000,"updateddate":1670597043000,"globalid":null,"gisglobalid":"6QosnsBl-QclB-PRKm-smmQ-aQdBnBBRlsKs","remark":"Approved","st_area(shape)":0.000007063852162388732,"st_perimeter(shape)":0.015356569051115874}},{"arcs":[[-134,-76,134,135,136,137]],"type":"Polygon","properties":{"objectid":197903,"statename":"Uttar Pradesh","statecode":"9","districtname":"","districtcode":"166","ulbname":"Mauranipur","ulbcode":"801025","wardname":"Alyai Dakshini","wardcode":"21","id":null,"status":"APPROVED","misglobalid":null,"approved_by":null,"createdate":1646410028000,"updateddate":1670597416000,"globalid":null,"gisglobalid":"sRPls44l-cclm-PPma-RadQ-KlPs6oKPdldR","remark":"Approved","st_area(shape)":0.0000051374448693099626,"st_perimeter(shape)":0.010449430668745189}},{"arcs":[[-113,138,-137,139,140,-125,-91]],"type":"Polygon","properties":{"objectid":197904,"statename":"Uttar Pradesh","statecode":"9","districtname":"","districtcode":"166","ulbname":"Mauranipur","ulbcode":"801025","wardname":"Purani Belai","wardcode":"22","id":null,"status":"APPROVED","misglobalid":null,"approved_by":null,"createdate":1646410028000,"updateddate":1670597430000,"globalid":null,"gisglobalid":"PmmlBBPB-5sc6-PKaR-QBRn-ndRP6Pso6cso","remark":"Approved","st_area(shape)":0.000019021204472449565,"st_perimeter(shape)":0.018071864710532654}},{"arcs":[[-111,-36,141,-25,142,-5,-129,143,144]],"type":"Polygon","properties":{"objectid":197905,"statename":"Uttar Pradesh","statecode":"9","districtname":"","districtcode":"166","ulbname":"Mauranipur","ulbcode":"801025","wardname":"Sabungram","wardcode":"23","id":null,"status":"APPROVED","misglobalid":null,"approved_by":null,"createdate":1646410028000,"updateddate":1670597446000,"globalid":null,"gisglobalid":"PPBK6QK4-omon-Pon5-Q664-oRoKlnnR4Pn5","remark":"Approved","st_area(shape)":0.000005159943548211222,"st_perimeter(shape)":0.011499036391805384}},{"arcs":[[145,-74,-49,146,-47,147,-121,-126,-141,148,-135]],"type":"Polygon","properties":{"objectid":199481,"statename":"Uttar Pradesh","statecode":"9","districtname":"","districtcode":"166","ulbname":"Mauranipur","ulbcode":"801025","wardname":"Alyai Utari","wardcode":"24","id":null,"status":"APPROVED","misglobalid":null,"approved_by":null,"createdate":1646410028000,"updateddate":1670597460000,"globalid":null,"gisglobalid":"asQ6ndoP-clKn-P4Bs-RoPP-PPBaQ6KaP6aB","remark":"Approved","st_area(shape)":0.000006750324175519366,"st_perimeter(shape)":0.011377923140961877}},{"arcs":[[-112,-145,149,-127,-138,-139]],"type":"Polygon","properties":{"objectid":199484,"statename":"Uttar Pradesh","statecode":"9","districtname":"","districtcode":"166","ulbname":"Mauranipur","ulbcode":"801025","wardname":"Pathakpura","wardcode":"25","id":null,"status":"APPROVED","misglobalid":null,"approved_by":null,"createdate":1646410028000,"updateddate":1670597473000,"globalid":null,"gisglobalid":"llPsP44m-R55R-P5ln-QdKn-KRnc4sPKPKas","remark":"Approved","st_area(shape)":0.000006508959478287286,"st_perimeter(shape)":0.012635433384389223}}]}}}