{"type": "FeatureCollection", "features": [{"type": "Feature", "geometry": {"type": "Polygon", "coordinates": [[[82.5172, 25.2444], [82.5184, 25.2439], [82.519, 25.2437], [82.5189, 25.2434], [82.5184, 25.2433], [82.5181, 25.2432], [82.5179, 25.243], [82.5183, 25.2428], [82.5182, 25.2426], [82.5182, 25.2423], [82.5181, 25.2422], [82.5178, 25.2417], [82.517, 25.2417], [82.5161, 25.2418], [82.5172, 25.2444]]]}, "properties": {"objectid": 247943, "statename": "Uttar Pradesh", "statecode": "9", "districtname": "Bhadohi", "districtcode": "198", "ulbname": "Khamaria", "ulbcode": "801242", "wardname": "Kotia Dashmi Ki Bari", "wardcode": "1", "id": null, "status": "APPROVED", "misglobalid": null, "approved_by": null, "createdate": 1648198495000, "updateddate": 1648198794000, "globalid": null, "gisglobalid": "o4nms4no-cno5-PmK6-aalQ-cdlsQBmRc5la", "remark": "", "st_area(shape)": 4.192890421025151e-06, "st_perimeter(shape)": 0.009524237649620848}}, {"type": "Feature", "geometry": {"type": "Polygon", "coordinates": [[[82.5112, 25.2473], [82.5143, 25.2459], [82.5157, 25.2451], [82.5149, 25.2433], [82.5144, 25.2434], [82.5141, 25.2435], [82.5137, 25.2434], [82.5136, 25.2435], [82.5136, 25.2436], [82.5135, 25.2436], [82.5133, 25.2437], [82.513, 25.2438], [82.5132, 25.2443], [82.5133, 25.2447], [82.5129, 25.245], [82.5121, 25.2454], [82.5109, 25.246], [82.5107, 25.2461], [82.5112, 25.2473]]]}, "properties": {"objectid": 248357, "statename": "Uttar Pradesh", "statecode": "9", "districtname": "Bhadohi", "districtcode": "198", "ulbname": "Khamaria", "ulbcode": "801242", "wardname": "Bhajaipur", "wardcode": "2", "id": null, "status": "APPROVED", "misglobalid": null, "approved_by": null, "createdate": 1648197856000, "updateddate": 1648198801000, "globalid": null, "gisglobalid": "mlna65sd-Bsnl-P5K4-aooB-Rla4KlmRBcPl", "remark": "Ok", "st_area(shape)": 8.47441857487639e-06, "st_perimeter(shape)": 0.014281416014988236}}, {"type": "Feature", "geometry": {"type": "Polygon", "coordinates": [[[82.5134, 25.2424], [82.5143, 25.2421], [82.5142, 25.2414], [82.5144, 25.2412], [82.5145, 25.2411], [82.5148, 25.241], [82.5149, 25.241], [82.5148, 25.2409], [82.5148, 25.2408], [82.5154, 25.2406], [82.5141, 25.2379], [82.5124, 25.2385], [82.5133, 25.2407], [82.5133, 25.241], [82.5132, 25.242], [82.5134, 25.2424]]]}, "properties": {"objectid": 250726, "statename": "Uttar Pradesh", "statecode": "9", "districtname": "Bhadohi", "districtcode": "198", "ulbname": "Khamaria", "ulbcode": "801242", "wardname": "Khalwapur", "wardcode": "3", "id": null, "status": "APPROVED", "misglobalid": null, "approved_by": null, "createdate": 1648198282000, "updateddate": 1648199021000, "globalid": null, "gisglobalid": "4l445QdK-anll-PPnc-QRlm-BmKomQol6nmo", "remark": "Ok", "st_area(shape)": 7.082067447628232e-06, "st_perimeter(shape)": 0.012322853915145203}}, {"type": "Feature", "geometry": {"type": "Polygon", "coordinates": [[[82.5115, 25.2432], [82.5121, 25.2433], [82.5126, 25.2433], [82.5127, 25.2431], [82.5119, 25.2423], [82.5115, 25.2418], [82.5111, 25.241], [82.5114, 25.2408], [82.5123, 25.2407], [82.5125, 25.2408], [82.5131, 25.2406], [82.5123, 25.2385], [82.5092, 25.2396], [82.51, 25.2412], [82.5104, 25.2418], [82.5108, 25.2419], [82.5109, 25.2422], [82.5113, 25.2424], [82.5118, 25.243], [82.5115, 25.2432]]]}, "properties": {"objectid": 247942, "statename": "Uttar Pradesh", "statecode": "9", "districtname": "Bhadohi", "districtcode": "198", "ulbname": "Khamaria", "ulbcode": "801242", "wardname": "Mukhya Bazar", "wardcode": "4", "id": null, "status": "APPROVED", "misglobalid": null, "approved_by": null, "createdate": 1648198196000, "updateddate": 1648199029000, "globalid": null, "gisglobalid": "KBsKKc45-dPc6-PlBm-RBKm-oaQc6KsRm5ol", "remark": "Ok", "st_area(shape)": 8.445293069143929e-06, "st_perimeter(shape)": 0.016606477238089067}}, {"type": "Feature", "geometry": {"type": "Polygon", "coordinates": [[[82.5112, 25.241], [82.5114, 25.2415], [82.5116, 25.2418], [82.5118, 25.2421], [82.512, 25.2423], [82.5125, 25.2428], [82.5127, 25.2431], [82.5129, 25.2429], [82.513, 25.2427], [82.5134, 25.2424], [82.5132, 25.242], [82.5132, 25.2415], [82.5133, 25.2411], [82.5132, 25.2406], [82.5124, 25.2409], [82.5123, 25.2407], [82.512, 25.2407], [82.5118, 25.2408], [82.5114, 25.2409], [82.5112, 25.241]]]}, "properties": {"objectid": 250725, "statename": "Uttar Pradesh", "statecode": "9", "districtname": "Bhadohi", "districtcode": "198", "ulbname": "Khamaria", "ulbcode": "801242", "wardname": "Mukhya Bazar Batar", "wardcode": "5", "id": null, "status": "APPROVED", "misglobalid": null, "approved_by": null, "createdate": 1648198062000, "updateddate": 1648199040000, "globalid": null, "gisglobalid": "6aPPnsmo-R6d5-P4B6-ad44-PRcBddomcBnR", "remark": "Ok", "st_area(shape)": 3.2096884275628542e-06, "st_perimeter(shape)": 0.007552749818569288}}, {"type": "Feature", "geometry": {"type": "Polygon", "coordinates": [[[82.5143, 25.2421], [82.5161, 25.2418], [82.517, 25.2417], [82.5164, 25.2409], [82.5165, 25.2408], [82.516, 25.2398], [82.5158, 25.2398], [82.5148, 25.2378], [82.5142, 25.2379], [82.5155, 25.2406], [82.5149, 25.2408], [82.5149, 25.241], [82.5145, 25.2412], [82.5143, 25.2414], [82.5143, 25.2421]]]}, "properties": {"objectid": 248358, "statename": "Uttar Pradesh", "statecode": "9", "districtname": "Bhadohi", "districtcode": "198", "ulbname": "Khamaria", "ulbcode": "801242", "wardname": "Pakaditar", "wardcode": "6", "id": null, "status": "APPROVED", "misglobalid": null, "approved_by": null, "createdate": 1648198363000, "updateddate": 1648199048000, "globalid": null, "gisglobalid": "QRP4PmlR-ns4l-PBlo-snd4-R4dn65osssd5", "remark": "Ok", "st_area(shape)": 4.6553317738913456e-06, "st_perimeter(shape)": 0.013407781252913505}}, {"type": "Feature", "geometry": {"type": "Polygon", "coordinates": [[[82.5051, 25.2464], [82.5054, 25.247], [82.5056, 25.2479], [82.5057, 25.2486], [82.5058, 25.2489], [82.5063, 25.2492], [82.5111, 25.2473], [82.5107, 25.2461], [82.5109, 25.2459], [82.5107, 25.2455], [82.5103, 25.2455], [82.5098, 25.2453], [82.5097, 25.245], [82.5092, 25.245], [82.5089, 25.245], [82.5088, 25.2446], [82.5093, 25.2444], [82.5094, 25.2443], [82.5093, 25.2441], [82.509, 25.244], [82.5087, 25.2441], [82.5087, 25.2443], [82.5085, 25.2444], [82.5083, 25.2444], [82.5082, 25.2443], [82.5074, 25.2446], [82.5076, 25.2453], [82.5062, 25.2459], [82.5054, 25.2462], [82.5051, 25.2464]]]}, "properties": {"objectid": 248754, "statename": "Uttar Pradesh", "statecode": "9", "districtname": "Bhadohi", "districtcode": "198", "ulbname": "Khamaria", "ulbcode": "801242", "wardname": "Bagicha Mohlla", "wardcode": "7", "id": null, "status": "APPROVED", "misglobalid": null, "approved_by": null, "createdate": 1648197032000, "updateddate": 1648199057000, "globalid": null, "gisglobalid": "4mRdPsKl-PBPn-PRla-sdQ5-lPQ6ds4d65on", "remark": "Ok", "st_area(shape)": 1.7337869158678833e-05, "st_perimeter(shape)": 0.019464875405878223}}, {"type": "Feature", "geometry": {"type": "Polygon", "coordinates": [[[82.5148, 25.2377], [82.5158, 25.2397], [82.516, 25.2398], [82.5166, 25.2408], [82.5164, 25.2409], [82.517, 25.2417], [82.5178, 25.2416], [82.5186, 25.2415], [82.5193, 25.2413], [82.5188, 25.2402], [82.5184, 25.2402], [82.5181, 25.2394], [82.5169, 25.2372], [82.5148, 25.2377]]]}, "properties": {"objectid": 247944, "statename": "Uttar Pradesh", "statecode": "9", "districtname": "Bhadohi", "districtcode": "198", "ulbname": "Khamaria", "ulbcode": "801242", "wardname": "Manaurveer", "wardcode": "8", "id": null, "status": "APPROVED", "misglobalid": null, "approved_by": null, "createdate": 1648198675000, "updateddate": 1648199066000, "globalid": null, "gisglobalid": "5mKnaBKl-nQsa-PKoQ-sdoa-caKBoBaaPmKQ", "remark": "Ok", "st_area(shape)": 9.786820721677178e-06, "st_perimeter(shape)": 0.014171658130874386}}, {"type": "Feature", "geometry": {"type": "Polygon", "coordinates": [[[82.5127, 25.2431], [82.5127, 25.2433], [82.5128, 25.2436], [82.513, 25.2438], [82.5132, 25.2437], [82.5134, 25.2436], [82.5135, 25.2436], [82.5136, 25.2435], [82.5136, 25.2434], [82.5137, 25.2434], [82.5138, 25.2434], [82.5141, 25.2434], [82.5149, 25.2432], [82.5158, 25.2451], [82.5165, 25.2448], [82.5169, 25.2445], [82.5171, 25.2443], [82.517, 25.2438], [82.5165, 25.2428], [82.5161, 25.2418], [82.5152, 25.242], [82.5142, 25.2422], [82.5136, 25.2423], [82.5134, 25.2424], [82.5133, 25.2425], [82.5131, 25.2427], [82.513, 25.2429], [82.5127, 25.2431]]]}, "properties": {"objectid": 249995, "statename": "Uttar Pradesh", "statecode": "9", "districtname": "Bhadohi", "districtcode": "198", "ulbname": "Khamaria", "ulbcode": "801242", "wardname": "Pipartar Kaithan", "wardcode": "9", "id": null, "status": "APPROVED", "misglobalid": null, "approved_by": null, "createdate": 1648197954000, "updateddate": 1648199076000, "globalid": null, "gisglobalid": "dnnQ5QdK-aomo-PB4m-QdaB-oolaQsn5BKlP", "remark": "Ok", "st_area(shape)": 6.972702695093932e-06, "st_perimeter(shape)": 0.012860160887136207}}, {"type": "Feature", "geometry": {"type": "Polygon", "coordinates": [[[82.5179, 25.2417], [82.5181, 25.2422], [82.5182, 25.2423], [82.5183, 25.2428], [82.518, 25.243], [82.5181, 25.2432], [82.519, 25.2434], [82.5221, 25.2413], [82.5213, 25.2398], [82.519, 25.2406], [82.5194, 25.2414], [82.5179, 25.2417]]]}, "properties": {"objectid": 248359, "statename": "Uttar Pradesh", "statecode": "9", "districtname": "Bhadohi", "districtcode": "198", "ulbname": "Khamaria", "ulbcode": "801242", "wardname": "Mukundpatti", "wardcode": "10", "id": null, "status": "APPROVED", "misglobalid": null, "approved_by": null, "createdate": 1648198578000, "updateddate": 1648199086000, "globalid": null, "gisglobalid": "BsPscQmm-nmQP-P4Rc-ac5s-dnod4cdd4sBc", "remark": "Ok", "st_area(shape)": 7.676038410460668e-06, "st_perimeter(shape)": 0.013093944498189068}}, {"type": "Feature", "geometry": {"type": "Polygon", "coordinates": [[[82.5042, 25.2453], [82.5043, 25.2455], [82.5054, 25.2459], [82.5051, 25.2464], [82.5054, 25.2462], [82.5076, 25.2453], [82.5074, 25.2446], [82.5082, 25.2443], [82.5083, 25.2444], [82.5085, 25.2444], [82.5087, 25.2443], [82.5087, 25.2441], [82.5085, 25.2435], [82.5077, 25.2438], [82.5074, 25.2431], [82.5063, 25.2437], [82.5064, 25.2441], [82.5063, 25.2442], [82.5062, 25.2443], [82.5057, 25.2446], [82.5047, 25.2452], [82.5042, 25.2453]]]}, "properties": {"objectid": 250724, "statename": "Uttar Pradesh", "statecode": "9", "districtname": "Bhadohi", "districtcode": "198", "ulbname": "Khamaria", "ulbcode": "801242", "wardname": "Naipur", "wardcode": "11", "id": null, "status": "APPROVED", "misglobalid": null, "approved_by": null, "createdate": 1648197221000, "updateddate": 1648199097000, "globalid": null, "gisglobalid": "am6Q4RKn-ldsn-PRon-RoB4-BBPRaKnKclRm", "remark": "Ok", "st_area(shape)": 5.551522982354186e-06, "st_perimeter(shape)": 0.01342984339919344}}, {"type": "Feature", "geometry": {"type": "Polygon", "coordinates": [[[82.5093, 25.2442], [82.5094, 25.2444], [82.5093, 25.2444], [82.5088, 25.2446], [82.509, 25.2449], [82.5097, 25.245], [82.5098, 25.2453], [82.5103, 25.2455], [82.5107, 25.2455], [82.5109, 25.2459], [82.512, 25.2454], [82.5129, 25.245], [82.5132, 25.2447], [82.5131, 25.2442], [82.513, 25.2439], [82.5129, 25.2437], [82.5128, 25.2436], [82.5126, 25.2433], [82.5121, 25.2433], [82.5116, 25.2433], [82.5114, 25.2432], [82.5112, 25.2434], [82.5106, 25.2437], [82.5099, 25.244], [82.5093, 25.2442]]]}, "properties": {"objectid": 248755, "statename": "Uttar Pradesh", "statecode": "9", "districtname": "Bhadohi", "districtcode": "198", "ulbname": "Khamaria", "ulbcode": "801242", "wardname": "Akbarpur", "wardcode": "12", "id": null, "status": "APPROVED", "misglobalid": null, "approved_by": null, "createdate": 1648197769000, "updateddate": 1648199124000, "globalid": null, "gisglobalid": "BP6dPKoP-oKdc-P5PK-QsmQ-moR55BQaBPml", "remark": "Ok", "st_area(shape)": 6.891537302738618e-06, "st_perimeter(shape)": 0.011369420501654324}}, {"type": "Feature", "geometry": {"type": "Polygon", "coordinates": [[[82.5047, 25.2436], [82.507, 25.2428], [82.5089, 25.2421], [82.509, 25.2422], [82.5091, 25.2423], [82.5094, 25.2422], [82.5096, 25.2423], [82.5098, 25.2426], [82.5109, 25.2422], [82.5108, 25.242], [82.5104, 25.2418], [82.51, 25.2413], [82.5092, 25.2396], [82.5077, 25.2402], [82.5041, 25.2423], [82.5047, 25.2436]]]}, "properties": {"objectid": 247941, "statename": "Uttar Pradesh", "statecode": "9", "districtname": "Bhadohi", "districtcode": "198", "ulbname": "Khamaria", "ulbcode": "801242", "wardname": "Madhaipur", "wardcode": "13", "id": null, "status": "APPROVED", "misglobalid": null, "approved_by": null, "createdate": 1648197525000, "updateddate": 1648199135000, "globalid": null, "gisglobalid": "RRmnPmmR-KdcB-Pn5d-scao-d6Rl4ac5nBKB", "remark": "Ok", "st_area(shape)": 1.230301223648537e-05, "st_perimeter(shape)": 0.017270833146513436}}, {"type": "Feature", "geometry": {"type": "Polygon", "coordinates": [[[82.5074, 25.2431], [82.5077, 25.2437], [82.5085, 25.2435], [82.5087, 25.2441], [82.509, 25.244], [82.5093, 25.2441], [82.5099, 25.2439], [82.5103, 25.2438], [82.5105, 25.2437], [82.5107, 25.2436], [82.5109, 25.2435], [82.5112, 25.2434], [82.5113, 25.2433], [82.5114, 25.2432], [82.5117, 25.243], [82.5113, 25.2425], [82.5109, 25.2423], [82.5101, 25.2426], [82.5088, 25.243], [82.5087, 25.2428], [82.5083, 25.243], [82.5081, 25.2429], [82.5074, 25.2431]]]}, "properties": {"objectid": 248356, "statename": "Uttar Pradesh", "statecode": "9", "districtname": "Bhadohi", "districtcode": "198", "ulbname": "Khamaria", "ulbcode": "801242", "wardname": "Majhgawa", "wardcode": "14", "id": null, "status": "APPROVED", "misglobalid": null, "approved_by": null, "createdate": 1648197649000, "updateddate": 1648199145000, "globalid": null, "gisglobalid": "6ml4n5sn-6Qao-PdKl-R6lR-4oc5laKnKmaQ", "remark": "Ok", "st_area(shape)": 4.128119564300828e-06, "st_perimeter(shape)": 0.010302326461704847}}, {"type": "Feature", "geometry": {"type": "Polygon", "coordinates": [[[82.5042, 25.2453], [82.505, 25.245], [82.5062, 25.2443], [82.5063, 25.2442], [82.5063, 25.2441], [82.5062, 25.2437], [82.5074, 25.2431], [82.5082, 25.2428], [82.5083, 25.2429], [82.5087, 25.2428], [82.5088, 25.2429], [82.5097, 25.2427], [82.5095, 25.2423], [82.5095, 25.2422], [82.5093, 25.2422], [82.5091, 25.2423], [82.509, 25.2423], [82.5089, 25.2422], [82.5073, 25.2427], [82.5048, 25.2436], [82.5049, 25.2439], [82.5039, 25.2442], [82.5042, 25.2453]]]}, "properties": {"objectid": 247940, "statename": "Uttar Pradesh", "statecode": "9", "districtname": "Bhadohi", "districtcode": "198", "ulbname": "Khamaria", "ulbcode": "801242", "wardname": "Drolohoa Nagar", "wardcode": "15", "id": null, "status": "APPROVED", "misglobalid": null, "approved_by": null, "createdate": 1648197425000, "updateddate": 1648199156000, "globalid": null, "gisglobalid": "lPdsca46-mans-PcB5-s6ao-Qm5RR5a4Konn", "remark": "Ok", "st_area(shape)": 4.563033543861172e-06, "st_perimeter(shape)": 0.014744109381243549}}]}
