{"type":"Topology","arcs":[[[28988,82116],[-10337,-730]],[[18651,81386],[-5168,12044]],[[13483,93430],[-2022,6569],[7190,0],[2472,-6934],[4495,-2190],[3370,-8759]],[[18651,81386],[3821,-7664]],[[22472,73722],[-2023,-2555],[-6517,1095],[-6966,-2190],[-1798,-5839]],[[5168,64233],[-3595,1825],[-1573,11678],[3371,6935],[224,8394],[9888,365]],[[34606,54014],[-1797,-3650]],[[32809,50364],[-2023,1460],[-10561,730],[-5169,-1095],[-9888,12774]],[[22472,73722],[12134,-19708]],[[36854,58394],[-2248,-4380]],[[28988,82116],[3371,-3285],[674,-6204],[3821,-14233]],[[34831,43430],[3146,-9489]],[[37977,33941],[450,-3284]],[[38427,30657],[-5618,1459]],[[32809,32116],[-2023,7665],[2023,10219]],[[32809,50000],[2022,-6570]],[[44269,42700],[-3595,-1095]],[[40674,41605],[-1349,3285],[-4494,-1460]],[[32809,50000],[0,364]],[[36854,58394],[3820,-4745],[3595,-10949]],[[40674,41605],[-2697,-7664]],[[42247,35036],[-3146,-4744]],[[39101,30292],[-674,365]],[[40674,41605],[1573,-6569]],[[43820,33211],[-899,-3649]],[[42921,29562],[-3820,730]],[[42247,35036],[1573,-1825]],[[55505,42700],[-449,-4744],[-4270,-730],[-4494,-3650]],[[46292,33576],[-2472,-365]],[[44269,42700],[4270,-3649],[6966,3649]],[[67190,43795],[450,-6569],[-9888,-4745],[-2696,730],[-7191,-5839],[-225,0]],[[47640,27372],[-1348,6204]],[[55505,42700],[11685,1095]],[[47640,27372],[-2921,-2190]],[[44719,25182],[-1798,-1460]],[[42921,23722],[0,5840]],[[42921,23722],[-2697,-1824]],[[40224,21898],[-1797,8759]],[[40224,21898],[-5393,-4015]],[[34831,17883],[1348,5474],[-3370,8759]],[[40674,17518],[2247,-4014]],[[42921,13504],[-2472,-3285]],[[40449,10219],[0,4014],[-6517,-1094]],[[33932,13139],[-3146,-2190]],[[30786,10949],[-449,3649],[4494,3285]],[[40224,21898],[450,-4380]],[[40449,10219],[674,-9854]],[[41123,365],[-2696,-365],[-4495,13139]],[[45618,11314],[674,-5840],[-5169,-5109]],[[42921,13504],[2697,-2190]],[[71235,28832],[-3820,-4380],[-4045,-1460],[225,-5109],[-7865,-5109],[-10112,-1460]],[[40674,17518],[4269,1460]],[[44943,18978],[1573,1825],[15506,-730],[-2023,7664],[10113,2190],[1123,-1095]],[[44719,25182],[224,-6204]],[[68988,48540],[450,-10219],[3146,2919]],[[72584,41240],[2247,-2554],[449,-7664]],[[75280,31022],[-4045,-2190]],[[67190,43795],[1798,4745]],[[83819,52919],[-11235,-11679]],[[68988,48540],[4270,3284],[1573,8029],[4494,7665],[-3820,6569],[3820,8759],[3146,4014]],[[82471,86860],[-449,-3284],[2022,-19343],[-225,-11314]],[[86965,43795],[-898,-10584],[-10787,-2189]],[[83819,52919],[3146,-9124]],[[82471,86860],[4719,11314],[2697,-4014],[4269,-1825],[-224,-6204]],[[93932,86131],[-225,-10949],[5393,-12044],[899,-6934],[-4719,-7664],[1124,-4015],[-5618,-7299],[-3821,6569]]],"transform":{"scale":[4.4500445004449366e-7,2.740027400274012e-7],"translate":[76.8434,12.3245]},"objects":{"wards":{"type":"GeometryCollection","geometries":[{"arcs":[[0,1,2]],"type":"Polygon","properties":{"objectid":136113,"statename":"Karnataka","statecode":"29","districtname":"Mysore","districtcode":"577","ulbname":"Bannur (Tmc)","ulbcode":"803198","wardname":"Ward 1","wardcode":"1","id":null,"status":"APPROVED","misglobalid":null,"approved_by":null,"createdate":1643972330000,"updateddate":1645788991000,"globalid":null,"gisglobalid":"oaBlPnRn-smdB-PlQ6-QdR5-ao6o5nPslKKd","remark":"","st_area(shape)":0.00002022986492541931,"st_perimeter(shape)":0.02223369814981272}},{"arcs":[[3,4,5,-2]],"type":"Polygon","properties":{"objectid":135711,"statename":"Karnataka","statecode":"29","districtname":"Mysore","districtcode":"577","ulbname":"Bannur (Tmc)","ulbcode":"803198","wardname":"Ward 2","wardcode":"2","id":null,"status":"APPROVED","misglobalid":null,"approved_by":null,"createdate":1643972330000,"updateddate":1645789000000,"globalid":null,"gisglobalid":"KaBR4K4K-c6Pc-P4lB-QPPP-Bcaldd6PBnPc","remark":"","st_area(shape)":0.00004563043809772853,"st_perimeter(shape)":0.035937186359161266}},{"arcs":[[6,7,-5,8]],"type":"Polygon","properties":{"objectid":133339,"statename":"Karnataka","statecode":"29","districtname":"Mysore","districtcode":"577","ulbname":"Bannur (Tmc)","ulbcode":"803198","wardname":"Ward 3","wardcode":"3","id":null,"status":"APPROVED","misglobalid":null,"approved_by":null,"createdate":1643972330000,"updateddate":1645789006000,"globalid":null,"gisglobalid":"dRmsKlda-66sn-Pdn4-acac-6PQnodc5Q4cP","remark":"","st_area(shape)":0.00005292023433151122,"st_perimeter(shape)":0.034808535339423845}},{"arcs":[[9,-9,-4,-1,10]],"type":"Polygon","properties":{"objectid":135712,"statename":"Karnataka","statecode":"29","districtname":"Mysore","districtcode":"577","ulbname":"Bannur (Tmc)","ulbcode":"803198","wardname":"Ward 4","wardcode":"4","id":null,"status":"APPROVED","misglobalid":null,"approved_by":null,"createdate":1643972330000,"updateddate":1645789012000,"globalid":null,"gisglobalid":"adK46mQQ-4nm6-P54P-s4Pm-R454loRmnnKR","remark":"","st_area(shape)":0.000026575015115566156,"st_perimeter(shape)":0.02491913222721613}},{"arcs":[[11,12,13,14,15]],"type":"Polygon","properties":{"objectid":134133,"statename":"Karnataka","statecode":"29","districtname":"Mysore","districtcode":"577","ulbname":"Bannur (Tmc)","ulbcode":"803198","wardname":"Ward 5","wardcode":"5","id":null,"status":"APPROVED","misglobalid":null,"approved_by":null,"createdate":1643972330000,"updateddate":1645789020000,"globalid":null,"gisglobalid":"dBdm5QB6-6l56-P5o6-sa6a-RcKmasosmdd4","remark":"","st_area(shape)":0.000008195577647714764,"st_perimeter(shape)":0.014288977853392937}},{"arcs":[[16,17,-16,18,-7,-10,19]],"type":"Polygon","properties":{"objectid":127881,"statename":"Karnataka","statecode":"29","districtname":"Mysore","districtcode":"577","ulbname":"Bannur (Tmc)","ulbcode":"803198","wardname":"Ward 6","wardcode":"6","id":null,"status":"APPROVED","misglobalid":null,"approved_by":null,"createdate":1643972330000,"updateddate":1645789028000,"globalid":null,"gisglobalid":"Q6s4BRRs-PlKl-P4cm-aPQ4-dP5laKmmdloR","remark":"","st_area(shape)":0.000012593058468454057,"st_perimeter(shape)":0.015382270742076298}},{"arcs":[[20,-12,-18]],"type":"Polygon","properties":{"objectid":135317,"statename":"Karnataka","statecode":"29","districtname":"Mysore","districtcode":"577","ulbname":"Bannur (Tmc)","ulbcode":"803198","wardname":"Ward 7","wardcode":"7","id":null,"status":"APPROVED","misglobalid":null,"approved_by":null,"createdate":1643972330000,"updateddate":1645789036000,"globalid":null,"gisglobalid":"Blmn5nmd-cPKR-P5dl-aPPm-sRPaB6RRmdoP","remark":"","st_area(shape)":0.000004132600930718136,"st_perimeter(shape)":0.008640601175972238}},{"arcs":[[21,22,-13,-21,23]],"type":"Polygon","properties":{"objectid":134912,"statename":"Karnataka","statecode":"29","districtname":"Mysore","districtcode":"577","ulbname":"Bannur (Tmc)","ulbcode":"803198","wardname":"Ward 8","wardcode":"8","id":null,"status":"APPROVED","misglobalid":null,"approved_by":null,"createdate":1643972330000,"updateddate":1645789043000,"globalid":null,"gisglobalid":"6Rd5lsR6-Ksd4-P65Q-sBlm-mPlBssRBBRsn","remark":"","st_area(shape)":0.000002929074515485732,"st_perimeter(shape)":0.007951714535988624}},{"arcs":[[24,25,-22,26]],"type":"Polygon","properties":{"objectid":134134,"statename":"Karnataka","statecode":"29","districtname":"Mysore","districtcode":"577","ulbname":"Bannur (Tmc)","ulbcode":"803198","wardname":"Ward 9","wardcode":"9","id":null,"status":"APPROVED","misglobalid":null,"approved_by":null,"createdate":1643972330000,"updateddate":1645789052000,"globalid":null,"gisglobalid":"KdnlaaKs-sndm-P64K-s6Pn-R5mRm46n45KB","remark":"","st_area(shape)":0.0000022797689152074106,"st_perimeter(shape)":0.007091232210698381}},{"arcs":[[27,28,-27,-24,-17,29]],"type":"Polygon","properties":{"objectid":135318,"statename":"Karnataka","statecode":"29","districtname":"Mysore","districtcode":"577","ulbname":"Bannur (Tmc)","ulbcode":"803198","wardname":"Ward 10","wardcode":"10","id":null,"status":"APPROVED","misglobalid":null,"approved_by":null,"createdate":1643972330000,"updateddate":1645789060000,"globalid":null,"gisglobalid":"RRsll5mo-4RRR-P6n5-Qsol-nallPPcPa5BB","remark":"","st_area(shape)":0.000011774381096254419,"st_perimeter(shape)":0.019273626618785962}},{"arcs":[[30,31,-28,32]],"type":"Polygon","properties":{"objectid":133340,"statename":"Karnataka","statecode":"29","districtname":"Mysore","districtcode":"577","ulbname":"Bannur (Tmc)","ulbcode":"803198","wardname":"Ward 11","wardcode":"11","id":null,"status":"APPROVED","misglobalid":null,"approved_by":null,"createdate":1643972330000,"updateddate":1645789070000,"globalid":null,"gisglobalid":"ssK5n6oB-K6Ks-P5Pc-RocP-adl5KKmmalP5","remark":"","st_area(shape)":0.000019872691543454935,"st_perimeter(shape)":0.026825858095448633}},{"arcs":[[33,34,35,-25,-29,-32]],"type":"Polygon","properties":{"objectid":127880,"statename":"Karnataka","statecode":"29","districtname":"Mysore","districtcode":"577","ulbname":"Bannur (Tmc)","ulbcode":"803198","wardname":"Ward 12","wardcode":"12","id":null,"status":"APPROVED","misglobalid":null,"approved_by":null,"createdate":1643972330000,"updateddate":1645789078000,"globalid":null,"gisglobalid":"6omRQR6s-64ao-PQcB-Qo4a-B44R44666Plm","remark":"","st_area(shape)":0.0000028229795888621033,"st_perimeter(shape)":0.009931935892936143}},{"arcs":[[-26,-36,36,37,-23]],"type":"Polygon","properties":{"objectid":127879,"statename":"Karnataka","statecode":"29","districtname":"Mysore","districtcode":"577","ulbname":"Bannur (Tmc)","ulbcode":"803198","wardname":"Ward 13","wardcode":"13","id":null,"status":"APPROVED","misglobalid":null,"approved_by":null,"createdate":1643972330000,"updateddate":1645789087000,"globalid":null,"gisglobalid":"PmcQBPm4-5BB6-PKl4-Rodo-KBRRcolPcRKQ","remark":"","st_area(shape)":0.0000030969140975386593,"st_perimeter(shape)":0.007402206555785406}},{"arcs":[[-38,38,39,-14]],"type":"Polygon","properties":{"objectid":135714,"statename":"Karnataka","statecode":"29","districtname":"Mysore","districtcode":"577","ulbname":"Bannur (Tmc)","ulbcode":"803198","wardname":"Ward 14","wardcode":"14","id":null,"status":"APPROVED","misglobalid":null,"approved_by":null,"createdate":1643972330000,"updateddate":1645789094000,"globalid":null,"gisglobalid":"Q4KBdsQ4-KPnB-P5ms-sQoK-lBsaRRQ64RR4","remark":"","st_area(shape)":0.000006853557632474565,"st_perimeter(shape)":0.012211541404742706}},{"arcs":[[40,41,42,43,44,-39,45]],"type":"Polygon","properties":{"objectid":135316,"statename":"Karnataka","statecode":"29","districtname":"Mysore","districtcode":"577","ulbname":"Bannur (Tmc)","ulbcode":"803198","wardname":"Ward 15","wardcode":"15","id":null,"status":"APPROVED","misglobalid":null,"approved_by":null,"createdate":1643972330000,"updateddate":1645789104000,"globalid":null,"gisglobalid":"BmPBdKBm-dKsB-PoBB-s6oo-4dolna6Knccm","remark":"","st_area(shape)":0.0000069814776472146906,"st_perimeter(shape)":0.017761974256902836}},{"arcs":[[46,47,-43]],"type":"Polygon","properties":{"objectid":135315,"statename":"Karnataka","statecode":"29","districtname":"Mysore","districtcode":"577","ulbname":"Bannur (Tmc)","ulbcode":"803198","wardname":"Ward 16","wardcode":"16","id":null,"status":"APPROVED","misglobalid":null,"approved_by":null,"createdate":1643972330000,"updateddate":1645789119000,"globalid":null,"gisglobalid":"BcKas4sm-aBdQ-PKsm-aalP-RcP56Pa4QlR6","remark":"","st_area(shape)":0.000007955134332918764,"st_perimeter(shape)":0.012560971917978123}},{"arcs":[[48,-47,-42,49]],"type":"Polygon","properties":{"objectid":136112,"statename":"Karnataka","statecode":"29","districtname":"Mysore","districtcode":"577","ulbname":"Bannur (Tmc)","ulbcode":"803198","wardname":"Ward 17","wardcode":"17","id":null,"status":"APPROVED","misglobalid":null,"approved_by":null,"createdate":1643972330000,"updateddate":1645789127000,"globalid":null,"gisglobalid":"4RsmcmKn-loas-Pso6-amP5-a64l4a6lsBdP","remark":"","st_area(shape)":0.000007084551732323816,"st_perimeter(shape)":0.012231937045902959}},{"arcs":[[50,-50,-41,51,52]],"type":"Polygon","properties":{"objectid":133338,"statename":"Karnataka","statecode":"29","districtname":"Mysore","districtcode":"577","ulbname":"Bannur (Tmc)","ulbcode":"803198","wardname":"Ward 18","wardcode":"18","id":null,"status":"APPROVED","misglobalid":null,"approved_by":null,"createdate":1643972330000,"updateddate":1645789139000,"globalid":null,"gisglobalid":"nmsoPcaK-ns6d-Pamc-QBc6-lda4PPKBmsmQ","remark":"","st_area(shape)":0.00002422139640000221,"st_perimeter(shape)":0.04084470587964086}},{"arcs":[[-52,-46,-37,-35,53]],"type":"Polygon","properties":{"objectid":132985,"statename":"Karnataka","statecode":"29","districtname":"Mysore","districtcode":"577","ulbname":"Bannur (Tmc)","ulbcode":"803198","wardname":"Ward 19","wardcode":"19","id":null,"status":"APPROVED","misglobalid":null,"approved_by":null,"createdate":1643972330000,"updateddate":1645789147000,"globalid":null,"gisglobalid":"oKaPaKa6-nQaQ-PcoQ-RcnB-omPQocnP5l5m","remark":"","st_area(shape)":0.000002888221990640111,"st_perimeter(shape)":0.0070263677600697514}},{"arcs":[[54,55,56,-53,-54,-34,-31,57]],"type":"Polygon","properties":{"objectid":134131,"statename":"Karnataka","statecode":"29","districtname":"Mysore","districtcode":"577","ulbname":"Bannur (Tmc)","ulbcode":"803198","wardname":"Ward 20","wardcode":"20","id":null,"status":"APPROVED","misglobalid":null,"approved_by":null,"createdate":1643972330000,"updateddate":1645789155000,"globalid":null,"gisglobalid":"m44dQnBd-Kmcd-PnBn-ssal-4Paa5P5ddQld","remark":"","st_area(shape)":0.00003597686749167163,"st_perimeter(shape)":0.04432601410902082}},{"arcs":[[58,-55,59,60]],"type":"Polygon","properties":{"objectid":127878,"statename":"Karnataka","statecode":"29","districtname":"Mysore","districtcode":"577","ulbname":"Bannur (Tmc)","ulbcode":"803198","wardname":"Ward 21","wardcode":"21","id":null,"status":"APPROVED","misglobalid":null,"approved_by":null,"createdate":1643972330000,"updateddate":1645789165000,"globalid":null,"gisglobalid":"nnPBaRcc-4dao-P4Bm-Rlsn-4dmloQaQ46PK","remark":"","st_area(shape)":0.00003708334172010757,"st_perimeter(shape)":0.03527031258204532}},{"arcs":[[61,-56,-59,62]],"type":"Polygon","properties":{"objectid":134132,"statename":"Karnataka","statecode":"29","districtname":"Mysore","districtcode":"577","ulbname":"Bannur (Tmc)","ulbcode":"803198","wardname":"Ward 22","wardcode":"22","id":null,"status":"APPROVED","misglobalid":null,"approved_by":null,"createdate":1643972330000,"updateddate":1645789176000,"globalid":null,"gisglobalid":"sacBnna6-mKo4-P6Ql-Rom4-lRP6n4nPl4QP","remark":"","st_area(shape)":0.000025362708864025386,"st_perimeter(shape)":0.02613888118477918}},{"arcs":[[-63,-61,63,64]],"type":"Polygon","properties":{"objectid":135713,"statename":"Karnataka","statecode":"29","districtname":"Mysore","districtcode":"577","ulbname":"Bannur (Tmc)","ulbcode":"803198","wardname":"Ward 23","wardcode":"23","id":null,"status":"APPROVED","misglobalid":null,"approved_by":null,"createdate":1643972330000,"updateddate":1645789184000,"globalid":null,"gisglobalid":"oPoPBBlc-am5R-PQss-R56c-lQaKRn55Q64d","remark":"","st_area(shape)":0.00007807756497518337,"st_perimeter(shape)":0.05031548676614582}}]}}}