{"type":"Topology","arcs":[[[44776,90000],[-3483,-5417]],[[41293,84583],[-2487,-5833],[-2488,0]],[[36318,78750],[-1492,0]],[[34826,78750],[-1493,417]],[[33333,79167],[-498,0]],[[32835,79167],[-2487,0]],[[30348,79167],[-1990,0]],[[28358,79167],[-498,-834]],[[27860,78333],[-497,-1250]],[[27363,77083],[-1493,-416]],[[25870,76667],[-2487,-417]],[[23383,76250],[-1493,0],[-3980,2917]],[[17910,79167],[-7960,10416]],[[9950,89583],[-497,1250]],[[9453,90833],[8955,417],[4477,1250],[20896,-833],[995,-1667]],[[28358,78333],[-498,0]],[[28358,78333],[0,834]],[[30348,79167],[2487,0]],[[32835,79167],[498,0]],[[33333,79167],[1493,-417]],[[36318,78750],[2488,-417],[1492,2084],[995,4166]],[[41293,84583],[3483,5417]],[[44776,90000],[2487,2500],[3483,5833]],[[50746,98333],[995,0]],[[51741,98333],[5970,0],[995,-833]],[[58706,97500],[0,-833]],[[58706,96667],[0,-417]],[[58706,96250],[-498,-4167]],[[58208,92083],[0,-833]],[[58208,91250],[-497,-2500]],[[57711,88750],[0,-1250]],[[57711,87500],[-498,-2083]],[[57213,85417],[0,-834]],[[57213,84583],[0,-1666]],[[57213,82917],[0,-2500]],[[57213,80417],[0,-417]],[[57213,80000],[995,-417]],[[58208,79583],[0,-416]],[[58208,79167],[-497,-834]],[[57711,78333],[-498,0]],[[57213,78333],[-1492,-2916]],[[55721,75417],[-498,-1250],[-7462,833]],[[47761,75000],[-1493,-2500],[0,-3333]],[[46268,69167],[0,-417]],[[46268,68750],[-497,-1250]],[[45771,67500],[-498,-833]],[[45273,66667],[-497,-834]],[[44776,65833],[-498,-416]],[[44278,65417],[-1492,-1250]],[[42786,64167],[-995,-417]],[[41791,63750],[-498,-417]],[[41293,63333],[-1492,-833]],[[39801,62500],[-1493,833]],[[38308,63333],[-995,834]],[[37313,64167],[-497,416]],[[36816,64583],[-1990,2917]],[[34826,67500],[-995,833]],[[33831,68333],[-498,417]],[[33333,68750],[-2985,2083]],[[30348,70833],[-6965,5417]],[[23383,76250],[2487,417]],[[25870,76667],[1493,416]],[[27363,77083],[995,1250]],[[50746,98333],[995,0]],[[57213,85417],[498,2083]],[[57711,87500],[0,1250]],[[57711,88750],[497,2500]],[[58208,92083],[498,4167]],[[58706,96667],[0,833]],[[58706,97500],[7462,0],[6468,2500],[3483,-2917],[497,-416]],[[76616,96667],[3483,-3334],[6467,-10833],[498,-2500],[2985,-4167]],[[90049,75833],[-5970,0],[-4975,1250],[-3980,-833]],[[75124,76250],[-995,0]],[[74129,76250],[-2488,1250],[-3980,417]],[[67661,77917],[-3980,416]],[[63681,78333],[-2488,417]],[[61193,78750],[-1492,833]],[[59701,79583],[-498,0]],[[59203,79583],[-995,0]],[[58208,79583],[-995,417]],[[57213,80000],[0,417]],[[57213,80417],[0,2500]],[[57213,82917],[0,1666]],[[57213,84583],[0,834]],[[68656,77083],[5473,-833]],[[74129,76250],[995,0]],[[75124,76250],[2487,417],[5970,-1250],[6468,416]],[[90049,75833],[497,-833]],[[90546,75000],[498,-417]],[[91044,74583],[1990,-2083],[0,-2083],[1990,-8750],[1492,-2917],[-995,-2917],[1493,-2083],[995,-5833]],[[98009,47917],[0,-417]],[[98009,47500],[-4975,1250]],[[93034,48750],[-4975,3750],[-5970,1667]],[[82089,54167],[-2488,833],[-2985,-417]],[[76616,54583],[-8457,417],[-1991,833],[-5472,-416]],[[60696,55417],[-2985,833]],[[57711,56250],[0,1250]],[[57711,57500],[-498,833]],[[57213,58333],[0,417]],[[57213,58750],[498,417]],[[57711,59167],[2487,-417]],[[60198,58750],[3980,0]],[[64178,58750],[1493,0],[0,8333]],[[65671,67083],[497,0]],[[66168,67083],[498,0]],[[66666,67083],[498,0]],[[67164,67083],[497,1667]],[[67661,68750],[0,833]],[[67661,69583],[0,4167]],[[67661,73750],[995,3333]],[[90546,75000],[498,-417]],[[57711,59167],[-498,0]],[[57213,59167],[-995,0]],[[56218,59167],[-3482,-834]],[[52736,58333],[0,-2083]],[[52736,56250],[0,-833]],[[52736,55417],[0,-4167]],[[52736,51250],[-3483,0],[-2985,-1250]],[[46268,50000],[-497,417]],[[45771,50417],[-498,833]],[[45273,51250],[-995,2083]],[[44278,53333],[0,834]],[[44278,54167],[-497,2083]],[[43781,56250],[-1493,417]],[[42288,56667],[-1492,1666]],[[40796,58333],[497,834]],[[41293,59167],[498,416]],[[41791,59583],[-498,834]],[[41293,60417],[-1492,2083]],[[41293,63333],[498,417]],[[41791,63750],[995,417]],[[42786,64167],[1492,1250]],[[44278,65417],[498,416]],[[44776,65833],[497,834]],[[45273,66667],[498,833]],[[45771,67500],[497,1250]],[[46268,69167],[1493,5833]],[[47761,75000],[1990,-833],[5472,-417],[498,1667]],[[55721,75417],[1492,2916]],[[57711,78333],[497,834]],[[58208,79167],[995,416]],[[59701,79583],[1492,-833]],[[61193,78750],[2488,-417]],[[63681,78333],[3980,-416]],[[67661,77917],[0,-4167]],[[67661,73750],[0,-4167]],[[67661,69583],[0,-833]],[[67661,68750],[-995,-1667]],[[67164,67083],[-996,0]],[[65671,67083],[-498,-5416],[-995,-2917]],[[64178,58750],[-2487,0]],[[61691,58750],[-1493,0]],[[60198,58750],[-2487,417]],[[9950,89583],[1990,-3750],[4975,-6250],[995,-416]],[[17910,79167],[2488,-2500],[9950,-5834]],[[30348,70833],[2985,-2083]],[[33333,68750],[498,-417]],[[33831,68333],[995,-833]],[[34826,67500],[1990,-2917]],[[36816,64583],[497,-416]],[[37313,64167],[995,-834]],[[38308,63333],[2985,-2916]],[[41293,60417],[498,-834]],[[41293,59167],[-497,-834]],[[40796,58333],[1492,-1666]],[[43781,56250],[497,-2083]],[[44278,54167],[0,-834]],[[44278,53333],[995,-2083]],[[45273,51250],[498,-833]],[[45771,50417],[497,-417]],[[46268,50000],[498,-1667]],[[46766,48333],[-498,-416]],[[46268,47917],[-995,0]],[[45273,47917],[-995,0]],[[44278,47917],[-1492,0]],[[42786,47917],[-498,0]],[[42288,47917],[-1990,-417]],[[40298,47500],[-4477,-833]],[[35821,46667],[-995,0]],[[34826,46667],[-1493,-417]],[[33333,46250],[-498,0]],[[32835,46250],[-497,-417]],[[32338,45833],[-498,-833]],[[31840,45000],[-995,-417]],[[30845,44583],[-995,-416]],[[29850,44167],[-1492,0]],[[28358,44167],[-498,0]],[[27860,44167],[-497,0]],[[27363,44167],[-2488,3750],[-1492,5416],[1990,834],[-3483,3750],[-3980,6250],[-3482,0],[-6965,6666],[-2985,7084],[-1493,1666],[-497,3750],[-2488,7084],[8458,833],[1492,-1667]],[[27860,44167],[498,0]],[[29850,44167],[995,416]],[[30845,44583],[995,417]],[[32338,45833],[497,417]],[[33333,46250],[1493,417]],[[34826,46667],[995,0]],[[35821,46667],[4477,833]],[[40298,47500],[1990,417]],[[42288,47917],[498,0]],[[44278,47917],[995,0]],[[46268,47917],[498,416]],[[46766,48333],[995,-1666]],[[47761,46667],[497,-1667]],[[48258,45000],[995,-3750]],[[49253,41250],[0,-833]],[[49253,40417],[498,-834]],[[49751,39583],[0,-416]],[[49751,39167],[995,-2084]],[[50746,37083],[0,-416]],[[50746,36667],[0,-417]],[[50746,36250],[-1493,-2083]],[[49253,34167],[-497,416]],[[48756,34583],[-498,0]],[[48258,34583],[-2487,0]],[[45771,34583],[-995,0]],[[44776,34583],[-995,0]],[[43781,34583],[-3483,0]],[[40298,34583],[-995,0]],[[39303,34583],[-1492,0]],[[37811,34583],[0,417]],[[37811,35000],[-995,417]],[[36816,35417],[-995,0]],[[35821,35417],[-1990,-834],[-6468,-416]],[[27363,34167],[497,0]],[[27363,34167],[-1493,3333],[1493,6667]],[[52736,51250],[0,4167]],[[52736,55417],[0,833]],[[52736,56250],[0,2083]],[[52736,58333],[3482,834]],[[56218,59167],[995,0]],[[57213,59167],[0,-417]],[[57213,58333],[498,-833]],[[57711,57500],[0,-1250]],[[57711,56250],[2985,-833]],[[60696,55417],[5970,-417],[3483,-833],[6467,416]],[[76616,54583],[5473,-416]],[[82089,54167],[6467,-2500],[1493,-2084],[2985,-833]],[[93034,48750],[4975,-833]],[[98009,47917],[0,-417]],[[98009,47500],[497,-2500]],[[98506,45000],[-497,-833]],[[98009,44167],[-2985,-417]],[[95024,43750],[-995,-417]],[[94029,43333],[-498,0]],[[93531,43333],[-995,0]],[[92536,43333],[-1492,0]],[[91044,43333],[-1990,0]],[[89054,43333],[-3483,834]],[[85571,44167],[-995,416]],[[84576,44583],[-995,834]],[[83581,45417],[-497,0]],[[83084,45417],[-995,0]],[[82089,45417],[-1493,416],[-1990,-2916]],[[78606,42917],[-1990,-1667]],[[76616,41250],[0,-417]],[[76616,41250],[-3980,-833]],[[72636,40417],[-497,0]],[[72139,40417],[-1493,-417]],[[70646,40000],[-497,0]],[[70149,40000],[-3483,-833]],[[66666,39167],[-1990,0]],[[64676,39167],[-2985,833]],[[61691,40000],[-498,833]],[[61193,40833],[0,417]],[[61193,41250],[-1990,-417],[498,-2500]],[[59701,38333],[497,0]],[[59701,38333],[1492,-833]],[[61193,37500],[0,-833]],[[61193,36667],[498,-1250]],[[61691,35417],[0,-417]],[[61691,35000],[497,-2917]],[[62188,32083],[1493,-1666]],[[63681,30417],[0,-417]],[[63681,30000],[-1493,-417]],[[62188,29583],[-3482,417]],[[58706,30000],[-1493,417]],[[57213,30417],[-497,833]],[[56716,31250],[-498,833]],[[56218,32083],[-497,1250]],[[55721,33333],[0,834]],[[55721,34167],[0,416]],[[55721,34583],[-995,1667]],[[54726,36250],[-498,0]],[[54228,36250],[-497,-417]],[[53731,35833],[-498,0]],[[53233,35833],[-1990,417]],[[51243,36250],[-497,0]],[[51243,36250],[-497,417]],[[50746,37083],[-995,2084]],[[49751,39583],[-498,834]],[[49253,41250],[-995,3750]],[[48258,45000],[-497,1667]],[[47761,46667],[-498,2916],[5473,1667]],[[81094,45417],[497,0]],[[81591,45417],[498,0]],[[82089,45417],[995,0]],[[83581,45417],[995,-834]],[[84576,44583],[995,-416]],[[85571,44167],[3980,-834]],[[89551,43333],[-497,0]],[[89551,43333],[1493,0]],[[92536,43333],[995,0]],[[94029,43333],[995,417]],[[95024,43750],[2985,417]],[[98009,44167],[1492,-834],[498,-4166],[0,-9167],[-6965,-833],[-2985,-3750],[-3980,-1667],[-6468,-1667],[-3980,-1666],[-3482,-417],[-4478,-2083]],[[67661,17917],[-995,833]],[[66666,18750],[-498,417]],[[66168,19167],[-995,1250]],[[65173,20417],[-3482,3333],[-995,2083],[1492,3750]],[[62188,29583],[1493,417]],[[63681,30000],[0,417]],[[63681,30417],[-1493,1666]],[[62188,32083],[-497,2917]],[[61691,35417],[-498,1250]],[[61193,37500],[-995,833]],[[60198,38333],[995,2917]],[[61193,40833],[498,-833]],[[61691,40000],[2985,-833]],[[64676,39167],[1990,0]],[[66666,39167],[3483,833]],[[70646,40000],[1493,417]],[[72636,40417],[3980,416]],[[76616,40833],[1990,2084]],[[78606,42917],[2488,2500]],[[81094,45417],[497,0]],[[53731,35833],[497,417]],[[54726,36250],[995,-1667]],[[55721,34583],[0,-416]],[[55721,33333],[497,-1250]],[[56218,32083],[498,-833]],[[56716,31250],[497,-1250]],[[57213,30000],[0,417]],[[57213,30000],[1493,0]],[[58706,30000],[1990,-833]],[[60696,29167],[-995,-2917],[1990,-3333],[3482,-2500]],[[65173,20417],[995,-1250]],[[66168,19167],[498,-417]],[[66666,18750],[995,-833]],[[67661,17917],[-1493,-1667],[-4477,-1667],[-2488,-2083],[-7960,-2917],[-3980,-2500]],[[47263,7083],[-497,2917],[0,6667]],[[46766,16667],[0,833]],[[46766,17500],[-498,2083]],[[46268,19583],[-497,3750]],[[45771,23333],[0,834]],[[45771,24167],[0,3333]],[[45771,27500],[1492,833]],[[47263,28333],[995,417]],[[48258,28750],[1990,1250]],[[50248,30000],[0,417]],[[50248,30417],[0,833]],[[50248,31250],[995,4167],[1990,416]],[[27860,33750],[0,417]],[[27860,33750],[5971,417],[1990,1250]],[[36816,35417],[995,-417]],[[37811,34583],[1492,0]],[[39303,34583],[995,0]],[[40298,34583],[3483,0]],[[43781,34583],[995,0]],[[45771,34583],[2487,0]],[[48756,34583],[497,-416]],[[49253,34167],[995,-2917]],[[50248,31250],[0,-833]],[[50248,30000],[-1990,-1250]],[[47263,28333],[-1492,-833]],[[45771,27500],[0,-3333]],[[45771,24167],[0,-834]],[[45771,23333],[0,-2916]],[[45771,20417],[497,-834]],[[46268,19583],[0,-833]],[[46268,18750],[0,-1250]],[[46268,17500],[498,0]],[[46766,17500],[0,-833]],[[46766,16667],[-498,-6250],[995,-3334]],[[47263,7083],[-497,-1250],[-5970,-2916],[-1990,833],[-3980,-833],[0,-2500],[-5971,-417],[-6467,2917]],[[22388,2917],[-1990,3333],[497,7917],[4478,7083],[1990,1667],[1492,9166],[-995,1667]],[[45771,20417],[-498,-2917]],[[45273,17500],[498,0]],[[45771,17500],[0,833]],[[45771,18333],[0,-833]],[[45771,17500],[497,0]],[[46268,17500],[-497,833]],[[45771,18333],[497,417]],[[46268,18750],[-497,-417]],[[45771,18333],[0,2084]]],"transform":{"scale":[2.010020100200936e-7,2.400000000000091e-7],"translate":[75.3769,19.4607]},"objects":{"wards":{"type":"GeometryCollection","geometries":[{"arcs":[[0,1,2,3,4,5,6,7,8,9,10,11,12,13,14]],"type":"Polygon","properties":{"objectid":48666,"statename":"Maharashtra","statecode":"27","districtname":"Aurangabad","districtcode":"515","ulbname":"Paithan","ulbcode":"802770","wardname":"Narala","wardcode":"1","id":null,"status":"APPROVED","misglobalid":null,"approved_by":null,"createdate":1639630935000,"updateddate":1647845658000,"globalid":null,"gisglobalid":"90624970-8d81-4564-b313-7cec3e7ea09e","remark":"Approved","st_area(shape)":0.000018345923052577496,"st_perimeter(shape)":0.019301210080984996}},{"arcs":[[15,-16,16,-7,17,18,19,-3,20,21,22,23,24,25,26,27,28,29,30,31,32,33,34,35,36,37,38,39,40,41,42,43,44,45,46,47,48,49,50,51,52,53,54,55,56,57,58,59,60,61,62]],"type":"Polygon","properties":{"objectid":48348,"statename":"Maharashtra","statecode":"27","districtname":"Aurangabad","districtcode":"515","ulbname":"Paithan","ulbcode":"802770","wardname":"Ramnagar","wardcode":"2","id":null,"status":"APPROVED","misglobalid":null,"approved_by":null,"createdate":1639632408000,"updateddate":1647845686000,"globalid":null,"gisglobalid":"7d7a2a4a-55bf-4d24-829b-3a6370195233","remark":"Approved","st_area(shape)":0.000025669856675238093,"st_perimeter(shape)":0.028486160326281436}},{"arcs":[[64,65,66,-29,67,-27,68,69,70,71,72,73,74,75,76,77,78,79,80,81,82,83]],"type":"Polygon","properties":{"objectid":46128,"statename":"Maharashtra","statecode":"27","districtname":"Aurangabad","districtcode":"515","ulbname":"Paithan","ulbcode":"802770","wardname":"Pannalal Nagar","wardcode":"3","id":null,"status":"APPROVED","misglobalid":null,"approved_by":null,"createdate":1639633174000,"updateddate":1647845727000,"globalid":null,"gisglobalid":"eff330aa-dbfe-46f5-909d-7531f29c0bc4","remark":"Approved","st_area(shape)":0.000025248918056873313,"st_perimeter(shape)":0.02227977218074256}},{"arcs":[[84,85,86,87,88,89,90,91,92,93,94,95,96,97,98,99,100,101,102,103,104,105,106,107,108,109]],"type":"Polygon","properties":{"objectid":45322,"statename":"Maharashtra","statecode":"27","districtname":"Aurangabad","districtcode":"515","ulbname":"Paithan","ulbcode":"802770","wardname":"Nath Colony","wardcode":"4","id":null,"status":"APPROVED","misglobalid":null,"approved_by":null,"createdate":1639633822000,"updateddate":1647845741000,"globalid":null,"gisglobalid":"75baa1f1-8db9-46f2-9e61-57c4ca24eefe","remark":"Approved","st_area(shape)":0.00003223304996834967,"st_perimeter(shape)":0.028950372498975804}},{"arcs":[[111,112,113,114,115,116,117,118,119,120,121,122,123,124,125,126,127,128,-52,129,130,131,132,133,134,135,-44,136,137,138,-40,139,140,-78,141,142,143,144,145,146,147,105,148,-104,149,150,151,152]],"type":"Polygon","properties":{"objectid":46133,"statename":"Maharashtra","statecode":"27","districtname":"Aurangabad","districtcode":"515","ulbname":"Paithan","ulbcode":"802770","wardname":"Bhawani Nagar","wardcode":"5","id":null,"status":"APPROVED","misglobalid":null,"approved_by":null,"createdate":1639634427000,"updateddate":1647845801000,"globalid":null,"gisglobalid":"cc9f6a53-8e24-4c30-b90a-737988580eb9","remark":"Approved","st_area(shape)":0.00002196907219948694,"st_perimeter(shape)":0.02373346245828871}},{"arcs":[[153,154,155,156,157,158,159,160,161,162,-127,163,164,-124,165,166,167,168,169,170,171,172,173,174,175,176,177,178,179,180,181,182,183,184,185,186,187,188]],"type":"Polygon","properties":{"objectid":45720,"statename":"Maharashtra","statecode":"27","districtname":"Aurangabad","districtcode":"515","ulbname":"Paithan","ulbcode":"802770","wardname":"Pardeshipura","wardcode":"6","id":null,"status":"APPROVED","misglobalid":null,"approved_by":null,"createdate":1639635299000,"updateddate":1647845815000,"globalid":null,"gisglobalid":"d0aa0f2c-dcfa-4637-bc9f-ac39e46afb53","remark":"Approved","st_area(shape)":0.0000385198152283843,"st_perimeter(shape)":0.034202586293786925}},{"arcs":[[-188,189,-186,190,191,-183,192,-181,193,194,195,196,197,-175,198,-173,199,200,201,202,203,204,205,206,207,208,209,210,211,212,213,214,215,216,217,218,219,220,221,222,-223,223]],"type":"Polygon","properties":{"objectid":46928,"statename":"Maharashtra","statecode":"27","districtname":"Aurangabad","districtcode":"515","ulbname":"Paithan","ulbcode":"802770","wardname":"Nath Galli","wardcode":"7","id":null,"status":"APPROVED","misglobalid":null,"approved_by":null,"createdate":1639636414000,"updateddate":1647845839000,"globalid":null,"gisglobalid":"7b32e40f-f9ea-427f-8663-67490c4f7bbe","remark":"Approved","st_area(shape)":0.000012746815665003045,"st_perimeter(shape)":0.016342106238108365}},{"arcs":[[224,225,226,227,228,229,-99,230,231,232,233,234,235,236,237,238,239,240,241,242,243,244,245,246,247,248,249,250,251,252,253,-254,254,255,256,257,258,259,260,261,262,263,264,-265,265,266,267,268,269,270,271,272,273,274,275,276,277,278,279,280,281,282,283,284,285,-286,286,-208,287,-206,288,-204,289,290,291]],"type":"Polygon","properties":{"objectid":45722,"statename":"Maharashtra","statecode":"27","districtname":"Aurangabad","districtcode":"515","ulbname":"Paithan","ulbcode":"802770","wardname":"Bhaji Market","wardcode":"8","id":null,"status":"APPROVED","misglobalid":null,"approved_by":null,"createdate":1639637605000,"updateddate":1647845857000,"globalid":null,"gisglobalid":"91887e4f-e6b6-4f8a-b7ad-f9d8d21764bb","remark":"Approved","st_area(shape)":0.000031214114779328873,"st_perimeter(shape)":0.03500604353981137}},{"arcs":[[292,293,294,-250,295,296,297,298,-299,299,-245,300,-243,301,302,303,304,305,306,307,308,309,310,311,-269,312,-267,313,314,-263,315,316,317,318,-258,319,-256,320,321,322]],"type":"Polygon","properties":{"objectid":48685,"statename":"Maharashtra","statecode":"27","districtname":"Aurangabad","districtcode":"515","ulbname":"Paithan","ulbcode":"802770","wardname":"Sawata Mata Mandir Parisar","wardcode":"9","id":null,"status":"APPROVED","misglobalid":null,"approved_by":null,"createdate":1639640577000,"updateddate":1647845877000,"globalid":null,"gisglobalid":"0b154856-d085-4f39-8e37-298283e51ad4","remark":"Approved","st_area(shape)":0.00003465625270018518,"st_perimeter(shape)":0.028659264352848757}},{"arcs":[[-284,324,-282,325,326,-279,327,328,329,330,-331,331,332,333,334,335,336,337,338,339,340,341,342,343,344,345,346,347,348,349]],"type":"Polygon","properties":{"objectid":46152,"statename":"Maharashtra","statecode":"27","districtname":"Aurangabad","districtcode":"515","ulbname":"Paithan","ulbcode":"802770","wardname":"Durgawadi","wardcode":"10","id":null,"status":"APPROVED","misglobalid":null,"approved_by":null,"createdate":1639643267000,"updateddate":1647845904000,"globalid":null,"gisglobalid":"e2daaf15-a4c9-44f6-90d2-bc2ba5f6ed83","remark":"Approved","st_area(shape)":0.000016353946996684498,"st_perimeter(shape)":0.020297249485789117}},{"arcs":[[350,-351,351,-221,352,-219,353,354,355,356,-214,357,-212,358,359,360,-348,361,-346,362,363,364,365,366,367,368,369,370,371,372,373],[374,375,376,377,378,379,380,381,382]],"type":"Polygon","properties":{"objectid":45338,"statename":"Maharashtra","statecode":"27","districtname":"Aurangabad","districtcode":"515","ulbname":"Paithan","ulbcode":"802770","wardname":"Rangarhatti","wardcode":"11","id":null,"status":"APPROVED","misglobalid":null,"approved_by":null,"createdate":1639643291000,"updateddate":1647845925000,"globalid":null,"gisglobalid":"e277f0f2-10f3-4af4-b35e-9727dd8bd986","remark":"Approved","st_area(shape)":0.000035082026898050614,"st_perimeter(shape)":0.03104639373386356}}]}}}