{"type": "FeatureCollection", "features": [{"type": "Feature", "geometry": {"type": "Polygon", "coordinates": [[[82.1103, 21.1941], [82.1115, 21.1952], [82.1145, 21.1966], [82.1164, 21.1974], [82.121, 21.1993], [82.1264, 21.2017], [82.129, 21.2028], [82.1313, 21.2037], [82.1319, 21.2028], [82.1321, 21.2021], [82.1325, 21.2015], [82.1332, 21.2003], [82.1333, 21.2001], [82.1331, 21.2], [82.1325, 21.1994], [82.1312, 21.1983], [82.1305, 21.1978], [82.1274, 21.1958], [82.1257, 21.1948], [82.1242, 21.1941], [82.1214, 21.1939], [82.1199, 21.1939], [82.1182, 21.1939], [82.1173, 21.1939], [82.1132, 21.1939], [82.1107, 21.1939], [82.1103, 21.1941]]]}, "properties": {"objectid": 43003, "statename": "Chhattisgarh", "statecode": "22", "districtname": "Mahasamund", "districtcode": "411", "ulbname": "Tumgaon", "ulbcode": "802044", "wardname": "Dr. Ambedkar Ward", "wardcode": "1", "id": null, "status": "APPROVED", "misglobalid": null, "approved_by": null, "createdate": 1643050794000, "updateddate": 1643118892000, "globalid": null, "gisglobalid": "lol65ccK-oln6-P6c4-Qsl5-laQ5Q4QRBn5a", "remark": "", "st_area(shape)": 0.00010116275068242226, "st_perimeter(shape)": 0.0521244007584754}}, {"type": "Feature", "geometry": {"type": "Polygon", "coordinates": [[[82.1325, 21.1994], [82.1333, 21.2001], [82.1333, 21.1998], [82.1334, 21.1995], [82.1335, 21.1992], [82.1336, 21.1989], [82.1337, 21.1985], [82.1338, 21.198], [82.1338, 21.1978], [82.1339, 21.1976], [82.1341, 21.1973], [82.1342, 21.1969], [82.1345, 21.1964], [82.1347, 21.1958], [82.1349, 21.1954], [82.135, 21.1949], [82.1351, 21.1947], [82.1353, 21.1941], [82.1354, 21.1938], [82.1355, 21.1935], [82.1355, 21.1931], [82.1356, 21.1925], [82.1356, 21.1922], [82.1356, 21.1915], [82.1356, 21.1913], [82.1355, 21.1901], [82.1355, 21.1891], [82.1355, 21.1889], [82.1338, 21.1894], [82.1329, 21.19], [82.1297, 21.194], [82.1283, 21.1937], [82.1278, 21.1942], [82.1266, 21.1941], [82.1266, 21.1943], [82.1265, 21.1944], [82.1263, 21.1945], [82.1262, 21.1945], [82.1262, 21.1947], [82.1261, 21.1949], [82.126, 21.195], [82.1273, 21.1958], [82.1283, 21.1964], [82.1296, 21.1972], [82.1305, 21.1978], [82.1308, 21.198], [82.1312, 21.1983], [82.1315, 21.1986], [82.1325, 21.1994]]]}, "properties": {"objectid": 43515, "statename": "Chhattisgarh", "statecode": "22", "districtname": "Mahasamund", "districtcode": "411", "ulbname": "Tumgaon", "ulbcode": "802044", "wardname": "Swami Vivekanand Ward", "wardcode": "2", "id": null, "status": "APPROVED", "misglobalid": null, "approved_by": null, "createdate": 1643050918000, "updateddate": 1643118971000, "globalid": null, "gisglobalid": "4n5a5dsm-Pdda-Pddm-Q4oQ-P5RnPmcl54l4", "remark": "", "st_area(shape)": 4.894634673050572e-05, "st_perimeter(shape)": 0.032848314483774864}}, {"type": "Feature", "geometry": {"type": "Polygon", "coordinates": [[[82.1257, 21.1948], [82.126, 21.195], [82.1261, 21.1949], [82.1262, 21.1945], [82.1263, 21.1945], [82.1265, 21.1944], [82.1266, 21.1943], [82.1266, 21.1941], [82.1264, 21.1936], [82.1262, 21.1934], [82.1255, 21.1935], [82.1253, 21.1935], [82.1253, 21.1934], [82.1252, 21.193], [82.1251, 21.1928], [82.1251, 21.1926], [82.125, 21.1923], [82.1248, 21.1923], [82.1246, 21.1923], [82.1245, 21.1924], [82.1244, 21.1924], [82.1242, 21.1925], [82.1241, 21.1926], [82.1244, 21.193], [82.1242, 21.1931], [82.1241, 21.1932], [82.124, 21.1933], [82.1239, 21.1934], [82.1238, 21.1934], [82.1239, 21.1936], [82.1239, 21.1939], [82.1239, 21.1941], [82.1242, 21.1941], [82.1251, 21.1945], [82.1257, 21.1948]]]}, "properties": {"objectid": 43006, "statename": "Chhattisgarh", "statecode": "22", "districtname": "Mahasamund", "districtcode": "411", "ulbname": "Tumgaon", "ulbcode": "802044", "wardname": "Dr. Rajendra Prasad Ward", "wardcode": "3", "id": null, "status": "APPROVED", "misglobalid": null, "approved_by": null, "createdate": 1643051007000, "updateddate": 1643118977000, "globalid": null, "gisglobalid": "6a5QaQKB-4amm-PKKc-sQBR-KQ4BmmBK4Bsm", "remark": "", "st_area(shape)": 3.7785015896462566e-06, "st_perimeter(shape)": 0.009405591188360284}}, {"type": "Feature", "geometry": {"type": "Polygon", "coordinates": [[[82.1214, 21.1939], [82.1239, 21.1941], [82.1239, 21.1936], [82.1238, 21.1934], [82.1237, 21.1934], [82.1235, 21.1935], [82.1234, 21.1935], [82.1233, 21.1936], [82.1231, 21.1936], [82.1227, 21.1936], [82.1223, 21.1936], [82.1221, 21.1936], [82.1221, 21.1935], [82.1222, 21.1933], [82.1223, 21.1931], [82.1223, 21.193], [82.1222, 21.1928], [82.122, 21.1925], [82.1219, 21.1921], [82.1218, 21.1918], [82.1216, 21.1918], [82.1211, 21.1919], [82.1208, 21.192], [82.1204, 21.1922], [82.1198, 21.1924], [82.1196, 21.1924], [82.1193, 21.1928], [82.1191, 21.193], [82.1191, 21.1932], [82.1188, 21.1934], [82.1186, 21.1936], [82.1185, 21.1938], [82.1184, 21.1939], [82.1196, 21.1939], [82.1199, 21.1939], [82.1202, 21.1939], [82.1214, 21.1939]]]}, "properties": {"objectid": 40730, "statename": "Chhattisgarh", "statecode": "22", "districtname": "Mahasamund", "districtcode": "411", "ulbname": "Tumgaon", "ulbcode": "802044", "wardname": "Mahatma Gandhi Ward", "wardcode": "4", "id": null, "status": "APPROVED", "misglobalid": null, "approved_by": null, "createdate": 1643051126000, "updateddate": 1643118983000, "globalid": null, "gisglobalid": "md5ooRam-mPml-P5K6-Qs5o-4QasPncoQn4P", "remark": "", "st_area(shape)": 6.401469279318649e-06, "st_perimeter(shape)": 0.014145223672866672}}, {"type": "Feature", "geometry": {"type": "Polygon", "coordinates": [[[82.1184, 21.1939], [82.1185, 21.1938], [82.1186, 21.1936], [82.1191, 21.1932], [82.1191, 21.193], [82.1196, 21.1924], [82.1198, 21.1924], [82.1204, 21.1922], [82.1207, 21.1921], [82.1211, 21.1919], [82.1216, 21.1918], [82.1218, 21.1918], [82.1216, 21.1915], [82.1215, 21.1913], [82.1212, 21.1915], [82.121, 21.1915], [82.1207, 21.1915], [82.1205, 21.1915], [82.1204, 21.1915], [82.1202, 21.1917], [82.1201, 21.1917], [82.1198, 21.1916], [82.1195, 21.1916], [82.119, 21.1914], [82.1187, 21.1913], [82.1186, 21.1912], [82.1185, 21.191], [82.1184, 21.1907], [82.1182, 21.1906], [82.1179, 21.1904], [82.1177, 21.1904], [82.1168, 21.1899], [82.1154, 21.1901], [82.1159, 21.1931], [82.11, 21.1928], [82.11, 21.1938], [82.1103, 21.1941], [82.1107, 21.1939], [82.1173, 21.1939], [82.1182, 21.1939], [82.1184, 21.1939]]]}, "properties": {"objectid": 43517, "statename": "Chhattisgarh", "statecode": "22", "districtname": "Mahasamund", "districtcode": "411", "ulbname": "Tumgaon", "ulbcode": "802044", "wardname": "Subhash Chandra Ward", "wardcode": "5", "id": null, "status": "APPROVED", "misglobalid": null, "approved_by": null, "createdate": 1643051230000, "updateddate": 1643118989000, "globalid": null, "gisglobalid": "6nclKosK-PaRP-PsP4-Qola-llno4dssK5c5", "remark": "", "st_area(shape)": 1.8632765320046432e-05, "st_perimeter(shape)": 0.030182070147927433}}, {"type": "Feature", "geometry": {"type": "Polygon", "coordinates": [[[82.1204, 21.1916], [82.1205, 21.1915], [82.1206, 21.1911], [82.1207, 21.191], [82.1207, 21.1909], [82.1208, 21.1909], [82.1208, 21.1908], [82.121, 21.1906], [82.1212, 21.1904], [82.1212, 21.1902], [82.1213, 21.19], [82.1212, 21.19], [82.121, 21.19], [82.1208, 21.1897], [82.1208, 21.1894], [82.1208, 21.1891], [82.121, 21.1888], [82.121, 21.1886], [82.1208, 21.1885], [82.1206, 21.1884], [82.1202, 21.1886], [82.1199, 21.189], [82.1196, 21.1895], [82.1191, 21.1898], [82.1181, 21.1902], [82.1179, 21.1904], [82.1182, 21.1906], [82.1184, 21.1907], [82.1185, 21.1909], [82.1186, 21.1912], [82.1187, 21.1913], [82.119, 21.1914], [82.1197, 21.1916], [82.1201, 21.1917], [82.1202, 21.1917], [82.1204, 21.1916]]]}, "properties": {"objectid": 43518, "statename": "Chhattisgarh", "statecode": "22", "districtname": "Mahasamund", "districtcode": "411", "ulbname": "Tumgaon", "ulbcode": "802044", "wardname": "Pt. Dindayal Ward", "wardcode": "6", "id": null, "status": "APPROVED", "misglobalid": null, "approved_by": null, "createdate": 1643051344000, "updateddate": 1643119001000, "globalid": null, "gisglobalid": "onnncmon-oP6B-Pl45-Qs5a-46sdBQcodd6a", "remark": "", "st_area(shape)": 5.6649634560130405e-06, "st_perimeter(shape)": 0.01068750694738247}}, {"type": "Feature", "geometry": {"type": "Polygon", "coordinates": [[[82.1206, 21.1884], [82.1208, 21.1885], [82.121, 21.1886], [82.121, 21.1888], [82.1208, 21.1891], [82.1208, 21.1894], [82.1208, 21.1897], [82.121, 21.19], [82.1212, 21.19], [82.1213, 21.19], [82.1214, 21.1899], [82.1215, 21.1898], [82.1216, 21.1898], [82.1218, 21.1897], [82.122, 21.1896], [82.1222, 21.1895], [82.1224, 21.1896], [82.1225, 21.1898], [82.1225, 21.19], [82.1226, 21.1901], [82.1227, 21.19], [82.1231, 21.19], [82.1231, 21.1899], [82.123, 21.1896], [82.1229, 21.1895], [82.1229, 21.1893], [82.1232, 21.1891], [82.1235, 21.189], [82.1237, 21.189], [82.124, 21.189], [82.1242, 21.1892], [82.1246, 21.1888], [82.1248, 21.1887], [82.1249, 21.1886], [82.1253, 21.1883], [82.1256, 21.188], [82.1242, 21.1857], [82.1244, 21.1851], [82.1235, 21.1843], [82.1227, 21.1845], [82.1226, 21.1845], [82.1217, 21.1862], [82.1215, 21.1867], [82.1213, 21.1871], [82.1213, 21.1876], [82.1215, 21.1881], [82.1214, 21.1881], [82.1206, 21.1884]]]}, "properties": {"objectid": 43007, "statename": "Chhattisgarh", "statecode": "22", "districtname": "Mahasamund", "districtcode": "411", "ulbname": "Tumgaon", "ulbcode": "802044", "wardname": "Rajiv Gandhi Ward", "wardcode": "7", "id": null, "status": "APPROVED", "misglobalid": null, "approved_by": null, "createdate": 1643051534000, "updateddate": 1643119009000, "globalid": null, "gisglobalid": "oaQQRBdR-4lna-Pmds-s4oP-5m5aBs6R4dKd", "remark": "", "st_area(shape)": 1.6106276068219433e-05, "st_perimeter(shape)": 0.018823040983548242}}, {"type": "Feature", "geometry": {"type": "Polygon", "coordinates": [[[82.1215, 21.1913], [82.1218, 21.1918], [82.1221, 21.1918], [82.1223, 21.1918], [82.1225, 21.1917], [82.1226, 21.1916], [82.1227, 21.1915], [82.1228, 21.1913], [82.1229, 21.191], [82.123, 21.1909], [82.123, 21.1908], [82.1229, 21.1907], [82.1227, 21.1905], [82.1226, 21.1902], [82.1226, 21.1901], [82.1225, 21.19], [82.1225, 21.1898], [82.1224, 21.1896], [82.1222, 21.1895], [82.122, 21.1896], [82.1218, 21.1897], [82.1215, 21.1898], [82.1214, 21.1899], [82.1213, 21.19], [82.1212, 21.1904], [82.1208, 21.1908], [82.1208, 21.1909], [82.1207, 21.1909], [82.1207, 21.191], [82.1206, 21.1911], [82.1205, 21.1915], [82.1207, 21.1915], [82.121, 21.1915], [82.1212, 21.1915], [82.1215, 21.1913]]]}, "properties": {"objectid": 38204, "statename": "Chhattisgarh", "statecode": "22", "districtname": "Mahasamund", "districtcode": "411", "ulbname": "Tumgaon", "ulbcode": "802044", "wardname": "Guru Ghasidas Ward", "wardcode": "8", "id": null, "status": "APPROVED", "misglobalid": null, "approved_by": null, "createdate": 1643051612000, "updateddate": 1643119020000, "globalid": null, "gisglobalid": "4d55oals-RomB-PRmK-RlRs-nnRBPQ5s4Pc5", "remark": "", "st_area(shape)": 3.3790455226811427e-06, "st_perimeter(shape)": 0.00767025789501418}}, {"type": "Feature", "geometry": {"type": "Polygon", "coordinates": [[[82.1223, 21.1918], [82.122, 21.1918], [82.1218, 21.1918], [82.1219, 21.1921], [82.122, 21.1925], [82.1222, 21.1927], [82.1223, 21.193], [82.1222, 21.1933], [82.1221, 21.1935], [82.1221, 21.1936], [82.1223, 21.1936], [82.1231, 21.1936], [82.1233, 21.1936], [82.1235, 21.1935], [82.1237, 21.1934], [82.1238, 21.1934], [82.1239, 21.1934], [82.124, 21.1933], [82.1241, 21.1932], [82.1244, 21.193], [82.1242, 21.1927], [82.1241, 21.1926], [82.1238, 21.1923], [82.1235, 21.1919], [82.1233, 21.1914], [82.123, 21.1908], [82.123, 21.1909], [82.1229, 21.191], [82.1228, 21.1913], [82.1228, 21.1914], [82.1227, 21.1915], [82.1226, 21.1916], [82.1223, 21.1918]]]}, "properties": {"objectid": 43008, "statename": "Chhattisgarh", "statecode": "22", "districtname": "Mahasamund", "districtcode": "411", "ulbname": "Tumgaon", "ulbcode": "802044", "wardname": "Maulana Abdul Kalam Ward", "wardcode": "9", "id": null, "status": "APPROVED", "misglobalid": null, "approved_by": null, "createdate": 1643051735000, "updateddate": 1643119029000, "globalid": null, "gisglobalid": "546lnKRR-4sdc-Pmlm-a6dl-mPn5lPcda6B5", "remark": "", "st_area(shape)": 3.7767259069707357e-06, "st_perimeter(shape)": 0.008955910415040005}}, {"type": "Feature", "geometry": {"type": "Polygon", "coordinates": [[[82.1262, 21.1934], [82.1264, 21.1936], [82.1266, 21.1941], [82.1278, 21.1942], [82.1283, 21.1937], [82.1292, 21.1939], [82.1293, 21.1935], [82.1293, 21.1932], [82.1287, 21.1931], [82.1286, 21.193], [82.1285, 21.1926], [82.1284, 21.1925], [82.128, 21.1922], [82.1278, 21.1918], [82.1274, 21.1914], [82.1272, 21.191], [82.1263, 21.1904], [82.126, 21.1901], [82.1258, 21.1901], [82.1256, 21.1903], [82.1254, 21.1903], [82.1252, 21.1904], [82.1251, 21.1904], [82.1249, 21.1905], [82.125, 21.1908], [82.125, 21.191], [82.1251, 21.1913], [82.125, 21.1915], [82.125, 21.1919], [82.125, 21.1923], [82.1251, 21.1926], [82.1251, 21.1928], [82.1252, 21.193], [82.1253, 21.1934], [82.1253, 21.1935], [82.1255, 21.1935], [82.1262, 21.1934]]]}, "properties": {"objectid": 41519, "statename": "Chhattisgarh", "statecode": "22", "districtname": "Mahasamund", "districtcode": "411", "ulbname": "Tumgaon", "ulbcode": "802044", "wardname": "Shahid Bhagat Singh Ward", "wardcode": "10", "id": null, "status": "APPROVED", "misglobalid": null, "approved_by": null, "createdate": 1643051812000, "updateddate": 1643119045000, "globalid": null, "gisglobalid": "PncnKlsl-cRl4-P4l4-Rs45-mlcQRPaamKKB", "remark": "", "st_area(shape)": 1.0226968614600452e-05, "st_perimeter(shape)": 0.014299588957535959}}, {"type": "Feature", "geometry": {"type": "Polygon", "coordinates": [[[82.125, 21.1923], [82.1251, 21.1913], [82.125, 21.191], [82.125, 21.1908], [82.1249, 21.1905], [82.1252, 21.1904], [82.1254, 21.1903], [82.1256, 21.1903], [82.1258, 21.1901], [82.126, 21.1901], [82.1263, 21.1891], [82.1256, 21.188], [82.1251, 21.1884], [82.1248, 21.1886], [82.1246, 21.1888], [82.1242, 21.1892], [82.124, 21.189], [82.1238, 21.189], [82.1235, 21.189], [82.1232, 21.1891], [82.1229, 21.1893], [82.1229, 21.1895], [82.123, 21.1896], [82.123, 21.1897], [82.1231, 21.1899], [82.1231, 21.19], [82.1227, 21.19], [82.1226, 21.1901], [82.1226, 21.1902], [82.1228, 21.1905], [82.1229, 21.1907], [82.123, 21.1908], [82.1233, 21.1914], [82.1235, 21.1918], [82.1238, 21.1923], [82.1241, 21.1926], [82.1242, 21.1925], [82.1246, 21.1923], [82.125, 21.1923]]]}, "properties": {"objectid": 40297, "statename": "Chhattisgarh", "statecode": "22", "districtname": "Mahasamund", "districtcode": "411", "ulbname": "Tumgaon", "ulbcode": "802044", "wardname": "Dr. Rammanohar Lohiya Ward", "wardcode": "11", "id": null, "status": "APPROVED", "misglobalid": null, "approved_by": null, "createdate": 1643051892000, "updateddate": 1643119090000, "globalid": null, "gisglobalid": "RnnRPo6R-5Ksm-Pmmd-Q46a-PPsdsKn6564l", "remark": "", "st_area(shape)": 8.651363645885769e-06, "st_perimeter(shape)": 0.013794022358063873}}, {"type": "Feature", "geometry": {"type": "Polygon", "coordinates": [[[82.1271, 21.1878], [82.1263, 21.1891], [82.126, 21.1901], [82.1263, 21.1904], [82.1272, 21.191], [82.1274, 21.1914], [82.1278, 21.1917], [82.128, 21.1922], [82.1284, 21.1925], [82.1285, 21.1926], [82.1286, 21.193], [82.1287, 21.1931], [82.1293, 21.1932], [82.1293, 21.1935], [82.1292, 21.1939], [82.1297, 21.194], [82.1329, 21.19], [82.1338, 21.1894], [82.1355, 21.1889], [82.1355, 21.1877], [82.1354, 21.1874], [82.1351, 21.1866], [82.1347, 21.1866], [82.1336, 21.1867], [82.1327, 21.1872], [82.1319, 21.1872], [82.1314, 21.1875], [82.1313, 21.1876], [82.1309, 21.1876], [82.1308, 21.1875], [82.1303, 21.1874], [82.1297, 21.1873], [82.1291, 21.1872], [82.1282, 21.1871], [82.128, 21.187], [82.1278, 21.187], [82.1276, 21.187], [82.1274, 21.1871], [82.1273, 21.1873], [82.1272, 21.1876], [82.1271, 21.1878]]]}, "properties": {"objectid": 40299, "statename": "Chhattisgarh", "statecode": "22", "districtname": "Mahasamund", "districtcode": "411", "ulbname": "Tumgaon", "ulbcode": "802044", "wardname": "Rani Laxmi Bai", "wardcode": "12", "id": null, "status": "APPROVED", "misglobalid": null, "approved_by": null, "createdate": 1643051976000, "updateddate": 1643119102000, "globalid": null, "gisglobalid": "5dBcPcB5-nno5-PRB5-QPms-BalP5moKPsRs", "remark": "", "st_area(shape)": 3.7279904656419634e-05, "st_perimeter(shape)": 0.02777963527653314}}, {"type": "Feature", "geometry": {"type": "Polygon", "coordinates": [[[82.1278, 21.187], [82.1282, 21.1871], [82.1297, 21.1873], [82.1309, 21.1876], [82.1313, 21.1876], [82.1314, 21.1875], [82.1319, 21.1873], [82.1327, 21.1872], [82.1336, 21.1867], [82.1351, 21.1866], [82.1343, 21.1848], [82.1321, 21.1794], [82.131, 21.1765], [82.1308, 21.1766], [82.1299, 21.1773], [82.1287, 21.1782], [82.1287, 21.1795], [82.1299, 21.1814], [82.1297, 21.1823], [82.1295, 21.1829], [82.1292, 21.1834], [82.1293, 21.1843], [82.1293, 21.1851], [82.1294, 21.1855], [82.1295, 21.1857], [82.1296, 21.1859], [82.1296, 21.1861], [82.1286, 21.1866], [82.1283, 21.1867], [82.1281, 21.1869], [82.1278, 21.187]]]}, "properties": {"objectid": 40337, "statename": "Chhattisgarh", "statecode": "22", "districtname": "Mahasamund", "districtcode": "411", "ulbname": "Tumgaon", "ulbcode": "802044", "wardname": "Indira Gandhi Ward", "wardcode": "13", "id": null, "status": "APPROVED", "misglobalid": null, "approved_by": null, "createdate": 1643052058000, "updateddate": 1643119112000, "globalid": null, "gisglobalid": "l55dl64c-BKQK-PKsK-QsQm-daooP4dQd4RB", "remark": "", "st_area(shape)": 4.0544517308072454e-05, "st_perimeter(shape)": 0.031819007694802066}}, {"type": "Feature", "geometry": {"type": "Polygon", "coordinates": [[[82.1263, 21.1891], [82.1272, 21.1876], [82.1273, 21.1873], [82.1274, 21.1871], [82.1276, 21.187], [82.1279, 21.1869], [82.1286, 21.1866], [82.1296, 21.1861], [82.1295, 21.1857], [82.1294, 21.1855], [82.1293, 21.1851], [82.1292, 21.1834], [82.1294, 21.1829], [82.1297, 21.1823], [82.1299, 21.1814], [82.1287, 21.1795], [82.1287, 21.1781], [82.1279, 21.1782], [82.127, 21.1799], [82.1269, 21.18], [82.1253, 21.1821], [82.1227, 21.1845], [82.1235, 21.1843], [82.1244, 21.1851], [82.1242, 21.1857], [82.1256, 21.188], [82.1263, 21.1891]]]}, "properties": {"objectid": 40816, "statename": "Chhattisgarh", "statecode": "22", "districtname": "Mahasamund", "districtcode": "411", "ulbname": "Tumgaon", "ulbcode": "802044", "wardname": "Pt. Jawahar Lal Neharu Ward", "wardcode": "14", "id": null, "status": "APPROVED", "misglobalid": null, "approved_by": null, "createdate": 1643052153000, "updateddate": 1643119122000, "globalid": null, "gisglobalid": "BmmQaaKo-Kd6B-Pmc5-s5Pa-B6QPcomacdmo", "remark": "", "st_area(shape)": 3.7045810581831964e-05, "st_perimeter(shape)": 0.028750521109217886}}, {"type": "Feature", "geometry": {"type": "Polygon", "coordinates": [[[82.127, 21.1799], [82.1279, 21.1782], [82.1287, 21.1781], [82.1299, 21.1773], [82.1308, 21.1766], [82.131, 21.1765], [82.13, 21.1689], [82.129, 21.1682], [82.1245, 21.1678], [82.1221, 21.1686], [82.1203, 21.1731], [82.1213, 21.1755], [82.1211, 21.1771], [82.127, 21.1799]]]}, "properties": {"objectid": 40797, "statename": "Chhattisgarh", "statecode": "22", "districtname": "Mahasamund", "districtcode": "411", "ulbname": "Tumgaon", "ulbcode": "802044", "wardname": "Shahid Veer Narayan Sing Ward", "wardcode": "15", "id": null, "status": "APPROVED", "misglobalid": null, "approved_by": null, "createdate": 1643052302000, "updateddate": 1643119134000, "globalid": null, "gisglobalid": "5Rddsomd-5aan-PQBo-slKP-PKdmdl5o5PcQ", "remark": "", "st_area(shape)": 9.516481253843112e-05, "st_perimeter(shape)": 0.036975692717115684}}]}
