{"type": "FeatureCollection", "features": [{"type": "Feature", "geometry": {"type": "Polygon", "coordinates": [[[76.7372, 22.666], [76.7371, 22.666], [76.7369, 22.666], [76.7368, 22.666], [76.7366, 22.666], [76.7364, 22.666], [76.7362, 22.666], [76.7361, 22.666], [76.7358, 22.6659], [76.7353, 22.6659], [76.7341, 22.6658], [76.7336, 22.6658], [76.7332, 22.6658], [76.733, 22.6658], [76.7329, 22.6658], [76.7328, 22.6657], [76.7326, 22.6657], [76.7325, 22.6657], [76.7324, 22.6656], [76.7323, 22.6655], [76.7322, 22.6654], [76.7322, 22.6653], [76.7321, 22.6653], [76.732, 22.6652], [76.732, 22.6651], [76.7319, 22.665], [76.7318, 22.665], [76.7317, 22.6649], [76.7316, 22.6649], [76.7315, 22.6649], [76.7313, 22.6649], [76.7311, 22.6648], [76.731, 22.6648], [76.7309, 22.6647], [76.7309, 22.6646], [76.7308, 22.6644], [76.7306, 22.6643], [76.7298, 22.6645], [76.7297, 22.6646], [76.7298, 22.6646], [76.7298, 22.6647], [76.7298, 22.6648], [76.7297, 22.6648], [76.7297, 22.6647], [76.7295, 22.6647], [76.7294, 22.6647], [76.7293, 22.6647], [76.7292, 22.6647], [76.7291, 22.6647], [76.7289, 22.6646], [76.7288, 22.6646], [76.7285, 22.6654], [76.728, 22.6666], [76.7281, 22.6666], [76.7281, 22.6667], [76.7281, 22.6668], [76.7282, 22.6669], [76.7282, 22.667], [76.7283, 22.667], [76.7284, 22.6671], [76.7285, 22.6672], [76.7286, 22.6673], [76.7286, 22.6674], [76.7286, 22.6675], [76.7286, 22.6676], [76.7286, 22.6677], [76.7287, 22.6677], [76.7289, 22.6677], [76.729, 22.6677], [76.7291, 22.6677], [76.7291, 22.6678], [76.7292, 22.6679], [76.7293, 22.668], [76.7293, 22.6681], [76.7293, 22.6682], [76.7293, 22.6683], [76.7293, 22.6684], [76.7293, 22.6685], [76.7294, 22.6688], [76.7294, 22.6689], [76.7294, 22.6691], [76.7293, 22.6693], [76.729, 22.6696], [76.7289, 22.6697], [76.7288, 22.6699], [76.7288, 22.67], [76.7288, 22.6701], [76.7288, 22.6702], [76.7289, 22.6702], [76.729, 22.6703], [76.7291, 22.6703], [76.7292, 22.6704], [76.7293, 22.6705], [76.7296, 22.6709], [76.7298, 22.6711], [76.7298, 22.6713], [76.7298, 22.6715], [76.7298, 22.6717], [76.7298, 22.6718], [76.7298, 22.6719], [76.7301, 22.6717], [76.7308, 22.6711], [76.7318, 22.6704], [76.7326, 22.6698], [76.7336, 22.6691], [76.7341, 22.6687], [76.7346, 22.6685], [76.7356, 22.6683], [76.7358, 22.6682], [76.7359, 22.6682], [76.736, 22.6681], [76.736, 22.668], [76.7359, 22.6678], [76.736, 22.6678], [76.7362, 22.6677], [76.7363, 22.6677], [76.7365, 22.6677], [76.7367, 22.6676], [76.7365, 22.6672], [76.7366, 22.6672], [76.7368, 22.6672], [76.7369, 22.6671], [76.737, 22.667], [76.7371, 22.667], [76.7372, 22.6669], [76.7373, 22.6668], [76.7375, 22.6667], [76.7373, 22.6663], [76.7372, 22.666]]]}, "properties": {"objectid": 73889, "statename": "Madhya Pradesh", "statecode": "23", "districtname": "Dewas", "districtcode": "437", "ulbname": "Kannod", "ulbcode": "802249", "wardname": " \n\nMahatma Gandhi Ward\n\n", "wardcode": "1", "id": null, "status": "APPROVED", "misglobalid": null, "approved_by": null, "createdate": 1641915049000, "updateddate": 1659513020000, "globalid": null, "gisglobalid": "Q5ndR5sd-ld5s-Plda-R5ma-dnQa4mlsolnK", "remark": "Ok", "st_area(shape)": 3.496799663677168e-05, "st_perimeter(shape)": 0.029086091518014837}}, {"type": "Feature", "geometry": {"type": "Polygon", "coordinates": [[[76.7346, 22.6705], [76.7357, 22.67], [76.7362, 22.6699], [76.7365, 22.6698], [76.7367, 22.6697], [76.7369, 22.6697], [76.737, 22.6695], [76.7374, 22.6689], [76.7375, 22.6689], [76.7376, 22.6686], [76.7377, 22.6683], [76.7377, 22.668], [76.7377, 22.6678], [76.7377, 22.6677], [76.7378, 22.6676], [76.7381, 22.6676], [76.7386, 22.6677], [76.7391, 22.6677], [76.7395, 22.6676], [76.7396, 22.6676], [76.7396, 22.6671], [76.7396, 22.667], [76.7395, 22.6669], [76.7394, 22.6667], [76.7394, 22.6666], [76.7394, 22.6665], [76.7391, 22.6664], [76.7389, 22.6664], [76.7385, 22.6663], [76.7379, 22.6663], [76.7373, 22.6663], [76.7375, 22.6667], [76.7373, 22.6668], [76.7372, 22.6669], [76.7371, 22.667], [76.737, 22.667], [76.7369, 22.6671], [76.7368, 22.6672], [76.7366, 22.6672], [76.7365, 22.6672], [76.7367, 22.6676], [76.7365, 22.6677], [76.7363, 22.6677], [76.7362, 22.6677], [76.736, 22.6678], [76.7359, 22.6678], [76.736, 22.668], [76.736, 22.6681], [76.7359, 22.6682], [76.7358, 22.6682], [76.7356, 22.6683], [76.7346, 22.6685], [76.7341, 22.6687], [76.7336, 22.6691], [76.7326, 22.6698], [76.7318, 22.6704], [76.7308, 22.6711], [76.7301, 22.6717], [76.7298, 22.6719], [76.7299, 22.6722], [76.7301, 22.6726], [76.7301, 22.6727], [76.7304, 22.6725], [76.7308, 22.6722], [76.731, 22.6721], [76.7314, 22.6719], [76.7328, 22.6712], [76.7345, 22.6705], [76.7346, 22.6705]]]}, "properties": {"objectid": 72249, "statename": "Madhya Pradesh", "statecode": "23", "districtname": "Dewas", "districtcode": "437", "ulbname": "Kannod", "ulbcode": "802249", "wardname": " \n\nJai Prakash Ward\n\n", "wardcode": "2", "id": null, "status": "APPROVED", "misglobalid": null, "approved_by": null, "createdate": 1641915062000, "updateddate": 1659513089000, "globalid": null, "gisglobalid": "alRdlPQm-Bdma-PRsc-sRQ4-dPlP55Qna4aa", "remark": "Ok", "st_area(shape)": 1.5653498184295633e-05, "st_perimeter(shape)": 0.025981632676787433}}, {"type": "Feature", "geometry": {"type": "Polygon", "coordinates": [[[76.7378, 22.6717], [76.7378, 22.6716], [76.7376, 22.6709], [76.7376, 22.6703], [76.7376, 22.6702], [76.7376, 22.6701], [76.7376, 22.6697], [76.7376, 22.6694], [76.7376, 22.6693], [76.7376, 22.6692], [76.7378, 22.6692], [76.738, 22.6692], [76.738, 22.6691], [76.738, 22.6685], [76.7385, 22.6685], [76.7388, 22.6685], [76.7391, 22.6685], [76.7393, 22.6684], [76.7394, 22.6683], [76.7395, 22.6683], [76.7395, 22.6682], [76.7396, 22.6681], [76.7397, 22.668], [76.7398, 22.668], [76.7399, 22.6681], [76.7399, 22.6682], [76.74, 22.6682], [76.7401, 22.6681], [76.7401, 22.668], [76.7402, 22.6678], [76.7402, 22.6677], [76.7402, 22.6676], [76.7402, 22.6675], [76.7406, 22.6674], [76.7405, 22.6673], [76.7404, 22.6672], [76.7403, 22.667], [76.7402, 22.6668], [76.7401, 22.6666], [76.7399, 22.6666], [76.7397, 22.6666], [76.7395, 22.6665], [76.7394, 22.6665], [76.7394, 22.6666], [76.7394, 22.6667], [76.7395, 22.6669], [76.7396, 22.667], [76.7396, 22.6671], [76.7396, 22.6676], [76.7395, 22.6676], [76.7391, 22.6677], [76.7386, 22.6677], [76.7381, 22.6676], [76.7378, 22.6676], [76.7377, 22.6677], [76.7377, 22.6678], [76.7377, 22.668], [76.7377, 22.6683], [76.7376, 22.6686], [76.7375, 22.6689], [76.7374, 22.6689], [76.737, 22.6695], [76.7369, 22.6697], [76.7367, 22.6697], [76.7365, 22.6698], [76.7362, 22.6699], [76.7357, 22.67], [76.7346, 22.6705], [76.7348, 22.6707], [76.7358, 22.6707], [76.7362, 22.6713], [76.7363, 22.6716], [76.7364, 22.6719], [76.7363, 22.6722], [76.7377, 22.6717], [76.7378, 22.6717]]]}, "properties": {"objectid": 72251, "statename": "Madhya Pradesh", "statecode": "23", "districtname": "Dewas", "districtcode": "437", "ulbname": "Kannod", "ulbcode": "802249", "wardname": " \n\nChattarpati Ward\n\n", "wardcode": "3", "id": null, "status": "APPROVED", "misglobalid": null, "approved_by": null, "createdate": 1641915450000, "updateddate": 1659513074000, "globalid": null, "gisglobalid": "moKclsKm-lB65-PlaK-RRRR-P5lmocnQc4so", "remark": "Ok", "st_area(shape)": 7.279315950486172e-06, "st_perimeter(shape)": 0.0206898051877144}}, {"type": "Feature", "geometry": {"type": "Polygon", "coordinates": [[[76.7409, 22.6674], [76.7409, 22.6673], [76.7409, 22.6672], [76.741, 22.667], [76.741, 22.6669], [76.741, 22.6668], [76.741, 22.6667], [76.741, 22.6665], [76.7402, 22.6666], [76.7401, 22.6666], [76.7402, 22.6668], [76.7403, 22.667], [76.7404, 22.6672], [76.7405, 22.6673], [76.7406, 22.6674], [76.7402, 22.6675], [76.7402, 22.6676], [76.7402, 22.6677], [76.7402, 22.6678], [76.7401, 22.668], [76.7401, 22.6681], [76.74, 22.6682], [76.7399, 22.6682], [76.7399, 22.6681], [76.7398, 22.668], [76.7397, 22.668], [76.7396, 22.6681], [76.7395, 22.6682], [76.7395, 22.6683], [76.7394, 22.6683], [76.7393, 22.6684], [76.7391, 22.6685], [76.7388, 22.6685], [76.7385, 22.6685], [76.738, 22.6685], [76.738, 22.6691], [76.738, 22.6692], [76.7378, 22.6692], [76.7376, 22.6692], [76.7376, 22.6693], [76.7377, 22.6695], [76.7378, 22.6697], [76.7379, 22.6698], [76.7381, 22.6699], [76.7386, 22.6701], [76.74, 22.6708], [76.7401, 22.6708], [76.7403, 22.6706], [76.7404, 22.6705], [76.7405, 22.6704], [76.7407, 22.6702], [76.7408, 22.6701], [76.7409, 22.6701], [76.741, 22.67], [76.741, 22.6699], [76.741, 22.6698], [76.7411, 22.6698], [76.7412, 22.6698], [76.7416, 22.6699], [76.7416, 22.6697], [76.7416, 22.6696], [76.7416, 22.6694], [76.7415, 22.6691], [76.7415, 22.6689], [76.7415, 22.6687], [76.7415, 22.6684], [76.7415, 22.6683], [76.7415, 22.6682], [76.7414, 22.6682], [76.7412, 22.6681], [76.7411, 22.6681], [76.741, 22.668], [76.7409, 22.6679], [76.7409, 22.6678], [76.7409, 22.6677], [76.7409, 22.6676], [76.7409, 22.6675], [76.7409, 22.6674]]]}, "properties": {"objectid": 72252, "statename": "Madhya Pradesh", "statecode": "23", "districtname": "Dewas", "districtcode": "437", "ulbname": "Kannod", "ulbcode": "802249", "wardname": " \n\nSevatipura Ward\n\n", "wardcode": "4", "id": null, "status": "APPROVED", "misglobalid": null, "approved_by": null, "createdate": 1641915464000, "updateddate": 1659513104000, "globalid": null, "gisglobalid": "ms5s5s5d-ol5c-PPBK-aPon-d6RBsQQ6Qoom", "remark": "Ok", "st_area(shape)": 8.44318552195391e-06, "st_perimeter(shape)": 0.015018908359248172}}, {"type": "Feature", "geometry": {"type": "Polygon", "coordinates": [[[76.7437, 22.6687], [76.7429, 22.6686], [76.7426, 22.6686], [76.7425, 22.6686], [76.7424, 22.6685], [76.7425, 22.6683], [76.7424, 22.6683], [76.7424, 22.6682], [76.7423, 22.6682], [76.7421, 22.6682], [76.7419, 22.6682], [76.7418, 22.6683], [76.7418, 22.6682], [76.7418, 22.6681], [76.7419, 22.6681], [76.7419, 22.668], [76.7419, 22.6679], [76.7419, 22.6678], [76.7419, 22.6677], [76.742, 22.6676], [76.742, 22.6675], [76.7419, 22.6675], [76.7418, 22.6675], [76.7417, 22.6674], [76.7416, 22.6674], [76.7415, 22.6674], [76.7411, 22.6674], [76.7409, 22.6674], [76.7409, 22.6675], [76.7409, 22.6676], [76.7409, 22.6677], [76.7409, 22.6678], [76.7409, 22.6679], [76.741, 22.668], [76.7411, 22.6681], [76.7412, 22.6681], [76.7414, 22.6682], [76.7415, 22.6682], [76.7415, 22.6683], [76.7415, 22.6684], [76.7415, 22.6687], [76.7415, 22.6689], [76.7415, 22.6691], [76.7416, 22.6694], [76.7416, 22.6696], [76.7416, 22.6697], [76.7416, 22.6699], [76.7422, 22.67], [76.7424, 22.67], [76.7426, 22.6699], [76.7429, 22.6699], [76.7432, 22.6698], [76.7435, 22.6696], [76.7436, 22.6695], [76.7437, 22.6694], [76.7437, 22.6693], [76.7437, 22.6691], [76.7437, 22.6688], [76.7437, 22.6687]]]}, "properties": {"objectid": 72253, "statename": "Madhya Pradesh", "statecode": "23", "districtname": "Dewas", "districtcode": "437", "ulbname": "Kannod", "ulbcode": "802249", "wardname": "Malhar Ganj Ward", "wardcode": "5", "id": null, "status": "APPROVED", "misglobalid": null, "approved_by": null, "createdate": 1641915479000, "updateddate": 1659513115000, "globalid": null, "gisglobalid": "lmn5mclK-6s6s-P44n-s44a-sRRc6P4QBdKR", "remark": "Ok", "st_area(shape)": 3.66652190466852e-06, "st_perimeter(shape)": 0.009870141883079562}}, {"type": "Feature", "geometry": {"type": "Polygon", "coordinates": [[[76.742, 22.6675], [76.742, 22.6676], [76.7419, 22.6677], [76.7419, 22.6678], [76.7419, 22.6679], [76.7419, 22.668], [76.7419, 22.6681], [76.7418, 22.6681], [76.7418, 22.6682], [76.7418, 22.6683], [76.7419, 22.6682], [76.7421, 22.6682], [76.7423, 22.6682], [76.7424, 22.6682], [76.7424, 22.6683], [76.7425, 22.6683], [76.7424, 22.6685], [76.7425, 22.6686], [76.7426, 22.6686], [76.7429, 22.6686], [76.7437, 22.6687], [76.7437, 22.6686], [76.7437, 22.6685], [76.7437, 22.6684], [76.7438, 22.6684], [76.7439, 22.6683], [76.7441, 22.6683], [76.7442, 22.6683], [76.7446, 22.6681], [76.7446, 22.668], [76.7446, 22.6678], [76.7445, 22.6678], [76.7444, 22.6678], [76.7443, 22.6677], [76.7442, 22.6677], [76.7442, 22.6676], [76.7441, 22.6676], [76.744, 22.6676], [76.7439, 22.6675], [76.7438, 22.6675], [76.7437, 22.6675], [76.7437, 22.6674], [76.7436, 22.6674], [76.7436, 22.6673], [76.7435, 22.6673], [76.7435, 22.6672], [76.7434, 22.6672], [76.7434, 22.6671], [76.7434, 22.667], [76.7433, 22.667], [76.7432, 22.6671], [76.743, 22.6672], [76.7429, 22.6672], [76.7428, 22.6673], [76.7425, 22.6674], [76.7421, 22.6675], [76.742, 22.6675]]]}, "properties": {"objectid": 72254, "statename": "Madhya Pradesh", "statecode": "23", "districtname": "Dewas", "districtcode": "437", "ulbname": "Kannod", "ulbcode": "802249", "wardname": " \n\nRana Pratap Ward\n\n", "wardcode": "6", "id": null, "status": "APPROVED", "misglobalid": null, "approved_by": null, "createdate": 1641915491000, "updateddate": 1659513129000, "globalid": null, "gisglobalid": "BQKmQRRK-PdKl-PaRo-QoaB-c4mQR5644BQs", "remark": "Ok", "st_area(shape)": 2.724084812210917e-06, "st_perimeter(shape)": 0.007662601531769191}}, {"type": "Feature", "geometry": {"type": "Polygon", "coordinates": [[[76.743, 22.6672], [76.7429, 22.6671], [76.7429, 22.667], [76.7429, 22.6669], [76.7429, 22.6668], [76.7429, 22.6667], [76.7428, 22.6666], [76.7427, 22.6666], [76.7425, 22.6666], [76.7423, 22.6666], [76.7417, 22.6667], [76.7416, 22.6667], [76.7416, 22.6666], [76.7416, 22.6665], [76.7416, 22.6664], [76.7411, 22.6665], [76.741, 22.6665], [76.741, 22.6667], [76.741, 22.6668], [76.741, 22.6669], [76.741, 22.667], [76.7409, 22.6672], [76.7409, 22.6673], [76.7409, 22.6674], [76.7411, 22.6674], [76.7415, 22.6674], [76.7416, 22.6674], [76.7417, 22.6674], [76.7418, 22.6675], [76.7419, 22.6675], [76.7421, 22.6675], [76.7425, 22.6674], [76.7428, 22.6673], [76.7429, 22.6672], [76.743, 22.6672]]]}, "properties": {"objectid": 73891, "statename": "Madhya Pradesh", "statecode": "23", "districtname": "Dewas", "districtcode": "437", "ulbname": "Kannod", "ulbcode": "802249", "wardname": " \n\nSubhash Ward\n\n", "wardcode": "7", "id": null, "status": "APPROVED", "misglobalid": null, "approved_by": null, "createdate": 1641915561000, "updateddate": 1659513153000, "globalid": null, "gisglobalid": "BRQBQ5lB-doao-P4ol-RRsQ-lcPdlP56c5mQ", "remark": "Ok", "st_area(shape)": 1.6255792772036748e-06, "st_perimeter(shape)": 0.00580393879149498}}, {"type": "Feature", "geometry": {"type": "Polygon", "coordinates": [[[76.7416, 22.6664], [76.7416, 22.6665], [76.7416, 22.6666], [76.7416, 22.6667], [76.7417, 22.6667], [76.7423, 22.6666], [76.7425, 22.6666], [76.7427, 22.6666], [76.7428, 22.6666], [76.7429, 22.6667], [76.7429, 22.6668], [76.7429, 22.6669], [76.7429, 22.667], [76.7429, 22.6671], [76.743, 22.6672], [76.7432, 22.6671], [76.7433, 22.667], [76.7434, 22.667], [76.7434, 22.6671], [76.7434, 22.6672], [76.7435, 22.6672], [76.7435, 22.6673], [76.7436, 22.6673], [76.7436, 22.6674], [76.7437, 22.6674], [76.7437, 22.6675], [76.7438, 22.6675], [76.7439, 22.6675], [76.744, 22.6676], [76.7441, 22.6676], [76.7442, 22.6676], [76.7442, 22.6677], [76.7443, 22.6677], [76.7444, 22.6678], [76.7445, 22.6678], [76.7446, 22.6678], [76.7446, 22.668], [76.7454, 22.6679], [76.7453, 22.6677], [76.7452, 22.6672], [76.7451, 22.6668], [76.7452, 22.6667], [76.7453, 22.6667], [76.7455, 22.6667], [76.7456, 22.6667], [76.7457, 22.6667], [76.7458, 22.6667], [76.7458, 22.6664], [76.7458, 22.6663], [76.7454, 22.6662], [76.7453, 22.6661], [76.7451, 22.6661], [76.745, 22.6661], [76.7449, 22.6661], [76.7448, 22.6661], [76.7448, 22.6662], [76.7447, 22.6662], [76.7446, 22.6662], [76.7444, 22.6663], [76.7432, 22.6663], [76.7427, 22.6663], [76.7419, 22.6664], [76.7416, 22.6664]]]}, "properties": {"objectid": 73890, "statename": "Madhya Pradesh", "statecode": "23", "districtname": "Dewas", "districtcode": "437", "ulbname": "Kannod", "ulbcode": "802249", "wardname": " \n\nSadar Ward\n\n", "wardcode": "8", "id": null, "status": "APPROVED", "misglobalid": null, "approved_by": null, "createdate": 1641915505000, "updateddate": 1659513169000, "globalid": null, "gisglobalid": "6Kla5R6d-lo5m-Pdad-Rll4-sBs4ool4P4RP", "remark": "Ok", "st_area(shape)": 3.7539950055882855e-06, "st_perimeter(shape)": 0.011684119101630587}}, {"type": "Feature", "geometry": {"type": "Polygon", "coordinates": [[[76.7376, 22.6693], [76.7376, 22.6694], [76.7376, 22.6697], [76.7376, 22.6701], [76.7376, 22.6702], [76.7376, 22.6703], [76.7376, 22.6709], [76.7378, 22.6716], [76.7378, 22.6717], [76.7383, 22.6717], [76.739, 22.6718], [76.7403, 22.672], [76.7409, 22.6721], [76.7421, 22.6727], [76.7432, 22.6738], [76.7442, 22.6739], [76.7442, 22.6732], [76.7442, 22.6729], [76.7442, 22.6726], [76.7443, 22.6721], [76.7443, 22.6716], [76.7443, 22.6714], [76.7444, 22.6713], [76.7445, 22.671], [76.7446, 22.6707], [76.7448, 22.6702], [76.745, 22.6697], [76.7451, 22.6696], [76.7452, 22.6693], [76.7453, 22.6691], [76.7452, 22.6691], [76.7451, 22.669], [76.7451, 22.6689], [76.745, 22.6687], [76.7449, 22.6686], [76.7448, 22.6684], [76.7448, 22.6683], [76.7446, 22.6681], [76.7442, 22.6683], [76.7441, 22.6683], [76.7439, 22.6683], [76.7438, 22.6684], [76.7437, 22.6684], [76.7437, 22.6685], [76.7437, 22.6686], [76.7437, 22.6688], [76.7437, 22.6691], [76.7437, 22.6693], [76.7437, 22.6694], [76.7436, 22.6695], [76.7435, 22.6696], [76.7432, 22.6698], [76.7429, 22.6699], [76.7426, 22.6699], [76.7424, 22.67], [76.7422, 22.67], [76.7416, 22.6699], [76.7412, 22.6698], [76.7411, 22.6698], [76.741, 22.6698], [76.741, 22.6699], [76.741, 22.67], [76.7409, 22.6701], [76.7408, 22.6701], [76.7407, 22.6702], [76.7405, 22.6704], [76.7404, 22.6705], [76.7403, 22.6706], [76.7401, 22.6708], [76.74, 22.6708], [76.7386, 22.6701], [76.7381, 22.6699], [76.7379, 22.6698], [76.7378, 22.6697], [76.7377, 22.6695], [76.7376, 22.6693]]]}, "properties": {"objectid": 72255, "statename": "Madhya Pradesh", "statecode": "23", "districtname": "Dewas", "districtcode": "437", "ulbname": "Kannod", "ulbcode": "802249", "wardname": "Mahakaal Ward", "wardcode": "9", "id": null, "status": "APPROVED", "misglobalid": null, "approved_by": null, "createdate": 1641915523000, "updateddate": 1659513188000, "globalid": null, "gisglobalid": "Rn6KPocR-acQP-PBQm-RoKQ-csml4Knosccs", "remark": "Ok", "st_area(shape)": 1.8800384273842296e-05, "st_perimeter(shape)": 0.025079642947055995}}, {"type": "Feature", "geometry": {"type": "Polygon", "coordinates": [[[76.7458, 22.6664], [76.7458, 22.6667], [76.7457, 22.6667], [76.7456, 22.6667], [76.7455, 22.6667], [76.7453, 22.6667], [76.7452, 22.6667], [76.7451, 22.6668], [76.7452, 22.6672], [76.7453, 22.6677], [76.7454, 22.6679], [76.7446, 22.668], [76.7446, 22.6681], [76.7448, 22.6683], [76.7448, 22.6684], [76.7449, 22.6686], [76.745, 22.6687], [76.7451, 22.6689], [76.7451, 22.669], [76.7452, 22.6691], [76.7453, 22.6691], [76.7452, 22.6693], [76.7451, 22.6696], [76.745, 22.6697], [76.7448, 22.6702], [76.7446, 22.6707], [76.7445, 22.671], [76.7444, 22.6713], [76.7443, 22.6714], [76.7443, 22.6716], [76.7443, 22.6721], [76.7442, 22.6726], [76.7442, 22.6729], [76.7442, 22.6732], [76.7442, 22.6739], [76.7451, 22.6739], [76.7452, 22.673], [76.7452, 22.6728], [76.7453, 22.6728], [76.7453, 22.6727], [76.7453, 22.6726], [76.7453, 22.6724], [76.7453, 22.6722], [76.7453, 22.6721], [76.7462, 22.6719], [76.7462, 22.6718], [76.7465, 22.6713], [76.7468, 22.6707], [76.7469, 22.6705], [76.747, 22.6705], [76.7471, 22.6705], [76.7488, 22.6705], [76.749, 22.6694], [76.7488, 22.6693], [76.7487, 22.6692], [76.7484, 22.669], [76.7482, 22.6689], [76.748, 22.6687], [76.7476, 22.6683], [76.7474, 22.668], [76.7472, 22.6678], [76.7471, 22.6677], [76.7471, 22.6676], [76.7469, 22.6675], [76.7467, 22.6674], [76.7466, 22.6673], [76.7464, 22.6672], [76.7463, 22.667], [76.7463, 22.6669], [76.7462, 22.6668], [76.7462, 22.6664], [76.746, 22.6664], [76.7458, 22.6664]]]}, "properties": {"objectid": 72256, "statename": "Madhya Pradesh", "statecode": "23", "districtname": "Dewas", "districtcode": "437", "ulbname": "Kannod", "ulbcode": "802249", "wardname": "Ambedkar Ward", "wardcode": "10", "id": null, "status": "APPROVED", "misglobalid": null, "approved_by": null, "createdate": 1641915535000, "updateddate": 1659513212000, "globalid": null, "gisglobalid": "lmcR4odl-no4d-PQ4R-soPs-l4o4m4l4m5md", "remark": "Ok", "st_area(shape)": 1.5975637140140877e-05, "st_perimeter(shape)": 0.022586336166202845}}, {"type": "Feature", "geometry": {"type": "Polygon", "coordinates": [[[76.7462, 22.6664], [76.7462, 22.6668], [76.7463, 22.6669], [76.7463, 22.667], [76.7464, 22.6672], [76.7466, 22.6673], [76.7467, 22.6674], [76.7469, 22.6675], [76.7471, 22.6676], [76.7471, 22.6677], [76.7472, 22.6678], [76.7474, 22.668], [76.7476, 22.6683], [76.748, 22.6687], [76.7482, 22.6689], [76.7484, 22.669], [76.7487, 22.6692], [76.7488, 22.6687], [76.7489, 22.6679], [76.7494, 22.6676], [76.7499, 22.6669], [76.7506, 22.666], [76.7518, 22.6659], [76.7532, 22.6658], [76.7529, 22.664], [76.7517, 22.6645], [76.7513, 22.6634], [76.7513, 22.6633], [76.7513, 22.6627], [76.7512, 22.6612], [76.7509, 22.6612], [76.7505, 22.6614], [76.7502, 22.6614], [76.7501, 22.6614], [76.75, 22.6613], [76.7499, 22.6612], [76.7498, 22.661], [76.7498, 22.6608], [76.7497, 22.6607], [76.7495, 22.6604], [76.7493, 22.6607], [76.7492, 22.6608], [76.7492, 22.6609], [76.7492, 22.661], [76.7493, 22.6611], [76.7494, 22.6614], [76.7497, 22.6618], [76.7498, 22.6621], [76.7498, 22.6624], [76.7498, 22.6626], [76.7497, 22.6628], [76.7496, 22.6634], [76.7496, 22.6636], [76.7496, 22.6637], [76.7497, 22.6644], [76.7497, 22.6652], [76.747, 22.6661], [76.7463, 22.6663], [76.7462, 22.6664]]]}, "properties": {"objectid": 72250, "statename": "Madhya Pradesh", "statecode": "23", "districtname": "Dewas", "districtcode": "437", "ulbname": "Kannod", "ulbcode": "802249", "wardname": "Jawahar Ward", "wardcode": "11", "id": null, "status": "APPROVED", "misglobalid": null, "approved_by": null, "createdate": 1641915077000, "updateddate": 1659513228000, "globalid": null, "gisglobalid": "ddsK6lsK-danQ-Pcod-soBK-dllmol4mcRPc", "remark": "Ok", "st_area(shape)": 1.9297123971999436e-05, "st_perimeter(shape)": 0.028110829152140707}}, {"type": "Feature", "geometry": {"type": "Polygon", "coordinates": [[[76.7418, 22.6664], [76.7417, 22.6659], [76.7415, 22.6656], [76.7414, 22.6651], [76.7413, 22.6649], [76.7413, 22.6647], [76.7414, 22.6644], [76.7413, 22.6636], [76.7413, 22.6628], [76.7413, 22.6621], [76.7414, 22.6612], [76.7414, 22.6607], [76.7416, 22.6603], [76.7417, 22.6598], [76.7417, 22.6594], [76.7416, 22.659], [76.7414, 22.6584], [76.7411, 22.6579], [76.741, 22.6574], [76.7385, 22.6574], [76.7384, 22.6574], [76.7382, 22.6575], [76.7381, 22.6575], [76.7381, 22.6578], [76.7378, 22.6581], [76.7374, 22.6581], [76.7374, 22.6593], [76.7376, 22.6612], [76.7376, 22.6617], [76.7376, 22.6618], [76.7382, 22.6618], [76.7383, 22.6619], [76.7385, 22.6621], [76.7387, 22.6621], [76.7392, 22.6621], [76.7393, 22.662], [76.7395, 22.6618], [76.7397, 22.6617], [76.7398, 22.6616], [76.7399, 22.6616], [76.74, 22.6616], [76.7401, 22.6617], [76.74, 22.6617], [76.7399, 22.6617], [76.7398, 22.6618], [76.7397, 22.6619], [76.7397, 22.662], [76.7396, 22.6621], [76.7396, 22.6622], [76.7396, 22.6623], [76.7397, 22.6624], [76.7397, 22.6625], [76.7397, 22.6626], [76.7397, 22.6627], [76.7396, 22.6628], [76.7396, 22.6629], [76.7396, 22.663], [76.7397, 22.6632], [76.7397, 22.6633], [76.7397, 22.6634], [76.7397, 22.6635], [76.7397, 22.6636], [76.7397, 22.6638], [76.7398, 22.664], [76.7399, 22.6642], [76.74, 22.6647], [76.7401, 22.6647], [76.7402, 22.6649], [76.7405, 22.6653], [76.7407, 22.6657], [76.7408, 22.6661], [76.7407, 22.6661], [76.7399, 22.6664], [76.7395, 22.6665], [76.7397, 22.6666], [76.7399, 22.6666], [76.7402, 22.6666], [76.7411, 22.6665], [76.7418, 22.6664]]]}, "properties": {"objectid": 71788, "statename": "Madhya Pradesh", "statecode": "23", "districtname": "Dewas", "districtcode": "437", "ulbname": "Kannod", "ulbcode": "802249", "wardname": " \n\nYatra Maidan Ward\n\n", "wardcode": "13", "id": null, "status": "APPROVED", "misglobalid": null, "approved_by": null, "createdate": 1641915105000, "updateddate": 1659513244000, "globalid": null, "gisglobalid": "BnQ65RQc-lllc-PPKs-a5KQ-6ooa65cP44Rm", "remark": "Ok", "st_area(shape)": 2.382000260044827e-05, "st_perimeter(shape)": 0.02870286580839982}}, {"type": "Feature", "geometry": {"type": "Polygon", "coordinates": [[[76.7376, 22.6618], [76.7376, 22.662], [76.7372, 22.6632], [76.737, 22.664], [76.737, 22.6646], [76.7371, 22.6652], [76.7372, 22.666], [76.7373, 22.6663], [76.7379, 22.6663], [76.7385, 22.6663], [76.7389, 22.6664], [76.7391, 22.6664], [76.7395, 22.6665], [76.7399, 22.6664], [76.7407, 22.6661], [76.7408, 22.6661], [76.7407, 22.6657], [76.7405, 22.6653], [76.7402, 22.6649], [76.7401, 22.6647], [76.74, 22.6647], [76.7399, 22.6642], [76.7398, 22.664], [76.7397, 22.6638], [76.7397, 22.6636], [76.7397, 22.6635], [76.7397, 22.6634], [76.7397, 22.6633], [76.7397, 22.6632], [76.7396, 22.663], [76.7396, 22.6629], [76.7396, 22.6628], [76.7397, 22.6627], [76.7397, 22.6626], [76.7397, 22.6625], [76.7397, 22.6624], [76.7396, 22.6623], [76.7396, 22.6622], [76.7396, 22.6621], [76.7397, 22.662], [76.7397, 22.6619], [76.7398, 22.6618], [76.7399, 22.6617], [76.74, 22.6617], [76.7401, 22.6617], [76.74, 22.6616], [76.7399, 22.6616], [76.7398, 22.6616], [76.7397, 22.6617], [76.7395, 22.6618], [76.7393, 22.662], [76.7392, 22.6621], [76.7387, 22.6621], [76.7385, 22.6621], [76.7383, 22.6619], [76.7382, 22.6618], [76.7376, 22.6618]]]}, "properties": {"objectid": 72620, "statename": "Madhya Pradesh", "statecode": "23", "districtname": "Dewas", "districtcode": "437", "ulbname": "Kannod", "ulbcode": "802249", "wardname": " \n\nBhagat Singh Ward\n\n", "wardcode": "14", "id": null, "status": "APPROVED", "misglobalid": null, "approved_by": null, "createdate": 1641915119000, "updateddate": 1659513260000, "globalid": null, "gisglobalid": "dsaQlQnQ-PPKm-PBm6-R4o6-sB5PPmm4d44K", "remark": "Ok", "st_area(shape)": 1.2687849254052186e-05, "st_perimeter(shape)": 0.016033311682456402}}, {"type": "Feature", "geometry": {"type": "Polygon", "coordinates": [[[76.7374, 22.6581], [76.737, 22.6564], [76.7367, 22.6545], [76.7363, 22.6527], [76.7309, 22.6527], [76.731, 22.6545], [76.7327, 22.6558], [76.7342, 22.657], [76.7343, 22.6602], [76.7338, 22.6631], [76.7306, 22.6643], [76.7308, 22.6644], [76.7309, 22.6646], [76.7309, 22.6647], [76.731, 22.6648], [76.7311, 22.6648], [76.7313, 22.6649], [76.7315, 22.6649], [76.7316, 22.6649], [76.7317, 22.6649], [76.7318, 22.665], [76.7319, 22.665], [76.732, 22.6651], [76.732, 22.6652], [76.7321, 22.6653], [76.7322, 22.6653], [76.7322, 22.6654], [76.7323, 22.6655], [76.7324, 22.6656], [76.7325, 22.6657], [76.7326, 22.6657], [76.7328, 22.6657], [76.7329, 22.6658], [76.733, 22.6658], [76.7332, 22.6658], [76.7336, 22.6658], [76.7341, 22.6658], [76.7353, 22.6659], [76.7358, 22.6659], [76.7361, 22.666], [76.7362, 22.666], [76.7364, 22.666], [76.7366, 22.666], [76.7368, 22.666], [76.7369, 22.666], [76.7371, 22.666], [76.7372, 22.666], [76.7371, 22.6652], [76.737, 22.6646], [76.737, 22.664], [76.7372, 22.6632], [76.7376, 22.662], [76.7376, 22.6617], [76.7376, 22.6612], [76.7374, 22.6593], [76.7374, 22.6581]]]}, "properties": {"objectid": 73888, "statename": "Madhya Pradesh", "statecode": "23", "districtname": "Dewas", "districtcode": "437", "ulbname": "Kannod", "ulbcode": "802249", "wardname": "Gandhgram Ward", "wardcode": "15", "id": null, "status": "APPROVED", "misglobalid": null, "approved_by": null, "createdate": 1641914806000, "updateddate": 1659513308000, "globalid": null, "gisglobalid": "4aQlsRQn-mns5-PKR5-asla-sRBscQQdQlBc", "remark": "Ok", "st_area(shape)": 5.5445570740583275e-05, "st_perimeter(shape)": 0.0417244547210243}}]}
