{"type": "FeatureCollection", "features": [{"type": "Feature", "geometry": {"type": "MultiPolygon", "coordinates": [[[[81.838, 20.7446], [81.8381, 20.7451], [81.838, 20.7453], [81.8395, 20.7486], [81.8407, 20.7511], [81.8415, 20.7532], [81.8424, 20.7532], [81.843, 20.7533], [81.8434, 20.7533], [81.8436, 20.7533], [81.8438, 20.7529], [81.844, 20.7527], [81.8444, 20.7522], [81.8447, 20.7517], [81.8449, 20.7514], [81.845, 20.7513], [81.8451, 20.7511], [81.8451, 20.7509], [81.8452, 20.7508], [81.8452, 20.7504], [81.8453, 20.7504], [81.8454, 20.7503], [81.8455, 20.7503], [81.8456, 20.7504], [81.8457, 20.7504], [81.8459, 20.7504], [81.846, 20.7504], [81.8461, 20.7504], [81.8462, 20.7504], [81.8463, 20.7504], [81.8464, 20.7504], [81.8465, 20.7504], [81.8466, 20.7504], [81.8467, 20.7503], [81.8468, 20.7503], [81.8468, 20.7502], [81.8468, 20.7501], [81.8468, 20.7499], [81.8468, 20.7498], [81.8469, 20.7498], [81.847, 20.7497], [81.8471, 20.7496], [81.8471, 20.7495], [81.8472, 20.7495], [81.8473, 20.7494], [81.8473, 20.7493], [81.8473, 20.7492], [81.8473, 20.7491], [81.8473, 20.749], [81.8473, 20.7487], [81.8473, 20.7485], [81.8474, 20.7483], [81.8473, 20.7483], [81.847, 20.7483], [81.8468, 20.7483], [81.8465, 20.7483], [81.8462, 20.7483], [81.8466, 20.7473], [81.8468, 20.7469], [81.8469, 20.7466], [81.8469, 20.7465], [81.847, 20.7465], [81.847, 20.7464], [81.8469, 20.7463], [81.8468, 20.7463], [81.8467, 20.7463], [81.8465, 20.7462], [81.8463, 20.7462], [81.846, 20.7461], [81.8459, 20.7461], [81.8458, 20.7462], [81.8458, 20.7463], [81.8457, 20.7464], [81.8453, 20.7476], [81.8452, 20.748], [81.8451, 20.7481], [81.8451, 20.7482], [81.845, 20.7482], [81.8447, 20.7482], [81.8444, 20.7481], [81.8441, 20.7481], [81.8439, 20.7481], [81.8438, 20.7481], [81.8436, 20.7481], [81.8433, 20.748], [81.8432, 20.748], [81.8429, 20.748], [81.8427, 20.748], [81.8424, 20.748], [81.8422, 20.748], [81.842, 20.7479], [81.8419, 20.7479], [81.8418, 20.7479], [81.8417, 20.7478], [81.8414, 20.7475], [81.8411, 20.7473], [81.8409, 20.7471], [81.8407, 20.747], [81.8406, 20.7469], [81.8406, 20.7468], [81.8402, 20.7465], [81.8392, 20.7456], [81.8385, 20.7451], [81.8382, 20.7448], [81.8381, 20.7447], [81.838, 20.7446]]], [[[81.838, 20.7446]]]]}, "properties": {"objectid": 45421, "statename": "Chhattisgarh", "statecode": "22", "districtname": null, "districtcode": "412", "ulbname": "Magarlod", "ulbcode": "802050", "wardname": "Shahid Bhagat Singh Ward", "wardcode": "1", "id": null, "status": "APPROVED", "misglobalid": null, "approved_by": null, "createdate": 1638791660000, "updateddate": 1644162308000, "globalid": null, "gisglobalid": "7adc9bbf-a0e0-4388-a906-6e4c82e01f3f", "remark": "", "st_area(shape)": 3.4333077106915936e-05, "st_perimeter(shape)": 0.03356592733219097}}, {"type": "Feature", "geometry": {"type": "Polygon", "coordinates": [[[81.8435, 20.7534], [81.8436, 20.7534], [81.8437, 20.7534], [81.8438, 20.7534], [81.844, 20.7535], [81.8442, 20.7535], [81.8444, 20.7535], [81.8445, 20.7535], [81.8446, 20.7535], [81.8447, 20.7535], [81.845, 20.7535], [81.8453, 20.7535], [81.8454, 20.7535], [81.8455, 20.7535], [81.8457, 20.7535], [81.8458, 20.7535], [81.8459, 20.7535], [81.8461, 20.7535], [81.8462, 20.7535], [81.8463, 20.7535], [81.8464, 20.7535], [81.8464, 20.7534], [81.8463, 20.7534], [81.8462, 20.7533], [81.8462, 20.7532], [81.8462, 20.7531], [81.8461, 20.7529], [81.8461, 20.7527], [81.8462, 20.7525], [81.8462, 20.7524], [81.8462, 20.7523], [81.8462, 20.7522], [81.8463, 20.7522], [81.8464, 20.7522], [81.8464, 20.7523], [81.8466, 20.7523], [81.8467, 20.7524], [81.8468, 20.7524], [81.8469, 20.7524], [81.847, 20.7524], [81.8471, 20.7524], [81.8471, 20.7525], [81.8472, 20.7525], [81.8473, 20.7525], [81.8473, 20.7526], [81.8474, 20.7526], [81.8474, 20.7525], [81.8475, 20.7525], [81.8475, 20.7524], [81.8475, 20.7522], [81.8476, 20.7521], [81.8477, 20.752], [81.8478, 20.7519], [81.8477, 20.7519], [81.8477, 20.7517], [81.8478, 20.7516], [81.8478, 20.7515], [81.8478, 20.7513], [81.8478, 20.7512], [81.8478, 20.7511], [81.8478, 20.751], [81.8479, 20.7509], [81.8479, 20.7508], [81.8479, 20.7507], [81.8479, 20.7506], [81.8479, 20.7504], [81.8479, 20.7503], [81.848, 20.7503], [81.848, 20.7504], [81.8481, 20.7504], [81.8482, 20.7504], [81.8482, 20.7503], [81.8483, 20.7503], [81.8484, 20.7504], [81.8485, 20.7504], [81.8486, 20.7504], [81.8486, 20.7503], [81.8487, 20.7503], [81.8488, 20.7503], [81.8488, 20.7502], [81.8489, 20.7502], [81.8488, 20.7501], [81.8487, 20.75], [81.8488, 20.7499], [81.8488, 20.7498], [81.8488, 20.7497], [81.8487, 20.7496], [81.8487, 20.7495], [81.8488, 20.7494], [81.8488, 20.7493], [81.8488, 20.7492], [81.8486, 20.7492], [81.8485, 20.7492], [81.8481, 20.7492], [81.848, 20.7492], [81.8478, 20.7492], [81.8476, 20.7492], [81.8474, 20.7492], [81.8473, 20.7492], [81.8473, 20.7493], [81.8473, 20.7494], [81.8471, 20.7496], [81.8471, 20.7497], [81.847, 20.7497], [81.8469, 20.7498], [81.8468, 20.7498], [81.8468, 20.7499], [81.8468, 20.7501], [81.8468, 20.7503], [81.8466, 20.7504], [81.8464, 20.7504], [81.8463, 20.7504], [81.8462, 20.7504], [81.846, 20.7504], [81.8459, 20.7504], [81.8457, 20.7504], [81.8456, 20.7504], [81.8454, 20.7503], [81.8453, 20.7504], [81.8452, 20.7504], [81.8452, 20.7505], [81.8452, 20.7508], [81.8451, 20.7509], [81.8451, 20.7511], [81.845, 20.7513], [81.8448, 20.7516], [81.8444, 20.7522], [81.844, 20.7527], [81.8437, 20.7531], [81.8435, 20.7534]]]}, "properties": {"objectid": 45422, "statename": "Chhattisgarh", "statecode": "22", "districtname": null, "districtcode": "412", "ulbname": "Magarlod", "ulbcode": "802050", "wardname": "Lal Bahadur Shashtri Ward", "wardcode": "2", "id": null, "status": "APPROVED", "misglobalid": null, "approved_by": null, "createdate": 1638791952000, "updateddate": 1644162315000, "globalid": null, "gisglobalid": "e146eeef-a0ae-4fd9-9f10-1feb88399a7a", "remark": "", "st_area(shape)": 1.0410732051012592e-05, "st_perimeter(shape)": 0.018155056797731568}}, {"type": "Feature", "geometry": {"type": "MultiPolygon", "coordinates": [[[[81.8463, 20.7535], [81.8464, 20.7535], [81.8465, 20.7535], [81.8466, 20.7535], [81.8467, 20.7535], [81.8469, 20.7535], [81.8471, 20.7535], [81.8472, 20.7535], [81.8473, 20.7535], [81.8475, 20.7535], [81.8478, 20.7535], [81.8479, 20.7535], [81.848, 20.7535], [81.8482, 20.7535], [81.8483, 20.7535], [81.8484, 20.7535], [81.8486, 20.7535], [81.8488, 20.7535], [81.8489, 20.7535], [81.849, 20.7535], [81.8492, 20.7535], [81.8493, 20.7535], [81.8495, 20.7535], [81.8497, 20.7535], [81.8499, 20.7535], [81.85, 20.7535], [81.8504, 20.7536], [81.8504, 20.7535], [81.8505, 20.7535], [81.8509, 20.7535], [81.8509, 20.7534], [81.8511, 20.7534], [81.8512, 20.7534], [81.8512, 20.7533], [81.8512, 20.7532], [81.8512, 20.7531], [81.8512, 20.753], [81.8512, 20.7529], [81.8513, 20.7528], [81.8513, 20.7527], [81.8513, 20.7526], [81.8513, 20.7525], [81.8513, 20.7524], [81.8513, 20.7522], [81.8513, 20.7521], [81.8513, 20.7519], [81.8513, 20.7518], [81.8513, 20.7516], [81.8513, 20.7515], [81.8513, 20.7513], [81.8513, 20.7512], [81.8512, 20.7511], [81.8511, 20.7509], [81.851, 20.7507], [81.851, 20.7506], [81.8509, 20.7505], [81.8509, 20.7504], [81.8508, 20.7502], [81.8507, 20.7501], [81.8507, 20.75], [81.8507, 20.7498], [81.8506, 20.7497], [81.8505, 20.7497], [81.8504, 20.7497], [81.8503, 20.7497], [81.8502, 20.7497], [81.8501, 20.7497], [81.8499, 20.7497], [81.8498, 20.7497], [81.8497, 20.7497], [81.8496, 20.7497], [81.8495, 20.7497], [81.8494, 20.7497], [81.8493, 20.7497], [81.8492, 20.7497], [81.8491, 20.7497], [81.849, 20.7497], [81.8489, 20.7497], [81.8488, 20.7497], [81.8488, 20.7498], [81.8488, 20.7499], [81.8487, 20.75], [81.8488, 20.7501], [81.8489, 20.7502], [81.8488, 20.7502], [81.8488, 20.7503], [81.8487, 20.7503], [81.8486, 20.7503], [81.8486, 20.7504], [81.8485, 20.7504], [81.8484, 20.7504], [81.8483, 20.7503], [81.8482, 20.7503], [81.8481, 20.7504], [81.848, 20.7504], [81.848, 20.7503], [81.8479, 20.7503], [81.8479, 20.7504], [81.8479, 20.7505], [81.8479, 20.7506], [81.8479, 20.7507], [81.8479, 20.7508], [81.8479, 20.7509], [81.8479, 20.751], [81.8478, 20.751], [81.8478, 20.7511], [81.8478, 20.7512], [81.8478, 20.7513], [81.8478, 20.7514], [81.8478, 20.7515], [81.8478, 20.7516], [81.8477, 20.7517], [81.8477, 20.7518], [81.8477, 20.7519], [81.8478, 20.7519], [81.8478, 20.752], [81.8477, 20.752], [81.8476, 20.7521], [81.8475, 20.7522], [81.8475, 20.7523], [81.8475, 20.7525], [81.8474, 20.7525], [81.8473, 20.7526], [81.8473, 20.7525], [81.8472, 20.7525], [81.8471, 20.7525], [81.8471, 20.7524], [81.847, 20.7524], [81.8469, 20.7524], [81.8468, 20.7524], [81.8467, 20.7524], [81.8467, 20.7523], [81.8466, 20.7523], [81.8465, 20.7523], [81.8464, 20.7523], [81.8464, 20.7522], [81.8463, 20.7522], [81.8462, 20.7522], [81.8462, 20.7523], [81.8462, 20.7524], [81.8462, 20.7525], [81.8462, 20.7526], [81.8461, 20.7527], [81.8461, 20.7528], [81.8461, 20.7529], [81.8461, 20.753], [81.8461, 20.7531], [81.8462, 20.7532], [81.8462, 20.7533], [81.8463, 20.7534], [81.8464, 20.7534], [81.8464, 20.7535], [81.8463, 20.7535]]], [[[81.8463, 20.7535]]], [[[81.8463, 20.7535]]]]}, "properties": {"objectid": 45423, "statename": "Chhattisgarh", "statecode": "22", "districtname": null, "districtcode": "412", "ulbname": "Magarlod", "ulbcode": "802050", "wardname": "Guru Ghasi Das Ward", "wardcode": "3", "id": null, "status": "APPROVED", "misglobalid": null, "approved_by": null, "createdate": 1638792396000, "updateddate": 1644162321000, "globalid": null, "gisglobalid": "19eb8610-1753-4b4b-88c0-964fe4e0fe63", "remark": "", "st_area(shape)": 1.4009564852134773e-05, "st_perimeter(shape)": 0.017325557851171187}}, {"type": "Feature", "geometry": {"type": "Polygon", "coordinates": [[[81.8473, 20.7492], [81.8476, 20.7492], [81.848, 20.7492], [81.8481, 20.7492], [81.8483, 20.7492], [81.8484, 20.7492], [81.8485, 20.7492], [81.8486, 20.7492], [81.8487, 20.7492], [81.8488, 20.7492], [81.8488, 20.7493], [81.8488, 20.7494], [81.8487, 20.7495], [81.8487, 20.7496], [81.8487, 20.7497], [81.8488, 20.7497], [81.8489, 20.7497], [81.8491, 20.7497], [81.8492, 20.7497], [81.8494, 20.7497], [81.8495, 20.7497], [81.8496, 20.7497], [81.8497, 20.7497], [81.8498, 20.7497], [81.8499, 20.7497], [81.8501, 20.7497], [81.8502, 20.7497], [81.8503, 20.7497], [81.8504, 20.7497], [81.8505, 20.7497], [81.8506, 20.7497], [81.8507, 20.7495], [81.8506, 20.7494], [81.8506, 20.7492], [81.8506, 20.7491], [81.8506, 20.7489], [81.8506, 20.7488], [81.8505, 20.7487], [81.8504, 20.7487], [81.8504, 20.7486], [81.8502, 20.7486], [81.8501, 20.7486], [81.8498, 20.7485], [81.8495, 20.7485], [81.8494, 20.7485], [81.8493, 20.7485], [81.8491, 20.7484], [81.849, 20.7484], [81.8489, 20.7484], [81.8488, 20.7484], [81.8487, 20.7484], [81.8485, 20.7484], [81.8484, 20.7484], [81.8483, 20.7484], [81.8481, 20.7484], [81.848, 20.7483], [81.8478, 20.7483], [81.8477, 20.7483], [81.8476, 20.7483], [81.8475, 20.7483], [81.8474, 20.7483], [81.8473, 20.7485], [81.8473, 20.7487], [81.8473, 20.7489], [81.8473, 20.749], [81.8473, 20.7491], [81.8473, 20.7492]]]}, "properties": {"objectid": 44687, "statename": "Chhattisgarh", "statecode": "22", "districtname": null, "districtcode": "412", "ulbname": "Magarlod", "ulbcode": "802050", "wardname": "Subhash Chandra Bose Ward", "wardcode": "4", "id": null, "status": "APPROVED", "misglobalid": null, "approved_by": null, "createdate": 1638792926000, "updateddate": 1644162329000, "globalid": null, "gisglobalid": "71aabf0a-1832-4bf3-b8f6-2d1e9bc8f6d4", "remark": "", "st_area(shape)": 3.4375610016547694e-06, "st_perimeter(shape)": 0.009068780304853722}}, {"type": "Feature", "geometry": {"type": "Polygon", "coordinates": [[[81.8392, 20.7457], [81.8393, 20.7458], [81.8396, 20.746], [81.8399, 20.7463], [81.8406, 20.7468], [81.8406, 20.7469], [81.8407, 20.747], [81.8409, 20.7472], [81.841, 20.7473], [81.8411, 20.7473], [81.8412, 20.7473], [81.8414, 20.7475], [81.8416, 20.7478], [81.8418, 20.7479], [81.8419, 20.7479], [81.842, 20.7479], [81.8422, 20.748], [81.8424, 20.748], [81.8427, 20.748], [81.843, 20.748], [81.8432, 20.748], [81.8435, 20.7481], [81.8436, 20.7481], [81.8437, 20.7481], [81.8438, 20.7481], [81.8439, 20.7481], [81.844, 20.7481], [81.8444, 20.7481], [81.8447, 20.7482], [81.8449, 20.7482], [81.845, 20.7482], [81.8451, 20.7482], [81.8451, 20.7481], [81.8452, 20.748], [81.8452, 20.7478], [81.8453, 20.7476], [81.8453, 20.7475], [81.8454, 20.7474], [81.8454, 20.7471], [81.8455, 20.747], [81.8455, 20.7469], [81.8456, 20.7469], [81.8456, 20.7468], [81.8456, 20.7467], [81.8457, 20.7466], [81.8457, 20.7465], [81.8457, 20.7464], [81.8457, 20.7463], [81.8458, 20.7463], [81.8458, 20.7462], [81.8458, 20.7461], [81.8457, 20.7461], [81.8456, 20.7461], [81.8455, 20.7461], [81.8454, 20.7461], [81.8453, 20.7461], [81.8452, 20.7461], [81.8451, 20.746], [81.845, 20.746], [81.8449, 20.7462], [81.8449, 20.7463], [81.8449, 20.7464], [81.8448, 20.7465], [81.8448, 20.7466], [81.8448, 20.7467], [81.8447, 20.7468], [81.8447, 20.7469], [81.8446, 20.747], [81.8446, 20.7471], [81.8445, 20.7471], [81.8445, 20.7472], [81.8444, 20.7473], [81.8444, 20.7474], [81.8443, 20.7474], [81.8442, 20.7474], [81.8441, 20.7474], [81.844, 20.7473], [81.8439, 20.7473], [81.8438, 20.7473], [81.8437, 20.7473], [81.8436, 20.7473], [81.8436, 20.7472], [81.8436, 20.7471], [81.8436, 20.747], [81.8436, 20.7469], [81.8436, 20.7468], [81.8436, 20.7466], [81.8436, 20.7465], [81.8436, 20.7464], [81.8437, 20.7463], [81.8436, 20.7462], [81.8436, 20.7461], [81.8436, 20.746], [81.8436, 20.7459], [81.8436, 20.7458], [81.8436, 20.7457], [81.8436, 20.7456], [81.8435, 20.7457], [81.8434, 20.7458], [81.8433, 20.7458], [81.8432, 20.7459], [81.8431, 20.7459], [81.843, 20.7459], [81.8429, 20.7459], [81.8428, 20.7459], [81.8427, 20.7459], [81.8426, 20.7458], [81.8425, 20.7458], [81.8424, 20.7458], [81.8421, 20.7458], [81.8419, 20.7458], [81.8418, 20.7458], [81.8418, 20.7457], [81.8416, 20.7457], [81.8414, 20.7457], [81.8413, 20.7456], [81.8412, 20.7456], [81.8411, 20.7456], [81.841, 20.7456], [81.8409, 20.7456], [81.8408, 20.7456], [81.8407, 20.7456], [81.8406, 20.7456], [81.8405, 20.7456], [81.8404, 20.7456], [81.8403, 20.7456], [81.8402, 20.7456], [81.84, 20.7456], [81.8398, 20.7456], [81.8395, 20.7456], [81.8394, 20.7456], [81.8393, 20.7456], [81.8392, 20.7456], [81.8392, 20.7457]]]}, "properties": {"objectid": 45802, "statename": "Chhattisgarh", "statecode": "22", "districtname": null, "districtcode": "412", "ulbname": "Magarlod", "ulbcode": "802050", "wardname": "Chandrashekhar Aajad Ward", "wardcode": "5", "id": null, "status": "APPROVED", "misglobalid": null, "approved_by": null, "createdate": 1638793178000, "updateddate": 1644162338000, "globalid": null, "gisglobalid": "0a31ab16-9b32-44f8-bcf6-2da6a3138696", "remark": "", "st_area(shape)": 9.339075149005266e-06, "st_perimeter(shape)": 0.018396532720029213}}, {"type": "Feature", "geometry": {"type": "Polygon", "coordinates": [[[81.8436, 20.7473], [81.8437, 20.7473], [81.8438, 20.7473], [81.844, 20.7473], [81.8441, 20.7474], [81.8442, 20.7474], [81.8443, 20.7474], [81.8444, 20.7474], [81.8444, 20.7473], [81.8445, 20.7472], [81.8445, 20.7471], [81.8446, 20.7471], [81.8446, 20.747], [81.8447, 20.7469], [81.8447, 20.7468], [81.8448, 20.7467], [81.8448, 20.7466], [81.8448, 20.7465], [81.8449, 20.7464], [81.8449, 20.7463], [81.8449, 20.7462], [81.845, 20.746], [81.8451, 20.746], [81.8453, 20.7461], [81.8454, 20.7461], [81.8456, 20.7461], [81.8457, 20.7461], [81.8458, 20.7461], [81.8458, 20.7462], [81.8459, 20.7461], [81.846, 20.7461], [81.846, 20.746], [81.8461, 20.746], [81.846, 20.7459], [81.8459, 20.7459], [81.8458, 20.7458], [81.8457, 20.7458], [81.8456, 20.7457], [81.8455, 20.7457], [81.8454, 20.7456], [81.8453, 20.7455], [81.8451, 20.7454], [81.845, 20.7454], [81.8449, 20.7453], [81.8448, 20.7453], [81.8447, 20.7453], [81.8446, 20.7453], [81.8445, 20.7452], [81.8444, 20.7453], [81.8443, 20.7453], [81.8442, 20.7453], [81.8441, 20.7453], [81.844, 20.7453], [81.8439, 20.7453], [81.8438, 20.7454], [81.8439, 20.7454], [81.844, 20.7454], [81.8441, 20.7455], [81.8442, 20.7455], [81.8442, 20.7456], [81.8443, 20.7456], [81.8443, 20.7457], [81.8444, 20.7457], [81.8444, 20.7458], [81.8444, 20.7459], [81.8443, 20.746], [81.8443, 20.7461], [81.8442, 20.7461], [81.8442, 20.7462], [81.8441, 20.7462], [81.844, 20.7462], [81.8439, 20.7463], [81.8438, 20.7463], [81.8437, 20.7463], [81.8436, 20.7463], [81.8436, 20.7464], [81.8436, 20.7465], [81.8436, 20.7466], [81.8436, 20.7468], [81.8436, 20.7469], [81.8436, 20.747], [81.8436, 20.7471], [81.8436, 20.7472], [81.8436, 20.7473]]]}, "properties": {"objectid": 44546, "statename": "Chhattisgarh", "statecode": "22", "districtname": null, "districtcode": "412", "ulbname": "Magarlod", "ulbcode": "802050", "wardname": "Mahatma Gandhi Ward", "wardcode": "6", "id": null, "status": "APPROVED", "misglobalid": null, "approved_by": null, "createdate": 1638793523000, "updateddate": 1644162344000, "globalid": null, "gisglobalid": "6846969f-d4cf-4b46-bf9c-d357fa55295f", "remark": "", "st_area(shape)": 2.362920667019999e-06, "st_perimeter(shape)": 0.008764634510264619}}, {"type": "Feature", "geometry": {"type": "Polygon", "coordinates": [[[81.8381, 20.7445], [81.838, 20.7446], [81.8381, 20.7447], [81.8382, 20.7448], [81.8385, 20.745], [81.8389, 20.7454], [81.8391, 20.7455], [81.8392, 20.7457], [81.8393, 20.7456], [81.8398, 20.7456], [81.8404, 20.7456], [81.8409, 20.7456], [81.8412, 20.7456], [81.8414, 20.7457], [81.8416, 20.7457], [81.8418, 20.7457], [81.8419, 20.7458], [81.8421, 20.7458], [81.8424, 20.7458], [81.8425, 20.7458], [81.8426, 20.7458], [81.8427, 20.7459], [81.8429, 20.7459], [81.8431, 20.7459], [81.8432, 20.7459], [81.8433, 20.7458], [81.8434, 20.7458], [81.8435, 20.7457], [81.8436, 20.7456], [81.8436, 20.7457], [81.8436, 20.7459], [81.8437, 20.7463], [81.8438, 20.7463], [81.8439, 20.7463], [81.844, 20.7462], [81.8441, 20.7462], [81.8442, 20.7462], [81.8443, 20.7461], [81.8444, 20.7459], [81.8444, 20.7458], [81.8444, 20.7457], [81.8443, 20.7456], [81.8442, 20.7456], [81.8441, 20.7455], [81.844, 20.7454], [81.8439, 20.7454], [81.8438, 20.7454], [81.8439, 20.7453], [81.8439, 20.7452], [81.8438, 20.7452], [81.8438, 20.7451], [81.8438, 20.745], [81.8438, 20.7448], [81.8438, 20.7447], [81.8438, 20.7446], [81.8438, 20.7445], [81.8437, 20.7444], [81.8437, 20.7443], [81.8436, 20.7443], [81.8435, 20.7443], [81.8434, 20.7443], [81.8433, 20.7443], [81.843, 20.7443], [81.8429, 20.7443], [81.8428, 20.7443], [81.8427, 20.7442], [81.8426, 20.7442], [81.8425, 20.7442], [81.8421, 20.7441], [81.8419, 20.744], [81.8418, 20.744], [81.8417, 20.7439], [81.8416, 20.7439], [81.8415, 20.7439], [81.8414, 20.7439], [81.8411, 20.744], [81.841, 20.744], [81.8409, 20.7439], [81.8407, 20.7439], [81.8405, 20.744], [81.8403, 20.744], [81.84, 20.744], [81.8398, 20.744], [81.8397, 20.744], [81.8396, 20.744], [81.8396, 20.7439], [81.8396, 20.7438], [81.8396, 20.7437], [81.8396, 20.7436], [81.8395, 20.7435], [81.8394, 20.7435], [81.8389, 20.7434], [81.8387, 20.7433], [81.8385, 20.7434], [81.8383, 20.7436], [81.8382, 20.7438], [81.8381, 20.7441], [81.8381, 20.7444], [81.8381, 20.7445]]]}, "properties": {"objectid": 44693, "statename": "Chhattisgarh", "statecode": "22", "districtname": null, "districtcode": "412", "ulbname": "Magarlod", "ulbcode": "802050", "wardname": "Rani Lakshmibai Ward", "wardcode": "7", "id": null, "status": "APPROVED", "misglobalid": null, "approved_by": null, "createdate": 1638793726000, "updateddate": 1644162354000, "globalid": null, "gisglobalid": "6dc2a407-3ed8-4c16-b7fe-3edd0c925519", "remark": "", "st_area(shape)": 1.015998967316091e-05, "st_perimeter(shape)": 0.01706474953821595}}, {"type": "Feature", "geometry": {"type": "MultiPolygon", "coordinates": [[[[81.8387, 20.7433], [81.8387, 20.7434], [81.8388, 20.7434], [81.8389, 20.7434], [81.839, 20.7434], [81.8394, 20.7435], [81.8395, 20.7435], [81.8396, 20.7436], [81.8396, 20.7437], [81.8396, 20.7438], [81.8396, 20.7439], [81.8396, 20.744], [81.8397, 20.744], [81.8403, 20.744], [81.8407, 20.7439], [81.8409, 20.7439], [81.8411, 20.744], [81.8412, 20.744], [81.8414, 20.7439], [81.8415, 20.7439], [81.8417, 20.7439], [81.8418, 20.744], [81.8419, 20.744], [81.8425, 20.7442], [81.8428, 20.7442], [81.8436, 20.7443], [81.8437, 20.7443], [81.8438, 20.7446], [81.8438, 20.7451], [81.8439, 20.7453], [81.844, 20.7453], [81.8442, 20.7453], [81.8445, 20.7452], [81.8447, 20.7453], [81.8451, 20.7454], [81.8453, 20.7455], [81.846, 20.7459], [81.8461, 20.746], [81.8461, 20.7459], [81.8462, 20.7458], [81.8463, 20.7457], [81.8463, 20.7456], [81.8464, 20.7455], [81.8464, 20.7454], [81.8464, 20.7452], [81.8463, 20.745], [81.8463, 20.7449], [81.8463, 20.7448], [81.8462, 20.7447], [81.8462, 20.7445], [81.8461, 20.7444], [81.846, 20.7442], [81.8459, 20.7441], [81.8459, 20.744], [81.8458, 20.7441], [81.8457, 20.7442], [81.8456, 20.7442], [81.8456, 20.7441], [81.8455, 20.744], [81.8453, 20.744], [81.8452, 20.7439], [81.8452, 20.7438], [81.8451, 20.7437], [81.845, 20.7437], [81.8449, 20.7437], [81.8446, 20.7437], [81.8446, 20.7436], [81.8446, 20.7435], [81.8446, 20.7432], [81.8445, 20.7431], [81.8445, 20.743], [81.8443, 20.7431], [81.8443, 20.743], [81.8441, 20.743], [81.844, 20.743], [81.8439, 20.743], [81.8439, 20.7429], [81.8439, 20.7428], [81.8439, 20.7427], [81.8439, 20.7426], [81.8439, 20.7425], [81.844, 20.7424], [81.844, 20.7423], [81.8441, 20.7422], [81.8441, 20.7421], [81.8442, 20.742], [81.8442, 20.7419], [81.8443, 20.7418], [81.8443, 20.7416], [81.8444, 20.7416], [81.8444, 20.7414], [81.8445, 20.7413], [81.8444, 20.7412], [81.8443, 20.7412], [81.8442, 20.7412], [81.844, 20.7411], [81.8439, 20.7411], [81.8438, 20.7411], [81.8438, 20.741], [81.8438, 20.7409], [81.8438, 20.7408], [81.8439, 20.7407], [81.844, 20.7406], [81.8441, 20.7405], [81.8441, 20.7404], [81.8442, 20.7403], [81.8443, 20.7402], [81.8444, 20.7401], [81.8444, 20.74], [81.8445, 20.7398], [81.8446, 20.7397], [81.8446, 20.7396], [81.8445, 20.7395], [81.8444, 20.7395], [81.8443, 20.7395], [81.8442, 20.7394], [81.8442, 20.7393], [81.8442, 20.7392], [81.8441, 20.7392], [81.844, 20.7392], [81.8429, 20.7401], [81.8425, 20.7404], [81.8421, 20.7406], [81.8418, 20.7409], [81.8415, 20.7412], [81.8413, 20.7413], [81.8411, 20.7415], [81.8397, 20.7425], [81.8394, 20.7428], [81.8392, 20.743], [81.8391, 20.7431], [81.839, 20.7432], [81.8389, 20.7432], [81.8387, 20.7433]]], [[[81.8387, 20.7433]]], [[[81.8387, 20.7433]]], [[[81.8387, 20.7433]]], [[[81.8387, 20.7433]]]]}, "properties": {"objectid": 45426, "statename": "Chhattisgarh", "statecode": "22", "districtname": null, "districtcode": "412", "ulbname": "Magarlod", "ulbcode": "802050", "wardname": "Pt.Sundarlal Sharma Ward", "wardcode": "8", "id": null, "status": "APPROVED", "misglobalid": null, "approved_by": null, "createdate": 1638793935000, "updateddate": 1644162363000, "globalid": null, "gisglobalid": "3409c307-0cd5-44ba-ac38-d7aa0eec2f1b", "remark": "", "st_area(shape)": 1.9130712174019442e-05, "st_perimeter(shape)": 0.026322871054104347}}, {"type": "Feature", "geometry": {"type": "Polygon", "coordinates": [[[81.8442, 20.7392], [81.8442, 20.7393], [81.8442, 20.7394], [81.8443, 20.7395], [81.8444, 20.7395], [81.8445, 20.7395], [81.8446, 20.7396], [81.8445, 20.7398], [81.8444, 20.74], [81.8442, 20.7403], [81.8441, 20.7405], [81.8439, 20.7407], [81.8438, 20.7408], [81.8438, 20.7409], [81.8438, 20.741], [81.8438, 20.7411], [81.8439, 20.7411], [81.844, 20.7411], [81.8442, 20.7412], [81.8443, 20.7412], [81.8444, 20.7412], [81.8445, 20.7413], [81.8444, 20.7414], [81.8444, 20.7416], [81.8443, 20.7416], [81.8442, 20.7419], [81.8441, 20.7421], [81.844, 20.7423], [81.844, 20.7424], [81.8439, 20.7425], [81.8439, 20.7426], [81.8439, 20.7427], [81.8439, 20.743], [81.844, 20.743], [81.8441, 20.743], [81.8443, 20.7431], [81.8445, 20.743], [81.8446, 20.7432], [81.8446, 20.7435], [81.8446, 20.7437], [81.8449, 20.7437], [81.8451, 20.7437], [81.8452, 20.7439], [81.8453, 20.744], [81.8455, 20.744], [81.8456, 20.7442], [81.8457, 20.7442], [81.8459, 20.744], [81.8462, 20.7445], [81.8462, 20.7447], [81.8463, 20.7448], [81.8463, 20.7449], [81.8464, 20.7452], [81.8464, 20.7454], [81.8464, 20.7455], [81.8463, 20.7456], [81.8463, 20.7457], [81.8462, 20.7458], [81.8461, 20.746], [81.846, 20.7461], [81.8459, 20.7461], [81.846, 20.7461], [81.8461, 20.7461], [81.8463, 20.7462], [81.8466, 20.7462], [81.8467, 20.7463], [81.8468, 20.7463], [81.8469, 20.7463], [81.847, 20.7464], [81.8471, 20.7463], [81.8471, 20.7462], [81.8472, 20.746], [81.8473, 20.7458], [81.8474, 20.7457], [81.8475, 20.7457], [81.8476, 20.7456], [81.8477, 20.7456], [81.8477, 20.7455], [81.8476, 20.7455], [81.8477, 20.7454], [81.8476, 20.7453], [81.8477, 20.7452], [81.8477, 20.7451], [81.8478, 20.7449], [81.8478, 20.7448], [81.8479, 20.7447], [81.848, 20.7446], [81.848, 20.7445], [81.848, 20.7444], [81.848, 20.7442], [81.848, 20.744], [81.848, 20.7437], [81.8479, 20.7436], [81.8479, 20.7435], [81.8476, 20.743], [81.8476, 20.7428], [81.8475, 20.7426], [81.8475, 20.7424], [81.8474, 20.7421], [81.8474, 20.742], [81.8474, 20.7419], [81.8475, 20.7418], [81.8476, 20.7418], [81.8477, 20.7418], [81.8478, 20.7418], [81.8481, 20.7417], [81.8483, 20.7416], [81.8487, 20.7415], [81.8492, 20.7413], [81.8495, 20.7413], [81.8501, 20.7412], [81.8504, 20.741], [81.8506, 20.7409], [81.8506, 20.7408], [81.8506, 20.7405], [81.8506, 20.7402], [81.8506, 20.74], [81.8506, 20.7396], [81.8506, 20.7392], [81.8506, 20.7389], [81.8505, 20.7386], [81.8505, 20.7385], [81.8505, 20.7382], [81.8506, 20.738], [81.8507, 20.7379], [81.8507, 20.7376], [81.8506, 20.7374], [81.8506, 20.7372], [81.8505, 20.7369], [81.8505, 20.7368], [81.8504, 20.7364], [81.8503, 20.7359], [81.8501, 20.7356], [81.8498, 20.7351], [81.8498, 20.7349], [81.8499, 20.7348], [81.8501, 20.7346], [81.8501, 20.7343], [81.8501, 20.7342], [81.85, 20.7342], [81.85, 20.7341], [81.85, 20.734], [81.8499, 20.734], [81.8499, 20.7339], [81.8499, 20.7337], [81.8499, 20.7335], [81.85, 20.7334], [81.85, 20.7333], [81.8499, 20.7332], [81.8499, 20.7329], [81.8498, 20.7326], [81.8499, 20.7325], [81.8499, 20.7324], [81.8499, 20.7323], [81.85, 20.7321], [81.85, 20.7319], [81.8501, 20.7317], [81.8501, 20.7316], [81.8501, 20.7315], [81.8502, 20.7314], [81.8503, 20.7313], [81.85, 20.7308], [81.8497, 20.7307], [81.8494, 20.7307], [81.849, 20.7308], [81.8488, 20.7308], [81.8485, 20.731], [81.848, 20.7317], [81.8479, 20.7322], [81.8478, 20.7328], [81.8479, 20.7334], [81.848, 20.7339], [81.8482, 20.7344], [81.8483, 20.7346], [81.8485, 20.7347], [81.8487, 20.7348], [81.8488, 20.735], [81.8488, 20.7352], [81.8489, 20.7353], [81.8489, 20.7355], [81.8489, 20.7356], [81.8483, 20.7361], [81.8478, 20.7364], [81.8468, 20.7372], [81.8454, 20.7382], [81.8444, 20.739], [81.8443, 20.7391], [81.8442, 20.7392]]]}, "properties": {"objectid": 45427, "statename": "Chhattisgarh", "statecode": "22", "districtname": null, "districtcode": "412", "ulbname": "Magarlod", "ulbcode": "802050", "wardname": "Pt.Narayan Rao Meghawale Ward", "wardcode": "9", "id": null, "status": "APPROVED", "misglobalid": null, "approved_by": null, "createdate": 1638794213000, "updateddate": 1644162370000, "globalid": null, "gisglobalid": "992fbed3-e5e1-4c32-8936-6b7a485f5605", "remark": "", "st_area(shape)": 4.8857191595260426e-05, "st_perimeter(shape)": 0.04324695377154114}}, {"type": "Feature", "geometry": {"type": "Polygon", "coordinates": [[[81.8475, 20.7418], [81.8474, 20.7419], [81.8474, 20.7421], [81.8475, 20.7424], [81.8476, 20.7428], [81.8476, 20.7431], [81.848, 20.7437], [81.848, 20.7444], [81.848, 20.7445], [81.848, 20.7446], [81.8479, 20.7447], [81.8478, 20.7448], [81.8478, 20.7449], [81.8477, 20.7452], [81.8476, 20.7453], [81.8477, 20.7454], [81.8476, 20.7455], [81.8477, 20.7455], [81.8477, 20.7456], [81.8475, 20.7457], [81.8474, 20.7457], [81.8473, 20.7458], [81.8472, 20.746], [81.8471, 20.7463], [81.847, 20.7464], [81.8469, 20.7465], [81.8467, 20.7472], [81.8463, 20.748], [81.8462, 20.7482], [81.8468, 20.7483], [81.847, 20.7483], [81.8473, 20.7483], [81.8475, 20.7483], [81.8476, 20.7483], [81.8479, 20.7483], [81.848, 20.7483], [81.8484, 20.7484], [81.849, 20.7484], [81.8494, 20.7485], [81.8498, 20.7485], [81.8501, 20.7486], [81.8504, 20.7486], [81.8505, 20.7487], [81.8506, 20.7488], [81.8506, 20.7486], [81.8506, 20.7483], [81.8506, 20.7482], [81.8506, 20.7479], [81.8506, 20.7478], [81.8506, 20.7477], [81.8506, 20.7475], [81.8506, 20.7474], [81.8506, 20.7473], [81.8506, 20.7471], [81.8505, 20.7469], [81.8505, 20.7468], [81.8505, 20.7467], [81.8505, 20.7465], [81.8505, 20.7464], [81.8505, 20.7463], [81.8505, 20.7462], [81.8505, 20.7461], [81.8505, 20.746], [81.8505, 20.7458], [81.8505, 20.7456], [81.8506, 20.7454], [81.8506, 20.7452], [81.8508, 20.745], [81.8511, 20.7449], [81.8512, 20.7449], [81.8514, 20.7448], [81.8515, 20.7448], [81.8516, 20.7448], [81.8517, 20.7448], [81.8519, 20.7447], [81.852, 20.7447], [81.8521, 20.7447], [81.8521, 20.7446], [81.8523, 20.7446], [81.8526, 20.7445], [81.8527, 20.7446], [81.8527, 20.7445], [81.8527, 20.7444], [81.8527, 20.7443], [81.8527, 20.7442], [81.8527, 20.7441], [81.8527, 20.744], [81.8527, 20.7439], [81.8526, 20.7438], [81.8526, 20.7437], [81.8525, 20.7437], [81.8524, 20.7437], [81.8521, 20.7439], [81.852, 20.7439], [81.8519, 20.7439], [81.8518, 20.7439], [81.8517, 20.7439], [81.8517, 20.7434], [81.8518, 20.7433], [81.8519, 20.7432], [81.852, 20.7431], [81.8521, 20.7431], [81.8522, 20.743], [81.8523, 20.743], [81.8523, 20.7429], [81.8524, 20.7429], [81.8524, 20.7428], [81.8525, 20.7428], [81.8526, 20.7427], [81.8527, 20.7426], [81.8528, 20.7426], [81.853, 20.7425], [81.8531, 20.7425], [81.8532, 20.7424], [81.8533, 20.7423], [81.8534, 20.7421], [81.8534, 20.7419], [81.8533, 20.7418], [81.8533, 20.7417], [81.8532, 20.7415], [81.8532, 20.7413], [81.8532, 20.7412], [81.8531, 20.7411], [81.8531, 20.741], [81.853, 20.7409], [81.853, 20.7408], [81.8529, 20.7408], [81.8529, 20.7407], [81.8528, 20.7406], [81.8529, 20.7406], [81.853, 20.7406], [81.8531, 20.7406], [81.8532, 20.7406], [81.8533, 20.7406], [81.8535, 20.7406], [81.8536, 20.7406], [81.8537, 20.7405], [81.8538, 20.7405], [81.8539, 20.7405], [81.8541, 20.7405], [81.8542, 20.7405], [81.8544, 20.7404], [81.8546, 20.7404], [81.8548, 20.7404], [81.855, 20.7403], [81.8552, 20.7403], [81.8553, 20.7403], [81.8554, 20.7403], [81.8555, 20.7403], [81.8556, 20.7402], [81.8557, 20.7402], [81.8558, 20.7401], [81.8559, 20.7401], [81.8561, 20.74], [81.8562, 20.74], [81.8563, 20.7399], [81.8565, 20.7398], [81.8566, 20.7398], [81.8567, 20.7398], [81.8568, 20.7397], [81.8569, 20.7397], [81.8569, 20.7396], [81.857, 20.7396], [81.857, 20.7395], [81.8569, 20.7395], [81.8568, 20.7393], [81.8567, 20.7392], [81.8566, 20.7391], [81.8561, 20.7384], [81.8558, 20.7381], [81.8555, 20.7378], [81.8553, 20.7375], [81.8551, 20.7373], [81.8543, 20.7363], [81.8539, 20.7358], [81.8537, 20.7355], [81.8535, 20.7352], [81.8534, 20.735], [81.8533, 20.7345], [81.8534, 20.734], [81.8535, 20.7333], [81.8534, 20.7323], [81.8534, 20.7316], [81.8533, 20.7313], [81.8527, 20.7311], [81.8519, 20.7312], [81.8516, 20.7312], [81.851, 20.7312], [81.8506, 20.7313], [81.8503, 20.7313], [81.8501, 20.7315], [81.85, 20.7319], [81.8499, 20.7324], [81.8498, 20.7326], [81.8499, 20.7329], [81.8499, 20.7332], [81.85, 20.7334], [81.8499, 20.7337], [81.8499, 20.7339], [81.85, 20.734], [81.85, 20.7342], [81.8501, 20.7343], [81.8501, 20.7346], [81.8499, 20.7348], [81.8498, 20.7349], [81.8498, 20.7351], [81.8503, 20.7359], [81.8504, 20.7364], [81.8505, 20.7369], [81.8506, 20.7373], [81.8507, 20.7376], [81.8507, 20.7379], [81.8506, 20.738], [81.8505, 20.7382], [81.8505, 20.7385], [81.8506, 20.7389], [81.8506, 20.7392], [81.8506, 20.7396], [81.8506, 20.74], [81.8506, 20.7402], [81.8506, 20.7405], [81.8506, 20.7408], [81.8506, 20.7409], [81.8504, 20.741], [81.8501, 20.7412], [81.8495, 20.7413], [81.8492, 20.7413], [81.8487, 20.7415], [81.8483, 20.7416], [81.8481, 20.7417], [81.8478, 20.7418], [81.8476, 20.7418], [81.8475, 20.7418]]]}, "properties": {"objectid": 42418, "statename": "Chhattisgarh", "statecode": "22", "districtname": null, "districtcode": "412", "ulbname": "Magarlod", "ulbcode": "802050", "wardname": "Pt.Dindyal Upadhyay Ward", "wardcode": "10", "id": null, "status": "APPROVED", "misglobalid": null, "approved_by": null, "createdate": 1638452581000, "updateddate": 1644162376000, "globalid": null, "gisglobalid": "2839ff36-26ec-40f3-a0f3-187c65ad77b1", "remark": "", "st_area(shape)": 7.123068659299256e-05, "st_perimeter(shape)": 0.054155236848642783}}, {"type": "Feature", "geometry": {"type": "Polygon", "coordinates": [[[81.8512, 20.7533], [81.8513, 20.7533], [81.8514, 20.7533], [81.8516, 20.7533], [81.8519, 20.7532], [81.8521, 20.7532], [81.8523, 20.7531], [81.8524, 20.7531], [81.8525, 20.7531], [81.8539, 20.7528], [81.8541, 20.7527], [81.8543, 20.7527], [81.8544, 20.7527], [81.8545, 20.7527], [81.8545, 20.7526], [81.8544, 20.7526], [81.8543, 20.7525], [81.8542, 20.7525], [81.8541, 20.7524], [81.854, 20.7524], [81.8539, 20.7524], [81.8539, 20.7523], [81.8538, 20.7523], [81.8537, 20.7523], [81.8536, 20.7523], [81.8535, 20.7523], [81.8534, 20.7522], [81.8533, 20.7521], [81.8532, 20.752], [81.8531, 20.752], [81.853, 20.7519], [81.8529, 20.7519], [81.8528, 20.7519], [81.8527, 20.7519], [81.8527, 20.7518], [81.8526, 20.7518], [81.8525, 20.7518], [81.8524, 20.7515], [81.8523, 20.7514], [81.8523, 20.7513], [81.8523, 20.7512], [81.8523, 20.7511], [81.8523, 20.751], [81.8523, 20.7509], [81.8523, 20.7508], [81.8523, 20.7507], [81.8523, 20.7506], [81.8523, 20.7505], [81.8523, 20.7504], [81.8523, 20.7503], [81.8524, 20.7502], [81.8524, 20.7501], [81.8524, 20.7499], [81.8524, 20.7497], [81.8523, 20.7496], [81.8523, 20.7495], [81.8523, 20.7494], [81.8523, 20.7493], [81.8522, 20.7493], [81.8521, 20.7493], [81.852, 20.7492], [81.8519, 20.7492], [81.8518, 20.7492], [81.8517, 20.7491], [81.8516, 20.7491], [81.8514, 20.749], [81.8513, 20.7489], [81.8511, 20.7489], [81.851, 20.7488], [81.8509, 20.7488], [81.8508, 20.7488], [81.8507, 20.7488], [81.8506, 20.7488], [81.8506, 20.7489], [81.8506, 20.749], [81.8506, 20.7491], [81.8506, 20.7492], [81.8506, 20.7493], [81.8506, 20.7494], [81.8507, 20.7495], [81.8507, 20.7496], [81.8506, 20.7496], [81.8506, 20.7497], [81.8507, 20.7498], [81.8507, 20.75], [81.8507, 20.7501], [81.8508, 20.7501], [81.8508, 20.7502], [81.8508, 20.7503], [81.8509, 20.7505], [81.851, 20.7506], [81.851, 20.7507], [81.8511, 20.7509], [81.8512, 20.7511], [81.8513, 20.7512], [81.8513, 20.7513], [81.8513, 20.7516], [81.8513, 20.7518], [81.8513, 20.752], [81.8513, 20.7522], [81.8513, 20.7524], [81.8513, 20.7525], [81.8513, 20.7526], [81.8513, 20.7527], [81.8513, 20.7528], [81.8512, 20.7529], [81.8512, 20.753], [81.8512, 20.7531], [81.8512, 20.7532], [81.8512, 20.7533]]]}, "properties": {"objectid": 42422, "statename": "Chhattisgarh", "statecode": "22", "districtname": null, "districtcode": "412", "ulbname": "Magarlod", "ulbcode": "802050", "wardname": "Dr.Ambedkar Ward", "wardcode": "11", "id": null, "status": "APPROVED", "misglobalid": null, "approved_by": null, "createdate": 1638453953000, "updateddate": 1644162382000, "globalid": null, "gisglobalid": "f439abc6-599e-40b6-964f-e31201766cf6", "remark": "", "st_area(shape)": 6.920198462807919e-06, "st_perimeter(shape)": 0.014754051075896385}}, {"type": "Feature", "geometry": {"type": "Polygon", "coordinates": [[[81.8524, 20.7494], [81.8523, 20.7494], [81.8523, 20.7495], [81.8523, 20.7496], [81.8524, 20.7497], [81.8524, 20.7498], [81.8524, 20.7501], [81.8523, 20.7503], [81.8523, 20.7504], [81.8523, 20.7506], [81.8523, 20.7508], [81.8523, 20.751], [81.8523, 20.7512], [81.8523, 20.7513], [81.8523, 20.7514], [81.8524, 20.7516], [81.8525, 20.7518], [81.8526, 20.7518], [81.8527, 20.7519], [81.8528, 20.7519], [81.8529, 20.7519], [81.8531, 20.752], [81.8532, 20.752], [81.8533, 20.7521], [81.8534, 20.7522], [81.8535, 20.7523], [81.8536, 20.7523], [81.8538, 20.7523], [81.8539, 20.7523], [81.854, 20.7524], [81.8541, 20.7524], [81.8542, 20.7525], [81.8543, 20.7525], [81.8544, 20.7526], [81.8545, 20.7526], [81.8546, 20.7526], [81.8547, 20.7526], [81.8548, 20.7526], [81.855, 20.7526], [81.8552, 20.7525], [81.8554, 20.7525], [81.8556, 20.7524], [81.8558, 20.7524], [81.8559, 20.7523], [81.8568, 20.7522], [81.8575, 20.752], [81.8583, 20.7518], [81.8601, 20.7514], [81.8597, 20.7494], [81.8592, 20.7465], [81.8591, 20.7464], [81.859, 20.7464], [81.8588, 20.7464], [81.8587, 20.7464], [81.8586, 20.7464], [81.8585, 20.7464], [81.8584, 20.7464], [81.8583, 20.7464], [81.8582, 20.7464], [81.8581, 20.7464], [81.858, 20.7464], [81.8579, 20.7464], [81.8578, 20.7464], [81.8575, 20.7464], [81.8574, 20.7463], [81.8573, 20.7463], [81.857, 20.7464], [81.8569, 20.7464], [81.8567, 20.7464], [81.8565, 20.7464], [81.8563, 20.7464], [81.856, 20.7464], [81.8558, 20.7464], [81.8556, 20.7464], [81.8556, 20.7465], [81.8555, 20.7465], [81.8555, 20.7466], [81.8554, 20.7466], [81.8554, 20.7467], [81.8552, 20.7468], [81.8551, 20.7469], [81.855, 20.747], [81.8549, 20.7471], [81.8549, 20.7472], [81.8548, 20.7472], [81.8548, 20.7473], [81.8548, 20.7474], [81.8548, 20.7475], [81.8549, 20.7476], [81.855, 20.7476], [81.8551, 20.7476], [81.8552, 20.7476], [81.8553, 20.7476], [81.8553, 20.7477], [81.8554, 20.7477], [81.8555, 20.7477], [81.8555, 20.7478], [81.8556, 20.7478], [81.8556, 20.7479], [81.8557, 20.7479], [81.8558, 20.7479], [81.8559, 20.748], [81.8558, 20.7481], [81.8559, 20.7482], [81.8561, 20.7483], [81.8562, 20.7483], [81.8563, 20.7484], [81.8563, 20.7485], [81.8563, 20.7487], [81.8563, 20.7488], [81.8564, 20.7489], [81.8564, 20.749], [81.8564, 20.7491], [81.8565, 20.7492], [81.8565, 20.7494], [81.8564, 20.7494], [81.8563, 20.7494], [81.8561, 20.7494], [81.8559, 20.7494], [81.8557, 20.7495], [81.8556, 20.7495], [81.8553, 20.7496], [81.8549, 20.7496], [81.8544, 20.7497], [81.8543, 20.7498], [81.8541, 20.7498], [81.854, 20.7497], [81.8539, 20.7497], [81.8538, 20.7497], [81.8538, 20.7496], [81.8537, 20.7496], [81.8536, 20.7496], [81.8535, 20.7496], [81.8534, 20.7496], [81.8532, 20.7496], [81.8531, 20.7496], [81.853, 20.7496], [81.853, 20.7495], [81.8529, 20.7495], [81.8528, 20.7495], [81.8527, 20.7495], [81.8526, 20.7495], [81.8525, 20.7494], [81.8524, 20.7494]]]}, "properties": {"objectid": 42426, "statename": "Chhattisgarh", "statecode": "22", "districtname": null, "districtcode": "412", "ulbname": "Magarlod", "ulbcode": "802050", "wardname": "Dr.Syamaprashad Mukharji Ward", "wardcode": "12", "id": null, "status": "APPROVED", "misglobalid": null, "approved_by": null, "createdate": 1638454835000, "updateddate": 1644162392000, "globalid": null, "gisglobalid": "52c4c44d-5d16-4f0c-b4ae-f686cbd6eaf0", "remark": "", "st_area(shape)": 3.1010046672356785e-05, "st_perimeter(shape)": 0.027762113634881416}}, {"type": "Feature", "geometry": {"type": "Polygon", "coordinates": [[[81.8517, 20.7491], [81.8518, 20.7492], [81.8519, 20.7492], [81.852, 20.7492], [81.8521, 20.7493], [81.8522, 20.7493], [81.8523, 20.7493], [81.8523, 20.7494], [81.8524, 20.7494], [81.8526, 20.7495], [81.8527, 20.7495], [81.8528, 20.7495], [81.8529, 20.7495], [81.853, 20.7496], [81.8531, 20.7496], [81.8532, 20.7496], [81.8534, 20.7496], [81.8535, 20.7496], [81.8536, 20.7496], [81.8537, 20.7496], [81.8538, 20.7496], [81.8538, 20.7497], [81.8539, 20.7497], [81.854, 20.7497], [81.8541, 20.7498], [81.8543, 20.7498], [81.8544, 20.7497], [81.8545, 20.7497], [81.8549, 20.7496], [81.855, 20.7496], [81.8553, 20.7496], [81.8554, 20.7495], [81.8556, 20.7495], [81.8557, 20.7495], [81.8559, 20.7494], [81.8563, 20.7494], [81.8564, 20.7494], [81.8565, 20.7494], [81.8565, 20.7492], [81.8564, 20.749], [81.8564, 20.7489], [81.8563, 20.7487], [81.8563, 20.7485], [81.8563, 20.7484], [81.8562, 20.7483], [81.8561, 20.7483], [81.8559, 20.7482], [81.8558, 20.7481], [81.8559, 20.748], [81.8558, 20.7479], [81.8556, 20.7479], [81.8555, 20.7478], [81.8555, 20.7477], [81.8554, 20.7477], [81.8553, 20.7477], [81.8553, 20.7476], [81.8552, 20.7476], [81.8551, 20.7476], [81.855, 20.7476], [81.8549, 20.7476], [81.8548, 20.7475], [81.8548, 20.7474], [81.8548, 20.7473], [81.8548, 20.7472], [81.8549, 20.7471], [81.8548, 20.7471], [81.8547, 20.7471], [81.8547, 20.7472], [81.8546, 20.7472], [81.8546, 20.7473], [81.8545, 20.7473], [81.8544, 20.7473], [81.8544, 20.7474], [81.8544, 20.7475], [81.8544, 20.7476], [81.8543, 20.7477], [81.8541, 20.7477], [81.854, 20.7477], [81.8539, 20.7477], [81.854, 20.7479], [81.854, 20.748], [81.8537, 20.748], [81.8536, 20.748], [81.8535, 20.748], [81.8534, 20.748], [81.8534, 20.7479], [81.8533, 20.7479], [81.8533, 20.7478], [81.8532, 20.7478], [81.8531, 20.7478], [81.853, 20.7478], [81.853, 20.7479], [81.8529, 20.7479], [81.8528, 20.7479], [81.8527, 20.7479], [81.8526, 20.7479], [81.8525, 20.748], [81.8524, 20.748], [81.8523, 20.748], [81.8523, 20.7481], [81.8523, 20.7482], [81.8523, 20.7483], [81.8522, 20.7483], [81.8521, 20.7483], [81.8521, 20.7484], [81.852, 20.7484], [81.8521, 20.7484], [81.8521, 20.7485], [81.8521, 20.7486], [81.8521, 20.7487], [81.852, 20.7488], [81.8519, 20.7489], [81.8518, 20.7489], [81.8518, 20.749], [81.8517, 20.749], [81.8517, 20.7491]]]}, "properties": {"objectid": 43428, "statename": "Chhattisgarh", "statecode": "22", "districtname": null, "districtcode": "412", "ulbname": "Magarlod", "ulbcode": "802050", "wardname": "Sahid Veer Narayan Singh Ward", "wardcode": "13", "id": null, "status": "APPROVED", "misglobalid": null, "approved_by": null, "createdate": 1638501861000, "updateddate": 1644162401000, "globalid": null, "gisglobalid": "91ab9ac4-36d1-4ae2-86bc-e0205648ab10", "remark": "", "st_area(shape)": 7.488298348584404e-06, "st_perimeter(shape)": 0.013411812135332383}}, {"type": "Feature", "geometry": {"type": "Polygon", "coordinates": [[[81.8506, 20.7487], [81.8506, 20.7488], [81.8507, 20.7488], [81.8509, 20.7488], [81.8511, 20.7489], [81.8513, 20.7489], [81.8514, 20.749], [81.8516, 20.7491], [81.8517, 20.7491], [81.8517, 20.749], [81.8518, 20.749], [81.8518, 20.7489], [81.8519, 20.7489], [81.852, 20.7488], [81.8521, 20.7487], [81.8521, 20.7486], [81.8521, 20.7485], [81.8521, 20.7484], [81.852, 20.7484], [81.8521, 20.7484], [81.8521, 20.7483], [81.8522, 20.7483], [81.8523, 20.7483], [81.8523, 20.7481], [81.8523, 20.748], [81.8524, 20.748], [81.8525, 20.748], [81.8526, 20.7479], [81.8527, 20.7479], [81.8529, 20.7479], [81.853, 20.7479], [81.853, 20.7478], [81.8531, 20.7478], [81.8532, 20.7478], [81.8533, 20.7478], [81.8534, 20.7479], [81.8534, 20.748], [81.8535, 20.748], [81.854, 20.748], [81.8539, 20.7477], [81.854, 20.7477], [81.8543, 20.7477], [81.8544, 20.7476], [81.8544, 20.7475], [81.8544, 20.7474], [81.8545, 20.7473], [81.8546, 20.7473], [81.8546, 20.7472], [81.8547, 20.7471], [81.8548, 20.7471], [81.8549, 20.7471], [81.855, 20.747], [81.8556, 20.7465], [81.8558, 20.7464], [81.856, 20.7464], [81.8565, 20.7464], [81.8569, 20.7464], [81.8573, 20.7463], [81.8577, 20.7464], [81.8582, 20.7464], [81.8585, 20.7464], [81.8588, 20.7464], [81.859, 20.7464], [81.8592, 20.7465], [81.8591, 20.7462], [81.8587, 20.7446], [81.8583, 20.7426], [81.8576, 20.7428], [81.857, 20.7429], [81.8566, 20.7433], [81.8564, 20.7435], [81.8564, 20.7436], [81.8563, 20.7437], [81.8562, 20.7436], [81.8562, 20.7435], [81.8561, 20.7435], [81.8561, 20.7434], [81.8561, 20.7433], [81.856, 20.7431], [81.8558, 20.7431], [81.8554, 20.7431], [81.8553, 20.7432], [81.8552, 20.7432], [81.8551, 20.7432], [81.8549, 20.7433], [81.8547, 20.7433], [81.8546, 20.7433], [81.8545, 20.7433], [81.8544, 20.7437], [81.8545, 20.7438], [81.8547, 20.7438], [81.8548, 20.7439], [81.8549, 20.7439], [81.8551, 20.744], [81.8551, 20.7441], [81.855, 20.7444], [81.8549, 20.7445], [81.8549, 20.7447], [81.8548, 20.7448], [81.8546, 20.7449], [81.8545, 20.7449], [81.8544, 20.7449], [81.8543, 20.745], [81.8541, 20.745], [81.8537, 20.7451], [81.8533, 20.7448], [81.853, 20.7446], [81.8527, 20.7446], [81.8526, 20.7445], [81.8523, 20.7446], [81.8522, 20.7446], [81.8521, 20.7447], [81.852, 20.7447], [81.8519, 20.7447], [81.8516, 20.7448], [81.8515, 20.7448], [81.8514, 20.7448], [81.8512, 20.7449], [81.8511, 20.7449], [81.8508, 20.745], [81.8507, 20.7451], [81.8506, 20.7452], [81.8506, 20.7454], [81.8505, 20.7455], [81.8505, 20.7456], [81.8505, 20.7458], [81.8505, 20.746], [81.8505, 20.7461], [81.8505, 20.7462], [81.8505, 20.7463], [81.8505, 20.7464], [81.8505, 20.7465], [81.8505, 20.7466], [81.8505, 20.7467], [81.8505, 20.7469], [81.8506, 20.7471], [81.8506, 20.7473], [81.8506, 20.7474], [81.8506, 20.7475], [81.8506, 20.7477], [81.8506, 20.7478], [81.8506, 20.7479], [81.8506, 20.7481], [81.8506, 20.7483], [81.8506, 20.7484], [81.8506, 20.7486], [81.8506, 20.7487]]]}, "properties": {"objectid": 43429, "statename": "Chhattisgarh", "statecode": "22", "districtname": null, "districtcode": "412", "ulbname": "Magarlod", "ulbcode": "802050", "wardname": "Swami Vivekanand Ward", "wardcode": "14", "id": null, "status": "APPROVED", "misglobalid": null, "approved_by": null, "createdate": 1638502445000, "updateddate": 1644162409000, "globalid": null, "gisglobalid": "6b8b7e28-4dd2-45cf-acb7-67fc6f38a9d0", "remark": "", "st_area(shape)": 2.7895112577704425e-05, "st_perimeter(shape)": 0.029370098563084042}}, {"type": "Feature", "geometry": {"type": "Polygon", "coordinates": [[[81.8527, 20.7445], [81.8527, 20.7446], [81.853, 20.7446], [81.8534, 20.7449], [81.8535, 20.745], [81.8537, 20.7451], [81.8545, 20.7449], [81.8548, 20.7448], [81.8551, 20.744], [81.8549, 20.7439], [81.8545, 20.7438], [81.8544, 20.7437], [81.8545, 20.7433], [81.8546, 20.7433], [81.8547, 20.7433], [81.8549, 20.7433], [81.8551, 20.7432], [81.8552, 20.7432], [81.8553, 20.7432], [81.8554, 20.7431], [81.8556, 20.7431], [81.8558, 20.7431], [81.856, 20.7431], [81.8561, 20.7433], [81.8561, 20.7434], [81.8561, 20.7435], [81.8562, 20.7435], [81.8562, 20.7436], [81.8563, 20.7437], [81.8564, 20.7436], [81.8566, 20.7433], [81.857, 20.7429], [81.8573, 20.7428], [81.8576, 20.7428], [81.8577, 20.7427], [81.8578, 20.7427], [81.8581, 20.7427], [81.8582, 20.7427], [81.8583, 20.7426], [81.8578, 20.7406], [81.8575, 20.7402], [81.8575, 20.7401], [81.8576, 20.74], [81.8576, 20.7399], [81.8577, 20.7398], [81.8577, 20.7397], [81.8578, 20.7397], [81.8578, 20.7396], [81.8577, 20.7396], [81.8577, 20.7395], [81.8577, 20.7394], [81.8576, 20.7394], [81.8575, 20.7393], [81.8573, 20.7395], [81.8571, 20.7396], [81.857, 20.7397], [81.8569, 20.7397], [81.8568, 20.7397], [81.8567, 20.7398], [81.8566, 20.7398], [81.8565, 20.7398], [81.8563, 20.7399], [81.8562, 20.74], [81.8559, 20.7401], [81.8558, 20.7401], [81.8557, 20.7402], [81.8556, 20.7402], [81.8555, 20.7403], [81.8554, 20.7403], [81.8553, 20.7403], [81.8552, 20.7403], [81.855, 20.7403], [81.8548, 20.7404], [81.8544, 20.7404], [81.8542, 20.7405], [81.8541, 20.7405], [81.8534, 20.7406], [81.8533, 20.7406], [81.8531, 20.7406], [81.853, 20.7406], [81.8529, 20.7406], [81.8528, 20.7406], [81.8528, 20.7407], [81.8529, 20.7407], [81.8529, 20.7408], [81.853, 20.7409], [81.8531, 20.741], [81.8531, 20.7411], [81.8532, 20.7413], [81.8532, 20.7415], [81.8533, 20.7417], [81.8534, 20.7419], [81.8534, 20.742], [81.8534, 20.7421], [81.8533, 20.7423], [81.8532, 20.7424], [81.8531, 20.7425], [81.853, 20.7425], [81.8528, 20.7426], [81.8527, 20.7426], [81.8525, 20.7428], [81.8523, 20.7429], [81.8523, 20.743], [81.8522, 20.743], [81.8521, 20.7431], [81.852, 20.7431], [81.8519, 20.7432], [81.8518, 20.7433], [81.8517, 20.7434], [81.8517, 20.7436], [81.8517, 20.7437], [81.8517, 20.7439], [81.8518, 20.7439], [81.8519, 20.7439], [81.852, 20.7439], [81.8521, 20.7439], [81.8524, 20.7437], [81.8525, 20.7437], [81.8526, 20.7437], [81.8526, 20.7438], [81.8527, 20.7439], [81.8527, 20.744], [81.8527, 20.7441], [81.8527, 20.7442], [81.8527, 20.7443], [81.8527, 20.7444], [81.8527, 20.7445]]]}, "properties": {"objectid": 43430, "statename": "Chhattisgarh", "statecode": "22", "districtname": null, "districtcode": "412", "ulbname": "Magarlod", "ulbcode": "802050", "wardname": "Rani Durgawati Ward", "wardcode": "15", "id": null, "status": "APPROVED", "misglobalid": null, "approved_by": null, "createdate": 1638502918000, "updateddate": 1644162419000, "globalid": null, "gisglobalid": "db050e9b-0d30-4561-80f7-070b4d80be6b", "remark": "", "st_area(shape)": 1.8925063484987533e-05, "st_perimeter(shape)": 0.02371053646001416}}]}
