{"type":"Topology","arcs":[[[34878,99999],[-4878,-16409],[6341,-4024],[-3658,-9598],[10000,-15170]],[[42683,54798],[2439,-19195]],[[45122,35603],[-7074,0]],[[38048,35603],[-10487,3406]],[[27561,39009],[-9756,5573],[-15366,14860]],[[2439,59442],[488,14861],[19512,6811],[12439,18885]],[[27561,39009],[6097,-10836]],[[33658,28173],[-10487,619],[-15610,-14241]],[[7561,14551],[-6585,3405],[-976,9907],[2439,31579]],[[38536,27863],[2683,-12074]],[[41219,15789],[-1951,-3715]],[[39268,12074],[-7073,-4025]],[[32195,8049],[-18049,2477],[-6585,4025]],[[33658,28173],[4878,-310]],[[38048,35603],[7805,-2167]],[[45853,33436],[-244,-2477]],[[45609,30959],[-7073,-3096]],[[45609,30959],[-975,-1238]],[[44634,29721],[-2439,-2477]],[[42195,27244],[-488,-309]],[[41707,26935],[-3171,928]],[[41707,26935],[2683,-5573]],[[44390,21362],[-3171,-5573]],[[39268,12074],[6585,-7120]],[[45853,4954],[-13658,3095]],[[42195,27244],[3658,-309]],[[45853,26935],[0,-1548]],[[45853,25387],[-1463,-4025]],[[44634,29721],[1707,-1238]],[[46341,28483],[-244,-929]],[[46097,27554],[-244,-619]],[[47073,33127],[-732,-4644]],[[45853,33436],[1220,-309]],[[49512,27244],[-3415,310]],[[47073,33127],[5122,-929]],[[52195,32198],[731,-310]],[[52926,31888],[-3414,-4644]],[[49512,25077],[-3659,310]],[[49512,27244],[0,-2167]],[[49512,25077],[1219,-309]],[[50731,24768],[-2439,-9907],[-7073,928]],[[92194,35294],[-4878,-9907],[-23414,-17338],[-6342,-8049],[-11707,4954]],[[50731,24768],[4634,6811],[10488,4644]],[[65853,36223],[8780,6191],[17561,-7120]],[[52926,31888],[244,0]],[[53170,31888],[244,0]],[[53414,31888],[9268,7121]],[[62682,39009],[3171,-2786]],[[62682,39009],[4147,17337],[-4147,2477]],[[62682,58823],[7317,10836],[9512,23839]],[[79511,93498],[9756,0],[5854,-7431],[4878,-14860],[-1463,-13003],[-6342,-22910]],[[53414,31888],[-1707,4644]],[[51707,36532],[4390,3715],[6585,18576]],[[53170,31888],[-975,310]],[[45122,35603],[6585,929]],[[42683,54798],[1951,13622],[12926,18266],[976,10217]],[[58536,96903],[20975,-3405]],[[34878,99999],[23658,-3096]]],"transform":{"scale":[4.100041000411107e-7,3.2300323003229365e-7],"translate":[76.4185,26.4755]},"objects":{"wards":{"type":"GeometryCollection","geometries":[{"arcs":[[0,1,2,3,4,5]],"type":"Polygon","properties":{"objectid":177154,"statename":"Rajasthan","statecode":"8","districtname":"","districtcode":"109","ulbname":"Mandawari","ulbcode":"900712","wardname":"1","wardcode":"1","id":null,"status":"APPROVED","misglobalid":null,"approved_by":null,"createdate":1646035380000,"updateddate":1646035436000,"globalid":null,"gisglobalid":"65QPm4lc-cc64-PQPa-Rndc-cn65mKdd6on6","remark":"","st_area(shape)":0.00017777194779212627,"st_perimeter(shape)":0.07006090939959798}},{"arcs":[[6,7,8,-5]],"type":"Polygon","properties":{"objectid":184686,"statename":"Rajasthan","statecode":"8","districtname":"","districtcode":"109","ulbname":"Mandawari","ulbcode":"900712","wardname":"2","wardcode":"2","id":null,"status":"APPROVED","misglobalid":null,"approved_by":null,"createdate":1646035380000,"updateddate":1646035445000,"globalid":null,"gisglobalid":"nRBman5l-6mK5-PBlP-R5lm-cRomclmmKQRo","remark":"","st_area(shape)":0.00010541467724429522,"st_perimeter(shape)":0.04935229225713968}},{"arcs":[[9,10,11,12,-8,13]],"type":"Polygon","properties":{"objectid":183954,"statename":"Rajasthan","statecode":"8","districtname":"","districtcode":"109","ulbname":"Mandawari","ulbcode":"900712","wardname":"3","wardcode":"3","id":null,"status":"APPROVED","misglobalid":null,"approved_by":null,"createdate":1646035380000,"updateddate":1646035458000,"globalid":null,"gisglobalid":"nB6KscBR-5QQl-P5B5-QdRP-sK46dns4as6c","remark":"","st_area(shape)":0.000059994901781099835,"st_perimeter(shape)":0.03814547952370233}},{"arcs":[[-7,-4,14,15,16,-14]],"type":"Polygon","properties":{"objectid":185222,"statename":"Rajasthan","statecode":"8","districtname":"","districtcode":"109","ulbname":"Mandawari","ulbcode":"900712","wardname":"4","wardcode":"4","id":null,"status":"APPROVED","misglobalid":null,"approved_by":null,"createdate":1646035380000,"updateddate":1646035478000,"globalid":null,"gisglobalid":"cdoQQ6dd-Bl5d-PPKl-QPcP-KQnB4Rlln6sn","remark":"","st_area(shape)":0.000009888600397484419,"st_perimeter(shape)":0.020436706788539313}},{"arcs":[[17,18,19,20,-17]],"type":"Polygon","properties":{"objectid":185223,"statename":"Rajasthan","statecode":"8","districtname":"","districtcode":"109","ulbname":"Mandawari","ulbcode":"900712","wardname":"5","wardcode":"5","id":null,"status":"APPROVED","misglobalid":null,"approved_by":null,"createdate":1646035380000,"updateddate":1646035511000,"globalid":null,"gisglobalid":"scssKRQm-QoPm-PQPm-Rdao-l6lmmKRmlQoK","remark":"","st_area(shape)":0.0000022586425450200077,"st_perimeter(shape)":0.007603187540032864}},{"arcs":[[-10,-21,21,22]],"type":"Polygon","properties":{"objectid":185414,"statename":"Rajasthan","statecode":"8","districtname":"","districtcode":"109","ulbname":"Mandawari","ulbcode":"900712","wardname":"6","wardcode":"6","id":null,"status":"APPROVED","misglobalid":null,"approved_by":null,"createdate":1646035380000,"updateddate":1646035521000,"globalid":null,"gisglobalid":"Ko6mP6od-dPms-PdPm-sRKs-sm4KlBRssonc","remark":"","st_area(shape)":0.000005650553847302733,"st_perimeter(shape)":0.01184604326344009}},{"arcs":[[23,24,-12]],"type":"Polygon","properties":{"objectid":182729,"statename":"Rajasthan","statecode":"8","districtname":"","districtcode":"109","ulbname":"Mandawari","ulbcode":"900712","wardname":"7","wardcode":"7","id":null,"status":"APPROVED","misglobalid":null,"approved_by":null,"createdate":1646035380000,"updateddate":1646035532000,"globalid":null,"gisglobalid":"mPBmn54d-cnKs-Pmdo-aBK4-Pacda6n46PKo","remark":"","st_area(shape)":0.00000561368166276015,"st_perimeter(shape)":0.01407335207859069}},{"arcs":[[-22,-20,25,26,27]],"type":"Polygon","properties":{"objectid":183953,"statename":"Rajasthan","statecode":"8","districtname":"","districtcode":"109","ulbname":"Mandawari","ulbcode":"900712","wardname":"8","wardcode":"8","id":null,"status":"APPROVED","misglobalid":null,"approved_by":null,"createdate":1646035380000,"updateddate":1646035550000,"globalid":null,"gisglobalid":"PaP6lsom-mm6d-PQPs-aBm5-dd4ds4aBRcao","remark":"","st_area(shape)":0.000001973234139680275,"st_perimeter(shape)":0.006694943590021887}},{"arcs":[[-26,-19,28,29,30]],"type":"Polygon","properties":{"objectid":185224,"statename":"Rajasthan","statecode":"8","districtname":"","districtcode":"109","ulbname":"Mandawari","ulbcode":"900712","wardname":"9","wardcode":"9","id":null,"status":"APPROVED","misglobalid":null,"approved_by":null,"createdate":1646035380000,"updateddate":1646035567000,"globalid":null,"gisglobalid":"Bas4dQQn-K5o5-PQms-a55s-cRQs654oQdPR","remark":"","st_area(shape)":0.0000010510218454629678,"st_perimeter(shape)":0.004645603072260274}},{"arcs":[[31,-29,-18,-16,32]],"type":"Polygon","properties":{"objectid":181491,"statename":"Rajasthan","statecode":"8","districtname":"","districtcode":"109","ulbname":"Mandawari","ulbcode":"900712","wardname":"10","wardcode":"10","id":null,"status":"APPROVED","misglobalid":null,"approved_by":null,"createdate":1646035380000,"updateddate":1646035908000,"globalid":null,"gisglobalid":"ndRRoKdn-BRQ5-P6cl-acQ5-losRR5Pc55R5","remark":"","st_area(shape)":9.90854784828222e-7,"st_perimeter(shape)":0.004855644730514915}},{"arcs":[[33,-30,-32,34,35,36]],"type":"Polygon","properties":{"objectid":185225,"statename":"Rajasthan","statecode":"8","districtname":"","districtcode":"109","ulbname":"Mandawari","ulbcode":"900712","wardname":"11","wardcode":"11","id":null,"status":"APPROVED","misglobalid":null,"approved_by":null,"createdate":1646035380000,"updateddate":1646036255000,"globalid":null,"gisglobalid":"5BaQRcQ5-Kdnl-P64B-RlKQ-aBcQnaaPsRds","remark":"","st_area(shape)":0.000002640285935407062,"st_perimeter(shape)":0.009654609939624114}},{"arcs":[[37,-27,-31,-34,38]],"type":"Polygon","properties":{"objectid":185221,"statename":"Rajasthan","statecode":"8","districtname":"","districtcode":"109","ulbname":"Mandawari","ulbcode":"900712","wardname":"12","wardcode":"12","id":null,"status":"APPROVED","misglobalid":null,"approved_by":null,"createdate":1646035380000,"updateddate":1646036952000,"globalid":null,"gisglobalid":"sPm4mRom-mosc-PnBo-sna4-sl6QKPcs4Q55","remark":"","st_area(shape)":0.0000010698749084169737,"st_perimeter(shape)":0.0046762095167227225}},{"arcs":[[39,40,-23,-28,-38]],"type":"Polygon","properties":{"objectid":185413,"statename":"Rajasthan","statecode":"8","districtname":"","districtcode":"109","ulbname":"Mandawari","ulbcode":"900712","wardname":"13","wardcode":"13","id":null,"status":"APPROVED","misglobalid":null,"approved_by":null,"createdate":1646035380000,"updateddate":1646036943000,"globalid":null,"gisglobalid":"RlmQ4om4-n6d4-Pd5a-RB4Q-Ks665lcosm5s","remark":"","st_area(shape)":0.000007491640657378986,"st_perimeter(shape)":0.01322570206710591}},{"arcs":[[41,-24,-11,-41,42,43]],"type":"Polygon","properties":{"objectid":183952,"statename":"Rajasthan","statecode":"8","districtname":"","districtcode":"109","ulbname":"Mandawari","ulbcode":"900712","wardname":"14","wardcode":"14","id":null,"status":"APPROVED","misglobalid":null,"approved_by":null,"createdate":1646035380000,"updateddate":1725425944000,"globalid":null,"gisglobalid":"BaKannRm-4cdK-P6ss-as4Q-osQa454dBl6n","remark":"","st_area(shape)":0.00013896756919038096,"st_perimeter(shape)":0.058308455784350656}},{"arcs":[[-43,-40,-39,-37,44,45,46,47]],"type":"Polygon","properties":{"objectid":177153,"statename":"Rajasthan","statecode":"8","districtname":"","districtcode":"109","ulbname":"Mandawari","ulbcode":"900712","wardname":"15","wardcode":"15","id":null,"status":"APPROVED","misglobalid":null,"approved_by":null,"createdate":1646035380000,"updateddate":1646036925000,"globalid":null,"gisglobalid":"5d5cQmdc-QdRQ-P5BR-QnQa-PlRlPnPcncn5","remark":"","st_area(shape)":0.000008273507444233264,"st_perimeter(shape)":0.021617767225896773}},{"arcs":[[-48,48,49,50,-44]],"type":"Polygon","properties":{"objectid":181488,"statename":"Rajasthan","statecode":"8","districtname":"","districtcode":"109","ulbname":"Mandawari","ulbcode":"900712","wardname":"16","wardcode":"16","id":null,"status":"APPROVED","misglobalid":null,"approved_by":null,"createdate":1646035380000,"updateddate":1646037106000,"globalid":null,"gisglobalid":"n5KmnQoc-sQmQ-PQls-Q4lc-mncdKcmR4K5d","remark":"","st_area(shape)":0.00020050146365529315,"st_perimeter(shape)":0.0611940942818307}},{"arcs":[[51,52,-49,-47]],"type":"Polygon","properties":{"objectid":182730,"statename":"Rajasthan","statecode":"8","districtname":"","districtcode":"109","ulbname":"Mandawari","ulbcode":"900712","wardname":"17","wardcode":"17","id":null,"status":"APPROVED","misglobalid":null,"approved_by":null,"createdate":1646035380000,"updateddate":1646037121000,"globalid":null,"gisglobalid":"cnaaQKP5-Bns4-Pn4d-Qo6c-4K55Rm6aQnPP","remark":"","st_area(shape)":0.000020637324732758593,"st_perimeter(shape)":0.025610369120255088}},{"arcs":[[-52,-46,53,-35,-33,-15,-3,54]],"type":"Polygon","properties":{"objectid":184687,"statename":"Rajasthan","statecode":"8","districtname":"","districtcode":"109","ulbname":"Mandawari","ulbcode":"900712","wardname":"18","wardcode":"18","id":null,"status":"APPROVED","misglobalid":null,"approved_by":null,"createdate":1646035380000,"updateddate":1646036899000,"globalid":null,"gisglobalid":"RmnBado4-4oQd-PBod-R4R5-Kom45BoQ6Pll","remark":"","st_area(shape)":0.0000045527279137436115,"st_perimeter(shape)":0.015124238164377867}},{"arcs":[[-2,55,56,-50,-53,-55]],"type":"Polygon","properties":{"objectid":181490,"statename":"Rajasthan","statecode":"8","districtname":"","districtcode":"109","ulbname":"Mandawari","ulbcode":"900712","wardname":"19","wardcode":"19","id":null,"status":"APPROVED","misglobalid":null,"approved_by":null,"createdate":1646035380000,"updateddate":1646036992000,"globalid":null,"gisglobalid":"lnlQo64P-cm5d-P5dm-Rm6d-nQsaamlPQmKP","remark":"","st_area(shape)":0.0001479663997701384,"st_perimeter(shape)":0.061131152722036716}},{"arcs":[[-1,57,-56]],"type":"Polygon","properties":{"objectid":181489,"statename":"Rajasthan","statecode":"8","districtname":"","districtcode":"109","ulbname":"Mandawari","ulbcode":"900712","wardname":"20","wardcode":"20","id":null,"status":"APPROVED","misglobalid":null,"approved_by":null,"createdate":1646035380000,"updateddate":1646036862000,"globalid":null,"gisglobalid":"c4l564nR-nc46-P6dd-QoQl-BPmc5sm4a6lQ","remark":"","st_area(shape)":0.00008886279216115162,"st_perimeter(shape)":0.051674296249887626}}]}}}