{"type": "FeatureCollection", "features": [{"type": "Feature", "geometry": {"type": "Polygon", "coordinates": [[[77.8756, 18.3822], [77.8754, 18.3829], [77.8754, 18.3838], [77.8754, 18.3842], [77.8757, 18.3851], [77.876, 18.3861], [77.8762, 18.3869], [77.8764, 18.3872], [77.8768, 18.3882], [77.8772, 18.3897], [77.8776, 18.3906], [77.8778, 18.3909], [77.8781, 18.3915], [77.8785, 18.3922], [77.8789, 18.393], [77.8791, 18.3933], [77.8792, 18.3936], [77.8794, 18.3942], [77.8794, 18.3945], [77.8795, 18.3955], [77.8797, 18.3963], [77.8797, 18.3964], [77.8799, 18.3967], [77.8807, 18.3968], [77.8822, 18.3966], [77.8828, 18.3969], [77.8832, 18.3969], [77.8835, 18.3968], [77.8837, 18.3967], [77.8839, 18.3965], [77.884, 18.3964], [77.8841, 18.3963], [77.8845, 18.3962], [77.8845, 18.3958], [77.8846, 18.3956], [77.8846, 18.3955], [77.8848, 18.3955], [77.8851, 18.3956], [77.8854, 18.3957], [77.8858, 18.3956], [77.8868, 18.3951], [77.8876, 18.3947], [77.8881, 18.3946], [77.8883, 18.3945], [77.8888, 18.3935], [77.8888, 18.392], [77.8891, 18.3914], [77.8894, 18.3912], [77.8896, 18.3911], [77.8902, 18.3901], [77.8911, 18.3878], [77.8914, 18.3867], [77.8915, 18.3861], [77.8916, 18.386], [77.8917, 18.3859], [77.892, 18.3855], [77.8925, 18.3852], [77.8927, 18.385], [77.8927, 18.3848], [77.8928, 18.3845], [77.8928, 18.3842], [77.8928, 18.3841], [77.8929, 18.3838], [77.8932, 18.3834], [77.8934, 18.3833], [77.8939, 18.3831], [77.8939, 18.3826], [77.8937, 18.3821], [77.8938, 18.3807], [77.8917, 18.3806], [77.8904, 18.381], [77.8904, 18.3813], [77.8885, 18.382], [77.888, 18.3822], [77.8878, 18.3821], [77.8878, 18.382], [77.8871, 18.3809], [77.8868, 18.38], [77.8872, 18.3795], [77.8879, 18.3791], [77.888, 18.3792], [77.8882, 18.3791], [77.8884, 18.379], [77.8884, 18.3789], [77.8881, 18.3773], [77.8879, 18.3772], [77.8875, 18.3771], [77.8872, 18.3771], [77.8868, 18.3771], [77.8856, 18.3781], [77.8844, 18.379], [77.8839, 18.3793], [77.8837, 18.3795], [77.8836, 18.3798], [77.8831, 18.3801], [77.8825, 18.3804], [77.8822, 18.3806], [77.8821, 18.3808], [77.8822, 18.3812], [77.8824, 18.3816], [77.8823, 18.3816], [77.8822, 18.3816], [77.8817, 18.381], [77.8812, 18.3807], [77.8808, 18.3809], [77.8805, 18.381], [77.8801, 18.381], [77.8799, 18.381], [77.8796, 18.381], [77.8793, 18.3809], [77.879, 18.381], [77.8788, 18.381], [77.8786, 18.3811], [77.8784, 18.3811], [77.8783, 18.3812], [77.8781, 18.3812], [77.878, 18.3811], [77.8781, 18.3809], [77.8782, 18.3809], [77.8784, 18.3808], [77.8784, 18.3807], [77.8785, 18.3805], [77.8784, 18.3804], [77.8783, 18.3803], [77.8782, 18.3802], [77.8776, 18.3802], [77.8775, 18.3799], [77.8773, 18.3795], [77.8772, 18.3789], [77.8771, 18.3787], [77.8769, 18.3787], [77.8768, 18.3788], [77.8766, 18.379], [77.8763, 18.3793], [77.8762, 18.3795], [77.876, 18.3803], [77.8757, 18.3816], [77.8756, 18.3822]]]}, "properties": {"objectid": 50031, "statename": "Telanagana", "statecode": "36", "districtname": "Kamareddy", "districtcode": "683", "ulbname": "Banswada", "ulbcode": "900522", "wardname": "1", "wardcode": "1", "id": null, "status": "APPROVED", "misglobalid": null, "approved_by": null, "createdate": 1639743998000, "updateddate": 1732280000000, "globalid": null, "gisglobalid": "c6a34ff7-1378-41e5-8142-da65f50c4df7", "remark": "APPROVED", "st_area(shape)": 0.00022128443166742804, "st_perimeter(shape)": 0.07423724318572691}}, {"type": "Feature", "geometry": {"type": "Polygon", "coordinates": [[[77.8938, 18.3807], [77.8938, 18.3804], [77.8937, 18.3801], [77.8936, 18.3796], [77.8933, 18.3787], [77.8933, 18.3782], [77.8932, 18.3779], [77.8932, 18.3774], [77.8932, 18.3766], [77.893, 18.3761], [77.893, 18.3756], [77.893, 18.3753], [77.8929, 18.3748], [77.8928, 18.3742], [77.8925, 18.3735], [77.8924, 18.3734], [77.8924, 18.3731], [77.8921, 18.3732], [77.8919, 18.3733], [77.8917, 18.3734], [77.8916, 18.3733], [77.8917, 18.3732], [77.8919, 18.3731], [77.892, 18.373], [77.8923, 18.3729], [77.8926, 18.3727], [77.893, 18.3725], [77.8932, 18.3723], [77.8934, 18.3722], [77.8937, 18.372], [77.8939, 18.3713], [77.8941, 18.371], [77.8943, 18.3708], [77.8943, 18.3706], [77.8947, 18.3705], [77.895, 18.3704], [77.8954, 18.3701], [77.8958, 18.3698], [77.8967, 18.3694], [77.8975, 18.3691], [77.8986, 18.3686], [77.8995, 18.368], [77.8998, 18.3678], [77.8998, 18.3677], [77.8994, 18.3676], [77.8987, 18.3674], [77.8984, 18.3672], [77.8978, 18.367], [77.8976, 18.367], [77.8974, 18.367], [77.8971, 18.3671], [77.8968, 18.3672], [77.8964, 18.3673], [77.8962, 18.3674], [77.8959, 18.3674], [77.8956, 18.3675], [77.8953, 18.3676], [77.8949, 18.3678], [77.8944, 18.368], [77.8939, 18.3684], [77.8934, 18.3687], [77.8931, 18.3689], [77.8927, 18.3692], [77.8924, 18.3696], [77.8916, 18.3704], [77.8912, 18.3708], [77.8904, 18.3713], [77.8899, 18.3716], [77.8893, 18.3719], [77.889, 18.372], [77.8885, 18.3721], [77.8881, 18.3723], [77.8875, 18.3726], [77.887, 18.3728], [77.8863, 18.3731], [77.8859, 18.3734], [77.8858, 18.3735], [77.8858, 18.3736], [77.8861, 18.3743], [77.8863, 18.3746], [77.8862, 18.3747], [77.8859, 18.3749], [77.8854, 18.3751], [77.8844, 18.3752], [77.8837, 18.3751], [77.8832, 18.3752], [77.8831, 18.3754], [77.8832, 18.3755], [77.8833, 18.3756], [77.8834, 18.3758], [77.8835, 18.3761], [77.8837, 18.3765], [77.8838, 18.3769], [77.8838, 18.3771], [77.8837, 18.3774], [77.8835, 18.3775], [77.8831, 18.3777], [77.8829, 18.3778], [77.8826, 18.3779], [77.8824, 18.3782], [77.8823, 18.3784], [77.882, 18.3785], [77.8816, 18.3785], [77.8813, 18.3786], [77.8814, 18.3788], [77.8816, 18.379], [77.8818, 18.3791], [77.8819, 18.3792], [77.882, 18.3794], [77.882, 18.3797], [77.8821, 18.3799], [77.882, 18.3802], [77.882, 18.3804], [77.8822, 18.3806], [77.8825, 18.3804], [77.8831, 18.3801], [77.8836, 18.3798], [77.8837, 18.3795], [77.8839, 18.3793], [77.8844, 18.379], [77.8856, 18.3781], [77.8868, 18.3771], [77.8872, 18.3771], [77.8875, 18.3771], [77.8879, 18.3772], [77.8881, 18.3773], [77.8884, 18.3789], [77.8884, 18.379], [77.8882, 18.3791], [77.888, 18.3792], [77.8879, 18.3791], [77.8872, 18.3795], [77.8868, 18.38], [77.8871, 18.3809], [77.8878, 18.382], [77.8878, 18.3821], [77.888, 18.3822], [77.8885, 18.382], [77.8904, 18.3813], [77.8904, 18.381], [77.8917, 18.3806], [77.8938, 18.3807]]]}, "properties": {"objectid": 50800, "statename": "Telanagana", "statecode": "36", "districtname": "Kamareddy", "districtcode": "683", "ulbname": "Banswada", "ulbcode": "900522", "wardname": "2", "wardcode": "2", "id": null, "status": "APPROVED", "misglobalid": null, "approved_by": null, "createdate": 1639743998000, "updateddate": 1641305122000, "globalid": null, "gisglobalid": "dffaf4bd-0824-49e6-b4c1-88b28635d4af", "remark": "", "st_area(shape)": 8.963098962290768e-05, "st_perimeter(shape)": 0.06697581288494495}}, {"type": "Feature", "geometry": {"type": "Polygon", "coordinates": [[[77.8858, 18.3735], [77.8859, 18.3734], [77.8863, 18.3731], [77.887, 18.3728], [77.8875, 18.3726], [77.8881, 18.3723], [77.8885, 18.3721], [77.889, 18.372], [77.8893, 18.3719], [77.8899, 18.3716], [77.8904, 18.3713], [77.8912, 18.3708], [77.8916, 18.3704], [77.8924, 18.3696], [77.8927, 18.3692], [77.8931, 18.3689], [77.8934, 18.3687], [77.8939, 18.3684], [77.8944, 18.368], [77.8949, 18.3678], [77.8953, 18.3676], [77.8956, 18.3675], [77.8959, 18.3674], [77.8962, 18.3674], [77.8964, 18.3673], [77.8968, 18.3672], [77.8971, 18.3671], [77.8974, 18.367], [77.8976, 18.367], [77.8976, 18.3668], [77.8974, 18.3666], [77.8972, 18.3665], [77.897, 18.3663], [77.8969, 18.3661], [77.8969, 18.3659], [77.8969, 18.3657], [77.8968, 18.3656], [77.8966, 18.3655], [77.8965, 18.3653], [77.8964, 18.3651], [77.8963, 18.3645], [77.8967, 18.3638], [77.8968, 18.3635], [77.8967, 18.3634], [77.8966, 18.3633], [77.8964, 18.3631], [77.8961, 18.3631], [77.8956, 18.3632], [77.8952, 18.3631], [77.895, 18.363], [77.8947, 18.363], [77.8942, 18.3632], [77.8935, 18.3635], [77.8932, 18.3636], [77.893, 18.3637], [77.8927, 18.3637], [77.8921, 18.3637], [77.8917, 18.3637], [77.8915, 18.3637], [77.8914, 18.3637], [77.8914, 18.3639], [77.8914, 18.364], [77.8914, 18.3643], [77.8913, 18.3644], [77.8912, 18.3646], [77.8909, 18.3647], [77.8908, 18.3647], [77.8907, 18.3647], [77.8904, 18.3649], [77.8901, 18.3654], [77.89, 18.3656], [77.8898, 18.3657], [77.8896, 18.3657], [77.889, 18.3658], [77.8888, 18.3659], [77.8887, 18.3659], [77.8886, 18.366], [77.8885, 18.3661], [77.8885, 18.3664], [77.8886, 18.3667], [77.8888, 18.367], [77.8889, 18.3675], [77.8889, 18.3679], [77.8888, 18.3681], [77.8887, 18.3681], [77.8885, 18.3679], [77.8883, 18.3678], [77.8881, 18.3678], [77.888, 18.3678], [77.8878, 18.3677], [77.8877, 18.3677], [77.8876, 18.3677], [77.8874, 18.3678], [77.8873, 18.3679], [77.8872, 18.3681], [77.8871, 18.3686], [77.887, 18.369], [77.8869, 18.3692], [77.8868, 18.3693], [77.8867, 18.3694], [77.8866, 18.3696], [77.8865, 18.3698], [77.8864, 18.3701], [77.8862, 18.3703], [77.8861, 18.3704], [77.8858, 18.3705], [77.8857, 18.3706], [77.8857, 18.3707], [77.8856, 18.3708], [77.8855, 18.3709], [77.8854, 18.371], [77.885, 18.3712], [77.8848, 18.3711], [77.8846, 18.3711], [77.8839, 18.371], [77.8824, 18.3712], [77.8818, 18.3712], [77.8817, 18.3713], [77.8817, 18.3715], [77.8818, 18.3717], [77.8819, 18.3718], [77.882, 18.3719], [77.8823, 18.372], [77.8824, 18.3723], [77.8824, 18.3725], [77.8824, 18.3727], [77.8824, 18.373], [77.8823, 18.3731], [77.8823, 18.3733], [77.8822, 18.3735], [77.8822, 18.3737], [77.8823, 18.374], [77.8823, 18.3741], [77.8827, 18.3745], [77.8829, 18.3746], [77.883, 18.3746], [77.8831, 18.3746], [77.8833, 18.3746], [77.8836, 18.3745], [77.884, 18.3743], [77.8849, 18.3738], [77.8856, 18.3734], [77.8857, 18.3734], [77.8858, 18.3735]]]}, "properties": {"objectid": 52754, "statename": "Telanagana", "statecode": "36", "districtname": "Kamareddy", "districtcode": "683", "ulbname": "Banswada", "ulbcode": "900522", "wardname": "3", "wardcode": "3", "id": null, "status": "APPROVED", "misglobalid": null, "approved_by": null, "createdate": 1639743998000, "updateddate": 1641305128000, "globalid": null, "gisglobalid": "c6864654-46f4-4499-9f4c-d51b1f6375fc", "remark": "", "st_area(shape)": 6.664662178397043e-05, "st_perimeter(shape)": 0.04655952009963808}}, {"type": "Feature", "geometry": {"type": "Polygon", "coordinates": [[[77.8823, 18.3731], [77.8824, 18.373], [77.8824, 18.3727], [77.8824, 18.3725], [77.8824, 18.3723], [77.8823, 18.372], [77.882, 18.3719], [77.8819, 18.3718], [77.8818, 18.3717], [77.8817, 18.3715], [77.8817, 18.3713], [77.8811, 18.3712], [77.8809, 18.3712], [77.8807, 18.3712], [77.8804, 18.3711], [77.8802, 18.3711], [77.8797, 18.3708], [77.8795, 18.3707], [77.8792, 18.3705], [77.8791, 18.3704], [77.8789, 18.3703], [77.8788, 18.3703], [77.8786, 18.3702], [77.8784, 18.3703], [77.8782, 18.3703], [77.8781, 18.3704], [77.8782, 18.3706], [77.8784, 18.3711], [77.8785, 18.3716], [77.8786, 18.3719], [77.8787, 18.3722], [77.8787, 18.3723], [77.8788, 18.3726], [77.8789, 18.3727], [77.879, 18.3727], [77.8792, 18.3728], [77.8793, 18.3728], [77.8799, 18.3729], [77.8802, 18.3731], [77.8803, 18.3732], [77.8804, 18.3734], [77.8806, 18.3736], [77.8806, 18.3737], [77.8808, 18.3737], [77.8813, 18.3734], [77.8816, 18.3732], [77.8818, 18.3732], [77.8821, 18.3732], [77.8823, 18.3731]]]}, "properties": {"objectid": 52391, "statename": "Telanagana", "statecode": "36", "districtname": "Kamareddy", "districtcode": "683", "ulbname": "Banswada", "ulbcode": "900522", "wardname": "4", "wardcode": "4", "id": null, "status": "APPROVED", "misglobalid": null, "approved_by": null, "createdate": 1639743998000, "updateddate": 1641305134000, "globalid": null, "gisglobalid": "2638d515-c4bb-4179-9590-97709b85579d", "remark": "", "st_area(shape)": 8.029523721164296e-06, "st_perimeter(shape)": 0.012496854102186388}}, {"type": "Feature", "geometry": {"type": "Polygon", "coordinates": [[[77.8771, 18.3787], [77.8771, 18.3785], [77.8772, 18.3785], [77.8773, 18.3784], [77.8775, 18.3783], [77.8773, 18.3777], [77.8771, 18.3773], [77.8769, 18.3768], [77.8769, 18.3766], [77.877, 18.3766], [77.8772, 18.3765], [77.8775, 18.3763], [77.8779, 18.3762], [77.8782, 18.3761], [77.8783, 18.376], [77.8784, 18.3759], [77.8784, 18.3756], [77.8783, 18.3754], [77.8782, 18.3753], [77.8781, 18.3752], [77.878, 18.3751], [77.8777, 18.375], [77.8776, 18.375], [77.8775, 18.3748], [77.8775, 18.3742], [77.8775, 18.374], [77.8773, 18.374], [77.8772, 18.374], [77.8771, 18.3739], [77.877, 18.3738], [77.8774, 18.3732], [77.8778, 18.3727], [77.878, 18.3725], [77.8781, 18.3726], [77.8783, 18.3726], [77.8787, 18.3728], [77.8788, 18.3728], [77.8789, 18.3727], [77.8788, 18.3726], [77.8787, 18.3723], [77.8787, 18.3722], [77.8786, 18.3719], [77.8785, 18.3716], [77.8784, 18.3711], [77.8782, 18.3706], [77.8781, 18.3704], [77.878, 18.3704], [77.8778, 18.3704], [77.8776, 18.3704], [77.8775, 18.3704], [77.8773, 18.3702], [77.8771, 18.3701], [77.8769, 18.37], [77.8765, 18.3698], [77.8759, 18.3694], [77.8754, 18.3691], [77.8751, 18.369], [77.875, 18.3689], [77.8748, 18.3687], [77.8746, 18.3686], [77.8741, 18.3684], [77.8738, 18.3681], [77.8735, 18.3679], [77.8733, 18.3678], [77.8731, 18.3677], [77.8729, 18.3678], [77.8727, 18.3678], [77.8724, 18.3679], [77.8708, 18.3685], [77.8708, 18.3686], [77.8708, 18.3688], [77.8709, 18.3689], [77.871, 18.3693], [77.871, 18.3698], [77.871, 18.3704], [77.8711, 18.3705], [77.8711, 18.3708], [77.8712, 18.3716], [77.8712, 18.372], [77.8711, 18.3723], [77.871, 18.3724], [77.8708, 18.3727], [77.8707, 18.3729], [77.8701, 18.3732], [77.8699, 18.3734], [77.8698, 18.3736], [77.8698, 18.3737], [77.8699, 18.3739], [77.8701, 18.374], [77.8703, 18.374], [77.8705, 18.3741], [77.8707, 18.3743], [77.8714, 18.3747], [77.8721, 18.375], [77.8724, 18.3751], [77.8723, 18.3753], [77.8723, 18.3755], [77.8723, 18.3756], [77.8725, 18.3756], [77.8726, 18.3756], [77.8728, 18.3756], [77.8732, 18.3755], [77.8734, 18.3755], [77.8735, 18.3756], [77.8735, 18.3758], [77.8735, 18.3759], [77.8735, 18.376], [77.8734, 18.3762], [77.8734, 18.3765], [77.8736, 18.3767], [77.8737, 18.3767], [77.874, 18.3767], [77.8745, 18.3766], [77.8745, 18.3765], [77.8746, 18.3764], [77.8747, 18.3762], [77.8748, 18.376], [77.8749, 18.3757], [77.8749, 18.3756], [77.8751, 18.3756], [77.8752, 18.3756], [77.8753, 18.3756], [77.8753, 18.3757], [77.8754, 18.3758], [77.8754, 18.3761], [77.8754, 18.3764], [77.8755, 18.3768], [77.8755, 18.3769], [77.8756, 18.3771], [77.8758, 18.3775], [77.8759, 18.3777], [77.8759, 18.3778], [77.8758, 18.3779], [77.8757, 18.378], [77.8757, 18.3781], [77.8758, 18.3783], [77.876, 18.3783], [77.8762, 18.3783], [77.8764, 18.3782], [77.8766, 18.3783], [77.8767, 18.3784], [77.8768, 18.3788], [77.8769, 18.3787], [77.8771, 18.3787]]]}, "properties": {"objectid": 50799, "statename": "Telanagana", "statecode": "36", "districtname": "Kamareddy", "districtcode": "683", "ulbname": "Banswada", "ulbcode": "900522", "wardname": "5", "wardcode": "5", "id": null, "status": "APPROVED", "misglobalid": null, "approved_by": null, "createdate": 1639743998000, "updateddate": 1641305140000, "globalid": null, "gisglobalid": "6b6cc25e-61f8-49d9-9a7b-dcfaf4ffcc98", "remark": "", "st_area(shape)": 5.3970324414021823e-05, "st_perimeter(shape)": 0.03897453276367105}}, {"type": "Feature", "geometry": {"type": "Polygon", "coordinates": [[[77.8696, 18.3844], [77.8695, 18.3839], [77.8695, 18.3836], [77.8696, 18.3833], [77.8697, 18.383], [77.8698, 18.3825], [77.8699, 18.3816], [77.87, 18.3812], [77.8701, 18.381], [77.8704, 18.3805], [77.8706, 18.3799], [77.8711, 18.3793], [77.8716, 18.3787], [77.8717, 18.3786], [77.872, 18.3785], [77.872, 18.3784], [77.8721, 18.3783], [77.8723, 18.3778], [77.8725, 18.3774], [77.8732, 18.3764], [77.8735, 18.376], [77.8735, 18.3759], [77.8735, 18.3758], [77.8735, 18.3756], [77.8734, 18.3755], [77.8732, 18.3755], [77.8728, 18.3756], [77.8726, 18.3756], [77.8725, 18.3756], [77.8723, 18.3756], [77.8723, 18.3755], [77.8723, 18.3753], [77.8724, 18.3751], [77.8721, 18.375], [77.8714, 18.3747], [77.8707, 18.3743], [77.8705, 18.3741], [77.8703, 18.374], [77.8701, 18.374], [77.8699, 18.3739], [77.8698, 18.3737], [77.8698, 18.3736], [77.8699, 18.3734], [77.8701, 18.3732], [77.8707, 18.3729], [77.8708, 18.3727], [77.871, 18.3724], [77.8711, 18.3723], [77.8712, 18.372], [77.8712, 18.3716], [77.8711, 18.3708], [77.8711, 18.3705], [77.871, 18.3704], [77.871, 18.3698], [77.871, 18.3693], [77.8709, 18.3689], [77.8708, 18.3688], [77.8708, 18.3686], [77.8708, 18.3685], [77.8699, 18.3687], [77.8685, 18.3692], [77.8661, 18.3699], [77.8638, 18.3705], [77.8631, 18.3708], [77.8625, 18.371], [77.8624, 18.3711], [77.8623, 18.3713], [77.8623, 18.3715], [77.8624, 18.3718], [77.863, 18.3724], [77.8632, 18.3727], [77.8634, 18.373], [77.8636, 18.3734], [77.8637, 18.3736], [77.8638, 18.3738], [77.8641, 18.374], [77.8642, 18.374], [77.8645, 18.3741], [77.8647, 18.3742], [77.8648, 18.3743], [77.8647, 18.3744], [77.8646, 18.3744], [77.8642, 18.3742], [77.8639, 18.374], [77.8638, 18.3739], [77.8637, 18.3739], [77.8636, 18.3739], [77.8635, 18.3739], [77.8636, 18.3749], [77.8638, 18.3754], [77.8645, 18.377], [77.8653, 18.3784], [77.8654, 18.3786], [77.8656, 18.3789], [77.8656, 18.3791], [77.8655, 18.3792], [77.8642, 18.3795], [77.8622, 18.3803], [77.8617, 18.3804], [77.861, 18.3805], [77.86, 18.3806], [77.8591, 18.3807], [77.8584, 18.3808], [77.8576, 18.381], [77.8569, 18.3812], [77.8564, 18.3814], [77.856, 18.3816], [77.8549, 18.3816], [77.8539, 18.3815], [77.853, 18.3813], [77.8521, 18.3812], [77.8511, 18.3813], [77.8505, 18.3814], [77.8499, 18.3815], [77.8495, 18.3816], [77.8488, 18.3817], [77.848, 18.3819], [77.8478, 18.382], [77.8476, 18.3819], [77.8475, 18.3818], [77.8474, 18.3815], [77.847, 18.3816], [77.8468, 18.3817], [77.8465, 18.3818], [77.8464, 18.3819], [77.8463, 18.3818], [77.8463, 18.3817], [77.8462, 18.3816], [77.8462, 18.3814], [77.8455, 18.3815], [77.8452, 18.3816], [77.8447, 18.3815], [77.8445, 18.3813], [77.8445, 18.381], [77.8444, 18.3809], [77.844, 18.3809], [77.8433, 18.3811], [77.8428, 18.3811], [77.8425, 18.3812], [77.8423, 18.3812], [77.8422, 18.3813], [77.8422, 18.3815], [77.8422, 18.3819], [77.8422, 18.3821], [77.8422, 18.3822], [77.8427, 18.3822], [77.843, 18.3823], [77.8439, 18.3823], [77.8451, 18.3824], [77.8461, 18.3826], [77.8471, 18.3829], [77.8474, 18.383], [77.8475, 18.383], [77.8502, 18.383], [77.8521, 18.3832], [77.8529, 18.3833], [77.8532, 18.3833], [77.8539, 18.3833], [77.8544, 18.3834], [77.8549, 18.3835], [77.8557, 18.3837], [77.8559, 18.3838], [77.8563, 18.3838], [77.8572, 18.3839], [77.8584, 18.3841], [77.8587, 18.3842], [77.8593, 18.3843], [77.8597, 18.3844], [77.8603, 18.3848], [77.8607, 18.385], [77.8612, 18.3853], [77.8618, 18.3856], [77.862, 18.3857], [77.8624, 18.3858], [77.8633, 18.3857], [77.8643, 18.3855], [77.8661, 18.3852], [77.8675, 18.385], [77.8679, 18.3849], [77.8681, 18.3848], [77.869, 18.3846], [77.8696, 18.3844]]]}, "properties": {"objectid": 50801, "statename": "Telanagana", "statecode": "36", "districtname": "Kamareddy", "districtcode": "683", "ulbname": "Banswada", "ulbcode": "900522", "wardname": "6", "wardcode": "6", "id": null, "status": "APPROVED", "misglobalid": null, "approved_by": null, "createdate": 1639743998000, "updateddate": 1641305146000, "globalid": null, "gisglobalid": "37c146fe-83bf-489f-ba7b-6c430292b4ed", "remark": "", "st_area(shape)": 0.00016347341259249947, "st_perimeter(shape)": 0.09477226932132031}}, {"type": "Feature", "geometry": {"type": "Polygon", "coordinates": [[[77.867, 18.3882], [77.8672, 18.3882], [77.8678, 18.3879], [77.8686, 18.3877], [77.869, 18.3874], [77.8693, 18.3872], [77.8695, 18.3871], [77.8697, 18.387], [77.87, 18.387], [77.8704, 18.3869], [77.8706, 18.3868], [77.8705, 18.3867], [77.8706, 18.3866], [77.8707, 18.3864], [77.8707, 18.3862], [77.8707, 18.3861], [77.8706, 18.3859], [77.8705, 18.3858], [77.8704, 18.3858], [77.8703, 18.3857], [77.8702, 18.3853], [77.8698, 18.3847], [77.8696, 18.3844], [77.869, 18.3846], [77.8681, 18.3848], [77.8679, 18.3849], [77.8675, 18.385], [77.8661, 18.3852], [77.8643, 18.3855], [77.8633, 18.3857], [77.8624, 18.3858], [77.862, 18.3857], [77.8618, 18.3856], [77.8612, 18.3853], [77.8607, 18.385], [77.8603, 18.3848], [77.8597, 18.3844], [77.8593, 18.3843], [77.8587, 18.3842], [77.8584, 18.3841], [77.8572, 18.3839], [77.8563, 18.3838], [77.8559, 18.3838], [77.8557, 18.3837], [77.8549, 18.3835], [77.8544, 18.3834], [77.8539, 18.3833], [77.8532, 18.3833], [77.8529, 18.3833], [77.8521, 18.3832], [77.8502, 18.383], [77.8475, 18.383], [77.8474, 18.383], [77.8471, 18.3829], [77.8461, 18.3826], [77.8451, 18.3824], [77.8439, 18.3823], [77.843, 18.3823], [77.8427, 18.3822], [77.8422, 18.3822], [77.8422, 18.3821], [77.8421, 18.3827], [77.842, 18.383], [77.8419, 18.3833], [77.8419, 18.3837], [77.8419, 18.3852], [77.842, 18.3855], [77.8421, 18.3856], [77.8419, 18.3871], [77.8419, 18.3875], [77.8418, 18.3878], [77.8418, 18.388], [77.8419, 18.3881], [77.8428, 18.3882], [77.8434, 18.3882], [77.8438, 18.3882], [77.8442, 18.3883], [77.8446, 18.3885], [77.8449, 18.3886], [77.8456, 18.3885], [77.8458, 18.3885], [77.8461, 18.3886], [77.8466, 18.3886], [77.8472, 18.3888], [77.8478, 18.3888], [77.8498, 18.3888], [77.8502, 18.3888], [77.8506, 18.3886], [77.8509, 18.3886], [77.8514, 18.3885], [77.8525, 18.3885], [77.8534, 18.3886], [77.8537, 18.3886], [77.854, 18.3887], [77.8545, 18.3887], [77.8552, 18.3888], [77.856, 18.3889], [77.8563, 18.3888], [77.8566, 18.3888], [77.8573, 18.3887], [77.8581, 18.3887], [77.8605, 18.3887], [77.8611, 18.3886], [77.8614, 18.3886], [77.8623, 18.3886], [77.8633, 18.3886], [77.8638, 18.3884], [77.8646, 18.3882], [77.8657, 18.3877], [77.8663, 18.3875], [77.8665, 18.3874], [77.8668, 18.3875], [77.8669, 18.3878], [77.867, 18.3882]]]}, "properties": {"objectid": 52389, "statename": "Telanagana", "statecode": "36", "districtname": "Kamareddy", "districtcode": "683", "ulbname": "Banswada", "ulbcode": "900522", "wardname": "7", "wardcode": "7", "id": null, "status": "APPROVED", "misglobalid": null, "approved_by": null, "createdate": 1639743998000, "updateddate": 1641305151000, "globalid": null, "gisglobalid": "f65b772c-e4ec-47e9-8a65-7f46d0dce71c", "remark": "", "st_area(shape)": 0.00012764470304975744, "st_perimeter(shape)": 0.06717315712802159}}, {"type": "Feature", "geometry": {"type": "Polygon", "coordinates": [[[77.8682, 18.3973], [77.8682, 18.397], [77.8682, 18.3968], [77.8681, 18.3967], [77.8681, 18.3966], [77.868, 18.3964], [77.8678, 18.3959], [77.8678, 18.3947], [77.8677, 18.3942], [77.8679, 18.3932], [77.8679, 18.393], [77.8678, 18.3929], [77.8677, 18.3927], [77.8676, 18.3923], [77.8675, 18.3921], [77.8676, 18.3919], [77.8676, 18.3917], [77.8676, 18.3915], [77.8675, 18.3913], [77.8674, 18.3912], [77.8673, 18.3911], [77.8671, 18.391], [77.8669, 18.3905], [77.867, 18.3902], [77.8669, 18.3901], [77.8668, 18.39], [77.8667, 18.39], [77.8667, 18.3898], [77.8668, 18.3893], [77.8669, 18.3885], [77.867, 18.3883], [77.867, 18.3882], [77.8669, 18.3878], [77.8668, 18.3875], [77.8665, 18.3874], [77.8663, 18.3875], [77.8657, 18.3877], [77.8646, 18.3882], [77.8638, 18.3884], [77.8633, 18.3886], [77.8623, 18.3886], [77.8614, 18.3886], [77.8611, 18.3886], [77.8605, 18.3887], [77.8581, 18.3887], [77.8573, 18.3887], [77.8566, 18.3888], [77.8563, 18.3888], [77.856, 18.3889], [77.8552, 18.3888], [77.8545, 18.3887], [77.854, 18.3887], [77.8537, 18.3886], [77.8534, 18.3886], [77.8525, 18.3885], [77.8514, 18.3885], [77.8509, 18.3886], [77.8506, 18.3886], [77.8502, 18.3888], [77.8498, 18.3888], [77.8478, 18.3888], [77.8472, 18.3888], [77.8466, 18.3886], [77.8461, 18.3886], [77.8458, 18.3885], [77.8456, 18.3885], [77.8449, 18.3886], [77.8446, 18.3885], [77.8442, 18.3883], [77.8438, 18.3882], [77.8434, 18.3882], [77.8428, 18.3882], [77.8419, 18.3881], [77.8419, 18.3889], [77.8419, 18.3893], [77.8417, 18.3896], [77.8416, 18.3898], [77.8413, 18.3902], [77.8411, 18.3904], [77.8408, 18.3907], [77.8406, 18.3909], [77.8404, 18.391], [77.8403, 18.391], [77.84, 18.3908], [77.8398, 18.3908], [77.8396, 18.3908], [77.8395, 18.3908], [77.8392, 18.3907], [77.8391, 18.3907], [77.8389, 18.3908], [77.8388, 18.3912], [77.839, 18.3912], [77.8392, 18.3912], [77.8393, 18.3911], [77.8395, 18.3912], [77.8396, 18.3914], [77.8399, 18.3914], [77.8405, 18.3913], [77.8405, 18.3914], [77.8406, 18.3916], [77.8406, 18.3918], [77.8407, 18.3924], [77.8408, 18.3926], [77.8409, 18.3928], [77.841, 18.393], [77.841, 18.3932], [77.8407, 18.3932], [77.8404, 18.3931], [77.8402, 18.3931], [77.84, 18.3931], [77.8395, 18.3932], [77.8393, 18.3934], [77.8392, 18.3936], [77.8392, 18.3938], [77.8394, 18.3939], [77.8399, 18.3942], [77.8401, 18.3944], [77.8402, 18.3945], [77.8405, 18.3947], [77.8411, 18.3948], [77.8416, 18.3949], [77.8419, 18.395], [77.8421, 18.395], [77.8424, 18.395], [77.8429, 18.3946], [77.8433, 18.394], [77.8438, 18.3934], [77.8442, 18.3931], [77.8445, 18.3931], [77.8448, 18.393], [77.8451, 18.3931], [77.8453, 18.3931], [77.8455, 18.3932], [77.8458, 18.3934], [77.8459, 18.3936], [77.846, 18.3937], [77.8461, 18.3938], [77.8463, 18.3937], [77.8469, 18.3935], [77.8476, 18.3934], [77.8482, 18.3934], [77.8485, 18.3934], [77.8488, 18.3934], [77.8491, 18.3936], [77.8491, 18.3937], [77.8492, 18.3939], [77.8496, 18.3942], [77.8499, 18.3944], [77.85, 18.3945], [77.8503, 18.3944], [77.8506, 18.3943], [77.8513, 18.3941], [77.8517, 18.394], [77.852, 18.3941], [77.8524, 18.3943], [77.8526, 18.3945], [77.8528, 18.3949], [77.853, 18.3952], [77.8531, 18.3954], [77.8531, 18.3955], [77.8532, 18.3956], [77.8531, 18.3956], [77.853, 18.3955], [77.8529, 18.3954], [77.8527, 18.3954], [77.8525, 18.3954], [77.8524, 18.3955], [77.8525, 18.3958], [77.8527, 18.3962], [77.8527, 18.3964], [77.8528, 18.3966], [77.8529, 18.3968], [77.8531, 18.3968], [77.8533, 18.3967], [77.8535, 18.3967], [77.8536, 18.3967], [77.8537, 18.3968], [77.8539, 18.3969], [77.8543, 18.3968], [77.8545, 18.3968], [77.8547, 18.3968], [77.8549, 18.3969], [77.855, 18.3971], [77.8551, 18.3973], [77.8552, 18.3975], [77.8553, 18.3976], [77.8555, 18.3976], [77.8557, 18.3975], [77.8561, 18.3975], [77.8564, 18.3974], [77.8567, 18.3975], [77.8569, 18.3975], [77.8573, 18.3975], [77.8574, 18.3976], [77.8575, 18.3977], [77.8578, 18.3977], [77.8579, 18.3977], [77.8581, 18.3978], [77.8582, 18.3981], [77.8584, 18.3985], [77.8586, 18.3988], [77.8586, 18.399], [77.8587, 18.3992], [77.8588, 18.3993], [77.8589, 18.3993], [77.8593, 18.3993], [77.8596, 18.3992], [77.8598, 18.399], [77.8599, 18.399], [77.8602, 18.3989], [77.8604, 18.399], [77.8606, 18.3992], [77.8608, 18.3994], [77.861, 18.3996], [77.8612, 18.3997], [77.8615, 18.3998], [77.8617, 18.3995], [77.8617, 18.3993], [77.8618, 18.3992], [77.8621, 18.3991], [77.8623, 18.399], [77.8626, 18.3983], [77.8626, 18.3979], [77.8627, 18.3977], [77.8628, 18.3976], [77.863, 18.3977], [77.8632, 18.3978], [77.8634, 18.3977], [77.8636, 18.3976], [77.8638, 18.3975], [77.8639, 18.3976], [77.8641, 18.3977], [77.8642, 18.3978], [77.8644, 18.3978], [77.8649, 18.3978], [77.8652, 18.3979], [77.8654, 18.398], [77.8658, 18.3981], [77.866, 18.3982], [77.8663, 18.3981], [77.8666, 18.398], [77.8669, 18.398], [77.867, 18.398], [77.8672, 18.3978], [77.8672, 18.3977], [77.8674, 18.3976], [77.8678, 18.3974], [77.8682, 18.3973]]]}, "properties": {"objectid": 50030, "statename": "Telanagana", "statecode": "36", "districtname": "Kamareddy", "districtcode": "683", "ulbname": "Banswada", "ulbcode": "900522", "wardname": "8", "wardcode": "8", "id": null, "status": "APPROVED", "misglobalid": null, "approved_by": null, "createdate": 1639743998000, "updateddate": 1641305156000, "globalid": null, "gisglobalid": "80d0f581-0cdc-4cc0-bb23-3431ff5652bf", "remark": "", "st_area(shape)": 0.00020641002340262781, "st_perimeter(shape)": 0.08562906654800853}}, {"type": "Feature", "geometry": {"type": "Polygon", "coordinates": [[[77.8755, 18.3957], [77.8754, 18.3955], [77.8753, 18.3951], [77.8752, 18.3949], [77.875, 18.3947], [77.8746, 18.3947], [77.8743, 18.3946], [77.8742, 18.3946], [77.8741, 18.3946], [77.874, 18.3942], [77.8739, 18.394], [77.8737, 18.3938], [77.8736, 18.3935], [77.8733, 18.3932], [77.873, 18.393], [77.8728, 18.3929], [77.8727, 18.3929], [77.8725, 18.3929], [77.8723, 18.3931], [77.8721, 18.3932], [77.8717, 18.3932], [77.8716, 18.3932], [77.8715, 18.3932], [77.8712, 18.393], [77.8711, 18.3928], [77.8711, 18.3925], [77.8711, 18.392], [77.871, 18.3918], [77.8708, 18.3916], [77.8704, 18.3915], [77.8704, 18.3914], [77.8704, 18.3913], [77.87, 18.3912], [77.8698, 18.3912], [77.8697, 18.3912], [77.8696, 18.3909], [77.8696, 18.3906], [77.8695, 18.3904], [77.8692, 18.3902], [77.869, 18.3902], [77.8688, 18.3901], [77.8687, 18.3901], [77.8688, 18.3899], [77.8689, 18.3897], [77.8689, 18.3891], [77.8689, 18.3889], [77.869, 18.3888], [77.8677, 18.3888], [77.8673, 18.3888], [77.8672, 18.389], [77.8671, 18.3891], [77.8672, 18.3895], [77.8672, 18.3896], [77.8673, 18.3898], [77.8673, 18.3899], [77.8671, 18.3901], [77.867, 18.3902], [77.8669, 18.3905], [77.8671, 18.391], [77.8673, 18.3911], [77.8674, 18.3912], [77.8675, 18.3913], [77.8676, 18.3915], [77.8676, 18.3917], [77.8676, 18.3919], [77.8675, 18.3921], [77.8676, 18.3923], [77.8677, 18.3927], [77.8678, 18.3929], [77.8679, 18.393], [77.8679, 18.3932], [77.8677, 18.3942], [77.8678, 18.3947], [77.8678, 18.3959], [77.868, 18.3964], [77.8681, 18.3966], [77.8681, 18.3967], [77.8682, 18.3968], [77.8682, 18.397], [77.8682, 18.3973], [77.8682, 18.3974], [77.8683, 18.3976], [77.8686, 18.3976], [77.8692, 18.3976], [77.8699, 18.3975], [77.8706, 18.3973], [77.8709, 18.3972], [77.8709, 18.397], [77.8709, 18.3969], [77.8708, 18.3967], [77.8708, 18.3966], [77.8709, 18.3966], [77.8712, 18.3964], [77.8726, 18.3963], [77.8738, 18.3962], [77.8745, 18.3963], [77.8749, 18.3963], [77.875, 18.3964], [77.8752, 18.3961], [77.8755, 18.3957]]]}, "properties": {"objectid": 52753, "statename": "Telanagana", "statecode": "36", "districtname": "Kamareddy", "districtcode": "683", "ulbname": "Banswada", "ulbcode": "900522", "wardname": "9", "wardcode": "9", "id": null, "status": "APPROVED", "misglobalid": null, "approved_by": null, "createdate": 1639743998000, "updateddate": 1641305162000, "globalid": null, "gisglobalid": "ca0f2fdd-8fed-4315-abef-659fc7298998", "remark": "", "st_area(shape)": 3.621996298526715e-05, "st_perimeter(shape)": 0.03126119562849503}}, {"type": "Feature", "geometry": {"type": "Polygon", "coordinates": [[[77.8754, 18.3842], [77.8753, 18.3841], [77.875, 18.3842], [77.8745, 18.3845], [77.8744, 18.3847], [77.8742, 18.3846], [77.874, 18.3846], [77.8738, 18.3847], [77.8736, 18.3849], [77.8735, 18.385], [77.8734, 18.3853], [77.8733, 18.3856], [77.8733, 18.3858], [77.8732, 18.386], [77.8731, 18.3863], [77.8727, 18.3866], [77.8719, 18.3871], [77.8714, 18.3874], [77.8711, 18.3875], [77.871, 18.3874], [77.8709, 18.3879], [77.8709, 18.3881], [77.8707, 18.3882], [77.8704, 18.3883], [77.8701, 18.3884], [77.8699, 18.3884], [77.8698, 18.3887], [77.8698, 18.3889], [77.8691, 18.3888], [77.869, 18.3888], [77.8689, 18.3889], [77.8689, 18.3891], [77.8689, 18.3897], [77.8688, 18.3899], [77.8687, 18.3901], [77.8688, 18.3901], [77.869, 18.3902], [77.8692, 18.3902], [77.8695, 18.3904], [77.8696, 18.3906], [77.8696, 18.3909], [77.8697, 18.3912], [77.8698, 18.3912], [77.87, 18.3912], [77.8704, 18.3913], [77.8704, 18.3914], [77.8704, 18.3915], [77.8708, 18.3916], [77.871, 18.3918], [77.8711, 18.392], [77.8711, 18.3925], [77.8711, 18.3928], [77.8712, 18.393], [77.8715, 18.3932], [77.8716, 18.3932], [77.8717, 18.3932], [77.8721, 18.3932], [77.8723, 18.3931], [77.8725, 18.3929], [77.8727, 18.3929], [77.8728, 18.3929], [77.873, 18.393], [77.8733, 18.3932], [77.8736, 18.3935], [77.8737, 18.3938], [77.8739, 18.394], [77.874, 18.3942], [77.8741, 18.3946], [77.8742, 18.3946], [77.8743, 18.3946], [77.8746, 18.3947], [77.875, 18.3947], [77.8752, 18.3949], [77.8753, 18.3951], [77.8754, 18.3955], [77.8755, 18.3957], [77.8755, 18.3959], [77.8761, 18.3958], [77.877, 18.3959], [77.8781, 18.396], [77.8782, 18.396], [77.8783, 18.3961], [77.8783, 18.3962], [77.8783, 18.3963], [77.8793, 18.3964], [77.8797, 18.3964], [77.8797, 18.3963], [77.8795, 18.3955], [77.8794, 18.3945], [77.8794, 18.3942], [77.8792, 18.3936], [77.8791, 18.3933], [77.8789, 18.393], [77.8785, 18.3922], [77.8781, 18.3915], [77.8778, 18.3909], [77.8776, 18.3906], [77.8772, 18.3897], [77.8768, 18.3882], [77.8764, 18.3872], [77.8762, 18.3869], [77.876, 18.3861], [77.8757, 18.3851], [77.8754, 18.3842]]]}, "properties": {"objectid": 51619, "statename": "Telanagana", "statecode": "36", "districtname": "Kamareddy", "districtcode": "683", "ulbname": "Banswada", "ulbcode": "900522", "wardname": "10", "wardcode": "10", "id": null, "status": "APPROVED", "misglobalid": null, "approved_by": null, "createdate": 1639743998000, "updateddate": 1641305167000, "globalid": null, "gisglobalid": "bed86916-fbc6-4b21-95e9-e8e6c3f3030d", "remark": "", "st_area(shape)": 6.565787434116007e-05, "st_perimeter(shape)": 0.03865777754267423}}, {"type": "Feature", "geometry": {"type": "Polygon", "coordinates": [[[77.869, 18.3888], [77.8691, 18.3888], [77.8698, 18.3889], [77.8698, 18.3887], [77.8699, 18.3884], [77.8701, 18.3884], [77.8704, 18.3883], [77.8707, 18.3882], [77.8709, 18.3881], [77.8709, 18.3879], [77.871, 18.3874], [77.8708, 18.3871], [77.8707, 18.387], [77.8706, 18.3868], [77.8704, 18.3869], [77.87, 18.387], [77.8697, 18.387], [77.8695, 18.3871], [77.8693, 18.3872], [77.869, 18.3874], [77.8686, 18.3877], [77.8678, 18.3879], [77.8672, 18.3882], [77.867, 18.3882], [77.867, 18.3883], [77.8669, 18.3885], [77.8668, 18.3893], [77.8667, 18.3898], [77.8667, 18.39], [77.8668, 18.39], [77.8669, 18.3901], [77.867, 18.3902], [77.8671, 18.3901], [77.8673, 18.3899], [77.8673, 18.3898], [77.8672, 18.3896], [77.8672, 18.3895], [77.8671, 18.3891], [77.8672, 18.389], [77.8673, 18.3888], [77.8677, 18.3888], [77.869, 18.3888]]]}, "properties": {"objectid": 52755, "statename": "Telanagana", "statecode": "36", "districtname": "Kamareddy", "districtcode": "683", "ulbname": "Banswada", "ulbcode": "900522", "wardname": "11", "wardcode": "11", "id": null, "status": "APPROVED", "misglobalid": null, "approved_by": null, "createdate": 1639743998000, "updateddate": 1641305172000, "globalid": null, "gisglobalid": "9d2a8cb6-68c5-45af-8f92-b4843194772a", "remark": "", "st_area(shape)": 5.2583215036283535e-06, "st_perimeter(shape)": 0.013061248367203255}}, {"type": "Feature", "geometry": {"type": "Polygon", "coordinates": [[[77.8754, 18.3842], [77.8754, 18.3838], [77.8754, 18.3829], [77.8756, 18.3822], [77.8752, 18.3824], [77.874, 18.3828], [77.8735, 18.383], [77.8734, 18.383], [77.8732, 18.3829], [77.8731, 18.3828], [77.873, 18.3827], [77.873, 18.3826], [77.8731, 18.3825], [77.8732, 18.3823], [77.8732, 18.3822], [77.873, 18.382], [77.8729, 18.3819], [77.8727, 18.3818], [77.8726, 18.3817], [77.8725, 18.3817], [77.8724, 18.3817], [77.8722, 18.3818], [77.8721, 18.3819], [77.872, 18.3818], [77.8719, 18.3817], [77.8718, 18.3816], [77.8716, 18.3818], [77.8714, 18.3819], [77.8713, 18.3821], [77.8713, 18.3823], [77.8713, 18.3824], [77.8713, 18.3826], [77.8714, 18.3826], [77.8714, 18.3829], [77.8712, 18.383], [77.8711, 18.3831], [77.871, 18.3833], [77.8709, 18.3836], [77.8709, 18.3839], [77.8709, 18.3841], [77.871, 18.3842], [77.8711, 18.3843], [77.8712, 18.3844], [77.8713, 18.3845], [77.8712, 18.3846], [77.8709, 18.3848], [77.8706, 18.385], [77.8702, 18.3853], [77.8703, 18.3857], [77.8704, 18.3858], [77.8705, 18.3858], [77.8706, 18.3859], [77.8707, 18.3861], [77.8707, 18.3862], [77.8707, 18.3864], [77.8706, 18.3866], [77.8705, 18.3867], [77.8706, 18.3868], [77.8707, 18.387], [77.8708, 18.3871], [77.871, 18.3874], [77.8711, 18.3875], [77.8714, 18.3874], [77.8719, 18.3871], [77.8727, 18.3866], [77.8731, 18.3863], [77.8732, 18.386], [77.8733, 18.3858], [77.8733, 18.3856], [77.8734, 18.3853], [77.8735, 18.385], [77.8736, 18.3849], [77.8738, 18.3847], [77.874, 18.3846], [77.8742, 18.3846], [77.8744, 18.3847], [77.8745, 18.3845], [77.875, 18.3842], [77.8753, 18.3841], [77.8754, 18.3842]]]}, "properties": {"objectid": 52087, "statename": "Telanagana", "statecode": "36", "districtname": "Kamareddy", "districtcode": "683", "ulbname": "Banswada", "ulbcode": "900522", "wardname": "12", "wardcode": "12", "id": null, "status": "APPROVED", "misglobalid": null, "approved_by": null, "createdate": 1639743998000, "updateddate": 1641305176000, "globalid": null, "gisglobalid": "be247795-cd06-4a4f-909e-dd574f5fc2ce", "remark": "", "st_area(shape)": 1.6262501346908363e-05, "st_perimeter(shape)": 0.020617127888920082}}, {"type": "Feature", "geometry": {"type": "Polygon", "coordinates": [[[77.8756, 18.3822], [77.8757, 18.3816], [77.876, 18.3803], [77.8762, 18.3795], [77.8763, 18.3793], [77.8766, 18.379], [77.8768, 18.3788], [77.8767, 18.3784], [77.8766, 18.3783], [77.8764, 18.3782], [77.8762, 18.3783], [77.876, 18.3783], [77.8758, 18.3783], [77.8757, 18.3781], [77.8757, 18.378], [77.8758, 18.3779], [77.8759, 18.3778], [77.8759, 18.3777], [77.8758, 18.3775], [77.8756, 18.3771], [77.8755, 18.3769], [77.8755, 18.3768], [77.8754, 18.3764], [77.8754, 18.3761], [77.8754, 18.3758], [77.8753, 18.3757], [77.8753, 18.3756], [77.8752, 18.3756], [77.8751, 18.3756], [77.8749, 18.3756], [77.8749, 18.3757], [77.8748, 18.376], [77.8747, 18.3762], [77.8746, 18.3764], [77.8745, 18.3765], [77.8745, 18.3766], [77.874, 18.3767], [77.8737, 18.3767], [77.8736, 18.3767], [77.8734, 18.3765], [77.8734, 18.3762], [77.8735, 18.376], [77.8732, 18.3764], [77.8725, 18.3774], [77.8723, 18.3778], [77.8721, 18.3783], [77.872, 18.3784], [77.872, 18.3785], [77.8717, 18.3786], [77.8716, 18.3787], [77.8711, 18.3793], [77.8706, 18.3799], [77.8704, 18.3805], [77.8701, 18.381], [77.87, 18.3812], [77.8699, 18.3816], [77.8698, 18.3825], [77.8697, 18.383], [77.8696, 18.3833], [77.8695, 18.3836], [77.8695, 18.3839], [77.8696, 18.3844], [77.8698, 18.3847], [77.8702, 18.3853], [77.8706, 18.385], [77.8709, 18.3848], [77.8712, 18.3846], [77.8713, 18.3845], [77.8712, 18.3844], [77.8711, 18.3843], [77.871, 18.3842], [77.8709, 18.3841], [77.8709, 18.3839], [77.8709, 18.3836], [77.871, 18.3833], [77.8711, 18.3831], [77.8712, 18.383], [77.8714, 18.3829], [77.8714, 18.3826], [77.8713, 18.3826], [77.8713, 18.3824], [77.8713, 18.3823], [77.8713, 18.3821], [77.8714, 18.3819], [77.8716, 18.3818], [77.8718, 18.3816], [77.8719, 18.3817], [77.872, 18.3818], [77.8721, 18.3819], [77.8722, 18.3818], [77.8724, 18.3817], [77.8725, 18.3817], [77.8726, 18.3817], [77.8727, 18.3818], [77.8729, 18.3819], [77.873, 18.382], [77.8732, 18.3822], [77.8732, 18.3823], [77.8731, 18.3825], [77.873, 18.3826], [77.873, 18.3827], [77.8731, 18.3828], [77.8732, 18.3829], [77.8734, 18.383], [77.8735, 18.383], [77.874, 18.3828], [77.8752, 18.3824], [77.8756, 18.3822]]]}, "properties": {"objectid": 50802, "statename": "Telanagana", "statecode": "36", "districtname": "Kamareddy", "districtcode": "683", "ulbname": "Banswada", "ulbcode": "900522", "wardname": "13", "wardcode": "13", "id": null, "status": "APPROVED", "misglobalid": null, "approved_by": null, "createdate": 1639743998000, "updateddate": 1641305183000, "globalid": null, "gisglobalid": "469b6338-82b4-41a5-993c-24e78837ef96", "remark": "", "st_area(shape)": 3.206082951922128e-05, "st_perimeter(shape)": 0.03156344691498757}}, {"type": "Feature", "geometry": {"type": "Polygon", "coordinates": [[[77.8782, 18.3802], [77.8786, 18.3801], [77.8791, 18.3799], [77.8793, 18.3799], [77.8792, 18.3797], [77.8791, 18.3794], [77.879, 18.3791], [77.879, 18.379], [77.879, 18.3788], [77.8791, 18.3787], [77.8793, 18.3786], [77.8795, 18.3784], [77.8795, 18.3783], [77.8794, 18.3782], [77.8793, 18.378], [77.8793, 18.3778], [77.8792, 18.3776], [77.8792, 18.3775], [77.8792, 18.3773], [77.8789, 18.3774], [77.8787, 18.3776], [77.8782, 18.3779], [77.8777, 18.3782], [77.8775, 18.3783], [77.8773, 18.3784], [77.8772, 18.3785], [77.8771, 18.3785], [77.8771, 18.3787], [77.8772, 18.3789], [77.8773, 18.3795], [77.8775, 18.3799], [77.8776, 18.3802], [77.8782, 18.3802]]]}, "properties": {"objectid": 51206, "statename": "Telanagana", "statecode": "36", "districtname": "Kamareddy", "districtcode": "683", "ulbname": "Banswada", "ulbcode": "900522", "wardname": "14", "wardcode": "14", "id": null, "status": "APPROVED", "misglobalid": null, "approved_by": null, "createdate": 1639743998000, "updateddate": 1641305191000, "globalid": null, "gisglobalid": "d866abb2-f1f9-48b8-b214-21eae4882ecd", "remark": "", "st_area(shape)": 4.273819022392632e-06, "st_perimeter(shape)": 0.008951193277921706}}, {"type": "Feature", "geometry": {"type": "Polygon", "coordinates": [[[77.8822, 18.3806], [77.882, 18.3804], [77.882, 18.3802], [77.8821, 18.3799], [77.882, 18.3797], [77.882, 18.3794], [77.8819, 18.3792], [77.8818, 18.3791], [77.8816, 18.379], [77.8814, 18.3788], [77.8813, 18.3786], [77.8812, 18.3786], [77.8809, 18.3786], [77.8807, 18.3787], [77.8805, 18.3788], [77.8803, 18.3789], [77.8802, 18.379], [77.8801, 18.379], [77.88, 18.3791], [77.8799, 18.3793], [77.8798, 18.3794], [77.8797, 18.3796], [77.8796, 18.3797], [77.8793, 18.3799], [77.8791, 18.3799], [77.8786, 18.3801], [77.8782, 18.3802], [77.8783, 18.3803], [77.8784, 18.3804], [77.8785, 18.3805], [77.8784, 18.3807], [77.8784, 18.3808], [77.8782, 18.3809], [77.8781, 18.3809], [77.878, 18.3811], [77.8781, 18.3812], [77.8783, 18.3812], [77.8784, 18.3811], [77.8786, 18.3811], [77.8788, 18.381], [77.879, 18.381], [77.8793, 18.3809], [77.8796, 18.381], [77.8799, 18.381], [77.8801, 18.381], [77.8805, 18.381], [77.8808, 18.3809], [77.8812, 18.3807], [77.8817, 18.381], [77.8822, 18.3816], [77.8823, 18.3816], [77.8824, 18.3816], [77.8822, 18.3812], [77.8821, 18.3808], [77.8822, 18.3806]]]}, "properties": {"objectid": 51617, "statename": "Telanagana", "statecode": "36", "districtname": "Kamareddy", "districtcode": "683", "ulbname": "Banswada", "ulbcode": "900522", "wardname": "15", "wardcode": "15", "id": null, "status": "APPROVED", "misglobalid": null, "approved_by": null, "createdate": 1639743998000, "updateddate": 1641305197000, "globalid": null, "gisglobalid": "51d04960-a2b2-4d56-927b-eb6a4916c05f", "remark": "", "st_area(shape)": 6.4851444133982775e-06, "st_perimeter(shape)": 0.01317112298727795}}, {"type": "Feature", "geometry": {"type": "Polygon", "coordinates": [[[77.8813, 18.3786], [77.8813, 18.3783], [77.8813, 18.3782], [77.8812, 18.378], [77.8812, 18.3779], [77.881, 18.3778], [77.8806, 18.3776], [77.8804, 18.3776], [77.8801, 18.3776], [77.88, 18.3779], [77.8798, 18.3779], [77.8797, 18.3779], [77.8794, 18.3778], [77.8793, 18.3778], [77.8793, 18.378], [77.8794, 18.3782], [77.8795, 18.3783], [77.8795, 18.3784], [77.8793, 18.3786], [77.8791, 18.3787], [77.879, 18.3788], [77.879, 18.379], [77.879, 18.3791], [77.8791, 18.3794], [77.8792, 18.3797], [77.8793, 18.3799], [77.8796, 18.3797], [77.8797, 18.3796], [77.8798, 18.3794], [77.8799, 18.3793], [77.88, 18.3791], [77.8801, 18.379], [77.8802, 18.379], [77.8803, 18.3789], [77.8805, 18.3788], [77.8807, 18.3787], [77.8809, 18.3786], [77.8812, 18.3786], [77.8813, 18.3786]]]}, "properties": {"objectid": 51618, "statename": "Telanagana", "statecode": "36", "districtname": "Kamareddy", "districtcode": "683", "ulbname": "Banswada", "ulbcode": "900522", "wardname": "16", "wardcode": "16", "id": null, "status": "APPROVED", "misglobalid": null, "approved_by": null, "createdate": 1639743998000, "updateddate": 1641305202000, "globalid": null, "gisglobalid": "4099b00a-5a1a-4eff-a58d-d055db1f57b1", "remark": "", "st_area(shape)": 2.757753521259619e-06, "st_perimeter(shape)": 0.007825836904495079}}, {"type": "Feature", "geometry": {"type": "Polygon", "coordinates": [[[77.8858, 18.3735], [77.8857, 18.3734], [77.8856, 18.3734], [77.8849, 18.3738], [77.884, 18.3743], [77.8836, 18.3745], [77.8833, 18.3746], [77.8831, 18.3746], [77.883, 18.3746], [77.8827, 18.375], [77.8825, 18.3753], [77.8823, 18.3755], [77.8821, 18.3757], [77.8819, 18.3759], [77.8816, 18.3762], [77.8814, 18.3764], [77.8812, 18.3765], [77.8808, 18.3767], [77.8803, 18.3767], [77.88, 18.3769], [77.8798, 18.377], [77.8795, 18.3771], [77.8793, 18.3772], [77.8792, 18.3773], [77.8792, 18.3775], [77.8792, 18.3776], [77.8793, 18.3778], [77.8794, 18.3778], [77.8797, 18.3779], [77.8798, 18.3779], [77.88, 18.3779], [77.8801, 18.3776], [77.8804, 18.3776], [77.8806, 18.3776], [77.881, 18.3778], [77.8812, 18.3779], [77.8812, 18.378], [77.8813, 18.3782], [77.8813, 18.3783], [77.8813, 18.3786], [77.8816, 18.3785], [77.882, 18.3785], [77.8823, 18.3784], [77.8824, 18.3782], [77.8826, 18.3779], [77.8829, 18.3778], [77.8831, 18.3777], [77.8835, 18.3775], [77.8837, 18.3774], [77.8838, 18.3771], [77.8838, 18.3769], [77.8837, 18.3765], [77.8835, 18.3761], [77.8834, 18.3758], [77.8833, 18.3756], [77.8832, 18.3755], [77.8831, 18.3754], [77.8832, 18.3752], [77.8837, 18.3751], [77.8844, 18.3752], [77.8854, 18.3751], [77.8859, 18.3749], [77.8862, 18.3747], [77.8863, 18.3746], [77.8861, 18.3743], [77.8858, 18.3736], [77.8858, 18.3735]]]}, "properties": {"objectid": 52390, "statename": "Telanagana", "statecode": "36", "districtname": "Kamareddy", "districtcode": "683", "ulbname": "Banswada", "ulbcode": "900522", "wardname": "17", "wardcode": "17", "id": null, "status": "APPROVED", "misglobalid": null, "approved_by": null, "createdate": 1639743998000, "updateddate": 1641305208000, "globalid": null, "gisglobalid": "dcdd23ac-f48a-4cef-b752-aeb95720fae4", "remark": "", "st_area(shape)": 1.1254190567544767e-05, "st_perimeter(shape)": 0.02094082671742614}}, {"type": "Feature", "geometry": {"type": "Polygon", "coordinates": [[[77.8792, 18.3773], [77.8793, 18.3772], [77.8795, 18.3771], [77.8798, 18.377], [77.88, 18.3769], [77.8803, 18.3767], [77.8808, 18.3767], [77.8812, 18.3765], [77.8814, 18.3764], [77.8816, 18.3762], [77.8819, 18.3759], [77.8821, 18.3757], [77.8823, 18.3755], [77.8825, 18.3753], [77.8827, 18.375], [77.883, 18.3746], [77.8829, 18.3746], [77.8827, 18.3745], [77.8823, 18.3741], [77.8823, 18.374], [77.8822, 18.3737], [77.8822, 18.3735], [77.8823, 18.3733], [77.8823, 18.3731], [77.8821, 18.3732], [77.8818, 18.3732], [77.8816, 18.3732], [77.8813, 18.3734], [77.8808, 18.3737], [77.8806, 18.3737], [77.8805, 18.374], [77.8804, 18.3743], [77.8803, 18.3747], [77.8804, 18.3751], [77.8804, 18.3753], [77.8804, 18.3756], [77.8803, 18.3756], [77.8801, 18.3756], [77.88, 18.3755], [77.8799, 18.3754], [77.8798, 18.3755], [77.8796, 18.3756], [77.8795, 18.3757], [77.8791, 18.3758], [77.8789, 18.3758], [77.8786, 18.3758], [77.8784, 18.3759], [77.8783, 18.376], [77.8782, 18.3761], [77.8779, 18.3762], [77.8775, 18.3763], [77.8772, 18.3765], [77.877, 18.3766], [77.8769, 18.3766], [77.8769, 18.3768], [77.8771, 18.3773], [77.8773, 18.3777], [77.8775, 18.3783], [77.8777, 18.3782], [77.8782, 18.3779], [77.8787, 18.3776], [77.8789, 18.3774], [77.8792, 18.3773]]]}, "properties": {"objectid": 50032, "statename": "Telanagana", "statecode": "36", "districtname": "Kamareddy", "districtcode": "683", "ulbname": "Banswada", "ulbcode": "900522", "wardname": "18", "wardcode": "18", "id": null, "status": "APPROVED", "misglobalid": null, "approved_by": null, "createdate": 1639743998000, "updateddate": 1641305215000, "globalid": null, "gisglobalid": "e3d94dcf-3d67-43ed-a174-e534eadbbd21", "remark": "", "st_area(shape)": 1.1102001821789545e-05, "st_perimeter(shape)": 0.0179762163839543}}, {"type": "Feature", "geometry": {"type": "Polygon", "coordinates": [[[77.8806, 18.3737], [77.8806, 18.3736], [77.8804, 18.3734], [77.8803, 18.3732], [77.8802, 18.3731], [77.8799, 18.3729], [77.8793, 18.3728], [77.8792, 18.3728], [77.879, 18.3727], [77.8789, 18.3727], [77.8788, 18.3728], [77.8787, 18.3728], [77.8783, 18.3726], [77.8781, 18.3726], [77.878, 18.3725], [77.8778, 18.3727], [77.8774, 18.3732], [77.877, 18.3738], [77.8771, 18.3739], [77.8772, 18.374], [77.8773, 18.374], [77.8775, 18.374], [77.8775, 18.3742], [77.8775, 18.3748], [77.8776, 18.375], [77.8777, 18.375], [77.878, 18.3751], [77.8781, 18.3752], [77.8782, 18.3753], [77.8783, 18.3754], [77.8784, 18.3756], [77.8784, 18.3759], [77.8786, 18.3758], [77.8789, 18.3758], [77.8791, 18.3758], [77.8795, 18.3757], [77.8796, 18.3756], [77.8798, 18.3755], [77.8799, 18.3754], [77.88, 18.3755], [77.8801, 18.3756], [77.8803, 18.3756], [77.8804, 18.3756], [77.8804, 18.3753], [77.8804, 18.3751], [77.8803, 18.3747], [77.8804, 18.3743], [77.8805, 18.374], [77.8806, 18.3737]]]}, "properties": {"objectid": 50478, "statename": "Telanagana", "statecode": "36", "districtname": "Kamareddy", "districtcode": "683", "ulbname": "Banswada", "ulbcode": "900522", "wardname": "19", "wardcode": "19", "id": null, "status": "APPROVED", "misglobalid": null, "approved_by": null, "createdate": 1639743998000, "updateddate": 1641305222000, "globalid": null, "gisglobalid": "fdbf24d5-24ae-48f6-8be5-1a5350741f30", "remark": "", "st_area(shape)": 8.205682300992013e-06, "st_perimeter(shape)": 0.011721883444640565}}]}
