{"type":"Topology","arcs":[[[25854,75730],[-1025,-1462]],[[24829,74268],[-114,-365]],[[24715,73903],[-683,804]],[[24032,74707],[-513,73]],[[23519,74780],[57,219]],[[23576,74999],[-456,293]],[[23120,75292],[-911,584]],[[22209,75876],[-1309,74]],[[20900,75950],[-684,292]],[[20216,76242],[-854,365]],[[19362,76607],[171,1462],[-513,4898],[570,3728],[-342,2339],[-1082,877],[285,2632],[3075,1316],[2620,-731],[4441,-1974],[3076,1243],[2334,73]],[[33997,92470],[1481,-2266],[-2278,-4313]],[[33200,85891],[627,-1535]],[[33827,84356],[227,-439]],[[34054,83917],[-5751,-5701]],[[28303,78216],[-2449,-2486]],[[25341,73391],[456,-146]],[[25797,73245],[0,658]],[[25797,73903],[-1082,0]],[[24829,74268],[1025,1462]],[[25854,75730],[2449,2486]],[[28303,78216],[6378,6286]],[[34681,84502],[512,292]],[[35193,84794],[57,-219]],[[35250,84575],[570,-731]],[[35820,83844],[114,-146]],[[35934,83698],[-57,-219]],[[35877,83479],[455,-73]],[[36332,83406],[513,-220]],[[36845,83186],[228,73]],[[37073,83259],[398,-1096]],[[37471,82163],[627,-439]],[[38098,81724],[-342,147]],[[37756,81871],[0,-878]],[[37756,80993],[114,-73]],[[37870,80920],[171,-146]],[[38041,80774],[114,-146]],[[38155,80628],[170,-219]],[[38325,80409],[114,-147]],[[38439,80262],[114,-219]],[[38553,80043],[114,-146]],[[38667,79897],[399,-293]],[[39066,79604],[968,-877]],[[40034,78727],[-1082,-804]],[[38952,77923],[-285,366]],[[38667,78289],[-456,-366]],[[38211,77923],[-284,-219]],[[37927,77704],[-285,438]],[[37642,78142],[-285,585]],[[37357,78727],[0,366]],[[37357,79093],[-455,438]],[[36902,79531],[-570,1243]],[[36332,80774],[-740,0]],[[35592,80774],[-456,-292]],[[35136,80482],[-114,-73]],[[35022,80409],[-398,-512]],[[34624,79897],[-399,-512]],[[34225,79385],[-1822,-2193]],[[32403,77192],[-797,877]],[[31606,78069],[-1082,-731]],[[30524,77338],[-228,-438]],[[30296,76900],[171,-1901]],[[30467,74999],[398,-4678],[-3758,-73]],[[27107,70248],[-1253,-219]],[[25854,70029],[-513,3362]],[[32403,77192],[1822,2193]],[[34225,79385],[399,512]],[[34624,79897],[398,512]],[[35136,80482],[456,292]],[[36332,80774],[570,-1243]],[[37357,79093],[0,-366]],[[37642,78142],[285,-438]],[[38211,77923],[456,366]],[[38667,78289],[285,-366]],[[38952,77923],[1082,804]],[[40034,78727],[171,-219]],[[40205,78508],[569,-1023]],[[40774,77485],[285,-439]],[[41059,77046],[228,-219]],[[41287,76827],[-171,-366]],[[41116,76461],[-114,-146]],[[41002,76315],[-570,-512]],[[40432,75803],[513,-731]],[[40945,75072],[114,-219]],[[41059,74853],[-1196,-1535]],[[39863,73318],[-626,-439]],[[39237,72879],[-741,-511]],[[38496,72368],[-740,-877]],[[37756,71491],[0,-220]],[[37756,71271],[-1367,1243]],[[36389,72514],[-3986,4678]],[[33997,92470],[3360,3947],[3816,585],[1253,2193],[1651,804],[-228,-2558],[2107,804],[2164,-731],[3018,-2413],[-113,-1681],[2847,-1316],[2904,1170],[3189,-292],[854,1754],[2107,-1097],[1652,220],[3417,-1608],[1594,438],[1253,2412],[1765,-3289],[1196,-4898],[741,-1608],[683,-3728]],[[75227,81578],[-456,0]],[[74771,81578],[-113,-512]],[[74658,81066],[-114,-73]],[[74544,80993],[-399,0]],[[74145,80993],[-285,147]],[[73860,81140],[-569,-439]],[[73291,80701],[-171,-512]],[[73120,80189],[-740,-585]],[[72380,79604],[-171,-657]],[[72209,78947],[-1082,-366]],[[71127,78581],[-1367,-439]],[[69760,78142],[-228,-73]],[[69532,78069],[-797,-292]],[[68735,77777],[-3360,-585]],[[65375,77192],[-1367,-146]],[[64008,77046],[-740,73]],[[63268,77119],[-2278,-146]],[[60990,76973],[-455,73]],[[60535,77046],[-1709,-219]],[[58826,76827],[-512,-73]],[[58314,76754],[-1652,-731]],[[56662,76023],[-341,-73]],[[56321,75950],[0,73]],[[56321,76023],[-1025,-73]],[[55296,75950],[-57,-1901]],[[55239,74049],[114,-1389]],[[55353,72660],[-342,-73]],[[55011,72587],[-1367,-146]],[[53644,72441],[-342,219]],[[53302,72660],[-227,292]],[[53075,72952],[-627,-365]],[[52448,72587],[-1708,-804]],[[50740,71783],[-684,-219]],[[50056,71564],[-626,-73]],[[49430,71491],[-228,-366]],[[49202,71125],[-341,-1170]],[[48861,69955],[-741,-292]],[[48120,69663],[-512,-365]],[[47608,69298],[-854,1681]],[[46754,70979],[-684,-439]],[[46070,70540],[-683,366]],[[45387,70906],[-1082,-658]],[[44305,70248],[-57,-512]],[[44248,69736],[57,-658]],[[44305,69078],[512,-438]],[[44817,68640],[627,219]],[[45444,68859],[228,-585]],[[45672,68274],[569,-1243]],[[46241,67031],[-513,293]],[[45728,67324],[-683,292]],[[45045,67616],[-1708,-73]],[[43337,67543],[-2563,-73]],[[40774,67470],[-2221,2559]],[[38553,70029],[-171,219]],[[38382,70248],[-626,1023]],[[37756,71491],[740,877]],[[38496,72368],[741,511]],[[39237,72879],[626,439]],[[39863,73318],[1196,1535]],[[40945,75072],[-513,731]],[[40432,75803],[570,512]],[[41002,76315],[114,146]],[[41287,76827],[-228,219]],[[40774,77485],[-569,1023]],[[39066,79604],[-399,293]],[[38553,80043],[-114,219]],[[38325,80409],[-170,219]],[[38041,80774],[-171,146]],[[37756,80993],[0,878]],[[38098,81724],[-627,439]],[[37471,82163],[-398,1096]],[[37073,83259],[-228,-73]],[[36332,83406],[-455,73]],[[35934,83698],[-114,146]],[[35250,84575],[-57,219]],[[34681,84502],[-627,-585]],[[33827,84356],[-627,1535]],[[33200,85891],[2335,4313],[-1538,2266]],[[38382,70248],[513,-2997],[-1595,-220]],[[37300,67031],[-740,-365]],[[36560,66666],[-399,-292]],[[36161,66374],[-1252,-951]],[[34909,65423],[-171,-292]],[[34738,65131],[-171,0]],[[34567,65131],[-285,219]],[[34282,65350],[-4100,293],[-968,-147]],[[29214,65496],[-285,0]],[[28929,65496],[-1708,-219]],[[27221,65277],[-1367,-146]],[[25854,65131],[-114,1974]],[[25740,67105],[-456,1754]],[[25284,68859],[-56,439]],[[25228,69298],[626,731]],[[27107,70248],[3815,73],[-455,4678]],[[30467,74999],[-171,1901]],[[30524,77338],[1082,731]],[[31606,78069],[4783,-5555]],[[36389,72514],[1993,-2266]],[[1196,45540],[-1196,585],[2050,4752],[-455,1973],[7232,2486],[-114,3582],[569,2193],[1481,804],[456,3874],[2050,658],[0,1681],[1822,1754],[0,4313],[3531,439],[740,1973]],[[20216,76242],[684,-292]],[[22209,75876],[911,-584]],[[23120,75292],[456,-293]],[[23519,74780],[513,-73]],[[24715,73903],[1082,0]],[[25797,73245],[-456,146]],[[25341,73391],[-113,-4093]],[[25284,68859],[456,-1754]],[[25740,67105],[114,-1974]],[[25854,65131],[-1367,-73]],[[24487,65058],[0,-1389]],[[24487,63669],[-569,-146]],[[23918,63523],[-285,0]],[[23633,63523],[-228,-585]],[[23405,62938],[-228,-804]],[[23177,62134],[513,-1389]],[[23690,60745],[-399,-365]],[[23291,60380],[-1139,-1974]],[[22152,58406],[-512,-877]],[[21640,57529],[-570,-878]],[[21070,56651],[-968,-1096]],[[20102,55555],[-171,-146]],[[19931,55409],[-626,-585]],[[19305,54824],[-1424,-950]],[[17881,53874],[-1423,-585]],[[16458,53289],[-342,-73]],[[16116,53216],[-1651,-658]],[[14465,52558],[-6834,-2558]],[[7631,50000],[-513,-439]],[[7118,49561],[-968,-877]],[[6150,48684],[-1366,-1170]],[[4784,47514],[-3588,-1974]],[[23918,63523],[569,146]],[[24487,63669],[0,1389]],[[25854,65131],[1367,146]],[[27221,65277],[1708,219]],[[29214,65496],[171,-2046]],[[29385,63450],[227,-147]],[[29612,63303],[-56,-877]],[[29556,62426],[-57,-658]],[[29499,61768],[1936,-146]],[[31435,61622],[285,-73]],[[31720,61549],[-3588,-5775]],[[28132,55774],[-1709,-2704],[-968,-1682],[-341,-658],[-684,-1242],[-569,-950],[-456,-878],[-341,-731],[-1082,-1973],[-456,-731],[-683,-1316],[-1310,-2266]],[[19533,40643],[-854,-1535]],[[18679,39108],[-2905,2924],[-1082,3216],[-4157,-365],[-2221,-1828],[-2221,73],[-1480,1462],[-2164,-365],[-1253,1315]],[[1196,45540],[3588,1974]],[[4784,47514],[1366,1170]],[[7118,49561],[513,439]],[[7631,50000],[6834,2558]],[[14465,52558],[1651,658]],[[16458,53289],[1423,585]],[[17881,53874],[1424,950]],[[19305,54824],[626,585]],[[19931,55409],[171,146]],[[20102,55555],[968,1096]],[[21070,56651],[570,878]],[[21640,57529],[512,877]],[[22152,58406],[1139,1974]],[[23690,60745],[-513,1389]],[[23405,62938],[228,585]],[[34567,65131],[114,0]],[[34681,65131],[171,-804]],[[34852,64327],[1025,-2266]],[[35877,62061],[227,-439]],[[36104,61622],[627,-1242]],[[36731,60380],[57,-147]],[[36788,60233],[569,-438]],[[37357,59795],[-57,0]],[[37300,59795],[-455,-366]],[[36845,59429],[-456,-146]],[[36389,59283],[-968,-73]],[[35421,59210],[-1481,-439]],[[33940,58771],[0,-1535]],[[33940,57236],[57,-585]],[[33997,56651],[57,-877]],[[34054,55774],[57,-658]],[[34111,55116],[-3701,-1388]],[[30410,53728],[-627,-220]],[[29783,53508],[-2562,-1096]],[[27221,52412],[171,-1097]],[[27392,51315],[398,-2339]],[[27790,48976],[57,-658]],[[27847,48318],[456,220]],[[28303,48538],[57,0]],[[28360,48538],[227,-1682]],[[28587,46856],[-57,-365]],[[28530,46491],[-56,-658]],[[28474,45833],[284,146]],[[28758,45979],[228,-439]],[[28986,45540],[171,-219]],[[29157,45321],[-2164,-950]],[[26993,44371],[1310,-2193]],[[28303,42178],[227,-1754]],[[28530,40424],[-626,-74]],[[27904,40350],[-1424,-365]],[[26480,39985],[0,-950]],[[26480,39035],[-1936,-2705]],[[24544,36330],[1538,-2266],[-2107,-3801]],[[23975,30263],[-342,-585]],[[23633,29678],[-2506,3874],[684,2266],[-2335,-73],[-797,3363]],[[18679,39108],[854,1535]],[[19533,40643],[968,1608],[1936,3436],[797,1535],[285,658],[399,584],[171,366],[170,365],[171,366],[854,1535],[684,1096],[854,1389],[1310,2193]],[[28132,55774],[3588,5775]],[[31435,61622],[-1936,146]],[[29556,62426],[56,877]],[[29385,63450],[-114,2046],[5011,-146]],[[40774,67470],[2449,-2485]],[[43223,64985],[341,-439]],[[43564,64546],[513,-512]],[[44077,64034],[3360,-1608]],[[47437,62426],[228,-365]],[[47665,62061],[-285,-658]],[[47380,61403],[-285,-585]],[[47095,60818],[-171,-219]],[[46924,60599],[-398,-1024]],[[46526,59575],[-57,0]],[[46469,59575],[-570,0]],[[45899,59575],[-683,-146]],[[45216,59429],[-570,-292]],[[44646,59137],[-341,-146]],[[44305,58991],[-968,-220]],[[43337,58771],[-627,-146]],[[42710,58625],[-455,-219]],[[42255,58406],[-342,658]],[[41913,59064],[-513,292]],[[41400,59356],[-1309,219]],[[40091,59575],[-1196,220]],[[38895,59795],[-1139,292]],[[37756,60087],[-740,219]],[[37016,60306],[-285,74]],[[36731,60380],[-627,1242]],[[36104,61622],[-227,439]],[[35877,62061],[-1025,2266]],[[34852,64327],[-171,804]],[[34681,65131],[57,0]],[[34738,65131],[171,292]],[[34909,65423],[1252,951]],[[36560,66666],[740,365]],[[37300,67031],[1652,220],[-399,2778]],[[38553,70029],[2221,-2559]],[[46241,67031],[-569,1243]],[[45672,68274],[-228,585]],[[44817,68640],[-512,438]],[[44305,69078],[-57,658]],[[44248,69736],[57,512]],[[44305,70248],[1082,658]],[[46070,70540],[684,439]],[[46754,70979],[854,-1681]],[[47608,69298],[512,365]],[[48861,69955],[341,1170]],[[49430,71491],[626,73]],[[50740,71783],[1708,804]],[[52448,72587],[627,365]],[[53302,72660],[171,-146]],[[53473,72514],[0,-1389]],[[53473,71125],[456,0]],[[53929,71125],[0,-146]],[[53929,70979],[-171,-1316]],[[53758,69663],[-285,0]],[[53473,69663],[0,-1681]],[[53473,67982],[57,-220]],[[53530,67762],[-1310,-292]],[[52220,67470],[-1480,-292]],[[50740,67178],[-911,-147]],[[49829,67031],[114,-1023]],[[49943,66008],[0,-950]],[[49943,65058],[284,-877]],[[50227,64181],[456,-1097]],[[50683,63084],[342,-658]],[[51025,62426],[-855,-365]],[[50170,62061],[-1139,-220]],[[49031,61841],[-683,0]],[[48348,61841],[-342,220]],[[48006,62061],[-114,0]],[[47892,62061],[-227,0]],[[47437,62426],[-3360,1608]],[[43564,64546],[-341,439]],[[43223,64985],[-2449,2485]],[[40774,67470],[2563,73]],[[43337,67543],[1708,73]],[[45728,67324],[513,-293]],[[49829,67031],[911,147]],[[50740,67178],[1480,292]],[[52220,67470],[1310,292]],[[53473,67982],[0,1681]],[[53758,69663],[171,1316]],[[53929,71125],[-456,0]],[[53473,71125],[0,1389]],[[53473,72514],[171,-73]],[[53644,72441],[1367,146]],[[55011,72587],[342,73]],[[55353,72660],[-114,1389]],[[55239,74049],[57,1901]],[[55296,75950],[1025,73]],[[56321,75950],[341,73]],[[56662,76023],[1652,731]],[[58826,76827],[1709,219]],[[60990,76973],[2278,146]],[[63268,77119],[740,-73]],[[65375,77192],[3360,585]],[[68735,77777],[797,292]],[[69760,78142],[1367,439]],[[72209,78947],[171,657]],[[73120,80189],[171,512]],[[73291,80701],[569,439]],[[73860,81140],[285,-147]],[[74544,80993],[114,73]],[[74771,81578],[456,0]],[[75227,81578],[626,-950],[1367,-4752],[3531,1243],[1765,2997],[1481,1097],[3701,73],[11105,3362],[1196,146],[-228,-8698],[-2676,731],[-1652,-2632],[-57,-3362],[-6150,-5044],[-1481,-2193],[-1822,-5994],[-911,-1097],[-342,-2558],[-1310,-1535],[-3018,-2047],[-1253,1316],[-2334,-731],[-285,-2412],[1822,-293],[-569,-2047],[569,-3289],[-3531,2266],[-1936,-2047],[-3189,3436],[-1196,0]],[[68450,46564],[513,1023]],[[68963,47587],[-456,366]],[[68507,47953],[-4897,2997]],[[63610,50950],[-570,438]],[[63040,51388],[-1708,1316]],[[61332,52704],[-1765,1170]],[[59567,53874],[-1367,877]],[[58200,54751],[-740,658]],[[57460,55409],[-399,146]],[[57061,55555],[-570,292]],[[56491,55847],[-797,512]],[[55694,56359],[-512,585]],[[55182,56944],[-513,365]],[[54669,57309],[-569,658]],[[54100,57967],[0,146]],[[54100,58113],[-968,1024]],[[53132,59137],[-399,658]],[[52733,59795],[-114,73]],[[52619,59868],[-285,-293]],[[52334,59575],[-227,-219]],[[52107,59356],[-513,-950]],[[51594,58406],[0,-585]],[[51594,57821],[0,-439]],[[51594,57382],[-968,585]],[[50626,57967],[-1139,439]],[[49487,58406],[285,877]],[[49772,59283],[683,439]],[[50455,59722],[285,365]],[[50740,60087],[0,219]],[[50740,60306],[-57,878]],[[50683,61184],[342,1242]],[[51025,62426],[-342,658]],[[50683,63084],[-456,1097]],[[49943,65058],[0,950]],[[49943,66008],[-114,1023]],[[46526,59575],[398,1024]],[[47095,60818],[285,585]],[[47380,61403],[512,658]],[[48006,62061],[342,-220]],[[48348,61841],[683,0]],[[50170,62061],[855,365]],[[50683,61184],[57,-878]],[[50740,60087],[-285,-365]],[[50455,59722],[-683,-439]],[[49487,58406],[1139,-439]],[[50626,57967],[968,-585]],[[51594,57382],[0,439]],[[51594,57821],[0,585]],[[51594,58406],[513,950]],[[52334,59575],[285,293]],[[52733,59795],[399,-658]],[[53132,59137],[968,-1024]],[[54100,57967],[569,-658]],[[54669,57309],[513,-365]],[[55182,56944],[512,-585]],[[55694,56359],[797,-512]],[[56491,55847],[570,-292]],[[57460,55409],[740,-658]],[[58200,54751],[1367,-877]],[[59567,53874],[1765,-1170]],[[61332,52704],[1708,-1316]],[[63040,51388],[570,-438]],[[63610,50950],[4897,-2997]],[[68507,47953],[456,-366]],[[68963,47587],[-513,-1023]],[[68450,46564],[114,-2851],[-6093,-1170],[683,-2997],[-1822,-804],[-3189,-2266],[-1822,-1827],[341,-1170]],[[56662,33479],[-2221,-1389],[-1993,-731],[-2904,-731]],[[49544,30628],[-285,-73]],[[49259,30555],[-398,2047],[-741,4751],[-398,3948]],[[47722,41301],[-228,1169]],[[47494,42470],[-57,658]],[[47437,43128],[171,1316]],[[47608,44444],[-57,1316]],[[47551,45760],[-797,3947],[-969,0]],[[45785,49707],[-1195,73]],[[44590,49780],[-1481,293]],[[43109,50073],[399,1242]],[[43508,51315],[113,804]],[[43621,52119],[-113,73]],[[43508,52192],[56,878]],[[43564,53070],[513,1608]],[[44077,54678],[-683,658]],[[43394,55336],[-285,-146]],[[43109,55190],[-683,-658]],[[42426,54532],[-57,146]],[[42369,54678],[0,658]],[[42369,55336],[1025,219]],[[43394,55555],[512,365]],[[43906,55920],[1196,878]],[[45102,56798],[456,365]],[[45558,57163],[170,146]],[[45728,57309],[342,293]],[[46070,57602],[627,365]],[[46697,57967],[113,220]],[[46810,58187],[171,365]],[[46981,58552],[342,585]],[[47323,59137],[-456,0]],[[46867,59137],[-341,-219]],[[46526,58918],[0,146]],[[46526,59064],[0,511]],[[40432,55116],[-911,804]],[[39521,55920],[57,1389]],[[39578,57309],[-171,878]],[[39407,58187],[-57,584]],[[39350,58771],[2791,-511]],[[42141,58260],[114,146]],[[42710,58625],[627,146]],[[43337,58771],[968,220]],[[44305,58991],[341,146]],[[44646,59137],[570,292]],[[45899,59575],[570,0]],[[46526,59575],[0,-511]],[[46526,58918],[341,219]],[[47323,59137],[-342,-585]],[[46981,58552],[-171,-365]],[[46697,57967],[-627,-365]],[[46070,57602],[-342,-293]],[[45558,57163],[-456,-365]],[[45102,56798],[-1196,-878]],[[43906,55920],[-512,-365]],[[43394,55555],[-1025,-219]],[[42369,55336],[0,-658]],[[42369,54678],[0,-366]],[[42369,54312],[-171,-1827]],[[42198,52485],[740,-1097]],[[42938,51388],[-57,-1681],[-2449,146]],[[40432,49853],[57,73]],[[40489,49926],[57,220]],[[40546,50146],[114,804]],[[40660,50950],[0,1023]],[[40660,51973],[-171,-146]],[[40489,51827],[-569,-439]],[[39920,51388],[-968,658]],[[38952,52046],[-57,0]],[[38895,52046],[740,1462]],[[39635,53508],[114,293]],[[39749,53801],[683,1315]],[[29783,53508],[627,220]],[[30410,53728],[3701,1388]],[[34111,55116],[-57,658]],[[34054,55774],[-57,877]],[[33940,57236],[0,1535]],[[33940,58771],[1481,439]],[[35421,59210],[968,73]],[[36845,59429],[455,366]],[[37357,59795],[-569,438]],[[36731,60380],[285,-74]],[[37016,60306],[740,-219]],[[37756,60087],[1139,-292]],[[38895,59795],[1196,-220]],[[40091,59575],[1309,-219]],[[41400,59356],[513,-292]],[[41913,59064],[342,-658]],[[42141,58260],[-2791,511]],[[39350,58771],[57,-584]],[[39578,57309],[-57,-1389]],[[39521,55920],[911,-804]],[[40432,55116],[-683,-1315]],[[39749,53801],[-399,219]],[[39350,54020],[-911,658]],[[38439,54678],[171,292]],[[38610,54970],[171,1535]],[[38781,56505],[0,366]],[[38781,56871],[-4157,-1535],[0,-1316],[57,-366],[-57,-657],[114,-147]],[[34738,52850],[284,-219]],[[35022,52631],[-113,-658]],[[34909,51973],[2334,-292]],[[37243,51681],[-455,-804]],[[36788,50877],[114,-73]],[[36902,50804],[740,-585]],[[37642,50219],[-1310,-2924]],[[36332,47295],[-1253,-658]],[[35079,46637],[-740,-219]],[[34339,46418],[-1424,-73]],[[32915,46345],[-1822,-512]],[[31093,45833],[-342,-73]],[[30751,45760],[-1594,-439]],[[28986,45540],[-228,439]],[[28758,45979],[-284,-146]],[[28530,46491],[57,365]],[[28587,46856],[-227,1682]],[[28303,48538],[-456,-220]],[[27847,48318],[-57,658]],[[27790,48976],[-398,2339]],[[27221,52412],[2562,1096]],[[38781,56871],[0,-366]],[[38781,56505],[-171,-1535]],[[38439,54678],[911,-658]],[[39350,54020],[399,-219]],[[39635,53508],[-740,-1462]],[[38952,52046],[968,-658]],[[40489,51827],[171,146]],[[40660,51973],[0,-1023]],[[40660,50950],[-114,-804]],[[40489,49926],[-114,-146]],[[40375,49780],[-911,-1096]],[[39464,48684],[-57,-146]],[[39407,48538],[-227,-658]],[[39180,47880],[-114,-1974]],[[39066,45906],[-285,-1535]],[[38781,44371],[683,-8114]],[[39464,36257],[114,-1828]],[[39578,34429],[-341,-1681],[0,-292],[1936,-4094]],[[41173,28362],[0,-731]],[[41173,27631],[-456,-2046]],[[40717,25585],[-228,-366]],[[40489,25219],[-1708,-2047]],[[38781,23172],[-1310,-585]],[[37471,22587],[-3474,-3362]],[[33997,19225],[-1936,292],[-2392,1901],[-1195,-1535],[-3645,2997],[-456,2047],[513,4093],[-1253,658]],[[23633,29678],[342,585]],[[23975,30263],[2164,3801],[-1595,2266]],[[24544,36330],[2050,1828],[-114,877]],[[26480,39035],[0,950]],[[26480,39985],[1424,365]],[[27904,40350],[626,74]],[[28530,40424],[-227,1754]],[[28303,42178],[-1310,2193]],[[26993,44371],[3758,1389]],[[30751,45760],[342,73]],[[31093,45833],[1822,512]],[[32915,46345],[1424,73]],[[34339,46418],[740,219]],[[35079,46637],[1253,658]],[[36332,47295],[1310,2924]],[[37642,50219],[-740,585]],[[36788,50877],[455,804]],[[37243,51681],[-2334,292]],[[34909,51973],[113,658]],[[35022,52631],[-284,219]],[[34738,52850],[-114,2413],[4157,1608]],[[42938,51388],[-740,1097]],[[42198,52485],[171,1827]],[[42369,54312],[57,220]],[[42426,54532],[683,658]],[[43394,55336],[683,-658]],[[44077,54678],[-513,-1608]],[[43508,52192],[113,-73]],[[43508,51315],[-399,-1242]],[[43109,50073],[1481,-293]],[[44590,49780],[1195,-73]],[[45785,49707],[912,0],[854,-3947]],[[47551,45760],[57,-1316]],[[47608,44444],[-171,-1316]],[[47494,42470],[228,-1169]],[[47722,41301],[57,-1097],[455,-3874],[456,-2924],[569,-2851]],[[49544,30628],[3645,878],[1309,584],[570,293],[1594,1096]],[[56662,33479],[1481,-3728],[-1367,-438],[-1025,-2120],[-854,-4167],[-1025,-1096],[-570,-5263],[-2676,-1609],[1196,-9576],[-513,-3289],[-5011,-2193],[-1310,365],[-1253,3436],[-2335,5044],[-740,4532],[-1594,3728],[-3417,512],[-1652,1608]],[[33997,19225],[3474,3362]],[[38781,23172],[1708,2047]],[[40717,25585],[456,2046]],[[41173,27631],[0,731]],[[41173,28362],[-171,658],[-1765,3509],[341,1900]],[[39578,34429],[-114,1828]],[[39464,36257],[-683,8114]],[[38781,44371],[285,1535]],[[39066,45906],[114,1974]],[[39180,47880],[227,658]],[[39464,48684],[911,1096]],[[40375,49780],[57,73]],[[40432,49853],[2449,-219],[57,1754]]],"transform":{"scale":[0.0000017560175601756303,0.0000013680136801368106],"translate":[69.997,22.3813]},"objects":{"wards":{"type":"GeometryCollection","geometries":[{"arcs":[[0,1,2,3,4,5,6,7,8,9,10,11,12,13,14,15]],"type":"Polygon","properties":{"objectid":51310,"statename":"Gujarat","statecode":"24","districtname":"Jamnagar","districtcode":"477","ulbname":"Jamnagar","ulbcode":"802516","wardname":"Bedi","wardcode":"1","id":null,"status":"APPROVED","misglobalid":null,"approved_by":"ULB Nodal Officer","createdate":1639826685000,"updateddate":1639998139000,"globalid":"Balo6B6c-cP4c-PKKl-Qdlm-onK6nBPdsKss","gisglobalid":"02c3d4b0-1b95-4bf8-b50d-6fbc48547a8a","remark":"Approved","st_area(shape)":0.000533447198268052,"st_perimeter(shape)":0.10094087786544449}},{"arcs":[[16,17,18,-2,19,20,21,22,23,24,25,26,27,28,29,30,31,32,33,34,35,36,37,38,39,40,41,42,43,44,45,46,47,48,49,50,51,52,53,54,55,56,57,58,59,60,61,62,63,64]],"type":"Polygon","properties":{"objectid":51712,"statename":"Gujarat","statecode":"24","districtname":"Jamnagar","districtcode":"477","ulbname":"Jamnagar","ulbcode":"802516","wardname":"Gandhinagar Railway Station","wardcode":"2","id":null,"status":"APPROVED","misglobalid":null,"approved_by":"ULB Nodal Officer","createdate":1639830273000,"updateddate":1639998255000,"globalid":"maanRc4m-6QKB-P454-sodm-5do4RmPs4R6K","gisglobalid":"05d7809b-1df1-4b0b-a988-c7058932d604","remark":"Approved","st_area(shape)":0.000172061592713778,"st_perimeter(shape)":0.09189802244496739}},{"arcs":[[65,66,67,-55,68,-53,69,-51,70,-49,71,-47,72,73,74,75,76,77,78,79,80,81,82,83,84,85,86,87,88,89,90]],"type":"Polygon","properties":{"objectid":51353,"statename":"Gujarat","statecode":"24","districtname":"Jamnagar","districtcode":"477","ulbname":"Jamnagar","ulbcode":"802516","wardname":"Patel Colony","wardcode":"3","id":null,"status":"APPROVED","misglobalid":null,"approved_by":"ULB Nodal Officer","createdate":1639830988000,"updateddate":1639998275000,"globalid":"Q6nQ4Q5o-lnmP-PaQl-RcRQ-Q4mPmBmRdBdc","gisglobalid":"6839be59-47c6-499b-92c5-f022975d2d30","remark":"Approved","st_area(shape)":0.00010761272899404526,"st_perimeter(shape)":0.0470920237223403}},{"arcs":[[91,92,93,94,95,96,97,98,99,100,101,102,103,104,105,106,107,108,109,110,111,112,113,114,115,116,117,118,119,120,121,122,123,124,125,126,127,128,129,130,131,132,133,134,135,136,137,138,139,140,141,142,143,144,145,146,-89,147,148,149,150,-84,151,152,153,-80,154,-78,155,-76,-43,156,-41,157,-39,158,-37,159,-35,160,-33,161,162,163,-29,164,-27,165,-25,166,-23,167,-14,168,169]],"type":"Polygon","properties":{"objectid":51724,"statename":"Gujarat","statecode":"24","districtname":"Jamnagar","districtcode":"477","ulbname":"Jamnagar","ulbcode":"802516","wardname":"Navagam Ghed","wardcode":"4","id":null,"status":"APPROVED","misglobalid":null,"approved_by":null,"createdate":1639833143000,"updateddate":1641035683000,"globalid":null,"gisglobalid":"eecb4311-4e48-4347-868c-c85b8a7e6bd7","remark":"Approved","st_area(shape)":0.0018548834620398557,"st_perimeter(shape)":0.24424266125646998}},{"arcs":[[170,171,172,173,174,175,176,177,178,179,180,181,182,183,184,-64,185,186,-61,187,188,189]],"type":"Polygon","properties":{"objectid":52949,"statename":"Gujarat","statecode":"24","districtname":"Jamnagar","districtcode":"477","ulbname":"Jamnagar","ulbcode":"802516","wardname":"Sarusection Road Khodiyar Colony","wardcode":"5","id":null,"status":"APPROVED","misglobalid":null,"approved_by":"ULB Nodal Officer","createdate":1639995132000,"updateddate":1639998366000,"globalid":"4RaQ445c-Ka44-Ps6m-RRaR-ldBQdRslBcsm","gisglobalid":"aaf64928-ce31-46a4-bbb5-ba1bcb8b839e","remark":"Approved","st_area(shape)":0.00022210715955539692,"st_perimeter(shape)":0.07361031858664294}},{"arcs":[[190,-10,191,-8,192,193,-5,194,-3,195,-18,196,197,-184,198,199,200,201,202,203,204,205,206,207,208,209,210,211,212,213,214,215,216,217,218,219,220,221,222]],"type":"Polygon","properties":{"objectid":52548,"statename":"Gujarat","statecode":"24","districtname":"Jamnagar","districtcode":"477","ulbname":"Jamnagar","ulbcode":"802516","wardname":"Wulan Mill Digjam Road","wardcode":"6","id":null,"status":"APPROVED","misglobalid":null,"approved_by":"ULB Nodal Officer","createdate":1639828872000,"updateddate":1639998392000,"globalid":"PsPsK4RQ-n5sm-P665-RRnB-RRc6sncnsnl5","gisglobalid":"ac618ea3-8586-4c97-bdd5-51102466134e","remark":"Approved","st_area(shape)":0.0007721767283531628,"st_perimeter(shape)":0.16894509406197936}},{"arcs":[[223,224,-201,225,226,-179,227,228,229,230,231,232,233,234,235,236,237,238,-221,239,240,241,-217,242,243,244,245,246,247,248,249,-208,250,-206,251,-204]],"type":"Polygon","properties":{"objectid":54005,"statename":"Gujarat","statecode":"24","districtname":"Jamnagar","districtcode":"477","ulbname":"Jamnagar","ulbcode":"802516","wardname":" Mehul Nagar Telephone Exchange 80Ft. Road","wardcode":"7","id":null,"status":"APPROVED","misglobalid":null,"approved_by":"ULB Nodal Officer","createdate":1639995164000,"updateddate":1639998411000,"globalid":"KRPdP5cd-d5Kd-PsBo-ao6d-alPdBQ6anQ4d","gisglobalid":"4f937a19-a63e-41b3-a1cb-b4fb362571a5","remark":"Approved","st_area(shape)":0.0006251023623764064,"st_perimeter(shape)":0.165606302097413}},{"arcs":[[-177,252,253,254,255,256,257,258,259,260,261,262,263,264,265,266,267,268,269,270,271,272,273,274,275,276,277,278,279,280,281,282,283,284,285,286,287,288,289,290,291,292,293,294,-233,295,-231,296,-229,297]],"type":"Polygon","properties":{"objectid":52950,"statename":"Gujarat","statecode":"24","districtname":"Jamnagar","districtcode":"477","ulbname":"Jamnagar","ulbcode":"802516","wardname":"  Ranjitnagar Main Area","wardcode":"8","id":null,"status":"APPROVED","misglobalid":null,"approved_by":"ULB Nodal Officer","createdate":1639995191000,"updateddate":1639998422000,"globalid":"cm6sBnaP-cl6B-PQ5K-RnlR-QBldQnnclQQd","gisglobalid":"abd5332c-f066-464c-add2-5fe5c40feeb4","remark":"Approved","st_area(shape)":0.0004300018129852366,"st_perimeter(shape)":0.16073543389463996}},{"arcs":[[298,299,300,301,302,303,304,305,306,307,308,309,310,311,312,313,314,315,316,317,318,319,320,321,322,323,324,325,326,327,328,-173,329,330,331]],"type":"Polygon","properties":{"objectid":53627,"statename":"Gujarat","statecode":"24","districtname":"Jamnagar","districtcode":"477","ulbname":"Jamnagar","ulbcode":"802516","wardname":"Lal Banglow","wardcode":"9","id":null,"status":"APPROVED","misglobalid":null,"approved_by":"ULB Nodal Officer","createdate":1639995263000,"updateddate":1639998436000,"globalid":"dooBQK4c-4ola-PsKa-aRBa-5BQslmPBB64o","gisglobalid":"219de559-8ea5-43cf-91f4-5aa67da03127","remark":"Approved","st_area(shape)":0.00017608843324184973,"st_perimeter(shape)":0.06325845078000614}},{"arcs":[[332,333,-138,334,335,336,337,-133,338,339,340,-129,341,-127,342,-125,343,344,-122,345,346,347,348,349,350,351,352,353,354,355,356,357,358,359,360,361,362,363,364,365,366,-303,367,-301,368,369,370,371,-142,372]],"type":"Polygon","properties":{"objectid":53628,"statename":"Gujarat","statecode":"24","districtname":"Jamnagar","districtcode":"477","ulbname":"Jamnagar","ulbcode":"802516","wardname":"Subhash Bridge &Amp; Amp","wardcode":"10","id":null,"status":"APPROVED","misglobalid":null,"approved_by":"ULB Nodal Officer","createdate":1639995318000,"updateddate":1639998445000,"globalid":"5QPQcBln-dPmP-PdRd-R6dP-nKQRsRo5Rand","gisglobalid":"9b1ae3b6-1c89-462b-97f2-57e0be60130b","remark":"Approved","st_area(shape)":0.00016357559417325013,"st_perimeter(shape)":0.0792883753985652}},{"arcs":[[373,374,375,-353,376,-351,377,-349,378,379,380,381,382,383,384,385,-115,386,387,-112,388,-110,389,390,-107,391,392,-104,393,-102,394,-100,395,396,397,-96,398,-94,399,400,401,402,403,404,405,406,407,408,409,410,411,412,413,414,415,416,417,418,419,420,421,422,423,424,425,426,427,428,429,430,431,432,433,-359,434,435]],"type":"Polygon","properties":{"objectid":54792,"statename":"Gujarat","statecode":"24","districtname":"Jamnagar","districtcode":"477","ulbname":"Jamnagar","ulbcode":"802516","wardname":" Gulabnagar Area &Amp; Amp","wardcode":"11","id":null,"status":"APPROVED","misglobalid":null,"approved_by":null,"createdate":1639998079000,"updateddate":1641035656000,"globalid":null,"gisglobalid":"1fa4e309-2f34-4d24-9cf4-56825adb50a1","remark":"Approved","st_area(shape)":0.0026318390462400604,"st_perimeter(shape)":0.3149356957707956}},{"arcs":[[436,-306,437,438,-366,439,440,-363,441,-432,442,-430,443,444,-427,445,446,447,448,449,-421,450,-419,451,452,-416,453,454,455,456,457,-410,458,459,460,461,462,463,464,465,466,467,468,469,470,471,472,473,474,475,476,477,478,479,480,481,482,483,484,485,486,487,488,489,490,491,492,493,494,495,496,497,498,499,500]],"type":"Polygon","properties":{"objectid":54786,"statename":"Gujarat","statecode":"24","districtname":"Jamnagar","districtcode":"477","ulbname":"Jamnagar","ulbcode":"802516","wardname":" Darbar Ghadh Area","wardcode":"12","id":null,"status":"APPROVED","misglobalid":null,"approved_by":"ULB Nodal Officer","createdate":1639995683000,"updateddate":1639998454000,"globalid":"cano4n56-aad5-Pmms-QRsl-Qmocl555KK6a","gisglobalid":"a849f4b7-5683-460b-972a-fc53ee3f2eb1","remark":"Approved","st_area(shape)":0.000996757503682465,"st_perimeter(shape)":0.18689262102130683}},{"arcs":[[501,502,503,504,505,506,-315,507,508,509,510,-310,511,-308,512,-500,513,-498,514,515,-495,516,517,-492,518,519,520,521,522,523,524,525,526,527,528,529,530,531,532,533,534,535,536,537]],"type":"Polygon","properties":{"objectid":52954,"statename":"Gujarat","statecode":"24","districtname":"Jamnagar","districtcode":"477","ulbname":"Jamnagar","ulbcode":"802516","wardname":" Hawai Chowk, Kishan Chowk","wardcode":"13","id":null,"status":"APPROVED","misglobalid":null,"approved_by":"ULB Nodal Officer","createdate":1639996051000,"updateddate":1639998465000,"globalid":"doca4a6Q-Kln4-PlQo-sK65-Kmd4n6mQRKBd","gisglobalid":"1d990036-c8bf-4164-9abf-e9ef43315794","remark":"Approved","st_area(shape)":0.00008316821767746762,"st_perimeter(shape)":0.057263781776739235}},{"arcs":[[538,539,540,541,-266,542,543,544,-262,545,-260,546,-258,547,548,549,550,551,552,553,-507,554,555,-504,556,557,558,559,560,561,562,563,564,565,566,567,568,569,570,571,572,573,574,575,576,577,-282,578,579,-279,580,581,-276,582,583,584,-272,585]],"type":"Polygon","properties":{"objectid":54409,"statename":"Gujarat","statecode":"24","districtname":"Jamnagar","districtcode":"477","ulbname":"Jamnagar","ulbcode":"802516","wardname":"Digvijay Plot Area & Amp; Amp","wardcode":"14","id":null,"status":"APPROVED","misglobalid":null,"approved_by":"ULB Nodal Officer","createdate":1639995857000,"updateddate":1639998474000,"globalid":"Rmn44c4m-KaKl-Pls6-RoBm-4snnc5PKKadl","gisglobalid":"e210e50d-0c79-4d3c-85b3-1db211c454be","remark":"Approved","st_area(shape)":0.00021643694386092594,"st_perimeter(shape)":0.10911242230364059}},{"arcs":[[586,587,-562,588,589,-537,590,-535,591,-533,592,593,594,-529,595,596,597,598,599,600,601,602,603,604,605,606,607,608,609,610,611,612,613,614,615,616,617,618,619,620,621,622,623,624,625,626,-570,627,628,629,630,631]],"type":"Polygon","properties":{"objectid":53629,"statename":"Gujarat","statecode":"24","districtname":"Jamnagar","districtcode":"477","ulbname":"Jamnagar","ulbcode":"802516","wardname":"Sadhna Colony","wardcode":"15","id":null,"status":"APPROVED","misglobalid":null,"approved_by":"ULB Nodal Officer","createdate":1639996011000,"updateddate":1639998484000,"globalid":"KmBssQ5K-KBKm-PR56-anma-5ms4QKRdlQom","gisglobalid":"575d5d4c-917d-44b7-aded-4d2657ed8fe5","remark":"Approved","st_area(shape)":0.0009158706716136562,"st_perimeter(shape)":0.17138867819045883}},{"arcs":[[632,633,634,635,-484,636,637,-481,638,-479,639,640,641,642,643,644,-472,645,646,-469,647,648,649,-609,650,-607,651,652,653,654,655,656,657,658,-598,659,660,661]],"type":"Polygon","properties":{"objectid":54787,"statename":"Gujarat","statecode":"24","districtname":"Jamnagar","districtcode":"477","ulbname":"Jamnagar","ulbcode":"802516","wardname":"Ranjitsagar Road Patel Park Area","wardcode":"16","id":null,"status":"APPROVED","misglobalid":null,"approved_by":"ULB Nodal Officer","createdate":1639996037000,"updateddate":1639998495000,"globalid":"mc6oaoBR-naRc-P6Pa-QQlB-lcKB65dKBmlB","gisglobalid":"a5c16bc1-0212-404f-900e-38fa3444cb79","remark":"Approved","st_area(shape)":0.0013502284120962724,"st_perimeter(shape)":0.2298291774663986}}]}}}