{"type": "FeatureCollection", "features": [{"type": "Feature", "geometry": {"type": "Polygon", "coordinates": [[[75.7135, 32.9891], [75.7137, 32.9892], [75.7143, 32.9893], [75.7149, 32.9894], [75.7152, 32.9887], [75.7155, 32.9877], [75.7157, 32.9869], [75.716, 32.9862], [75.7166, 32.9854], [75.717, 32.985], [75.7175, 32.9845], [75.7176, 32.9837], [75.7176, 32.9832], [75.7176, 32.9825], [75.7175, 32.9821], [75.7177, 32.9816], [75.718, 32.9811], [75.7183, 32.9808], [75.7185, 32.9806], [75.7185, 32.9804], [75.7184, 32.9802], [75.7183, 32.9802], [75.7182, 32.9801], [75.7177, 32.98], [75.7174, 32.98], [75.7173, 32.9799], [75.7171, 32.9799], [75.7168, 32.9799], [75.7166, 32.9801], [75.7165, 32.9803], [75.7165, 32.9806], [75.7165, 32.981], [75.7165, 32.9813], [75.7166, 32.9817], [75.7161, 32.9823], [75.7162, 32.9826], [75.7161, 32.9829], [75.7162, 32.9829], [75.716, 32.9831], [75.7159, 32.9834], [75.7158, 32.9837], [75.7158, 32.984], [75.7158, 32.9842], [75.7159, 32.9844], [75.7157, 32.9847], [75.7155, 32.9849], [75.7152, 32.985], [75.715, 32.9852], [75.7149, 32.9852], [75.7148, 32.9854], [75.7145, 32.9856], [75.7142, 32.986], [75.714, 32.9863], [75.7141, 32.9868], [75.7141, 32.9871], [75.7141, 32.9876], [75.714, 32.9879], [75.7137, 32.9887], [75.7135, 32.9891]]]}, "properties": {"objectid": 182585, "statename": "Jammu And Kashmir", "statecode": "1", "districtname": "", "districtcode": "16", "ulbname": "Bhaderwah", "ulbcode": "800050", "wardname": "Mohalla Sarafa", "wardcode": "1", "id": null, "status": "APPROVED", "misglobalid": null, "approved_by": null, "createdate": 1645948533000, "updateddate": 1645948568000, "globalid": null, "gisglobalid": "amssaQcP-mm4o-PoKn-RPRo-55PnR5lalBPm", "remark": "Mohalla Sarafa Ward No 01", "st_area(shape)": 1.4992117822061943e-05, "st_perimeter(shape)": 0.023890468366168944}}, {"type": "Feature", "geometry": {"type": "Polygon", "coordinates": [[[75.7172, 32.9798], [75.7172, 32.9799], [75.7173, 32.9799], [75.7174, 32.98], [75.7176, 32.98], [75.7179, 32.9801], [75.7182, 32.9802], [75.7184, 32.9802], [75.7185, 32.9804], [75.7185, 32.9806], [75.7183, 32.9808], [75.718, 32.9811], [75.7177, 32.9816], [75.7175, 32.9821], [75.7176, 32.9825], [75.7176, 32.9833], [75.7176, 32.9837], [75.7175, 32.9845], [75.717, 32.985], [75.7166, 32.9854], [75.716, 32.9862], [75.7158, 32.9868], [75.7157, 32.9869], [75.7154, 32.9879], [75.7153, 32.9882], [75.7152, 32.9887], [75.7149, 32.9894], [75.716, 32.9895], [75.7169, 32.9893], [75.7171, 32.9887], [75.7172, 32.9884], [75.7173, 32.9883], [75.7173, 32.9882], [75.7176, 32.9882], [75.7179, 32.9882], [75.718, 32.9882], [75.7184, 32.9878], [75.7189, 32.9872], [75.7195, 32.9867], [75.7196, 32.9864], [75.7201, 32.9866], [75.7201, 32.9862], [75.7201, 32.986], [75.7201, 32.9858], [75.72, 32.9858], [75.7201, 32.9855], [75.7203, 32.9853], [75.7204, 32.9852], [75.7207, 32.9849], [75.7211, 32.9846], [75.7217, 32.9842], [75.7218, 32.9839], [75.7217, 32.9837], [75.7216, 32.9835], [75.7214, 32.9831], [75.721, 32.9832], [75.7206, 32.9832], [75.72, 32.9831], [75.7195, 32.983], [75.7188, 32.9827], [75.7186, 32.9826], [75.7183, 32.9824], [75.7183, 32.9823], [75.7182, 32.9821], [75.7182, 32.9817], [75.7183, 32.9815], [75.7185, 32.9813], [75.7188, 32.9813], [75.7191, 32.9812], [75.7193, 32.9812], [75.7196, 32.9812], [75.7201, 32.9812], [75.7205, 32.9811], [75.7208, 32.9809], [75.7213, 32.9808], [75.7218, 32.9809], [75.722, 32.981], [75.7225, 32.9811], [75.7228, 32.981], [75.7234, 32.9804], [75.7238, 32.9803], [75.7239, 32.9803], [75.7245, 32.9802], [75.7246, 32.9801], [75.7244, 32.98], [75.7241, 32.98], [75.724, 32.98], [75.7238, 32.9801], [75.7233, 32.9803], [75.7231, 32.9805], [75.723, 32.9807], [75.7226, 32.9807], [75.7223, 32.9807], [75.722, 32.9806], [75.7216, 32.9804], [75.7211, 32.9804], [75.7206, 32.9804], [75.7203, 32.9803], [75.7199, 32.9802], [75.7194, 32.9801], [75.719, 32.9801], [75.7188, 32.9801], [75.7187, 32.9802], [75.7185, 32.9802], [75.7184, 32.9802], [75.7184, 32.98], [75.7185, 32.9799], [75.7186, 32.9797], [75.7187, 32.9796], [75.7188, 32.9794], [75.7188, 32.9793], [75.7184, 32.9793], [75.7179, 32.9792], [75.7174, 32.9791], [75.7174, 32.9792], [75.7173, 32.9794], [75.7172, 32.9795], [75.7172, 32.9798]]]}, "properties": {"objectid": 183459, "statename": "Jammu And Kashmir", "statecode": "1", "districtname": "", "districtcode": "16", "ulbname": "Bhaderwah", "ulbcode": "800050", "wardname": "Ganpat Marh", "wardcode": "2", "id": null, "status": "APPROVED", "misglobalid": null, "approved_by": null, "createdate": 1645962086000, "updateddate": 1645963772000, "globalid": null, "gisglobalid": "d5o65n6d-K6Qs-Plon-RPQR-dmo66sQdc4KP", "remark": "Ganpat Marh Ward No 02", "st_area(shape)": 2.750251951955384e-05, "st_perimeter(shape)": 0.0435033142849754}}, {"type": "Feature", "geometry": {"type": "Polygon", "coordinates": [[[75.7183, 32.9793], [75.7188, 32.9793], [75.719, 32.9791], [75.7191, 32.9788], [75.7191, 32.9784], [75.7192, 32.9782], [75.7193, 32.9779], [75.7197, 32.9775], [75.7196, 32.9773], [75.7195, 32.9773], [75.7195, 32.9775], [75.7191, 32.9778], [75.7189, 32.9779], [75.7187, 32.978], [75.7186, 32.9782], [75.7185, 32.9783], [75.7185, 32.9784], [75.7183, 32.9784], [75.7182, 32.9785], [75.7181, 32.9785], [75.7179, 32.9785], [75.7178, 32.9786], [75.7176, 32.9787], [75.7174, 32.9788], [75.7173, 32.9789], [75.7173, 32.979], [75.7174, 32.9791], [75.7179, 32.9792], [75.7183, 32.9793]]]}, "properties": {"objectid": 184190, "statename": "Jammu And Kashmir", "statecode": "1", "districtname": "", "districtcode": "16", "ulbname": "Bhaderwah", "ulbcode": "800050", "wardname": "Mohalla Khakhal", "wardcode": "3", "id": null, "status": "APPROVED", "misglobalid": null, "approved_by": null, "createdate": 1645948688000, "updateddate": 1645963801000, "globalid": null, "gisglobalid": "QR65o6cm-cc5c-Pll4-sKPd-os66aaocBnnc", "remark": "Mohalla Khakhal 03", "st_area(shape)": 1.715650839549616e-06, "st_perimeter(shape)": 0.007029226935676471}}, {"type": "Feature", "geometry": {"type": "Polygon", "coordinates": [[[75.7244, 32.98], [75.7246, 32.9801], [75.7253, 32.9799], [75.7258, 32.9797], [75.7258, 32.9789], [75.7258, 32.9781], [75.7254, 32.9776], [75.7243, 32.9762], [75.7238, 32.9757], [75.7231, 32.9757], [75.7202, 32.9765], [75.7197, 32.9763], [75.7197, 32.9765], [75.7196, 32.9769], [75.7196, 32.9771], [75.7197, 32.9775], [75.7193, 32.9779], [75.7192, 32.9784], [75.7191, 32.9788], [75.719, 32.9791], [75.7188, 32.9793], [75.7188, 32.9794], [75.7186, 32.9797], [75.7185, 32.9799], [75.7184, 32.98], [75.7184, 32.9801], [75.7185, 32.9802], [75.7186, 32.9802], [75.7187, 32.9802], [75.7188, 32.9801], [75.719, 32.9801], [75.7194, 32.9801], [75.7198, 32.9802], [75.7201, 32.9802], [75.7206, 32.9804], [75.7211, 32.9804], [75.7216, 32.9804], [75.722, 32.9806], [75.7223, 32.9807], [75.7226, 32.9807], [75.723, 32.9807], [75.7231, 32.9806], [75.7233, 32.9803], [75.7235, 32.9802], [75.7238, 32.9801], [75.724, 32.98], [75.7241, 32.98], [75.7242, 32.98], [75.7244, 32.98]]]}, "properties": {"objectid": 183460, "statename": "Jammu And Kashmir", "statecode": "1", "districtname": "", "districtcode": "16", "ulbname": "Bhaderwah", "ulbcode": "800050", "wardname": "Vasak Dera", "wardcode": "4", "id": null, "status": "APPROVED", "misglobalid": null, "approved_by": null, "createdate": 1645962130000, "updateddate": 1645963828000, "globalid": null, "gisglobalid": "5clRmKcP-B5RP-P6K6-QlKP-Pml4RKKndsK4", "remark": "Vasak Dera Ward No 04", "st_area(shape)": 2.605465697447781e-05, "st_perimeter(shape)": 0.021115078509136166}}, {"type": "Feature", "geometry": {"type": "Polygon", "coordinates": [[[75.7231, 32.9757], [75.7238, 32.9757], [75.7235, 32.9751], [75.7234, 32.9749], [75.7234, 32.9748], [75.7236, 32.9746], [75.7238, 32.9743], [75.7239, 32.9741], [75.724, 32.974], [75.7241, 32.9739], [75.7242, 32.9739], [75.7244, 32.9738], [75.7246, 32.9736], [75.7247, 32.9734], [75.7249, 32.9733], [75.7251, 32.9731], [75.7252, 32.973], [75.7248, 32.9725], [75.7248, 32.9721], [75.7248, 32.9718], [75.7247, 32.9716], [75.7245, 32.9715], [75.724, 32.9712], [75.7238, 32.971], [75.7234, 32.9709], [75.7233, 32.9709], [75.7231, 32.9708], [75.7227, 32.9707], [75.7222, 32.9705], [75.7221, 32.9704], [75.7217, 32.9702], [75.7214, 32.9701], [75.7212, 32.97], [75.7209, 32.9698], [75.7207, 32.9697], [75.7207, 32.97], [75.7205, 32.9699], [75.7203, 32.9699], [75.7201, 32.9698], [75.72, 32.9699], [75.7198, 32.9699], [75.7196, 32.9699], [75.7195, 32.97], [75.7193, 32.97], [75.7192, 32.97], [75.719, 32.9699], [75.719, 32.9701], [75.719, 32.9702], [75.7192, 32.9705], [75.7192, 32.9707], [75.7192, 32.9709], [75.7194, 32.9711], [75.7195, 32.9714], [75.7197, 32.9714], [75.7197, 32.9716], [75.7197, 32.9719], [75.7197, 32.9721], [75.7196, 32.9723], [75.7195, 32.9724], [75.7195, 32.9726], [75.7193, 32.9727], [75.7192, 32.9728], [75.719, 32.9729], [75.7188, 32.973], [75.7187, 32.9731], [75.7185, 32.9732], [75.7185, 32.9734], [75.7183, 32.9735], [75.7181, 32.9737], [75.718, 32.974], [75.718, 32.9742], [75.7179, 32.9745], [75.7179, 32.9746], [75.7178, 32.9748], [75.7177, 32.9753], [75.7176, 32.9757], [75.7176, 32.976], [75.7174, 32.9762], [75.7173, 32.9765], [75.7172, 32.9767], [75.717, 32.9771], [75.717, 32.9772], [75.7169, 32.9773], [75.7168, 32.9774], [75.7169, 32.9775], [75.717, 32.9777], [75.717, 32.9779], [75.717, 32.9781], [75.7169, 32.9782], [75.7171, 32.9783], [75.7172, 32.9782], [75.7173, 32.9781], [75.7174, 32.978], [75.7176, 32.9778], [75.7177, 32.9777], [75.7179, 32.9778], [75.7182, 32.9778], [75.7183, 32.9777], [75.7183, 32.9776], [75.7185, 32.9773], [75.7185, 32.9772], [75.7185, 32.9771], [75.7185, 32.977], [75.7186, 32.9769], [75.7187, 32.9768], [75.7186, 32.9767], [75.7186, 32.9766], [75.7187, 32.9765], [75.7187, 32.9763], [75.7188, 32.9762], [75.7188, 32.9761], [75.7187, 32.976], [75.7186, 32.9759], [75.7186, 32.9758], [75.7185, 32.9757], [75.7184, 32.9756], [75.7183, 32.9755], [75.7181, 32.9754], [75.7182, 32.9752], [75.7184, 32.975], [75.7184, 32.9749], [75.7191, 32.9751], [75.7191, 32.9754], [75.7191, 32.9756], [75.7194, 32.9759], [75.7195, 32.9765], [75.7194, 32.9772], [75.7195, 32.9773], [75.7196, 32.9773], [75.7196, 32.9771], [75.7196, 32.9769], [75.7197, 32.9765], [75.7197, 32.9763], [75.7202, 32.9765], [75.7218, 32.976], [75.7231, 32.9757]]]}, "properties": {"objectid": 181370, "statename": "Jammu And Kashmir", "statecode": "1", "districtname": "", "districtcode": "16", "ulbname": "Bhaderwah", "ulbcode": "800050", "wardname": "Mohalla Chinar", "wardcode": "5", "id": null, "status": "APPROVED", "misglobalid": null, "approved_by": null, "createdate": 1645963674000, "updateddate": 1645963859000, "globalid": null, "gisglobalid": "4cdQcKsc-Q556-PKsl-s5m6-QsmmKd6dBmKd", "remark": "Mohalla Chinar Ward No 5", "st_area(shape)": 3.4312667933385765e-05, "st_perimeter(shape)": 0.03479110317535205}}, {"type": "Feature", "geometry": {"type": "Polygon", "coordinates": [[[75.7185, 32.9783], [75.7186, 32.9782], [75.7187, 32.978], [75.7191, 32.9778], [75.7195, 32.9775], [75.7195, 32.9773], [75.7194, 32.9772], [75.7195, 32.9765], [75.7194, 32.9759], [75.7191, 32.9756], [75.7191, 32.9754], [75.7191, 32.9751], [75.7184, 32.9749], [75.7181, 32.9754], [75.7185, 32.9757], [75.7186, 32.9758], [75.7188, 32.9761], [75.7188, 32.9762], [75.7186, 32.9766], [75.7187, 32.9768], [75.7186, 32.9769], [75.7185, 32.9771], [75.7185, 32.9772], [75.7183, 32.9776], [75.7182, 32.9778], [75.7179, 32.9778], [75.7177, 32.9777], [75.7176, 32.9778], [75.7174, 32.978], [75.7171, 32.9783], [75.7173, 32.9784], [75.7174, 32.9785], [75.7176, 32.9785], [75.7178, 32.9784], [75.7179, 32.9784], [75.7181, 32.9784], [75.718, 32.9785], [75.7183, 32.9784], [75.7185, 32.9784], [75.7185, 32.9783]]]}, "properties": {"objectid": 183369, "statename": "Jammu And Kashmir", "statecode": "1", "districtname": "", "districtcode": "16", "ulbname": "Bhaderwah", "ulbcode": "800050", "wardname": "Mohalla Havelli", "wardcode": "6", "id": null, "status": "APPROVED", "misglobalid": null, "approved_by": null, "createdate": 1645964149000, "updateddate": 1645964183000, "globalid": null, "gisglobalid": "6cBP4mQK-mBmd-PPmB-QK4l-66aaB6oKaKRc", "remark": "Mohalla Haveli Ward No 06", "st_area(shape)": 3.240167511742658e-06, "st_perimeter(shape)": 0.01095594667351538}}, {"type": "Feature", "geometry": {"type": "Polygon", "coordinates": [[[75.7177, 32.9786], [75.7181, 32.9785], [75.7181, 32.9784], [75.7179, 32.9784], [75.7178, 32.9784], [75.7176, 32.9785], [75.7174, 32.9785], [75.7171, 32.9783], [75.7169, 32.9782], [75.7168, 32.9784], [75.7167, 32.9786], [75.7166, 32.9786], [75.7165, 32.9787], [75.7163, 32.9788], [75.7161, 32.9791], [75.7161, 32.9793], [75.716, 32.9794], [75.7159, 32.9796], [75.7158, 32.9796], [75.7158, 32.9798], [75.7158, 32.9799], [75.7159, 32.9802], [75.7159, 32.9804], [75.7159, 32.9807], [75.7158, 32.9809], [75.7156, 32.9812], [75.7154, 32.9815], [75.7154, 32.9817], [75.7155, 32.9818], [75.7155, 32.9819], [75.7156, 32.9824], [75.7157, 32.9825], [75.7159, 32.9827], [75.716, 32.9828], [75.7161, 32.9829], [75.7162, 32.9826], [75.7161, 32.9823], [75.7166, 32.9817], [75.7165, 32.9813], [75.7165, 32.981], [75.7165, 32.9803], [75.7166, 32.9801], [75.7168, 32.9799], [75.7169, 32.9799], [75.7171, 32.9799], [75.7172, 32.9799], [75.7172, 32.9798], [75.7172, 32.9795], [75.7173, 32.9794], [75.7174, 32.9792], [75.7174, 32.9791], [75.7173, 32.979], [75.7174, 32.9788], [75.7177, 32.9786]]]}, "properties": {"objectid": 183370, "statename": "Jammu And Kashmir", "statecode": "1", "districtname": "", "districtcode": "16", "ulbname": "Bhaderwah", "ulbcode": "800050", "wardname": "Dharampura", "wardcode": "7", "id": null, "status": "APPROVED", "misglobalid": null, "approved_by": null, "createdate": 1645964321000, "updateddate": 1645964345000, "globalid": null, "gisglobalid": "Bocnam64-dooQ-PKRo-R466-46oKBKnola45", "remark": "Dharampura Ward No 07", "st_area(shape)": 3.955719603723412e-06, "st_perimeter(shape)": 0.012611528867370783}}, {"type": "Feature", "geometry": {"type": "Polygon", "coordinates": [[[75.7154, 32.9797], [75.7151, 32.9796], [75.715, 32.9797], [75.7148, 32.9797], [75.7146, 32.9797], [75.7144, 32.9798], [75.7142, 32.9798], [75.714, 32.9798], [75.7136, 32.9799], [75.7131, 32.98], [75.713, 32.9803], [75.713, 32.9804], [75.713, 32.9806], [75.713, 32.9808], [75.713, 32.9809], [75.7129, 32.9813], [75.7125, 32.9814], [75.7121, 32.9813], [75.7116, 32.9812], [75.7115, 32.9811], [75.7112, 32.9812], [75.7112, 32.9816], [75.7115, 32.9819], [75.7117, 32.9822], [75.7119, 32.9824], [75.7118, 32.9826], [75.7117, 32.9829], [75.712, 32.9832], [75.7122, 32.9835], [75.7126, 32.9839], [75.713, 32.9843], [75.7133, 32.9847], [75.7133, 32.9852], [75.7132, 32.9857], [75.7128, 32.986], [75.7128, 32.9863], [75.7126, 32.9867], [75.7123, 32.9871], [75.7125, 32.9872], [75.7127, 32.9875], [75.7129, 32.9878], [75.7134, 32.988], [75.7138, 32.9884], [75.714, 32.9879], [75.7141, 32.9871], [75.714, 32.9863], [75.7145, 32.9856], [75.715, 32.9852], [75.7155, 32.9849], [75.7157, 32.9848], [75.7159, 32.9844], [75.7158, 32.9842], [75.7158, 32.9835], [75.716, 32.9831], [75.7162, 32.9829], [75.716, 32.9827], [75.7156, 32.9824], [75.7154, 32.9818], [75.7153, 32.9817], [75.7155, 32.9815], [75.7156, 32.9812], [75.7158, 32.9809], [75.7159, 32.9807], [75.7159, 32.9804], [75.7159, 32.9801], [75.7158, 32.9798], [75.7158, 32.9796], [75.7157, 32.9796], [75.7156, 32.9795], [75.7154, 32.9797]]]}, "properties": {"objectid": 181371, "statename": "Jammu And Kashmir", "statecode": "1", "districtname": "", "districtcode": "16", "ulbname": "Bhaderwah", "ulbcode": "800050", "wardname": "Mohalla Masjid", "wardcode": "8", "id": null, "status": "APPROVED", "misglobalid": null, "approved_by": null, "createdate": 1645963637000, "updateddate": 1645963938000, "globalid": null, "gisglobalid": "RKdPmsBc-RQK6-PBnl-Rm54-KKPdcnBooaQn", "remark": "Mohalla Masjid 08", "st_area(shape)": 2.1842307338602764e-05, "st_perimeter(shape)": 0.02544200911179685}}, {"type": "Feature", "geometry": {"type": "Polygon", "coordinates": [[[75.7144, 32.9798], [75.7146, 32.9797], [75.7148, 32.9797], [75.715, 32.9797], [75.7151, 32.9796], [75.7154, 32.9797], [75.7156, 32.9795], [75.7157, 32.9796], [75.7158, 32.9796], [75.7159, 32.9796], [75.716, 32.9794], [75.7161, 32.9793], [75.7161, 32.9791], [75.7163, 32.9788], [75.7165, 32.9787], [75.7167, 32.9786], [75.7168, 32.9783], [75.7169, 32.9782], [75.717, 32.9779], [75.7169, 32.9779], [75.7167, 32.978], [75.7164, 32.9782], [75.7162, 32.9782], [75.7161, 32.9782], [75.716, 32.9781], [75.716, 32.978], [75.7159, 32.9778], [75.7159, 32.9777], [75.7159, 32.977], [75.7156, 32.9769], [75.7155, 32.9769], [75.7153, 32.9768], [75.7152, 32.9765], [75.7151, 32.9764], [75.7151, 32.9762], [75.715, 32.9761], [75.7149, 32.9759], [75.7147, 32.9756], [75.7145, 32.9752], [75.714, 32.9746], [75.7135, 32.9741], [75.7137, 32.9736], [75.7138, 32.9734], [75.7138, 32.9729], [75.7139, 32.9727], [75.7143, 32.9726], [75.7147, 32.9727], [75.7149, 32.9723], [75.7151, 32.972], [75.7153, 32.9717], [75.7157, 32.9717], [75.7158, 32.9713], [75.7158, 32.9709], [75.7157, 32.9706], [75.7155, 32.9704], [75.7152, 32.9702], [75.715, 32.97], [75.7144, 32.9699], [75.714, 32.97], [75.7137, 32.9704], [75.7135, 32.9708], [75.7133, 32.9709], [75.7128, 32.9707], [75.7126, 32.9706], [75.7121, 32.9704], [75.7118, 32.9703], [75.7115, 32.9704], [75.7113, 32.9705], [75.7113, 32.9706], [75.7112, 32.9706], [75.7106, 32.9707], [75.7108, 32.971], [75.711, 32.9713], [75.7111, 32.9715], [75.7112, 32.972], [75.711, 32.9724], [75.711, 32.9728], [75.7114, 32.9733], [75.7115, 32.9736], [75.7117, 32.9738], [75.7116, 32.974], [75.7117, 32.9745], [75.7118, 32.9747], [75.7118, 32.9752], [75.7119, 32.9754], [75.7121, 32.9755], [75.7122, 32.9756], [75.7124, 32.9758], [75.7126, 32.976], [75.7128, 32.9761], [75.713, 32.9763], [75.7131, 32.9765], [75.7133, 32.9766], [75.7134, 32.9766], [75.7136, 32.9766], [75.7139, 32.9766], [75.7141, 32.9765], [75.7142, 32.9765], [75.7144, 32.9764], [75.7147, 32.9764], [75.7147, 32.9766], [75.715, 32.977], [75.7151, 32.9772], [75.7151, 32.9777], [75.715, 32.9781], [75.7148, 32.9784], [75.7152, 32.9787], [75.7153, 32.9788], [75.7151, 32.9789], [75.7151, 32.979], [75.715, 32.9792], [75.7149, 32.9792], [75.7146, 32.9794], [75.7145, 32.9796], [75.7143, 32.9797], [75.7141, 32.9797], [75.714, 32.9798], [75.7142, 32.9798], [75.7144, 32.9798]]]}, "properties": {"objectid": 183475, "statename": "Jammu And Kashmir", "statecode": "1", "districtname": "", "districtcode": "16", "ulbname": "Bhaderwah", "ulbcode": "800050", "wardname": "Mohalla Tharra", "wardcode": "9", "id": null, "status": "APPROVED", "misglobalid": null, "approved_by": null, "createdate": 1645963619000, "updateddate": 1645963960000, "globalid": null, "gisglobalid": "Pnccl6sc-ss65-PQan-QoPo-Qn6QQlQm5oan", "remark": "Mohalla Tharra Ward No 09", "st_area(shape)": 2.273408934288583e-05, "st_perimeter(shape)": 0.03435451211363304}}, {"type": "Feature", "geometry": {"type": "Polygon", "coordinates": [[[75.7167, 32.978], [75.717, 32.9779], [75.717, 32.9777], [75.7168, 32.9774], [75.7169, 32.9773], [75.717, 32.9772], [75.717, 32.9771], [75.7172, 32.9767], [75.7173, 32.9765], [75.7174, 32.9762], [75.7176, 32.976], [75.7176, 32.9757], [75.7177, 32.9753], [75.7178, 32.9748], [75.7179, 32.9745], [75.7179, 32.9744], [75.718, 32.9742], [75.718, 32.974], [75.7181, 32.9737], [75.7183, 32.9735], [75.7185, 32.9734], [75.7185, 32.9733], [75.7187, 32.9731], [75.7188, 32.973], [75.719, 32.9729], [75.7192, 32.9728], [75.7193, 32.9727], [75.7195, 32.9726], [75.7195, 32.9724], [75.7196, 32.9723], [75.7197, 32.9721], [75.7197, 32.9718], [75.7197, 32.9716], [75.7197, 32.9714], [75.7195, 32.9715], [75.7193, 32.9713], [75.7184, 32.9712], [75.718, 32.9714], [75.7179, 32.9717], [75.7178, 32.9718], [75.7177, 32.9721], [75.7176, 32.9722], [75.7173, 32.9722], [75.7171, 32.9723], [75.7168, 32.9724], [75.7167, 32.9723], [75.7165, 32.9725], [75.7163, 32.9726], [75.7161, 32.9724], [75.716, 32.9723], [75.7158, 32.9722], [75.7157, 32.972], [75.7156, 32.9719], [75.7157, 32.9716], [75.7153, 32.9717], [75.7151, 32.972], [75.7149, 32.9723], [75.7147, 32.9727], [75.7143, 32.9726], [75.7139, 32.9727], [75.7138, 32.9729], [75.7138, 32.9733], [75.7137, 32.9736], [75.7135, 32.9742], [75.714, 32.9746], [75.7145, 32.9751], [75.7147, 32.9757], [75.7149, 32.9759], [75.715, 32.9761], [75.7151, 32.9762], [75.7151, 32.9764], [75.7152, 32.9766], [75.7153, 32.9768], [75.7155, 32.9769], [75.7156, 32.9769], [75.7158, 32.977], [75.7159, 32.9777], [75.7159, 32.9778], [75.716, 32.978], [75.716, 32.9781], [75.7161, 32.9782], [75.7162, 32.9782], [75.7164, 32.9782], [75.7167, 32.978]]]}, "properties": {"objectid": 177085, "statename": "Jammu And Kashmir", "statecode": "1", "districtname": "", "districtcode": "16", "ulbname": "Bhaderwah", "ulbcode": "800050", "wardname": "Mohalla Qassaban", "wardcode": "10", "id": null, "status": "APPROVED", "misglobalid": null, "approved_by": null, "createdate": 1645948492000, "updateddate": 1645963738000, "globalid": null, "gisglobalid": "BK6mcQol-PcmR-PdBo-RPPR-P4BnalQQoc4c", "remark": "Mohalla Qassaban Ward No 10", "st_area(shape)": 2.037376690687394e-05, "st_perimeter(shape)": 0.022993090075474683}}, {"type": "Feature", "geometry": {"type": "Polygon", "coordinates": [[[75.7125, 32.9814], [75.7129, 32.9813], [75.713, 32.9808], [75.713, 32.9804], [75.713, 32.9802], [75.7131, 32.98], [75.7134, 32.9799], [75.7137, 32.9799], [75.714, 32.9798], [75.7141, 32.9797], [75.7143, 32.9797], [75.7145, 32.9796], [75.7146, 32.9794], [75.7149, 32.9792], [75.715, 32.9792], [75.7151, 32.9789], [75.7153, 32.9788], [75.7152, 32.9787], [75.7148, 32.9784], [75.7151, 32.9781], [75.7151, 32.9777], [75.7151, 32.9774], [75.7151, 32.9772], [75.715, 32.977], [75.7147, 32.9767], [75.7146, 32.9764], [75.7144, 32.9764], [75.7142, 32.9765], [75.7141, 32.9765], [75.7139, 32.9766], [75.7133, 32.9766], [75.7131, 32.9765], [75.7129, 32.9761], [75.7126, 32.976], [75.7122, 32.9756], [75.7121, 32.9755], [75.7119, 32.9755], [75.7121, 32.9758], [75.7122, 32.9761], [75.7123, 32.9764], [75.7122, 32.9768], [75.7122, 32.977], [75.7121, 32.9772], [75.7124, 32.9773], [75.7127, 32.9773], [75.7129, 32.9774], [75.7132, 32.9775], [75.7134, 32.9776], [75.7136, 32.9777], [75.7138, 32.9778], [75.714, 32.9779], [75.7139, 32.978], [75.7138, 32.9781], [75.7137, 32.9782], [75.7136, 32.9783], [75.7137, 32.9784], [75.7135, 32.9785], [75.7134, 32.9786], [75.7133, 32.9787], [75.7132, 32.9786], [75.713, 32.9787], [75.7128, 32.9786], [75.7127, 32.9786], [75.7126, 32.9785], [75.7125, 32.9785], [75.7124, 32.9785], [75.7122, 32.9785], [75.7119, 32.9786], [75.7117, 32.9786], [75.7116, 32.9787], [75.7115, 32.9788], [75.7114, 32.9789], [75.7113, 32.9789], [75.7111, 32.9789], [75.7108, 32.9789], [75.7105, 32.9788], [75.7102, 32.9786], [75.7101, 32.9786], [75.7099, 32.9784], [75.7098, 32.9785], [75.7098, 32.9787], [75.7097, 32.9789], [75.7099, 32.979], [75.71, 32.9793], [75.7101, 32.9795], [75.7103, 32.9797], [75.7103, 32.9799], [75.7101, 32.9799], [75.7098, 32.9799], [75.7095, 32.9799], [75.7092, 32.9798], [75.7092, 32.9799], [75.7094, 32.98], [75.7098, 32.9802], [75.7098, 32.9803], [75.71, 32.9804], [75.7103, 32.9805], [75.7105, 32.9805], [75.7108, 32.9806], [75.7111, 32.9808], [75.7113, 32.9809], [75.7114, 32.9811], [75.7125, 32.9814]]]}, "properties": {"objectid": 184268, "statename": "Jammu And Kashmir", "statecode": "1", "districtname": "", "districtcode": "16", "ulbname": "Bhaderwah", "ulbcode": "800050", "wardname": "Mohalla Passri", "wardcode": "11", "id": null, "status": "APPROVED", "misglobalid": null, "approved_by": null, "createdate": 1645963512000, "updateddate": 1645963993000, "globalid": null, "gisglobalid": "n6Kmsoso-K5mo-PRnR-ancd-cB44ooRRl44s", "remark": "Mohalla Passri Ward No 11", "st_area(shape)": 1.3902739306524805e-05, "st_perimeter(shape)": 0.02582784555333622}}, {"type": "Feature", "geometry": {"type": "Polygon", "coordinates": [[[75.7121, 32.9772], [75.7122, 32.977], [75.7122, 32.9768], [75.7123, 32.9764], [75.7123, 32.9762], [75.7122, 32.976], [75.7121, 32.9758], [75.7119, 32.9754], [75.7118, 32.9752], [75.7118, 32.9747], [75.7116, 32.974], [75.7117, 32.9738], [75.7115, 32.9736], [75.7105, 32.9736], [75.7099, 32.9739], [75.7096, 32.9743], [75.7096, 32.9746], [75.7095, 32.9747], [75.7095, 32.9749], [75.7095, 32.9751], [75.7094, 32.9754], [75.7094, 32.9757], [75.7094, 32.976], [75.7094, 32.9762], [75.7095, 32.9764], [75.7096, 32.9767], [75.7097, 32.9769], [75.7097, 32.9772], [75.7098, 32.9775], [75.7099, 32.9778], [75.7098, 32.978], [75.7097, 32.9783], [75.7098, 32.9785], [75.7099, 32.9784], [75.7101, 32.9786], [75.7104, 32.9787], [75.7108, 32.9789], [75.7111, 32.9789], [75.7113, 32.9789], [75.7114, 32.9789], [75.7116, 32.9787], [75.7117, 32.9786], [75.7122, 32.9785], [75.7124, 32.9785], [75.7125, 32.9785], [75.7126, 32.9785], [75.7127, 32.9786], [75.7128, 32.9786], [75.713, 32.9787], [75.7132, 32.9786], [75.7133, 32.9787], [75.7134, 32.9786], [75.7136, 32.9785], [75.7137, 32.9784], [75.7136, 32.9783], [75.7137, 32.9782], [75.714, 32.9779], [75.7136, 32.9777], [75.7134, 32.9776], [75.7133, 32.9775], [75.7132, 32.9775], [75.7129, 32.9774], [75.7124, 32.9773], [75.7121, 32.9772]]]}, "properties": {"objectid": 183372, "statename": "Jammu And Kashmir", "statecode": "1", "districtname": "", "districtcode": "16", "ulbname": "Bhaderwah", "ulbcode": "800050", "wardname": "Mohalla Qilla", "wardcode": "12", "id": null, "status": "APPROVED", "misglobalid": null, "approved_by": null, "createdate": 1645948606000, "updateddate": 1645964017000, "globalid": null, "gisglobalid": "BscRdo5a-aRKR-Pc5P-Qc4a-cQosomQ65P6s", "remark": "Mohalla Qilla Ward No 12", "st_area(shape)": 1.386954435189872e-05, "st_perimeter(shape)": 0.017368848079921437}}, {"type": "Feature", "geometry": {"type": "Polygon", "coordinates": [[[75.7092, 32.9798], [75.7098, 32.9799], [75.71, 32.9799], [75.7103, 32.9799], [75.7103, 32.9797], [75.7101, 32.9795], [75.71, 32.9793], [75.7099, 32.979], [75.7097, 32.9789], [75.7098, 32.9787], [75.7098, 32.9785], [75.7097, 32.9783], [75.7098, 32.978], [75.7099, 32.9778], [75.7098, 32.9774], [75.7097, 32.9772], [75.7097, 32.9769], [75.7095, 32.9766], [75.7094, 32.9762], [75.7094, 32.976], [75.7094, 32.9757], [75.7095, 32.9749], [75.7096, 32.9747], [75.7096, 32.9743], [75.7099, 32.9739], [75.7105, 32.9736], [75.7115, 32.9736], [75.7114, 32.9733], [75.711, 32.9728], [75.7112, 32.972], [75.7107, 32.9707], [75.7086, 32.9704], [75.706, 32.9709], [75.7051, 32.9714], [75.7036, 32.9722], [75.704, 32.9724], [75.7044, 32.9727], [75.7047, 32.9728], [75.7049, 32.973], [75.7053, 32.9733], [75.7054, 32.9733], [75.7057, 32.9734], [75.7056, 32.9736], [75.7055, 32.9739], [75.7055, 32.9742], [75.7054, 32.9745], [75.7054, 32.9747], [75.7058, 32.9747], [75.7058, 32.975], [75.7059, 32.9755], [75.7059, 32.9758], [75.706, 32.9762], [75.7061, 32.9762], [75.7061, 32.9765], [75.7064, 32.9768], [75.7064, 32.977], [75.7062, 32.9773], [75.7061, 32.9775], [75.7062, 32.9776], [75.7065, 32.9778], [75.7068, 32.978], [75.7069, 32.9782], [75.7071, 32.9784], [75.7072, 32.9784], [75.7073, 32.9785], [75.7076, 32.9787], [75.7079, 32.9787], [75.7081, 32.9789], [75.7083, 32.9792], [75.7085, 32.9794], [75.7087, 32.9796], [75.7087, 32.9797], [75.7088, 32.9799], [75.7088, 32.98], [75.709, 32.9801], [75.7092, 32.9801], [75.7092, 32.9799], [75.7092, 32.9798]]]}, "properties": {"objectid": 183474, "statename": "Jammu And Kashmir", "statecode": "1", "districtname": "", "districtcode": "16", "ulbname": "Bhaderwah", "ulbcode": "800050", "wardname": "Runta", "wardcode": "13", "id": null, "status": "APPROVED", "misglobalid": null, "approved_by": null, "createdate": 1645963532000, "updateddate": 1645964056000, "globalid": null, "gisglobalid": "RRmRcnKB-6Bsc-P6nm-R4ds-sdcBKKlKB4oK", "remark": "Runta Ward No 13", "st_area(shape)": 3.8551183320333e-05, "st_perimeter(shape)": 0.031593351891490803}}]}
