{"type": "FeatureCollection", "features": [{"type": "Feature", "geometry": {"type": "Polygon", "coordinates": [[[75.7176, 27.1836], [75.7176, 27.1832], [75.7177, 27.1819], [75.7184, 27.1799], [75.7186, 27.1791], [75.7194, 27.1773], [75.7203, 27.1758], [75.7196, 27.1757], [75.7182, 27.176], [75.7179, 27.1757], [75.7175, 27.175], [75.7157, 27.1762], [75.7152, 27.1766], [75.7146, 27.1768], [75.714, 27.1771], [75.7128, 27.1779], [75.7125, 27.1783], [75.7119, 27.1787], [75.7136, 27.1839], [75.7155, 27.1835], [75.7156, 27.1844], [75.7157, 27.1848], [75.7157, 27.1851], [75.7162, 27.185], [75.7165, 27.1843], [75.717, 27.1837], [75.7176, 27.1836]]]}, "properties": {"objectid": 270503, "statename": "Rajasthan", "statecode": "8", "districtname": "Jaipur", "districtcode": "110", "ulbname": "Chomu", "ulbcode": "800516", "wardname": "Bagrio Ki Dani, Chandji Wali Dani, Tabro Ki Dani,", "wardcode": "1", "id": null, "status": "APPROVED", "misglobalid": null, "approved_by": null, "createdate": 1650805658000, "updateddate": 1650806075000, "globalid": null, "gisglobalid": "sPa4aRsn-6cdB-P6RP-QPc6-Q4RomQBo5K5K", "remark": "Ok", "st_area(shape)": 4.425756949818694e-05, "st_perimeter(shape)": 0.030285006674763252}}, {"type": "Feature", "geometry": {"type": "Polygon", "coordinates": [[[75.7156, 27.1844], [75.7155, 27.1835], [75.7136, 27.1839], [75.7119, 27.1787], [75.7107, 27.1791], [75.7098, 27.1797], [75.7086, 27.1807], [75.7081, 27.181], [75.7073, 27.181], [75.7059, 27.1809], [75.7043, 27.1809], [75.7038, 27.1811], [75.7029, 27.1811], [75.7022, 27.1811], [75.7011, 27.1806], [75.7007, 27.1805], [75.7014, 27.182], [75.7039, 27.1861], [75.704, 27.187], [75.704, 27.1876], [75.7041, 27.189], [75.7081, 27.1887], [75.7082, 27.1878], [75.7109, 27.1872], [75.7111, 27.1859], [75.711, 27.1851], [75.7112, 27.1849], [75.713, 27.1846], [75.7156, 27.1844]]]}, "properties": {"objectid": 270504, "statename": "Rajasthan", "statecode": "8", "districtname": "Jaipur", "districtcode": "110", "ulbname": "Chomu", "ulbcode": "800516", "wardname": "Rupa Malan Ki Dani, Kumawato Ki Dani, Panchaya Ki", "wardcode": "2", "id": null, "status": "APPROVED", "misglobalid": null, "approved_by": null, "createdate": 1650805658000, "updateddate": 1650806088000, "globalid": null, "gisglobalid": "cs6nRccc-BaoK-PlsB-sdRs-KRdsmdRs5snl", "remark": "Ok", "st_area(shape)": 7.536181412358956e-05, "st_perimeter(shape)": 0.04443926375455479}}, {"type": "Feature", "geometry": {"type": "Polygon", "coordinates": [[[75.7112, 27.1789], [75.7109, 27.1782], [75.7115, 27.1781], [75.7108, 27.1755], [75.7139, 27.1744], [75.7128, 27.1713], [75.7094, 27.1721], [75.709, 27.1704], [75.7097, 27.17], [75.7095, 27.1692], [75.7099, 27.1691], [75.7099, 27.1681], [75.7088, 27.1684], [75.7059, 27.1687], [75.7053, 27.1687], [75.7035, 27.1694], [75.7021, 27.1704], [75.7002, 27.1719], [75.6962, 27.174], [75.6973, 27.1742], [75.6977, 27.175], [75.7001, 27.1793], [75.7007, 27.1805], [75.7011, 27.1806], [75.7022, 27.1811], [75.7029, 27.1811], [75.7038, 27.1811], [75.7043, 27.1809], [75.7059, 27.1809], [75.7073, 27.181], [75.7081, 27.181], [75.7086, 27.1807], [75.7098, 27.1797], [75.7107, 27.1791], [75.7112, 27.1789]]]}, "properties": {"objectid": 270104, "statename": "Rajasthan", "statecode": "8", "districtname": "Jaipur", "districtcode": "110", "ulbname": "Chomu", "ulbcode": "800516", "wardname": "Bohara Wali Dani, Ahiro Ki Dani, Labo Ki Dani", "wardcode": "3", "id": null, "status": "APPROVED", "misglobalid": null, "approved_by": null, "createdate": 1650805658000, "updateddate": 1650806108000, "globalid": null, "gisglobalid": "mRnBPoBB-nos5-P4mo-snoc-cladlc54KPml", "remark": "Ok", "st_area(shape)": 0.00013969751203387438, "st_perimeter(shape)": 0.0538285891439247}}, {"type": "Feature", "geometry": {"type": "Polygon", "coordinates": [[[75.6992, 27.1724], [75.7005, 27.167], [75.6993, 27.1666], [75.6991, 27.1688], [75.6977, 27.1691], [75.6974, 27.1671], [75.6947, 27.1677], [75.6929, 27.168], [75.6929, 27.1684], [75.6923, 27.1733], [75.6925, 27.1744], [75.6955, 27.1738], [75.6962, 27.174], [75.6992, 27.1724]]]}, "properties": {"objectid": 270911, "statename": "Rajasthan", "statecode": "8", "districtname": "Jaipur", "districtcode": "110", "ulbname": "Chomu", "ulbcode": "800516", "wardname": "Labo Ki Dani, Kalaliyo Ki Dani, Maliyo Ki Dani", "wardcode": "4", "id": null, "status": "APPROVED", "misglobalid": null, "approved_by": null, "createdate": 1650805658000, "updateddate": 1650806124000, "globalid": null, "gisglobalid": "6Kn65ssP-56P5-PPsK-R4ca-aKsnR4aQnQB4", "remark": "Ok", "st_area(shape)": 4.162379707995449e-05, "st_perimeter(shape)": 0.030563465151989728}}, {"type": "Feature", "geometry": {"type": "Polygon", "coordinates": [[[75.7005, 27.167], [75.7016, 27.1617], [75.6989, 27.162], [75.6989, 27.1634], [75.698, 27.1639], [75.6964, 27.164], [75.6958, 27.1645], [75.695, 27.1646], [75.6949, 27.1622], [75.6934, 27.1624], [75.6934, 27.1625], [75.6932, 27.1627], [75.6932, 27.1651], [75.6929, 27.168], [75.6947, 27.1677], [75.6974, 27.1671], [75.6977, 27.1691], [75.6991, 27.1688], [75.6993, 27.1666], [75.7005, 27.167]]]}, "properties": {"objectid": 269773, "statename": "Rajasthan", "statecode": "8", "districtname": "Jaipur", "districtcode": "110", "ulbname": "Chomu", "ulbcode": "800516", "wardname": "Brightmoon School Shyam Nagar Mirchi Wali Dani", "wardcode": "5", "id": null, "status": "APPROVED", "misglobalid": null, "approved_by": null, "createdate": 1650805658000, "updateddate": 1650806139000, "globalid": null, "gisglobalid": "ccscscam-a5ac-Pdls-R56n-dcsnlR56doma", "remark": "Ok", "st_area(shape)": 3.647586225682849e-05, "st_perimeter(shape)": 0.03484982328990546}}, {"type": "Feature", "geometry": {"type": "Polygon", "coordinates": [[[75.7016, 27.1617], [75.7017, 27.1607], [75.6959, 27.1597], [75.6959, 27.1594], [75.6952, 27.1588], [75.6933, 27.1584], [75.6933, 27.1588], [75.6934, 27.1602], [75.6934, 27.1624], [75.6949, 27.1622], [75.695, 27.1646], [75.6958, 27.1645], [75.6964, 27.164], [75.698, 27.1639], [75.6989, 27.1634], [75.6989, 27.162], [75.7016, 27.1617]]]}, "properties": {"objectid": 269348, "statename": "Rajasthan", "statecode": "8", "districtname": "Jaipur", "districtcode": "110", "ulbname": "Chomu", "ulbcode": "800516", "wardname": "Ravan Gate, Ragunathdasji Ki Bagichi", "wardcode": "6", "id": null, "status": "APPROVED", "misglobalid": null, "approved_by": null, "createdate": 1650805658000, "updateddate": 1650806151000, "globalid": null, "gisglobalid": "mmKmdloK-4dKR-PlB6-soRP-lRnKosQnc6lQ", "remark": "Ok", "st_area(shape)": 2.6570752444818202e-05, "st_perimeter(shape)": 0.02624936193479637}}, {"type": "Feature", "geometry": {"type": "Polygon", "coordinates": [[[75.7036, 27.1499], [75.6933, 27.1525], [75.693, 27.1531], [75.6934, 27.1581], [75.6933, 27.1584], [75.6952, 27.1588], [75.6959, 27.1594], [75.6959, 27.1597], [75.7017, 27.1607], [75.7024, 27.1568], [75.7033, 27.1525], [75.7036, 27.1499]]]}, "properties": {"objectid": 269345, "statename": "Rajasthan", "statecode": "8", "districtname": "Jaipur", "districtcode": "110", "ulbname": "Chomu", "ulbcode": "800516", "wardname": "Nayko Ka Mohlla, Harijan Mohlla, Dulasingh Ki Dani", "wardcode": "7", "id": null, "status": "APPROVED", "misglobalid": null, "approved_by": null, "createdate": 1650805658000, "updateddate": 1650806172000, "globalid": null, "gisglobalid": "naln4KRm-nBaK-PmdK-aKoR-a4BsQnQds55Q", "remark": "Ok", "st_area(shape)": 8.040282999437333e-05, "st_perimeter(shape)": 0.03663810419497348}}, {"type": "Feature", "geometry": {"type": "Polygon", "coordinates": [[[75.7114, 27.1613], [75.7104, 27.1604], [75.7083, 27.1583], [75.7063, 27.1583], [75.7022, 27.158], [75.7017, 27.1607], [75.7029, 27.161], [75.7047, 27.1616], [75.7091, 27.1633], [75.7114, 27.1613]]]}, "properties": {"objectid": 269346, "statename": "Rajasthan", "statecode": "8", "districtname": "Jaipur", "districtcode": "110", "ulbname": "Chomu", "ulbcode": "800516", "wardname": "Renwal Road Power House, Keshav Nagar", "wardcode": "8", "id": null, "status": "APPROVED", "misglobalid": null, "approved_by": null, "createdate": 1650805658000, "updateddate": 1650806189000, "globalid": null, "gisglobalid": "6dQlaR66-a6da-Pd6R-sB4c-RaKdK6o6BQcc", "remark": "Ok", "st_area(shape)": 3.108951390861991e-05, "st_perimeter(shape)": 0.024077103702738613}}, {"type": "Feature", "geometry": {"type": "Polygon", "coordinates": [[[75.7114, 27.1613], [75.7091, 27.1633], [75.7124, 27.1647], [75.7129, 27.1649], [75.7133, 27.1672], [75.7155, 27.1664], [75.716, 27.1662], [75.7163, 27.1659], [75.7163, 27.1656], [75.7146, 27.1641], [75.7119, 27.1618], [75.7114, 27.1613]]]}, "properties": {"objectid": 268569, "statename": "Rajasthan", "statecode": "8", "districtname": "Jaipur", "districtcode": "110", "ulbname": "Chomu", "ulbcode": "800516", "wardname": "Chodani Vikas Nagar, Giwali Koti Barowalo Ki Dani", "wardcode": "9", "id": null, "status": "APPROVED", "misglobalid": null, "approved_by": null, "createdate": 1650805658000, "updateddate": 1650806204000, "globalid": null, "gisglobalid": "lnnc655c-oPo5-Po5K-RcQB-4BaddldoQ4d6", "remark": "Ok", "st_area(shape)": 1.5751532808712405e-05, "st_perimeter(shape)": 0.01961255330570954}}, {"type": "Feature", "geometry": {"type": "Polygon", "coordinates": [[[75.7099, 27.1681], [75.7104, 27.1678], [75.7112, 27.1676], [75.7133, 27.1672], [75.7129, 27.1649], [75.7124, 27.1647], [75.7091, 27.1633], [75.7047, 27.1616], [75.7029, 27.161], [75.7017, 27.1607], [75.7016, 27.1617], [75.7005, 27.167], [75.6992, 27.1724], [75.7002, 27.1719], [75.7021, 27.1704], [75.7035, 27.1694], [75.7053, 27.1687], [75.7059, 27.1687], [75.7088, 27.1684], [75.7099, 27.1681]]]}, "properties": {"objectid": 270107, "statename": "Rajasthan", "statecode": "8", "districtname": "Jaipur", "districtcode": "110", "ulbname": "Chomu", "ulbcode": "800516", "wardname": "Khatiko Ka Mohlla , Ragro Ka Mohlla Ragunathdas Ji", "wardcode": "10", "id": null, "status": "APPROVED", "misglobalid": null, "approved_by": null, "createdate": 1650805658000, "updateddate": 1650806218000, "globalid": null, "gisglobalid": "RQmPolas-P4no-P5R6-sKo4-5mKml4dnQs6K", "remark": "Ok", "st_area(shape)": 7.881163517361224e-05, "st_perimeter(shape)": 0.041597746486903814}}, {"type": "Feature", "geometry": {"type": "Polygon", "coordinates": [[[75.7156, 27.1664], [75.7155, 27.1664], [75.7133, 27.1672], [75.7112, 27.1676], [75.7104, 27.1678], [75.7099, 27.1681], [75.7099, 27.1687], [75.71, 27.1688], [75.7101, 27.1691], [75.7125, 27.1693], [75.7155, 27.1694], [75.7169, 27.1693], [75.716, 27.1682], [75.7156, 27.1671], [75.7156, 27.1664]]]}, "properties": {"objectid": 271299, "statename": "Rajasthan", "statecode": "8", "districtname": "Jaipur", "districtcode": "110", "ulbname": "Chomu", "ulbcode": "800516", "wardname": "Govt. Girls School, Chopad, Jaypol", "wardcode": "11", "id": null, "status": "APPROVED", "misglobalid": null, "approved_by": null, "createdate": 1650805658000, "updateddate": 1650806313000, "globalid": null, "gisglobalid": "n4s4BQ4s-RnPl-P5nd-QK6a-Rodan44aoncc", "remark": "Ok", "st_area(shape)": 1.28206707720896e-05, "st_perimeter(shape)": 0.01711029303447996}}, {"type": "Feature", "geometry": {"type": "Polygon", "coordinates": [[[75.7129, 27.1715], [75.7174, 27.1706], [75.7172, 27.1699], [75.7169, 27.1693], [75.7155, 27.1694], [75.7125, 27.1693], [75.7101, 27.1691], [75.71, 27.1688], [75.7099, 27.1687], [75.7099, 27.1691], [75.7095, 27.1692], [75.7097, 27.17], [75.709, 27.1704], [75.7094, 27.1721], [75.7128, 27.1713], [75.7129, 27.1715]]]}, "properties": {"objectid": 270907, "statename": "Rajasthan", "statecode": "8", "districtname": "Jaipur", "districtcode": "110", "ulbname": "Chomu", "ulbcode": "800516", "wardname": "Sindhi Coloney, Bajrang Pol, Trilok Narsingh Home", "wardcode": "12", "id": null, "status": "APPROVED", "misglobalid": null, "approved_by": null, "createdate": 1650805658000, "updateddate": 1650806334000, "globalid": null, "gisglobalid": "a55cPBaR-ds5Q-PsnB-Rmdo-Q5oQaK4QQQ6B", "remark": "Ok", "st_area(shape)": 1.5919446333089348e-05, "st_perimeter(shape)": 0.021237512565608508}}, {"type": "Feature", "geometry": {"type": "Polygon", "coordinates": [[[75.7182, 27.1746], [75.7182, 27.1744], [75.718, 27.1732], [75.7183, 27.1731], [75.7181, 27.1726], [75.7186, 27.1724], [75.7189, 27.1721], [75.7189, 27.1719], [75.7191, 27.1717], [75.7194, 27.1716], [75.7193, 27.1714], [75.7182, 27.1713], [75.7175, 27.1709], [75.7174, 27.1706], [75.7129, 27.1715], [75.7139, 27.1744], [75.7108, 27.1755], [75.7115, 27.1781], [75.7109, 27.1782], [75.7112, 27.1789], [75.7119, 27.1787], [75.7125, 27.1783], [75.7128, 27.1779], [75.714, 27.1771], [75.7146, 27.1768], [75.7152, 27.1766], [75.7157, 27.1762], [75.7182, 27.1746]]]}, "properties": {"objectid": 268568, "statename": "Rajasthan", "statecode": "8", "districtname": "Jaipur", "districtcode": "110", "ulbname": "Chomu", "ulbcode": "800516", "wardname": "Kotwali Chabutro,  Satsang Bhawan Govt. Sr,Sec Sch", "wardcode": "13", "id": null, "status": "APPROVED", "misglobalid": null, "approved_by": null, "createdate": 1650805658000, "updateddate": 1650806344000, "globalid": null, "gisglobalid": "cPnmQlBR-nc5m-P6mB-smn4-QcnKaRQPd45n", "remark": "Ok", "st_area(shape)": 3.301704767850033e-05, "st_perimeter(shape)": 0.029672621602230376}}, {"type": "Feature", "geometry": {"type": "Polygon", "coordinates": [[[75.719, 27.1651], [75.7187, 27.1636], [75.7173, 27.164], [75.7169, 27.1628], [75.7159, 27.1631], [75.7149, 27.1599], [75.7129, 27.1604], [75.7107, 27.1607], [75.7114, 27.1613], [75.7119, 27.1618], [75.7146, 27.1641], [75.7163, 27.1656], [75.7167, 27.1659], [75.7168, 27.166], [75.7192, 27.1656], [75.7192, 27.1654], [75.7191, 27.1652], [75.719, 27.1651]]]}, "properties": {"objectid": 270106, "statename": "Rajasthan", "statecode": "8", "districtname": "Jaipur", "districtcode": "110", "ulbname": "Chomu", "ulbcode": "800516", "wardname": "New Market, Bihari Ka Mandir Khari Koti Mohlla", "wardcode": "14", "id": null, "status": "APPROVED", "misglobalid": null, "approved_by": null, "createdate": 1650805658000, "updateddate": 1650806354000, "globalid": null, "gisglobalid": "Blcmlssl-cRnB-PBPn-sRml-a4dQsKsl4BPK", "remark": "Ok", "st_area(shape)": 1.9752863282601498e-05, "st_perimeter(shape)": 0.023853890771413526}}, {"type": "Feature", "geometry": {"type": "Polygon", "coordinates": [[[75.723, 27.1645], [75.7227, 27.1629], [75.7212, 27.1632], [75.721, 27.1626], [75.7209, 27.1621], [75.7197, 27.1623], [75.7169, 27.1628], [75.7173, 27.164], [75.7187, 27.1636], [75.719, 27.1651], [75.7191, 27.1652], [75.7192, 27.1654], [75.7192, 27.1656], [75.7196, 27.1655], [75.7209, 27.1654], [75.7219, 27.1651], [75.7219, 27.1647], [75.7219, 27.1646], [75.723, 27.1645]]]}, "properties": {"objectid": 270905, "statename": "Rajasthan", "statecode": "8", "districtname": "Jaipur", "districtcode": "110", "ulbname": "Chomu", "ulbcode": "800516", "wardname": "Dholi Mandi, Indra Coloney Thana Chorha", "wardcode": "15", "id": null, "status": "APPROVED", "misglobalid": null, "approved_by": null, "createdate": 1650805658000, "updateddate": 1650806365000, "globalid": null, "gisglobalid": "5o65QRsm-lB6c-PRoR-QPQ4-daoBs4RBdB4s", "remark": "Ok", "st_area(shape)": 1.2229137330146764e-05, "st_perimeter(shape)": 0.017341513387019062}}, {"type": "Feature", "geometry": {"type": "Polygon", "coordinates": [[[75.7197, 27.1623], [75.7209, 27.1621], [75.7208, 27.1619], [75.7206, 27.1605], [75.7201, 27.1605], [75.7196, 27.1603], [75.7191, 27.1597], [75.716, 27.1603], [75.7152, 27.1586], [75.715, 27.1586], [75.7139, 27.1589], [75.7139, 27.1592], [75.7128, 27.159], [75.7104, 27.159], [75.7092, 27.1567], [75.7075, 27.1568], [75.707, 27.1542], [75.7065, 27.1542], [75.7042, 27.1544], [75.703, 27.154], [75.7024, 27.1568], [75.7022, 27.158], [75.7063, 27.1583], [75.7083, 27.1583], [75.7104, 27.1604], [75.7107, 27.1607], [75.7129, 27.1604], [75.7149, 27.1599], [75.7159, 27.1631], [75.7169, 27.1628], [75.7197, 27.1623]]]}, "properties": {"objectid": 270906, "statename": "Rajasthan", "statecode": "8", "districtname": "Jaipur", "districtcode": "110", "ulbname": "Chomu", "ulbcode": "800516", "wardname": "Aurvadik Hospital, Duputy Distt, Edcucation Office", "wardcode": "16", "id": null, "status": "APPROVED", "misglobalid": null, "approved_by": null, "createdate": 1650805658000, "updateddate": 1650806374000, "globalid": null, "gisglobalid": "d66QdKRo-mlsQ-Pmms-RlRB-aKR4Qm5lcooc", "remark": "Ok", "st_area(shape)": 4.463511383988036e-05, "st_perimeter(shape)": 0.050945983652004215}}, {"type": "Feature", "geometry": {"type": "Polygon", "coordinates": [[[75.7149, 27.1586], [75.7145, 27.1573], [75.7142, 27.156], [75.7136, 27.155], [75.7127, 27.1538], [75.7114, 27.1519], [75.712, 27.1517], [75.7113, 27.1496], [75.7079, 27.1504], [75.7076, 27.1489], [75.7036, 27.1499], [75.7033, 27.1525], [75.703, 27.154], [75.7042, 27.1544], [75.7065, 27.1542], [75.707, 27.1542], [75.7075, 27.1568], [75.7092, 27.1567], [75.7104, 27.159], [75.7128, 27.159], [75.7139, 27.1592], [75.7139, 27.1589], [75.7149, 27.1586]]]}, "properties": {"objectid": 270904, "statename": "Rajasthan", "statecode": "8", "districtname": "Jaipur", "districtcode": "110", "ulbname": "Chomu", "ulbcode": "800516", "wardname": "Ashok Vihar Gora Ki Dani Todawato Ki Dani Jaipur R", "wardcode": "17", "id": null, "status": "APPROVED", "misglobalid": null, "approved_by": null, "createdate": 1650805658000, "updateddate": 1650806388000, "globalid": null, "gisglobalid": "aRBBKP4m-Pm5R-PnBc-R4nK-oslB4dcdlods", "remark": "Ok", "st_area(shape)": 6.69243717609215e-05, "st_perimeter(shape)": 0.03966151738809889}}, {"type": "Feature", "geometry": {"type": "Polygon", "coordinates": [[[75.7191, 27.1597], [75.7212, 27.1587], [75.7211, 27.1584], [75.7206, 27.1582], [75.7199, 27.1567], [75.7199, 27.1562], [75.7194, 27.1547], [75.7189, 27.1538], [75.7187, 27.1522], [75.719, 27.1521], [75.7184, 27.1506], [75.7176, 27.1477], [75.7174, 27.1473], [75.717, 27.1457], [75.7167, 27.1452], [75.716, 27.1452], [75.7157, 27.1445], [75.707, 27.1459], [75.7076, 27.1489], [75.7079, 27.1504], [75.7113, 27.1496], [75.712, 27.1517], [75.7114, 27.1519], [75.7127, 27.1538], [75.7136, 27.155], [75.7142, 27.156], [75.7145, 27.1573], [75.7149, 27.1586], [75.715, 27.1586], [75.7152, 27.1586], [75.716, 27.1603], [75.7191, 27.1597]]]}, "properties": {"objectid": 269772, "statename": "Rajasthan", "statecode": "8", "districtname": "Jaipur", "districtcode": "110", "ulbname": "Chomu", "ulbcode": "800516", "wardname": "Gora Ki Dani Radhaswami Bhag Kacholiya", "wardcode": "18", "id": null, "status": "APPROVED", "misglobalid": null, "approved_by": null, "createdate": 1650805658000, "updateddate": 1650806400000, "globalid": null, "gisglobalid": "cRKBBoQo-Kmcl-PQsd-RnaK-ds55o44dmPsR", "remark": "Ok", "st_area(shape)": 0.00010905934027335878, "st_perimeter(shape)": 0.05123947302823774}}, {"type": "Feature", "geometry": {"type": "Polygon", "coordinates": [[[75.7287, 27.1411], [75.7283, 27.1409], [75.7272, 27.1408], [75.727, 27.1405], [75.7261, 27.1406], [75.7261, 27.1409], [75.7249, 27.1411], [75.7248, 27.1402], [75.7223, 27.1403], [75.7209, 27.1365], [75.7187, 27.1367], [75.718, 27.1344], [75.7129, 27.1356], [75.7052, 27.1382], [75.7056, 27.1394], [75.7067, 27.1442], [75.707, 27.1459], [75.7157, 27.1445], [75.716, 27.1452], [75.7167, 27.1452], [75.717, 27.1457], [75.7174, 27.1473], [75.7176, 27.1477], [75.7184, 27.1506], [75.7189, 27.1518], [75.7212, 27.1514], [75.7224, 27.1513], [75.7222, 27.15], [75.7261, 27.1496], [75.7273, 27.1497], [75.7274, 27.1497], [75.7282, 27.1462], [75.7285, 27.1451], [75.7287, 27.1411]]]}, "properties": {"objectid": 269771, "statename": "Rajasthan", "statecode": "8", "districtname": "Jaipur", "districtcode": "110", "ulbname": "Chomu", "ulbcode": "800516", "wardname": "Arya Hospital, Bhomka Ki Dani Jadmo Ki Dani Karo K", "wardcode": "19", "id": null, "status": "APPROVED", "misglobalid": null, "approved_by": null, "createdate": 1650805658000, "updateddate": 1650806413000, "globalid": null, "gisglobalid": "lB6ond4l-P6oQ-PQcm-Qmsm-KcKd4l6s5lQc", "remark": "Ok", "st_area(shape)": 0.00022828028920147313, "st_perimeter(shape)": 0.07365930826900509}}, {"type": "Feature", "geometry": {"type": "Polygon", "coordinates": [[[75.7271, 27.1507], [75.7274, 27.1497], [75.7273, 27.1497], [75.7261, 27.1496], [75.7222, 27.15], [75.7224, 27.1513], [75.7212, 27.1514], [75.7189, 27.1518], [75.719, 27.1521], [75.7187, 27.1522], [75.7189, 27.1538], [75.7194, 27.1547], [75.7197, 27.1556], [75.7221, 27.1553], [75.7235, 27.1556], [75.7235, 27.1561], [75.7256, 27.1562], [75.726, 27.1537], [75.7264, 27.1527], [75.7271, 27.1507]]]}, "properties": {"objectid": 270908, "statename": "Rajasthan", "statecode": "8", "districtname": "Jaipur", "districtcode": "110", "ulbname": "Chomu", "ulbcode": "800516", "wardname": "Phed Office, Sdm Office, Sabji Mandi, Anaj Mandi", "wardcode": "20", "id": null, "status": "APPROVED", "misglobalid": null, "approved_by": null, "createdate": 1650805658000, "updateddate": 1650806426000, "globalid": null, "gisglobalid": "dQ4oQB54-lnaQ-P665-sn4o-cPcsdPQKddRP", "remark": "Ok", "st_area(shape)": 3.794003098354989e-05, "st_perimeter(shape)": 0.027369661204685043}}, {"type": "Feature", "geometry": {"type": "Polygon", "coordinates": [[[75.7227, 27.1629], [75.723, 27.1626], [75.724, 27.162], [75.7242, 27.1617], [75.7245, 27.1608], [75.7248, 27.159], [75.7254, 27.1569], [75.7256, 27.1562], [75.7235, 27.1561], [75.7235, 27.1556], [75.7221, 27.1553], [75.7197, 27.1556], [75.7199, 27.1562], [75.7199, 27.1567], [75.7206, 27.1582], [75.7211, 27.1584], [75.7212, 27.1587], [75.7191, 27.1597], [75.7196, 27.1603], [75.7201, 27.1605], [75.7206, 27.1605], [75.7208, 27.1619], [75.721, 27.1626], [75.7212, 27.1632], [75.7227, 27.1629]]]}, "properties": {"objectid": 269347, "statename": "Rajasthan", "statecode": "8", "districtname": "Jaipur", "districtcode": "110", "ulbname": "Chomu", "ulbcode": "800516", "wardname": "Madina Coloney, Kakiran Mohlla, Balol Kha Clolney", "wardcode": "21", "id": null, "status": "APPROVED", "misglobalid": null, "approved_by": null, "createdate": 1650805658000, "updateddate": 1650806441000, "globalid": null, "gisglobalid": "n4m6KcQK-6RKB-PsBQ-almc-lm4odmd65Bm4", "remark": "Ok", "st_area(shape)": 3.15763926193527e-05, "st_perimeter(shape)": 0.026285406699722014}}, {"type": "Feature", "geometry": {"type": "Polygon", "coordinates": [[[75.7345, 27.1556], [75.7322, 27.1489], [75.7323, 27.1488], [75.7302, 27.1422], [75.7287, 27.1411], [75.7285, 27.1451], [75.7282, 27.1462], [75.7274, 27.1497], [75.7271, 27.1507], [75.7264, 27.1527], [75.726, 27.1537], [75.7256, 27.1562], [75.7254, 27.1569], [75.7248, 27.159], [75.7245, 27.1608], [75.7243, 27.1614], [75.7244, 27.1629], [75.725, 27.1628], [75.725, 27.1624], [75.7283, 27.1617], [75.7285, 27.1615], [75.7285, 27.1592], [75.7287, 27.1589], [75.7326, 27.1574], [75.734, 27.1568], [75.7338, 27.156], [75.7338, 27.1559], [75.7339, 27.1557], [75.7345, 27.1556]]]}, "properties": {"objectid": 268567, "statename": "Rajasthan", "statecode": "8", "districtname": "Jaipur", "districtcode": "110", "ulbname": "Chomu", "ulbcode": "800516", "wardname": "Obc Bank, Govt. School No 2, Sagar Hotal Jogi Mohl", "wardcode": "22", "id": null, "status": "APPROVED", "misglobalid": null, "approved_by": null, "createdate": 1650805658000, "updateddate": 1650806453000, "globalid": null, "gisglobalid": "lRKoPd4R-aP5a-PadQ-as5s-BcoK6Qo4dRBc", "remark": "Ok", "st_area(shape)": 0.0001024637575141879, "st_perimeter(shape)": 0.053268100582448165}}, {"type": "Feature", "geometry": {"type": "Polygon", "coordinates": [[[75.7367, 27.1493], [75.7374, 27.1509], [75.738, 27.1524], [75.7392, 27.1522], [75.7399, 27.1539], [75.742, 27.1531], [75.743, 27.1526], [75.7435, 27.1522], [75.7435, 27.1517], [75.7431, 27.1508], [75.7426, 27.149], [75.7422, 27.1481], [75.7415, 27.1477], [75.7403, 27.1481], [75.7401, 27.1483], [75.7399, 27.1486], [75.7397, 27.1488], [75.7367, 27.1493]]]}, "properties": {"objectid": 270105, "statename": "Rajasthan", "statecode": "8", "districtname": "Jaipur", "districtcode": "110", "ulbname": "Chomu", "ulbcode": "800516", "wardname": "Guwariyo Ki Mori, Purohtion Ka Mohlla, Kumawat Moh", "wardcode": "23", "id": null, "status": "APPROVED", "misglobalid": null, "approved_by": null, "createdate": 1650805658000, "updateddate": 1650806466000, "globalid": null, "gisglobalid": "B5P4aRKs-Km5Q-P6s6-RoQo-nRQRaa5PoKoR", "remark": "Ok", "st_area(shape)": 2.5207429758870636e-05, "st_perimeter(shape)": 0.02079196853340568}}, {"type": "Feature", "geometry": {"type": "Polygon", "coordinates": [[[75.7161, 27.1661], [75.716, 27.1662], [75.7156, 27.1664], [75.7156, 27.1671], [75.716, 27.1682], [75.7169, 27.1693], [75.7172, 27.1699], [75.7174, 27.1706], [75.7175, 27.1709], [75.7195, 27.1698], [75.7191, 27.1689], [75.7185, 27.1682], [75.7173, 27.1672], [75.7163, 27.1664], [75.7161, 27.1661]]]}, "properties": {"objectid": 270103, "statename": "Rajasthan", "statecode": "8", "districtname": "Jaipur", "districtcode": "110", "ulbname": "Chomu", "ulbcode": "800516", "wardname": "Meeno Ka Mohlla Luharo Ka Mohlla, Sanjay Printer", "wardcode": "24", "id": null, "status": "APPROVED", "misglobalid": null, "approved_by": null, "createdate": 1650805658000, "updateddate": 1650806477000, "globalid": null, "gisglobalid": "sKQdBnon-Rol5-Polm-sR4R-KoKmaa4BR5do", "remark": "Ok", "st_area(shape)": 8.193721261714072e-06, "st_perimeter(shape)": 0.013050603905220446}}, {"type": "Feature", "geometry": {"type": "Polygon", "coordinates": [[[75.7222, 27.1718], [75.7221, 27.1696], [75.7217, 27.1696], [75.7195, 27.1698], [75.7175, 27.1709], [75.7182, 27.1713], [75.7193, 27.1714], [75.7199, 27.1715], [75.72, 27.1715], [75.7212, 27.1718], [75.7222, 27.1718]]]}, "properties": {"objectid": 269774, "statename": "Rajasthan", "statecode": "8", "districtname": "Jaipur", "districtcode": "110", "ulbname": "Chomu", "ulbcode": "800516", "wardname": "Patano Ka Mohlla, Laxminath Chowk Haji Coloney", "wardcode": "25", "id": null, "status": "APPROVED", "misglobalid": null, "approved_by": null, "createdate": 1650805658000, "updateddate": 1650806489000, "globalid": null, "gisglobalid": "5cQan4KR-Boa4-PPsm-s4lK-ccac6PdR44Qm", "remark": "Ok", "st_area(shape)": 7.183047249744785e-06, "st_perimeter(shape)": 0.0120145123980864}}, {"type": "Feature", "geometry": {"type": "Polygon", "coordinates": [[[75.7212, 27.1697], [75.7211, 27.1687], [75.7206, 27.1687], [75.7206, 27.1682], [75.7207, 27.1681], [75.7205, 27.1676], [75.7203, 27.1671], [75.7202, 27.1666], [75.7192, 27.167], [75.7188, 27.1671], [75.7184, 27.1672], [75.7177, 27.1676], [75.7185, 27.1682], [75.7191, 27.1689], [75.7195, 27.1698], [75.7212, 27.1697]]]}, "properties": {"objectid": 270505, "statename": "Rajasthan", "statecode": "8", "districtname": "Jaipur", "districtcode": "110", "ulbname": "Chomu", "ulbcode": "800516", "wardname": "Badnpura Chowk, Shiv Coloney Maliyo Ka Mohlla", "wardcode": "26", "id": null, "status": "APPROVED", "misglobalid": null, "approved_by": null, "createdate": 1650805658000, "updateddate": 1650813118000, "globalid": null, "gisglobalid": "65dRmn4P-64d4-Po5a-QamB-s6d6PRlnmddP", "remark": "Ok", "st_area(shape)": 5.945689782294028e-06, "st_perimeter(shape)": 0.011080263278810211}}, {"type": "Feature", "geometry": {"type": "Polygon", "coordinates": [[[75.7198, 27.1668], [75.7196, 27.1662], [75.7186, 27.1665], [75.7184, 27.1663], [75.7181, 27.1658], [75.7168, 27.166], [75.7167, 27.1659], [75.7163, 27.1656], [75.7163, 27.1659], [75.7161, 27.1661], [75.7163, 27.1664], [75.7173, 27.1672], [75.7177, 27.1676], [75.7184, 27.1672], [75.7188, 27.1671], [75.7192, 27.167], [75.7198, 27.1668]]]}, "properties": {"objectid": 270508, "statename": "Rajasthan", "statecode": "8", "districtname": "Jaipur", "districtcode": "110", "ulbname": "Chomu", "ulbcode": "800516", "wardname": "Jato Ka Mohlla, Madhani Petrol Pump, Kumaro Ka Moh", "wardcode": "27", "id": null, "status": "APPROVED", "misglobalid": null, "approved_by": null, "createdate": 1650805658000, "updateddate": 1650813137000, "globalid": null, "gisglobalid": "caBo6oP6-l45a-Po5l-Rlsm-Q6BRKnKnaann", "remark": "Ok", "st_area(shape)": 3.4626576846014448e-06, "st_perimeter(shape)": 0.009514532475543033}}, {"type": "Feature", "geometry": {"type": "Polygon", "coordinates": [[[75.7247, 27.1696], [75.7243, 27.1691], [75.7241, 27.169], [75.7232, 27.1693], [75.7226, 27.1695], [75.7221, 27.1696], [75.7222, 27.1718], [75.7234, 27.1719], [75.7242, 27.172], [75.7243, 27.1713], [75.7246, 27.1712], [75.7247, 27.171], [75.7247, 27.1704], [75.7247, 27.1696]]]}, "properties": {"objectid": 268570, "statename": "Rajasthan", "statecode": "8", "districtname": "Jaipur", "districtcode": "110", "ulbname": "Chomu", "ulbcode": "800516", "wardname": "Saini Dharam Kanta Hathi Tibba, Shyam Coloney", "wardcode": "28", "id": null, "status": "APPROVED", "misglobalid": null, "approved_by": null, "createdate": 1650805658000, "updateddate": 1650813151000, "globalid": null, "gisglobalid": "oRcQQ4ll-RaKn-PKoK-RQP5-dKnKmdQlaKsK", "remark": "Ok", "st_area(shape)": 6.239916173950223e-06, "st_perimeter(shape)": 0.009781682253044538}}, {"type": "Feature", "geometry": {"type": "Polygon", "coordinates": [[[75.7243, 27.1691], [75.7238, 27.1683], [75.7223, 27.1689], [75.7221, 27.1689], [75.722, 27.1687], [75.7218, 27.1682], [75.7218, 27.1676], [75.7216, 27.1672], [75.7207, 27.1654], [75.7196, 27.1655], [75.7181, 27.1658], [75.7184, 27.1663], [75.7186, 27.1665], [75.7196, 27.1662], [75.7198, 27.1668], [75.7202, 27.1666], [75.7203, 27.1671], [75.7205, 27.1676], [75.7207, 27.1681], [75.7206, 27.1682], [75.7206, 27.1687], [75.7211, 27.1687], [75.7212, 27.1697], [75.7217, 27.1696], [75.7221, 27.1696], [75.7226, 27.1695], [75.7232, 27.1693], [75.7241, 27.169], [75.7243, 27.1691]]]}, "properties": {"objectid": 264930, "statename": "Rajasthan", "statecode": "8", "districtname": "Jaipur", "districtcode": "110", "ulbname": "Chomu", "ulbcode": "800516", "wardname": "Power Hose Morija Road, Samod Road, Gidhawali Dani", "wardcode": "29", "id": null, "status": "APPROVED", "misglobalid": null, "approved_by": null, "createdate": 1650805658000, "updateddate": 1650813168000, "globalid": null, "gisglobalid": "RQ64doBa-o4mm-Pmnn-RQ66-BsQQoBBmdd54", "remark": "Ok", "st_area(shape)": 7.491182333322907e-06, "st_perimeter(shape)": 0.01903699607184398}}, {"type": "Feature", "geometry": {"type": "Polygon", "coordinates": [[[75.7238, 27.1683], [75.7236, 27.1677], [75.723, 27.1645], [75.7219, 27.1646], [75.7219, 27.1647], [75.7219, 27.1651], [75.7209, 27.1654], [75.7207, 27.1654], [75.7216, 27.1672], [75.7218, 27.1676], [75.7218, 27.1682], [75.722, 27.1687], [75.7221, 27.1689], [75.7223, 27.1689], [75.7238, 27.1683]]]}, "properties": {"objectid": 269775, "statename": "Rajasthan", "statecode": "8", "districtname": "Jaipur", "districtcode": "110", "ulbname": "Chomu", "ulbcode": "800516", "wardname": "Hanuman Ji Ka Rasta, Sanskrit School, Ranyo Ki Dan", "wardcode": "30", "id": null, "status": "APPROVED", "misglobalid": null, "approved_by": null, "createdate": 1650805658000, "updateddate": 1650813182000, "globalid": null, "gisglobalid": "nBn5m5dd-464s-PBKn-RB5P-c6RaQl4llml5", "remark": "Ok", "st_area(shape)": 7.952650217407082e-06, "st_perimeter(shape)": 0.012368846825532385}}, {"type": "Feature", "geometry": {"type": "Polygon", "coordinates": [[[75.723, 27.1645], [75.7236, 27.1677], [75.7239, 27.1676], [75.724, 27.1674], [75.7242, 27.1666], [75.7242, 27.1663], [75.7249, 27.1662], [75.725, 27.1667], [75.726, 27.1665], [75.7267, 27.1663], [75.7264, 27.1655], [75.7261, 27.1654], [75.7259, 27.1652], [75.7258, 27.165], [75.7256, 27.164], [75.723, 27.1645]]]}, "properties": {"objectid": 271302, "statename": "Rajasthan", "statecode": "8", "districtname": "Jaipur", "districtcode": "110", "ulbname": "Chomu", "ulbcode": "800516", "wardname": "Sagar Hotal Vala Area", "wardcode": "31", "id": null, "status": "APPROVED", "misglobalid": null, "approved_by": null, "createdate": 1650805658000, "updateddate": 1650813201000, "globalid": null, "gisglobalid": "54PP5aBs-aPPs-P5Kd-R6om-5PBRnmls5B54", "remark": "Ok", "st_area(shape)": 7.101282546312995e-06, "st_perimeter(shape)": 0.013216081782007377}}, {"type": "Feature", "geometry": {"type": "Polygon", "coordinates": [[[75.7264, 27.1655], [75.7267, 27.1663], [75.726, 27.1665], [75.725, 27.1667], [75.7249, 27.1662], [75.7242, 27.1663], [75.7242, 27.1666], [75.724, 27.1674], [75.7239, 27.1676], [75.7236, 27.1677], [75.7238, 27.1683], [75.7243, 27.1691], [75.7247, 27.1696], [75.7278, 27.1684], [75.7287, 27.1678], [75.7281, 27.1665], [75.7272, 27.1666], [75.7269, 27.1654], [75.7264, 27.1655]]]}, "properties": {"objectid": 271300, "statename": "Rajasthan", "statecode": "8", "districtname": "Jaipur", "districtcode": "110", "ulbname": "Chomu", "ulbcode": "800516", "wardname": "Mohammadi Masjid Vala Area", "wardcode": "32", "id": null, "status": "APPROVED", "misglobalid": null, "approved_by": null, "createdate": 1650805658000, "updateddate": 1650813215000, "globalid": null, "gisglobalid": "sP6n64KP-oBRn-Pna6-Qlnn-c5oPadm6P5PK", "remark": "Ok", "st_area(shape)": 1.1433758899160187e-05, "st_perimeter(shape)": 0.016237885664647667}}, {"type": "Feature", "geometry": {"type": "Polygon", "coordinates": [[[75.7285, 27.1607], [75.7285, 27.1615], [75.7283, 27.1617], [75.725, 27.1624], [75.725, 27.1628], [75.7244, 27.1629], [75.7243, 27.1614], [75.7242, 27.1617], [75.724, 27.162], [75.723, 27.1626], [75.7227, 27.1629], [75.723, 27.1645], [75.7256, 27.164], [75.7258, 27.165], [75.7259, 27.1652], [75.7261, 27.1654], [75.7264, 27.1655], [75.7269, 27.1654], [75.7272, 27.1666], [75.7281, 27.1665], [75.7287, 27.1678], [75.7304, 27.1669], [75.7299, 27.1659], [75.7298, 27.1633], [75.7298, 27.1611], [75.7304, 27.161], [75.7303, 27.1601], [75.7285, 27.1607]]]}, "properties": {"objectid": 269349, "statename": "Rajasthan", "statecode": "8", "districtname": "Jaipur", "districtcode": "110", "ulbname": "Chomu", "ulbcode": "800516", "wardname": "Aasha Niketan School Vala Area", "wardcode": "33", "id": null, "status": "APPROVED", "misglobalid": null, "approved_by": null, "createdate": 1650805658000, "updateddate": 1650813228000, "globalid": null, "gisglobalid": "Bc64R5B6-o6lR-PR4o-QKcQ-omaaBQmKQPm5", "remark": "Ok", "st_area(shape)": 2.711558487395416e-05, "st_perimeter(shape)": 0.030555964343162174}}, {"type": "Feature", "geometry": {"type": "Polygon", "coordinates": [[[75.7374, 27.1642], [75.7374, 27.164], [75.7369, 27.1633], [75.7358, 27.1613], [75.7351, 27.159], [75.7345, 27.1556], [75.7339, 27.1557], [75.7338, 27.1559], [75.7338, 27.156], [75.734, 27.1568], [75.7326, 27.1574], [75.7287, 27.1589], [75.7285, 27.1592], [75.7285, 27.1607], [75.7303, 27.1601], [75.7304, 27.161], [75.7298, 27.1611], [75.7298, 27.1633], [75.7299, 27.1659], [75.7304, 27.1669], [75.7355, 27.1648], [75.7366, 27.1644], [75.7374, 27.1642]]]}, "properties": {"objectid": 271301, "statename": "Rajasthan", "statecode": "8", "districtname": "Jaipur", "districtcode": "110", "ulbname": "Chomu", "ulbcode": "800516", "wardname": "Police Quarter Bhojlav Road Vala Area", "wardcode": "34", "id": null, "status": "APPROVED", "misglobalid": null, "approved_by": null, "createdate": 1650805658000, "updateddate": 1650813246000, "globalid": null, "gisglobalid": "s6asa6RB-Qdmc-P6l5-sRan-ndRmnda6KnBa", "remark": "Ok", "st_area(shape)": 5.257482048826508e-05, "st_perimeter(shape)": 0.0351314248030213}}, {"type": "Feature", "geometry": {"type": "Polygon", "coordinates": [[[75.7293, 27.1675], [75.7287, 27.1678], [75.7278, 27.1684], [75.7247, 27.1696], [75.7247, 27.1704], [75.7247, 27.171], [75.7246, 27.1712], [75.7243, 27.1713], [75.7249, 27.1712], [75.7253, 27.171], [75.7256, 27.1708], [75.7258, 27.1706], [75.7259, 27.1707], [75.7278, 27.1719], [75.7292, 27.1728], [75.73, 27.1727], [75.732, 27.1728], [75.732, 27.171], [75.7312, 27.171], [75.7312, 27.1681], [75.7304, 27.1682], [75.7298, 27.1683], [75.7293, 27.1684], [75.7293, 27.1675]]]}, "properties": {"objectid": 269776, "statename": "Rajasthan", "statecode": "8", "districtname": "Jaipur", "districtcode": "110", "ulbname": "Chomu", "ulbcode": "800516", "wardname": "Ashok Plaza Vala Area", "wardcode": "35", "id": null, "status": "APPROVED", "misglobalid": null, "approved_by": null, "createdate": 1650805658000, "updateddate": 1650813262000, "globalid": null, "gisglobalid": "mdPmaRdo-c4dP-PQdd-QoQK-a55nnmRl5KPa", "remark": "Ok", "st_area(shape)": 2.331943267141092e-05, "st_perimeter(shape)": 0.023753147633725335}}, {"type": "Feature", "geometry": {"type": "Polygon", "coordinates": [[[75.7386, 27.1707], [75.7374, 27.1642], [75.7366, 27.1644], [75.7355, 27.1648], [75.7304, 27.1669], [75.7293, 27.1675], [75.7293, 27.1684], [75.7298, 27.1683], [75.7304, 27.1682], [75.7312, 27.1681], [75.7312, 27.171], [75.732, 27.171], [75.732, 27.1728], [75.7344, 27.1723], [75.7352, 27.1722], [75.7385, 27.1721], [75.7388, 27.1721], [75.7386, 27.1707]]]}, "properties": {"objectid": 270910, "statename": "Rajasthan", "statecode": "8", "districtname": "Jaipur", "districtcode": "110", "ulbname": "Chomu", "ulbcode": "800516", "wardname": "Morij Road Power House Vala Area", "wardcode": "36", "id": null, "status": "APPROVED", "misglobalid": null, "approved_by": null, "createdate": 1650805658000, "updateddate": 1650813281000, "globalid": null, "gisglobalid": "acsscQac-a65l-PPBd-slno-PQl4RPa4ols4", "remark": "Ok", "st_area(shape)": 5.109476458299193e-05, "st_perimeter(shape)": 0.03180155859265595}}, {"type": "Feature", "geometry": {"type": "Polygon", "coordinates": [[[75.7215, 27.1723], [75.7182, 27.1746], [75.7175, 27.175], [75.7179, 27.1757], [75.7182, 27.176], [75.7196, 27.1757], [75.7203, 27.1758], [75.7221, 27.1736], [75.7215, 27.1723]]]}, "properties": {"objectid": 270506, "statename": "Rajasthan", "statecode": "8", "districtname": "Jaipur", "districtcode": "110", "ulbname": "Chomu", "ulbcode": "800516", "wardname": "Raghunat Das Ji Ki Bagichi Vala Area", "wardcode": "37", "id": null, "status": "APPROVED", "misglobalid": null, "approved_by": null, "createdate": 1650805658000, "updateddate": 1650813302000, "globalid": null, "gisglobalid": "msKcl5Km-4Ro4-Pl66-R6KK-ms4dosBK6BBm", "remark": "Ok", "st_area(shape)": 7.931313496479275e-06, "st_perimeter(shape)": 0.012336534424058812}}, {"type": "Feature", "geometry": {"type": "Polygon", "coordinates": [[[75.7215, 27.1723], [75.7217, 27.1722], [75.722, 27.172], [75.722, 27.1718], [75.7212, 27.1718], [75.72, 27.1715], [75.7199, 27.1715], [75.7193, 27.1714], [75.7194, 27.1716], [75.7191, 27.1717], [75.7189, 27.1719], [75.7189, 27.1721], [75.7186, 27.1724], [75.7181, 27.1726], [75.7183, 27.1731], [75.718, 27.1732], [75.7182, 27.1744], [75.7182, 27.1746], [75.7215, 27.1723]]]}, "properties": {"objectid": 270509, "statename": "Rajasthan", "statecode": "8", "districtname": "Jaipur", "districtcode": "110", "ulbname": "Chomu", "ulbcode": "800516", "wardname": "Bachha Park Vala Area", "wardcode": "38", "id": null, "status": "APPROVED", "misglobalid": null, "approved_by": null, "createdate": 1650805658000, "updateddate": 1650813321000, "globalid": null, "gisglobalid": "Q64d6P5l-asPl-PcnQ-ad4n-mlP4Q6nBKRBs", "remark": "Ok", "st_area(shape)": 5.7691192965955515e-06, "st_perimeter(shape)": 0.011590400407143268}}, {"type": "Feature", "geometry": {"type": "Polygon", "coordinates": [[[75.7227, 27.1718], [75.7222, 27.1718], [75.722, 27.1718], [75.722, 27.172], [75.7217, 27.1722], [75.7215, 27.1723], [75.7221, 27.1736], [75.7209, 27.1751], [75.7216, 27.175], [75.7236, 27.1747], [75.7244, 27.1745], [75.7239, 27.1734], [75.7226, 27.1735], [75.7223, 27.1733], [75.7227, 27.1718]]]}, "properties": {"objectid": 269351, "statename": "Rajasthan", "statecode": "8", "districtname": "Jaipur", "districtcode": "110", "ulbname": "Chomu", "ulbcode": "800516", "wardname": "Kalka Mata Mandir Ramdev Ji Ke Mandir Vala Area", "wardcode": "39", "id": null, "status": "APPROVED", "misglobalid": null, "approved_by": null, "createdate": 1650805658000, "updateddate": 1650813340000, "globalid": null, "gisglobalid": "4a54lQl5-PsBB-PsKR-scmB-csadnldKslm6", "remark": "Ok", "st_area(shape)": 4.726646473681852e-06, "st_perimeter(shape)": 0.012757962280697652}}, {"type": "Feature", "geometry": {"type": "Polygon", "coordinates": [[[75.7292, 27.1728], [75.7278, 27.1719], [75.7271, 27.1714], [75.727, 27.1725], [75.7242, 27.172], [75.7234, 27.1719], [75.7227, 27.1718], [75.7223, 27.1733], [75.7226, 27.1735], [75.7239, 27.1734], [75.7244, 27.1745], [75.7251, 27.1743], [75.7287, 27.1734], [75.729, 27.1733], [75.7291, 27.1731], [75.7292, 27.1728]]]}, "properties": {"objectid": 270507, "statename": "Rajasthan", "statecode": "8", "districtname": "Jaipur", "districtcode": "110", "ulbname": "Chomu", "ulbcode": "800516", "wardname": "Imam Chok Vala Area", "wardcode": "40", "id": null, "status": "APPROVED", "misglobalid": null, "approved_by": null, "createdate": 1650805658000, "updateddate": 1650813374000, "globalid": null, "gisglobalid": "alsRl4mQ-oRon-PlmK-RKRc-lBPonlmso5PB", "remark": "Ok", "st_area(shape)": 1.1278690716943374e-05, "st_perimeter(shape)": 0.017644946910823738}}, {"type": "Feature", "geometry": {"type": "Polygon", "coordinates": [[[75.7271, 27.1714], [75.7259, 27.1707], [75.7258, 27.1706], [75.7256, 27.1708], [75.7253, 27.171], [75.7249, 27.1712], [75.7243, 27.1713], [75.7242, 27.172], [75.727, 27.1725], [75.7271, 27.1714]]]}, "properties": {"objectid": 269350, "statename": "Rajasthan", "statecode": "8", "districtname": "Jaipur", "districtcode": "110", "ulbname": "Chomu", "ulbcode": "800516", "wardname": "Imam Chok Bus Stand Vala Area", "wardcode": "41", "id": null, "status": "APPROVED", "misglobalid": null, "approved_by": null, "createdate": 1650805658000, "updateddate": 1650813390000, "globalid": null, "gisglobalid": "RsndBRBK-Ksa5-PdQK-QQmP-BaaaKl6l46md", "remark": "Ok", "st_area(shape)": 3.415839656799684e-06, "st_perimeter(shape)": 0.007841351747801366}}, {"type": "Feature", "geometry": {"type": "Polygon", "coordinates": [[[75.7378, 27.175], [75.7381, 27.1722], [75.7378, 27.1722], [75.7352, 27.1722], [75.7344, 27.1723], [75.732, 27.1728], [75.73, 27.1727], [75.7292, 27.1728], [75.7291, 27.1731], [75.729, 27.1733], [75.7287, 27.1734], [75.7251, 27.1743], [75.7247, 27.1744], [75.7252, 27.1759], [75.7254, 27.176], [75.7263, 27.1758], [75.7282, 27.1753], [75.7287, 27.1751], [75.7289, 27.1745], [75.7291, 27.1742], [75.7292, 27.1741], [75.7309, 27.175], [75.733, 27.1756], [75.7354, 27.1763], [75.7368, 27.1767], [75.7372, 27.1768], [75.7378, 27.175]]]}, "properties": {"objectid": 264932, "statename": "Rajasthan", "statecode": "8", "districtname": "Jaipur", "districtcode": "110", "ulbname": "Chomu", "ulbcode": "800516", "wardname": "Veer Hanuman Ji Mandir Vala Area", "wardcode": "42", "id": null, "status": "APPROVED", "misglobalid": null, "approved_by": null, "createdate": 1650805658000, "updateddate": 1650813405000, "globalid": null, "gisglobalid": "a5alQKcQ-PQlR-PclK-QBlQ-5465o5ms5s6o", "remark": "Ok", "st_area(shape)": 3.4918025396910046e-05, "st_perimeter(shape)": 0.033527504219999754}}, {"type": "Feature", "geometry": {"type": "Polygon", "coordinates": [[[75.7254, 27.176], [75.727, 27.1771], [75.7289, 27.1782], [75.7302, 27.1794], [75.7323, 27.1814], [75.7344, 27.1825], [75.7358, 27.1832], [75.74, 27.1815], [75.7409, 27.1813], [75.7405, 27.18], [75.7418, 27.1796], [75.746, 27.179], [75.7451, 27.1778], [75.7433, 27.1775], [75.7402, 27.176], [75.7402, 27.1757], [75.7412, 27.1733], [75.741, 27.1707], [75.7404, 27.1704], [75.7403, 27.1701], [75.7398, 27.1698], [75.7397, 27.1705], [75.7386, 27.1707], [75.7388, 27.1721], [75.7385, 27.1721], [75.7381, 27.1722], [75.7378, 27.175], [75.7372, 27.1768], [75.7368, 27.1767], [75.7354, 27.1763], [75.733, 27.1756], [75.7309, 27.175], [75.7292, 27.1741], [75.7291, 27.1742], [75.7289, 27.1745], [75.7287, 27.1751], [75.7282, 27.1753], [75.7263, 27.1758], [75.7254, 27.176]]]}, "properties": {"objectid": 270510, "statename": "Rajasthan", "statecode": "8", "districtname": "Jaipur", "districtcode": "110", "ulbname": "Chomu", "ulbcode": "800516", "wardname": "Ganesh Garden Vala Area", "wardcode": "43", "id": null, "status": "APPROVED", "misglobalid": null, "approved_by": null, "createdate": 1650805658000, "updateddate": 1650813429000, "globalid": null, "gisglobalid": "aBlcRlRo-os5s-Ps6c-Rlon-oP6m5n5ald55", "remark": "Ok", "st_area(shape)": 0.00010026039718856672, "st_perimeter(shape)": 0.06044607818916023}}, {"type": "Feature", "geometry": {"type": "Polygon", "coordinates": [[[75.7214, 27.1751], [75.7217, 27.1762], [75.722, 27.1767], [75.7221, 27.1767], [75.7225, 27.1764], [75.7227, 27.1762], [75.7233, 27.1762], [75.7235, 27.1766], [75.7237, 27.1772], [75.7236, 27.1794], [75.7239, 27.1822], [75.7244, 27.1845], [75.7241, 27.1856], [75.7246, 27.189], [75.7264, 27.1888], [75.729, 27.1899], [75.7289, 27.1887], [75.7299, 27.1887], [75.7329, 27.1883], [75.734, 27.1879], [75.7372, 27.1871], [75.7386, 27.1865], [75.7365, 27.1843], [75.7358, 27.1832], [75.7344, 27.1825], [75.7323, 27.1814], [75.7302, 27.1794], [75.7289, 27.1782], [75.727, 27.1771], [75.7254, 27.176], [75.7252, 27.1759], [75.7247, 27.1744], [75.7244, 27.1745], [75.7236, 27.1747], [75.7216, 27.175], [75.7214, 27.1751]]]}, "properties": {"objectid": 264931, "statename": "Rajasthan", "statecode": "8", "districtname": "Jaipur", "districtcode": "110", "ulbname": "Chomu", "ulbcode": "800516", "wardname": "New Sanrayaj School Vala Area", "wardcode": "44", "id": null, "status": "APPROVED", "misglobalid": null, "approved_by": null, "createdate": 1650805658000, "updateddate": 1650813448000, "globalid": null, "gisglobalid": "Koccm45d-odcc-P6o5-RQKs-RcsdcRQnd66Q", "remark": "Ok", "st_area(shape)": 0.00012099152096823208, "st_perimeter(shape)": 0.054387863597339305}}, {"type": "Feature", "geometry": {"type": "Polygon", "coordinates": [[[75.7214, 27.1751], [75.7209, 27.1751], [75.7203, 27.1758], [75.7194, 27.1773], [75.7186, 27.1791], [75.7184, 27.1799], [75.7177, 27.1819], [75.7176, 27.1832], [75.7176, 27.1836], [75.7177, 27.1835], [75.7238, 27.1836], [75.7241, 27.1856], [75.7244, 27.1845], [75.7239, 27.1822], [75.7236, 27.1794], [75.7237, 27.1772], [75.7235, 27.1766], [75.7233, 27.1762], [75.7227, 27.1762], [75.7225, 27.1764], [75.7221, 27.1767], [75.722, 27.1767], [75.7217, 27.1762], [75.7214, 27.1751]]]}, "properties": {"objectid": 270909, "statename": "Rajasthan", "statecode": "8", "districtname": "Jaipur", "districtcode": "110", "ulbname": "Chomu", "ulbcode": "800516", "wardname": "Aamliya Kabrishtan Vala Area", "wardcode": "45", "id": null, "status": "APPROVED", "misglobalid": null, "approved_by": null, "createdate": 1650805658000, "updateddate": 1650813466000, "globalid": null, "gisglobalid": "os6P56dd-4444-PP6P-RoQB-5RoPoK5RBdBK", "remark": "Ok", "st_area(shape)": 4.033800406760039e-05, "st_perimeter(shape)": 0.030696787878044657}}]}
