{"type":"Topology","arcs":[[[20095,49068],[-17224,9317],[-2871,11801],[15789,16149],[26794,13664],[11005,-8385],[-10048,-14907],[-5263,-13664],[-10048,-14907],[-8134,932]],[[20095,49068],[1436,-11491]],[[21531,37577],[-1914,-3726]],[[19617,33851],[-10048,1242]],[[9569,35093],[479,-7143]],[[10048,27950],[-9091,16149],[19138,4969]],[[30143,37267],[-9091,-4038]],[[21052,33229],[-957,0]],[[20095,33229],[1436,4348]],[[21531,37577],[8612,-310]],[[35885,44409],[2392,-1552]],[[38277,42857],[-8134,-5590]],[[30143,37267],[5742,7142]],[[34449,33229],[-4784,622]],[[29665,33851],[8612,9006]],[[38277,42857],[1914,3105],[-11962,1553],[10527,16149],[6220,14596],[10047,4658],[10527,-4037],[-8134,-7764],[-4785,-7764],[479,-11801],[-6221,-10559],[-12440,-7764]],[[61722,75155],[15789,0],[-3349,-21739],[21052,-621],[4785,-17081],[-15789,-3416],[-10527,8385],[-24401,4037],[4306,6832],[-478,11180],[8612,12423]],[[72248,32298],[-35885,1242],[11483,8074],[1436,2795],[22966,-12111]],[[9569,35093],[10048,-1242]],[[19617,33851],[478,-622]],[[21052,33229],[2871,-931]],[[23923,32298],[479,-311]],[[24402,31987],[0,-621]],[[24402,31366],[-1914,-1553]],[[22488,29813],[0,-1242]],[[22488,28571],[-5742,0]],[[16746,28571],[-7177,6522]],[[22488,29813],[1914,1553]],[[24402,31366],[0,621]],[[23923,32298],[3349,-621]],[[27272,31677],[479,0]],[[27751,31677],[-479,-1243]],[[27272,30434],[-478,-931]],[[26794,29503],[-1435,0]],[[25359,29503],[-2871,-932]],[[29665,33851],[4784,-622]],[[34449,33229],[-478,-3416]],[[33971,29813],[-5263,-1242]],[[28708,28571],[0,311]],[[28708,28882],[478,931]],[[29186,29813],[-957,311]],[[28229,30124],[-957,0]],[[27272,30124],[0,310]],[[27272,30434],[479,1243]],[[27272,31677],[2393,2174]],[[25359,29503],[1435,0]],[[26794,29503],[478,621]],[[27272,30124],[957,0]],[[28229,30124],[957,-311]],[[29186,29813],[-478,-931]],[[28708,28571],[0,-310]],[[28708,28261],[-479,0]],[[28229,28261],[-1435,-1553]],[[26794,26708],[-2392,-1242]],[[24402,25466],[-1436,310]],[[22966,25776],[0,621]],[[22966,26397],[957,2174]],[[23923,28571],[1436,932]],[[72248,32298],[-15311,-11180]],[[56937,21118],[-1435,310]],[[55502,21428],[-8613,2485]],[[46889,23913],[-11483,2174]],[[35406,26087],[-3349,621]],[[32057,26708],[40191,5590]],[[33971,29813],[-1914,-3105]],[[32057,26708],[3349,-621]],[[35406,26087],[11483,-2174]],[[46889,23913],[8613,-2485]],[[56937,21118],[-13397,-7143],[-14354,7764]],[[29186,21739],[-3349,2174]],[[25837,23913],[957,2795]],[[26794,26708],[1435,1553]],[[28708,28261],[5263,1552]],[[19139,28571],[3349,0]],[[22488,28571],[1435,0]],[[22966,26397],[0,-621]],[[22966,25776],[1436,-310]],[[24402,25466],[1435,-1553]],[[25837,23913],[3349,-2174]],[[29186,21739],[12440,-7764],[-11483,-12733],[-11004,27329]],[[10048,27950],[6698,621]],[[16746,28571],[2393,0]],[[19139,28571],[8133,-28571],[-20095,3416],[2871,24534]]],"transform":{"scale":[2.0900209002087496e-7,3.2200322003219597e-7],"translate":[83.605,26.4313]},"objects":{"wards":{"type":"GeometryCollection","geometries":[{"arcs":[[0]],"type":"Polygon","properties":{"objectid":294292,"statename":"Uttar Pradesh","statecode":"9","districtname":"Deoria","districtcode":"190","ulbname":"Nprudrapur","ulbcode":"801176","wardname":"Dhudheshwar Nath","wardcode":"1","id":null,"status":"APPROVED","misglobalid":null,"approved_by":null,"createdate":1670301241000,"updateddate":1670302301000,"globalid":null,"gisglobalid":"6cKnKKsK-64cn-Pmol-R44s-PnPKdmPoBKKa","remark":"","st_area(shape)":0.00010252270603315633,"st_perimeter(shape)":0.04290600597196636}},{"arcs":[[1,2,3,4,5]],"type":"Polygon","properties":{"objectid":294293,"statename":"Uttar Pradesh","statecode":"9","districtname":"Deoria","districtcode":"190","ulbname":"Nprudrapur","ulbcode":"801176","wardname":"Mallah Toli","wardcode":"2","id":null,"status":"APPROVED","misglobalid":null,"approved_by":null,"createdate":1670301576000,"updateddate":1670302385000,"globalid":null,"gisglobalid":"QQ6lQ4ld-PRBK-Pala-QPln-oQP44mdm4QQQ","remark":"","st_area(shape)":0.000029034097057618917,"st_perimeter(shape)":0.02674927864045798}},{"type":null,"properties":{"objectid":296228,"statename":"Uttar Pradesh","statecode":"9","districtname":"Deoria","districtcode":"190","ulbname":"Nprudrapur","ulbcode":"801176","wardname":"Bhar Tola","wardcode":"3","id":null,"status":"APPROVED","misglobalid":null,"approved_by":null,"createdate":1670301065000,"updateddate":1670301151000,"globalid":null,"gisglobalid":"K66K46Ra-dl6c-PclQ-scR4-dlQccdPn5Kn4","remark":"","st_area(shape)":0.0000052844499523565455,"st_perimeter(shape)":0.00974055164948652}},{"arcs":[[6,7,8,9]],"type":"Polygon","properties":{"objectid":296229,"statename":"Uttar Pradesh","statecode":"9","districtname":"Deoria","districtcode":"190","ulbname":"Nprudrapur","ulbcode":"801176","wardname":"Pashchimi Tiwari Tola","wardcode":"4","id":null,"status":"APPROVED","misglobalid":null,"approved_by":null,"createdate":1670302590000,"updateddate":1670302634000,"globalid":null,"gisglobalid":"o4doPRBc-PKds-PPsR-Q64m-Q6c5l46P5can","remark":"","st_area(shape)":0.0000029976666438403803,"st_perimeter(shape)":0.007545762658155561}},{"arcs":[[10,11,12]],"type":"Polygon","properties":{"objectid":294294,"statename":"Uttar Pradesh","statecode":"9","districtname":"Deoria","districtcode":"190","ulbname":"Nprudrapur","ulbcode":"801176","wardname":"Shivala Ward","wardcode":"5","id":null,"status":"APPROVED","misglobalid":null,"approved_by":null,"createdate":1670302081000,"updateddate":1670302395000,"globalid":null,"gisglobalid":"Qn5RdP6K-4B5B-PQal-acQn-cmoB5maa4aP4","remark":"","st_area(shape)":0.0000032311435715771916,"st_perimeter(shape)":0.011150756785637315}},{"arcs":[[13,14,15]],"type":"Polygon","properties":{"objectid":296230,"statename":"Uttar Pradesh","statecode":"9","districtname":"Deoria","districtcode":"190","ulbname":"Nprudrapur","ulbcode":"801176","wardname":"Masjid Ward","wardcode":"6","id":null,"status":"APPROVED","misglobalid":null,"approved_by":null,"createdate":1670301626000,"updateddate":1670302407000,"globalid":null,"gisglobalid":"PdondR6P-dd6l-Pndm-alRP-4BBnQ6sRmsBm","remark":"","st_area(shape)":0.00004986710842648767,"st_perimeter(shape)":0.043096598275196005}},{"arcs":[[16]],"type":"Polygon","properties":{"objectid":296231,"statename":"Uttar Pradesh","statecode":"9","districtname":"Deoria","districtcode":"190","ulbname":"Nprudrapur","ulbcode":"801176","wardname":"Lala Toli Ward","wardcode":"7","id":null,"status":"APPROVED","misglobalid":null,"approved_by":null,"createdate":1670301382000,"updateddate":1670302420000,"globalid":null,"gisglobalid":"n665s5sm-oKPc-PcPK-QPnK-Kdl545c44s6l","remark":"","st_area(shape)":0.00008203209632469275,"st_perimeter(shape)":0.05000630893116193}},{"arcs":[[17]],"type":"Polygon","properties":{"objectid":295815,"statename":"Uttar Pradesh","statecode":"9","districtname":"Deoria","districtcode":"190","ulbname":"Nprudrapur","ulbcode":"801176","wardname":"Azad Nagar Ward","wardcode":"8","id":null,"status":"APPROVED","misglobalid":null,"approved_by":null,"createdate":1670300824000,"updateddate":1670300959000,"globalid":null,"gisglobalid":"cKndPl4R-n4mQ-PmK5-aQoR-nnosdP6BdaP5","remark":"","st_area(shape)":0.000023577174952358676,"st_perimeter(shape)":0.021445518370255788}},{"arcs":[[18,19,-8,20,21,22,23,24,25,26]],"type":"Polygon","properties":{"objectid":295816,"statename":"Uttar Pradesh","statecode":"9","districtname":"Deoria","districtcode":"190","ulbname":"Nprudrapur","ulbcode":"801176","wardname":"Barai Tola Ward","wardcode":"9","id":null,"status":"APPROVED","misglobalid":null,"approved_by":null,"createdate":1670300996000,"updateddate":1670301165000,"globalid":null,"gisglobalid":"454ssn4d-na5o-Pamo-RcR6-4dRa6BnB5oPo","remark":"","st_area(shape)":0.00000475754016478458,"st_perimeter(shape)":0.009286988513541941}},{"arcs":[[-25,27,28,-22,29,30,31,32,33,34]],"type":"Polygon","properties":{"objectid":295817,"statename":"Uttar Pradesh","statecode":"9","districtname":"Deoria","districtcode":"190","ulbname":"Nprudrapur","ulbcode":"801176","wardname":"Tedha Sthan Ward","wardcode":"10","id":null,"status":"APPROVED","misglobalid":null,"approved_by":null,"createdate":1670302166000,"updateddate":1670302433000,"globalid":null,"gisglobalid":"Bm66cPQB-KcRB-Pn5l-sRcn-6RnPs6d6dQsc","remark":"","st_area(shape)":0.0000010694327173836679,"st_perimeter(shape)":0.004907194451440562}},{"arcs":[[35,36,37,38,39,40,41,42,43,-31,44]],"type":"Polygon","properties":{"objectid":293459,"statename":"Uttar Pradesh","statecode":"9","districtname":"Deoria","districtcode":"190","ulbname":"Nprudrapur","ulbcode":"801176","wardname":"Machharhatta Ward","wardcode":"11","id":null,"status":"APPROVED","misglobalid":null,"approved_by":null,"createdate":1670301468000,"updateddate":1670302491000,"globalid":null,"gisglobalid":"P6sm4KPd-5K4P-PRKK-ao6n-QnQ66cQ5QlPa","remark":"","st_area(shape)":0.0000016490362348866558,"st_perimeter(shape)":0.006352645200088173}},{"arcs":[[45,46,47,48,49,-39,50,51,52,53,54,55,56,57]],"type":"Polygon","properties":{"objectid":293460,"statename":"Uttar Pradesh","statecode":"9","districtname":"Deoria","districtcode":"190","ulbname":"Nprudrapur","ulbcode":"801176","wardname":"Pakdi Ward","wardcode":"12","id":null,"status":"APPROVED","misglobalid":null,"approved_by":null,"createdate":1670301855000,"updateddate":1670302502000,"globalid":null,"gisglobalid":"dBQ456Kd-mnB4-PcPa-sQam-n4RBmooBnaac","remark":"","st_area(shape)":0.0000010641914869140453,"st_perimeter(shape)":0.0048325041183822585}},{"arcs":[[58,59,60,61,62,63]],"type":"Polygon","properties":{"objectid":293461,"statename":"Uttar Pradesh","statecode":"9","districtname":"Deoria","districtcode":"190","ulbname":"Nprudrapur","ulbcode":"801176","wardname":"Purvi Tiwari Tola Ward","wardcode":"13","id":null,"status":"APPROVED","misglobalid":null,"approved_by":null,"createdate":1670302005000,"updateddate":1670302511000,"globalid":null,"gisglobalid":"dl6n455m-64PB-P4R6-QmBB-5occaQQaldno","remark":"","st_area(shape)":0.00002110711175180489,"st_perimeter(shape)":0.025841436960086648}},{"arcs":[[64,65,66,67,-60,68,69,70,71,-52,72]],"type":"Polygon","properties":{"objectid":293462,"statename":"Uttar Pradesh","statecode":"9","districtname":"Deoria","districtcode":"190","ulbname":"Nprudrapur","ulbcode":"801176","wardname":"Nashahara Ward","wardcode":"14","id":null,"status":"APPROVED","misglobalid":null,"approved_by":null,"createdate":1670301768000,"updateddate":1670302525000,"globalid":null,"gisglobalid":"Pl5ss5nd-adQB-PnQo-RKsc-n66P5cK66lQd","remark":"","st_area(shape)":0.00001704513701557166,"st_perimeter(shape)":0.01950592609408149}},{"arcs":[[73,74,-57,75,76,77,78,79]],"type":"Polygon","properties":{"objectid":295818,"statename":"Uttar Pradesh","statecode":"9","districtname":"Deoria","districtcode":"190","ulbname":"Nprudrapur","ulbcode":"801176","wardname":"Chauhatta Ward","wardcode":"15","id":null,"status":"APPROVED","misglobalid":null,"approved_by":null,"createdate":1670301184000,"updateddate":1670302535000,"globalid":null,"gisglobalid":"Pml5QRoR-cQBn-PBm4-sBQ4-m6QPKnQ5c6a4","remark":"","st_area(shape)":0.000017264111300474533,"st_perimeter(shape)":0.024162331566587265}},{"arcs":[[80,81,82]],"type":"Polygon","properties":{"objectid":293463,"statename":"Uttar Pradesh","statecode":"9","districtname":"Deoria","districtcode":"190","ulbname":"Nprudrapur","ulbcode":"801176","wardname":"Gola Ward","wardcode":"16","id":null,"status":"APPROVED","misglobalid":null,"approved_by":null,"createdate":1670301303000,"updateddate":1670302545000,"globalid":null,"gisglobalid":"4Qamoo6n-dBmB-PKKo-slRc-saca66nBmPm6","remark":"","st_area(shape)":0.000023422553745741847,"st_perimeter(shape)":0.026579575534287855}}]}}}