{"type":"Topology","arcs":[[[91695,12678],[-2098,-714]],[[89597,11964],[-419,179]],[[89178,12143],[923,1250],[-504,1518],[-1845,-1697],[-1426,357],[-672,1250]],[[85654,14821],[-587,1072]],[[85067,15893],[84,1160],[2013,893],[3859,-357],[1427,-2053],[-1007,-1518],[252,-1340]],[[89597,11964],[-1426,179]],[[88171,12143],[-503,446]],[[87668,12589],[-2098,804]],[[85570,13393],[-1761,893]],[[83809,14286],[1258,1607]],[[85570,13393],[252,-357]],[[85822,13036],[252,-268]],[[86074,12768],[587,-1072]],[[86661,11696],[0,-89]],[[86661,11607],[-84,0],[-1594,1071],[-1342,-89],[-1594,1697]],[[82047,14286],[1762,0]],[[88171,12143],[-84,-982]],[[88087,11161],[-1090,89]],[[86997,11250],[-336,357]],[[97819,6071],[-1930,1965],[-1090,1964],[-3859,446]],[[90940,10446],[-2853,715]],[[91695,12678],[2181,-1339],[1510,-178],[1510,1607],[2265,89],[-1007,-1875],[1846,-1071],[-1594,-3572],[-587,-268]],[[97819,6071],[-84,-803],[-4363,-1161],[-2432,1339],[-2266,-357]],[[88674,5089],[-83,2232]],[[88591,7321],[-755,1340],[251,2500]],[[88591,7321],[-2098,0],[923,1786],[-839,1071]],[[86577,10178],[-84,0]],[[86577,10178],[420,983]],[[86997,11161],[0,89]],[[86493,10178],[-1090,536]],[[85403,10714],[1594,447]],[[85403,10714],[-2182,-268]],[[83221,10446],[-167,268],[-1762,536],[-2181,1518],[-2853,0],[0,1785]],[[76258,14553],[504,179]],[[76762,14732],[1090,446],[3104,0],[1091,-892]],[[88674,5089],[-1174,-446],[-1762,-1786],[1426,-2143]],[[87164,714],[-1258,447],[-2936,0],[419,4107],[-503,2410]],[[82886,7678],[-923,358],[1258,2410]],[[82802,7589],[84,89]],[[82886,7678],[-84,-89]],[[82802,7589],[503,-2053],[-671,-4107],[-3523,357],[-1175,-1786],[-2265,804],[-84,1071],[-3943,714],[-2265,0],[-2181,536],[168,804],[3439,714],[336,3125],[-2517,1696],[-335,1786],[2097,-447],[-84,1608],[1678,267],[3943,1697],[168,-1607],[2852,-90],[1258,-1071],[2685,-982],[-252,-982],[-1006,-1607],[1174,-447]],[[76258,14553],[-4110,-1696],[-1762,-268],[-8893,1697]],[[61493,14286],[-4446,625],[755,3392]],[[57802,18303],[1930,1161],[2768,-625],[1091,2322],[2013,-268],[-168,1875],[-1006,625]],[[64430,23393],[-756,1250],[1930,3660],[-1174,1250],[1174,1965],[-923,3571]],[[64681,35089],[2098,-268],[2013,982],[-336,-1875],[672,-2678],[1510,-2590],[4194,-1160],[336,893]],[[75168,28393],[755,1875],[-2014,5267],[2182,1518],[3271,-1875],[1510,714],[2182,-446],[1006,-1518],[-83,-1250],[922,-893],[-1090,-2500],[1090,-535],[0,-1607],[-1174,-4375],[-1930,-358],[-587,-2767],[-755,-447],[-2265,179],[-1175,-2322],[-251,-2321]],[[43540,48839],[-839,-1875],[84,-3214],[-503,-1429],[923,-1161],[-1091,-5625],[-168,-2946],[2098,-1696],[3355,625],[1762,-1072],[-2684,-6161],[2432,-1339],[-587,-803],[504,-2232],[-420,-2233],[4614,447],[0,3214],[1259,2500],[1761,-714]],[[56040,23125],[3356,-1161],[-1594,-3661]],[[61493,14286],[-167,-1429],[0,-89]],[[61326,12768],[-3524,-1875],[-419,-1518],[-3104,357],[1342,3125],[-4363,-179],[-419,-1250],[-3775,1965],[-2014,-536],[-1594,-982],[-3104,-179],[1594,2411],[-503,714],[419,2143],[-2852,536],[-4111,-447],[-2516,-714],[-504,1697],[84,2053],[-671,2768],[-84,6250],[-1929,3661],[-672,2321],[-1594,2857],[0,1429],[-1258,2767]],[[25755,42142],[671,0],[2181,2411],[2601,625],[1175,-446]],[[32383,44732],[3104,-893],[1510,1339],[1258,1964]],[[38255,47142],[1678,-357],[252,1072],[1510,357]],[[41695,48214],[1845,625]],[[56040,23125],[-1006,15267],[83,4286]],[[55117,42678],[3188,89],[2601,983]],[[60906,43750],[2349,357],[5956,-179],[-251,-893],[-2265,-2053],[-1259,-2143],[-755,-3750]],[[32802,74374],[-168,-2857],[336,-2857],[-671,-4286],[-1678,-5892],[3439,-1965],[1594,-446]],[[35654,56071],[3692,-447],[-168,-1517],[10738,-1429],[1007,714],[1426,-268]],[[52349,53124],[84,-2410],[1342,-714],[1678,178],[1258,1429]],[[56711,51607],[0,89]],[[56711,51607],[-671,-4018]],[[56040,47589],[-839,446],[-7969,2054],[-3692,-1250]],[[25755,42142],[-1762,-1696],[-4362,-89],[-2601,-2322],[-1426,-1696],[-1007,625],[-1510,-1161],[-2181,357],[-252,1340],[-1258,446],[-2097,2411],[1594,6250],[335,4017],[-84,2411],[588,2500],[1090,-89],[671,3393],[168,2500],[1678,893],[252,1785],[-2601,0],[-168,4286],[1678,-89],[1426,1071],[923,2321],[1174,1697]],[[16023,73303],[1091,1161],[2852,0]],[[19966,74464],[420,535],[2433,-893],[1845,715],[4782,-804],[3356,357]],[[32634,86338],[84,-2946]],[[32718,83392],[1930,-357],[0,-1786],[-671,-1161],[-2433,-267],[1258,-5447]],[[16023,73303],[-3271,1428],[-1930,0],[-1594,-1696],[-5201,1429],[-4027,89],[1007,1875],[2600,1607],[1762,0],[755,2946],[-3104,179],[503,6786],[-251,2232],[1929,-893],[2517,357],[2601,-893],[2768,0],[1426,-625],[4363,-714],[1426,625],[4279,-804],[167,893],[-2097,982],[-168,982],[-1929,1875],[0,2232],[1090,1786],[-503,1250],[3691,-89],[3188,-1786],[755,-2143],[-168,-3035],[420,-1518],[3607,-2322]],[[59564,76874],[-168,-1964]],[[59396,74910],[-2349,-536],[0,-3214],[-755,-446],[-10067,1160]],[[46225,71874],[-8389,982],[-2182,-16785]],[[32634,86338],[3020,-2142],[3440,-4286],[4446,-2679],[3859,-892],[2433,-1608],[1426,-357],[1762,447],[2181,2232],[4363,-179]],[[59396,74910],[-419,-7768],[-2349,-714]],[[56628,66428],[-923,-447],[-6124,715],[-252,-1697],[-4195,447],[1594,1518],[420,3035],[-923,1875]],[[56628,66428],[-2098,-1697],[-1174,-9107],[-1007,-2500]],[[56040,47589],[-923,-4911]],[[59564,76874],[2936,447],[1091,-357]],[[63591,76964],[4362,-2233],[1342,715],[168,1428],[-1510,4732],[2601,2679]],[[70554,84285],[1342,-1250],[2768,-893],[2182,625]],[[76846,82767],[671,-2946],[587,-5715],[0,-2053],[-2601,-9732],[-1510,-4464],[-1258,-1608],[-3188,268],[923,-2321],[-1175,-804],[-4698,-1071],[-503,-536],[-2685,-536],[-83,-1517],[-1511,-357],[-335,-983],[2768,-982],[-1594,-2053],[252,-1607]],[[79195,90356],[1929,-1785],[-3272,-3393],[0,-1250],[-1006,-1161]],[[70554,84285],[1510,1518],[671,1696],[168,2411],[923,446]],[[73826,90356],[1006,179],[3020,-982],[1343,803]],[[73826,90356],[-1259,2232],[-1846,1340]],[[70721,93928],[1427,803],[3859,893],[2516,1429],[5537,1696],[2601,1250],[1426,-179],[671,-1428],[-1510,-1429],[-2013,-3839],[-923,-714],[-3607,535],[-1510,-2589]],[[63591,76964],[2349,4107],[-1427,625],[-3943,803],[2182,3929],[2516,2410],[2098,1340],[-671,1339],[2013,179],[2013,2232]]],"transform":{"scale":[0.0000011920000000000641,0.00000112001120011202],"translate":[77.094,24.4305]},"objects":{"wards":{"type":"GeometryCollection","geometries":[{"arcs":[[0,1,2,3,4]],"type":"Polygon","properties":{"objectid":34530,"statename":"Madhya Pradesh","statecode":"23","districtname":null,"districtcode":"458","ulbname":"Radhogarh","ulbcode":"802402","wardname":"","wardcode":"1","id":null,"status":"APPROVED","misglobalid":null,"approved_by":"ULB Nodal Officer","createdate":1636233153000,"updateddate":1636233534000,"globalid":"nKlaK4o5-n6lm-P6oc-ssKQ-csslsBR4slnd","gisglobalid":"5b0a27ad-e865-4f1f-b604-71cd8566a1dd","remark":"","st_area(shape)":0.00003641452297279699,"st_perimeter(shape)":0.041360654106636335}},{"arcs":[[-4,-3,-2,5,6,7,8,9]],"type":"Polygon","properties":{"objectid":33431,"statename":"Madhya Pradesh","statecode":"23","districtname":null,"districtcode":"458","ulbname":"Radhogarh","ulbcode":"802402","wardname":"","wardcode":"2","id":null,"status":"APPROVED","misglobalid":null,"approved_by":"ULB Nodal Officer","createdate":1636233153000,"updateddate":1636233562000,"globalid":"ll4Bd44l-nQs6-Pldn-sPBo-o5nncaBRoQdP","gisglobalid":"6636750a-2e81-40e4-a7c1-16eaa65ef45d","remark":"","st_area(shape)":0.000011517295427196212,"st_perimeter(shape)":0.0340436974239933}},{"arcs":[[-9,10,11,12,13,14,15]],"type":"Polygon","properties":{"objectid":33430,"statename":"Madhya Pradesh","statecode":"23","districtname":null,"districtcode":"458","ulbname":"Radhogarh","ulbcode":"802402","wardname":"","wardcode":"3","id":null,"status":"APPROVED","misglobalid":null,"approved_by":"ULB Nodal Officer","createdate":1636233153000,"updateddate":1636233572000,"globalid":"Ro65msd4-PKBR-PcRs-sRsK-sBR5anKd6mQK","gisglobalid":"65339bad-5001-4805-8ca1-912e71022c12","remark":"","st_area(shape)":0.0000071446305362760235,"st_perimeter(shape)":0.017644496224675368}},{"arcs":[[16,17,18,14,-15,-14,-13,-12,-11,-8,-7]],"type":"Polygon","properties":{"objectid":32642,"statename":"Madhya Pradesh","statecode":"23","districtname":null,"districtcode":"458","ulbname":"Radhogarh","ulbcode":"802402","wardname":"","wardcode":"4","id":null,"status":"APPROVED","misglobalid":null,"approved_by":"ULB Nodal Officer","createdate":1636233153000,"updateddate":1636233613000,"globalid":"dRomPcml-sddK-Pccn-Qsmc-nRQ5c46o46nm","gisglobalid":"49c6b773-8e59-40f0-a524-de1691829a67","remark":"","st_area(shape)":0.0000034292245412665372,"st_perimeter(shape)":0.013183894247085926}},{"arcs":[[19,20,-17,-6,-1,21]],"type":"Polygon","properties":{"objectid":34227,"statename":"Madhya Pradesh","statecode":"23","districtname":null,"districtcode":"458","ulbname":"Radhogarh","ulbcode":"802402","wardname":"","wardcode":"5","id":null,"status":"APPROVED","misglobalid":null,"approved_by":"ULB Nodal Officer","createdate":1636233153000,"updateddate":1636233600000,"globalid":"cnmKRmdc-nmsR-PKsB-RnRa-RmBPm4o4ncdo","gisglobalid":"01e658e9-a691-46af-bb79-99cdf8e89bf7","remark":"","st_area(shape)":0.000041092787551871725,"st_perimeter(shape)":0.043827141126423}},{"arcs":[[22,23,24,-21,-20]],"type":"Polygon","properties":{"objectid":33829,"statename":"Madhya Pradesh","statecode":"23","districtname":null,"districtcode":"458","ulbname":"Radhogarh","ulbcode":"802402","wardname":"","wardcode":"6","id":null,"status":"APPROVED","misglobalid":null,"approved_by":"ULB Nodal Officer","createdate":1636233153000,"updateddate":1636233629000,"globalid":"QRo6mal5-d4Km-PQdR-sRBR-m5odRRdnBolQ","gisglobalid":"304b1d4f-eb31-494b-992b-bd5f6f14cf05","remark":"","st_area(shape)":0.000059754636360238834,"st_perimeter(shape)":0.035455549656309336}},{"arcs":[[-25,25,26,-27,27,28,-18]],"type":"Polygon","properties":{"objectid":32638,"statename":"Madhya Pradesh","statecode":"23","districtname":null,"districtcode":"458","ulbname":"Radhogarh","ulbcode":"802402","wardname":"","wardcode":"7","id":null,"status":"APPROVED","misglobalid":null,"approved_by":"ULB Nodal Officer","createdate":1636233153000,"updateddate":1636233586000,"globalid":"6sldB6m6-mnnR-PQQ5-s45K-RR4R4aQaRKQ5","gisglobalid":"edc4be35-f01b-4bbb-9c06-dc6a6d1f5991","remark":"","st_area(shape)":0.000007190279576186374,"st_perimeter(shape)":0.014682290088400291}},{"arcs":[[29,30,-28,26]],"type":"Polygon","properties":{"objectid":32639,"statename":"Madhya Pradesh","statecode":"23","districtname":null,"districtcode":"458","ulbname":"Radhogarh","ulbcode":"802402","wardname":"","wardcode":"8","id":null,"status":"APPROVED","misglobalid":null,"approved_by":"ULB Nodal Officer","createdate":1636233153000,"updateddate":1636233596000,"globalid":"6QQBRBo6-lcaB-PKl6-Qcas-nmPKBmsPBdQn","gisglobalid":"2aaeb487-53cf-4ef2-8e1d-5111d33c0a45","remark":"","st_area(shape)":0.0000012604629242834331,"st_perimeter(shape)":0.005372372748603369}},{"arcs":[[-15,-19,-29,-31,31,32,33,34]],"type":"Polygon","properties":{"objectid":32640,"statename":"Madhya Pradesh","statecode":"23","districtname":null,"districtcode":"458","ulbname":"Radhogarh","ulbcode":"802402","wardname":"","wardcode":"9","id":null,"status":"APPROVED","misglobalid":null,"approved_by":"ULB Nodal Officer","createdate":1636233153000,"updateddate":1636233608000,"globalid":"PPo55R6a-dc4l-PnQo-QRKc-4BKana5lRQB5","gisglobalid":"d2971925-7785-467a-9b96-73e825e8a101","remark":"","st_area(shape)":0.000034425483121037476,"st_perimeter(shape)":0.034366013039966344}},{"arcs":[[-30,-27,-26,-24,35,36,37,-32]],"type":"Polygon","properties":{"objectid":33827,"statename":"Madhya Pradesh","statecode":"23","districtname":null,"districtcode":"458","ulbname":"Radhogarh","ulbcode":"802402","wardname":"","wardcode":"10","id":null,"status":"APPROVED","misglobalid":null,"approved_by":"ULB Nodal Officer","createdate":1636233153000,"updateddate":1636233542000,"globalid":"sdoncR5d-nsl6-Pao6-RoBs-65mc5RdsQm6P","gisglobalid":"2556ccc6-1847-49cd-8510-addcf5d48470","remark":"","st_area(shape)":0.00005319615662010955,"st_perimeter(shape)":0.04681259188968572}},{"arcs":[[38,39,40]],"type":"Polygon","properties":{"objectid":32644,"statename":"Madhya Pradesh","statecode":"23","districtname":null,"districtcode":"458","ulbname":"Radhogarh","ulbcode":"802402","wardname":"","wardcode":"11","id":null,"status":"APPROVED","misglobalid":null,"approved_by":"ULB Nodal Officer","createdate":1636233500000,"updateddate":1636233637000,"globalid":"K6o5KoRs-4mB4-PKc4-aRRn-cR4Pson4PKc5","gisglobalid":"2a90edc3-6e23-45e9-b250-07161137f8b8","remark":"","st_area(shape)":0.00019140728487173478,"st_perimeter(shape)":0.07422207436175363}},{"arcs":[[-34,41,42,43,44,45,46]],"type":"Polygon","properties":{"objectid":33826,"statename":"Madhya Pradesh","statecode":"23","districtname":null,"districtcode":"458","ulbname":"Radhogarh","ulbcode":"802402","wardname":"","wardcode":"12","id":null,"status":"APPROVED","misglobalid":null,"approved_by":"ULB Nodal Officer","createdate":1636233153000,"updateddate":1636233538000,"globalid":"4Bc45o5a-Ps4m-PmoR-QoPP-nm4assoKoK46","gisglobalid":"819163a2-c42f-42f9-9b0c-de4a2c6786d9","remark":"","st_area(shape)":0.0004966273951135837,"st_perimeter(shape)":0.14760533940660012}},{"arcs":[[47,48,-43,49,50,51,52,53,54]],"type":"Polygon","properties":{"objectid":34224,"statename":"Madhya Pradesh","statecode":"23","districtname":null,"districtcode":"458","ulbname":"Radhogarh","ulbcode":"802402","wardname":"","wardcode":"13","id":null,"status":"APPROVED","misglobalid":null,"approved_by":"ULB Nodal Officer","createdate":1636233153000,"updateddate":1636233525000,"globalid":"5Blcad4P-nPcc-PQao-RaRK-KR5cdQKBmdao","gisglobalid":"757b5788-c0b0-450e-9db0-d2015d337410","remark":"","st_area(shape)":0.0007778432591360305,"st_perimeter(shape)":0.21648181676353517}},{"arcs":[[-45,-44,-49,55,56,57]],"type":"Polygon","properties":{"objectid":33429,"statename":"Madhya Pradesh","statecode":"23","districtname":null,"districtcode":"458","ulbname":"Radhogarh","ulbcode":"802402","wardname":"","wardcode":"14","id":null,"status":"APPROVED","misglobalid":null,"approved_by":"ULB Nodal Officer","createdate":1636233153000,"updateddate":1636233557000,"globalid":"BRaRR4R4-slKc-PlQQ-QBcn-mm6o46soQKsm","gisglobalid":"416aaac0-8b04-4860-bb32-b8849a66a06b","remark":"","st_area(shape)":0.00030601701143912456,"st_perimeter(shape)":0.09322980101241679}},{"arcs":[[58,59,60,61,-62,62,63,-55,-54,-53,-52,64,65,66]],"type":"Polygon","properties":{"objectid":34226,"statename":"Madhya Pradesh","statecode":"23","districtname":null,"districtcode":"458","ulbname":"Radhogarh","ulbcode":"802402","wardname":"","wardcode":"15","id":null,"status":"APPROVED","misglobalid":null,"approved_by":"ULB Nodal Officer","createdate":1636233153000,"updateddate":1636233591000,"globalid":"6BdcoPRQ-mQR6-PRmd-QnKa-55mPBmaQBonR","gisglobalid":"cc78ae4a-c748-48f4-b0a8-8e3668fb946e","remark":"","st_area(shape)":0.0011691152462986025,"st_perimeter(shape)":0.21816366457058034}},{"arcs":[[67,68,-67,-66,69]],"type":"Polygon","properties":{"objectid":32641,"statename":"Madhya Pradesh","statecode":"23","districtname":null,"districtcode":"458","ulbname":"Radhogarh","ulbcode":"802402","wardname":"","wardcode":"16","id":null,"status":"APPROVED","misglobalid":null,"approved_by":"ULB Nodal Officer","createdate":1636233153000,"updateddate":1636233604000,"globalid":"RRdBPBlo-R5lm-PnsK-a46K-ds44ns5PP5ao","gisglobalid":"a6e2b4ba-c1f0-432a-bf40-d29db979a625","remark":"","st_area(shape)":0.0006379915325575946,"st_perimeter(shape)":0.1721269439759721}},{"arcs":[[70,71,72,-59,-69,-68,73]],"type":"Polygon","properties":{"objectid":33428,"statename":"Madhya Pradesh","statecode":"23","districtname":null,"districtcode":"458","ulbname":"Radhogarh","ulbcode":"802402","wardname":"","wardcode":"17","id":null,"status":"APPROVED","misglobalid":null,"approved_by":"ULB Nodal Officer","createdate":1636233153000,"updateddate":1636233552000,"globalid":"ndPdKccm-sscR-PRaB-Qcsn-Blnmc4aK6Rm6","gisglobalid":"03a81d45-aaed-4472-bbbd-492a6727f5d3","remark":"","st_area(shape)":0.00031654936873457587,"st_perimeter(shape)":0.14259556722493147}},{"arcs":[[74,75,-72]],"type":"Polygon","properties":{"objectid":34225,"statename":"Madhya Pradesh","statecode":"23","districtname":null,"districtcode":"458","ulbname":"Radhogarh","ulbcode":"802402","wardname":"","wardcode":"18","id":null,"status":"APPROVED","misglobalid":null,"approved_by":"ULB Nodal Officer","createdate":1636233152000,"updateddate":1636233576000,"globalid":"mo4K5dnl-Bmad-Pmso-aacc-KnQlQcRc5ldl","gisglobalid":"a71ecce9-c67f-4821-b895-daeac999bc6a","remark":"","st_area(shape)":0.00009697285809065365,"st_perimeter(shape)":0.05915152735742168}},{"arcs":[[-76,76,-60,-73]],"type":"Polygon","properties":{"objectid":34531,"statename":"Madhya Pradesh","statecode":"23","districtname":null,"districtcode":"458","ulbname":"Radhogarh","ulbcode":"802402","wardname":"","wardcode":"19","id":null,"status":"APPROVED","misglobalid":null,"approved_by":"ULB Nodal Officer","createdate":1636233152000,"updateddate":1636233617000,"globalid":"5dl4B6os-nc4a-PRBQ-R6d4-555ccldRs454","gisglobalid":"a76da013-d74e-42bb-b1f5-0a18d5a44944","remark":"","st_area(shape)":0.00036457345937274127,"st_perimeter(shape)":0.09532300166014351}},{"arcs":[[77,-56,-48,-64]],"type":"Polygon","properties":{"objectid":34529,"statename":"Madhya Pradesh","statecode":"23","districtname":null,"districtcode":"458","ulbname":"Radhogarh","ulbcode":"802402","wardname":"","wardcode":"20","id":null,"status":"APPROVED","misglobalid":null,"approved_by":"ULB Nodal Officer","createdate":1636233152000,"updateddate":1636233529000,"globalid":"Rm5cl6Rn-Kcmo-Paa4-adBd-allRdRmslnam","gisglobalid":"9a0a107c-a6ae-4b80-b494-17cddefc8890","remark":"","st_area(shape)":0.0004213631027718385,"st_perimeter(shape)":0.10930977727944013}},{"arcs":[[-71,78,79,80,81,-57,-78,-63,61,-62,-61,-77,-75]],"type":"Polygon","properties":{"objectid":32637,"statename":"Madhya Pradesh","statecode":"23","districtname":null,"districtcode":"458","ulbname":"Radhogarh","ulbcode":"802402","wardname":"","wardcode":"21","id":null,"status":"APPROVED","misglobalid":null,"approved_by":"ULB Nodal Officer","createdate":1636233152000,"updateddate":1636233567000,"globalid":"4PmRcaK5-RdRs-P4Rs-sc6B-cQQscsBoRR6K","gisglobalid":"4df85800-733b-4bb9-b94f-c4d4624180ee","remark":"","st_area(shape)":0.0007635064421514198,"st_perimeter(shape)":0.15717973473937585}},{"arcs":[[82,-81,83,84]],"type":"Polygon","properties":{"objectid":33828,"statename":"Madhya Pradesh","statecode":"23","districtname":null,"districtcode":"458","ulbname":"Radhogarh","ulbcode":"802402","wardname":"","wardcode":"22","id":null,"status":"APPROVED","misglobalid":null,"approved_by":"ULB Nodal Officer","createdate":1636233152000,"updateddate":1636233581000,"globalid":"oRsl4so5-sKc4-PmlR-sPdQ-5sdnPo6mPBd6","gisglobalid":"e68ae997-a543-4c00-8712-6c0c5803c2d9","remark":"","st_area(shape)":0.00006957891912290659,"st_perimeter(shape)":0.036917513281656246}},{"arcs":[[-85,85,86]],"type":"Polygon","properties":{"objectid":33830,"statename":"Madhya Pradesh","statecode":"23","districtname":null,"districtcode":"458","ulbname":"Radhogarh","ulbcode":"802402","wardname":"","wardcode":"23","id":null,"status":"APPROVED","misglobalid":null,"approved_by":"ULB Nodal Officer","createdate":1636233152000,"updateddate":1636233633000,"globalid":"K5Qnanl5-RQn5-PKan-RKan-5oa5scaKnddR","gisglobalid":"bf26206c-f73b-4dd1-b20b-cde9a261534a","remark":"","st_area(shape)":0.00011244939903874869,"st_perimeter(shape)":0.05981669244906028}},{"arcs":[[-86,-84,-80,87]],"type":"Polygon","properties":{"objectid":32643,"statename":"Madhya Pradesh","statecode":"23","districtname":null,"districtcode":"458","ulbname":"Radhogarh","ulbcode":"802402","wardname":"","wardcode":"24","id":null,"status":"APPROVED","misglobalid":null,"approved_by":"ULB Nodal Officer","createdate":1636233153000,"updateddate":1636233624000,"globalid":"slRBc6ca-nnKm-PBam-Qccl-Bn4RmaoKm6l5","gisglobalid":"5f591d48-476a-4344-baed-60649adf6073","remark":"","st_area(shape)":0.00015100249498640355,"st_perimeter(shape)":0.07201125969761844}}]}}}