{"type": "FeatureCollection", "features": [{"type": "Feature", "geometry": {"type": "Polygon", "coordinates": [[[77.3627, 29.1945], [77.3624, 29.1948], [77.3626, 29.1955], [77.3628, 29.1964], [77.3629, 29.1969], [77.3629, 29.1972], [77.363, 29.1977], [77.3631, 29.1981], [77.3635, 29.1981], [77.3638, 29.1981], [77.364, 29.1982], [77.3641, 29.1982], [77.3642, 29.1982], [77.3644, 29.1981], [77.3647, 29.1981], [77.3649, 29.198], [77.3649, 29.1981], [77.3651, 29.198], [77.3653, 29.198], [77.3655, 29.1979], [77.3656, 29.1978], [77.3658, 29.1976], [77.366, 29.1975], [77.3665, 29.1973], [77.3667, 29.1973], [77.3667, 29.1971], [77.3664, 29.1971], [77.366, 29.1972], [77.3659, 29.1972], [77.3657, 29.1973], [77.3656, 29.1973], [77.3654, 29.1973], [77.3651, 29.1974], [77.3651, 29.1973], [77.3649, 29.1971], [77.3649, 29.197], [77.3648, 29.1969], [77.3646, 29.1966], [77.3645, 29.1962], [77.3644, 29.196], [77.3645, 29.196], [77.3646, 29.196], [77.3647, 29.1959], [77.3651, 29.1958], [77.3651, 29.1957], [77.365, 29.1955], [77.365, 29.1954], [77.365, 29.1953], [77.3649, 29.1952], [77.3648, 29.1952], [77.3647, 29.1951], [77.3646, 29.1951], [77.3645, 29.1951], [77.364, 29.195], [77.3637, 29.195], [77.3635, 29.195], [77.3635, 29.1949], [77.3634, 29.1949], [77.3633, 29.1949], [77.3632, 29.1948], [77.3631, 29.1947], [77.3628, 29.1945], [77.3627, 29.1945]]]}, "properties": {"objectid": 260864, "statename": "Uttar Pradesh", "statecode": "9", "districtname": "Baghpat", "districtcode": "139", "ulbname": "Doghat (Np)", "ulbcode": "800722", "wardname": "Ahaata Wala", "wardcode": "1", "id": null, "status": "APPROVED", "misglobalid": null, "approved_by": null, "createdate": 1649130401000, "updateddate": 1649934580000, "globalid": null, "gisglobalid": "BPnsl6BB-5ns4-PQ4o-sBKR-PBslldnBn6Ql", "remark": "", "st_area(shape)": 7.266514783871195e-06, "st_perimeter(shape)": 0.014737078425728859}}, {"type": "Feature", "geometry": {"type": "Polygon", "coordinates": [[[77.3673, 29.1907], [77.3681, 29.1915], [77.3683, 29.1919], [77.3683, 29.1923], [77.3685, 29.1928], [77.3689, 29.1928], [77.3689, 29.1929], [77.3684, 29.193], [77.3684, 29.1934], [77.3683, 29.1934], [77.3684, 29.1939], [77.3683, 29.1939], [77.3681, 29.1939], [77.3682, 29.1941], [77.3684, 29.1942], [77.3685, 29.1944], [77.3683, 29.1945], [77.3684, 29.1947], [77.3683, 29.1948], [77.3681, 29.1949], [77.368, 29.195], [77.3678, 29.1951], [77.3678, 29.1952], [77.3678, 29.1953], [77.3678, 29.1954], [77.3679, 29.1956], [77.3679, 29.1957], [77.368, 29.1959], [77.3681, 29.1961], [77.3682, 29.1962], [77.3683, 29.1965], [77.3685, 29.1967], [77.3687, 29.1965], [77.3684, 29.1963], [77.3684, 29.1962], [77.3684, 29.1961], [77.3684, 29.196], [77.3683, 29.1958], [77.3683, 29.1957], [77.3682, 29.1956], [77.3682, 29.1955], [77.3682, 29.1954], [77.3683, 29.1954], [77.3683, 29.1953], [77.3684, 29.1952], [77.3685, 29.1952], [77.3685, 29.1951], [77.3686, 29.1951], [77.3686, 29.195], [77.3686, 29.1949], [77.3687, 29.1948], [77.3687, 29.1946], [77.3687, 29.1945], [77.3687, 29.1944], [77.3688, 29.1943], [77.3688, 29.1942], [77.3688, 29.1941], [77.3687, 29.1938], [77.3687, 29.1936], [77.3687, 29.1933], [77.3689, 29.1933], [77.3691, 29.1933], [77.3692, 29.1933], [77.3694, 29.1933], [77.3695, 29.1933], [77.3696, 29.1932], [77.3698, 29.1931], [77.37, 29.193], [77.3702, 29.1929], [77.3704, 29.1928], [77.3707, 29.1928], [77.3708, 29.1927], [77.3708, 29.1926], [77.3709, 29.1924], [77.371, 29.1914], [77.371, 29.1888], [77.3707, 29.1879], [77.3705, 29.1877], [77.3701, 29.1883], [77.3686, 29.1896], [77.3681, 29.19], [77.3676, 29.1905], [77.3673, 29.1907]]]}, "properties": {"objectid": 261268, "statename": "Uttar Pradesh", "statecode": "9", "districtname": "Baghpat", "districtcode": "139", "ulbname": "Doghat (Np)", "ulbcode": "800722", "wardname": "Bhaujaan", "wardcode": "2", "id": null, "status": "APPROVED", "misglobalid": null, "approved_by": null, "createdate": 1649130401000, "updateddate": 1649934594000, "globalid": null, "gisglobalid": "snRamc66-5BQs-PPPB-R6KR-Kl464QcPdmcQ", "remark": "", "st_area(shape)": 1.3791733118593355e-05, "st_perimeter(shape)": 0.024099499863760993}}, {"type": "Feature", "geometry": {"type": "Polygon", "coordinates": [[[77.3632, 29.1986], [77.3639, 29.202], [77.3641, 29.202], [77.3645, 29.2017], [77.3647, 29.2017], [77.365, 29.2016], [77.3652, 29.2015], [77.3653, 29.2014], [77.3655, 29.201], [77.3657, 29.2009], [77.3658, 29.2009], [77.3651, 29.1991], [77.3652, 29.199], [77.3657, 29.1987], [77.3666, 29.1985], [77.3666, 29.1983], [77.3672, 29.198], [77.3673, 29.1979], [77.3673, 29.1978], [77.3672, 29.1978], [77.3671, 29.1977], [77.367, 29.1976], [77.3668, 29.1975], [77.3668, 29.1973], [77.3664, 29.1974], [77.3661, 29.1975], [77.3659, 29.1976], [77.3657, 29.1978], [77.3656, 29.1979], [77.3653, 29.198], [77.3649, 29.1981], [77.3648, 29.1981], [77.3646, 29.1981], [77.3642, 29.1982], [77.364, 29.1982], [77.3637, 29.1981], [77.3635, 29.1981], [77.3634, 29.1981], [77.3631, 29.1981], [77.3632, 29.1986]]]}, "properties": {"objectid": 260863, "statename": "Uttar Pradesh", "statecode": "9", "districtname": "Baghpat", "districtcode": "139", "ulbname": "Doghat (Np)", "ulbcode": "800722", "wardname": "Khokharo Wala", "wardcode": "3", "id": null, "status": "APPROVED", "misglobalid": null, "approved_by": null, "createdate": 1649130401000, "updateddate": 1649934604000, "globalid": null, "gisglobalid": "osdQnRKn-dPc4-PcK5-QnQ6-cK6mPm5QnoR4", "remark": "", "st_area(shape)": 8.48871017958165e-06, "st_perimeter(shape)": 0.015525792582618134}}, {"type": "Feature", "geometry": {"type": "Polygon", "coordinates": [[[77.3656, 29.1922], [77.3628, 29.1945], [77.3629, 29.1945], [77.3634, 29.1948], [77.3634, 29.1949], [77.3636, 29.1949], [77.364, 29.195], [77.3644, 29.1951], [77.3647, 29.1951], [77.365, 29.1952], [77.365, 29.1953], [77.365, 29.1955], [77.3652, 29.1958], [77.3649, 29.1959], [77.3647, 29.196], [77.3645, 29.1961], [77.3646, 29.1966], [77.3649, 29.197], [77.3651, 29.1973], [77.3651, 29.1974], [77.3654, 29.1972], [77.3655, 29.1973], [77.3659, 29.1972], [77.366, 29.1972], [77.3664, 29.1971], [77.3665, 29.1971], [77.3667, 29.197], [77.3667, 29.1968], [77.3667, 29.1966], [77.3665, 29.1957], [77.3663, 29.1954], [77.3663, 29.1953], [77.3669, 29.195], [77.3674, 29.1947], [77.3675, 29.1946], [77.3674, 29.1945], [77.3673, 29.1943], [77.3671, 29.1941], [77.3671, 29.1939], [77.3671, 29.1938], [77.3669, 29.1935], [77.3672, 29.1933], [77.3674, 29.1931], [77.3676, 29.1929], [77.3672, 29.1924], [77.367, 29.1921], [77.3665, 29.1914], [77.366, 29.1918], [77.3656, 29.1922]]]}, "properties": {"objectid": 258464, "statename": "Uttar Pradesh", "statecode": "9", "districtname": "Baghpat", "districtcode": "139", "ulbname": "Doghat (Np)", "ulbcode": "800722", "wardname": "Pokhar Wala", "wardcode": "4", "id": null, "status": "APPROVED", "misglobalid": null, "approved_by": null, "createdate": 1649130401000, "updateddate": 1649934614000, "globalid": null, "gisglobalid": "mcma4a4o-smB6-PRdl-slmR-oa4oncKannBB", "remark": "", "st_area(shape)": 1.3521296844729405e-05, "st_perimeter(shape)": 0.018967462884980503}}, {"type": "Feature", "geometry": {"type": "Polygon", "coordinates": [[[77.3651, 29.1991], [77.3658, 29.2009], [77.3656, 29.201], [77.3654, 29.2013], [77.3653, 29.2014], [77.3652, 29.2015], [77.3651, 29.2016], [77.3646, 29.2017], [77.3642, 29.202], [77.364, 29.202], [77.3639, 29.2021], [77.3642, 29.2039], [77.3643, 29.2046], [77.3643, 29.2054], [77.3651, 29.2049], [77.3658, 29.2046], [77.367, 29.204], [77.3679, 29.2036], [77.3686, 29.2033], [77.3681, 29.2029], [77.3674, 29.2023], [77.3673, 29.2021], [77.3673, 29.2018], [77.3674, 29.2015], [77.3674, 29.2011], [77.3675, 29.201], [77.3674, 29.2008], [77.3674, 29.2005], [77.3675, 29.2004], [77.3674, 29.1998], [77.3675, 29.1997], [77.3674, 29.1995], [77.3673, 29.1994], [77.3672, 29.1993], [77.367, 29.1989], [77.3666, 29.1985], [77.3663, 29.1986], [77.3657, 29.1988], [77.3655, 29.1989], [77.3653, 29.199], [77.3651, 29.1991]]]}, "properties": {"objectid": 261270, "statename": "Uttar Pradesh", "statecode": "9", "districtname": "Baghpat", "districtcode": "139", "ulbname": "Doghat (Np)", "ulbcode": "800722", "wardname": "Tirgaraan", "wardcode": "5", "id": null, "status": "APPROVED", "misglobalid": null, "approved_by": null, "createdate": 1649130401000, "updateddate": 1649934624000, "globalid": null, "gisglobalid": "a6Bsoas5-P6n6-Pm5o-sPBo-645maR46n6mQ", "remark": "", "st_area(shape)": 1.603474945919014e-05, "st_perimeter(shape)": 0.019685034018806946}}, {"type": "Feature", "geometry": {"type": "Polygon", "coordinates": [[[77.3665, 29.1914], [77.3671, 29.1921], [77.3674, 29.1926], [77.3677, 29.193], [77.3674, 29.1931], [77.3672, 29.1933], [77.3669, 29.1935], [77.3671, 29.1938], [77.3672, 29.1939], [77.3672, 29.194], [77.3671, 29.1941], [77.3673, 29.1943], [77.3675, 29.1945], [77.3675, 29.1946], [77.3674, 29.1947], [77.3668, 29.1951], [77.3664, 29.1953], [77.3663, 29.1953], [77.3665, 29.1956], [77.3665, 29.1957], [77.3666, 29.196], [77.3667, 29.1963], [77.3667, 29.1966], [77.3668, 29.1972], [77.3672, 29.1971], [77.3673, 29.197], [77.3673, 29.1971], [77.3674, 29.1971], [77.3675, 29.1971], [77.3676, 29.1971], [77.3677, 29.1971], [77.3678, 29.197], [77.368, 29.197], [77.3681, 29.1969], [77.3683, 29.1969], [77.3684, 29.1968], [77.3685, 29.1967], [77.3683, 29.1965], [77.3682, 29.1963], [77.3682, 29.1962], [77.3681, 29.1961], [77.368, 29.1959], [77.3679, 29.1957], [77.3679, 29.1956], [77.3677, 29.1954], [77.3678, 29.1954], [77.3677, 29.1953], [77.3678, 29.1952], [77.3678, 29.1951], [77.368, 29.195], [77.3682, 29.1949], [77.3684, 29.1947], [77.3683, 29.1945], [77.3685, 29.1944], [77.3683, 29.1942], [77.3682, 29.1941], [77.3681, 29.194], [77.3681, 29.1939], [77.3682, 29.1939], [77.3683, 29.1939], [77.3684, 29.1939], [77.3683, 29.1934], [77.3684, 29.1934], [77.3684, 29.193], [77.3688, 29.1929], [77.3688, 29.1928], [77.3685, 29.1928], [77.3683, 29.1923], [77.3683, 29.1919], [77.3681, 29.1916], [77.3676, 29.191], [77.3673, 29.1907], [77.3668, 29.1911], [77.3665, 29.1914]]]}, "properties": {"objectid": 259682, "statename": "Uttar Pradesh", "statecode": "9", "districtname": "Baghpat", "districtcode": "139", "ulbname": "Doghat (Np)", "ulbcode": "800722", "wardname": "Madaan Bhaujaan Wala", "wardcode": "6", "id": null, "status": "APPROVED", "misglobalid": null, "approved_by": null, "createdate": 1649130401000, "updateddate": 1649934634000, "globalid": null, "gisglobalid": "ad6nnPRs-R544-PRs4-a5Pn-msssmoKaKK6d", "remark": "", "st_area(shape)": 7.618591700774798e-06, "st_perimeter(shape)": 0.01902527393575635}}, {"type": "Feature", "geometry": {"type": "Polygon", "coordinates": [[[77.3711, 29.1968], [77.3721, 29.1965], [77.3716, 29.1959], [77.3715, 29.1957], [77.3718, 29.1955], [77.3718, 29.1953], [77.3712, 29.1949], [77.371, 29.195], [77.3706, 29.1952], [77.3704, 29.1952], [77.3704, 29.1953], [77.3701, 29.1955], [77.3698, 29.1956], [77.3697, 29.1957], [77.3695, 29.1959], [77.3694, 29.196], [77.3693, 29.1961], [77.3692, 29.1961], [77.3691, 29.1962], [77.3689, 29.1963], [77.3689, 29.1964], [77.3688, 29.1965], [77.369, 29.1968], [77.3692, 29.1971], [77.3691, 29.1972], [77.3692, 29.1973], [77.3697, 29.1972], [77.3698, 29.1972], [77.37, 29.1972], [77.3706, 29.197], [77.3708, 29.1969], [77.3711, 29.1968]]]}, "properties": {"objectid": 259258, "statename": "Uttar Pradesh", "statecode": "9", "districtname": "Baghpat", "districtcode": "139", "ulbname": "Doghat (Np)", "ulbcode": "800722", "wardname": "Badhai Wala", "wardcode": "7", "id": null, "status": "APPROVED", "misglobalid": null, "approved_by": null, "createdate": 1649130401000, "updateddate": 1649934645000, "globalid": null, "gisglobalid": "56naaaaP-oKm5-PlsB-aK56-o4Bos4dn46c4", "remark": "", "st_area(shape)": 4.342958057210162e-06, "st_perimeter(shape)": 0.009246503071921104}}, {"type": "Feature", "geometry": {"type": "Polygon", "coordinates": [[[77.3668, 29.1972], [77.3668, 29.1973], [77.3669, 29.1974], [77.3669, 29.1975], [77.367, 29.1976], [77.3671, 29.1977], [77.3672, 29.1977], [77.3672, 29.1978], [77.3673, 29.1978], [77.3674, 29.1979], [77.3671, 29.1981], [77.3666, 29.1983], [77.3667, 29.1985], [77.3669, 29.1988], [77.3671, 29.1991], [77.3673, 29.1993], [77.3674, 29.1994], [77.3678, 29.1992], [77.368, 29.1991], [77.3683, 29.1989], [77.3685, 29.1988], [77.3687, 29.1991], [77.3689, 29.199], [77.369, 29.1989], [77.3694, 29.1995], [77.3695, 29.1996], [77.3698, 29.1995], [77.3698, 29.1996], [77.3701, 29.1995], [77.3702, 29.1995], [77.3703, 29.1996], [77.3706, 29.1995], [77.3707, 29.1995], [77.371, 29.1994], [77.3708, 29.1991], [77.3709, 29.1989], [77.3709, 29.1988], [77.371, 29.1987], [77.3711, 29.1989], [77.3717, 29.1986], [77.3714, 29.1982], [77.3712, 29.1982], [77.371, 29.1979], [77.3711, 29.1978], [77.3711, 29.1977], [77.3711, 29.1975], [77.3707, 29.1972], [77.371, 29.1972], [77.3708, 29.1969], [77.3706, 29.197], [77.3703, 29.1971], [77.37, 29.1972], [77.3699, 29.1972], [77.3698, 29.1972], [77.3697, 29.1973], [77.3691, 29.1973], [77.3691, 29.1972], [77.3692, 29.1971], [77.369, 29.1968], [77.3688, 29.1965], [77.3687, 29.1966], [77.3685, 29.1967], [77.3684, 29.1968], [77.3683, 29.1969], [77.368, 29.197], [77.3678, 29.197], [77.3676, 29.1971], [77.3675, 29.1971], [77.3674, 29.1971], [77.3673, 29.1971], [77.3671, 29.1971], [77.3668, 29.1972]]]}, "properties": {"objectid": 261269, "statename": "Uttar Pradesh", "statecode": "9", "districtname": "Baghpat", "districtcode": "139", "ulbname": "Doghat (Np)", "ulbcode": "800722", "wardname": "Soronwala", "wardcode": "8", "id": null, "status": "APPROVED", "misglobalid": null, "approved_by": null, "createdate": 1649130401000, "updateddate": 1649934653000, "globalid": null, "gisglobalid": "B5dQQQ6c-ln4n-P64n-Q45c-l5dolKssanoc", "remark": "", "st_area(shape)": 9.45296690445835e-06, "st_perimeter(shape)": 0.016879171464514304}}, {"type": "Feature", "geometry": {"type": "Polygon", "coordinates": [[[77.3707, 29.1928], [77.3705, 29.1928], [77.3702, 29.1929], [77.3701, 29.193], [77.37, 29.193], [77.3698, 29.1932], [77.3696, 29.1933], [77.3694, 29.1934], [77.3692, 29.1934], [77.3691, 29.1933], [77.369, 29.1934], [77.3687, 29.1934], [77.3688, 29.1937], [77.3688, 29.1939], [77.3688, 29.1941], [77.3688, 29.1942], [77.3688, 29.1943], [77.3688, 29.1944], [77.3688, 29.1945], [77.3687, 29.1945], [77.3687, 29.1946], [77.3687, 29.1947], [77.3687, 29.1948], [77.3687, 29.1949], [77.3686, 29.195], [77.3686, 29.1951], [77.3685, 29.1952], [77.3684, 29.1953], [77.3683, 29.1954], [77.3683, 29.1955], [77.3683, 29.1956], [77.3684, 29.1959], [77.3684, 29.1961], [77.3684, 29.1962], [77.3684, 29.1963], [77.3685, 29.1964], [77.3687, 29.1965], [77.3688, 29.1965], [77.3688, 29.1964], [77.3689, 29.1963], [77.369, 29.1963], [77.3691, 29.1962], [77.3692, 29.1961], [77.3693, 29.1961], [77.3695, 29.1959], [77.3696, 29.1958], [77.3697, 29.1957], [77.3698, 29.1956], [77.37, 29.1955], [77.3704, 29.1953], [77.3704, 29.1952], [77.3705, 29.1952], [77.3708, 29.1951], [77.371, 29.195], [77.3711, 29.1949], [77.3709, 29.1946], [77.3708, 29.1944], [77.3707, 29.1942], [77.3707, 29.1939], [77.3706, 29.1937], [77.3707, 29.1935], [77.3707, 29.1932], [77.3708, 29.193], [77.3708, 29.1928], [77.3707, 29.1928]]]}, "properties": {"objectid": 261271, "statename": "Uttar Pradesh", "statecode": "9", "districtname": "Baghpat", "districtcode": "139", "ulbname": "Doghat (Np)", "ulbcode": "800722", "wardname": "Moolejat Wala", "wardcode": "9", "id": null, "status": "APPROVED", "misglobalid": null, "approved_by": null, "createdate": 1649130401000, "updateddate": 1649934662000, "globalid": null, "gisglobalid": "Bnnlc4sn-nRBm-Pals-Rasl-RmlsBmcKddsm", "remark": "", "st_area(shape)": 5.741286053712757e-06, "st_perimeter(shape)": 0.010932787969658811}}, {"type": "Feature", "geometry": {"type": "Polygon", "coordinates": [[[77.3756, 29.1985], [77.375, 29.1957], [77.3721, 29.1965], [77.3718, 29.1966], [77.3715, 29.1967], [77.3711, 29.1969], [77.3708, 29.1969], [77.371, 29.1972], [77.3711, 29.1976], [77.3712, 29.1977], [77.3711, 29.1978], [77.371, 29.1979], [77.3712, 29.1982], [77.3714, 29.1982], [77.3718, 29.1986], [77.3712, 29.1989], [77.3715, 29.1994], [77.3716, 29.1994], [77.3721, 29.1993], [77.3727, 29.199], [77.3741, 29.1987], [77.3756, 29.1985]]]}, "properties": {"objectid": 259259, "statename": "Uttar Pradesh", "statecode": "9", "districtname": "Baghpat", "districtcode": "139", "ulbname": "Doghat (Np)", "ulbcode": "800722", "wardname": "Shadowala", "wardcode": "10", "id": null, "status": "APPROVED", "misglobalid": null, "approved_by": null, "createdate": 1649130401000, "updateddate": 1649934671000, "globalid": null, "gisglobalid": "nQmlRm54-csRa-P5mB-RsQP-aQRnPslaooQQ", "remark": "", "st_area(shape)": 1.1170674000072549e-05, "st_perimeter(shape)": 0.014904119224428813}}, {"type": "Feature", "geometry": {"type": "Polygon", "coordinates": [[[77.3674, 29.2022], [77.3687, 29.2033], [77.3693, 29.203], [77.3692, 29.2024], [77.3691, 29.2009], [77.3695, 29.2008], [77.37, 29.2007], [77.3705, 29.2006], [77.3705, 29.2004], [77.3705, 29.2003], [77.3706, 29.2003], [77.3706, 29.2002], [77.3707, 29.2001], [77.3707, 29.2], [77.3709, 29.2], [77.3714, 29.1998], [77.3712, 29.1996], [77.3711, 29.1995], [77.371, 29.1994], [77.3707, 29.1995], [77.3706, 29.1995], [77.3704, 29.1996], [77.3703, 29.1996], [77.3702, 29.1996], [77.3702, 29.1995], [77.3701, 29.1995], [77.37, 29.1996], [77.3698, 29.1996], [77.3695, 29.1997], [77.3692, 29.1993], [77.369, 29.199], [77.3687, 29.1991], [77.3684, 29.1988], [77.3682, 29.199], [77.3678, 29.1992], [77.3676, 29.1993], [77.3674, 29.1995], [77.3674, 29.1996], [77.3675, 29.1997], [77.3675, 29.1998], [77.3674, 29.1999], [77.3675, 29.2002], [77.3675, 29.2004], [77.3675, 29.2005], [77.3675, 29.2009], [77.3675, 29.201], [77.3674, 29.2012], [77.3674, 29.2016], [77.3673, 29.2018], [77.3673, 29.202], [77.3673, 29.2021], [77.3674, 29.2022]]]}, "properties": {"objectid": 259260, "statename": "Uttar Pradesh", "statecode": "9", "districtname": "Baghpat", "districtcode": "139", "ulbname": "Doghat (Np)", "ulbcode": "800722", "wardname": "Garhi Wala", "wardcode": "11", "id": null, "status": "APPROVED", "misglobalid": null, "approved_by": null, "createdate": 1649130401000, "updateddate": 1649934679000, "globalid": null, "gisglobalid": "c6oBRcPm-Qol4-P6mc-aK4K-n6KK46B4mPsl", "remark": "", "st_area(shape)": 8.630080615973536e-06, "st_perimeter(shape)": 0.01523752838100973}}, {"type": "Feature", "geometry": {"type": "Polygon", "coordinates": [[[77.371, 29.1993], [77.3711, 29.1995], [77.3712, 29.1996], [77.3715, 29.1998], [77.3714, 29.1999], [77.3711, 29.2], [77.3709, 29.2], [77.3707, 29.2], [77.3707, 29.2001], [77.3706, 29.2003], [77.3705, 29.2005], [77.3705, 29.2006], [77.3701, 29.2007], [77.3695, 29.2008], [77.3691, 29.2009], [77.3693, 29.2024], [77.3694, 29.203], [77.3729, 29.2022], [77.3761, 29.2013], [77.3763, 29.2002], [77.3756, 29.1985], [77.3741, 29.1987], [77.3728, 29.199], [77.3721, 29.1993], [77.3718, 29.1994], [77.3716, 29.1994], [77.3715, 29.1994], [77.3714, 29.1994], [77.3712, 29.1989], [77.3711, 29.1989], [77.371, 29.1988], [77.3709, 29.1988], [77.3709, 29.1989], [77.3709, 29.199], [77.3709, 29.1991], [77.371, 29.1993]]]}, "properties": {"objectid": 260048, "statename": "Uttar Pradesh", "statecode": "9", "districtname": "Baghpat", "districtcode": "139", "ulbname": "Doghat (Np)", "ulbcode": "800722", "wardname": "Kalandari Wala", "wardcode": "12", "id": null, "status": "APPROVED", "misglobalid": null, "approved_by": null, "createdate": 1649130401000, "updateddate": 1649934688000, "globalid": null, "gisglobalid": "sR4s4Rcn-Qm6B-PsdB-solK-QPocK4o55QcB", "remark": "", "st_area(shape)": 1.9766038874385726e-05, "st_perimeter(shape)": 0.021388457916567752}}]}
