{"type":"Topology","arcs":[[[30343,67914],[-264,-6952]],[[30079,60962],[264,-4278]],[[30343,56684],[-2111,-1070]],[[28232,55614],[-528,0]],[[27704,55614],[-1319,0]],[[26385,55614],[-8707,-534]],[[17678,55080],[-13720,-1070],[0,-5882]],[[3958,48128],[527,-2674],[-527,-7486]],[[3958,37968],[0,-3744]],[[3958,34224],[-792,-6952],[-2638,-1604]],[[528,25668],[-528,535],[0,34224],[1847,2139]],[[1847,62566],[-264,6952],[7916,535],[5277,1069],[791,3209],[4749,0],[0,-4278],[9235,0],[792,-2139]],[[16359,45454],[-264,0]],[[16095,45454],[-2375,1070],[-528,-3744],[-4221,535],[-528,-3743],[-2902,535]],[[5541,40107],[264,5882],[-1847,2139]],[[17678,55080],[-1319,-9626]],[[5541,40107],[-264,-2139]],[[5277,37968],[-1319,0]],[[15831,42246],[-1847,-5883]],[[13984,36363],[-4222,-1604]],[[9762,34759],[-3166,1070],[-1319,2139]],[[16095,45454],[-264,-3208]],[[9762,34759],[-1319,-2139],[-3694,0],[-791,1604]],[[15303,1070],[-10554,-1070],[-3694,2139],[-791,13904],[264,9625]],[[13984,36363],[-528,-3743],[264,-8021],[-2374,-3744],[1583,-6417],[2374,-13368]],[[22163,3209],[-6860,-2139]],[[15831,42246],[4749,-2674],[-264,-3743]],[[20316,35829],[-263,-8557],[-1056,-3743],[3166,-20320]],[[23219,38502],[-264,-3208],[-2639,535]],[[26385,55614],[-264,-4812],[-1583,-8556],[-1319,-3744]],[[25066,38502],[-1847,0]],[[27704,55614],[264,-4812],[-2638,-8022],[-264,-4278]],[[25066,38502],[0,-1604],[5277,-3208]],[[30343,33690],[-264,-11765],[791,-4813],[528,-9091]],[[31398,8021],[-9235,-4812]],[[30607,50267],[0,-13904]],[[30607,36363],[-264,-2673]],[[28232,55614],[264,-5882],[2111,535]],[[35620,49732],[-1847,0]],[[33773,49732],[-3166,535]],[[30343,56684],[5541,-2139],[-264,-4813]],[[39577,99464],[5277,-2139]],[[44854,97325],[264,0]],[[44854,97325],[-2638,-16042]],[[42216,81283],[264,-3209],[-1319,-7486],[0,-5348],[-4486,-535],[-264,-3743]],[[36411,60962],[-6332,0]],[[30343,67914],[4749,-1605],[2375,23530],[527,9090],[1320,1070]],[[39314,99999],[263,-535]],[[56464,81283],[-14248,0]],[[45118,97325],[3430,0],[5541,-4813],[4222,-4812]],[[58311,87700],[-1847,-6417]],[[73350,81283],[-3166,-6952],[1847,-8556],[-3958,-535],[-13984,0]],[[54089,65240],[2375,16043]],[[58311,87700],[3430,-4813],[2638,-2139],[1847,11764],[4486,0],[2638,-11229]],[[54089,65240],[-264,-3209]],[[53825,62031],[-8443,-534]],[[45382,61497],[-2638,0]],[[42744,61497],[-2903,0]],[[39841,61497],[-3430,-535]],[[39841,61497],[-791,-12300]],[[39050,49197],[-3430,535]],[[33773,49732],[264,-6952],[2902,-1069],[-264,-6952]],[[36675,34759],[-6068,1604]],[[53034,48128],[264,0],[263,-13904]],[[53561,34224],[-2902,-1069],[-6332,-8022],[-2903,-5347],[-5804,-8021],[-4222,-3744]],[[36675,34759],[2639,1070],[791,13368]],[[40105,49197],[2111,-534]],[[42216,48663],[3166,534]],[[45382,49197],[7652,-1069]],[[39050,49197],[1055,0]],[[42744,61497],[-528,-12834]],[[45382,61497],[0,-12300]],[[53825,62031],[-791,-3208],[0,-10695]],[[58575,44919],[-792,-11229]],[[57783,33690],[-2902,1604],[-1320,-1070]],[[53825,62031],[5805,535]],[[59630,62566],[-792,-8021],[-263,-9626]],[[98944,65775],[-8180,-535],[-13984,-1604],[-6332,0],[-10818,-1070]],[[73350,81283],[2375,3208],[9498,0],[4486,3209],[2375,-10695],[3693,0],[4222,-8022],[-1055,-3208]],[[98944,65775],[-528,-9626],[-2111,-14438],[0,-4813],[-1319,-1069],[-264,-19786],[-4222,4278],[-13720,10695],[-6332,2139],[-12665,535]]],"transform":{"scale":[3.7900379003783424e-7,1.870018700186907e-7],"translate":[86.4585,25.4951]},"objects":{"wards":{"type":"GeometryCollection","geometries":[{"arcs":[[0,1,2,3,4,5,6,7,8,9,10,11]],"type":"Polygon","properties":{"objectid":194245,"statename":"Bihar","statecode":"10","districtname":"","districtcode":"223","ulbname":"Khagaria","ulbcode":"801349","wardname":"Dan Nagar","wardcode":"1","id":null,"status":"OPEN","misglobalid":null,"approved_by":null,"createdate":1646313525000,"updateddate":null,"globalid":null,"gisglobalid":"BamRd5Ks-s45P-PBQB-QK4R-mPol6sR4al56","remark":"--","st_area(shape)":0.00004112860185694656,"st_perimeter(shape)":0.040970272748852864}},{"arcs":[[12,13,14,-7,15]],"type":"Polygon","properties":{"objectid":195429,"statename":"Bihar","statecode":"10","districtname":"","districtcode":"223","ulbname":"Khagaria","ulbcode":"801349","wardname":"Dan Nagar","wardcode":"2","id":null,"status":"OPEN","misglobalid":null,"approved_by":null,"createdate":1646313525000,"updateddate":null,"globalid":null,"gisglobalid":"osscs6os-ona4-PQR6-s5sa-lnlsomoRn5md","remark":"--","st_area(shape)":0.000009442809552861046,"st_perimeter(shape)":0.01854912308978177}},{"arcs":[[16,17,-8,-15]],"type":"Polygon","properties":{"objectid":195431,"statename":"Bihar","statecode":"10","districtname":"","districtcode":"223","ulbname":"Khagaria","ulbcode":"801349","wardname":"Dan Nagar","wardcode":"3","id":null,"status":"OPEN","misglobalid":null,"approved_by":null,"createdate":1646313525000,"updateddate":null,"globalid":null,"gisglobalid":"RssQodQ5-cmP6-PBP5-ascm-R4snRP54445n","remark":"--","st_area(shape)":0.0000015106515047696595,"st_perimeter(shape)":0.007481952936527645}},{"arcs":[[18,19,20,-17,-14,-13,12,21]],"type":"Polygon","properties":{"objectid":196627,"statename":"Bihar","statecode":"10","districtname":"","districtcode":"223","ulbname":"Khagaria","ulbcode":"801349","wardname":"Dan Nagar","wardcode":"4","id":null,"status":"OPEN","misglobalid":null,"approved_by":null,"createdate":1646313525000,"updateddate":null,"globalid":null,"gisglobalid":"cKK5QR4a-PR66-PQ5m-RQ4m-lsaBK6RsBmms","remark":"--","st_area(shape)":0.000004803663693535052,"st_perimeter(shape)":0.011959768150745344}},{"arcs":[[-21,22,-9,-18]],"type":"Polygon","properties":{"objectid":195433,"statename":"Bihar","statecode":"10","districtname":"","districtcode":"223","ulbname":"Khagaria","ulbcode":"801349","wardname":"Dan Nagar","wardcode":"5","id":null,"status":"OPEN","misglobalid":null,"approved_by":null,"createdate":1646313525000,"updateddate":null,"globalid":null,"gisglobalid":"QPoKnlnm-nlPo-PPPB-acQn-lRQmddoddRc4","remark":"--","st_area(shape)":0.000001475458419787236,"st_perimeter(shape)":0.005615104862721307}},{"arcs":[[23,-10,-23,-20,24]],"type":"Polygon","properties":{"objectid":193073,"statename":"Bihar","statecode":"10","districtname":"","districtcode":"223","ulbname":"Khagaria","ulbcode":"801349","wardname":"Vidyadhar","wardcode":"6","id":null,"status":"OPEN","misglobalid":null,"approved_by":null,"createdate":1646313525000,"updateddate":null,"globalid":null,"gisglobalid":"sn46am5s-oB66-PaBd-QKlR-RRd5oddsaRmd","remark":"--","st_area(shape)":0.000028443117279814795,"st_perimeter(shape)":0.024422948602599026}},{"arcs":[[25,-25,-19,26,27]],"type":"Polygon","properties":{"objectid":195829,"statename":"Bihar","statecode":"10","districtname":"","districtcode":"223","ulbname":"Khagaria","ulbcode":"801349","wardname":"Vishwanath Ganj","wardcode":"7","id":null,"status":"OPEN","misglobalid":null,"approved_by":null,"createdate":1646313525000,"updateddate":null,"globalid":null,"gisglobalid":"lmmc4Kll-odod-P4ca-QPRl-laRd4dB5PnBc","remark":"--","st_area(shape)":0.000018742164803192487,"st_perimeter(shape)":0.02113621878793565}},{"arcs":[[28,-27,-22,-13,-16,-6,29]],"type":"Polygon","properties":{"objectid":196225,"statename":"Bihar","statecode":"10","districtname":"","districtcode":"223","ulbname":"Khagaria","ulbcode":"801349","wardname":"Mil Road","wardcode":"8","id":null,"status":"OPEN","misglobalid":null,"approved_by":null,"createdate":1646313525000,"updateddate":null,"globalid":null,"gisglobalid":"5mndm4oc-coRn-PQRa-QQRm-aP4nR64scKQl","remark":"--","st_area(shape)":0.000009663805644053032,"st_perimeter(shape)":0.014001327123638193}},{"arcs":[[30,-30,-5,31]],"type":"Polygon","properties":{"objectid":193874,"statename":"Bihar","statecode":"10","districtname":"","districtcode":"223","ulbname":"Khagaria","ulbcode":"801349","wardname":"Mirgiyas Chak","wardcode":"9","id":null,"status":"OPEN","misglobalid":null,"approved_by":null,"createdate":1646313525000,"updateddate":null,"globalid":null,"gisglobalid":"cnoBaP4K-QRPK-Pncm-sRo6-dPPmcldK6Bol","remark":"--","st_area(shape)":0.0000018165613059650545,"st_perimeter(shape)":0.009218404030482007}},{"arcs":[[32,33,34,-28,-29,-31]],"type":"Polygon","properties":{"objectid":195827,"statename":"Bihar","statecode":"10","districtname":"","districtcode":"223","ulbname":"Khagaria","ulbcode":"801349","wardname":"Loha Patti","wardcode":"10","id":null,"status":"OPEN","misglobalid":null,"approved_by":null,"createdate":1646313525000,"updateddate":null,"globalid":null,"gisglobalid":"4mnndPRa-56QP-PQlc-sPla-nnm5smdKaKPl","remark":"--","st_area(shape)":0.000022269692535048266,"st_perimeter(shape)":0.020067258781314434}},{"arcs":[[35,36,-33,-32,-4,37]],"type":"Polygon","properties":{"objectid":196625,"statename":"Bihar","statecode":"10","districtname":"","districtcode":"223","ulbname":"Khagaria","ulbcode":"801349","wardname":"Nac Road","wardcode":"11","id":null,"status":"OPEN","misglobalid":null,"approved_by":null,"createdate":1646313525000,"updateddate":null,"globalid":null,"gisglobalid":"mccaR5Ks-P5na-PRln-Rmoc-RKamRco65mBl","remark":"--","st_area(shape)":0.000005487969932695932,"st_perimeter(shape)":0.011644429311163952}},{"arcs":[[38,39,-38,-3,40]],"type":"Polygon","properties":{"objectid":196624,"statename":"Bihar","statecode":"10","districtname":"","districtcode":"223","ulbname":"Khagaria","ulbcode":"801349","wardname":"Hajipur","wardcode":"12","id":null,"status":"OPEN","misglobalid":null,"approved_by":null,"createdate":1646313525000,"updateddate":null,"globalid":null,"gisglobalid":"llPmsos5-cB6B-PlBo-R6mB-4s56nadmm6Qd","remark":"--","st_area(shape)":0.0000031024862876838646,"st_perimeter(shape)":0.008136819156859772}},{"arcs":[[41,42,-43,43,44,45,-1,46,47]],"type":"Polygon","properties":{"objectid":193069,"statename":"Bihar","statecode":"10","districtname":"","districtcode":"223","ulbname":"Khagaria","ulbcode":"801349","wardname":"Utarri Hajipur","wardcode":"13","id":null,"status":"OPEN","misglobalid":null,"approved_by":null,"createdate":1646313525000,"updateddate":null,"globalid":null,"gisglobalid":"ld4lmcdK-n55l-Psad-Qls5-mscmKlP6ln5s","remark":"--","st_area(shape)":0.000017115547815663286,"st_perimeter(shape)":0.023979561896476802}},{"arcs":[[48,-44,42,49,50]],"type":"Polygon","properties":{"objectid":193871,"statename":"Bihar","statecode":"10","districtname":"","districtcode":"223","ulbname":"Khagaria","ulbcode":"801349","wardname":"Chitragupt Nagar","wardcode":"14","id":null,"status":"OPEN","misglobalid":null,"approved_by":null,"createdate":1646313525000,"updateddate":null,"globalid":null,"gisglobalid":"54RRncsn-5sKB-PaRQ-sP6n-QlQBPlmK4P66","remark":"--","st_area(shape)":0.000013082211028836247,"st_perimeter(shape)":0.01602630061723849}},{"arcs":[[51,52,-51,53]],"type":"Polygon","properties":{"objectid":193872,"statename":"Bihar","statecode":"10","districtname":"","districtcode":"223","ulbname":"Khagaria","ulbcode":"801349","wardname":"Ashok Nagar","wardcode":"15","id":null,"status":"OPEN","misglobalid":null,"approved_by":null,"createdate":1646313525000,"updateddate":null,"globalid":null,"gisglobalid":"BlnBPanB-BmQc-PoKK-smRm-QsPom4Bdl6BK","remark":"--","st_area(shape)":0.000025161807210397918,"st_perimeter(shape)":0.024621057858137417}},{"arcs":[[-53,54,55,56,57,58,-45,-49]],"type":"Polygon","properties":{"objectid":196626,"statename":"Bihar","statecode":"10","districtname":"","districtcode":"223","ulbname":"Khagaria","ulbcode":"801349","wardname":"Hospital Road","wardcode":"16","id":null,"status":"OPEN","misglobalid":null,"approved_by":null,"createdate":1646313525000,"updateddate":null,"globalid":null,"gisglobalid":"PondB4Bo-d4nc-P4ad-ssco-4anBRddRlRa4","remark":"--","st_area(shape)":0.000019926255111826373,"st_perimeter(shape)":0.02201435524570479}},{"arcs":[[59,60,-41,-2,-46,-59]],"type":"Polygon","properties":{"objectid":193071,"statename":"Bihar","statecode":"10","districtname":"","districtcode":"223","ulbname":"Khagaria","ulbcode":"801349","wardname":"Hajipur","wardcode":"17","id":null,"status":"OPEN","misglobalid":null,"approved_by":null,"createdate":1646313525000,"updateddate":null,"globalid":null,"gisglobalid":"dPcoKla6-da4s-PBc4-s5Kd-KllRmBlKm5PQ","remark":"--","st_area(shape)":0.000004964194314803422,"st_perimeter(shape)":0.011550062544335413}},{"arcs":[[-36,-40,61,62]],"type":"Polygon","properties":{"objectid":195432,"statename":"Bihar","statecode":"10","districtname":"","districtcode":"223","ulbname":"Khagaria","ulbcode":"801349","wardname":"Dhobi Tola","wardcode":"18","id":null,"status":"OPEN","misglobalid":null,"approved_by":null,"createdate":1646313525000,"updateddate":null,"globalid":null,"gisglobalid":"P6B6lKoc-c5sB-PalR-scoa-mnaQcdcl465P","remark":"--","st_area(shape)":0.000004829265519939846,"st_perimeter(shape)":0.010255695078145428}},{"arcs":[[63,64,-34,-37,-63,65,66,67,68]],"type":"Polygon","properties":{"objectid":195430,"statename":"Bihar","statecode":"10","districtname":"","districtcode":"223","ulbname":"Khagaria","ulbcode":"801349","wardname":"Post Office Road","wardcode":"19","id":null,"status":"OPEN","misglobalid":null,"approved_by":null,"createdate":1646313525000,"updateddate":null,"globalid":null,"gisglobalid":"44dPPlm6-aQ5c-P4o6-aaB6-cQ4mclmo6BRP","remark":"--","st_area(shape)":0.00003600249367922114,"st_perimeter(shape)":0.028986908667957913}},{"arcs":[[-39,-61,69,-66,-62]],"type":"Polygon","properties":{"objectid":194247,"statename":"Bihar","statecode":"10","districtname":"","districtcode":"223","ulbname":"Khagaria","ulbcode":"801349","wardname":"Hajipur","wardcode":"20","id":null,"status":"OPEN","misglobalid":null,"approved_by":null,"createdate":1646313525000,"updateddate":null,"globalid":null,"gisglobalid":"B6Qm5Qmd-5oRn-PB5Q-s4oQ-l5mscoRsa6aP","remark":"--","st_area(shape)":0.000004359007181872018,"st_perimeter(shape)":0.010161081597831911}},{"arcs":[[-67,-70,-60,-58,70]],"type":"Polygon","properties":{"objectid":193072,"statename":"Bihar","statecode":"10","districtname":"","districtcode":"223","ulbname":"Khagaria","ulbcode":"801349","wardname":"Jayprakash Nagar","wardcode":"21","id":null,"status":"OPEN","misglobalid":null,"approved_by":null,"createdate":1646313525000,"updateddate":null,"globalid":null,"gisglobalid":"Rsacac5K-5Pnn-PKBm-sQnl-dnRlcmK5Q5Bd","remark":"--","st_area(shape)":0.0000027744805719169274,"st_perimeter(shape)":0.007134058277761306}},{"arcs":[[-68,-71,-57,71]],"type":"Polygon","properties":{"objectid":193070,"statename":"Bihar","statecode":"10","districtname":"","districtcode":"223","ulbname":"Khagaria","ulbcode":"801349","wardname":"Jayprakash Nagar","wardcode":"22","id":null,"status":"OPEN","misglobalid":null,"approved_by":null,"createdate":1646313525000,"updateddate":null,"globalid":null,"gisglobalid":"sKnlaPRK-K4K6-Pcmm-s4Km-Poscm45a5Pmc","remark":"--","st_area(shape)":0.0000022705860391759683,"st_perimeter(shape)":0.007043749489552445}},{"arcs":[[-69,-72,-56,72,63,-64]],"type":"Polygon","properties":{"objectid":195828,"statename":"Bihar","statecode":"10","districtname":"","districtcode":"223","ulbname":"Khagaria","ulbcode":"801349","wardname":"Jayprakash Nagar","wardcode":"23","id":null,"status":"OPEN","misglobalid":null,"approved_by":null,"createdate":1646313525000,"updateddate":null,"globalid":null,"gisglobalid":"noaomK6n-Q6lQ-PmsK-slRR-6aPBBmssPond","remark":"--","st_area(shape)":0.000007581384712893375,"st_perimeter(shape)":0.01167389589541812}},{"arcs":[[73,74,-64,-73,75,76]],"type":"Polygon","properties":{"objectid":193873,"statename":"Bihar","statecode":"10","districtname":"","districtcode":"223","ulbname":"Khagaria","ulbcode":"801349","wardname":"Balwahi","wardcode":"24","id":null,"status":"OPEN","misglobalid":null,"approved_by":null,"createdate":1646313525000,"updateddate":null,"globalid":null,"gisglobalid":"5m6PPdKc-P5Pm-PR6B-RdBP-l55PBn5a6KlB","remark":"--","st_area(shape)":0.000010620617428881251,"st_perimeter(shape)":0.015591303489269995}},{"arcs":[[77,-76,-55,-52,78]],"type":"Polygon","properties":{"objectid":194246,"statename":"Bihar","statecode":"10","districtname":"","districtcode":"223","ulbname":"Khagaria","ulbcode":"801349","wardname":"Samir Nagar","wardcode":"25","id":null,"status":"OPEN","misglobalid":null,"approved_by":null,"createdate":1646313525000,"updateddate":null,"globalid":null,"gisglobalid":"lnQcKQ5d-K5nR-PQ4n-a6sl-csmd4P6ls6nQ","remark":"--","st_area(shape)":0.00003755963584387518,"st_perimeter(shape)":0.04160398984830584}},{"arcs":[[-74,-77,-78,79]],"type":"Polygon","properties":{"objectid":196226,"statename":"Bihar","statecode":"10","districtname":"","districtcode":"223","ulbname":"Khagaria","ulbcode":"801349","wardname":"Balwahi","wardcode":"26","id":null,"status":"OPEN","misglobalid":null,"approved_by":null,"createdate":1646313525000,"updateddate":null,"globalid":null,"gisglobalid":"65RdlsPs-mdQP-Pond-RsP4-lm6oKBcKslQP","remark":"--","st_area(shape)":0.00009661960869136708,"st_perimeter(shape)":0.04543151079315929}}]}}}