{"type":"Topology","arcs":[[[87324,0],[-35211,5882],[-2817,22059],[-49296,32353],[9859,22059],[90141,17647],[-12676,-100000]]],"transform":{"scale":[7.100000000008321e-8,6.800000000000139e-8],"translate":[78.2079,13.3452]},"objects":{"wards":{"type":"GeometryCollection","geometries":[{"arcs":[[0]],"type":"Polygon","properties":{"objectid":154680,"statename":"Karnataka","statecode":"29","districtname":"","districtcode":"581","ulbname":"Srinivasapura","ulbcode":"803220","wardname":"Mg Road West","wardcode":"1","id":null,"status":"OPEN","misglobalid":null,"approved_by":null,"createdate":1645013841000,"updateddate":1644732897000,"globalid":null,"gisglobalid":"nBsBKKsK-aKKl-Pla6-Qo56-QcKBcodcKl5m","remark":"--","st_area(shape)":0.00002974667659752665,"st_perimeter(shape)":0.02580993534515547}}]}}}