{"type": "FeatureCollection", "features": [{"type": "Feature", "geometry": {"type": "Polygon", "coordinates": [[[76.1143, 29.8438], [76.1157, 29.8434], [76.1161, 29.8433], [76.1162, 29.843], [76.1162, 29.8409], [76.1161, 29.8409], [76.1158, 29.8408], [76.1155, 29.8409], [76.1153, 29.8409], [76.115, 29.8409], [76.1148, 29.841], [76.1145, 29.8411], [76.1143, 29.8412], [76.1139, 29.8413], [76.114, 29.8415], [76.114, 29.8418], [76.1141, 29.8419], [76.1143, 29.842], [76.1144, 29.8421], [76.1145, 29.8422], [76.1144, 29.8423], [76.1144, 29.8424], [76.1141, 29.8427], [76.1142, 29.843], [76.1142, 29.8432], [76.1143, 29.8438]]]}, "properties": {"objectid": 32908, "statename": "Punjab", "statecode": "3", "districtname": null, "districtcode": "53", "ulbname": "Khanauri", "ulbcode": "800280", "wardname": "", "wardcode": "1", "id": null, "status": "APPROVED", "misglobalid": null, "approved_by": "ULB Nodal Officer", "createdate": 1636638798000, "updateddate": 1636959058000, "globalid": "cdQB5cmo-PsdK-PRss-aPon-PP6dlloQn55s", "gisglobalid": "f4932e5b-f448-4b77-bb66-e5a43026d776", "remark": "Ward No. 1 Boundary Is Correct", "st_area(shape)": 5.20894135255738e-06, "st_perimeter(shape)": 0.009602116690956541}}, {"type": "Feature", "geometry": {"type": "Polygon", "coordinates": [[[76.1132, 29.8441], [76.1143, 29.8438], [76.1143, 29.8436], [76.1142, 29.8435], [76.1142, 29.8433], [76.1142, 29.8432], [76.1141, 29.843], [76.114, 29.8428], [76.114, 29.8427], [76.1141, 29.8427], [76.1142, 29.8426], [76.1142, 29.8425], [76.1143, 29.8425], [76.1143, 29.8424], [76.1144, 29.8423], [76.1144, 29.8422], [76.1144, 29.8421], [76.1143, 29.8421], [76.1142, 29.842], [76.1141, 29.8419], [76.114, 29.8418], [76.114, 29.8416], [76.114, 29.8415], [76.1139, 29.8415], [76.1139, 29.8413], [76.1137, 29.8414], [76.1135, 29.8415], [76.1134, 29.8415], [76.1133, 29.8416], [76.1133, 29.8417], [76.1132, 29.8419], [76.1133, 29.8421], [76.1134, 29.8423], [76.1135, 29.8424], [76.1135, 29.8425], [76.1135, 29.8426], [76.1134, 29.8428], [76.1134, 29.8429], [76.1134, 29.843], [76.1134, 29.8431], [76.1133, 29.8432], [76.1133, 29.8433], [76.1133, 29.8435], [76.1133, 29.8436], [76.1132, 29.8438], [76.1132, 29.844], [76.1132, 29.8441]]]}, "properties": {"objectid": 32909, "statename": "Punjab", "statecode": "3", "districtname": null, "districtcode": "53", "ulbname": "Khanauri", "ulbcode": "800280", "wardname": "", "wardcode": "2", "id": null, "status": "APPROVED", "misglobalid": null, "approved_by": "ULB Nodal Officer", "createdate": 1636638838000, "updateddate": 1636959083000, "globalid": "s5n4KR4l-KRlK-PQB4-sBBR-Q6coKKn5Bsc5", "gisglobalid": "4bd33223-a3a1-47d8-9041-2457ab6f568d", "remark": "Ward No. 2 Boundary Is Correct", "st_area(shape)": 2.131539867838691e-06, "st_perimeter(shape)": 0.007323500751961343}}, {"type": "Feature", "geometry": {"type": "Polygon", "coordinates": [[[76.1123, 29.8401], [76.1134, 29.8415], [76.1137, 29.8413], [76.1139, 29.8413], [76.114, 29.8412], [76.1143, 29.8411], [76.1145, 29.841], [76.1148, 29.841], [76.115, 29.8409], [76.1152, 29.8408], [76.1154, 29.8408], [76.1156, 29.8408], [76.1158, 29.8408], [76.116, 29.8408], [76.1161, 29.8408], [76.1162, 29.8407], [76.1164, 29.8408], [76.1166, 29.8408], [76.1168, 29.8408], [76.117, 29.8408], [76.1171, 29.8408], [76.1173, 29.8408], [76.1174, 29.8408], [76.1175, 29.8408], [76.1175, 29.8407], [76.1175, 29.8405], [76.1175, 29.8404], [76.1175, 29.8403], [76.1173, 29.8403], [76.1172, 29.8403], [76.1171, 29.8403], [76.1169, 29.8403], [76.1167, 29.8403], [76.1165, 29.8403], [76.1163, 29.8403], [76.1162, 29.8403], [76.1162, 29.8399], [76.1162, 29.8394], [76.1161, 29.8388], [76.1161, 29.8387], [76.1161, 29.8383], [76.1161, 29.8381], [76.1161, 29.838], [76.1161, 29.8376], [76.1161, 29.8373], [76.1161, 29.8371], [76.1161, 29.8369], [76.1155, 29.8368], [76.1155, 29.8372], [76.115, 29.8372], [76.1146, 29.8372], [76.114, 29.8372], [76.1132, 29.8373], [76.1129, 29.8373], [76.1129, 29.8376], [76.1123, 29.8377], [76.1123, 29.8382], [76.1124, 29.8385], [76.1124, 29.8388], [76.1124, 29.8391], [76.1124, 29.8393], [76.1124, 29.8396], [76.1124, 29.8398], [76.1124, 29.84], [76.1123, 29.8401]]]}, "properties": {"objectid": 34976, "statename": "Punjab", "statecode": "3", "districtname": null, "districtcode": "53", "ulbname": "Khanauri", "ulbcode": "800280", "wardname": "", "wardcode": "3", "id": null, "status": "APPROVED", "misglobalid": null, "approved_by": "ULB Nodal Officer", "createdate": 1636638897000, "updateddate": 1636959129000, "globalid": "BammQaoQ-dnc6-Ps6n-QmlP-la4464m4445K", "gisglobalid": "4b9bcfa8-8286-4c7e-bd35-e5ee7a578e05", "remark": "Ward No. 3 Boundary Is Correct", "st_area(shape)": 1.4819269977288834e-05, "st_perimeter(shape)": 0.018249695733050963}}, {"type": "Feature", "geometry": {"type": "Polygon", "coordinates": [[[76.1104, 29.8375], [76.1103, 29.8377], [76.1104, 29.8377], [76.1105, 29.8378], [76.1105, 29.8379], [76.1105, 29.838], [76.1106, 29.8381], [76.1107, 29.8382], [76.1108, 29.8383], [76.1109, 29.8384], [76.111, 29.8385], [76.1111, 29.8387], [76.1113, 29.8388], [76.1113, 29.8389], [76.1116, 29.8392], [76.1118, 29.8394], [76.1119, 29.8396], [76.112, 29.8397], [76.1122, 29.84], [76.1123, 29.84], [76.1123, 29.8399], [76.1123, 29.8397], [76.1123, 29.8394], [76.1123, 29.8392], [76.1123, 29.839], [76.1123, 29.8387], [76.1123, 29.8385], [76.1123, 29.8382], [76.1123, 29.838], [76.1122, 29.8378], [76.1122, 29.8377], [76.1122, 29.8376], [76.1123, 29.8376], [76.1125, 29.8376], [76.1127, 29.8376], [76.1128, 29.8376], [76.1128, 29.8375], [76.1128, 29.8373], [76.1129, 29.8372], [76.113, 29.8372], [76.1132, 29.8372], [76.1133, 29.8372], [76.1135, 29.8372], [76.1136, 29.8372], [76.1138, 29.8372], [76.114, 29.8372], [76.1141, 29.8372], [76.1143, 29.8372], [76.1144, 29.8372], [76.1146, 29.8372], [76.1147, 29.8372], [76.1148, 29.8372], [76.115, 29.8372], [76.1151, 29.8372], [76.1152, 29.8372], [76.1153, 29.8372], [76.1154, 29.8372], [76.1154, 29.8371], [76.1154, 29.837], [76.1154, 29.8369], [76.1154, 29.8368], [76.1156, 29.8368], [76.1161, 29.8369], [76.1161, 29.8366], [76.1161, 29.8363], [76.1161, 29.836], [76.1161, 29.8359], [76.1156, 29.8359], [76.1153, 29.8359], [76.115, 29.8359], [76.1148, 29.8359], [76.1146, 29.8359], [76.1143, 29.836], [76.113, 29.836], [76.1129, 29.836], [76.1128, 29.836], [76.1128, 29.8361], [76.1126, 29.8361], [76.1123, 29.8362], [76.112, 29.8363], [76.1117, 29.8363], [76.1114, 29.8364], [76.1111, 29.8365], [76.1108, 29.8366], [76.1107, 29.8366], [76.1106, 29.8368], [76.1105, 29.8371], [76.1104, 29.8375]]]}, "properties": {"objectid": 36539, "statename": "Punjab", "statecode": "3", "districtname": null, "districtcode": "53", "ulbname": "Khanauri", "ulbcode": "800280", "wardname": "", "wardcode": "4", "id": null, "status": "APPROVED", "misglobalid": null, "approved_by": "ULB Nodal Officer", "createdate": 1637077269000, "updateddate": 1637077882000, "globalid": "B4Km65o5-Q6Po-PllK-QacR-44KP565oKddl", "gisglobalid": "74f4f56f-a191-49ef-b8fa-9f98a1a740de", "remark": "Ward No. 4 Info Is Correct", "st_area(shape)": 9.380859127124861e-06, "st_perimeter(shape)": 0.01781445561222082}}, {"type": "Feature", "geometry": {"type": "Polygon", "coordinates": [[[76.1124, 29.8324], [76.1107, 29.8365], [76.1111, 29.8364], [76.1114, 29.8364], [76.1116, 29.8363], [76.1119, 29.8363], [76.112, 29.8362], [76.1122, 29.8362], [76.1125, 29.8361], [76.1128, 29.836], [76.1128, 29.8359], [76.113, 29.8359], [76.1132, 29.8359], [76.1134, 29.8359], [76.1136, 29.8359], [76.1138, 29.8359], [76.1141, 29.8359], [76.1144, 29.8359], [76.1147, 29.8359], [76.1149, 29.8359], [76.1151, 29.8359], [76.1153, 29.8359], [76.1155, 29.8358], [76.1157, 29.8358], [76.1158, 29.8358], [76.1161, 29.8358], [76.1161, 29.8353], [76.1161, 29.835], [76.116, 29.8348], [76.116, 29.8343], [76.116, 29.8341], [76.116, 29.834], [76.1158, 29.8339], [76.1155, 29.8338], [76.1152, 29.8337], [76.1149, 29.8335], [76.1146, 29.8334], [76.1144, 29.8333], [76.114, 29.8331], [76.1139, 29.8331], [76.1136, 29.8329], [76.1133, 29.8328], [76.113, 29.8327], [76.1128, 29.8326], [76.1125, 29.8325], [76.1124, 29.8324]]]}, "properties": {"objectid": 36847, "statename": "Punjab", "statecode": "3", "districtname": null, "districtcode": "53", "ulbname": "Khanauri", "ulbcode": "800280", "wardname": "", "wardcode": "5", "id": null, "status": "APPROVED", "misglobalid": null, "approved_by": "ULB Nodal Officer", "createdate": 1637077291000, "updateddate": 1639573295000, "globalid": "6dn54nnn-oss5-PPoK-Q5B5-PRldnscRPcl4", "gisglobalid": "0a1caaa2-7db0-4c8d-85a5-0c5093251b34", "remark": "Its Right", "st_area(shape)": 1.282589694346883e-05, "st_perimeter(shape)": 0.015607438592364662}}, {"type": "Feature", "geometry": {"type": "Polygon", "coordinates": [[[76.1124, 29.8324], [76.116, 29.8339], [76.1161, 29.8336], [76.1161, 29.8332], [76.1161, 29.8325], [76.116, 29.832], [76.1158, 29.8321], [76.1157, 29.8315], [76.1152, 29.8315], [76.115, 29.8315], [76.115, 29.8311], [76.115, 29.8308], [76.115, 29.8305], [76.115, 29.8304], [76.1144, 29.8304], [76.1143, 29.8299], [76.1144, 29.8297], [76.1144, 29.8295], [76.1145, 29.8295], [76.1147, 29.8294], [76.1156, 29.8294], [76.1154, 29.8291], [76.1152, 29.8289], [76.115, 29.8287], [76.1148, 29.8285], [76.1148, 29.8284], [76.1146, 29.8281], [76.1144, 29.8279], [76.1144, 29.8278], [76.1143, 29.8277], [76.1142, 29.8279], [76.1141, 29.8282], [76.114, 29.8285], [76.1139, 29.8287], [76.1138, 29.829], [76.1138, 29.8292], [76.1136, 29.8294], [76.1135, 29.8297], [76.1135, 29.8299], [76.1134, 29.8301], [76.1133, 29.8304], [76.1132, 29.8306], [76.1131, 29.8308], [76.113, 29.8311], [76.1129, 29.8313], [76.1128, 29.8315], [76.1128, 29.8317], [76.1126, 29.8319], [76.1126, 29.8321], [76.1125, 29.8323], [76.1124, 29.8324]]]}, "properties": {"objectid": 36848, "statename": "Punjab", "statecode": "3", "districtname": null, "districtcode": "53", "ulbname": "Khanauri", "ulbcode": "800280", "wardname": "", "wardcode": "6", "id": null, "status": "APPROVED", "misglobalid": null, "approved_by": "ULB Nodal Officer", "createdate": 1637077359000, "updateddate": 1639573170000, "globalid": "o6Bcm4os-ccca-P5Pa-aaaP-c5c6oKnoKc5P", "gisglobalid": "57cb22c1-3787-44b8-8c70-6fd3cc7019a8", "remark": "Its Right", "st_area(shape)": 1.048284235237472e-05, "st_perimeter(shape)": 0.01830241093254922}}, {"type": "Feature", "geometry": {"type": "Polygon", "coordinates": [[[76.1115, 29.8273], [76.109, 29.8272], [76.1089, 29.8284], [76.1094, 29.8285], [76.1094, 29.8293], [76.1096, 29.8294], [76.1101, 29.8295], [76.1109, 29.8294], [76.1112, 29.8294], [76.1116, 29.8294], [76.1121, 29.8294], [76.1125, 29.8294], [76.1133, 29.8294], [76.1134, 29.8293], [76.1138, 29.8284], [76.1139, 29.8282], [76.1141, 29.8278], [76.1142, 29.8275], [76.1141, 29.8275], [76.114, 29.8272], [76.1138, 29.8269], [76.1136, 29.8268], [76.1135, 29.8266], [76.1133, 29.8264], [76.1131, 29.8261], [76.1129, 29.8259], [76.1127, 29.8257], [76.1125, 29.8254], [76.1123, 29.8252], [76.1122, 29.8251], [76.1121, 29.825], [76.1114, 29.8251], [76.1115, 29.8273]]]}, "properties": {"objectid": 36849, "statename": "Punjab", "statecode": "3", "districtname": null, "districtcode": "53", "ulbname": "Khanauri", "ulbcode": "800280", "wardname": "", "wardcode": "7", "id": null, "status": "APPROVED", "misglobalid": null, "approved_by": "ULB Nodal Officer", "createdate": 1637077373000, "updateddate": 1639573223000, "globalid": "KBaPBol6-daRQ-PoQn-Racs-BBmoa5Kn5oBB", "gisglobalid": "368a16a8-39f1-486e-bc14-c3238b23d059", "remark": "Its Right", "st_area(shape)": 1.3878925227430197e-05, "st_perimeter(shape)": 0.017189211588565668}}, {"type": "Feature", "geometry": {"type": "Polygon", "coordinates": [[[76.1082, 29.8333], [76.1081, 29.8334], [76.1085, 29.8349], [76.1086, 29.8349], [76.1091, 29.8349], [76.1105, 29.8348], [76.1111, 29.8348], [76.1116, 29.8336], [76.1118, 29.833], [76.1121, 29.8324], [76.1124, 29.8317], [76.1132, 29.8299], [76.1132, 29.8294], [76.1131, 29.8294], [76.1128, 29.8294], [76.1126, 29.8294], [76.1124, 29.8294], [76.1121, 29.8295], [76.1119, 29.8295], [76.1117, 29.8295], [76.1115, 29.8295], [76.1113, 29.8295], [76.1109, 29.8295], [76.1106, 29.8295], [76.1103, 29.8295], [76.1101, 29.8295], [76.1099, 29.8295], [76.1095, 29.8294], [76.1093, 29.8293], [76.109, 29.8294], [76.1087, 29.8294], [76.1085, 29.8293], [76.1084, 29.8295], [76.1082, 29.8296], [76.1081, 29.8298], [76.1079, 29.8299], [76.1078, 29.8301], [76.1077, 29.8303], [76.1072, 29.8309], [76.1068, 29.8313], [76.107, 29.8314], [76.1071, 29.8314], [76.1075, 29.8312], [76.1076, 29.8312], [76.1077, 29.831], [76.1083, 29.8311], [76.1087, 29.8311], [76.1087, 29.8309], [76.1091, 29.8309], [76.1091, 29.8311], [76.1091, 29.8314], [76.1091, 29.8322], [76.1079, 29.8322], [76.1081, 29.8326], [76.1082, 29.8333]]]}, "properties": {"objectid": 36540, "statename": "Punjab", "statecode": "3", "districtname": null, "districtcode": "53", "ulbname": "Khanauri", "ulbcode": "800280", "wardname": "", "wardcode": "8", "id": null, "status": "APPROVED", "misglobalid": null, "approved_by": "ULB Nodal Officer", "createdate": 1637077385000, "updateddate": 1639573235000, "globalid": "sB4dnl4d-dR5K-Pnso-sPPd-BcKndB5cBaRB", "gisglobalid": "60673a3d-435f-4ed7-aa4b-0ab868e86d7a", "remark": "Its Right", "st_area(shape)": 2.1636483158019423e-05, "st_perimeter(shape)": 0.023704579498475924}}, {"type": "Feature", "geometry": {"type": "Polygon", "coordinates": [[[76.1081, 29.8332], [76.1079, 29.8322], [76.1079, 29.8321], [76.1083, 29.8321], [76.1088, 29.8321], [76.1091, 29.8321], [76.1091, 29.8318], [76.1091, 29.8315], [76.1091, 29.8312], [76.1091, 29.831], [76.1091, 29.8309], [76.1088, 29.8309], [76.1087, 29.8311], [76.1086, 29.8311], [76.1083, 29.8311], [76.1081, 29.8311], [76.1078, 29.8311], [76.1077, 29.8311], [76.1076, 29.8312], [76.1075, 29.8313], [76.1074, 29.8313], [76.1072, 29.8314], [76.1071, 29.8314], [76.107, 29.8314], [76.1068, 29.8313], [76.1066, 29.8315], [76.1064, 29.8317], [76.1063, 29.8319], [76.1063, 29.8322], [76.1064, 29.8326], [76.1064, 29.8333], [76.1065, 29.8339], [76.1064, 29.8346], [76.1064, 29.8355], [76.1064, 29.8356], [76.1069, 29.8356], [76.1075, 29.8356], [76.1079, 29.8355], [76.1082, 29.8355], [76.1083, 29.8354], [76.1086, 29.8353], [76.1085, 29.835], [76.1084, 29.8347], [76.1082, 29.834], [76.1081, 29.8337], [76.108, 29.8333], [76.1081, 29.8332]]]}, "properties": {"objectid": 36850, "statename": "Punjab", "statecode": "3", "districtname": null, "districtcode": "53", "ulbname": "Khanauri", "ulbcode": "800280", "wardname": "", "wardcode": "9", "id": null, "status": "APPROVED", "misglobalid": null, "approved_by": "ULB Nodal Officer", "createdate": 1637077397000, "updateddate": 1639573206000, "globalid": "5cQamRc6-KBmP-Pacd-aa55-KBRKK6ds6PRQ", "gisglobalid": "592f44ed-f7e1-441b-8367-11bea09a01ed", "remark": "Its Right", "st_area(shape)": 8.593937012931808e-06, "st_perimeter(shape)": 0.015039399697336094}}, {"type": "Feature", "geometry": {"type": "Polygon", "coordinates": [[[76.1091, 29.8385], [76.1095, 29.8387], [76.1093, 29.8383], [76.1093, 29.8381], [76.1092, 29.8379], [76.1092, 29.8376], [76.1091, 29.8375], [76.109, 29.8371], [76.109, 29.8368], [76.1089, 29.8365], [76.1088, 29.8362], [76.1087, 29.836], [76.1087, 29.8356], [76.1086, 29.8354], [76.1083, 29.8354], [76.1082, 29.8355], [76.1079, 29.8356], [76.1076, 29.8356], [76.1072, 29.8357], [76.107, 29.8357], [76.1068, 29.8357], [76.1067, 29.8357], [76.1066, 29.8356], [76.1065, 29.8356], [76.1064, 29.8356], [76.1063, 29.8358], [76.1063, 29.8362], [76.1063, 29.8365], [76.1063, 29.8367], [76.1063, 29.837], [76.1066, 29.837], [76.1068, 29.837], [76.107, 29.837], [76.1071, 29.8371], [76.1071, 29.8373], [76.1071, 29.8376], [76.1071, 29.8379], [76.1072, 29.8384], [76.1079, 29.8383], [76.108, 29.8384], [76.1082, 29.8384], [76.1084, 29.8384], [76.1087, 29.8384], [76.1089, 29.8385], [76.1091, 29.8385]]]}, "properties": {"objectid": 36851, "statename": "Punjab", "statecode": "3", "districtname": null, "districtcode": "53", "ulbname": "Khanauri", "ulbcode": "800280", "wardname": "", "wardcode": "10", "id": null, "status": "APPROVED", "misglobalid": null, "approved_by": "ULB Nodal Officer", "createdate": 1637077407000, "updateddate": 1639573319000, "globalid": "PPnRsQRn-64BQ-PP55-QBla-nBoQPdQdlcad", "gisglobalid": "5a3b312a-bc72-4f4c-9ae7-1f1086c13fe5", "remark": "Its Right", "st_area(shape)": 6.420290832892978e-06, "st_perimeter(shape)": 0.011571046044795278}}, {"type": "Feature", "geometry": {"type": "Polygon", "coordinates": [[[76.1093, 29.8382], [76.1095, 29.8386], [76.1098, 29.838], [76.1101, 29.8374], [76.1103, 29.8368], [76.1106, 29.8362], [76.1107, 29.8358], [76.1109, 29.8353], [76.1111, 29.8349], [76.1103, 29.8349], [76.1096, 29.8349], [76.1093, 29.8349], [76.1089, 29.8349], [76.1086, 29.835], [76.1087, 29.8356], [76.1088, 29.836], [76.1089, 29.8364], [76.109, 29.8368], [76.1093, 29.8382]]]}, "properties": {"objectid": 36852, "statename": "Punjab", "statecode": "3", "districtname": null, "districtcode": "53", "ulbname": "Khanauri", "ulbcode": "800280", "wardname": "", "wardcode": "11", "id": null, "status": "APPROVED", "misglobalid": null, "approved_by": "ULB Nodal Officer", "createdate": 1637077414000, "updateddate": 1639573261000, "globalid": "BaKdBaPm-QdnQ-PPnB-Qm5c-ocaBB54nnPsm", "gisglobalid": "3a335b75-aa6b-4076-ad30-e7a768ad448a", "remark": "Its Right", "st_area(shape)": 4.880809116380959e-06, "st_perimeter(shape)": 0.010291599339622879}}, {"type": "Feature", "geometry": {"type": "Polygon", "coordinates": [[[76.1073, 29.8449], [76.1074, 29.8446], [76.1074, 29.8442], [76.1075, 29.8436], [76.1077, 29.8432], [76.1081, 29.8423], [76.1085, 29.8414], [76.1087, 29.841], [76.1088, 29.8405], [76.1091, 29.8399], [76.1093, 29.8393], [76.1094, 29.839], [76.1095, 29.8388], [76.1094, 29.8387], [76.109, 29.8386], [76.1089, 29.8385], [76.1086, 29.8385], [76.1083, 29.8384], [76.1081, 29.8384], [76.108, 29.8384], [76.1079, 29.8384], [76.1078, 29.8384], [76.1073, 29.8385], [76.1071, 29.8385], [76.1071, 29.8378], [76.107, 29.8371], [76.1069, 29.837], [76.1066, 29.837], [76.1063, 29.837], [76.1063, 29.8371], [76.1063, 29.8373], [76.1063, 29.8379], [76.1062, 29.8388], [76.1062, 29.8394], [76.1061, 29.8401], [76.1061, 29.8408], [76.106, 29.8416], [76.106, 29.8427], [76.106, 29.8432], [76.1059, 29.8435], [76.1059, 29.8441], [76.1059, 29.8448], [76.1062, 29.8448], [76.1065, 29.8449], [76.1068, 29.8449], [76.107, 29.8449], [76.1073, 29.8449]]]}, "properties": {"objectid": 36541, "statename": "Punjab", "statecode": "3", "districtname": null, "districtcode": "53", "ulbname": "Khanauri", "ulbcode": "800280", "wardname": "", "wardcode": "12", "id": null, "status": "APPROVED", "misglobalid": null, "approved_by": "ULB Nodal Officer", "createdate": 1637077423000, "updateddate": 1639573246000, "globalid": "d6dcoPRm-Pmmc-PmPd-Q5a4-Ks5PP4Q566QP", "gisglobalid": "55059743-2c24-4539-9f9f-92b56d2fda88", "remark": "Its Right", "st_area(shape)": 1.5914840102542047e-05, "st_perimeter(shape)": 0.02033347063666432}}, {"type": "Feature", "geometry": {"type": "Polygon", "coordinates": [[[76.1126, 29.8444], [76.1132, 29.8441], [76.1132, 29.8438], [76.1132, 29.8435], [76.1132, 29.8433], [76.1133, 29.8432], [76.1134, 29.8431], [76.1134, 29.8429], [76.1134, 29.8428], [76.1134, 29.8427], [76.1134, 29.8425], [76.1135, 29.8424], [76.1134, 29.8423], [76.1133, 29.8422], [76.1132, 29.8421], [76.1132, 29.842], [76.1131, 29.8419], [76.1132, 29.8418], [76.1133, 29.8416], [76.1133, 29.8415], [76.1133, 29.8413], [76.1131, 29.8412], [76.113, 29.841], [76.1128, 29.8408], [76.1126, 29.8406], [76.1124, 29.8403], [76.1122, 29.8401], [76.1121, 29.84], [76.1116, 29.8394], [76.1114, 29.8391], [76.1111, 29.8387], [76.1108, 29.8384], [76.1106, 29.8382], [76.1105, 29.838], [76.1104, 29.8378], [76.1103, 29.8377], [76.11, 29.8385], [76.1097, 29.8392], [76.1095, 29.8396], [76.1093, 29.8402], [76.1091, 29.8407], [76.1089, 29.8411], [76.1087, 29.8418], [76.1085, 29.8421], [76.1083, 29.8427], [76.108, 29.8432], [76.1078, 29.8438], [76.1077, 29.8441], [76.1075, 29.8445], [76.1074, 29.8451], [76.1087, 29.8451], [76.1097, 29.8451], [76.1107, 29.8452], [76.1111, 29.8451], [76.1114, 29.845], [76.1126, 29.8444]]]}, "properties": {"objectid": 37842, "statename": "Punjab", "statecode": "3", "districtname": null, "districtcode": "53", "ulbname": "Khanauri", "ulbcode": "800280", "wardname": "", "wardcode": "13", "id": null, "status": "APPROVED", "misglobalid": null, "approved_by": "ULB Nodal Officer", "createdate": 1637077432000, "updateddate": 1639573329000, "globalid": "5Qd4RBsK-QlaK-PBRB-aR65-m5amoQdmn6QR", "gisglobalid": "daf7dc8a-2d46-43da-aded-643b9a3ea12e", "remark": "Its Right", "st_area(shape)": 2.667146767165922e-05, "st_perimeter(shape)": 0.021651935538888445}}]}
