{"type":"Topology","arcs":[[[55817,81594],[-3035,-4908]],[[52782,76686],[-2361,-2045]],[[50421,74641],[-3878,409]],[[46543,75050],[-4554,1227]],[[41989,76277],[1012,1023]],[[43001,77300],[1518,2249]],[[44519,79549],[-675,818]],[[43844,80367],[-674,1432]],[[43170,81799],[5733,10838]],[[48903,92637],[6914,-11043]],[[68633,75868],[-10623,-8793]],[[58010,67075],[-19056,8998]],[[38954,76073],[3035,204]],[[46543,75050],[3878,-409]],[[50421,74641],[2361,2045]],[[52782,76686],[3035,4908]],[[55817,81594],[12816,-5726]],[[46037,64212],[-3542,-3272]],[[42495,60940],[-4047,3068]],[[38448,64008],[-1180,-409]],[[37268,63599],[168,11656]],[[37436,75255],[675,818]],[[38111,76073],[843,0]],[[38954,76073],[7083,-11861]],[[58010,67075],[-7926,-9816]],[[50084,57259],[-3879,3272]],[[46205,60531],[-3710,409]],[[42495,60940],[3542,3272]],[[46037,64212],[11973,2863]],[[40135,58282],[6070,2249]],[[50084,57259],[-4722,-4499]],[[45362,52760],[-5227,5522]],[[45362,52760],[-11130,-1636]],[[34232,51124],[-168,1432]],[[34064,52556],[6071,5726]],[[37774,38036],[-506,614]],[[37268,38650],[-843,3681]],[[36425,42331],[1686,2658]],[[38111,44989],[-337,1023]],[[37774,46012],[1349,1431]],[[39123,47443],[4216,-7975]],[[43339,39468],[-5565,-1432]],[[47892,50511],[-2867,-4295]],[[45025,46216],[5059,11043]],[[50084,57259],[843,-1636]],[[50927,55623],[5228,-8793]],[[56155,46830],[-8263,3681]],[[45025,46216],[2867,4295]],[[47892,50511],[-2867,-4295]],[[68633,75868],[12311,-30470],[-24789,1432]],[[56155,46830],[-5228,8793]],[[50927,55623],[17706,20245]],[[74367,27403],[1349,3067]],[[75716,30470],[-13153,11452]],[[62563,41922],[37436,6339],[-19224,-28220],[-6408,7362]],[[74367,27403],[-9949,-20246],[-13828,27198]],[[50590,34355],[11973,7567]],[[62563,41922],[13153,-11452]],[[50590,34355],[-8769,0]],[[41821,34355],[1518,5113]],[[43339,39468],[7251,-5113]],[[31366,22904],[10455,11451]],[[41821,34355],[8600,-204],[10961,-23722],[-21922,-10429],[-17032,1227],[8938,21677]],[[37774,46012],[337,-1023]],[[38111,44989],[-1686,-2658]],[[36425,42331],[843,-3681]],[[37774,38036],[-6408,-15132]],[[31366,22904],[4047,22290]],[[35413,45194],[3710,2249]],[[25801,46830],[9612,-1636]],[[35413,45194],[-9612,1636]],[[20742,42331],[0,818]],[[20742,43149],[0,-818]],[[20742,42331],[0,818]],[[15346,26789],[-10624,10225],[-4722,23108],[21079,-2045],[-5733,-31288]],[[31366,58077],[4215,-4090]],[[35581,53987],[-1517,-1431]],[[34232,51124],[-8431,-4294]],[[25801,46830],[3710,12065]],[[29511,58895],[1855,-818]],[[37268,63599],[1180,409]],[[42495,60940],[-6914,-6953]],[[35581,53987],[1855,21268]],[[29511,58895],[1855,-818]],[[10961,63394],[10793,-818]],[[21754,62576],[-10793,818]],[[10961,63394],[-3373,20450],[27656,8589],[-13490,-29857]],[[43844,80367],[675,-818]],[[43001,77300],[-4890,-1227]],[[38111,76073],[5059,5726]],[[68802,76073],[-19899,16564]],[[48903,92637],[19899,7362],[9949,-13292],[-9949,-10634]]],"transform":{"scale":[5.93005930059233e-7,4.890048900488977e-7],"translate":[75.8151,30.22]},"objects":{"wards":{"type":"GeometryCollection","geometries":[{"arcs":[[0,1,2,3,4,5,6,7,8,9]],"type":"Polygon","properties":{"objectid":126139,"statename":"Punjab","statecode":"3","districtname":"","districtcode":"53","ulbname":"Sangrur","ulbcode":"800273","wardname":"Kartarpura","wardcode":"1","id":null,"status":"APPROVED","misglobalid":null,"approved_by":null,"createdate":1644382729000,"updateddate":1644382813000,"globalid":null,"gisglobalid":"dmBQPnPR-Kd6d-PBRm-smPc-Pm6clmds4a65","remark":"Ok","st_area(shape)":0.0000531781617556087,"st_perimeter(shape)":0.036645291427386095}},{"arcs":[[10,11,12,-4,13,14,15,16]],"type":"Polygon","properties":{"objectid":145404,"statename":"Punjab","statecode":"3","districtname":"","districtcode":"53","ulbname":"Sangrur","ulbcode":"800273","wardname":"Khalifa Bagh","wardcode":"2","id":null,"status":"APPROVED","misglobalid":null,"approved_by":null,"createdate":1644317068000,"updateddate":1644317107000,"globalid":null,"gisglobalid":"QKnonRns-4KlR-P6la-aons-mdQa4caBBasc","remark":"Approved","st_area(shape)":0.00005872848522961654,"st_perimeter(shape)":0.043406385852149204}},{"arcs":[[17,18,19,20,21,22,23]],"type":"Polygon","properties":{"objectid":148187,"statename":"Punjab","statecode":"3","districtname":"","districtcode":"53","ulbname":"Sangrur","ulbcode":"800273","wardname":"Punia Colony","wardcode":"3","id":null,"status":"APPROVED","misglobalid":null,"approved_by":null,"createdate":1644317218000,"updateddate":1644317266000,"globalid":null,"gisglobalid":"nBnalalR-4Q5Q-P4dn-QnKs-4cBRdQdKo6dK","remark":"Approved","st_area(shape)":0.000030766301430066776,"st_perimeter(shape)":0.023903430605938913}},{"arcs":[[24,25,26,27,28]],"type":"Polygon","properties":{"objectid":147791,"statename":"Punjab","statecode":"3","districtname":"","districtcode":"53","ulbname":"Sangrur","ulbcode":"800273","wardname":"Haripura","wardcode":"4","id":null,"status":"APPROVED","misglobalid":null,"approved_by":null,"createdate":1644317795000,"updateddate":1644317825000,"globalid":null,"gisglobalid":"P5s45dsl-nPm6-PBdc-somP-sdaQKcKssmsa","remark":"Approved","st_area(shape)":0.00002510737241171504,"st_perimeter(shape)":0.027074989403653174}},{"arcs":[[29,-26,30,31]],"type":"Polygon","properties":{"objectid":145408,"statename":"Punjab","statecode":"3","districtname":"","districtcode":"53","ulbname":"Sangrur","ulbcode":"800273","wardname":"Farid Nagar","wardcode":"5","id":null,"status":"APPROVED","misglobalid":null,"approved_by":null,"createdate":1644318068000,"updateddate":1644318090000,"globalid":null,"gisglobalid":"sd6Ronmn-K5P4-PoRo-sdBP-sQmmmP4n46lm","remark":"Approved","st_area(shape)":0.000010497108771294802,"st_perimeter(shape)":0.014284405148802564}},{"arcs":[[-32,32,33,34]],"type":"Polygon","properties":{"objectid":138673,"statename":"Punjab","statecode":"3","districtname":"","districtcode":"53","ulbname":"Sangrur","ulbcode":"800273","wardname":"Karishan Bagh","wardcode":"6","id":null,"status":"APPROVED","misglobalid":null,"approved_by":null,"createdate":1644318188000,"updateddate":1644318216000,"globalid":null,"gisglobalid":"PoacBlPK-o6nl-PQPP-R4dQ-dP6cdlBdK6n4","remark":"Approved","st_area(shape)":0.00001909604794874421,"st_perimeter(shape)":0.01802073671577887}},{"arcs":[[35,36,37,38,39,40,41]],"type":"Polygon","properties":{"objectid":146654,"statename":"Punjab","statecode":"3","districtname":"","districtcode":"53","ulbname":"Sangrur","ulbcode":"800273","wardname":"Raj Garh Basti","wardcode":"7","id":null,"status":"APPROVED","misglobalid":null,"approved_by":null,"createdate":1644321116000,"updateddate":1644321235000,"globalid":null,"gisglobalid":"64RomBaP-6K5B-PBmc-RlR4-n55d6oc5nPac","remark":"Ok","st_area(shape)":0.000016211147568406284,"st_perimeter(shape)":0.01979497470845181}},{"arcs":[[42,43,44,45,46]],"type":"Polygon","properties":{"objectid":146661,"statename":"Punjab","statecode":"3","districtname":"","districtcode":"53","ulbname":"Sangrur","ulbcode":"800273","wardname":"Jiwan Nagar","wardcode":"8","id":null,"status":"APPROVED","misglobalid":null,"approved_by":null,"createdate":1644324508000,"updateddate":1644324718000,"globalid":null,"gisglobalid":"nBcnQ54R-so4d-Po6B-s55m-aslcBRdQQP6o","remark":"Ok","st_area(shape)":0.000020015379571002668,"st_perimeter(shape)":0.03241851432500273}},{"type":null,"properties":{"objectid":145443,"statename":"Punjab","statecode":"3","districtname":"","districtcode":"53","ulbname":"Sangrur","ulbcode":"800273","wardname":"Sant Nagar","wardcode":"9","id":null,"status":"APPROVED","misglobalid":null,"approved_by":null,"createdate":1644381412000,"updateddate":1644381426000,"globalid":null,"gisglobalid":"6mdK6d46-cQ66-PodR-sRol-KaoBm4o46PaB","remark":"Ok","st_area(shape)":0.00002039981797296301,"st_perimeter(shape)":0.027397684115448892}},{"arcs":[[47,48]],"type":"Polygon","properties":{"objectid":146664,"statename":"Punjab","statecode":"3","districtname":"","districtcode":"53","ulbname":"Sangrur","ulbcode":"800273","wardname":"Maan Colony","wardcode":"10","id":null,"status":"APPROVED","misglobalid":null,"approved_by":null,"createdate":1644325282000,"updateddate":1644325722000,"globalid":null,"gisglobalid":"PPKoo5na-a4ac-PoRa-QK6n-KmKKmmQKndPR","remark":"Ok","st_area(shape)":0.000013066533093246746,"st_perimeter(shape)":0.014954625136932203}},{"arcs":[[49,50,51]],"type":"Polygon","properties":{"objectid":146665,"statename":"Punjab","statecode":"3","districtname":"","districtcode":"53","ulbname":"Sangrur","ulbcode":"800273","wardname":"J.P. Colony","wardcode":"11","id":null,"status":"APPROVED","misglobalid":null,"approved_by":null,"createdate":1644325736000,"updateddate":1644380645000,"globalid":null,"gisglobalid":"dc6o4dlK-4Qms-Po56-Roc6-6P4maasBPnn5","remark":"Ok","st_area(shape)":0.00019001352288353925,"st_perimeter(shape)":0.057039480926621824}},{"arcs":[[52,53,54]],"type":"Polygon","properties":{"objectid":148204,"statename":"Punjab","statecode":"3","districtname":"","districtcode":"53","ulbname":"Sangrur","ulbcode":"800273","wardname":"Ambedkar Nagar","wardcode":"12","id":null,"status":"APPROVED","misglobalid":null,"approved_by":null,"createdate":1644380653000,"updateddate":1644380697000,"globalid":null,"gisglobalid":"Pm4lKano-5P4P-PdKn-RnKK-5clPBP66om4s","remark":"Ok","st_area(shape)":0.0001427694683921617,"st_perimeter(shape)":0.05826550661862727}},{"arcs":[[55,56,57,-53]],"type":"Polygon","properties":{"objectid":147043,"statename":"Punjab","statecode":"3","districtname":"","districtcode":"53","ulbname":"Sangrur","ulbcode":"800273","wardname":"Nurpura","wardcode":"13","id":null,"status":"APPROVED","misglobalid":null,"approved_by":null,"createdate":1644380704000,"updateddate":1644380938000,"globalid":null,"gisglobalid":"mBms5acK-m5nK-PBBl-QaQ6-nQc5a6Q4QcBc","remark":"Ok","st_area(shape)":0.00016842514982194298,"st_perimeter(shape)":0.056154516053180205}},{"arcs":[[58,59,60]],"type":"Polygon","properties":{"objectid":147044,"statename":"Punjab","statecode":"3","districtname":"","districtcode":"53","ulbname":"Sangrur","ulbcode":"800273","wardname":"Moti Ram Street","wardcode":"14","id":null,"status":"APPROVED","misglobalid":null,"approved_by":null,"createdate":1644381095000,"updateddate":1644381106000,"globalid":null,"gisglobalid":"PoRRcKal-Rd6m-P5Bs-sloQ-lRlPmQcnslPm","remark":"Ok","st_area(shape)":0.000018440681285163067,"st_perimeter(shape)":0.01929910016129029}},{"arcs":[[61,62]],"type":"Polygon","properties":{"objectid":148205,"statename":"Punjab","statecode":"3","districtname":"","districtcode":"53","ulbname":"Sangrur","ulbcode":"800273","wardname":"Magzine Mohalla","wardcode":"15","id":null,"status":"APPROVED","misglobalid":null,"approved_by":null,"createdate":1644381173000,"updateddate":1644381188000,"globalid":null,"gisglobalid":"lQKP4oRa-4PPs-PnaK-QlBn-olscQ5dlsBm4","remark":"Ok","st_area(shape)":0.000264987534591671,"st_perimeter(shape)":0.0717159443941957}},{"arcs":[[-40,63,64,65,-36,66,67,68]],"type":"Polygon","properties":{"objectid":148206,"statename":"Punjab","statecode":"3","districtname":"","districtcode":"53","ulbname":"Sangrur","ulbcode":"800273","wardname":"Adarsh Mohalla","wardcode":"16","id":null,"status":"APPROVED","misglobalid":null,"approved_by":null,"createdate":1644381197000,"updateddate":1644381213000,"globalid":null,"gisglobalid":"mQmRQnd6-Kmn4-Pa56-QKla-BscaKP66B4nB","remark":"Ok","st_area(shape)":0.000056743935639802284,"st_perimeter(shape)":0.04533918605281089}},{"arcs":[[69,70]],"type":"Polygon","properties":{"objectid":147811,"statename":"Punjab","statecode":"3","districtname":"","districtcode":"53","ulbname":"Sangrur","ulbcode":"800273","wardname":"Thelash Bagh","wardcode":"17","id":null,"status":"APPROVED","misglobalid":null,"approved_by":null,"createdate":1644381496000,"updateddate":1644381518000,"globalid":null,"gisglobalid":"dRRomsas-QQ5n-Pnod-ssBo-5454sKd6Q65d","remark":"Ok","st_area(shape)":0.000030449044816980997,"st_perimeter(shape)":0.0310260187939018}},{"arcs":[[71,72]],"type":"Polygon","properties":{"objectid":147812,"statename":"Punjab","statecode":"3","districtname":"","districtcode":"53","ulbname":"Sangrur","ulbcode":"800273","wardname":"Guru Nanak Colony","wardcode":"18","id":null,"status":"APPROVED","misglobalid":null,"approved_by":null,"createdate":1644381657000,"updateddate":1644381702000,"globalid":null,"gisglobalid":"ncRBlomR-d4ao-PKKQ-sdRm-lQ455mQ6ac4a","remark":"Ok","st_area(shape)":0.00006912347965211637,"st_perimeter(shape)":0.03881825916611232}},{"arcs":[[-72,73]],"type":"Polygon","properties":{"objectid":147045,"statename":"Punjab","statecode":"3","districtname":"","districtcode":"53","ulbname":"Sangrur","ulbcode":"800273","wardname":"Prem Basti","wardcode":"19","id":null,"status":"APPROVED","misglobalid":null,"approved_by":null,"createdate":1644381672000,"updateddate":1644381712000,"globalid":null,"gisglobalid":"Kc4Kc565-lKmm-PPdB-sK4d-c66Pnado4Pn5","remark":"Ok","st_area(shape)":0.000023338092687954225,"st_perimeter(shape)":0.022092676654879104}},{"arcs":[[74]],"type":"Polygon","properties":{"objectid":147046,"statename":"Punjab","statecode":"3","districtname":"","districtcode":"53","ulbname":"Sangrur","ulbcode":"800273","wardname":"Shekhpura","wardcode":"20","id":null,"status":"APPROVED","misglobalid":null,"approved_by":null,"createdate":1644381834000,"updateddate":1644381862000,"globalid":null,"gisglobalid":"oB5dBo6d-nBcm-Plmo-sBc5-ac4onBaRonQm","remark":"Ok","st_area(shape)":0.00016666327157807993,"st_perimeter(shape)":0.062418200714536014}},{"arcs":[[75,76,-34,77,78,79]],"type":"Polygon","properties":{"objectid":146290,"statename":"Punjab","statecode":"3","districtname":"","districtcode":"53","ulbname":"Sangrur","ulbcode":"800273","wardname":"Hargobindpura","wardcode":"21","id":null,"status":"APPROVED","misglobalid":null,"approved_by":null,"createdate":1644381842000,"updateddate":1644381871000,"globalid":null,"gisglobalid":"Q4ndmdld-cnlQ-PQlK-Rlad-s5KPoPPP5QB5","remark":"Ok","st_area(shape)":0.00002058356223538488,"st_perimeter(shape)":0.022062125808115958}},{"arcs":[[-21,80,-19,81,82]],"type":"Polygon","properties":{"objectid":147813,"statename":"Punjab","statecode":"3","districtname":"","districtcode":"53","ulbname":"Sangrur","ulbcode":"800273","wardname":"Sunder Basti","wardcode":"22","id":null,"status":"APPROVED","misglobalid":null,"approved_by":null,"createdate":1644382369000,"updateddate":1644382401000,"globalid":null,"gisglobalid":"Rd6Romoo-nBcP-Po6Q-RBnd-BBK4RKQa4B6o","remark":"Ok","st_area(shape)":0.00003408484225275651,"st_perimeter(shape)":0.029930945287396406}},{"type":null,"properties":{"objectid":147047,"statename":"Punjab","statecode":"3","districtname":"","districtcode":"53","ulbname":"Sangrur","ulbcode":"800273","wardname":"Ganga Ram Basti","wardcode":"23","id":null,"status":"APPROVED","misglobalid":null,"approved_by":null,"createdate":1644382376000,"updateddate":1644382409000,"globalid":null,"gisglobalid":"aK4odmBs-RPQc-Pnad-sKsR-dKm6lPBdRKPs","remark":"Ok","st_area(shape)":0.00001790957702239063,"st_perimeter(shape)":0.02862779613804971}},{"arcs":[[-80,83]],"type":"Polygon","properties":{"objectid":147814,"statename":"Punjab","statecode":"3","districtname":"","districtcode":"53","ulbname":"Sangrur","ulbcode":"800273","wardname":"Ram Nagar","wardcode":"24","id":null,"status":"APPROVED","misglobalid":null,"approved_by":null,"createdate":1644382386000,"updateddate":1644382418000,"globalid":null,"gisglobalid":"dQmB4dPK-ccBc-P465-QKPn-nR45mlK6QKQd","remark":"Ok","st_area(shape)":0.000011517590298140462,"st_perimeter(shape)":0.0152658859409896}},{"arcs":[[84,85]],"type":"Polygon","properties":{"objectid":148207,"statename":"Punjab","statecode":"3","districtname":"","districtcode":"53","ulbname":"Sangrur","ulbcode":"800273","wardname":"Baguana","wardcode":"25","id":null,"status":"APPROVED","misglobalid":null,"approved_by":null,"createdate":1644382426000,"updateddate":1644382618000,"globalid":null,"gisglobalid":"mlaP6lad-BaPs-PdmQ-aalm-olndQncl4c6Q","remark":"Ok","st_area(shape)":0.00001621976006259649,"st_perimeter(shape)":0.02707427868555229}},{"arcs":[[-85,86]],"type":"Polygon","properties":{"objectid":147048,"statename":"Punjab","statecode":"3","districtname":"","districtcode":"53","ulbname":"Sangrur","ulbcode":"800273","wardname":"Ghumar Basti","wardcode":"26","id":null,"status":"APPROVED","misglobalid":null,"approved_by":null,"createdate":1644382437000,"updateddate":1644382627000,"globalid":null,"gisglobalid":"PKo65loP-6dma-PRRn-Q55s-asodnsn6n6KB","remark":"Ok","st_area(shape)":0.0001842465646486815,"st_perimeter(shape)":0.05564910263790173}},{"arcs":[[-8,87,-6,88,89]],"type":"Polygon","properties":{"objectid":147815,"statename":"Punjab","statecode":"3","districtname":"","districtcode":"53","ulbname":"Sangrur","ulbcode":"800273","wardname":"Guruteg Bahadur Nagar","wardcode":"27","id":null,"status":"APPROVED","misglobalid":null,"approved_by":null,"createdate":1644382445000,"updateddate":1644382637000,"globalid":null,"gisglobalid":"B5nd5QaK-clQP-Plsa-s6QK-csona6QPmK64","remark":"Ok","st_area(shape)":0.000056791503850116975,"st_perimeter(shape)":0.03142852096813538}},{"arcs":[[90,91]],"type":"Polygon","properties":{"objectid":148209,"statename":"Punjab","statecode":"3","districtname":"","districtcode":"53","ulbname":"Sangrur","ulbcode":"800273","wardname":"28 Sangrur","wardcode":"28","id":null,"status":"APPROVED","misglobalid":null,"approved_by":null,"createdate":1644382944000,"updateddate":1644382961000,"globalid":null,"gisglobalid":"Ks4lddd6-os4m-PBBK-Qa6B-QR6dlQa5Kc4a","remark":"Ok","st_area(shape)":0.00013805162562813899,"st_perimeter(shape)":0.05500194025059641}},{"type":null,"properties":{"objectid":148208,"statename":"Punjab","statecode":"3","districtname":"","districtcode":"53","ulbname":"Sangrur","ulbcode":"800273","wardname":"29 Sangrur","wardcode":"29","id":null,"status":"APPROVED","misglobalid":null,"approved_by":null,"createdate":1644382824000,"updateddate":1644382844000,"globalid":null,"gisglobalid":"sd6nPQ5K-lcBl-PslB-Qllo-lBoPKmnKQonR","remark":"Ok","st_area(shape)":0.00010339410898699776,"st_perimeter(shape)":0.04466577752822355}}]}}}