{"type":"Topology","arcs":[[[31563,43111],[-2360,111]],[[29203,43222],[1180,6777]],[[30383,49999],[2508,-999]],[[32891,49000],[-1328,-5889]],[[32891,49000],[2212,-778]],[[35103,48222],[1327,-889]],[[36430,47333],[-4867,-4222]],[[30383,49999],[-2655,6334]],[[27728,56333],[5310,333]],[[33038,56666],[3540,-7000]],[[36578,49666],[-1475,-1444]],[[49262,56555],[-12684,-6889]],[[33038,56666],[8260,-444],[-4130,13333],[147,27222],[16814,3222],[1475,-7444],[-4720,-3334],[-3539,-26777],[1917,-5889]],[[41150,46444],[-4720,889]],[[49262,56555],[1032,-3222]],[[50294,53333],[-9144,-6889]],[[41150,46444],[1475,-2778]],[[42625,43666],[-5310,-778]],[[37315,42888],[-5752,223]],[[58259,47333],[-13127,-6111]],[[45132,41222],[-2507,2444]],[[50294,53333],[7965,-6000]],[[65929,23444],[-9882,8445],[-13127,7111]],[[42920,39000],[2212,2222]],[[58259,47333],[7670,1333],[16371,-9333],[8702,5889],[8997,-3667],[-11652,-6111],[-11652,-2667],[-10766,-9333]],[[42920,39000],[-1327,222]],[[41593,39222],[-2803,333]],[[38790,39555],[-1475,333]],[[37315,39888],[0,3000]],[[37315,39888],[-3540,1223]],[[33775,41111],[-2212,2000]],[[33775,41111],[-3392,-778]],[[30383,40333],[0,-445]],[[30383,39888],[-5310,1445]],[[25073,41333],[2065,2111]],[[27138,43444],[2065,-222]],[[38790,39555],[-1327,-5000]],[[37463,34555],[-7080,5778]],[[37463,34555],[-5162,556]],[[32301,35111],[-2065,1555]],[[30236,36666],[147,3222]],[[30236,36666],[-2360,1556]],[[27876,38222],[-5605,-667]],[[22271,37555],[2802,3778]],[[27876,38222],[-1623,-4556]],[[26253,33666],[-5604,2445]],[[20649,36111],[1622,1444]],[[32301,35111],[2064,-4445]],[[34365,30666],[-1032,111]],[[33333,30777],[-7080,2889]],[[41593,39222],[-3540,-10000]],[[38053,29222],[-3688,1444]],[[65929,23444],[-17552,-10111]],[[48377,13333],[-5162,5111],[-295,6556],[-4867,4222]],[[48377,13333],[-13569,-12111]],[[34808,1222],[590,8222],[-2065,21333]],[[34808,1222],[-14159,-1222],[-13274,13444]],[[7375,13444],[2212,14667],[11062,8000]],[[7375,13444],[-7375,2223],[147,12222]],[[147,27889],[20502,8222]],[[147,27889],[2213,10666],[7669,5333]],[[10029,43888],[15044,-2555]],[[10029,43888],[2803,3112]],[[12832,47000],[14306,-3556]],[[12832,47000],[8997,10222],[5899,-889]]],"transform":{"scale":[6.780067800677127e-7,9.000090000899994e-7],"translate":[79.8722,17.8917]},"objects":{"wards":{"type":"GeometryCollection","geometries":[{"arcs":[[0,1,2,3]],"type":"Polygon","properties":{"objectid":51780,"statename":"Telangana","statecode":"36","districtname":"Warangal Rural","districtcode":"691","ulbname":"Narsampet","ulbcode":"900022","wardname":"Ward Code 1","wardcode":"1","id":null,"status":"APPROVED","misglobalid":null,"approved_by":null,"createdate":1641292968000,"updateddate":1641293255000,"globalid":null,"gisglobalid":"KR66acca-somK-P4om-Q6lR-KRcRooQPcmaP","remark":"","st_area(shape)":0.000008556501593636849,"st_perimeter(shape)":0.02064560997736261}},{"arcs":[[-4,4,5,6]],"type":"Polygon","properties":{"objectid":68286,"statename":"Telangana","statecode":"36","districtname":"Warangal Rural","districtcode":"691","ulbname":"Narsampet","ulbcode":"900022","wardname":"Ward Code 2","wardcode":"2","id":null,"status":"APPROVED","misglobalid":null,"approved_by":null,"createdate":1641292968000,"updateddate":1641293269000,"globalid":null,"gisglobalid":"RBdocmBR-lclQ-PB6K-a6Pa-cod6mPslcPcK","remark":"","st_area(shape)":0.000007868588706546361,"st_perimeter(shape)":0.018776087420986763}},{"arcs":[[-3,7,8,9,10,-5]],"type":"Polygon","properties":{"objectid":67043,"statename":"Telangana","statecode":"36","districtname":"Warangal Rural","districtcode":"691","ulbname":"Narsampet","ulbcode":"900022","wardname":"Ward Code 3","wardcode":"3","id":null,"status":"APPROVED","misglobalid":null,"approved_by":null,"createdate":1641292968000,"updateddate":1641293275000,"globalid":null,"gisglobalid":"ss5lns4Q-amdR-Psa6-RB4a-5aldl5adB5d4","remark":"","st_area(shape)":0.000029954425109266495,"st_perimeter(shape)":0.025485059086135672}},{"arcs":[[11,-10,12]],"type":"Polygon","properties":{"objectid":68003,"statename":"Telangana","statecode":"36","districtname":"Warangal Rural","districtcode":"691","ulbname":"Narsampet","ulbcode":"900022","wardname":"Ward Code 4","wardcode":"4","id":null,"status":"APPROVED","misglobalid":null,"approved_by":null,"createdate":1641292968000,"updateddate":1641293284000,"globalid":null,"gisglobalid":"oPasKcsa-c5RK-Psla-Rlcn-a4RPPm5QQn6d","remark":"","st_area(shape)":0.0003851436326980003,"st_perimeter(shape)":0.12948952481118467}},{"arcs":[[13,-6,-11,-12,14,15]],"type":"Polygon","properties":{"objectid":68002,"statename":"Telangana","statecode":"36","districtname":"Warangal Rural","districtcode":"691","ulbname":"Narsampet","ulbcode":"900022","wardname":"Ward Code 5","wardcode":"5","id":null,"status":"APPROVED","misglobalid":null,"approved_by":null,"createdate":1641292968000,"updateddate":1641293289000,"globalid":null,"gisglobalid":"Pd46lm5d-a6K6-PRom-QlaQ-6mKmBn4od4nR","remark":"","st_area(shape)":0.00003459450234637272,"st_perimeter(shape)":0.03534535753861551}},{"arcs":[[16,17,18,-7,-14]],"type":"Polygon","properties":{"objectid":64466,"statename":"Telangana","statecode":"36","districtname":"Warangal Rural","districtcode":"691","ulbname":"Narsampet","ulbcode":"900022","wardname":"Ward Code 6","wardcode":"6","id":null,"status":"APPROVED","misglobalid":null,"approved_by":null,"createdate":1641292968000,"updateddate":1646979871000,"globalid":null,"gisglobalid":"PonKR4dc-sclP-P5dR-sQRo-osoB5on5K5nl","remark":"","st_area(shape)":0.000021835296842927595,"st_perimeter(shape)":0.021310598901951777}},{"arcs":[[19,20,-17,-16,21]],"type":"Polygon","properties":{"objectid":64465,"statename":"Telangana","statecode":"36","districtname":"Warangal Rural","districtcode":"691","ulbname":"Narsampet","ulbcode":"900022","wardname":"Ward Code 7","wardcode":"7","id":null,"status":"APPROVED","misglobalid":null,"approved_by":null,"createdate":1641292968000,"updateddate":1641293300000,"globalid":null,"gisglobalid":"oBd5Pnsd-PPBc-PPdB-QPmQ-6cQmRolQKlRd","remark":"","st_area(shape)":0.00005974736122070915,"st_perimeter(shape)":0.03782165271635283}},{"arcs":[[22,23,-20,24]],"type":"Polygon","properties":{"objectid":67044,"statename":"Telangana","statecode":"36","districtname":"Warangal Rural","districtcode":"691","ulbname":"Narsampet","ulbcode":"900022","wardname":"Ward Code 8","wardcode":"8","id":null,"status":"APPROVED","misglobalid":null,"approved_by":null,"createdate":1641292968000,"updateddate":1641293307000,"globalid":null,"gisglobalid":"m4noQacc-nmaQ-PQcB-sQn4-d56lcBo5Rlml","remark":"","st_area(shape)":0.00039157167107584426,"st_perimeter(shape)":0.1487983118078122}},{"arcs":[[-24,25,26,27,28,-18,-21]],"type":"Polygon","properties":{"objectid":68287,"statename":"Telangana","statecode":"36","districtname":"Warangal Rural","districtcode":"691","ulbname":"Narsampet","ulbcode":"900022","wardname":"Ward Code 9","wardcode":"9","id":null,"status":"APPROVED","misglobalid":null,"approved_by":null,"createdate":1641292968000,"updateddate":1641293312000,"globalid":null,"gisglobalid":"66lnaKda-54sQ-PocQ-aoQo-slsmKsPKsR6d","remark":"","st_area(shape)":0.000016802255454664125,"st_perimeter(shape)":0.01748330450307189}},{"arcs":[[-29,29,30,-19]],"type":"Polygon","properties":{"objectid":64467,"statename":"Telangana","statecode":"36","districtname":"Warangal Rural","districtcode":"691","ulbname":"Narsampet","ulbcode":"900022","wardname":"Ward Code 10","wardcode":"10","id":null,"status":"APPROVED","misglobalid":null,"approved_by":null,"createdate":1641292968000,"updateddate":1641293317000,"globalid":null,"gisglobalid":"a4n5mKl4-QK5s-PcaK-Qlos-BmdmKKPa6Kns","remark":"","st_area(shape)":0.000006885977032714321,"st_perimeter(shape)":0.012144624808144624}},{"arcs":[[-1,-31,31,32,33,34,35]],"type":"Polygon","properties":{"objectid":67601,"statename":"Telangana","statecode":"36","districtname":"Warangal Rural","districtcode":"691","ulbname":"Narsampet","ulbcode":"900022","wardname":"Ward Code 11","wardcode":"11","id":null,"status":"APPROVED","misglobalid":null,"approved_by":null,"createdate":1641292968000,"updateddate":1641293323000,"globalid":null,"gisglobalid":"daQRnd6K-5oRc-PKa6-RoR5-lclnd4omcRRs","remark":"","st_area(shape)":0.000011220139713601722,"st_perimeter(shape)":0.016765962753577137}},{"arcs":[[-30,-28,36,37,-32]],"type":"Polygon","properties":{"objectid":67602,"statename":"Telangana","statecode":"36","districtname":"Warangal Rural","districtcode":"691","ulbname":"Narsampet","ulbcode":"900022","wardname":"Ward Code 12","wardcode":"12","id":null,"status":"APPROVED","misglobalid":null,"approved_by":null,"createdate":1641292968000,"updateddate":1641293225000,"globalid":null,"gisglobalid":"a5l5lPRQ-l54c-PP44-R6Bn-4PQPnd6oQnoR","remark":"","st_area(shape)":0.000010529259501447701,"st_perimeter(shape)":0.021110961170411335}},{"arcs":[[38,39,40,-33,-38]],"type":"Polygon","properties":{"objectid":67045,"statename":"Telangana","statecode":"36","districtname":"Warangal Rural","districtcode":"691","ulbname":"Narsampet","ulbcode":"900022","wardname":"Ward Code 13","wardcode":"13","id":null,"status":"APPROVED","misglobalid":null,"approved_by":null,"createdate":1641292968000,"updateddate":1641293217000,"globalid":null,"gisglobalid":"6Ks5mdoB-oQls-PRcQ-aaRa-BBdcoRda64mc","remark":"","st_area(shape)":0.000018173418396428662,"st_perimeter(shape)":0.01911006594058986}},{"arcs":[[-41,41,42,43,-34]],"type":"Polygon","properties":{"objectid":64468,"statename":"Telangana","statecode":"36","districtname":"Warangal Rural","districtcode":"691","ulbname":"Narsampet","ulbcode":"900022","wardname":"Ward Code 14","wardcode":"14","id":null,"status":"APPROVED","misglobalid":null,"approved_by":null,"createdate":1641292968000,"updateddate":1641293236000,"globalid":null,"gisglobalid":"dKancnm5-4BBn-PPQs-aRld-44cBn44nQ6P6","remark":"","st_area(shape)":0.000010110478499324426,"st_perimeter(shape)":0.019116262547752214}},{"arcs":[[44,45,46,-43]],"type":"Polygon","properties":{"objectid":68004,"statename":"Telangana","statecode":"36","districtname":"Warangal Rural","districtcode":"691","ulbname":"Narsampet","ulbcode":"900022","wardname":"Ward Code 15","wardcode":"15","id":null,"status":"APPROVED","misglobalid":null,"approved_by":null,"createdate":1641292968000,"updateddate":1641293245000,"globalid":null,"gisglobalid":"dnsndK4l-nanK-PPdB-sRQs-dssoBQ5KoomR","remark":"","st_area(shape)":0.000012358472170541463,"st_perimeter(shape)":0.01625540182006728}},{"arcs":[[-40,47,48,49,-45,-42]],"type":"Polygon","properties":{"objectid":68005,"statename":"Telangana","statecode":"36","districtname":"Warangal Rural","districtcode":"691","ulbname":"Narsampet","ulbcode":"900022","wardname":"Ward Code 16","wardcode":"16","id":null,"status":"APPROVED","misglobalid":null,"approved_by":null,"createdate":1641292968000,"updateddate":1641293331000,"globalid":null,"gisglobalid":"5aPlslKR-RmoB-PKB4-Rcm6-6onadQdKsaKn","remark":"","st_area(shape)":0.000014814438382646225,"st_perimeter(shape)":0.02192858009456978}},{"arcs":[[50,51,-48,-39,-37,-27]],"type":"Polygon","properties":{"objectid":67046,"statename":"Telangana","statecode":"36","districtname":"Warangal Rural","districtcode":"691","ulbname":"Narsampet","ulbcode":"900022","wardname":"Ward Code 17","wardcode":"17","id":null,"status":"APPROVED","misglobalid":null,"approved_by":null,"createdate":1641292968000,"updateddate":1641293338000,"globalid":null,"gisglobalid":"sRdQa6K4-sKB6-PKBn-Qdm4-lmRm6llBaKQo","remark":"","st_area(shape)":0.000030042342308465164,"st_perimeter(shape)":0.03440941661817287}},{"arcs":[[-23,52,53,-51,-26]],"type":"Polygon","properties":{"objectid":64469,"statename":"Telangana","statecode":"36","districtname":"Warangal Rural","districtcode":"691","ulbname":"Narsampet","ulbcode":"900022","wardname":"Ward Code 18","wardcode":"18","id":null,"status":"APPROVED","misglobalid":null,"approved_by":null,"createdate":1641292968000,"updateddate":1641293344000,"globalid":null,"gisglobalid":"P4Q6nBoK-aKQd-Po6P-sd6l-mslKKl6K45aB","remark":"","st_area(shape)":0.00021452046271845998,"st_perimeter(shape)":0.07403224557183036}},{"arcs":[[-52,-54,54,55,-49]],"type":"Polygon","properties":{"objectid":68677,"statename":"Telangana","statecode":"36","districtname":"Warangal Rural","districtcode":"691","ulbname":"Narsampet","ulbcode":"900022","wardname":"Ward Code 19","wardcode":"19","id":null,"status":"APPROVED","misglobalid":null,"approved_by":null,"createdate":1641292968000,"updateddate":1641293351000,"globalid":null,"gisglobalid":"nn4lcRm5-Ba6P-Pc6Q-sRs5-BRaPQdcnQQo5","remark":"","st_area(shape)":0.00014794827710499627,"st_perimeter(shape)":0.06682944139027688}},{"arcs":[[-50,-56,56,57,-46]],"type":"Polygon","properties":{"objectid":67603,"statename":"Telangana","statecode":"36","districtname":"Warangal Rural","districtcode":"691","ulbname":"Narsampet","ulbcode":"900022","wardname":"Ward Code 20","wardcode":"20","id":null,"status":"APPROVED","misglobalid":null,"approved_by":null,"createdate":1641292968000,"updateddate":1641293357000,"globalid":null,"gisglobalid":"44nsP6Rd-RB6n-PnRa-RBnn-lKBPaBKBac54","remark":"","st_area(shape)":0.00045998170409983284,"st_perimeter(shape)":0.10119309868132466}},{"arcs":[[-58,58,59]],"type":"Polygon","properties":{"objectid":64470,"statename":"Telangana","statecode":"36","districtname":"Warangal Rural","districtcode":"691","ulbname":"Narsampet","ulbcode":"900022","wardname":"Ward Code 21","wardcode":"21","id":null,"status":"APPROVED","misglobalid":null,"approved_by":null,"createdate":1641292968000,"updateddate":1641293363000,"globalid":null,"gisglobalid":"sPo5KQld-PQQn-P6Rn-snmK-4o46KlPmsn4B","remark":"","st_area(shape)":0.00010767251725467945,"st_perimeter(shape)":0.060909374089779374}},{"arcs":[[-44,-47,-60,60,61]],"type":"Polygon","properties":{"objectid":68288,"statename":"Telangana","statecode":"36","districtname":"Warangal Rural","districtcode":"691","ulbname":"Narsampet","ulbcode":"900022","wardname":"Ward Code 22","wardcode":"22","id":null,"status":"APPROVED","misglobalid":null,"approved_by":null,"createdate":1641292968000,"updateddate":1646981675000,"globalid":null,"gisglobalid":"ssKKsooP-cs4Q-PKKo-aso6-lRoPosndQo6a","remark":"","st_area(shape)":0.0001182461202827345,"st_perimeter(shape)":0.05381550376220976}},{"arcs":[[-35,-62,62,63]],"type":"Polygon","properties":{"objectid":64471,"statename":"Telangana","statecode":"36","districtname":"Warangal Rural","districtcode":"691","ulbname":"Narsampet","ulbcode":"900022","wardname":"Ward Code 23","wardcode":"23","id":null,"status":"APPROVED","misglobalid":null,"approved_by":null,"createdate":1641292968000,"updateddate":1641293382000,"globalid":null,"gisglobalid":"BRK5mdQQ-KQcc-PomP-aBdd-PmBlmKnRKK5B","remark":"","st_area(shape)":0.00003464132502433516,"st_perimeter(shape)":0.029176243245489293}},{"arcs":[[-8,-2,-36,-64,64]],"type":"Polygon","properties":{"objectid":64472,"statename":"Telangana","statecode":"36","districtname":"Warangal Rural","districtcode":"691","ulbname":"Narsampet","ulbcode":"900022","wardname":"Ward Code 24","wardcode":"24","id":null,"status":"APPROVED","misglobalid":null,"approved_by":null,"createdate":1641292968000,"updateddate":1641293371000,"globalid":null,"gisglobalid":"6odPoQos-acKK-P64l-a6sR-K54KR6Rl6m5K","remark":"","st_area(shape)":0.00009734551623213572,"st_perimeter(shape)":0.04210232928426106}}]}}}