{"type": "FeatureCollection", "features": [{"type": "Feature", "geometry": {"type": "Polygon", "coordinates": [[[78.5372, 29.7578], [78.5372, 29.7575], [78.5368, 29.7571], [78.5361, 29.7564], [78.536, 29.7562], [78.5358, 29.7558], [78.5356, 29.7552], [78.5352, 29.7543], [78.5349, 29.7537], [78.5348, 29.7536], [78.5347, 29.7534], [78.5344, 29.7523], [78.5343, 29.752], [78.5342, 29.7518], [78.5339, 29.7511], [78.5335, 29.7499], [78.5335, 29.7498], [78.533, 29.7488], [78.5329, 29.7487], [78.5327, 29.7484], [78.5323, 29.7478], [78.5322, 29.7476], [78.5316, 29.7469], [78.5314, 29.7457], [78.5313, 29.745], [78.5313, 29.7448], [78.5313, 29.7443], [78.5314, 29.7438], [78.5316, 29.7434], [78.5316, 29.7433], [78.5316, 29.7427], [78.5317, 29.7424], [78.5322, 29.7414], [78.5321, 29.7411], [78.5317, 29.741], [78.531, 29.7409], [78.5304, 29.7409], [78.5297, 29.7405], [78.5296, 29.7405], [78.5289, 29.7403], [78.5281, 29.7404], [78.5279, 29.7404], [78.5271, 29.7402], [78.5272, 29.7403], [78.5272, 29.7404], [78.5276, 29.7411], [78.5277, 29.7413], [78.5277, 29.7414], [78.5278, 29.7421], [78.5278, 29.7422], [78.5279, 29.7423], [78.5279, 29.7425], [78.528, 29.7432], [78.528, 29.7433], [78.5281, 29.7442], [78.5283, 29.7447], [78.5286, 29.7456], [78.5287, 29.7461], [78.5289, 29.7465], [78.5289, 29.7466], [78.5291, 29.7471], [78.5292, 29.7472], [78.5292, 29.7474], [78.5294, 29.7479], [78.5294, 29.748], [78.5297, 29.7485], [78.5298, 29.7487], [78.5299, 29.7493], [78.53, 29.7503], [78.5301, 29.7505], [78.5302, 29.751], [78.5302, 29.7512], [78.5303, 29.7516], [78.5303, 29.7517], [78.5304, 29.7533], [78.5306, 29.7536], [78.5312, 29.7544], [78.5315, 29.7549], [78.5321, 29.7558], [78.5324, 29.756], [78.5333, 29.7565], [78.5341, 29.7566], [78.5348, 29.7568], [78.5355, 29.7572], [78.5364, 29.7575], [78.5372, 29.7578]]]}, "properties": {"objectid": 134923, "statename": "UTTARAKHAND", "statecode": "5", "districtname": "PAURI GARHWAL", "districtcode": "61", "ulbname": "KOTDWARA", "ulbcode": "800319", "wardname": "RATANPURGRASTGANJ", "wardcode": "1", "id": null, "status": "APPROVED", "misglobalid": null, "approved_by": null, "createdate": 1699076821000, "updateddate": 1715759921000, "globalid": null, "gisglobalid": "PmcmmQRo-PlaK-P456-QsQ4-s5aQaKRddaca", "remark": "", "st_area(shape)": 5.83201900595155e-05, "st_perimeter(shape)": 0.045782733886741915}}, {"type": "Feature", "geometry": {"type": "Polygon", "coordinates": [[[78.5213, 29.728], [78.5216, 29.7282], [78.5225, 29.7301], [78.5233, 29.7314], [78.5235, 29.7328], [78.5247, 29.7346], [78.5253, 29.7356], [78.5264, 29.7365], [78.5266, 29.7358], [78.5257, 29.7333], [78.5257, 29.7317], [78.5251, 29.7271], [78.5251, 29.7261], [78.5252, 29.7252], [78.5253, 29.725], [78.5254, 29.7244], [78.5257, 29.7222], [78.5257, 29.7219], [78.5258, 29.7216], [78.5246, 29.7182], [78.5251, 29.7213], [78.5241, 29.7225], [78.5214, 29.7247], [78.521, 29.7256], [78.5213, 29.728]]]}, "properties": {"objectid": 136127, "statename": "UTTARAKHAND", "statecode": "5", "districtname": "PAURI GARHWAL", "districtcode": "61", "ulbname": "KOTDWARA", "ulbcode": "800319", "wardname": "VISHANPURKUMBHICHAUD", "wardcode": "2", "id": null, "status": "APPROVED", "misglobalid": null, "approved_by": null, "createdate": 1700629927000, "updateddate": 1716362386000, "globalid": null, "gisglobalid": "nlcdPdsc-sPBl-PnQ5-s5od-s45R4a55KaKm", "remark": "", "st_area(shape)": 4.0138094867878555e-05, "st_perimeter(shape)": 0.040629941010760055}}, {"type": "Feature", "geometry": {"type": "Polygon", "coordinates": [[[78.519, 29.7186], [78.5186, 29.7193], [78.5195, 29.7203], [78.5203, 29.7206], [78.5208, 29.7195], [78.5211, 29.7183], [78.521, 29.718], [78.5211, 29.7168], [78.5212, 29.716], [78.5214, 29.7151], [78.5207, 29.7152], [78.5199, 29.7167], [78.5195, 29.7175], [78.519, 29.7186]]]}, "properties": {"objectid": 134929, "statename": "UTTARAKHAND", "statecode": "5", "districtname": "PAURI GARHWAL", "districtcode": "61", "ulbname": "KOTDWARA", "ulbcode": "800319", "wardname": "SNEH", "wardcode": "3", "id": null, "status": "APPROVED", "misglobalid": null, "approved_by": null, "createdate": 1700630117000, "updateddate": 1716362405000, "globalid": null, "gisglobalid": "alBl5cmR-dQod-Pc4R-sno4-5slccsBmQmRK", "remark": "", "st_area(shape)": 7.730414639698533e-06, "st_perimeter(shape)": 0.013107921184405211}}, {"type": "Feature", "geometry": {"type": "Polygon", "coordinates": [[[78.534, 29.758], [78.5356, 29.7585], [78.5361, 29.7584], [78.5368, 29.7583], [78.5363, 29.7581], [78.5352, 29.7579], [78.5334, 29.7574], [78.5311, 29.7568], [78.5305, 29.7565], [78.5294, 29.7553], [78.5289, 29.7545], [78.5286, 29.7535], [78.5284, 29.7525], [78.5282, 29.7517], [78.5285, 29.7502], [78.5279, 29.7491], [78.5271, 29.7483], [78.5271, 29.7475], [78.527, 29.7465], [78.5271, 29.7457], [78.527, 29.7454], [78.5269, 29.745], [78.527, 29.744], [78.5267, 29.7443], [78.5252, 29.7453], [78.5248, 29.7459], [78.5259, 29.7487], [78.5256, 29.7487], [78.5257, 29.7493], [78.5261, 29.7498], [78.5269, 29.7516], [78.5274, 29.7525], [78.5273, 29.7527], [78.527, 29.7529], [78.5268, 29.7532], [78.5268, 29.7537], [78.527, 29.7542], [78.527, 29.7545], [78.5272, 29.7557], [78.5276, 29.7561], [78.528, 29.7566], [78.5285, 29.7569], [78.5296, 29.7572], [78.534, 29.758]]]}, "properties": {"objectid": 135746, "statename": "UTTARAKHAND", "statecode": "5", "districtname": "PAURI GARHWAL", "districtcode": "61", "ulbname": "KOTDWARA", "ulbcode": "800319", "wardname": "GAADIGHAT", "wardcode": "4", "id": null, "status": "APPROVED", "misglobalid": null, "approved_by": null, "createdate": 1700545195000, "updateddate": 1716362442000, "globalid": null, "gisglobalid": "nP45a455-nmBm-P4n6-sRBs-KnonldB4nQlc", "remark": "", "st_area(shape)": 2.6779099426166853e-05, "st_perimeter(shape)": 0.0445190032264856}}, {"type": "Feature", "geometry": {"type": "Polygon", "coordinates": [[[78.5225, 29.7449], [78.5229, 29.7454], [78.5237, 29.7447], [78.5239, 29.7447], [78.524, 29.7446], [78.5241, 29.7446], [78.5243, 29.7444], [78.5241, 29.744], [78.524, 29.7439], [78.5243, 29.7438], [78.5245, 29.7437], [78.525, 29.7436], [78.525, 29.743], [78.5249, 29.7429], [78.5248, 29.7428], [78.5245, 29.7426], [78.5241, 29.7422], [78.524, 29.7421], [78.5237, 29.7419], [78.5236, 29.7417], [78.5233, 29.7413], [78.523, 29.741], [78.523, 29.7409], [78.5235, 29.7407], [78.5235, 29.7405], [78.5235, 29.7392], [78.5231, 29.7386], [78.523, 29.7387], [78.5229, 29.7388], [78.5226, 29.7389], [78.5225, 29.7387], [78.5225, 29.7386], [78.5222, 29.7381], [78.5217, 29.7383], [78.522, 29.7387], [78.5217, 29.739], [78.5216, 29.739], [78.5213, 29.7393], [78.5209, 29.7395], [78.5211, 29.7399], [78.5205, 29.7405], [78.5213, 29.7427], [78.5216, 29.7436], [78.5225, 29.7449]]]}, "properties": {"objectid": 129696, "statename": "UTTARAKHAND", "statecode": "5", "districtname": "PAURI GARHWAL", "districtcode": "61", "ulbname": "KOTDWARA", "ulbcode": "800319", "wardname": "LAKDIPADAV", "wardcode": "5", "id": null, "status": "APPROVED", "misglobalid": null, "approved_by": null, "createdate": 1698224380000, "updateddate": 1716362453000, "globalid": null, "gisglobalid": "4RK6Q5QQ-K5lK-PmRc-ald4-c4KsKBPdQ4R4", "remark": "", "st_area(shape)": 1.6420867653741005e-05, "st_perimeter(shape)": 0.02045122699363316}}, {"type": "Feature", "geometry": {"type": "Polygon", "coordinates": [[[78.5227, 29.734], [78.5225, 29.733], [78.5219, 29.7311], [78.5216, 29.7295], [78.5192, 29.7276], [78.5188, 29.7277], [78.5187, 29.7281], [78.5189, 29.7286], [78.5198, 29.7299], [78.5201, 29.7302], [78.5172, 29.7319], [78.5143, 29.7333], [78.5155, 29.7345], [78.5164, 29.7354], [78.5198, 29.7389], [78.5203, 29.7398], [78.5205, 29.7405], [78.5211, 29.7399], [78.5209, 29.7395], [78.5213, 29.7393], [78.5216, 29.739], [78.5217, 29.739], [78.522, 29.7387], [78.5217, 29.7383], [78.5222, 29.7381], [78.5225, 29.7386], [78.5225, 29.7387], [78.5226, 29.7389], [78.5229, 29.7388], [78.523, 29.7387], [78.5231, 29.7386], [78.5233, 29.7386], [78.5232, 29.7383], [78.5234, 29.7382], [78.5238, 29.7378], [78.5239, 29.7376], [78.5229, 29.7357], [78.5226, 29.7349], [78.5227, 29.734]]]}, "properties": {"objectid": 147428, "statename": "UTTARAKHAND", "statecode": "5", "districtname": "PAURI GARHWAL", "districtcode": "61", "ulbname": "KOTDWARA", "ulbcode": "800319", "wardname": "KASHIRAMPURTALLA", "wardcode": "6", "id": null, "status": "APPROVED", "misglobalid": null, "approved_by": null, "createdate": 1698225007000, "updateddate": 1716362652000, "globalid": null, "gisglobalid": "4cs44lRK-llcm-Pc66-QmoQ-nsPcR4snRoRa", "remark": "", "st_area(shape)": 5.3491543383907335e-05, "st_perimeter(shape)": 0.03771089271087601}}, {"type": "Feature", "geometry": {"type": "Polygon", "coordinates": [[[78.5149, 29.7237], [78.5148, 29.7241], [78.5146, 29.7244], [78.5144, 29.7249], [78.5143, 29.725], [78.5141, 29.7255], [78.5137, 29.726], [78.5133, 29.7265], [78.5132, 29.7266], [78.5128, 29.727], [78.5127, 29.7271], [78.5126, 29.7273], [78.512, 29.7279], [78.5119, 29.7281], [78.5115, 29.7286], [78.5113, 29.7287], [78.511, 29.7291], [78.5109, 29.7291], [78.5102, 29.7302], [78.5097, 29.7307], [78.5095, 29.7316], [78.5099, 29.7323], [78.51, 29.7324], [78.5109, 29.7333], [78.5116, 29.7334], [78.512, 29.7334], [78.5125, 29.7333], [78.5135, 29.733], [78.514, 29.7329], [78.5141, 29.7328], [78.5151, 29.7314], [78.5173, 29.7309], [78.5174, 29.7309], [78.5182, 29.7306], [78.5183, 29.7306], [78.519, 29.7304], [78.519, 29.7299], [78.5185, 29.729], [78.5184, 29.7287], [78.5183, 29.7284], [78.5179, 29.7277], [78.5178, 29.7276], [78.5173, 29.7266], [78.5173, 29.7264], [78.5167, 29.7253], [78.5159, 29.7245], [78.5149, 29.7237]]]}, "properties": {"objectid": 127739, "statename": "UTTARAKHAND", "statecode": "5", "districtname": "PAURI GARHWAL", "districtcode": "61", "ulbname": "KOTDWARA", "ulbcode": "800319", "wardname": "KODIYA", "wardcode": "7", "id": null, "status": "APPROVED", "misglobalid": null, "approved_by": null, "createdate": 1699080183000, "updateddate": 1716362663000, "globalid": null, "gisglobalid": "mKdnnRoR-KPR5-P646-and5-PQlonnlo6QK4", "remark": "", "st_area(shape)": 4.750605065836059e-05, "st_perimeter(shape)": 0.029006397275338446}}, {"type": "Feature", "geometry": {"type": "Polygon", "coordinates": [[[78.5121, 29.7345], [78.5157, 29.7381], [78.5167, 29.7394], [78.5171, 29.7399], [78.5174, 29.7398], [78.5181, 29.7403], [78.5184, 29.7405], [78.5199, 29.7399], [78.5203, 29.7398], [78.5198, 29.7389], [78.5164, 29.7354], [78.5155, 29.7345], [78.5143, 29.7333], [78.5121, 29.7345]]]}, "properties": {"objectid": 129710, "statename": "UTTARAKHAND", "statecode": "5", "districtname": "PAURI GARHWAL", "districtcode": "61", "ulbname": "KOTDWARA", "ulbcode": "800319", "wardname": "KASHIRAMPURMALLA", "wardcode": "8", "id": null, "status": "APPROVED", "misglobalid": null, "approved_by": null, "createdate": 1698227400000, "updateddate": 1716549333000, "globalid": null, "gisglobalid": "R54P5a65-omQ4-Pold-QBl4-PlsoBmBnccRK", "remark": "", "st_area(shape)": 2.1132840921995232e-05, "st_perimeter(shape)": 0.02221853764101042}}, {"type": "Feature", "geometry": {"type": "Polygon", "coordinates": [[[78.5171, 29.7399], [78.5167, 29.7394], [78.5157, 29.7381], [78.5121, 29.7345], [78.5109, 29.7335], [78.5107, 29.7338], [78.5105, 29.7341], [78.5104, 29.7343], [78.5101, 29.7344], [78.5097, 29.7351], [78.5098, 29.7361], [78.5101, 29.7364], [78.5104, 29.7366], [78.5105, 29.7368], [78.5107, 29.7371], [78.511, 29.7372], [78.5113, 29.7372], [78.5116, 29.7373], [78.5122, 29.7376], [78.5125, 29.7378], [78.5129, 29.7378], [78.5131, 29.7379], [78.5135, 29.7382], [78.5137, 29.7386], [78.5139, 29.739], [78.5143, 29.7397], [78.5146, 29.7404], [78.5147, 29.7408], [78.5153, 29.7407], [78.5156, 29.7411], [78.5162, 29.7412], [78.517, 29.7413], [78.5174, 29.7411], [78.5169, 29.7402], [78.5169, 29.7401], [78.517, 29.74], [78.5171, 29.7399]]]}, "properties": {"objectid": 129312, "statename": "UTTARAKHAND", "statecode": "5", "districtname": "PAURI GARHWAL", "districtcode": "61", "ulbname": "KOTDWARA", "ulbcode": "800319", "wardname": "KASHIRAMPURPASHCHIMI", "wardcode": "9", "id": null, "status": "APPROVED", "misglobalid": null, "approved_by": null, "createdate": 1698227462000, "updateddate": 1716549374000, "globalid": null, "gisglobalid": "oQoRQQlK-csQ5-PllP-a6Rl-6oms6B6Bocd5", "remark": "", "st_area(shape)": 1.984248135036099e-05, "st_perimeter(shape)": 0.023674909194553066}}, {"type": "Feature", "geometry": {"type": "Polygon", "coordinates": [[[78.5239, 29.7376], [78.5238, 29.7378], [78.5234, 29.7382], [78.5232, 29.7383], [78.5233, 29.7386], [78.5231, 29.7386], [78.5235, 29.7392], [78.5235, 29.7405], [78.5235, 29.7407], [78.523, 29.7409], [78.523, 29.741], [78.5233, 29.7413], [78.5236, 29.7417], [78.5237, 29.7419], [78.524, 29.7421], [78.5241, 29.7422], [78.5245, 29.7426], [78.5248, 29.7428], [78.5249, 29.7429], [78.525, 29.743], [78.525, 29.7436], [78.5245, 29.7437], [78.5243, 29.7438], [78.524, 29.7439], [78.5241, 29.744], [78.5243, 29.7444], [78.5241, 29.7446], [78.5241, 29.7447], [78.524, 29.7448], [78.5241, 29.7449], [78.5243, 29.7451], [78.5245, 29.7455], [78.5247, 29.7455], [78.5249, 29.7449], [78.5251, 29.7445], [78.5251, 29.744], [78.5251, 29.7438], [78.5252, 29.7436], [78.5258, 29.7432], [78.5259, 29.7434], [78.5261, 29.7436], [78.5263, 29.7439], [78.5267, 29.7443], [78.527, 29.744], [78.5278, 29.7438], [78.5279, 29.7431], [78.5279, 29.7428], [78.5279, 29.7425], [78.5276, 29.7416], [78.5274, 29.7413], [78.5271, 29.7409], [78.5265, 29.7405], [78.5256, 29.7399], [78.5253, 29.7396], [78.5239, 29.7376]]]}, "properties": {"objectid": 127729, "statename": "UTTARAKHAND", "statecode": "5", "districtname": "PAURI GARHWAL", "districtcode": "61", "ulbname": "KOTDWARA", "ulbcode": "800319", "wardname": "KASHIRAMPURTALLALAKDIPADAV", "wardcode": "10", "id": null, "status": "APPROVED", "misglobalid": null, "approved_by": null, "createdate": 1698227514000, "updateddate": 1716549527000, "globalid": null, "gisglobalid": "Kl5m4c4P-5cmK-PQ6R-Rnnl-dscBo4cBQ5Pl", "remark": "", "st_area(shape)": 1.7361363082485473e-05, "st_perimeter(shape)": 0.023965132983258988}}, {"type": "Feature", "geometry": {"type": "Polygon", "coordinates": [[[78.5248, 29.7459], [78.5252, 29.7453], [78.5267, 29.7443], [78.5263, 29.7439], [78.5261, 29.7436], [78.5259, 29.7434], [78.5258, 29.7432], [78.5252, 29.7436], [78.5251, 29.7438], [78.5251, 29.744], [78.5251, 29.7445], [78.5249, 29.7449], [78.5247, 29.7455], [78.5245, 29.7455], [78.5243, 29.7451], [78.5241, 29.7449], [78.524, 29.7448], [78.5241, 29.7447], [78.5241, 29.7446], [78.524, 29.7446], [78.5239, 29.7447], [78.5237, 29.7447], [78.5229, 29.7454], [78.5233, 29.7458], [78.5233, 29.746], [78.5225, 29.746], [78.5222, 29.7457], [78.522, 29.7456], [78.5221, 29.746], [78.5223, 29.7463], [78.5222, 29.7464], [78.5221, 29.7464], [78.5219, 29.7463], [78.5218, 29.746], [78.5217, 29.7458], [78.5216, 29.7459], [78.5213, 29.746], [78.5209, 29.7461], [78.5213, 29.7467], [78.5215, 29.7469], [78.522, 29.7477], [78.522, 29.748], [78.522, 29.7481], [78.5219, 29.7481], [78.5211, 29.7477], [78.5208, 29.7475], [78.5207, 29.7478], [78.5209, 29.748], [78.5213, 29.7485], [78.5218, 29.7492], [78.522, 29.7496], [78.5223, 29.7499], [78.5226, 29.7504], [78.5229, 29.7509], [78.5238, 29.7506], [78.5241, 29.7515], [78.5246, 29.7515], [78.5246, 29.7511], [78.5253, 29.7507], [78.5249, 29.7502], [78.5248, 29.7497], [78.5246, 29.7494], [78.5245, 29.7489], [78.5256, 29.7487], [78.5259, 29.7487], [78.5248, 29.7459]]]}, "properties": {"objectid": 129309, "statename": "UTTARAKHAND", "statecode": "5", "districtname": "PAURI GARHWAL", "districtcode": "61", "ulbname": "KOTDWARA", "ulbcode": "800319", "wardname": "LAKDIPADAVSIDHBALIMARG", "wardcode": "11", "id": null, "status": "APPROVED", "misglobalid": null, "approved_by": null, "createdate": 1697116978000, "updateddate": 1716549726000, "globalid": null, "gisglobalid": "ooosad5a-B5Kc-PQcB-a5QK-dRRBs5RcPoso", "remark": "", "st_area(shape)": 2.0921541295666484e-05, "st_perimeter(shape)": 0.03197135849799444}}, {"type": "Feature", "geometry": {"type": "Polygon", "coordinates": [[[78.5194, 29.7553], [78.5192, 29.7555], [78.5196, 29.7554], [78.5201, 29.7553], [78.5205, 29.7554], [78.521, 29.7554], [78.5223, 29.7554], [78.5226, 29.7556], [78.5229, 29.7558], [78.5236, 29.7559], [78.5237, 29.7559], [78.5241, 29.7559], [78.5242, 29.7559], [78.5248, 29.756], [78.5251, 29.7561], [78.5252, 29.7561], [78.5256, 29.7564], [78.5257, 29.7564], [78.5263, 29.7567], [78.5266, 29.7567], [78.5266, 29.7565], [78.5268, 29.756], [78.5268, 29.7558], [78.5268, 29.7556], [78.5268, 29.755], [78.5268, 29.7543], [78.5267, 29.7542], [78.5267, 29.7538], [78.5267, 29.7531], [78.5267, 29.753], [78.5267, 29.7527], [78.5267, 29.7526], [78.5269, 29.7524], [78.5269, 29.7521], [78.5267, 29.7515], [78.5266, 29.7514], [78.5266, 29.7513], [78.5265, 29.7512], [78.5264, 29.7508], [78.5261, 29.7504], [78.5259, 29.7502], [78.5258, 29.7501], [78.5254, 29.7503], [78.5254, 29.7504], [78.5254, 29.7505], [78.5254, 29.7506], [78.5253, 29.751], [78.5251, 29.751], [78.5249, 29.7512], [78.5248, 29.7514], [78.5247, 29.7515], [78.5245, 29.7517], [78.5243, 29.7517], [78.5242, 29.7517], [78.5241, 29.7517], [78.524, 29.7517], [78.5238, 29.7512], [78.5237, 29.7509], [78.5236, 29.7508], [78.5232, 29.751], [78.5231, 29.7511], [78.523, 29.7512], [78.5227, 29.7511], [78.5226, 29.7509], [78.5225, 29.7508], [78.5225, 29.7506], [78.5223, 29.7504], [78.5223, 29.7503], [78.5222, 29.7502], [78.5222, 29.7501], [78.5221, 29.75], [78.522, 29.7499], [78.5217, 29.7497], [78.5217, 29.7496], [78.5216, 29.7495], [78.5216, 29.7493], [78.5215, 29.7493], [78.5215, 29.7492], [78.5213, 29.7491], [78.5212, 29.749], [78.5211, 29.749], [78.521, 29.7489], [78.5207, 29.7492], [78.5207, 29.7493], [78.5207, 29.7494], [78.5207, 29.7497], [78.5205, 29.7498], [78.5204, 29.7498], [78.5203, 29.7498], [78.5198, 29.7498], [78.5196, 29.7498], [78.5196, 29.75], [78.5195, 29.7505], [78.5195, 29.7506], [78.5195, 29.7508], [78.5192, 29.7509], [78.5192, 29.751], [78.519, 29.751], [78.5189, 29.751], [78.5188, 29.7511], [78.5187, 29.7513], [78.5188, 29.7514], [78.5189, 29.7515], [78.5191, 29.7516], [78.5191, 29.7518], [78.5192, 29.7519], [78.5192, 29.752], [78.5193, 29.7521], [78.5194, 29.7525], [78.5194, 29.7529], [78.5195, 29.7533], [78.5194, 29.7535], [78.5195, 29.754], [78.5195, 29.7542], [78.5195, 29.7548], [78.5194, 29.7548], [78.5194, 29.7551], [78.5194, 29.7553]]]}, "properties": {"objectid": 149052, "statename": "UTTARAKHAND", "statecode": "5", "districtname": "PAURI GARHWAL", "districtcode": "61", "ulbname": "KOTDWARA", "ulbcode": "800319", "wardname": "JAUNPURKALABARH", "wardcode": "12", "id": null, "status": "APPROVED", "misglobalid": null, "approved_by": null, "createdate": 1699080378000, "updateddate": 1716549409000, "globalid": null, "gisglobalid": "5QKQn4cl-Pam4-PPc5-aBoa-Bsodls5naoca", "remark": "", "st_area(shape)": 3.985095481897615e-05, "st_perimeter(shape)": 0.03076449472948911}}, {"type": "Feature", "geometry": {"type": "Polygon", "coordinates": [[[78.5158, 29.7444], [78.5161, 29.7449], [78.5164, 29.7455], [78.5164, 29.7457], [78.5164, 29.7461], [78.5163, 29.7464], [78.5162, 29.7465], [78.5162, 29.7466], [78.5161, 29.7467], [78.5161, 29.7469], [78.5162, 29.747], [78.5163, 29.7471], [78.5164, 29.7472], [78.5166, 29.7474], [78.5168, 29.7475], [78.5169, 29.7476], [78.517, 29.7477], [78.5172, 29.7482], [78.5182, 29.7479], [78.5181, 29.7477], [78.5181, 29.7476], [78.5181, 29.7475], [78.518, 29.7474], [78.518, 29.7473], [78.5181, 29.7473], [78.5182, 29.7472], [78.5183, 29.7471], [78.5184, 29.747], [78.5186, 29.747], [78.5187, 29.7469], [78.5189, 29.7468], [78.5192, 29.747], [78.5196, 29.7472], [78.5201, 29.7474], [78.5203, 29.7476], [78.5206, 29.7477], [78.5207, 29.7478], [78.5208, 29.7475], [78.5211, 29.7477], [78.5219, 29.7481], [78.522, 29.7481], [78.522, 29.748], [78.522, 29.7477], [78.5215, 29.7469], [78.5213, 29.7467], [78.5209, 29.7461], [78.52, 29.745], [78.5198, 29.7447], [78.5195, 29.7444], [78.5196, 29.7443], [78.5195, 29.7441], [78.5194, 29.744], [78.5194, 29.7438], [78.5193, 29.7435], [78.5192, 29.7434], [78.519, 29.7434], [78.5188, 29.7434], [78.5187, 29.7435], [78.5188, 29.7437], [78.5189, 29.7439], [78.5191, 29.7441], [78.519, 29.7443], [78.5187, 29.7441], [78.5186, 29.7439], [78.5185, 29.7438], [78.5184, 29.7437], [78.5183, 29.7436], [78.5182, 29.7435], [78.517, 29.7437], [78.5167, 29.744], [78.5166, 29.744], [78.5164, 29.7442], [78.5162, 29.7444], [78.5161, 29.7444], [78.5159, 29.7443], [78.5158, 29.7444]]]}, "properties": {"objectid": 128108, "statename": "UTTARAKHAND", "statecode": "5", "districtname": "PAURI GARHWAL", "districtcode": "61", "ulbname": "KOTDWARA", "ulbcode": "800319", "wardname": "GARAGEMARGPATELMARG", "wardcode": "13", "id": null, "status": "APPROVED", "misglobalid": null, "approved_by": null, "createdate": 1698227612000, "updateddate": 1716549427000, "globalid": null, "gisglobalid": "as6sBBd6-PR6R-PKso-Q546-la655n45dBcd", "remark": "", "st_area(shape)": 1.629335351733679e-05, "st_perimeter(shape)": 0.021726390725962014}}, {"type": "Feature", "geometry": {"type": "Polygon", "coordinates": [[[78.5165, 29.7488], [78.5166, 29.749], [78.5167, 29.7491], [78.5168, 29.7492], [78.5171, 29.7494], [78.5172, 29.7494], [78.5173, 29.7495], [78.5174, 29.7497], [78.5176, 29.7499], [78.5176, 29.7502], [78.5177, 29.7505], [78.5178, 29.7507], [78.5182, 29.7511], [78.5185, 29.7511], [78.5185, 29.7508], [78.5185, 29.7506], [78.5193, 29.7508], [78.5194, 29.7495], [78.5202, 29.7495], [78.5205, 29.7496], [78.5208, 29.7489], [78.5209, 29.7488], [78.5209, 29.7487], [78.5213, 29.7485], [78.5209, 29.748], [78.5207, 29.7478], [78.5206, 29.7477], [78.5203, 29.7476], [78.5201, 29.7474], [78.5196, 29.7472], [78.5192, 29.747], [78.5189, 29.7468], [78.5187, 29.7469], [78.5186, 29.747], [78.5184, 29.747], [78.5183, 29.7471], [78.5182, 29.7472], [78.5181, 29.7473], [78.518, 29.7473], [78.518, 29.7474], [78.5181, 29.7475], [78.5181, 29.7476], [78.5181, 29.7477], [78.5182, 29.7479], [78.5172, 29.7482], [78.517, 29.7477], [78.517, 29.7478], [78.517, 29.7479], [78.5167, 29.7483], [78.5166, 29.7485], [78.5166, 29.7486], [78.5164, 29.7487], [78.5165, 29.7488]]]}, "properties": {"objectid": 127743, "statename": "UTTARAKHAND", "statecode": "5", "districtname": "PAURI GARHWAL", "districtcode": "61", "ulbname": "KOTDWARA", "ulbcode": "800319", "wardname": "JAUNPURCHHETRA", "wardcode": "14", "id": null, "status": "APPROVED", "misglobalid": null, "approved_by": null, "createdate": 1698227669000, "updateddate": 1716549736000, "globalid": null, "gisglobalid": "Rn6Bdanc-RnmP-PnPn-R6dQ-onBs4osKoR4Q", "remark": "", "st_area(shape)": 1.0649580075790229e-05, "st_perimeter(shape)": 0.015905745458647674}}, {"type": "Feature", "geometry": {"type": "Polygon", "coordinates": [[[78.52, 29.745], [78.5209, 29.7461], [78.5213, 29.746], [78.5216, 29.7459], [78.5217, 29.7458], [78.5218, 29.746], [78.5219, 29.7463], [78.5221, 29.7464], [78.5222, 29.7464], [78.5223, 29.7463], [78.5221, 29.746], [78.522, 29.7456], [78.5222, 29.7457], [78.5225, 29.746], [78.5233, 29.746], [78.5233, 29.7458], [78.5229, 29.7454], [78.5225, 29.7449], [78.5216, 29.7436], [78.5213, 29.7427], [78.5205, 29.7405], [78.5203, 29.7398], [78.5199, 29.7399], [78.5184, 29.7405], [78.5181, 29.7403], [78.5174, 29.7398], [78.5171, 29.7399], [78.517, 29.74], [78.5169, 29.7401], [78.5169, 29.7402], [78.5174, 29.7411], [78.517, 29.7413], [78.5162, 29.7412], [78.5156, 29.7411], [78.5153, 29.7407], [78.5147, 29.7408], [78.5151, 29.7415], [78.5153, 29.7418], [78.5155, 29.7421], [78.5157, 29.7427], [78.516, 29.7431], [78.5159, 29.7441], [78.5159, 29.7443], [78.5161, 29.7444], [78.5162, 29.7444], [78.5164, 29.7442], [78.5166, 29.744], [78.5167, 29.744], [78.517, 29.7437], [78.5182, 29.7435], [78.5183, 29.7436], [78.5184, 29.7437], [78.5185, 29.7438], [78.5186, 29.7439], [78.5187, 29.7441], [78.519, 29.7443], [78.5191, 29.7441], [78.5189, 29.7439], [78.5188, 29.7437], [78.5187, 29.7435], [78.5188, 29.7434], [78.519, 29.7434], [78.5192, 29.7434], [78.5193, 29.7435], [78.5194, 29.7438], [78.5194, 29.744], [78.5195, 29.7441], [78.5196, 29.7443], [78.5195, 29.7444], [78.5198, 29.7447], [78.52, 29.745]]]}, "properties": {"objectid": 127744, "statename": "UTTARAKHAND", "statecode": "5", "districtname": "PAURI GARHWAL", "districtcode": "61", "ulbname": "KOTDWARA", "ulbcode": "800319", "wardname": "GOVINDNAGAR", "wardcode": "15", "id": null, "status": "APPROVED", "misglobalid": null, "approved_by": null, "createdate": 1697117564000, "updateddate": 1716549789000, "globalid": null, "gisglobalid": "5oRB5cal-lcsK-Pmlm-alln-sQRR6KaQQnBB", "remark": "", "st_area(shape)": 2.425640917438905e-05, "st_perimeter(shape)": 0.031254207044659935}}, {"type": "Feature", "geometry": {"type": "Polygon", "coordinates": [[[78.5163, 29.7464], [78.5164, 29.7461], [78.5164, 29.7457], [78.5164, 29.7455], [78.5161, 29.7449], [78.5158, 29.7444], [78.5159, 29.7443], [78.5159, 29.7441], [78.516, 29.7431], [78.5157, 29.7427], [78.5155, 29.7421], [78.5153, 29.7418], [78.5151, 29.7415], [78.5147, 29.7408], [78.5145, 29.7407], [78.5143, 29.7406], [78.5141, 29.7406], [78.5137, 29.7407], [78.5133, 29.7408], [78.5126, 29.741], [78.512, 29.7411], [78.5113, 29.741], [78.5113, 29.7408], [78.5112, 29.7406], [78.5099, 29.741], [78.5098, 29.7405], [78.5099, 29.7403], [78.5095, 29.7401], [78.509, 29.7399], [78.5089, 29.7411], [78.5093, 29.7411], [78.5094, 29.7412], [78.5094, 29.7415], [78.5085, 29.7415], [78.5082, 29.7415], [78.5079, 29.7416], [78.5075, 29.7418], [78.5074, 29.7419], [78.5073, 29.742], [78.5073, 29.7421], [78.5073, 29.7423], [78.5073, 29.7425], [78.5073, 29.7427], [78.5072, 29.7429], [78.5072, 29.7431], [78.5072, 29.7433], [78.5072, 29.7434], [78.5072, 29.7437], [78.5073, 29.744], [78.5073, 29.7444], [78.5074, 29.7448], [78.5074, 29.745], [78.5072, 29.7454], [78.5072, 29.7456], [78.5072, 29.7458], [78.5074, 29.746], [78.5075, 29.7462], [78.5074, 29.7465], [78.5072, 29.747], [78.5084, 29.7469], [78.509, 29.7468], [78.5096, 29.7468], [78.5103, 29.7467], [78.5124, 29.7467], [78.5133, 29.7466], [78.5154, 29.7464], [78.5163, 29.7464]]]}, "properties": {"objectid": 129714, "statename": "UTTARAKHAND", "statecode": "5", "districtname": "PAURI GARHWAL", "districtcode": "61", "ulbname": "KOTDWARA", "ulbcode": "800319", "wardname": "SITAABPUR", "wardcode": "16", "id": null, "status": "APPROVED", "misglobalid": null, "approved_by": null, "createdate": 1698227720000, "updateddate": 1716549543000, "globalid": null, "gisglobalid": "4ooK44Ko-osdd-PPns-QsKn-6cPcsQ4K4c5Q", "remark": "", "st_area(shape)": 4.898674923743716e-05, "st_perimeter(shape)": 0.031519725567779634}}, {"type": "Feature", "geometry": {"type": "Polygon", "coordinates": [[[78.5072, 29.747], [78.5071, 29.7471], [78.507, 29.7473], [78.5069, 29.7476], [78.5071, 29.7479], [78.5074, 29.7482], [78.5072, 29.7483], [78.507, 29.7485], [78.507, 29.7487], [78.5072, 29.749], [78.5074, 29.7492], [78.5075, 29.7493], [78.5076, 29.7494], [78.5077, 29.7498], [78.5074, 29.7503], [78.5072, 29.7508], [78.5072, 29.751], [78.5073, 29.7512], [78.5076, 29.7515], [78.5077, 29.7516], [78.5081, 29.7519], [78.5081, 29.7517], [78.508, 29.7515], [78.508, 29.7514], [78.5083, 29.7513], [78.5088, 29.7511], [78.5095, 29.751], [78.5103, 29.7508], [78.511, 29.7506], [78.5115, 29.7506], [78.5118, 29.7506], [78.5121, 29.7505], [78.513, 29.7504], [78.5134, 29.7504], [78.514, 29.7503], [78.5145, 29.7503], [78.5149, 29.7503], [78.5154, 29.7504], [78.5155, 29.7503], [78.5156, 29.7501], [78.5156, 29.7499], [78.5157, 29.7499], [78.5158, 29.7498], [78.5159, 29.7497], [78.516, 29.7496], [78.5159, 29.7493], [78.516, 29.7491], [78.5161, 29.749], [78.5162, 29.7488], [78.5163, 29.7487], [78.5164, 29.7487], [78.5166, 29.7486], [78.5166, 29.7485], [78.5167, 29.7483], [78.517, 29.7479], [78.517, 29.7478], [78.517, 29.7477], [78.5169, 29.7476], [78.5168, 29.7475], [78.5166, 29.7474], [78.5164, 29.7472], [78.5163, 29.7471], [78.5162, 29.747], [78.5161, 29.7469], [78.5161, 29.7467], [78.5162, 29.7466], [78.5162, 29.7465], [78.5163, 29.7464], [78.5154, 29.7464], [78.5133, 29.7466], [78.5124, 29.7467], [78.5103, 29.7467], [78.5096, 29.7468], [78.509, 29.7468], [78.5084, 29.7469], [78.5072, 29.747]]]}, "properties": {"objectid": 129315, "statename": "UTTARAKHAND", "statecode": "5", "districtname": "PAURI GARHWAL", "districtcode": "61", "ulbname": "KOTDWARA", "ulbcode": "800319", "wardname": "MAANPUR", "wardcode": "17", "id": null, "status": "APPROVED", "misglobalid": null, "approved_by": null, "createdate": 1698227769000, "updateddate": 1716549552000, "globalid": null, "gisglobalid": "cRonB56s-ssKP-PRlK-QKns-6mmdQaKa4QPB", "remark": "", "st_area(shape)": 3.639798184181082e-05, "st_perimeter(shape)": 0.028372295657857517}}, {"type": "Feature", "geometry": {"type": "Polygon", "coordinates": [[[78.5107, 29.7589], [78.5108, 29.7591], [78.5114, 29.7586], [78.5118, 29.7583], [78.5125, 29.7579], [78.5132, 29.7576], [78.5135, 29.7572], [78.5142, 29.7568], [78.5145, 29.7566], [78.5148, 29.7563], [78.5153, 29.7561], [78.5155, 29.756], [78.5159, 29.7559], [78.516, 29.7558], [78.5163, 29.7558], [78.5173, 29.7555], [78.5179, 29.7556], [78.5186, 29.7555], [78.5187, 29.7549], [78.5187, 29.7544], [78.5187, 29.7539], [78.5188, 29.7535], [78.5187, 29.7531], [78.5186, 29.7527], [78.5186, 29.7525], [78.5185, 29.7521], [78.5184, 29.7518], [78.5183, 29.7516], [78.518, 29.7512], [78.5179, 29.751], [78.5179, 29.7509], [78.5177, 29.7506], [78.5175, 29.7504], [78.5174, 29.7501], [78.5173, 29.7499], [78.5172, 29.7499], [78.5172, 29.7498], [78.517, 29.7497], [78.517, 29.7496], [78.5167, 29.7493], [78.5166, 29.7492], [78.5164, 29.749], [78.5164, 29.7489], [78.5163, 29.7489], [78.5163, 29.7491], [78.5162, 29.7494], [78.5162, 29.7496], [78.516, 29.7498], [78.5159, 29.7499], [78.5159, 29.75], [78.5157, 29.7501], [78.5156, 29.7503], [78.5155, 29.7504], [78.5155, 29.7505], [78.5154, 29.7506], [78.5152, 29.7506], [78.515, 29.7505], [78.5148, 29.7505], [78.5146, 29.7506], [78.5143, 29.7505], [78.5141, 29.7505], [78.5139, 29.7505], [78.5135, 29.7506], [78.5134, 29.7506], [78.5132, 29.7507], [78.5129, 29.7507], [78.5128, 29.7507], [78.5127, 29.7508], [78.5125, 29.7508], [78.5118, 29.7509], [78.5112, 29.7509], [78.5107, 29.751], [78.5099, 29.7511], [78.5096, 29.7511], [78.5093, 29.7513], [78.5089, 29.7513], [78.5086, 29.7514], [78.5083, 29.7515], [78.5082, 29.7516], [78.5083, 29.752], [78.5084, 29.7522], [78.5083, 29.7524], [78.5081, 29.7526], [78.508, 29.7528], [78.5079, 29.7531], [78.508, 29.7534], [78.5084, 29.7535], [78.5088, 29.7541], [78.5089, 29.7546], [78.509, 29.7548], [78.5091, 29.7548], [78.5098, 29.7547], [78.5103, 29.7546], [78.5106, 29.7547], [78.5105, 29.7553], [78.5104, 29.7556], [78.5104, 29.7557], [78.5104, 29.7559], [78.5104, 29.757], [78.5105, 29.7573], [78.5105, 29.7574], [78.5106, 29.7577], [78.5106, 29.7578], [78.5106, 29.7579], [78.5106, 29.7581], [78.5107, 29.7585], [78.5107, 29.7586], [78.5107, 29.7589]]]}, "properties": {"objectid": 127746, "statename": "UTTARAKHAND", "statecode": "5", "districtname": "PAURI GARHWAL", "districtcode": "61", "ulbname": "KOTDWARA", "ulbcode": "800319", "wardname": "SHIVPUR", "wardcode": "18", "id": null, "status": "APPROVED", "misglobalid": null, "approved_by": null, "createdate": 1699081097000, "updateddate": 1716549750000, "globalid": null, "gisglobalid": "mQRQQn4P-oRQs-Pad5-aKBB-4Qcl6Pc46Psn", "remark": "", "st_area(shape)": 5.8776403638259726e-05, "st_perimeter(shape)": 0.035632943627629705}}, {"type": "Feature", "geometry": {"type": "MultiPolygon", "coordinates": [[[[78.4904, 29.7583], [78.509, 29.7598], [78.5093, 29.7597], [78.5098, 29.7596], [78.51, 29.7592], [78.5101, 29.759], [78.51, 29.7586], [78.5099, 29.7585], [78.5099, 29.7584], [78.5099, 29.7578], [78.5098, 29.7574], [78.5098, 29.757], [78.5097, 29.7559], [78.5097, 29.7554], [78.5094, 29.7556], [78.5091, 29.7556], [78.5088, 29.7556], [78.5085, 29.7554], [78.5083, 29.755], [78.5081, 29.7546], [78.5078, 29.7538], [78.5074, 29.7538], [78.5073, 29.7537], [78.5071, 29.7537], [78.5068, 29.7538], [78.5066, 29.7538], [78.5065, 29.7538], [78.506, 29.7539], [78.5059, 29.7539], [78.5056, 29.7541], [78.505, 29.7543], [78.5049, 29.7543], [78.5048, 29.7543], [78.5044, 29.7544], [78.5043, 29.7544], [78.5042, 29.7545], [78.5041, 29.7545], [78.5037, 29.7546], [78.5033, 29.7547], [78.5032, 29.7547], [78.503, 29.7547], [78.5026, 29.7549], [78.5019, 29.7551], [78.5018, 29.7551], [78.5015, 29.7552], [78.5014, 29.7552], [78.501, 29.7553], [78.5007, 29.7554], [78.5003, 29.7555], [78.5, 29.7556], [78.4993, 29.7558], [78.4992, 29.7558], [78.4991, 29.7558], [78.499, 29.7558], [78.4986, 29.7559], [78.4978, 29.7562], [78.4977, 29.7562], [78.4974, 29.7563], [78.4973, 29.7563], [78.4972, 29.7563], [78.4966, 29.7564], [78.4965, 29.7564], [78.4962, 29.7565], [78.4957, 29.7567], [78.495, 29.7568], [78.4949, 29.7569], [78.4948, 29.7569], [78.4944, 29.7571], [78.4942, 29.7571], [78.4941, 29.7572], [78.494, 29.7572], [78.4939, 29.7572], [78.4936, 29.7573], [78.4935, 29.7574], [78.4934, 29.7574], [78.4933, 29.7575], [78.4928, 29.7576], [78.4924, 29.7577], [78.4923, 29.7578], [78.4922, 29.7578], [78.4921, 29.7578], [78.4918, 29.7579], [78.4914, 29.758], [78.4913, 29.758], [78.4912, 29.758], [78.4908, 29.7582], [78.4904, 29.7583]]], [[[78.4906, 29.7587], [78.4904, 29.759], [78.4912, 29.7593], [78.4912, 29.7594], [78.4916, 29.7597], [78.4917, 29.7597], [78.4933, 29.7597], [78.4934, 29.7597], [78.4943, 29.7596], [78.4953, 29.76], [78.4954, 29.7601], [78.4955, 29.7603], [78.4956, 29.7606], [78.4959, 29.7609], [78.4961, 29.7612], [78.4962, 29.7613], [78.4966, 29.7618], [78.4977, 29.7619], [78.4978, 29.7619], [78.4979, 29.7619], [78.498, 29.7618], [78.4986, 29.7619], [78.4993, 29.7621], [78.4994, 29.7621], [78.4995, 29.7622], [78.5, 29.7622], [78.5005, 29.7623], [78.5011, 29.7627], [78.5014, 29.7628], [78.5022, 29.7623], [78.5026, 29.7622], [78.5028, 29.7621], [78.5032, 29.7619], [78.5033, 29.7619], [78.504, 29.7617], [78.5041, 29.7617], [78.5042, 29.7617], [78.505, 29.7615], [78.5059, 29.7611], [78.5063, 29.7608], [78.5067, 29.7606], [78.5068, 29.7606], [78.5069, 29.7606], [78.5074, 29.7605], [78.5079, 29.7603], [78.5085, 29.76], [78.509, 29.7599], [78.4906, 29.7587]]], [[[78.4901, 29.7587], [78.4906, 29.7587], [78.4908, 29.7584], [78.4906, 29.7585], [78.4905, 29.7585], [78.4901, 29.7587]]], [[[78.509, 29.7599], [78.509, 29.7598], [78.509, 29.7599]]]]}, "properties": {"objectid": 129316, "statename": "UTTARAKHAND", "statecode": "5", "districtname": "PAURI GARHWAL", "districtcode": "61", "ulbname": "KOTDWARA", "ulbcode": "800319", "wardname": "DHRUVPUR", "wardcode": "19", "id": null, "status": "APPROVED", "misglobalid": null, "approved_by": null, "createdate": 1699081253000, "updateddate": 1716549612000, "globalid": null, "gisglobalid": "dRaaaQ6K-5cP5-PBaa-sn4d-P6o4ld45Qsl5", "remark": "", "st_area(shape)": 9.812221784431475e-05, "st_perimeter(shape)": 0.08636976095830105}}, {"type": "Feature", "geometry": {"type": "Polygon", "coordinates": [[[78.4877, 29.7496], [78.4884, 29.7501], [78.4888, 29.7505], [78.4891, 29.7508], [78.4893, 29.7509], [78.4897, 29.7509], [78.4902, 29.7508], [78.4906, 29.7507], [78.4916, 29.7505], [78.4919, 29.7504], [78.4923, 29.7501], [78.4929, 29.7501], [78.4932, 29.7501], [78.4939, 29.7501], [78.4943, 29.7501], [78.4948, 29.75], [78.4954, 29.7501], [78.4963, 29.75], [78.4972, 29.75], [78.4978, 29.7501], [78.4984, 29.7501], [78.4987, 29.7501], [78.499, 29.7502], [78.4993, 29.7501], [78.5002, 29.7498], [78.5009, 29.7496], [78.5012, 29.7496], [78.5026, 29.749], [78.5042, 29.7481], [78.5052, 29.7476], [78.5055, 29.7475], [78.5058, 29.7473], [78.506, 29.7472], [78.5063, 29.7471], [78.5065, 29.7471], [78.5068, 29.7471], [78.5071, 29.7471], [78.5072, 29.747], [78.5074, 29.7465], [78.5075, 29.7462], [78.5074, 29.746], [78.5072, 29.7458], [78.5072, 29.7456], [78.5072, 29.7454], [78.5074, 29.745], [78.5074, 29.7448], [78.5073, 29.7444], [78.5073, 29.744], [78.5072, 29.7437], [78.5072, 29.7434], [78.5072, 29.7433], [78.5072, 29.7431], [78.5072, 29.7429], [78.5073, 29.7427], [78.5073, 29.7425], [78.5073, 29.7423], [78.5073, 29.7421], [78.5073, 29.742], [78.5074, 29.7419], [78.5075, 29.7418], [78.5074, 29.7417], [78.5074, 29.7416], [78.5072, 29.7416], [78.5071, 29.7415], [78.5066, 29.7416], [78.5066, 29.7419], [78.5053, 29.7421], [78.5052, 29.7429], [78.5054, 29.744], [78.5049, 29.7441], [78.5047, 29.7442], [78.5042, 29.7443], [78.5028, 29.7448], [78.502, 29.745], [78.5017, 29.7451], [78.5014, 29.7451], [78.5009, 29.7452], [78.5, 29.7455], [78.4992, 29.7457], [78.4969, 29.7465], [78.4947, 29.7472], [78.4938, 29.7475], [78.4936, 29.7476], [78.4932, 29.7477], [78.4929, 29.7478], [78.4924, 29.748], [78.4919, 29.7482], [78.4914, 29.7485], [78.4911, 29.7487], [78.4907, 29.7489], [78.4902, 29.7492], [78.4897, 29.7494], [78.4895, 29.7495], [78.4894, 29.7494], [78.4893, 29.7494], [78.4892, 29.7495], [78.489, 29.7495], [78.4888, 29.7496], [78.4883, 29.7496], [78.488, 29.7495], [78.4877, 29.7496]]]}, "properties": {"objectid": 128143, "statename": "UTTARAKHAND", "statecode": "5", "districtname": "PAURI GARHWAL", "districtcode": "61", "ulbname": "KOTDWARA", "ulbcode": "800319", "wardname": "PADAMPURPRATHAM", "wardcode": "20", "id": null, "status": "APPROVED", "misglobalid": null, "approved_by": null, "createdate": 1698227902000, "updateddate": 1716549438000, "globalid": null, "gisglobalid": "l4QBRo44-aBlo-PKoa-sK45-caPl5l46m6ll", "remark": "", "st_area(shape)": 6.467367979540153e-05, "st_perimeter(shape)": 0.04976781375468817}}, {"type": "Feature", "geometry": {"type": "Polygon", "coordinates": [[[78.4992, 29.7555], [78.4992, 29.7556], [78.5033, 29.7546], [78.5042, 29.7544], [78.5047, 29.7543], [78.5057, 29.7538], [78.5064, 29.7536], [78.5071, 29.7536], [78.5076, 29.7535], [78.5076, 29.7531], [78.5077, 29.7529], [78.5079, 29.7524], [78.5082, 29.7522], [78.5081, 29.7519], [78.5077, 29.7516], [78.5076, 29.7515], [78.5073, 29.7512], [78.5072, 29.751], [78.5072, 29.7508], [78.5074, 29.7503], [78.5077, 29.7498], [78.5076, 29.7494], [78.5074, 29.7492], [78.5072, 29.749], [78.507, 29.7487], [78.507, 29.7485], [78.5072, 29.7483], [78.5074, 29.7482], [78.5071, 29.7479], [78.5069, 29.7476], [78.507, 29.7473], [78.5071, 29.7471], [78.5068, 29.7471], [78.5065, 29.7471], [78.5063, 29.7471], [78.506, 29.7472], [78.5058, 29.7473], [78.5055, 29.7475], [78.5052, 29.7476], [78.5042, 29.7481], [78.5026, 29.749], [78.5012, 29.7496], [78.5009, 29.7496], [78.5002, 29.7498], [78.4993, 29.7501], [78.499, 29.7502], [78.4987, 29.7501], [78.4984, 29.7501], [78.4978, 29.7501], [78.4972, 29.75], [78.4963, 29.75], [78.4954, 29.7501], [78.4948, 29.75], [78.4943, 29.7501], [78.4939, 29.7501], [78.4932, 29.7501], [78.4929, 29.7501], [78.493, 29.7502], [78.4931, 29.7504], [78.4935, 29.7507], [78.4939, 29.7509], [78.4941, 29.7511], [78.4943, 29.7513], [78.4946, 29.7514], [78.4949, 29.7515], [78.4952, 29.7516], [78.4954, 29.7517], [78.4957, 29.7517], [78.4958, 29.7516], [78.496, 29.7517], [78.4963, 29.7518], [78.4967, 29.7521], [78.4973, 29.7525], [78.4976, 29.7527], [78.4977, 29.7527], [78.4978, 29.7527], [78.4981, 29.7528], [78.4984, 29.7528], [78.4986, 29.7528], [78.4987, 29.7529], [78.4989, 29.7531], [78.499, 29.7532], [78.4991, 29.7535], [78.499, 29.7538], [78.499, 29.7539], [78.499, 29.7541], [78.499, 29.7542], [78.4991, 29.7545], [78.4992, 29.7546], [78.4991, 29.755], [78.4991, 29.7553], [78.4991, 29.7554], [78.4992, 29.7555]]]}, "properties": {"objectid": 128925, "statename": "UTTARAKHAND", "statecode": "5", "districtname": "PAURI GARHWAL", "districtcode": "61", "ulbname": "KOTDWARA", "ulbcode": "800319", "wardname": "PADAMPUR", "wardcode": "21", "id": null, "status": "APPROVED", "misglobalid": null, "approved_by": null, "createdate": 1698227944000, "updateddate": 1716549761000, "globalid": null, "gisglobalid": "BQlm5dRc-6cBo-PdBd-acn6-KRdo4oPsBosB", "remark": "", "st_area(shape)": 6.107916787790802e-05, "st_perimeter(shape)": 0.04118013278649146}}, {"type": "Feature", "geometry": {"type": "Polygon", "coordinates": [[[78.4877, 29.7496], [78.4875, 29.7497], [78.4874, 29.7496], [78.4871, 29.7496], [78.4868, 29.7495], [78.4866, 29.7494], [78.4864, 29.7493], [78.4863, 29.7492], [78.4861, 29.7491], [78.4859, 29.7489], [78.4857, 29.7488], [78.4855, 29.7486], [78.4854, 29.7485], [78.4853, 29.7484], [78.4851, 29.7482], [78.485, 29.7481], [78.4849, 29.7479], [78.4847, 29.7478], [78.4845, 29.7476], [78.4845, 29.7475], [78.4843, 29.7471], [78.4833, 29.7476], [78.4823, 29.748], [78.4812, 29.7482], [78.4806, 29.7492], [78.4804, 29.7505], [78.4806, 29.7512], [78.4808, 29.7524], [78.4808, 29.7528], [78.4815, 29.7545], [78.4822, 29.7555], [78.4832, 29.7561], [78.4848, 29.7568], [78.4862, 29.7575], [78.487, 29.7582], [78.4884, 29.759], [78.4896, 29.7585], [78.4925, 29.7575], [78.4932, 29.7572], [78.494, 29.757], [78.495, 29.7567], [78.4962, 29.7563], [78.4972, 29.756], [78.4992, 29.7556], [78.4991, 29.7554], [78.4991, 29.7553], [78.4991, 29.755], [78.4992, 29.7546], [78.4991, 29.7545], [78.499, 29.7542], [78.499, 29.7541], [78.499, 29.7539], [78.499, 29.7538], [78.4991, 29.7535], [78.499, 29.7532], [78.4989, 29.7531], [78.4987, 29.7529], [78.4986, 29.7528], [78.4984, 29.7528], [78.4981, 29.7528], [78.4978, 29.7527], [78.4977, 29.7527], [78.4976, 29.7527], [78.4973, 29.7525], [78.4967, 29.7521], [78.4963, 29.7518], [78.496, 29.7517], [78.4958, 29.7516], [78.4957, 29.7517], [78.4954, 29.7517], [78.4952, 29.7516], [78.4949, 29.7515], [78.4946, 29.7514], [78.4943, 29.7513], [78.4941, 29.7511], [78.4939, 29.7509], [78.4935, 29.7507], [78.4931, 29.7504], [78.493, 29.7502], [78.4929, 29.7501], [78.4923, 29.7501], [78.4919, 29.7504], [78.4916, 29.7505], [78.4906, 29.7507], [78.4902, 29.7508], [78.4897, 29.7509], [78.4893, 29.7509], [78.4891, 29.7508], [78.4888, 29.7505], [78.4884, 29.7501], [78.4877, 29.7496]]]}, "properties": {"objectid": 127747, "statename": "UTTARAKHAND", "statecode": "5", "districtname": "PAURI GARHWAL", "districtcode": "61", "ulbname": "KOTDWARA", "ulbcode": "800319", "wardname": "SIMBHALCHAUD", "wardcode": "22", "id": null, "status": "APPROVED", "misglobalid": null, "approved_by": null, "createdate": 1698228570000, "updateddate": 1716549713000, "globalid": null, "gisglobalid": "o5KB5R6R-4oKR-P4oK-s66P-sBlscRdRcBKd", "remark": "", "st_area(shape)": 0.00012540472410286295, "st_perimeter(shape)": 0.04963737469460918}}, {"type": "Feature", "geometry": {"type": "Polygon", "coordinates": [[[78.4843, 29.7471], [78.4845, 29.7475], [78.4845, 29.7476], [78.4847, 29.7478], [78.4849, 29.7479], [78.485, 29.7481], [78.4851, 29.7482], [78.4853, 29.7484], [78.4854, 29.7485], [78.4855, 29.7486], [78.4857, 29.7488], [78.4859, 29.7489], [78.4861, 29.7491], [78.4863, 29.7492], [78.4864, 29.7493], [78.4866, 29.7494], [78.4868, 29.7495], [78.4871, 29.7496], [78.4874, 29.7496], [78.4875, 29.7497], [78.4877, 29.7496], [78.488, 29.7495], [78.4883, 29.7496], [78.4888, 29.7496], [78.489, 29.7495], [78.4892, 29.7495], [78.4893, 29.7494], [78.4894, 29.7494], [78.4895, 29.7495], [78.4897, 29.7494], [78.4902, 29.7492], [78.4907, 29.7489], [78.4911, 29.7487], [78.4914, 29.7485], [78.4919, 29.7482], [78.4924, 29.748], [78.4929, 29.7478], [78.4932, 29.7477], [78.4936, 29.7476], [78.4938, 29.7475], [78.4947, 29.7472], [78.4969, 29.7465], [78.4992, 29.7457], [78.5, 29.7455], [78.5009, 29.7452], [78.5014, 29.7451], [78.5017, 29.7451], [78.502, 29.745], [78.5028, 29.7448], [78.5042, 29.7443], [78.5047, 29.7442], [78.5049, 29.7441], [78.5054, 29.744], [78.5052, 29.7429], [78.5053, 29.7421], [78.5052, 29.7421], [78.5051, 29.742], [78.5051, 29.7421], [78.5049, 29.7422], [78.5038, 29.742], [78.503, 29.7419], [78.5025, 29.7418], [78.5012, 29.7423], [78.5, 29.7408], [78.4997, 29.7409], [78.4995, 29.7409], [78.4993, 29.7409], [78.4992, 29.7409], [78.4991, 29.7409], [78.4989, 29.741], [78.4986, 29.7411], [78.4984, 29.7411], [78.4983, 29.7411], [78.4976, 29.7412], [78.4973, 29.7412], [78.497, 29.7412], [78.4967, 29.7412], [78.4961, 29.7413], [78.4958, 29.7414], [78.4954, 29.7416], [78.4952, 29.7418], [78.495, 29.742], [78.4949, 29.7421], [78.4947, 29.7422], [78.4946, 29.7423], [78.4946, 29.7424], [78.494, 29.7428], [78.4936, 29.743], [78.4931, 29.7432], [78.4925, 29.7435], [78.492, 29.7439], [78.4917, 29.744], [78.4903, 29.7445], [78.4893, 29.7447], [78.4882, 29.7452], [78.4872, 29.7457], [78.4863, 29.7462], [78.4859, 29.7464], [78.4849, 29.7469], [78.4843, 29.7471]]]}, "properties": {"objectid": 128144, "statename": "UTTARAKHAND", "statecode": "5", "districtname": "PAURI GARHWAL", "districtcode": "61", "ulbname": "KOTDWARA", "ulbcode": "800319", "wardname": "SHIBBUNAGAR", "wardcode": "23", "id": null, "status": "APPROVED", "misglobalid": null, "approved_by": null, "createdate": 1698228644000, "updateddate": 1716549585000, "globalid": null, "gisglobalid": "n6Ks4BBn-Rc54-PoBd-aaPB-nloBlcPa5K4l", "remark": "", "st_area(shape)": 8.236002840835902e-05, "st_perimeter(shape)": 0.048740362502541656}}, {"type": "Feature", "geometry": {"type": "Polygon", "coordinates": [[[78.5051, 29.742], [78.5052, 29.7421], [78.5053, 29.7421], [78.5066, 29.7419], [78.5066, 29.7416], [78.5071, 29.7415], [78.5072, 29.7416], [78.5074, 29.7416], [78.5074, 29.7417], [78.5075, 29.7418], [78.5079, 29.7416], [78.5082, 29.7415], [78.5085, 29.7415], [78.5094, 29.7415], [78.5094, 29.7412], [78.5093, 29.7411], [78.5089, 29.7411], [78.509, 29.7399], [78.5095, 29.7401], [78.5099, 29.7403], [78.5098, 29.7405], [78.5099, 29.741], [78.5112, 29.7406], [78.5113, 29.7408], [78.5113, 29.741], [78.512, 29.7411], [78.5126, 29.741], [78.5133, 29.7408], [78.5137, 29.7407], [78.5141, 29.7406], [78.5143, 29.7406], [78.5145, 29.7407], [78.5147, 29.7408], [78.5146, 29.7404], [78.5143, 29.7397], [78.5139, 29.739], [78.5137, 29.7386], [78.5135, 29.7382], [78.5131, 29.7379], [78.5129, 29.7378], [78.5125, 29.7378], [78.5122, 29.7376], [78.5116, 29.7373], [78.5113, 29.7372], [78.511, 29.7372], [78.5107, 29.7371], [78.5105, 29.7368], [78.5104, 29.7366], [78.5101, 29.7364], [78.5098, 29.7361], [78.5097, 29.7351], [78.5096, 29.7341], [78.5094, 29.7336], [78.5092, 29.7333], [78.5091, 29.7328], [78.5074, 29.7324], [78.5074, 29.733], [78.5069, 29.7355], [78.5053, 29.7355], [78.5043, 29.7356], [78.5043, 29.7357], [78.5036, 29.7359], [78.5029, 29.7367], [78.5031, 29.7376], [78.503, 29.738], [78.5036, 29.7386], [78.504, 29.739], [78.5047, 29.7414], [78.505, 29.7418], [78.5051, 29.742]]]}, "properties": {"objectid": 128146, "statename": "UTTARAKHAND", "statecode": "5", "districtname": "PAURI GARHWAL", "districtcode": "61", "ulbname": "KOTDWARA", "ulbcode": "800319", "wardname": "BALASAUD", "wardcode": "24", "id": null, "status": "APPROVED", "misglobalid": null, "approved_by": null, "createdate": 1698228705000, "updateddate": 1716549455000, "globalid": null, "gisglobalid": "5Ko6R6aB-caRl-Pml5-sBdn-l4scs6dRaKaR", "remark": "", "st_area(shape)": 5.749470682931268e-05, "st_perimeter(shape)": 0.03973238594717678}}, {"type": "Feature", "geometry": {"type": "Polygon", "coordinates": [[[78.5029, 29.7367], [78.5036, 29.7359], [78.5043, 29.7357], [78.5043, 29.7356], [78.5053, 29.7355], [78.5069, 29.7355], [78.5074, 29.733], [78.5074, 29.7324], [78.5091, 29.7328], [78.5086, 29.7322], [78.5079, 29.7318], [78.5035, 29.7338], [78.499, 29.7365], [78.4995, 29.7374], [78.5001, 29.7405], [78.5011, 29.7417], [78.5022, 29.7415], [78.5028, 29.7415], [78.5035, 29.7415], [78.5039, 29.7417], [78.5043, 29.7418], [78.5051, 29.742], [78.505, 29.7418], [78.5047, 29.7414], [78.504, 29.739], [78.5036, 29.7386], [78.503, 29.738], [78.5031, 29.7376], [78.5029, 29.7367]]]}, "properties": {"objectid": 128145, "statename": "UTTARAKHAND", "statecode": "5", "districtname": "PAURI GARHWAL", "districtcode": "61", "ulbname": "KOTDWARA", "ulbcode": "800319", "wardname": "RATANPURRSUKHRO", "wardcode": "25", "id": null, "status": "APPROVED", "misglobalid": null, "approved_by": null, "createdate": 1700543782000, "updateddate": 1716549768000, "globalid": null, "gisglobalid": "KQo4o6m5-c6ln-PlmR-RdBK-Rn5dBBdoKs5m", "remark": "", "st_area(shape)": 3.67101323354425e-05, "st_perimeter(shape)": 0.036790251675485164}}, {"type": "Feature", "geometry": {"type": "Polygon", "coordinates": [[[78.4993, 29.7398], [78.4988, 29.7376], [78.496, 29.7388], [78.4895, 29.741], [78.4865, 29.7422], [78.4846, 29.7427], [78.4819, 29.7426], [78.4816, 29.7458], [78.4814, 29.7476], [78.4812, 29.7482], [78.4823, 29.748], [78.4833, 29.7476], [78.4843, 29.7471], [78.4849, 29.7469], [78.4859, 29.7464], [78.4863, 29.7462], [78.4872, 29.7457], [78.4882, 29.7452], [78.4893, 29.7447], [78.4903, 29.7445], [78.4917, 29.744], [78.492, 29.7439], [78.4925, 29.7435], [78.4931, 29.7432], [78.4936, 29.743], [78.494, 29.7428], [78.4946, 29.7424], [78.4946, 29.7423], [78.4947, 29.7422], [78.4949, 29.7421], [78.495, 29.742], [78.4952, 29.7418], [78.4954, 29.7416], [78.4958, 29.7414], [78.4961, 29.7413], [78.4967, 29.7412], [78.497, 29.7412], [78.4973, 29.7412], [78.4976, 29.7412], [78.4983, 29.7411], [78.4984, 29.7411], [78.4986, 29.7411], [78.4989, 29.741], [78.4991, 29.7409], [78.4992, 29.7409], [78.4993, 29.7409], [78.4995, 29.7409], [78.4997, 29.7409], [78.4993, 29.7398]]]}, "properties": {"objectid": 129768, "statename": "UTTARAKHAND", "statecode": "5", "districtname": "PAURI GARHWAL", "districtcode": "61", "ulbname": "KOTDWARA", "ulbcode": "800319", "wardname": "BALBHADRAPUR", "wardcode": "26", "id": null, "status": "APPROVED", "misglobalid": null, "approved_by": null, "createdate": 1700543628000, "updateddate": 1716549776000, "globalid": null, "gisglobalid": "o5nBKPcP-doQn-PnR5-anc5-cn66BlKBPlPs", "remark": "", "st_area(shape)": 6.557952196449595e-05, "st_perimeter(shape)": 0.0472006882504566}}, {"type": "Feature", "geometry": {"type": "Polygon", "coordinates": [[[78.4685, 29.7488], [78.4685, 29.749], [78.4671, 29.7515], [78.4648, 29.7527], [78.4643, 29.7539], [78.4673, 29.7539], [78.468, 29.7537], [78.4687, 29.7537], [78.4692, 29.7538], [78.4695, 29.7538], [78.4701, 29.7537], [78.4705, 29.7537], [78.4709, 29.7536], [78.4712, 29.7536], [78.4716, 29.7537], [78.4718, 29.7537], [78.4722, 29.7537], [78.4724, 29.7537], [78.4726, 29.7537], [78.4728, 29.7538], [78.473, 29.754], [78.4732, 29.754], [78.4734, 29.7542], [78.4737, 29.7541], [78.4735, 29.7538], [78.4736, 29.7537], [78.4735, 29.7535], [78.4734, 29.7534], [78.4735, 29.7533], [78.4736, 29.7533], [78.4737, 29.7532], [78.4738, 29.7532], [78.4739, 29.7531], [78.474, 29.753], [78.4741, 29.7529], [78.4741, 29.7527], [78.4742, 29.7525], [78.4742, 29.7524], [78.4743, 29.7524], [78.4745, 29.7523], [78.4746, 29.7522], [78.4748, 29.7522], [78.4749, 29.7523], [78.475, 29.7523], [78.4751, 29.7522], [78.4752, 29.7522], [78.4753, 29.7521], [78.4754, 29.7521], [78.4755, 29.7521], [78.4756, 29.7521], [78.4757, 29.7521], [78.4758, 29.7521], [78.4759, 29.7521], [78.476, 29.752], [78.4761, 29.7521], [78.4763, 29.7522], [78.4764, 29.7521], [78.4763, 29.7519], [78.4764, 29.7517], [78.4764, 29.7514], [78.4764, 29.7511], [78.4765, 29.7509], [78.4765, 29.7507], [78.4764, 29.7505], [78.4764, 29.7503], [78.4764, 29.7502], [78.4766, 29.7501], [78.4769, 29.75], [78.4771, 29.7499], [78.4774, 29.7499], [78.4786, 29.7501], [78.4801, 29.7503], [78.4802, 29.7493], [78.4809, 29.7483], [78.4811, 29.7476], [78.4813, 29.7459], [78.4814, 29.7424], [78.4799, 29.7414], [78.4785, 29.7413], [78.4761, 29.7416], [78.4738, 29.742], [78.471, 29.7432], [78.4691, 29.744], [78.4686, 29.7443], [78.4684, 29.7444], [78.468, 29.7445], [78.4677, 29.7447], [78.4673, 29.7445], [78.4667, 29.7446], [78.4657, 29.7452], [78.4633, 29.7458], [78.4636, 29.7458], [78.4638, 29.7458], [78.4641, 29.7457], [78.4644, 29.7458], [78.4646, 29.7457], [78.4649, 29.7456], [78.4653, 29.7455], [78.4657, 29.7454], [78.4661, 29.7454], [78.4667, 29.7453], [78.4674, 29.7451], [78.4677, 29.7454], [78.468, 29.7456], [78.4682, 29.7462], [78.4685, 29.7488]], [[78.4685, 29.7488], [78.4684, 29.7476], [78.4687, 29.7485], [78.4687, 29.7489], [78.4685, 29.7488]]]}, "properties": {"objectid": 133309, "statename": "UTTARAKHAND", "statecode": "5", "districtname": "PAURI GARHWAL", "districtcode": "61", "ulbname": "KOTDWARA", "ulbcode": "800319", "wardname": "DURGAPURI", "wardcode": "27", "id": null, "status": "APPROVED", "misglobalid": null, "approved_by": null, "createdate": 1700543369000, "updateddate": 1716549838000, "globalid": null, "gisglobalid": "clKoaa46-P6al-P55P-s5PR-dscBad45mKaR", "remark": "", "st_area(shape)": 0.00013550580098506558, "st_perimeter(shape)": 0.06550223506496622}}, {"type": "Feature", "geometry": {"type": "Polygon", "coordinates": [[[78.4776, 29.7674], [78.4781, 29.7676], [78.4786, 29.7675], [78.479, 29.7672], [78.4791, 29.7672], [78.4793, 29.7671], [78.4794, 29.7671], [78.48, 29.7667], [78.4807, 29.766], [78.4808, 29.7658], [78.481, 29.7657], [78.4812, 29.7655], [78.4815, 29.7652], [78.4818, 29.7652], [78.4819, 29.7652], [78.482, 29.7651], [78.4822, 29.7651], [78.4828, 29.765], [78.483, 29.7648], [78.4832, 29.7646], [78.4837, 29.7644], [78.4839, 29.7643], [78.484, 29.7643], [78.4843, 29.7641], [78.4845, 29.764], [78.4848, 29.7639], [78.4852, 29.7638], [78.4855, 29.7637], [78.4859, 29.7637], [78.4861, 29.7636], [78.4873, 29.7632], [78.4875, 29.7628], [78.4876, 29.7626], [78.4877, 29.7626], [78.4881, 29.7624], [78.4883, 29.7623], [78.4884, 29.7623], [78.489, 29.7623], [78.4891, 29.7623], [78.4895, 29.762], [78.4897, 29.762], [78.4902, 29.7617], [78.4896, 29.7612], [78.4896, 29.7611], [78.4889, 29.7604], [78.4888, 29.7603], [78.4885, 29.76], [78.4884, 29.7599], [78.4877, 29.7595], [78.4874, 29.7594], [78.4871, 29.7593], [78.487, 29.7592], [78.4865, 29.759], [78.4863, 29.7588], [78.486, 29.7587], [78.4859, 29.7587], [78.4853, 29.7584], [78.4852, 29.7584], [78.485, 29.7582], [78.4845, 29.758], [78.4841, 29.758], [78.4839, 29.7578], [78.4835, 29.7576], [78.4834, 29.7576], [78.4824, 29.7569], [78.4823, 29.7569], [78.4821, 29.7567], [78.482, 29.7567], [78.4814, 29.7558], [78.4812, 29.7555], [78.481, 29.7552], [78.4809, 29.7551], [78.4809, 29.7549], [78.4808, 29.7548], [78.4802, 29.754], [78.4802, 29.7539], [78.48, 29.7534], [78.48, 29.7533], [78.4797, 29.753], [78.4796, 29.7527], [78.4795, 29.7525], [78.4795, 29.7524], [78.4793, 29.752], [78.4792, 29.7515], [78.4792, 29.7514], [78.479, 29.7511], [78.4789, 29.7509], [78.4788, 29.7509], [78.478, 29.7508], [78.4775, 29.7509], [78.4773, 29.751], [78.4772, 29.7514], [78.4772, 29.7515], [78.4772, 29.7518], [78.4771, 29.7519], [78.4769, 29.7525], [78.4768, 29.7527], [78.4767, 29.7528], [78.4766, 29.7531], [78.4764, 29.7533], [78.4764, 29.7534], [78.476, 29.7536], [78.4757, 29.7536], [78.4756, 29.7536], [78.4754, 29.7535], [78.4752, 29.7535], [78.4751, 29.7535], [78.475, 29.7535], [78.4746, 29.7538], [78.4744, 29.7544], [78.474, 29.7546], [78.4739, 29.7547], [78.4737, 29.7548], [78.4733, 29.7555], [78.4732, 29.7558], [78.4731, 29.756], [78.4731, 29.7562], [78.473, 29.7564], [78.4729, 29.7567], [78.4728, 29.7572], [78.4726, 29.7574], [78.4725, 29.7577], [78.4723, 29.7581], [78.4718, 29.7592], [78.4713, 29.7618], [78.4707, 29.7621], [78.4704, 29.7635], [78.4703, 29.7639], [78.4707, 29.7638], [78.4708, 29.7636], [78.4713, 29.7628], [78.4716, 29.7627], [78.4721, 29.7624], [78.4722, 29.7623], [78.4725, 29.7622], [78.4727, 29.7622], [78.4735, 29.7618], [78.4738, 29.7617], [78.4739, 29.7617], [78.4748, 29.7616], [78.4753, 29.7617], [78.4754, 29.7617], [78.4755, 29.7617], [78.4757, 29.7618], [78.4759, 29.7618], [78.476, 29.7618], [78.4765, 29.762], [78.4769, 29.7621], [78.4774, 29.7626], [78.4773, 29.7637], [78.4773, 29.7646], [78.4773, 29.7647], [78.4774, 29.7661], [78.4776, 29.7668], [78.4776, 29.7674]]]}, "properties": {"objectid": 130912, "statename": "UTTARAKHAND", "statecode": "5", "districtname": "PAURI GARHWAL", "districtcode": "61", "ulbname": "KOTDWARA", "ulbcode": "800319", "wardname": "NIMBUCHAUD", "wardcode": "28", "id": null, "status": "APPROVED", "misglobalid": null, "approved_by": null, "createdate": 1699082192000, "updateddate": 1716549825000, "globalid": null, "gisglobalid": "6aRc4PlP-alca-P65l-sos4-5n5Ka5oP5ncd", "remark": "", "st_area(shape)": 0.00014287057352606675, "st_perimeter(shape)": 0.061665576028419614}}, {"type": "Feature", "geometry": {"type": "Polygon", "coordinates": [[[78.4679, 29.7659], [78.4689, 29.7653], [78.4688, 29.7651], [78.4688, 29.765], [78.4688, 29.7648], [78.4688, 29.7646], [78.4689, 29.7645], [78.469, 29.7644], [78.4691, 29.7643], [78.4693, 29.7642], [78.4695, 29.7641], [78.4697, 29.7641], [78.4698, 29.764], [78.47, 29.7638], [78.4699, 29.7636], [78.4698, 29.7634], [78.4698, 29.7632], [78.4699, 29.7632], [78.4702, 29.7631], [78.4703, 29.7631], [78.4704, 29.763], [78.4704, 29.7629], [78.4705, 29.7628], [78.4705, 29.7627], [78.4704, 29.7625], [78.4702, 29.7624], [78.4701, 29.7624], [78.47, 29.7622], [78.4699, 29.7621], [78.4699, 29.762], [78.47, 29.7618], [78.4702, 29.7617], [78.4704, 29.7617], [78.4706, 29.7616], [78.4707, 29.7616], [78.4708, 29.7616], [78.4711, 29.7616], [78.4713, 29.7611], [78.4713, 29.7609], [78.4713, 29.7607], [78.4715, 29.7606], [78.4716, 29.7606], [78.4718, 29.7605], [78.4718, 29.7604], [78.4717, 29.7603], [78.4716, 29.7601], [78.4715, 29.7598], [78.4713, 29.7598], [78.4713, 29.7597], [78.4711, 29.7595], [78.4711, 29.7593], [78.4714, 29.7592], [78.4715, 29.7589], [78.4716, 29.7588], [78.4717, 29.7587], [78.4718, 29.7586], [78.4719, 29.7584], [78.4719, 29.7582], [78.4719, 29.7581], [78.472, 29.7579], [78.4721, 29.7578], [78.4722, 29.7577], [78.4722, 29.7575], [78.4721, 29.7574], [78.4721, 29.7572], [78.472, 29.757], [78.472, 29.7569], [78.472, 29.7568], [78.4721, 29.7565], [78.4721, 29.7564], [78.4721, 29.7563], [78.4722, 29.7561], [78.4722, 29.756], [78.4722, 29.7559], [78.4723, 29.7558], [78.4725, 29.7555], [78.4725, 29.7554], [78.4725, 29.7553], [78.4725, 29.755], [78.4726, 29.7549], [78.4726, 29.7548], [78.4727, 29.7546], [78.4728, 29.7545], [78.4726, 29.7543], [78.4722, 29.7542], [78.472, 29.7543], [78.4716, 29.7543], [78.4714, 29.7541], [78.471, 29.7539], [78.471, 29.754], [78.4705, 29.7541], [78.4703, 29.7542], [78.4699, 29.7541], [78.4699, 29.7543], [78.4686, 29.7543], [78.4679, 29.7543], [78.4672, 29.7543], [78.4637, 29.7544], [78.4631, 29.7591], [78.4653, 29.7648], [78.4667, 29.7669], [78.4679, 29.7659]]]}, "properties": {"objectid": 130913, "statename": "UTTARAKHAND", "statecode": "5", "districtname": "PAURI GARHWAL", "districtcode": "61", "ulbname": "KOTDWARA", "ulbcode": "800319", "wardname": "GHAMANDPUR", "wardcode": "29", "id": null, "status": "APPROVED", "misglobalid": null, "approved_by": null, "createdate": 1698228840000, "updateddate": 1716549815000, "globalid": null, "gisglobalid": "RKnRcRRm-oKKP-Pddo-Qns5-dcQQdl4oaQ5o", "remark": "", "st_area(shape)": 8.190207952862517e-05, "st_perimeter(shape)": 0.040236594406895275}}, {"type": "Feature", "geometry": {"type": "Polygon", "coordinates": [[[78.4751, 29.7673], [78.4754, 29.7672], [78.4762, 29.7669], [78.4761, 29.7647], [78.4761, 29.7642], [78.4761, 29.7638], [78.4761, 29.7637], [78.4759, 29.7632], [78.4753, 29.7632], [78.4744, 29.7633], [78.4728, 29.7633], [78.4723, 29.7637], [78.4723, 29.7638], [78.4717, 29.7642], [78.4716, 29.7642], [78.4709, 29.7649], [78.47, 29.7655], [78.4699, 29.7655], [78.4697, 29.7657], [78.4691, 29.766], [78.4674, 29.767], [78.4661, 29.7673], [78.4658, 29.7668], [78.4654, 29.766], [78.4642, 29.7648], [78.4637, 29.7646], [78.4632, 29.7646], [78.4604, 29.7646], [78.4599, 29.7645], [78.4596, 29.7642], [78.459, 29.7642], [78.4587, 29.7644], [78.4583, 29.7645], [78.4574, 29.7648], [78.4572, 29.7648], [78.457, 29.7649], [78.4564, 29.7653], [78.455, 29.7665], [78.455, 29.7675], [78.4555, 29.7683], [78.4555, 29.7684], [78.4556, 29.7697], [78.4556, 29.7698], [78.4556, 29.77], [78.4557, 29.7706], [78.4557, 29.7707], [78.4562, 29.772], [78.4562, 29.7722], [78.4564, 29.7724], [78.4566, 29.7734], [78.4566, 29.7736], [78.4567, 29.7743], [78.4567, 29.7744], [78.4568, 29.7751], [78.4568, 29.7753], [78.4567, 29.7759], [78.4567, 29.7772], [78.4568, 29.7792], [78.4567, 29.7797], [78.4567, 29.7799], [78.4568, 29.7801], [78.4571, 29.7824], [78.4571, 29.7831], [78.4577, 29.7842], [78.459, 29.7791], [78.4592, 29.7787], [78.4595, 29.778], [78.4602, 29.7762], [78.4603, 29.7761], [78.4608, 29.7746], [78.4609, 29.7742], [78.4612, 29.7739], [78.4613, 29.7735], [78.4616, 29.7731], [78.4624, 29.7726], [78.4629, 29.7722], [78.4631, 29.772], [78.4633, 29.7719], [78.4646, 29.7709], [78.4652, 29.7705], [78.4667, 29.7703], [78.467, 29.7702], [78.4674, 29.7702], [78.4689, 29.7698], [78.4691, 29.7698], [78.4704, 29.7693], [78.4705, 29.7693], [78.4712, 29.7691], [78.4714, 29.769], [78.4724, 29.7687], [78.4731, 29.7684], [78.4733, 29.7682], [78.4735, 29.7681], [78.4737, 29.7681], [78.474, 29.768], [78.4745, 29.7678], [78.4751, 29.7673]]]}, "properties": {"objectid": 133310, "statename": "UTTARAKHAND", "statecode": "5", "districtname": "PAURI GARHWAL", "districtcode": "61", "ulbname": "KOTDWARA", "ulbcode": "800319", "wardname": "MAVAKOTGORAKHPUR", "wardcode": "30", "id": null, "status": "APPROVED", "misglobalid": null, "approved_by": null, "createdate": 1699082369000, "updateddate": 1716549468000, "globalid": null, "gisglobalid": "oKaRnRPa-aBdd-PBdm-QQ6s-nssacosa5c6R", "remark": "", "st_area(shape)": 0.00014746455634917472, "st_perimeter(shape)": 0.07418347941000045}}, {"type": "Feature", "geometry": {"type": "Polygon", "coordinates": [[[78.4482, 29.7586], [78.4528, 29.7657], [78.4536, 29.7657], [78.4543, 29.7657], [78.4547, 29.7656], [78.4548, 29.7655], [78.455, 29.7653], [78.4554, 29.7648], [78.4558, 29.7644], [78.457, 29.7642], [78.4573, 29.7642], [78.4578, 29.7637], [78.4653, 29.7648], [78.4631, 29.7591], [78.4637, 29.7544], [78.4639, 29.7526], [78.4638, 29.7526], [78.4633, 29.7527], [78.463, 29.7527], [78.4629, 29.7527], [78.4628, 29.7527], [78.4627, 29.7527], [78.4627, 29.7528], [78.4626, 29.7528], [78.4625, 29.7528], [78.4624, 29.7528], [78.4623, 29.7528], [78.4622, 29.7528], [78.4621, 29.7528], [78.462, 29.7529], [78.4619, 29.7529], [78.4618, 29.7529], [78.4617, 29.753], [78.4617, 29.7531], [78.4616, 29.7531], [78.4616, 29.7532], [78.4616, 29.7533], [78.4615, 29.7533], [78.4608, 29.7535], [78.4604, 29.7537], [78.4601, 29.7538], [78.4597, 29.754], [78.4595, 29.754], [78.4591, 29.7541], [78.4588, 29.7542], [78.4586, 29.7543], [78.4583, 29.7544], [78.457, 29.7548], [78.4569, 29.7549], [78.4568, 29.7549], [78.4566, 29.755], [78.4563, 29.755], [78.456, 29.7551], [78.4558, 29.7553], [78.4556, 29.7554], [78.4552, 29.7555], [78.4547, 29.7555], [78.4546, 29.7555], [78.4544, 29.7557], [78.4542, 29.7557], [78.4539, 29.7558], [78.4532, 29.7559], [78.453, 29.7561], [78.4527, 29.7563], [78.4524, 29.7564], [78.4521, 29.7566], [78.4516, 29.7568], [78.4513, 29.7572], [78.4511, 29.7574], [78.4508, 29.7575], [78.4506, 29.7575], [78.4502, 29.7576], [78.4482, 29.7586]]]}, "properties": {"objectid": 130914, "statename": "UTTARAKHAND", "statecode": "5", "districtname": "PAURI GARHWAL", "districtcode": "61", "ulbname": "KOTDWARA", "ulbcode": "800319", "wardname": "PADAMPURMOTADHANK", "wardcode": "31", "id": null, "status": "APPROVED", "misglobalid": null, "approved_by": null, "createdate": 1698228915000, "updateddate": 1716549803000, "globalid": null, "gisglobalid": "Qc6cn5sc-Qc66-PKdP-aRda-aKsPm55nlmP5", "remark": "", "st_area(shape)": 0.00013359088583652566, "st_perimeter(shape)": 0.05155784878787209}}, {"type": "Feature", "geometry": {"type": "Polygon", "coordinates": [[[78.4482, 29.755], [78.4482, 29.7586], [78.4502, 29.7576], [78.4506, 29.7575], [78.4508, 29.7575], [78.4511, 29.7574], [78.4513, 29.7572], [78.4516, 29.7568], [78.4521, 29.7566], [78.4524, 29.7564], [78.4527, 29.7563], [78.453, 29.7561], [78.4532, 29.7559], [78.4539, 29.7558], [78.4542, 29.7557], [78.4544, 29.7557], [78.4546, 29.7555], [78.4547, 29.7555], [78.4552, 29.7555], [78.4556, 29.7554], [78.4558, 29.7553], [78.456, 29.7551], [78.4563, 29.755], [78.4566, 29.755], [78.4568, 29.7549], [78.4569, 29.7549], [78.457, 29.7548], [78.4583, 29.7544], [78.4586, 29.7543], [78.4588, 29.7542], [78.4591, 29.7541], [78.4595, 29.754], [78.4597, 29.754], [78.4601, 29.7538], [78.4604, 29.7537], [78.4608, 29.7535], [78.4615, 29.7533], [78.4616, 29.7533], [78.4616, 29.7532], [78.4616, 29.7531], [78.4617, 29.7531], [78.4617, 29.753], [78.4618, 29.7529], [78.4619, 29.7529], [78.462, 29.7529], [78.4621, 29.7528], [78.4622, 29.7528], [78.4623, 29.7528], [78.4624, 29.7528], [78.4625, 29.7528], [78.4626, 29.7528], [78.4627, 29.7528], [78.4627, 29.7527], [78.4628, 29.7527], [78.4629, 29.7527], [78.463, 29.7527], [78.4633, 29.7527], [78.4638, 29.7526], [78.4639, 29.7526], [78.4663, 29.7513], [78.4681, 29.749], [78.4678, 29.7477], [78.4675, 29.7459], [78.4675, 29.7457], [78.4672, 29.7456], [78.4661, 29.7458], [78.4656, 29.7459], [78.4652, 29.746], [78.465, 29.7459], [78.4649, 29.7458], [78.4646, 29.746], [78.4645, 29.7462], [78.4641, 29.7462], [78.4637, 29.7463], [78.4636, 29.7462], [78.4632, 29.7461], [78.4631, 29.7461], [78.4622, 29.7468], [78.4619, 29.7469], [78.4615, 29.7469], [78.4606, 29.747], [78.4599, 29.7474], [78.459, 29.7479], [78.4579, 29.7488], [78.4561, 29.75], [78.4547, 29.751], [78.4518, 29.7529], [78.4482, 29.755]]]}, "properties": {"objectid": 130915, "statename": "UTTARAKHAND", "statecode": "5", "districtname": "PAURI GARHWAL", "districtcode": "61", "ulbname": "KOTDWARA", "ulbcode": "800319", "wardname": "SHIVRAJPUR", "wardcode": "32", "id": null, "status": "APPROVED", "misglobalid": null, "approved_by": null, "createdate": 1700544421000, "updateddate": 1716362627000, "globalid": null, "gisglobalid": "l5PBnnan-Romd-Pn5n-sd55-oadsBmoomonB", "remark": "", "st_area(shape)": 0.00010127144080127994, "st_perimeter(shape)": 0.052060202736794334}}, {"type": "Feature", "geometry": {"type": "Polygon", "coordinates": [[[78.4352, 29.7645], [78.4351, 29.7647], [78.4357, 29.7653], [78.4372, 29.7671], [78.4354, 29.7689], [78.4346, 29.7696], [78.4335, 29.7707], [78.433, 29.771], [78.4351, 29.7734], [78.4334, 29.7748], [78.4319, 29.7756], [78.43, 29.7764], [78.4295, 29.7761], [78.4276, 29.7783], [78.4232, 29.7766], [78.4206, 29.7803], [78.4198, 29.7818], [78.4205, 29.7818], [78.421, 29.7817], [78.4215, 29.7819], [78.4219, 29.7823], [78.4219, 29.7826], [78.4218, 29.783], [78.4218, 29.7836], [78.4219, 29.7837], [78.4223, 29.7837], [78.4229, 29.7834], [78.4235, 29.783], [78.4235, 29.7828], [78.4235, 29.7827], [78.4234, 29.7825], [78.4235, 29.7823], [78.4239, 29.7821], [78.4243, 29.7821], [78.4247, 29.7819], [78.4251, 29.7817], [78.4255, 29.7817], [78.4256, 29.7819], [78.4256, 29.782], [78.4254, 29.7822], [78.4252, 29.7824], [78.4253, 29.7827], [78.4254, 29.7828], [78.4255, 29.783], [78.4255, 29.7832], [78.4256, 29.7835], [78.4257, 29.7837], [78.426, 29.7835], [78.4263, 29.7835], [78.4267, 29.7836], [78.427, 29.7833], [78.4271, 29.783], [78.4274, 29.7828], [78.4278, 29.7828], [78.4281, 29.7828], [78.4283, 29.783], [78.4287, 29.7832], [78.4291, 29.7833], [78.4291, 29.7834], [78.4294, 29.7837], [78.4296, 29.7839], [78.4297, 29.7841], [78.4298, 29.7843], [78.43, 29.7844], [78.4311, 29.7847], [78.4321, 29.7844], [78.4326, 29.7847], [78.4357, 29.7819], [78.44, 29.7785], [78.4413, 29.7801], [78.4463, 29.7772], [78.4464, 29.7772], [78.4446, 29.7753], [78.4486, 29.7741], [78.4548, 29.7717], [78.4545, 29.7708], [78.4547, 29.7699], [78.4547, 29.7693], [78.4544, 29.7679], [78.4528, 29.7657], [78.4482, 29.7586], [78.4445, 29.76], [78.4396, 29.7621], [78.437, 29.7637], [78.4355, 29.7644], [78.4352, 29.7645]]]}, "properties": {"objectid": 133311, "statename": "UTTARAKHAND", "statecode": "5", "districtname": "PAURI GARHWAL", "districtcode": "61", "ulbname": "KOTDWARA", "ulbcode": "800319", "wardname": "HALDUKHATA", "wardcode": "33", "id": null, "status": "APPROVED", "misglobalid": null, "approved_by": null, "createdate": 1698228965000, "updateddate": 1716362615000, "globalid": null, "gisglobalid": "cdK5ocsm-5dQm-P54a-QQQ4-acKRPdQln566", "remark": "", "st_area(shape)": 0.0003834613154479351, "st_perimeter(shape)": 0.11190621758388315}}, {"type": "Feature", "geometry": {"type": "Polygon", "coordinates": [[[78.4577, 29.7924], [78.4577, 29.7921], [78.4573, 29.791], [78.4568, 29.7902], [78.4567, 29.7899], [78.4562, 29.7895], [78.4558, 29.7891], [78.4557, 29.7888], [78.4556, 29.7886], [78.4554, 29.7884], [78.455, 29.788], [78.4548, 29.7878], [78.4544, 29.7873], [78.4542, 29.7869], [78.4543, 29.7863], [78.4544, 29.7854], [78.4546, 29.7849], [78.4546, 29.7848], [78.4547, 29.7845], [78.4551, 29.7839], [78.4553, 29.7837], [78.4554, 29.7836], [78.4554, 29.7834], [78.4555, 29.7831], [78.4555, 29.7824], [78.4554, 29.7809], [78.4552, 29.7805], [78.4551, 29.7803], [78.4551, 29.7802], [78.4551, 29.7799], [78.455, 29.7789], [78.4551, 29.7785], [78.4552, 29.778], [78.4553, 29.7774], [78.4554, 29.7765], [78.4554, 29.7764], [78.4554, 29.7759], [78.4554, 29.7758], [78.4554, 29.7754], [78.4553, 29.7753], [78.4552, 29.7747], [78.4551, 29.7738], [78.455, 29.7734], [78.4549, 29.773], [78.4549, 29.7728], [78.4545, 29.7723], [78.4542, 29.7724], [78.4539, 29.7726], [78.4538, 29.7726], [78.4532, 29.7728], [78.453, 29.773], [78.4526, 29.7731], [78.4515, 29.7736], [78.4511, 29.7738], [78.4508, 29.7739], [78.4507, 29.774], [78.4503, 29.7742], [78.4496, 29.7743], [78.4495, 29.7743], [78.4484, 29.7746], [78.4472, 29.775], [78.4463, 29.7751], [78.4456, 29.7755], [78.446, 29.7758], [78.447, 29.7769], [78.4474, 29.7771], [78.4474, 29.7772], [78.4479, 29.7774], [78.4489, 29.7787], [78.4489, 29.7793], [78.4491, 29.78], [78.4496, 29.7806], [78.4498, 29.7814], [78.4499, 29.7822], [78.45, 29.783], [78.4501, 29.784], [78.4498, 29.7841], [78.4493, 29.7846], [78.4484, 29.7852], [78.4476, 29.7855], [78.4466, 29.7863], [78.4463, 29.787], [78.4456, 29.7879], [78.4451, 29.7878], [78.4443, 29.7876], [78.4428, 29.7879], [78.4415, 29.7883], [78.4414, 29.7887], [78.441, 29.7893], [78.4407, 29.7897], [78.4403, 29.7903], [78.4411, 29.7898], [78.4415, 29.7895], [78.4419, 29.7895], [78.442, 29.7895], [78.443, 29.7895], [78.4441, 29.7896], [78.4452, 29.7897], [78.4461, 29.7895], [78.4467, 29.7894], [78.4471, 29.7892], [78.4472, 29.7892], [78.4475, 29.7892], [78.4477, 29.7892], [78.4484, 29.7891], [78.4493, 29.7884], [78.45, 29.7883], [78.4509, 29.7879], [78.451, 29.7879], [78.4516, 29.788], [78.4519, 29.788], [78.4524, 29.7881], [78.4533, 29.7885], [78.4537, 29.7887], [78.454, 29.7888], [78.4541, 29.7888], [78.4546, 29.7891], [78.4552, 29.79], [78.4553, 29.7901], [78.4557, 29.7906], [78.4563, 29.7913], [78.4566, 29.7918], [78.4572, 29.7924], [78.4577, 29.7924]]]}, "properties": {"objectid": 150607, "statename": "UTTARAKHAND", "statecode": "5", "districtname": "PAURI GARHWAL", "districtcode": "61", "ulbname": "KOTDWARA", "ulbcode": "800319", "wardname": "UDAYRAMPURKALALGHATI", "wardcode": "34", "id": null, "status": "APPROVED", "misglobalid": null, "approved_by": null, "createdate": 1699082753000, "updateddate": 1716362593000, "globalid": null, "gisglobalid": "mK5Kmlms-lQcB-P56Q-slsK-B6ldQlcnll6B", "remark": "", "st_area(shape)": 0.00011730736221705391, "st_perimeter(shape)": 0.07416805954585062}}, {"type": "Feature", "geometry": {"type": "Polygon", "coordinates": [[[78.4208, 29.785], [78.4237, 29.7838], [78.4247, 29.7834], [78.4261, 29.7848], [78.4268, 29.7852], [78.4275, 29.7857], [78.4281, 29.7859], [78.4289, 29.7862], [78.4295, 29.7858], [78.4301, 29.7858], [78.4305, 29.786], [78.431, 29.7864], [78.4315, 29.7868], [78.4319, 29.787], [78.4325, 29.7875], [78.433, 29.7878], [78.4341, 29.7881], [78.4356, 29.7884], [78.4367, 29.7883], [78.4373, 29.7883], [78.4376, 29.7884], [78.4378, 29.7884], [78.439, 29.7885], [78.4394, 29.7885], [78.4398, 29.7882], [78.4399, 29.7901], [78.4403, 29.7894], [78.4407, 29.7891], [78.441, 29.7889], [78.4412, 29.7889], [78.441, 29.7887], [78.4409, 29.7883], [78.441, 29.788], [78.4411, 29.7878], [78.4412, 29.7876], [78.4416, 29.7875], [78.4423, 29.7874], [78.4428, 29.7874], [78.4431, 29.7875], [78.4433, 29.7873], [78.4442, 29.7873], [78.4448, 29.7875], [78.4454, 29.7876], [78.4458, 29.7865], [78.4468, 29.7855], [78.4474, 29.7849], [78.4482, 29.7843], [78.4488, 29.7841], [78.4491, 29.7841], [78.4494, 29.7839], [78.4498, 29.7839], [78.4498, 29.7838], [78.4497, 29.7827], [78.4495, 29.7824], [78.4494, 29.782], [78.449, 29.7812], [78.4487, 29.7807], [78.4484, 29.7799], [78.4483, 29.7795], [78.448, 29.7792], [78.4478, 29.7788], [78.4483, 29.7787], [78.4476, 29.7782], [78.4472, 29.7779], [78.447, 29.7778], [78.4468, 29.7777], [78.4465, 29.7773], [78.4464, 29.7772], [78.4413, 29.7801], [78.44, 29.7785], [78.4357, 29.7819], [78.4326, 29.7847], [78.4321, 29.7844], [78.4311, 29.7847], [78.43, 29.7844], [78.4298, 29.7843], [78.4297, 29.7841], [78.4296, 29.7839], [78.4294, 29.7837], [78.4291, 29.7834], [78.4291, 29.7833], [78.4287, 29.7832], [78.4283, 29.783], [78.4281, 29.7828], [78.4278, 29.7828], [78.4274, 29.7828], [78.4271, 29.783], [78.427, 29.7833], [78.4267, 29.7836], [78.4263, 29.7835], [78.426, 29.7835], [78.4257, 29.7837], [78.4256, 29.7835], [78.4255, 29.7832], [78.4255, 29.783], [78.4254, 29.7828], [78.4253, 29.7827], [78.4252, 29.7824], [78.4254, 29.7822], [78.4256, 29.782], [78.4256, 29.7819], [78.4255, 29.7817], [78.4251, 29.7817], [78.4247, 29.7819], [78.4243, 29.7821], [78.4239, 29.7821], [78.4235, 29.7823], [78.4234, 29.7825], [78.4235, 29.7827], [78.4235, 29.7828], [78.4235, 29.783], [78.4229, 29.7834], [78.4223, 29.7837], [78.4219, 29.7837], [78.4218, 29.7836], [78.4218, 29.783], [78.4219, 29.7826], [78.4219, 29.7823], [78.4215, 29.7819], [78.421, 29.7817], [78.4205, 29.7818], [78.4198, 29.7818], [78.4197, 29.7819], [78.4191, 29.7825], [78.4183, 29.7834], [78.4179, 29.7835], [78.4174, 29.7835], [78.4168, 29.7834], [78.4163, 29.7832], [78.4157, 29.7831], [78.4152, 29.7834], [78.4143, 29.784], [78.4135, 29.7837], [78.4122, 29.7835], [78.4116, 29.7834], [78.411, 29.7836], [78.4106, 29.7842], [78.4097, 29.7848], [78.409, 29.785], [78.4098, 29.7871], [78.4099, 29.7874], [78.41, 29.7875], [78.4101, 29.7877], [78.4104, 29.7882], [78.4106, 29.7888], [78.4116, 29.7887], [78.4118, 29.789], [78.4133, 29.789], [78.4138, 29.7887], [78.4145, 29.7887], [78.4151, 29.789], [78.4167, 29.7877], [78.4208, 29.785]]]}, "properties": {"objectid": 155035, "statename": "UTTARAKHAND", "statecode": "5", "districtname": "PAURI GARHWAL", "districtcode": "61", "ulbname": "KOTDWARA", "ulbcode": "800319", "wardname": "TRILOKPUR", "wardcode": "35", "id": null, "status": "APPROVED", "misglobalid": null, "approved_by": null, "createdate": 1700544225000, "updateddate": 1716362574000, "globalid": null, "gisglobalid": "s4BlR55Q-6o4B-P65K-R5dl-4R5mo4BaKnmn", "remark": "", "st_area(shape)": 0.0001967638254513663, "st_perimeter(shape)": 0.10981367321962555}}, {"type": "Feature", "geometry": {"type": "Polygon", "coordinates": [[[78.3847, 29.7893], [78.3854, 29.7892], [78.386, 29.7892], [78.3863, 29.7892], [78.3879, 29.789], [78.388, 29.789], [78.3881, 29.7889], [78.3919, 29.7883], [78.3923, 29.7883], [78.3924, 29.7883], [78.3935, 29.7884], [78.3938, 29.7884], [78.3975, 29.7884], [78.3979, 29.7884], [78.3982, 29.7884], [78.3984, 29.7884], [78.4009, 29.7888], [78.4011, 29.7889], [78.4021, 29.7892], [78.4023, 29.7892], [78.4036, 29.7901], [78.4038, 29.7902], [78.4045, 29.7907], [78.4074, 29.7905], [78.4079, 29.7903], [78.4084, 29.789], [78.4084, 29.7884], [78.4083, 29.788], [78.4083, 29.7877], [78.4075, 29.7865], [78.4073, 29.7861], [78.4072, 29.7861], [78.406, 29.7855], [78.4057, 29.7853], [78.4054, 29.7851], [78.4042, 29.7847], [78.4041, 29.7846], [78.404, 29.7845], [78.4021, 29.7843], [78.4019, 29.7843], [78.4, 29.7843], [78.3996, 29.7843], [78.3965, 29.7847], [78.3963, 29.7847], [78.3959, 29.7848], [78.3957, 29.7849], [78.3935, 29.7852], [78.3933, 29.7853], [78.3931, 29.7853], [78.392, 29.7855], [78.388, 29.7867], [78.3878, 29.7867], [78.3875, 29.7868], [78.3869, 29.7871], [78.3855, 29.7883], [78.3847, 29.7893]]]}, "properties": {"objectid": 152280, "statename": "UTTARAKHAND", "statecode": "5", "districtname": "PAURI GARHWAL", "districtcode": "61", "ulbname": "KOTDWARA", "ulbcode": "800319", "wardname": "SIGADDI", "wardcode": "36", "id": null, "status": "APPROVED", "misglobalid": null, "approved_by": null, "createdate": 1700630429000, "updateddate": 1716362561000, "globalid": null, "gisglobalid": "RolKsdnl-l5KK-PBmn-Ra5B-llcPR4on6dla", "remark": "", "st_area(shape)": 8.412690377466638e-05, "st_perimeter(shape)": 0.05273104389460831}}, {"type": "Feature", "geometry": {"type": "Polygon", "coordinates": [[[78.401, 29.7669], [78.4009, 29.7669], [78.4005, 29.7676], [78.4001, 29.7678], [78.3995, 29.7681], [78.3994, 29.7682], [78.3977, 29.7689], [78.3975, 29.769], [78.3974, 29.7691], [78.3963, 29.7696], [78.3962, 29.7697], [78.3954, 29.77], [78.3949, 29.7702], [78.3936, 29.7706], [78.3934, 29.7709], [78.3932, 29.7717], [78.3931, 29.7725], [78.393, 29.7728], [78.393, 29.7731], [78.393, 29.7739], [78.3929, 29.7744], [78.3928, 29.7749], [78.3927, 29.7753], [78.3926, 29.7757], [78.3926, 29.7759], [78.3927, 29.7762], [78.3928, 29.7764], [78.393, 29.7767], [78.3931, 29.7769], [78.3934, 29.7771], [78.3936, 29.7771], [78.3937, 29.7771], [78.3938, 29.7772], [78.3944, 29.7775], [78.3945, 29.7776], [78.3947, 29.7781], [78.3948, 29.7782], [78.395, 29.7785], [78.395, 29.7788], [78.3951, 29.7793], [78.3951, 29.7795], [78.3952, 29.7804], [78.3955, 29.7807], [78.3958, 29.7802], [78.3961, 29.7797], [78.3961, 29.7796], [78.3965, 29.7793], [78.3971, 29.7788], [78.3972, 29.7787], [78.3977, 29.7784], [78.3979, 29.7783], [78.398, 29.7783], [78.3985, 29.7778], [78.3989, 29.7776], [78.3994, 29.7773], [78.3999, 29.7769], [78.4, 29.7768], [78.4001, 29.7768], [78.4005, 29.7766], [78.401, 29.7764], [78.4014, 29.7762], [78.4015, 29.7761], [78.4022, 29.7757], [78.4026, 29.7756], [78.4036, 29.7749], [78.4037, 29.7749], [78.4039, 29.7748], [78.4045, 29.7746], [78.4046, 29.7745], [78.4055, 29.774], [78.4059, 29.7739], [78.4064, 29.7737], [78.407, 29.7731], [78.4067, 29.7726], [78.4065, 29.7723], [78.406, 29.7715], [78.4057, 29.7711], [78.4056, 29.7711], [78.4053, 29.7707], [78.4051, 29.7705], [78.4042, 29.7698], [78.404, 29.7696], [78.404, 29.7695], [78.4039, 29.7694], [78.4038, 29.7693], [78.4034, 29.7691], [78.4033, 29.769], [78.4025, 29.7683], [78.4019, 29.7674], [78.4013, 29.7667], [78.401, 29.7669]]]}, "properties": {"objectid": 154227, "statename": "UTTARAKHAND", "statecode": "5", "districtname": "PAURI GARHWAL", "districtcode": "61", "ulbname": "KOTDWARA", "ulbcode": "800319", "wardname": "PASHCHIMIJHANDICHAUD", "wardcode": "37", "id": null, "status": "APPROVED", "misglobalid": null, "approved_by": null, "createdate": 1699084515000, "updateddate": 1716362525000, "globalid": null, "gisglobalid": "Rn5casQa-4sl6-PKdm-RoBl-anKnPmcRcPcm", "remark": "", "st_area(shape)": 0.00010224909737706379, "st_perimeter(shape)": 0.04311711977295207}}, {"type": "Feature", "geometry": {"type": "Polygon", "coordinates": [[[78.4081, 29.7739], [78.4071, 29.7744], [78.4067, 29.7745], [78.4065, 29.7746], [78.406, 29.7749], [78.4056, 29.775], [78.4048, 29.7753], [78.4035, 29.7761], [78.4006, 29.7776], [78.4002, 29.7777], [78.3992, 29.7782], [78.3987, 29.7784], [78.3976, 29.7791], [78.3972, 29.7794], [78.3968, 29.7798], [78.3966, 29.78], [78.3967, 29.78], [78.3968, 29.78], [78.3969, 29.78], [78.3969, 29.7799], [78.397, 29.7799], [78.3971, 29.7799], [78.3972, 29.7799], [78.3973, 29.7799], [78.3973, 29.78], [78.3974, 29.78], [78.3974, 29.7801], [78.3975, 29.7801], [78.3974, 29.7802], [78.3975, 29.7802], [78.3975, 29.7803], [78.3975, 29.7804], [78.3975, 29.7805], [78.3975, 29.7806], [78.3975, 29.7807], [78.3974, 29.7808], [78.3974, 29.7809], [78.3974, 29.781], [78.3974, 29.7811], [78.3973, 29.7811], [78.3973, 29.7812], [78.3972, 29.7812], [78.3972, 29.7813], [78.3972, 29.7814], [78.3972, 29.7815], [78.3972, 29.7816], [78.3972, 29.7817], [78.3972, 29.7818], [78.3973, 29.7818], [78.3973, 29.7819], [78.3974, 29.7819], [78.3974, 29.7818], [78.3975, 29.7818], [78.3976, 29.7818], [78.3977, 29.7818], [78.3978, 29.7818], [78.3978, 29.7817], [78.3979, 29.7817], [78.3979, 29.7816], [78.3979, 29.7815], [78.3979, 29.7814], [78.3979, 29.7813], [78.3979, 29.7812], [78.3979, 29.7811], [78.3979, 29.781], [78.398, 29.7809], [78.398, 29.7808], [78.398, 29.7807], [78.3981, 29.7807], [78.3981, 29.7806], [78.3982, 29.7806], [78.3983, 29.7807], [78.3984, 29.7807], [78.3984, 29.7808], [78.3985, 29.7808], [78.3985, 29.7809], [78.3986, 29.781], [78.3987, 29.781], [78.3987, 29.7811], [78.3988, 29.7811], [78.3989, 29.7811], [78.3989, 29.7812], [78.3993, 29.7811], [78.3994, 29.781], [78.3995, 29.781], [78.3995, 29.7811], [78.3995, 29.7812], [78.3996, 29.7812], [78.3996, 29.7813], [78.3996, 29.7814], [78.3996, 29.7815], [78.3996, 29.7816], [78.3996, 29.7817], [78.3997, 29.7817], [78.3997, 29.7818], [78.3997, 29.7819], [78.3998, 29.782], [78.3998, 29.7821], [78.3998, 29.7822], [78.3998, 29.7823], [78.3999, 29.7824], [78.3999, 29.7825], [78.3999, 29.7826], [78.4, 29.7826], [78.4001, 29.7827], [78.4001, 29.7828], [78.4002, 29.7828], [78.4003, 29.7828], [78.4003, 29.7829], [78.4004, 29.7829], [78.4005, 29.7829], [78.4006, 29.7829], [78.4007, 29.7829], [78.4008, 29.7829], [78.4012, 29.7828], [78.4015, 29.7826], [78.4016, 29.7825], [78.4017, 29.7825], [78.4017, 29.7824], [78.4018, 29.7824], [78.4018, 29.7823], [78.4019, 29.7823], [78.4019, 29.7822], [78.402, 29.7822], [78.402, 29.7821], [78.4021, 29.7821], [78.4021, 29.782], [78.4022, 29.782], [78.4022, 29.7819], [78.4023, 29.7819], [78.4023, 29.7818], [78.4024, 29.7818], [78.4024, 29.7817], [78.4025, 29.7817], [78.4025, 29.7816], [78.4026, 29.7816], [78.4026, 29.7815], [78.4027, 29.7815], [78.4028, 29.7814], [78.4029, 29.7814], [78.4029, 29.7813], [78.403, 29.7813], [78.403, 29.7812], [78.4031, 29.7812], [78.4032, 29.7811], [78.4033, 29.7811], [78.4033, 29.781], [78.4034, 29.781], [78.4037, 29.781], [78.4038, 29.7811], [78.4039, 29.7812], [78.404, 29.7815], [78.4041, 29.7819], [78.4043, 29.7821], [78.4046, 29.7821], [78.405, 29.7819], [78.4051, 29.7818], [78.4052, 29.7818], [78.4052, 29.7817], [78.4053, 29.7817], [78.4054, 29.7817], [78.4055, 29.7817], [78.4056, 29.7817], [78.4057, 29.7817], [78.4057, 29.7818], [78.4058, 29.7818], [78.4058, 29.7819], [78.4059, 29.7819], [78.4059, 29.782], [78.406, 29.7821], [78.406, 29.7822], [78.406, 29.7823], [78.406, 29.7824], [78.4061, 29.7828], [78.4062, 29.7833], [78.4068, 29.7833], [78.4074, 29.783], [78.4078, 29.7828], [78.4087, 29.7827], [78.4089, 29.7829], [78.4089, 29.7833], [78.4084, 29.7838], [78.4083, 29.7845], [78.4085, 29.7848], [78.409, 29.785], [78.4097, 29.7848], [78.4106, 29.7842], [78.411, 29.7836], [78.4116, 29.7834], [78.4122, 29.7835], [78.4135, 29.7837], [78.4143, 29.784], [78.4152, 29.7834], [78.4157, 29.7831], [78.4163, 29.7832], [78.4168, 29.7834], [78.4174, 29.7835], [78.4179, 29.7835], [78.4183, 29.7834], [78.4191, 29.7825], [78.4197, 29.7819], [78.4198, 29.7818], [78.4206, 29.7803], [78.4198, 29.7801], [78.418, 29.7793], [78.4163, 29.7782], [78.4148, 29.7773], [78.4143, 29.7772], [78.414, 29.7772], [78.4136, 29.7766], [78.4133, 29.7766], [78.4131, 29.7764], [78.4126, 29.7765], [78.4111, 29.7771], [78.4101, 29.7768], [78.409, 29.7755], [78.4088, 29.7746], [78.4081, 29.7739]]]}, "properties": {"objectid": 133312, "statename": "UTTARAKHAND", "statecode": "5", "districtname": "PAURI GARHWAL", "districtcode": "61", "ulbname": "KOTDWARA", "ulbcode": "800319", "wardname": "UTTARIJHANDICHAUD", "wardcode": "38", "id": null, "status": "APPROVED", "misglobalid": null, "approved_by": null, "createdate": 1698229057000, "updateddate": 1716362514000, "globalid": null, "gisglobalid": "5Ra5dad6-dcmn-PK4o-RRd6-cPPs4dldQPoQ", "remark": "", "st_area(shape)": 0.00013247387132096045, "st_perimeter(shape)": 0.06524720116611472}}, {"type": "Feature", "geometry": {"type": "Polygon", "coordinates": [[[78.4025, 29.7668], [78.4026, 29.7671], [78.4028, 29.7672], [78.4031, 29.7673], [78.4032, 29.7673], [78.4041, 29.7682], [78.4041, 29.7684], [78.4043, 29.7689], [78.4047, 29.7694], [78.405, 29.7696], [78.4051, 29.7697], [78.4055, 29.7703], [78.4062, 29.7706], [78.4064, 29.7708], [78.4065, 29.771], [78.407, 29.7713], [78.4074, 29.772], [78.408, 29.7726], [78.4081, 29.7727], [78.4085, 29.773], [78.4089, 29.7727], [78.4094, 29.7726], [78.4098, 29.7724], [78.4101, 29.7721], [78.4105, 29.7718], [78.4108, 29.7716], [78.411, 29.7715], [78.4112, 29.7712], [78.4114, 29.771], [78.4116, 29.7708], [78.4117, 29.7707], [78.4127, 29.7703], [78.4133, 29.7701], [78.4139, 29.7698], [78.415, 29.7696], [78.4151, 29.7696], [78.4157, 29.7695], [78.416, 29.7694], [78.4161, 29.7694], [78.4164, 29.7694], [78.4169, 29.7693], [78.4174, 29.7693], [78.4184, 29.7694], [78.4192, 29.7699], [78.4197, 29.7709], [78.4198, 29.7709], [78.4202, 29.7711], [78.4213, 29.7717], [78.4221, 29.7721], [78.4226, 29.7723], [78.4235, 29.7727], [78.4236, 29.7723], [78.4237, 29.7718], [78.4238, 29.7715], [78.4238, 29.7713], [78.4239, 29.7704], [78.424, 29.7699], [78.424, 29.7695], [78.4241, 29.7693], [78.4241, 29.7691], [78.4241, 29.7686], [78.4239, 29.7682], [78.4238, 29.7677], [78.4238, 29.7676], [78.4234, 29.7669], [78.4233, 29.7665], [78.4233, 29.7664], [78.4233, 29.766], [78.423, 29.7658], [78.4226, 29.7656], [78.4225, 29.7656], [78.4224, 29.7656], [78.4208, 29.7655], [78.4206, 29.7654], [78.4204, 29.7654], [78.4195, 29.7653], [78.4193, 29.7652], [78.4191, 29.7652], [78.4185, 29.7651], [78.4184, 29.7651], [78.4172, 29.765], [78.417, 29.765], [78.4156, 29.765], [78.4154, 29.7651], [78.4144, 29.7651], [78.4135, 29.7652], [78.4134, 29.7652], [78.4112, 29.7654], [78.4111, 29.7654], [78.411, 29.7655], [78.4098, 29.7657], [78.4097, 29.7657], [78.4094, 29.7657], [78.409, 29.7657], [78.4089, 29.7657], [78.4073, 29.7658], [78.4071, 29.7658], [78.407, 29.7658], [78.4063, 29.7659], [78.4048, 29.7663], [78.4047, 29.7663], [78.4042, 29.7665], [78.4025, 29.7668]]]}, "properties": {"objectid": 152287, "statename": "UTTARAKHAND", "statecode": "5", "districtname": "PAURI GARHWAL", "districtcode": "61", "ulbname": "KOTDWARA", "ulbcode": "800319", "wardname": "PURVIJHANDICHAUD", "wardcode": "39", "id": null, "status": "APPROVED", "misglobalid": null, "approved_by": null, "createdate": 1699084969000, "updateddate": 1716362497000, "globalid": null, "gisglobalid": "PRna65Rl-6PK5-P66n-QRQd-KlsncoBQmRRR", "remark": "", "st_area(shape)": 0.00010628309838091249, "st_perimeter(shape)": 0.05415525720464909}}, {"type": "Feature", "geometry": {"type": "Polygon", "coordinates": [[[78.428, 29.7683], [78.4278, 29.7685], [78.4275, 29.7687], [78.4274, 29.7687], [78.4271, 29.769], [78.4269, 29.7691], [78.4266, 29.7692], [78.4264, 29.7693], [78.4262, 29.7691], [78.4261, 29.7695], [78.4252, 29.7692], [78.4248, 29.7696], [78.4245, 29.7699], [78.4244, 29.7704], [78.4244, 29.7707], [78.4233, 29.7744], [78.4229, 29.774], [78.4222, 29.7733], [78.422, 29.773], [78.4219, 29.7727], [78.4216, 29.7724], [78.4214, 29.7723], [78.4213, 29.7722], [78.4213, 29.7723], [78.421, 29.7725], [78.4206, 29.7722], [78.4202, 29.7717], [78.4199, 29.7714], [78.4195, 29.7716], [78.4191, 29.7711], [78.4187, 29.7713], [78.4183, 29.7715], [78.418, 29.7711], [78.4182, 29.771], [78.4188, 29.7708], [78.419, 29.7706], [78.4186, 29.7703], [78.4183, 29.7701], [78.418, 29.7698], [78.4168, 29.7703], [78.4164, 29.7703], [78.4156, 29.7702], [78.4148, 29.7704], [78.4139, 29.7708], [78.4126, 29.7714], [78.412, 29.7717], [78.4116, 29.7719], [78.4088, 29.7746], [78.409, 29.7755], [78.4101, 29.7768], [78.4111, 29.7771], [78.4126, 29.7765], [78.4131, 29.7764], [78.4133, 29.7766], [78.4136, 29.7766], [78.414, 29.7772], [78.4143, 29.7772], [78.4148, 29.7773], [78.4163, 29.7782], [78.418, 29.7793], [78.4198, 29.7801], [78.4206, 29.7803], [78.4232, 29.7766], [78.4276, 29.7783], [78.4295, 29.7761], [78.43, 29.7764], [78.4319, 29.7756], [78.4334, 29.7748], [78.4351, 29.7734], [78.433, 29.771], [78.4335, 29.7707], [78.4346, 29.7696], [78.4354, 29.7689], [78.4372, 29.7671], [78.4357, 29.7653], [78.4351, 29.7647], [78.4352, 29.7645], [78.4355, 29.7644], [78.437, 29.7637], [78.4396, 29.7621], [78.4445, 29.76], [78.4482, 29.7586], [78.4466, 29.7568], [78.4452, 29.7566], [78.4438, 29.7571], [78.442, 29.7575], [78.4407, 29.7587], [78.4395, 29.7598], [78.4377, 29.7604], [78.4363, 29.7619], [78.4356, 29.7627], [78.4345, 29.7637], [78.4335, 29.7643], [78.4327, 29.765], [78.4317, 29.7656], [78.431, 29.7663], [78.4302, 29.7668], [78.4296, 29.7673], [78.4291, 29.7676], [78.4285, 29.7679], [78.428, 29.7683]]]}, "properties": {"objectid": 156234, "statename": "UTTARAKHAND", "statecode": "5", "districtname": "PAURI GARHWAL", "districtcode": "61", "ulbname": "KOTDWARA", "ulbcode": "800319", "wardname": "JASHODHARPUR", "wardcode": "40", "id": null, "status": "APPROVED", "misglobalid": null, "approved_by": null, "createdate": 1700544012000, "updateddate": 1716362471000, "globalid": null, "gisglobalid": "BQdPB4QQ-oKlo-Pdm6-QdPP-Qdacs6smmdBs", "remark": "", "st_area(shape)": 0.00022916746138079718, "st_perimeter(shape)": 0.11442096527279202}}]}
