{"type":"Topology","arcs":[[[18092,65353],[9958,-1903],[3086,-2445]],[[31136,61005],[-1122,-8016]],[[30014,52989],[-982,-136]],[[29032,52853],[-2104,-136]],[[26928,52717],[-2805,4348],[-10378,-951]],[[13745,56114],[-1403,271]],[[12342,56385],[5750,8968]],[[50911,0],[1823,2581]],[[52734,2581],[421,952]],[[53155,3533],[1823,2445]],[[54978,5978],[5190,1631]],[[60168,7609],[2244,815]],[[62412,8424],[280,-1631]],[[62692,6793],[-5329,-2989],[-982,-3668],[-5470,-136]],[[45301,815],[842,1359]],[[46143,2174],[2244,1087]],[[48387,3261],[1963,679]],[[50350,3940],[4628,2038]],[[53155,3533],[-421,-952]],[[50911,0],[-5610,815]],[[55820,13315],[7714,136]],[[63534,13451],[-1122,-5027]],[[60168,7609],[-5190,-1631]],[[54978,5978],[-2384,2446]],[[52594,8424],[1964,2853]],[[54558,11277],[1262,2038]],[[76016,57744],[-3085,-11141]],[[72931,46603],[-1263,815]],[[71668,47418],[-4488,951]],[[67180,48369],[4488,11413]],[[71668,59782],[4348,-2038]],[[59607,23369],[2103,-543]],[[61710,22826],[-4628,-7880]],[[57082,14946],[-3646,2173]],[[53436,17119],[841,1359]],[[54277,18478],[1964,2174]],[[56241,20652],[3366,2717]],[[61991,34239],[1262,-408]],[[63253,33831],[-140,-1223]],[[63113,32608],[-561,-679]],[[62552,31929],[-842,-679]],[[61710,31250],[-1122,-6114]],[[60588,25136],[-2945,2309]],[[57643,27445],[-701,408]],[[56942,27853],[701,5842]],[[57643,33695],[4348,544]],[[43478,37907],[5189,272]],[[48667,38179],[7574,136]],[[56241,38315],[981,0]],[[57222,38315],[281,-3804]],[[57503,34511],[-7433,-544]],[[50070,33967],[-6312,272]],[[43758,34239],[-280,2310]],[[43478,36549],[0,1358]],[[57503,34511],[-9818,-4756]],[[47685,29755],[-3506,-1902]],[[44179,27853],[-421,6386]],[[43758,34239],[6312,-272]],[[57222,38315],[1403,0]],[[58625,38315],[4628,-544]],[[63253,37771],[-1262,-3532]],[[57643,33695],[-140,816]],[[31136,61005],[8695,-815]],[[39831,60190],[281,-951]],[[40112,59239],[701,-2854]],[[40813,56385],[561,-2581]],[[41374,53804],[-7573,-544]],[[33801,53260],[-3787,-271]],[[68583,31250],[8976,-1087],[140,-6930],[8976,-5570]],[[86675,17663],[-4768,-2174]],[[81907,15489],[-4488,-1630]],[[77419,13859],[-12904,2581]],[[64515,16440],[1403,5299]],[[65918,21739],[1122,4484]],[[67040,26223],[1543,5027]],[[71528,41847],[-561,-1902]],[[70967,39945],[-2104,-271]],[[68863,39674],[-5610,-1903]],[[58625,38315],[-2384,0]],[[56241,38315],[-561,2581]],[[55680,40896],[6171,544]],[[61851,41440],[9677,407]],[[50350,14674],[1122,1223]],[[51472,15897],[1964,1222]],[[57082,14946],[-982,-816]],[[56100,14130],[-280,-815]],[[54558,11277],[-1964,-2853]],[[50350,3940],[-1963,-679]],[[46143,2174],[3225,5570],[982,6930]],[[60588,25136],[-981,-1767]],[[56241,20652],[-5190,2717]],[[51051,23369],[-981,544]],[[50070,23913],[3786,4619]],[[53856,28532],[1263,-271]],[[55119,28261],[1823,-408]],[[56942,27853],[701,-408]],[[41374,53804],[140,-544]],[[41514,53260],[982,-4891]],[[42496,48369],[-7153,-1766]],[[35343,46603],[-1542,6657]],[[62692,6793],[-280,1631]],[[62412,8424],[15007,5435]],[[77419,13859],[-141,-4892]],[[77278,8967],[-10659,408],[-3927,-2582]],[[32819,33559],[1122,1767]],[[33941,35326],[280,951]],[[34221,36277],[9257,815]],[[43478,37092],[0,-543]],[[43478,36549],[280,-2310]],[[43758,34239],[421,-6386]],[[44179,27853],[140,-3125]],[[44319,24728],[141,-2446]],[[44460,22282],[-11641,11277]],[[70967,39945],[-2384,-8695]],[[68583,31250],[-2385,951]],[[66198,32201],[-3085,407]],[[63253,33831],[-1262,408]],[[68863,39674],[2104,271]],[[21178,39945],[701,1631]],[[21879,41576],[842,1902]],[[22721,43478],[4207,9239]],[[29032,52853],[4769,407]],[[35343,46603],[-2945,-3940]],[[32398,42663],[-1964,-2446]],[[30434,40217],[-1683,-1495]],[[28751,38722],[-561,-815]],[[28190,37907],[-7152,1495]],[[21038,39402],[140,543]],[[63534,13451],[981,2989]],[[55119,28261],[-1263,271]],[[53856,28532],[-4488,816]],[[49368,29348],[-1683,407]],[[57503,34511],[140,-816]],[[81907,15489],[4768,2174]],[[86675,17663],[9818,679],[3506,-4755],[-5470,-4484],[-5189,2853],[-2945,-3668],[-9117,679]],[[48667,38179],[4348,1495],[-3927,6521]],[[49088,46195],[6732,-815]],[[55820,45380],[-140,-4484]],[[44880,21603],[842,0]],[[45722,21603],[1402,-679]],[[47124,20924],[7153,-2446]],[[53436,17119],[-1964,-1222]],[[51472,15897],[-701,-816]],[[50771,15081],[-842,272]],[[49929,15353],[-1262,272]],[[48667,15625],[-982,136]],[[47685,15761],[-1122,271]],[[46563,16032],[-1683,5571]],[[67180,48369],[4488,-951]],[[71668,47418],[1263,-815]],[[72931,46603],[-1403,-4756]],[[61851,41440],[-281,2717]],[[61570,44157],[421,5435]],[[61991,49592],[5189,-1223]],[[76016,57744],[-4348,2038]],[[71668,59782],[-5329,2038]],[[66339,61820],[-3927,1630]],[[62412,63450],[-5049,2174]],[[57363,65624],[-2525,680]],[[54838,66304],[-6311,2581]],[[48527,68885],[982,1766]],[[49509,70651],[1542,2174]],[[51051,72825],[10239,7609],[-11080,3804]],[[50210,84238],[1402,2718]],[[51612,86956],[1403,6521],[4488,3261]],[[57503,96738],[7433,-1766],[7995,-4076],[-2525,-7065],[4348,-14810],[1262,-11277]],[[4769,38315],[140,815]],[[4909,39130],[0,815]],[[4909,39945],[421,2853]],[[5330,42798],[2244,5707]],[[7574,48505],[1823,-679]],[[9397,47826],[12482,-6250]],[[21879,41576],[-701,-1631]],[[21178,39945],[-140,-543]],[[21038,39402],[-12342,-2174],[-3927,1087]],[[55820,45380],[-1262,5978]],[[54558,51358],[5890,-1358]],[[60448,50000],[1543,-408]],[[61570,44157],[281,-2717]],[[67180,48369],[-6732,1631]],[[60448,50000],[-1402,5027],[2524,3668]],[[61570,58695],[421,2174],[841,951],[982,1087]],[[63814,62907],[2525,-1087]],[[48667,38179],[-5189,-272]],[[43478,37907],[-421,5027]],[[43057,42934],[-140,2038]],[[42917,44972],[6171,1223]],[[40813,56385],[3506,951]],[[44319,57336],[2385,-1358]],[[46704,55978],[-1824,-6794]],[[44880,49184],[-2244,-1087]],[[42636,48097],[-1122,5163]],[[41514,53260],[-701,3125]],[[44319,24728],[5751,-815]],[[50070,23913],[981,-544]],[[56241,20652],[-1964,-2174]],[[47124,20924],[-1402,679]],[[44880,21603],[-420,679]],[[44460,22282],[-141,2446]],[[31136,92119],[1122,-3125]],[[32258,88994],[981,-3805]],[[33239,85189],[-8415,-1222],[-6171,1630]],[[18653,85597],[-3366,679]],[[15287,86276],[1964,5707],[13885,136]],[[34081,82064],[4769,4076]],[[38850,86140],[1262,-679]],[[40112,85461],[8695,-4348],[1403,3125]],[[51051,72825],[-1122,-1494]],[[49929,71331],[-14025,3940]],[[35904,75271],[-280,951]],[[35624,76222],[-982,3261]],[[34642,79483],[-561,2581]],[[47685,29755],[1683,-407]],[[44319,24728],[-140,3125]],[[45301,815],[-2945,8152],[3927,2989],[280,4076]],[[47685,15761],[982,-136]],[[48667,15625],[1262,-272]],[[50771,15081],[-421,-407]],[[28751,38722],[1683,1495]],[[30434,40217],[1964,2446]],[[42496,48369],[140,-272]],[[42636,48097],[281,-3125]],[[43057,42934],[421,-5027]],[[43478,37907],[0,-815]],[[34221,36277],[-280,-951]],[[32819,33559],[-4629,4348]],[[26507,77445],[2244,1359]],[[28751,78804],[5330,3260]],[[34642,79483],[982,-3261]],[[35904,75271],[1403,-5299]],[[37307,69972],[841,-2989]],[[38148,66983],[141,-1087]],[[38289,65896],[981,-3125]],[[39270,62771],[561,-2581]],[[18092,65353],[982,1630]],[[19074,66983],[982,2174]],[[20056,69157],[6451,8288]],[[17531,83015],[3927,-679]],[[21458,82336],[5610,-2853],[1122,-1087]],[[28190,78396],[-1683,-951]],[[20056,69157],[-421,-951]],[[19635,68206],[-841,272],[-702,0],[-4628,2309]],[[13464,70787],[-3787,2310]],[[9677,73097],[7854,9918]],[[22721,43478],[-842,-1902]],[[9397,47826],[-1823,679]],[[7574,48505],[4768,7880]],[[12342,56385],[1403,-271]],[[51612,86956],[-1402,-2718]],[[40112,85461],[-1262,679]],[[34081,82064],[-1823,6930]],[[31136,92119],[1963,5570],[6312,2310],[9957,-815],[8135,-2446]],[[48527,68885],[6311,-2581]],[[54838,66304],[561,-136]],[[55399,66168],[-1683,-951],[-1262,-1087],[2104,-680],[-982,-2038],[-281,-6250]],[[53295,55162],[-3225,408]],[[50070,55570],[-3366,408]],[[44319,57336],[2525,7881]],[[46844,65217],[1683,3668]],[[17531,83015],[-2244,3261]],[[15287,86276],[3366,-679]],[[33239,85189],[842,-3125]],[[28751,78804],[-561,-408]],[[21458,82336],[-3927,679]],[[3787,57065],[3226,-408]],[[7013,56657],[1963,136]],[[8976,56793],[3366,-408]],[[5330,42798],[-421,-2853]],[[4909,39130],[-140,-815]],[[4769,38315],[-4488,4891],[-281,4484],[3506,4755],[281,4620]],[[3787,57065],[982,7065],[4908,8967]],[[9677,73097],[3787,-2310]],[[19635,68206],[-561,-1223]],[[8976,56793],[-1963,-136]],[[49929,71331],[-420,-680]],[[49509,70651],[-842,-1630]],[[48667,69021],[-1683,544],[-2244,815],[-1543,271],[-5890,-679]],[[68583,31250],[-1543,-5027]],[[65918,21739],[-2384,-8288]],[[55820,13315],[280,815]],[[61710,22826],[-2103,543]],[[59607,23369],[981,1767]],[[61710,31250],[842,679]],[[63113,32608],[3085,-407]],[[66198,32201],[2385,-951]],[[44880,49184],[1824,-815]],[[46704,48369],[2384,-2174]],[[46844,65217],[-8555,679]],[[38289,65896],[-141,1087]],[[48667,69021],[-140,-136]],[[46704,48369],[1122,1223]],[[47826,49592],[6732,1766]],[[40112,59239],[-842,3532]],[[55259,54891],[-701,-3533]],[[47826,49592],[-1122,-1223]],[[46704,55978],[3366,-408]],[[50070,55570],[5189,-679]],[[60448,50000],[-5890,1358]],[[54558,51358],[701,3533]],[[55259,54891],[6311,3804]],[[55399,66168],[1964,-544]],[[62412,63450],[1402,-543]],[[55259,54891],[-1964,271]]],"transform":{"scale":[7.130071300713798e-7,7.360073600736263e-7],"translate":[77.2576,28.708]},"objects":{"wards":{"type":"GeometryCollection","geometries":[{"arcs":[[0,1,2,3,4,5,6]],"type":"Polygon","properties":{"objectid":119098,"statename":"Uttar Pradesh","statecode":"9","districtname":"Ghaziabad","districtcode":"140","ulbname":"Loni","ulbcode":"800733","wardname":"Milak Vikash Nagar","wardcode":"1","id":null,"status":"APPROVED","misglobalid":null,"approved_by":null,"createdate":1643649967000,"updateddate":1643700754000,"globalid":null,"gisglobalid":"QPQa56dQ-c5oQ-PPaR-aRlo-Bm45o4lmcoKc","remark":"","st_area(shape)":0.00006438362523224641,"st_perimeter(shape)":0.042372279960412894}},{"arcs":[[7,8,9,10,11,12,13]],"type":"Polygon","properties":{"objectid":120454,"statename":"Uttar Pradesh","statecode":"9","districtname":"Ghaziabad","districtcode":"140","ulbname":"Loni","ulbcode":"800733","wardname":"Panchvati Colony","wardcode":"2","id":null,"status":"APPROVED","misglobalid":null,"approved_by":null,"createdate":1643649967000,"updateddate":1643701235000,"globalid":null,"gisglobalid":"m5Pm6onn-RPKQ-P6c5-RB4a-sladsK46dQ4s","remark":"","st_area(shape)":0.00002375547220662619,"st_perimeter(shape)":0.0245051777736712}},{"arcs":[[14,15,16,17,-10,18,-8,19]],"type":"Polygon","properties":{"objectid":118569,"statename":"Uttar Pradesh","statecode":"9","districtname":"Ghaziabad","districtcode":"140","ulbname":"Loni","ulbcode":"800733","wardname":"Rajnagar","wardcode":"3","id":null,"status":"APPROVED","misglobalid":null,"approved_by":null,"createdate":1643649967000,"updateddate":1643701252000,"globalid":null,"gisglobalid":"BRKn6mKd-QsoR-Po5n-sBPs-5aPolRclmRda","remark":"","st_area(shape)":0.000013834789755061024,"st_perimeter(shape)":0.01857151413326872}},{"arcs":[[20,21,-12,22,23,24,25]],"type":"Polygon","properties":{"objectid":120894,"statename":"Uttar Pradesh","statecode":"9","districtname":"Ghaziabad","districtcode":"140","ulbname":"Loni","ulbcode":"800733","wardname":"Uttranchal Vihar","wardcode":"4","id":null,"status":"APPROVED","misglobalid":null,"approved_by":null,"createdate":1643649967000,"updateddate":1643701244000,"globalid":null,"gisglobalid":"BP4PRnQl-5mKs-Pal6-aosB-dKsQsaRoddnK","remark":"","st_area(shape)":0.000027183853671810603,"st_perimeter(shape)":0.026335270949454186}},{"arcs":[[26,27,28,29,30]],"type":"Polygon","properties":{"objectid":121661,"statename":"Uttar Pradesh","statecode":"9","districtname":"Ghaziabad","districtcode":"140","ulbname":"Loni","ulbcode":"800733","wardname":"New Vikash Nagar","wardcode":"5","id":null,"status":"APPROVED","misglobalid":null,"approved_by":null,"createdate":1643649967000,"updateddate":1643700985000,"globalid":null,"gisglobalid":"Pldan5aa-BQ65-PcmK-aPld-saomRlBBodRs","remark":"","st_area(shape)":0.00003649045261055699,"st_perimeter(shape)":0.02675478521145559}},{"arcs":[[31,32,33,34,35,36]],"type":"Polygon","properties":{"objectid":119095,"statename":"Uttar Pradesh","statecode":"9","districtname":"Ghaziabad","districtcode":"140","ulbname":"Loni","ulbcode":"800733","wardname":"Behta Hazipur West","wardcode":"6","id":null,"status":"APPROVED","misglobalid":null,"approved_by":null,"createdate":1643649967000,"updateddate":1643701270000,"globalid":null,"gisglobalid":"5nmon4mK-R5nK-Pn4l-Ra6B-P64osdQRdacK","remark":"","st_area(shape)":0.000017604455509873537,"st_perimeter(shape)":0.018415089275092784}},{"arcs":[[37,38,39,40,41,42,43,44,45]],"type":"Polygon","properties":{"objectid":119093,"statename":"Uttar Pradesh","statecode":"9","districtname":"Ghaziabad","districtcode":"140","ulbname":"Loni","ulbcode":"800733","wardname":"Sangam Vihar","wardcode":"7","id":null,"status":"APPROVED","misglobalid":null,"approved_by":null,"createdate":1643649967000,"updateddate":1643701177000,"globalid":null,"gisglobalid":"maRns45c-RmQl-PPdl-RQP5-4PsdRomRnldQ","remark":"","st_area(shape)":0.000018158328289769932,"st_perimeter(shape)":0.01998720356268777}},{"arcs":[[46,47,48,49,50,51,52,53]],"type":"Polygon","properties":{"objectid":120455,"statename":"Uttar Pradesh","statecode":"9","districtname":"Ghaziabad","districtcode":"140","ulbname":"Loni","ulbcode":"800733","wardname":"Paramhans Vihar","wardcode":"8","id":null,"status":"APPROVED","misglobalid":null,"approved_by":null,"createdate":1643649967000,"updateddate":1643701134000,"globalid":null,"gisglobalid":"aQ4K6dKP-calo-PK4o-RP6P-BKQddBald4sm","remark":"","st_area(shape)":0.00002858061030162375,"st_perimeter(shape)":0.02527423783458604}},{"arcs":[[54,55,56,57,-51]],"type":"Polygon","properties":{"objectid":118251,"statename":"Uttar Pradesh","statecode":"9","districtname":"Ghaziabad","districtcode":"140","ulbname":"Loni","ulbcode":"800733","wardname":"Paramhans  Vihar South","wardcode":"9","id":null,"status":"APPROVED","misglobalid":null,"approved_by":null,"createdate":1643649967000,"updateddate":1643701157000,"globalid":null,"gisglobalid":"Qdsnmo4o-RQdc-Poom-ss4a-ad4sR5s5ooal","remark":"","st_area(shape)":0.00002183099110126913,"st_perimeter(shape)":0.02527966938277562}},{"arcs":[[58,59,60,-46,61,-50]],"type":"Polygon","properties":{"objectid":118250,"statename":"Uttar Pradesh","statecode":"9","districtname":"Ghaziabad","districtcode":"140","ulbname":"Loni","ulbcode":"800733","wardname":"Rajiv Garden West","wardcode":"10","id":null,"status":"APPROVED","misglobalid":null,"approved_by":null,"createdate":1643649967000,"updateddate":1643701143000,"globalid":null,"gisglobalid":"Pl6ossQc-Po4K-P45n-aRmc-oB5BKBlno6Q4","remark":"","st_area(shape)":0.000011766481713812039,"st_perimeter(shape)":0.0141136700564979}},{"arcs":[[-2,62,63,64,65,66,67]],"type":"Polygon","properties":{"objectid":118252,"statename":"Uttar Pradesh","statecode":"9","districtname":"Ghaziabad","districtcode":"140","ulbname":"Loni","ulbcode":"800733","wardname":"Giri Markeet","wardcode":"11","id":null,"status":"APPROVED","misglobalid":null,"approved_by":null,"createdate":1643649967000,"updateddate":1643700911000,"globalid":null,"gisglobalid":"KQs5QQPn-ddRd-Pnc4-Ra6K-Roc44lPlsnRc","remark":"","st_area(shape)":0.000038962896816489564,"st_perimeter(shape)":0.026115406318535723}},{"arcs":[[68,69,70,71,72,73,74]],"type":"Polygon","properties":{"objectid":120453,"statename":"Uttar Pradesh","statecode":"9","districtname":"Ghaziabad","districtcode":"140","ulbname":"Loni","ulbcode":"800733","wardname":"Dhama Enclave","wardcode":"12","id":null,"status":"APPROVED","misglobalid":null,"approved_by":null,"createdate":1643649967000,"updateddate":1643701194000,"globalid":null,"gisglobalid":"l6l4PnnB-aP6B-PaP6-QsRm-dK4l6PQ6QoQc","remark":"","st_area(shape)":0.0001129375337476996,"st_perimeter(shape)":0.04769108528640358}},{"arcs":[[75,76,77,-60,78,79,80,81]],"type":"Polygon","properties":{"objectid":121663,"statename":"Uttar Pradesh","statecode":"9","districtname":"Ghaziabad","districtcode":"140","ulbname":"Loni","ulbcode":"800733","wardname":"Sunita Vihar","wardcode":"13","id":null,"status":"APPROVED","misglobalid":null,"approved_by":null,"createdate":1643649967000,"updateddate":1643701098000,"globalid":null,"gisglobalid":"cmm5KPB6-dadl-PKml-Rso6-64BonscncPBo","remark":"","st_area(shape)":0.000021931942617219408,"st_perimeter(shape)":0.026724339885345755}},{"arcs":[[82,83,-34,84,85,-26,86,-24,-18,87,-16,88]],"type":"Polygon","properties":{"objectid":121664,"statename":"Uttar Pradesh","statecode":"9","districtname":"Ghaziabad","districtcode":"140","ulbname":"Loni","ulbcode":"800733","wardname":"Society","wardcode":"14","id":null,"status":"APPROVED","misglobalid":null,"approved_by":null,"createdate":1643649967000,"updateddate":1643701260000,"globalid":null,"gisglobalid":"nlKBRP4R-sKs6-PaBd-RodB-c6dlmnomladR","remark":"","st_area(shape)":0.000035903230053244946,"st_perimeter(shape)":0.03370880852961383}},{"arcs":[[89,-37,90,91,92,93,94,95,-43]],"type":"Polygon","properties":{"objectid":119092,"statename":"Uttar Pradesh","statecode":"9","districtname":"Ghaziabad","districtcode":"140","ulbname":"Loni","ulbcode":"800733","wardname":"Soniya Nagar","wardcode":"15","id":null,"status":"APPROVED","misglobalid":null,"approved_by":null,"createdate":1643649967000,"updateddate":1643701278000,"globalid":null,"gisglobalid":"d4QaQooR-Qa6R-PlmB-RKo6-nccodm6BaBoc","remark":"","st_area(shape)":0.000024074286527496516,"st_perimeter(shape)":0.020729883309678156}},{"arcs":[[-67,96,97,98,99]],"type":"Polygon","properties":{"objectid":119367,"statename":"Uttar Pradesh","statecode":"9","districtname":"Ghaziabad","districtcode":"140","ulbname":"Loni","ulbcode":"800733","wardname":"Balram Nagar Vistar","wardcode":"16","id":null,"status":"APPROVED","misglobalid":null,"approved_by":null,"createdate":1643649967000,"updateddate":1643701336000,"globalid":null,"gisglobalid":"5BKlaoRs-cdaK-PcQK-Qa55-ldaQoml5allK","remark":"","st_area(shape)":0.000024492898031800417,"st_perimeter(shape)":0.019966724309110978}},{"arcs":[[100,101,102,103]],"type":"Polygon","properties":{"objectid":119365,"statename":"Uttar Pradesh","statecode":"9","districtname":"Ghaziabad","districtcode":"140","ulbname":"Loni","ulbcode":"800733","wardname":"Amit Vihar","wardcode":"17","id":null,"status":"APPROVED","misglobalid":null,"approved_by":null,"createdate":1643649967000,"updateddate":1643701224000,"globalid":null,"gisglobalid":"4admd6oQ-dlco-PB6m-R5cn-ssa4dQamnaP6","remark":"","st_area(shape)":0.00002006684744561693,"st_perimeter(shape)":0.03178255810684064}},{"arcs":[[104,105,106,107,108,109,110,111,112]],"type":"Polygon","properties":{"objectid":119366,"statename":"Uttar Pradesh","statecode":"9","districtname":"Ghaziabad","districtcode":"140","ulbname":"Loni","ulbcode":"800733","wardname":"Indrapuri","wardcode":"18","id":null,"status":"APPROVED","misglobalid":null,"approved_by":null,"createdate":1643649967000,"updateddate":1643701318000,"globalid":null,"gisglobalid":"RlKmR64m-P4d5-PQcP-slm5-QKdllamdQaRK","remark":"","st_area(shape)":0.0000504793749138748,"st_perimeter(shape)":0.03272785254787544}},{"arcs":[[113,114,115,-39,116,-61,-78,117]],"type":"Polygon","properties":{"objectid":118249,"statename":"Uttar Pradesh","statecode":"9","districtname":"Ghaziabad","districtcode":"140","ulbname":"Loni","ulbcode":"800733","wardname":"Rajeev Garden East","wardcode":"19","id":null,"status":"APPROVED","misglobalid":null,"approved_by":null,"createdate":1643649967000,"updateddate":1643701108000,"globalid":null,"gisglobalid":"4d4RPdmo-cl45-PsKR-adls-m5Plc64QKomP","remark":"","st_area(shape)":0.000026053775089087398,"st_perimeter(shape)":0.02114500255245286}},{"arcs":[[118,119,120,-4,121,-100,122,123,124,125,126,127]],"type":"Polygon","properties":{"objectid":121665,"statename":"Uttar Pradesh","statecode":"9","districtname":"Ghaziabad","districtcode":"140","ulbname":"Loni","ulbcode":"800733","wardname":"Nasbandi Colony","wardcode":"20","id":null,"status":"APPROVED","misglobalid":null,"approved_by":null,"createdate":1643649967000,"updateddate":1643701345000,"globalid":null,"gisglobalid":"cQncaaPB-l644-PK5o-Rd4s-soPsBKo4R6B4","remark":"","st_area(shape)":0.00006766529185922548,"st_perimeter(shape)":0.034388825827646366}},{"arcs":[[-102,-22,128,-72]],"type":"Polygon","properties":{"objectid":121272,"statename":"Uttar Pradesh","statecode":"9","districtname":"Ghaziabad","districtcode":"140","ulbname":"Loni","ulbcode":"800733","wardname":"Rahul Garden","wardcode":"21","id":null,"status":"APPROVED","misglobalid":null,"approved_by":null,"createdate":1643649967000,"updateddate":1643701202000,"globalid":null,"gisglobalid":"4aKsn4KP-55K5-PsmQ-Qnoc-K6mmRssKnB54","remark":"","st_area(shape)":0.00002984472063304472,"st_perimeter(shape)":0.027379626391085907}},{"arcs":[[-45,-95,129,130,131,-55,132]],"type":"Polygon","properties":{"objectid":119094,"statename":"Uttar Pradesh","statecode":"9","districtname":"Ghaziabad","districtcode":"140","ulbname":"Loni","ulbcode":"800733","wardname":"Laxmi Garden","wardcode":"22","id":null,"status":"APPROVED","misglobalid":null,"approved_by":null,"createdate":1643649967000,"updateddate":1643701166000,"globalid":null,"gisglobalid":"so4nn44m-asRm-Pl6d-Qcd5-PsaP6RPmaKBl","remark":"","st_area(shape)":0.000015801896074557847,"st_perimeter(shape)":0.02052560932912879}},{"arcs":[[-103,-71,133,134]],"type":"Polygon","properties":{"objectid":120895,"statename":"Uttar Pradesh","statecode":"9","districtname":"Ghaziabad","districtcode":"140","ulbname":"Loni","ulbcode":"800733","wardname":"Krishna Vihar","wardcode":"23","id":null,"status":"APPROVED","misglobalid":null,"approved_by":null,"createdate":1643649967000,"updateddate":1643701214000,"globalid":null,"gisglobalid":"md6daslP-sRdB-PRoQ-a4dc-6dQBllcR6RmP","remark":"","st_area(shape)":0.0000811995435563087,"st_perimeter(shape)":0.05273896239122283}},{"arcs":[[-80,-48,135,136,137]],"type":"Polygon","properties":{"objectid":121271,"statename":"Uttar Pradesh","statecode":"9","districtname":"Ghaziabad","districtcode":"140","ulbname":"Loni","ulbcode":"800733","wardname":"Naipura","wardcode":"24","id":null,"status":"APPROVED","misglobalid":null,"approved_by":null,"createdate":1643649967000,"updateddate":1643701060000,"globalid":null,"gisglobalid":"RcdmacdP-RsPQ-P5ca-Rcsa-6l5Kmd5QddnK","remark":"","st_area(shape)":0.00001945384520722544,"st_perimeter(shape)":0.02605238833053327}},{"arcs":[[138,139,140,-35,141,142,143,144,145,146,147]],"type":"Polygon","properties":{"objectid":121274,"statename":"Uttar Pradesh","statecode":"9","districtname":"Ghaziabad","districtcode":"140","ulbname":"Loni","ulbcode":"800733","wardname":"Jawaharnagar South","wardcode":"25","id":null,"status":"APPROVED","misglobalid":null,"approved_by":null,"createdate":1643649967000,"updateddate":1643701296000,"globalid":null,"gisglobalid":"BcRlsssl-onKs-PBRo-QPKa-asRmoBaKPmK6","remark":"","st_area(shape)":0.000015001843438112993,"st_perimeter(shape)":0.01967791865245993}},{"arcs":[[148,149,150,-82,151,152,153]],"type":"Polygon","properties":{"objectid":118248,"statename":"Uttar Pradesh","statecode":"9","districtname":"Ghaziabad","districtcode":"140","ulbname":"Loni","ulbcode":"800733","wardname":"Naveen Kunj","wardcode":"26","id":null,"status":"APPROVED","misglobalid":null,"approved_by":null,"createdate":1643649967000,"updateddate":1643701025000,"globalid":null,"gisglobalid":"4B5nnRcl-QPl5-Pmoc-saRl-BBooncQaB45Q","remark":"","st_area(shape)":0.00003807514839744917,"st_perimeter(shape)":0.025217073962358172}},{"arcs":[[154,155,156,157,158,159,160,161,162,163,164,165]],"type":"Polygon","properties":{"objectid":118247,"statename":"Uttar Pradesh","statecode":"9","districtname":"Ghaziabad","districtcode":"140","ulbname":"Loni","ulbcode":"800733","wardname":"Gadhi Shablu","wardcode":"27","id":null,"status":"APPROVED","misglobalid":null,"approved_by":null,"createdate":1643649967000,"updateddate":1643700798000,"globalid":null,"gisglobalid":"56mBmdon-K5BQ-Pc46-sld6-m6PaaBcRRcoQ","remark":"","st_area(shape)":0.00032896414365360784,"st_perimeter(shape)":0.09341421876841348}},{"arcs":[[166,167,168,169,170,171,172,173,174]],"type":"Polygon","properties":{"objectid":118571,"statename":"Uttar Pradesh","statecode":"9","districtname":"Ghaziabad","districtcode":"140","ulbname":"Loni","ulbcode":"800733","wardname":"Ankur Vihar Dlf","wardcode":"28","id":null,"status":"APPROVED","misglobalid":null,"approved_by":null,"createdate":1643649967000,"updateddate":1643700690000,"globalid":null,"gisglobalid":"l4cc5ldP-d5nd-Pocc-amBK-PdloBPa65maR","remark":"","st_area(shape)":0.00006145942621336271,"st_perimeter(shape)":0.03396006278466905}},{"arcs":[[-81,-138,175,176,177,-153,178]],"type":"Polygon","properties":{"objectid":118246,"statename":"Uttar Pradesh","statecode":"9","districtname":"Ghaziabad","districtcode":"140","ulbname":"Loni","ulbcode":"800733","wardname":"Roopnagar Industrial Area","wardcode":"29","id":null,"status":"APPROVED","misglobalid":null,"approved_by":null,"createdate":1643649967000,"updateddate":1643701066000,"globalid":null,"gisglobalid":"54a65PnK-R4KB-PcmP-Rnsl-olQPRlmRd5Bn","remark":"","st_area(shape)":0.000027761436223947407,"st_perimeter(shape)":0.026579224916455365}},{"arcs":[[179,180,181,182,-156,-30]],"type":"Polygon","properties":{"objectid":120451,"statename":"Uttar Pradesh","statecode":"9","districtname":"Ghaziabad","districtcode":"140","ulbname":"Loni","ulbcode":"800733","wardname":"Bag H Ranap","wardcode":"30","id":null,"status":"APPROVED","misglobalid":null,"approved_by":null,"createdate":1643649967000,"updateddate":1643700977000,"globalid":null,"gisglobalid":"QRKlRBaK-Q6KK-PK4a-RPQR-oaRR6slcP4P6","remark":"","st_area(shape)":0.00005771957235520245,"st_perimeter(shape)":0.03245836178049464}},{"arcs":[[-136,183,184,185,186]],"type":"Polygon","properties":{"objectid":119090,"statename":"Uttar Pradesh","statecode":"9","districtname":"Ghaziabad","districtcode":"140","ulbname":"Loni","ulbcode":"800733","wardname":"Aryanagar","wardcode":"31","id":null,"status":"APPROVED","misglobalid":null,"approved_by":null,"createdate":1643649967000,"updateddate":1643701117000,"globalid":null,"gisglobalid":"n5Blo6dn-nnPc-P5l5-QmBc-saKcPK6K54aQ","remark":"","st_area(shape)":0.000028639965363596663,"st_perimeter(shape)":0.023273547912290596}},{"arcs":[[187,188,189,190,191,192]],"type":"Polygon","properties":{"objectid":120893,"statename":"Uttar Pradesh","statecode":"9","districtname":"Ghaziabad","districtcode":"140","ulbname":"Loni","ulbcode":"800733","wardname":"Indira Markeet","wardcode":"32","id":null,"status":"APPROVED","misglobalid":null,"approved_by":null,"createdate":1643649967000,"updateddate":1643701126000,"globalid":null,"gisglobalid":"5caKnRnQ-ooPc-Pnom-Ro5K-5oR5d544nmmn","remark":"","st_area(shape)":0.000020173165882188483,"st_perimeter(shape)":0.019327978213897215}},{"arcs":[[193,194,-91,195,-141,196,-139,197,198]],"type":"Polygon","properties":{"objectid":118570,"statename":"Uttar Pradesh","statecode":"9","districtname":"Ghaziabad","districtcode":"140","ulbname":"Loni","ulbcode":"800733","wardname":"Jawaharnagar North","wardcode":"33","id":null,"status":"APPROVED","misglobalid":null,"approved_by":null,"createdate":1643649967000,"updateddate":1643701305000,"globalid":null,"gisglobalid":"KRoPn5Rs-K6R4-PR46-sdP5-PcaBsR5dKnQo","remark":"","st_area(shape)":0.000017923270901389653,"st_perimeter(shape)":0.021312521602581545}},{"arcs":[[199,200,201,202,203]],"type":"Polygon","properties":{"objectid":121668,"statename":"Uttar Pradesh","statecode":"9","districtname":"Ghaziabad","districtcode":"140","ulbname":"Loni","ulbcode":"800733","wardname":"Punit Inclave Kidwai Nagar","wardcode":"34","id":null,"status":"APPROVED","misglobalid":null,"approved_by":null,"createdate":1643649967000,"updateddate":1643700544000,"globalid":null,"gisglobalid":"5sdKd556-c5dQ-PKBR-RPdo-KBs4mKnB5osQ","remark":"","st_area(shape)":0.00006103851945856169,"st_perimeter(shape)":0.03339903197591447}},{"arcs":[[204,205,206,-163,207,208,209,210,211]],"type":"Polygon","properties":{"objectid":120456,"statename":"Uttar Pradesh","statecode":"9","districtname":"Ghaziabad","districtcode":"140","ulbname":"Loni","ulbcode":"800733","wardname":"Gadhi Jassi","wardcode":"35","id":null,"status":"APPROVED","misglobalid":null,"approved_by":null,"createdate":1643649967000,"updateddate":1643701401000,"globalid":null,"gisglobalid":"RK4mnlmR-PnKR-PKac-snQ5-d55oBonKB4aR","remark":"","st_area(shape)":0.0001093914790976212,"st_perimeter(shape)":0.05306784411991956}},{"arcs":[[212,-131,-93,-194,213,-56]],"type":"Polygon","properties":{"objectid":121273,"statename":"Uttar Pradesh","statecode":"9","districtname":"Ghaziabad","districtcode":"140","ulbname":"Loni","ulbcode":"800733","wardname":"Vikash Kunj","wardcode":"36","id":null,"status":"APPROVED","misglobalid":null,"approved_by":null,"createdate":1643649967000,"updateddate":1643701766000,"globalid":null,"gisglobalid":"cBaaPlRn-nnol-PncB-sllo-cPKnKmnPc4s6","remark":"","st_area(shape)":0.00002132460125558499,"st_perimeter(shape)":0.019088900366160306}},{"arcs":[[214,-147,215,216,-144,217,-89,-15]],"type":"Polygon","properties":{"objectid":120898,"statename":"Uttar Pradesh","statecode":"9","districtname":"Ghaziabad","districtcode":"140","ulbname":"Loni","ulbcode":"800733","wardname":"Indra Inclave","wardcode":"37","id":null,"status":"APPROVED","misglobalid":null,"approved_by":null,"createdate":1643649967000,"updateddate":1643701288000,"globalid":null,"gisglobalid":"PcmRRRPo-6lQd-Psos-aPl4-oBcK5RKR45Bc","remark":"","st_area(shape)":0.00002988851760177856,"st_perimeter(shape)":0.028546598677352212}},{"arcs":[[-126,218,219,-123,-99,220,221,-186,222,223,-107,224,-105,225]],"type":"Polygon","properties":{"objectid":120897,"statename":"Uttar Pradesh","statecode":"9","districtname":"Ghaziabad","districtcode":"140","ulbname":"Loni","ulbcode":"800733","wardname":"Balram Nagar Lal Bagh","wardcode":"38","id":null,"status":"APPROVED","misglobalid":null,"approved_by":null,"createdate":1643649967000,"updateddate":1643701326000,"globalid":null,"gisglobalid":"sdoRnQRm-sPKB-PQ44-s5dl-os4R4cB4lKds","remark":"","st_area(shape)":0.0000666463518387476,"st_perimeter(shape)":0.03659007417431138}},{"arcs":[[226,227,-212,228,-210,229,230,231,232,233,-63,-1,234,235,236]],"type":"Polygon","properties":{"objectid":119097,"statename":"Uttar Pradesh","statecode":"9","districtname":"Ghaziabad","districtcode":"140","ulbname":"Loni","ulbcode":"800733","wardname":"Khanna Nagar","wardcode":"39","id":null,"status":"APPROVED","misglobalid":null,"approved_by":null,"createdate":1643649967000,"updateddate":1643700866000,"globalid":null,"gisglobalid":"olsB665Q-scsP-Pcmn-Qacc-mn5o4ono45oB","remark":"","st_area(shape)":0.00013918361581952428,"st_perimeter(shape)":0.05133981698842111}},{"arcs":[[237,238,239,-237,240,241,242,243]],"type":"Polygon","properties":{"objectid":119096,"statename":"Uttar Pradesh","statecode":"9","districtname":"Ghaziabad","districtcode":"140","ulbname":"Loni","ulbcode":"800733","wardname":"Rajdhani Enclave","wardcode":"40","id":null,"status":"APPROVED","misglobalid":null,"approved_by":null,"createdate":1643649967000,"updateddate":1643700567000,"globalid":null,"gisglobalid":"PR6d6la5-QPdn-PRK4-Rnmd-4nsnnRPPlQdo","remark":"","st_area(shape)":0.00007524862123391951,"st_perimeter(shape)":0.03622336503582302}},{"arcs":[[-121,244,-172,245,246,247,-5]],"type":"Polygon","properties":{"objectid":118573,"statename":"Uttar Pradesh","statecode":"9","districtname":"Ghaziabad","districtcode":"140","ulbname":"Loni","ulbcode":"800733","wardname":"Sadullabad","wardcode":"41","id":null,"status":"APPROVED","misglobalid":null,"approved_by":null,"createdate":1643649967000,"updateddate":1643700739000,"globalid":null,"gisglobalid":"clcBdlB5-c465-PKdB-RPc4-55B6d4Rs6mRB","remark":"","st_area(shape)":0.00010367434872537998,"st_perimeter(shape)":0.0423748771320958}},{"arcs":[[-165,248,-207,249,-205,250,-200,251]],"type":"Polygon","properties":{"objectid":121660,"statename":"Uttar Pradesh","statecode":"9","districtname":"Ghaziabad","districtcode":"140","ulbname":"Loni","ulbcode":"800733","wardname":"Pavi  Sadakpur","wardcode":"42","id":null,"status":"APPROVED","misglobalid":null,"approved_by":null,"createdate":1643649967000,"updateddate":1643700524000,"globalid":null,"gisglobalid":"mnQm6da5-oosK-P6aa-RmBK-Koo6Rs45PmBK","remark":"","st_area(shape)":0.0001677200837447002,"st_perimeter(shape)":0.06810909303781283}},{"arcs":[[252,253,254,255,256,-189,257,258]],"type":"Polygon","properties":{"objectid":119091,"statename":"Uttar Pradesh","statecode":"9","districtname":"Ghaziabad","districtcode":"140","ulbname":"Loni","ulbcode":"800733","wardname":"Gori Patti East Mustafabad","wardcode":"43","id":null,"status":"APPROVED","misglobalid":null,"approved_by":null,"createdate":1643649967000,"updateddate":1643700956000,"globalid":null,"gisglobalid":"oQ6QcBRR-5KBo-Pod4-RBQ6-Pn56B6RBQQnB","remark":"","st_area(shape)":0.00005288372967104294,"st_perimeter(shape)":0.03386268853465923}},{"arcs":[[259,260,-202,261,-228,262,-239,263]],"type":"Polygon","properties":{"objectid":121666,"statename":"Uttar Pradesh","statecode":"9","districtname":"Ghaziabad","districtcode":"140","ulbname":"Loni","ulbcode":"800733","wardname":"Pooja Colony","wardcode":"44","id":null,"status":"APPROVED","misglobalid":null,"approved_by":null,"createdate":1643649967000,"updateddate":1643700824000,"globalid":null,"gisglobalid":"lcdlcssQ-QsKR-PmmP-R5Qm-PKQRaaQPll6m","remark":"","st_area(shape)":0.00003247392688109696,"st_perimeter(shape)":0.0327118062001414}},{"arcs":[[264,265,266,-247,-170,267,-168,268,269]],"type":"Polygon","properties":{"objectid":118253,"statename":"Uttar Pradesh","statecode":"9","districtname":"Ghaziabad","districtcode":"140","ulbname":"Loni","ulbcode":"800733","wardname":"Chaman Vihar","wardcode":"45","id":null,"status":"APPROVED","misglobalid":null,"approved_by":null,"createdate":1643649967000,"updateddate":1643700713000,"globalid":null,"gisglobalid":"nnQdlRlB-dsnm-PQ4m-a6ac-ssKl5anmdnma","remark":"","st_area(shape)":0.00005379040146641295,"st_perimeter(shape)":0.03686017783173677}},{"arcs":[[270,271,-242,272,-235,-7,-267,273,-265]],"type":"Polygon","properties":{"objectid":121667,"statename":"Uttar Pradesh","statecode":"9","districtname":"Ghaziabad","districtcode":"140","ulbname":"Loni","ulbcode":"800733","wardname":"Nanda Colony Khushal Park","wardcode":"46","id":null,"status":"APPROVED","misglobalid":null,"approved_by":null,"createdate":1643649967000,"updateddate":1643700631000,"globalid":null,"gisglobalid":"6mRQRR4R-dBcl-P445-snPK-dmooaKmasRmm","remark":"","st_area(shape)":0.00008541769865119458,"st_perimeter(shape)":0.037170290954346735}},{"arcs":[[274,275,276,-230,-209]],"type":"Polygon","properties":{"objectid":118572,"statename":"Uttar Pradesh","statecode":"9","districtname":"Ghaziabad","districtcode":"140","ulbname":"Loni","ulbcode":"800733","wardname":"Ashok Vihar North","wardcode":"47","id":null,"status":"APPROVED","misglobalid":null,"approved_by":null,"createdate":1643649967000,"updateddate":1643700840000,"globalid":null,"gisglobalid":"Rdsnn6d6-aQQ4-PQBB-alPl-odlRlocaoln4","remark":"","st_area(shape)":0.000027218927958306068,"st_perimeter(shape)":0.0262075714799465}},{"arcs":[[277,-74,278,-21,279,-85,-33,280,281,-42,282,-40,283,284]],"type":"Polygon","properties":{"objectid":121275,"statename":"Uttar Pradesh","statecode":"9","districtname":"Ghaziabad","districtcode":"140","ulbname":"Loni","ulbcode":"800733","wardname":"Behta Hazipur","wardcode":"48","id":null,"status":"APPROVED","misglobalid":null,"approved_by":null,"createdate":1643649967000,"updateddate":1643701186000,"globalid":null,"gisglobalid":"4Kcac4dR-4Rod-PPB5-Rss5-maBnQdRmaP5B","remark":"","st_area(shape)":0.000060267461392646173,"st_perimeter(shape)":0.04356546469769593}},{"arcs":[[-187,-222,-191,285,286]],"type":"Polygon","properties":{"objectid":120896,"statename":"Uttar Pradesh","statecode":"9","districtname":"Ghaziabad","districtcode":"140","ulbname":"Loni","ulbcode":"800733","wardname":"Premnagar Adarsh Mandi","wardcode":"49","id":null,"status":"APPROVED","misglobalid":null,"approved_by":null,"createdate":1643649967000,"updateddate":1643701498000,"globalid":null,"gisglobalid":"4655QnoQ-dl5P-P5mn-alKK-nQonPa5P4PKa","remark":"","st_area(shape)":0.000009550288168459969,"st_perimeter(shape)":0.01348550282715141}},{"arcs":[[-259,287,288,-231,-277,289]],"type":"Polygon","properties":{"objectid":118568,"statename":"Uttar Pradesh","statecode":"9","districtname":"Ghaziabad","districtcode":"140","ulbname":"Loni","ulbcode":"800733","wardname":"Ashok Vihar South","wardcode":"50","id":null,"status":"APPROVED","misglobalid":null,"approved_by":null,"createdate":1643649967000,"updateddate":1643701380000,"globalid":null,"gisglobalid":"PaRlmRRP-PB4l-PsBa-s44n-6KBnPo5loRQs","remark":"","st_area(shape)":0.000021390358455145676,"st_perimeter(shape)":0.020875586692252392}},{"arcs":[[-176,-137,-287,290,291]],"type":"Polygon","properties":{"objectid":120452,"statename":"Uttar Pradesh","statecode":"9","districtname":"Ghaziabad","districtcode":"140","ulbname":"Loni","ulbcode":"800733","wardname":"Rashid Nagar","wardcode":"51","id":null,"status":"APPROVED","misglobalid":null,"approved_by":null,"createdate":1643649967000,"updateddate":1643701043000,"globalid":null,"gisglobalid":"scQQlc5c-KBc5-PBlo-sB5o-45d6QKonPlll","remark":"","st_area(shape)":0.000024173228887848437,"st_perimeter(shape)":0.022603835605269355}},{"arcs":[[-288,-258,-188,-65,292,-233]],"type":"Polygon","properties":{"objectid":121662,"statename":"Uttar Pradesh","statecode":"9","districtname":"Ghaziabad","districtcode":"140","ulbname":"Loni","ulbcode":"800733","wardname":"Uparkot","wardcode":"52","id":null,"status":"APPROVED","misglobalid":null,"approved_by":null,"createdate":1643649967000,"updateddate":1643700937000,"globalid":null,"gisglobalid":"4mnP6sQR-6sB6-Pdn5-adKl-dKK6caPmPBa5","remark":"","st_area(shape)":0.000026953202580632036,"st_perimeter(shape)":0.022536073735502177}},{"arcs":[[293,-292,294,-286,-190,295,296]],"type":"Polygon","properties":{"objectid":119089,"statename":"Uttar Pradesh","statecode":"9","districtname":"Ghaziabad","districtcode":"140","ulbname":"Loni","ulbcode":"800733","wardname":"Ikramnagar","wardcode":"53","id":null,"status":"APPROVED","misglobalid":null,"approved_by":null,"createdate":1643649967000,"updateddate":1643700995000,"globalid":null,"gisglobalid":"smm5QmKm-oBBK-P5o4-QlKR-nocRd4BomBn5","remark":"","st_area(shape)":0.000021639184718083935,"st_perimeter(shape)":0.02340142372641767}},{"arcs":[[297,298,299,-181]],"type":"Polygon","properties":{"objectid":119364,"statename":"Uttar Pradesh","statecode":"9","districtname":"Ghaziabad","districtcode":"140","ulbname":"Loni","ulbcode":"800733","wardname":"Kanchan Park","wardcode":"54","id":null,"status":"APPROVED","misglobalid":null,"approved_by":null,"createdate":1643649967000,"updateddate":1643701003000,"globalid":null,"gisglobalid":"PQBan6os-P54Q-PRPn-sQmc-oncQlllPclan","remark":"","st_area(shape)":0.000018279313279363408,"st_perimeter(shape)":0.02176310592615167}},{"arcs":[[300,-158,301,-182,-300,302,-255]],"type":"Polygon","properties":{"objectid":120892,"statename":"Uttar Pradesh","statecode":"9","districtname":"Ghaziabad","districtcode":"140","ulbname":"Loni","ulbcode":"800733","wardname":"Mustafabad","wardcode":"55","id":null,"status":"APPROVED","misglobalid":null,"approved_by":null,"createdate":1643649967000,"updateddate":1643700969000,"globalid":null,"gisglobalid":"Pla6Ra5R-sQsn-P5aQ-aP4s-aKsaQ5mmmcsa","remark":"","st_area(shape)":0.00003392914379373325,"st_perimeter(shape)":0.030438527442258334}}]}}}