{"type": "FeatureCollection", "features": [{"type": "Feature", "geometry": {"type": "Polygon", "coordinates": [[[77.2913, 30.5676], [77.2914, 30.5676], [77.2915, 30.5676], [77.2915, 30.5677], [77.2914, 30.5671], [77.2912, 30.5667], [77.2912, 30.5665], [77.2912, 30.5663], [77.2912, 30.5661], [77.2912, 30.566], [77.2912, 30.5656], [77.2913, 30.5654], [77.2912, 30.5653], [77.2912, 30.5652], [77.2912, 30.5651], [77.2909, 30.5649], [77.2904, 30.5646], [77.2902, 30.5645], [77.2901, 30.5644], [77.2901, 30.5643], [77.2901, 30.5642], [77.2901, 30.5641], [77.2901, 30.5639], [77.2902, 30.5638], [77.2903, 30.5637], [77.2904, 30.5636], [77.2908, 30.5637], [77.291, 30.5637], [77.2912, 30.5636], [77.2912, 30.5635], [77.2912, 30.5634], [77.2912, 30.5631], [77.2912, 30.5629], [77.2913, 30.5629], [77.2916, 30.5629], [77.2919, 30.5627], [77.292, 30.5626], [77.2921, 30.5626], [77.2921, 30.5624], [77.292, 30.5622], [77.2922, 30.5622], [77.2924, 30.5621], [77.2925, 30.5621], [77.2926, 30.5621], [77.2927, 30.5621], [77.2926, 30.562], [77.2927, 30.562], [77.2928, 30.5619], [77.293, 30.5619], [77.2931, 30.5618], [77.2932, 30.5617], [77.2931, 30.5616], [77.2927, 30.5617], [77.2926, 30.5618], [77.2923, 30.5618], [77.2918, 30.5615], [77.2917, 30.5616], [77.2915, 30.5617], [77.2912, 30.5618], [77.291, 30.5619], [77.2906, 30.5619], [77.2901, 30.5617], [77.2897, 30.5615], [77.2896, 30.5615], [77.2894, 30.5611], [77.2891, 30.5604], [77.2891, 30.5603], [77.289, 30.5601], [77.2887, 30.56], [77.2886, 30.56], [77.2885, 30.56], [77.2884, 30.5601], [77.2882, 30.5602], [77.2881, 30.5603], [77.2879, 30.5604], [77.2877, 30.5604], [77.2876, 30.5604], [77.2874, 30.5602], [77.2873, 30.5601], [77.2872, 30.5601], [77.2871, 30.5601], [77.287, 30.5602], [77.2868, 30.5603], [77.2866, 30.5604], [77.2865, 30.5605], [77.2864, 30.5608], [77.2864, 30.5611], [77.2866, 30.5614], [77.2866, 30.5615], [77.2865, 30.5617], [77.2865, 30.5618], [77.2865, 30.5621], [77.2864, 30.5622], [77.2865, 30.5624], [77.2865, 30.5626], [77.2865, 30.5628], [77.2865, 30.5629], [77.2865, 30.563], [77.2866, 30.563], [77.2867, 30.5631], [77.2869, 30.5629], [77.287, 30.5629], [77.2871, 30.5631], [77.2871, 30.5634], [77.2871, 30.5636], [77.2872, 30.5637], [77.2872, 30.5638], [77.2872, 30.564], [77.2873, 30.5642], [77.2874, 30.5643], [77.2874, 30.5645], [77.2874, 30.5646], [77.2875, 30.5646], [77.2876, 30.5647], [77.2878, 30.5647], [77.2879, 30.5649], [77.288, 30.565], [77.2883, 30.5653], [77.2884, 30.5654], [77.2885, 30.5656], [77.2887, 30.5658], [77.2889, 30.5661], [77.2891, 30.5663], [77.2891, 30.5664], [77.2893, 30.5666], [77.2912, 30.5686], [77.2913, 30.5683], [77.2913, 30.5681], [77.2913, 30.568], [77.2912, 30.5678], [77.2913, 30.5676]]]}, "properties": {"objectid": 276199, "statename": "Himachal Pradesh", "statecode": "2", "districtname": "Sirmour", "districtcode": "32", "ulbname": "Nahan", "ulbcode": "800131", "wardname": "Dhaboan", "wardcode": "1", "id": null, "status": "APPROVED", "misglobalid": null, "approved_by": null, "createdate": 1657610242000, "updateddate": 1657617263000, "globalid": null, "gisglobalid": "noaQQPn5-Plnl-PaQm-QnBa-moPQaBKsRlPl", "remark": "", "st_area(shape)": 2.4319604986006847e-05, "st_perimeter(shape)": 0.02927362897275316}}, {"type": "Feature", "geometry": {"type": "Polygon", "coordinates": [[[77.302, 30.5685], [77.2999, 30.5673], [77.2993, 30.5669], [77.2989, 30.5667], [77.2983, 30.5663], [77.2979, 30.566], [77.2974, 30.5653], [77.2974, 30.5652], [77.297, 30.5647], [77.2968, 30.5643], [77.2964, 30.564], [77.2964, 30.5637], [77.2964, 30.5636], [77.2962, 30.5634], [77.2962, 30.5633], [77.2961, 30.5632], [77.2961, 30.5631], [77.2961, 30.5628], [77.2961, 30.5627], [77.2959, 30.5625], [77.2957, 30.5624], [77.2955, 30.5623], [77.2953, 30.5621], [77.2953, 30.562], [77.2952, 30.5618], [77.2953, 30.5618], [77.2953, 30.5617], [77.2952, 30.5617], [77.295, 30.5617], [77.2949, 30.5617], [77.2949, 30.5618], [77.2947, 30.5621], [77.2946, 30.5623], [77.2945, 30.5625], [77.2943, 30.5627], [77.294, 30.5627], [77.2938, 30.5627], [77.2935, 30.5627], [77.2934, 30.5627], [77.2932, 30.5626], [77.2931, 30.5626], [77.2932, 30.5624], [77.2934, 30.5621], [77.2933, 30.5618], [77.2932, 30.5617], [77.2931, 30.5618], [77.293, 30.5619], [77.2928, 30.5619], [77.2927, 30.562], [77.2926, 30.562], [77.2927, 30.5621], [77.2926, 30.5621], [77.2925, 30.5621], [77.2924, 30.5621], [77.2922, 30.5622], [77.292, 30.5622], [77.2921, 30.5624], [77.2921, 30.5626], [77.292, 30.5626], [77.2919, 30.5627], [77.2916, 30.5629], [77.2913, 30.5629], [77.2912, 30.5629], [77.2912, 30.5631], [77.2912, 30.5634], [77.2912, 30.5635], [77.2912, 30.5636], [77.291, 30.5637], [77.2908, 30.5637], [77.2904, 30.5636], [77.2903, 30.5637], [77.2902, 30.5638], [77.2901, 30.5639], [77.2901, 30.5641], [77.2901, 30.5642], [77.2901, 30.5643], [77.2901, 30.5644], [77.2902, 30.5645], [77.2904, 30.5646], [77.2909, 30.5649], [77.2912, 30.5651], [77.2912, 30.5652], [77.2912, 30.5653], [77.2913, 30.5654], [77.2912, 30.5656], [77.2912, 30.566], [77.2912, 30.5661], [77.2912, 30.5663], [77.2912, 30.5665], [77.2912, 30.5667], [77.2914, 30.5671], [77.2915, 30.5677], [77.2915, 30.5676], [77.2914, 30.5676], [77.2913, 30.5676], [77.2912, 30.5678], [77.2913, 30.568], [77.2913, 30.5681], [77.2913, 30.5683], [77.2912, 30.5686], [77.2911, 30.5687], [77.2909, 30.5687], [77.2906, 30.5688], [77.2903, 30.5689], [77.2899, 30.569], [77.2895, 30.5694], [77.2888, 30.5701], [77.2882, 30.5705], [77.287, 30.5715], [77.2864, 30.572], [77.2854, 30.5725], [77.2854, 30.5726], [77.2856, 30.5727], [77.2857, 30.573], [77.2858, 30.5731], [77.2859, 30.5734], [77.2862, 30.574], [77.2868, 30.5747], [77.288, 30.5748], [77.2887, 30.575], [77.2891, 30.575], [77.2901, 30.5752], [77.2912, 30.5753], [77.2922, 30.5758], [77.2934, 30.5759], [77.2945, 30.5761], [77.2957, 30.5758], [77.2972, 30.5751], [77.2976, 30.575], [77.2999, 30.5744], [77.3039, 30.5727], [77.3051, 30.5716], [77.3053, 30.5713], [77.3021, 30.5686], [77.302, 30.5685]]]}, "properties": {"objectid": 278945, "statename": "Himachal Pradesh", "statecode": "2", "districtname": "Sirmour", "districtcode": "32", "ulbname": "Nahan", "ulbcode": "800131", "wardname": "Haripur", "wardcode": "2", "id": null, "status": "APPROVED", "misglobalid": null, "approved_by": null, "createdate": 1657610562000, "updateddate": 1657617303000, "globalid": null, "gisglobalid": "dPKQBQPa-cKmd-PPdm-RlnP-mmln5s6o5dd5", "remark": "", "st_area(shape)": 0.00014815574146606478, "st_perimeter(shape)": 0.0586162095657869}}, {"type": "Feature", "geometry": {"type": "Polygon", "coordinates": [[[77.3001, 30.5614], [77.3, 30.5612], [77.2999, 30.5612], [77.2999, 30.5613], [77.2998, 30.5613], [77.2997, 30.5613], [77.2996, 30.5612], [77.2993, 30.5612], [77.299, 30.5612], [77.2987, 30.5612], [77.2985, 30.5611], [77.2984, 30.5611], [77.2982, 30.561], [77.298, 30.5608], [77.298, 30.5607], [77.298, 30.5604], [77.298, 30.5603], [77.2979, 30.5602], [77.2982, 30.5598], [77.2981, 30.5597], [77.298, 30.5595], [77.2981, 30.5594], [77.298, 30.5593], [77.2979, 30.5593], [77.2975, 30.5593], [77.2971, 30.5593], [77.297, 30.5593], [77.2969, 30.5591], [77.2967, 30.5589], [77.2966, 30.5588], [77.2964, 30.5589], [77.296, 30.5591], [77.2952, 30.5593], [77.2953, 30.5595], [77.2953, 30.5596], [77.2954, 30.5598], [77.2954, 30.5599], [77.2954, 30.56], [77.2954, 30.5601], [77.2957, 30.5607], [77.2959, 30.561], [77.296, 30.561], [77.2961, 30.5611], [77.2961, 30.5612], [77.2962, 30.5614], [77.2961, 30.5615], [77.296, 30.5617], [77.2959, 30.5617], [77.2955, 30.5617], [77.2953, 30.5617], [77.2953, 30.5618], [77.2952, 30.5618], [77.2953, 30.562], [77.2953, 30.5621], [77.2955, 30.5623], [77.2957, 30.5624], [77.2959, 30.5625], [77.2961, 30.5627], [77.2961, 30.5628], [77.2961, 30.5631], [77.2961, 30.5632], [77.2962, 30.5633], [77.2962, 30.5634], [77.2964, 30.5636], [77.2964, 30.5637], [77.2964, 30.564], [77.2968, 30.5643], [77.297, 30.5647], [77.2974, 30.5652], [77.2974, 30.5653], [77.2979, 30.566], [77.2983, 30.5663], [77.2989, 30.5667], [77.2993, 30.5669], [77.2999, 30.5673], [77.302, 30.5685], [77.3021, 30.5686], [77.3053, 30.5713], [77.3057, 30.5706], [77.3052, 30.5702], [77.3044, 30.5695], [77.3037, 30.5686], [77.3035, 30.5681], [77.3031, 30.5666], [77.3027, 30.5655], [77.3026, 30.565], [77.3021, 30.5642], [77.3016, 30.5632], [77.3014, 30.5629], [77.3012, 30.5627], [77.3012, 30.5626], [77.301, 30.5624], [77.3008, 30.5621], [77.3005, 30.5617], [77.3005, 30.5616], [77.3001, 30.5614]]]}, "properties": {"objectid": 279345, "statename": "Himachal Pradesh", "statecode": "2", "districtname": "Sirmour", "districtcode": "32", "ulbname": "Nahan", "ulbcode": "800131", "wardname": "Shanti Sargam", "wardcode": "3", "id": null, "status": "APPROVED", "misglobalid": null, "approved_by": null, "createdate": 1657610670000, "updateddate": 1657617329000, "globalid": null, "gisglobalid": "6slad5BP-c5Rd-PPPl-Qcma-4cRR56o4sRnQ", "remark": "", "st_area(shape)": 4.190635292259908e-05, "st_perimeter(shape)": 0.03697688665035702}}, {"type": "Feature", "geometry": {"type": "Polygon", "coordinates": [[[77.2999, 30.5613], [77.2999, 30.5612], [77.2997, 30.5611], [77.2998, 30.561], [77.2999, 30.561], [77.2999, 30.5609], [77.2999, 30.5608], [77.3, 30.5607], [77.3002, 30.5606], [77.3006, 30.5607], [77.3009, 30.5606], [77.3009, 30.5604], [77.3007, 30.5603], [77.3005, 30.56], [77.3004, 30.5598], [77.3005, 30.5597], [77.3005, 30.5595], [77.3004, 30.5593], [77.3003, 30.5594], [77.3002, 30.5594], [77.3001, 30.5594], [77.3, 30.5593], [77.2999, 30.5592], [77.2996, 30.559], [77.2995, 30.5588], [77.2994, 30.5588], [77.2993, 30.5588], [77.2993, 30.5589], [77.2992, 30.5589], [77.2991, 30.5589], [77.2991, 30.559], [77.299, 30.5591], [77.2989, 30.5592], [77.2988, 30.5593], [77.2987, 30.5593], [77.2986, 30.5594], [77.2984, 30.5594], [77.2982, 30.5594], [77.2981, 30.5594], [77.298, 30.5595], [77.2981, 30.5597], [77.2982, 30.5598], [77.2979, 30.5602], [77.298, 30.5603], [77.298, 30.5604], [77.298, 30.5607], [77.298, 30.5608], [77.2982, 30.561], [77.2984, 30.5611], [77.2985, 30.5611], [77.2987, 30.5612], [77.299, 30.5612], [77.2993, 30.5612], [77.2996, 30.5612], [77.2997, 30.5613], [77.2998, 30.5613], [77.2999, 30.5613]]]}, "properties": {"objectid": 279347, "statename": "Himachal Pradesh", "statecode": "2", "districtname": "Sirmour", "districtcode": "32", "ulbname": "Nahan", "ulbcode": "800131", "wardname": "Shamsher Ganj", "wardcode": "4", "id": null, "status": "APPROVED", "misglobalid": null, "approved_by": null, "createdate": 1657610753000, "updateddate": 1657617382000, "globalid": null, "gisglobalid": "cPdmBBdB-m5QP-PBns-RQsR-omsanadR4lo5", "remark": "", "st_area(shape)": 4.617100832625825e-06, "st_perimeter(shape)": 0.009784820725616872}}, {"type": "Feature", "geometry": {"type": "Polygon", "coordinates": [[[77.3139, 30.5629], [77.3137, 30.5604], [77.3132, 30.5591], [77.313, 30.5588], [77.3128, 30.5585], [77.3117, 30.5581], [77.3088, 30.5572], [77.3069, 30.5569], [77.3061, 30.5568], [77.306, 30.5568], [77.3058, 30.5579], [77.3057, 30.5585], [77.3054, 30.5586], [77.305, 30.5587], [77.3044, 30.5586], [77.3032, 30.5584], [77.3023, 30.5582], [77.3019, 30.558], [77.3019, 30.5579], [77.3018, 30.5578], [77.3016, 30.5577], [77.3013, 30.5577], [77.301, 30.5577], [77.3008, 30.5575], [77.3006, 30.5575], [77.3005, 30.5578], [77.3007, 30.5579], [77.3007, 30.558], [77.3009, 30.5582], [77.3009, 30.5584], [77.3006, 30.5585], [77.3004, 30.5585], [77.3002, 30.5585], [77.2999, 30.5585], [77.2997, 30.5585], [77.2996, 30.5586], [77.2996, 30.5588], [77.2995, 30.5588], [77.2996, 30.559], [77.2999, 30.5592], [77.3, 30.5593], [77.3001, 30.5594], [77.3002, 30.5594], [77.3003, 30.5594], [77.3004, 30.5593], [77.3005, 30.5595], [77.3005, 30.5597], [77.3004, 30.5598], [77.3005, 30.56], [77.3007, 30.5603], [77.3009, 30.5604], [77.3009, 30.5606], [77.3006, 30.5607], [77.3002, 30.5606], [77.3, 30.5607], [77.2999, 30.5608], [77.2999, 30.5609], [77.2999, 30.561], [77.2998, 30.561], [77.2997, 30.5611], [77.2999, 30.5612], [77.3, 30.5612], [77.3001, 30.5614], [77.3005, 30.5616], [77.3005, 30.5617], [77.3008, 30.5621], [77.301, 30.5624], [77.3012, 30.5626], [77.3012, 30.5627], [77.3014, 30.5629], [77.3016, 30.5632], [77.3021, 30.5642], [77.3026, 30.565], [77.3027, 30.5655], [77.3031, 30.5666], [77.3035, 30.5681], [77.3037, 30.5686], [77.3044, 30.5695], [77.3052, 30.5702], [77.3057, 30.5706], [77.306, 30.5702], [77.3066, 30.5694], [77.308, 30.5687], [77.3095, 30.568], [77.3126, 30.5658], [77.3129, 30.5653], [77.313, 30.565], [77.3139, 30.5629]]]}, "properties": {"objectid": 279348, "statename": "Himachal Pradesh", "statecode": "2", "districtname": "Sirmour", "districtcode": "32", "ulbname": "Nahan", "ulbcode": "800131", "wardname": "Amarpur", "wardcode": "5", "id": null, "status": "APPROVED", "misglobalid": null, "approved_by": null, "createdate": 1657610804000, "updateddate": 1657617425000, "globalid": null, "gisglobalid": "mKcnoPod-dacP-PQm5-Qncm-dB6R66QsBo6K", "remark": "", "st_area(shape)": 0.00012298633932462597, "st_perimeter(shape)": 0.04891432505829814}}, {"type": "Feature", "geometry": {"type": "Polygon", "coordinates": [[[77.2993, 30.5589], [77.2993, 30.5588], [77.2994, 30.5588], [77.2995, 30.5588], [77.2996, 30.5588], [77.2996, 30.5586], [77.2997, 30.5585], [77.2999, 30.5585], [77.3002, 30.5585], [77.3004, 30.5585], [77.3006, 30.5585], [77.3009, 30.5584], [77.3009, 30.5582], [77.3007, 30.558], [77.3007, 30.5579], [77.3005, 30.5578], [77.3006, 30.5575], [77.3008, 30.5575], [77.301, 30.5577], [77.3013, 30.5577], [77.3016, 30.5577], [77.3018, 30.5578], [77.3019, 30.5579], [77.3019, 30.558], [77.3023, 30.5582], [77.3032, 30.5584], [77.3044, 30.5586], [77.305, 30.5587], [77.3054, 30.5586], [77.3057, 30.5585], [77.3058, 30.5579], [77.306, 30.5568], [77.3059, 30.5567], [77.3058, 30.5567], [77.3057, 30.5567], [77.3057, 30.5566], [77.3055, 30.5566], [77.3055, 30.5565], [77.3054, 30.5565], [77.3053, 30.5564], [77.3052, 30.5563], [77.3052, 30.5562], [77.3051, 30.5561], [77.305, 30.5561], [77.3049, 30.556], [77.3049, 30.5559], [77.3048, 30.5559], [77.3047, 30.5558], [77.3046, 30.5557], [77.3045, 30.5556], [77.3044, 30.5555], [77.3043, 30.5554], [77.3043, 30.5553], [77.3042, 30.5552], [77.3041, 30.5551], [77.3041, 30.555], [77.304, 30.5549], [77.3039, 30.5549], [77.3038, 30.5548], [77.3037, 30.5547], [77.3036, 30.5546], [77.3035, 30.5546], [77.3035, 30.5545], [77.3034, 30.5544], [77.3032, 30.5543], [77.3031, 30.5542], [77.303, 30.5541], [77.3029, 30.5541], [77.3029, 30.554], [77.3028, 30.554], [77.3027, 30.5539], [77.3026, 30.5538], [77.3025, 30.5538], [77.3025, 30.5537], [77.3024, 30.5537], [77.3023, 30.5536], [77.3022, 30.5535], [77.3021, 30.5535], [77.3021, 30.5534], [77.302, 30.5534], [77.3019, 30.5533], [77.3018, 30.5533], [77.3017, 30.5532], [77.3016, 30.5532], [77.3016, 30.5531], [77.3015, 30.5531], [77.3014, 30.553], [77.3013, 30.553], [77.3012, 30.553], [77.3011, 30.553], [77.301, 30.5529], [77.3009, 30.5529], [77.3008, 30.5528], [77.3007, 30.5528], [77.3006, 30.5528], [77.3005, 30.5527], [77.3004, 30.5527], [77.3004, 30.5526], [77.3003, 30.5526], [77.3002, 30.5525], [77.3001, 30.5525], [77.3001, 30.5524], [77.3, 30.5524], [77.2999, 30.5523], [77.2998, 30.5523], [77.2998, 30.5522], [77.2997, 30.5521], [77.2996, 30.552], [77.2995, 30.552], [77.2994, 30.5519], [77.2993, 30.5519], [77.2992, 30.5518], [77.2991, 30.5518], [77.299, 30.5518], [77.2989, 30.5518], [77.2989, 30.5517], [77.2988, 30.5517], [77.2987, 30.5517], [77.2986, 30.5517], [77.2984, 30.5517], [77.2983, 30.5517], [77.2982, 30.5517], [77.2981, 30.5517], [77.298, 30.5516], [77.2979, 30.5516], [77.2978, 30.5516], [77.2977, 30.5516], [77.2976, 30.5515], [77.2975, 30.5515], [77.2974, 30.5515], [77.2973, 30.5515], [77.2972, 30.5514], [77.2971, 30.5514], [77.2971, 30.5513], [77.2969, 30.5513], [77.2968, 30.5512], [77.2967, 30.5512], [77.2967, 30.5511], [77.2966, 30.5511], [77.2965, 30.5511], [77.2965, 30.551], [77.2964, 30.551], [77.2963, 30.551], [77.2963, 30.5509], [77.2962, 30.5509], [77.2962, 30.5508], [77.2961, 30.5508], [77.296, 30.5507], [77.2959, 30.5507], [77.2958, 30.5506], [77.2957, 30.5506], [77.2957, 30.5505], [77.2956, 30.5505], [77.2956, 30.5504], [77.2955, 30.5504], [77.2952, 30.5502], [77.2951, 30.5501], [77.295, 30.55], [77.2948, 30.5499], [77.2948, 30.5502], [77.2944, 30.5517], [77.2941, 30.5533], [77.2942, 30.5548], [77.2942, 30.5553], [77.2943, 30.5558], [77.2945, 30.5567], [77.2945, 30.5568], [77.2945, 30.5569], [77.2948, 30.5572], [77.2949, 30.5575], [77.2949, 30.5577], [77.2949, 30.5578], [77.295, 30.5579], [77.295, 30.5581], [77.295, 30.5582], [77.2951, 30.5583], [77.295, 30.5584], [77.2949, 30.5586], [77.2948, 30.5587], [77.2948, 30.5588], [77.2949, 30.559], [77.2952, 30.5593], [77.296, 30.5591], [77.2964, 30.5589], [77.2966, 30.5588], [77.2967, 30.5589], [77.2969, 30.5591], [77.297, 30.5593], [77.2971, 30.5593], [77.2975, 30.5593], [77.2979, 30.5593], [77.298, 30.5593], [77.2981, 30.5594], [77.2982, 30.5594], [77.2984, 30.5594], [77.2986, 30.5594], [77.2987, 30.5593], [77.2988, 30.5593], [77.2989, 30.5592], [77.299, 30.5591], [77.2991, 30.559], [77.2991, 30.5589], [77.2992, 30.5589], [77.2993, 30.5589]]]}, "properties": {"objectid": 276201, "statename": "Himachal Pradesh", "statecode": "2", "districtname": "Sirmour", "districtcode": "32", "ulbname": "Nahan", "ulbcode": "800131", "wardname": "Naya Bazar", "wardcode": "6", "id": null, "status": "APPROVED", "misglobalid": null, "approved_by": null, "createdate": 1657610978000, "updateddate": 1657617449000, "globalid": null, "gisglobalid": "K55PPRPP-6nQm-Plsm-Q4Ko-KmQ6nRRmB6Ks", "remark": "", "st_area(shape)": 6.731953384395663e-05, "st_perimeter(shape)": 0.03795817535554138}}, {"type": "Feature", "geometry": {"type": "Polygon", "coordinates": [[[77.2949, 30.5617], [77.295, 30.5617], [77.2952, 30.5617], [77.2953, 30.5617], [77.2955, 30.5617], [77.2959, 30.5617], [77.296, 30.5617], [77.2961, 30.5615], [77.2962, 30.5614], [77.2961, 30.5612], [77.2961, 30.5611], [77.296, 30.561], [77.2959, 30.561], [77.2957, 30.5607], [77.2954, 30.5601], [77.2954, 30.56], [77.2954, 30.5599], [77.2954, 30.5598], [77.2953, 30.5596], [77.2953, 30.5595], [77.2952, 30.5593], [77.2949, 30.559], [77.2948, 30.5588], [77.2948, 30.5587], [77.2949, 30.5586], [77.295, 30.5584], [77.2951, 30.5583], [77.2945, 30.5582], [77.2941, 30.558], [77.2938, 30.558], [77.2937, 30.558], [77.2935, 30.558], [77.2935, 30.5579], [77.2934, 30.558], [77.2934, 30.5581], [77.2934, 30.5582], [77.2933, 30.5582], [77.2931, 30.5583], [77.293, 30.5585], [77.2929, 30.5585], [77.2929, 30.5586], [77.2928, 30.5586], [77.2929, 30.5587], [77.2931, 30.5588], [77.2932, 30.5589], [77.2933, 30.559], [77.2934, 30.5591], [77.2934, 30.5593], [77.2934, 30.5595], [77.2935, 30.5597], [77.2935, 30.5598], [77.2936, 30.56], [77.2937, 30.5601], [77.2938, 30.5603], [77.2939, 30.5604], [77.2939, 30.5605], [77.2938, 30.5606], [77.2938, 30.5607], [77.2938, 30.5608], [77.2939, 30.5609], [77.2939, 30.561], [77.2938, 30.561], [77.2937, 30.5611], [77.2936, 30.5611], [77.2935, 30.5611], [77.2934, 30.5611], [77.2934, 30.561], [77.2933, 30.5608], [77.2932, 30.5608], [77.293, 30.5609], [77.2928, 30.561], [77.2927, 30.561], [77.2926, 30.5609], [77.2918, 30.5615], [77.2923, 30.5618], [77.2926, 30.5618], [77.2927, 30.5617], [77.2931, 30.5616], [77.2932, 30.5617], [77.2933, 30.5618], [77.2934, 30.5621], [77.2932, 30.5624], [77.2931, 30.5626], [77.2932, 30.5626], [77.2934, 30.5627], [77.2935, 30.5627], [77.2938, 30.5627], [77.294, 30.5627], [77.2943, 30.5627], [77.2945, 30.5625], [77.2946, 30.5623], [77.2947, 30.5621], [77.2949, 30.5618], [77.2949, 30.5617]]]}, "properties": {"objectid": 276203, "statename": "Himachal Pradesh", "statecode": "2", "districtname": "Sirmour", "districtcode": "32", "ulbname": "Nahan", "ulbcode": "800131", "wardname": "Upper Ki Kotli", "wardcode": "7", "id": null, "status": "APPROVED", "misglobalid": null, "approved_by": null, "createdate": 1657611161000, "updateddate": 1657617593000, "globalid": null, "gisglobalid": "calBBl55-6aPP-PcQl-Qc5m-lnoaKand6s4K", "remark": "", "st_area(shape)": 9.394984824003345e-06, "st_perimeter(shape)": 0.017925632461275005}}, {"type": "Feature", "geometry": {"type": "Polygon", "coordinates": [[[77.2938, 30.5608], [77.2938, 30.5607], [77.2938, 30.5606], [77.2939, 30.5605], [77.2939, 30.5604], [77.2938, 30.5603], [77.2937, 30.5601], [77.2936, 30.56], [77.2935, 30.5598], [77.2935, 30.5597], [77.2934, 30.5595], [77.2934, 30.5593], [77.2934, 30.5591], [77.2933, 30.559], [77.2932, 30.5589], [77.2931, 30.5588], [77.2929, 30.5587], [77.2928, 30.5586], [77.2927, 30.5586], [77.2926, 30.5587], [77.2925, 30.5587], [77.2924, 30.5587], [77.2922, 30.5588], [77.2919, 30.5588], [77.2916, 30.5588], [77.2915, 30.5588], [77.2916, 30.559], [77.2917, 30.5592], [77.2917, 30.5593], [77.2916, 30.5593], [77.2915, 30.5594], [77.2916, 30.5594], [77.2917, 30.5595], [77.2917, 30.5596], [77.2918, 30.5596], [77.2919, 30.5597], [77.292, 30.5598], [77.292, 30.5599], [77.2921, 30.5599], [77.2924, 30.5599], [77.2926, 30.5598], [77.2928, 30.5599], [77.2928, 30.56], [77.2927, 30.5601], [77.2928, 30.5602], [77.2928, 30.5603], [77.293, 30.5604], [77.2931, 30.5604], [77.2931, 30.5605], [77.2929, 30.5607], [77.2926, 30.5609], [77.2927, 30.561], [77.2928, 30.561], [77.293, 30.5609], [77.2932, 30.5608], [77.2933, 30.5608], [77.2934, 30.561], [77.2934, 30.5611], [77.2935, 30.5611], [77.2936, 30.5611], [77.2937, 30.5611], [77.2938, 30.561], [77.2939, 30.561], [77.2939, 30.5609], [77.2938, 30.5608]]]}, "properties": {"objectid": 279350, "statename": "Himachal Pradesh", "statecode": "2", "districtname": "Sirmour", "districtcode": "32", "ulbname": "Nahan", "ulbcode": "800131", "wardname": "Ranital", "wardcode": "8", "id": null, "status": "APPROVED", "misglobalid": null, "approved_by": null, "createdate": 1657611248000, "updateddate": 1657617622000, "globalid": null, "gisglobalid": "slRRoa5a-4Bnc-Pc64-sno6-scnsKoRc6RcK", "remark": "", "st_area(shape)": 2.9537606650844665e-06, "st_perimeter(shape)": 0.009549338502909368}}, {"type": "Feature", "geometry": {"type": "Polygon", "coordinates": [[[77.2928, 30.5599], [77.2926, 30.5598], [77.2924, 30.5599], [77.2921, 30.5599], [77.292, 30.5599], [77.292, 30.5598], [77.2919, 30.5597], [77.2918, 30.5596], [77.2917, 30.5596], [77.2917, 30.5595], [77.2916, 30.5594], [77.2915, 30.5594], [77.2916, 30.5593], [77.2917, 30.5593], [77.2917, 30.5592], [77.2916, 30.559], [77.2915, 30.5588], [77.2914, 30.5588], [77.2913, 30.5587], [77.2911, 30.5588], [77.291, 30.5588], [77.2909, 30.5589], [77.2908, 30.5589], [77.2906, 30.5589], [77.2903, 30.559], [77.2901, 30.5591], [77.2899, 30.5591], [77.2896, 30.5591], [77.2893, 30.5592], [77.2893, 30.5593], [77.2894, 30.5593], [77.2894, 30.5594], [77.2894, 30.5595], [77.2895, 30.5596], [77.2896, 30.5596], [77.2897, 30.5597], [77.2898, 30.5597], [77.2898, 30.5598], [77.2899, 30.5598], [77.2899, 30.56], [77.29, 30.5602], [77.29, 30.5603], [77.29, 30.5605], [77.29, 30.5606], [77.2899, 30.5606], [77.2899, 30.5607], [77.2898, 30.5608], [77.2897, 30.5609], [77.2896, 30.561], [77.2895, 30.5611], [77.2894, 30.5611], [77.2896, 30.5615], [77.2897, 30.5615], [77.2901, 30.5617], [77.2906, 30.5619], [77.291, 30.5619], [77.2912, 30.5618], [77.2915, 30.5617], [77.2917, 30.5616], [77.2918, 30.5615], [77.2926, 30.5609], [77.2929, 30.5607], [77.2931, 30.5605], [77.2931, 30.5604], [77.293, 30.5604], [77.2928, 30.5603], [77.2928, 30.5602], [77.2927, 30.5601], [77.2928, 30.56], [77.2928, 30.5599]]]}, "properties": {"objectid": 276205, "statename": "Himachal Pradesh", "statecode": "2", "districtname": "Sirmour", "districtcode": "32", "ulbname": "Nahan", "ulbcode": "800131", "wardname": "Meyan Ka Mandir", "wardcode": "9", "id": null, "status": "APPROVED", "misglobalid": null, "approved_by": null, "createdate": 1657611407000, "updateddate": 1657617673000, "globalid": null, "gisglobalid": "lPsPaKmm-6nKP-PaRK-QR4R-Qmn5ccK5mmQP", "remark": "", "st_area(shape)": 7.0764203858202255e-06, "st_perimeter(shape)": 0.01225989343142529}}, {"type": "Feature", "geometry": {"type": "Polygon", "coordinates": [[[77.2899, 30.56], [77.2899, 30.5598], [77.2898, 30.5598], [77.2898, 30.5597], [77.2897, 30.5597], [77.2896, 30.5596], [77.2895, 30.5596], [77.2894, 30.5595], [77.2894, 30.5594], [77.2894, 30.5593], [77.2893, 30.5593], [77.2893, 30.5592], [77.2891, 30.5592], [77.2888, 30.5593], [77.2886, 30.5592], [77.2885, 30.5591], [77.2885, 30.5593], [77.2885, 30.5594], [77.2884, 30.5594], [77.2882, 30.5594], [77.2881, 30.5594], [77.2879, 30.5594], [77.2874, 30.5597], [77.287, 30.5598], [77.2868, 30.56], [77.2866, 30.5604], [77.2868, 30.5603], [77.287, 30.5602], [77.2871, 30.5601], [77.2872, 30.5601], [77.2873, 30.5601], [77.2874, 30.5602], [77.2876, 30.5604], [77.2877, 30.5604], [77.2879, 30.5604], [77.2881, 30.5603], [77.2882, 30.5602], [77.2884, 30.5601], [77.2885, 30.56], [77.2886, 30.56], [77.2887, 30.56], [77.289, 30.5601], [77.2891, 30.5603], [77.2891, 30.5604], [77.2894, 30.5611], [77.2895, 30.5611], [77.2896, 30.561], [77.2897, 30.5609], [77.2898, 30.5608], [77.2899, 30.5607], [77.2899, 30.5606], [77.29, 30.5606], [77.29, 30.5605], [77.29, 30.5603], [77.29, 30.5602], [77.2899, 30.56]]]}, "properties": {"objectid": 280145, "statename": "Himachal Pradesh", "statecode": "2", "districtname": "Sirmour", "districtcode": "32", "ulbname": "Nahan", "ulbcode": "800131", "wardname": "Kacha Tank", "wardcode": "10", "id": null, "status": "APPROVED", "misglobalid": null, "approved_by": null, "createdate": 1657615654000, "updateddate": 1657618111000, "globalid": null, "gisglobalid": "c5s5o5Rc-5dPa-Pa5c-amQP-dsBddKasRQ6B", "remark": "", "st_area(shape)": 2.8086359624334538e-06, "st_perimeter(shape)": 0.009848207539786652}}, {"type": "Feature", "geometry": {"type": "Polygon", "coordinates": [[[77.2888, 30.5593], [77.2891, 30.5592], [77.2893, 30.5592], [77.2896, 30.5591], [77.2899, 30.5591], [77.2901, 30.5591], [77.2903, 30.559], [77.2906, 30.5589], [77.2908, 30.5589], [77.2909, 30.5589], [77.291, 30.5588], [77.2911, 30.5588], [77.2913, 30.5587], [77.2914, 30.5588], [77.2915, 30.5588], [77.2916, 30.5588], [77.2919, 30.5588], [77.2922, 30.5588], [77.2924, 30.5587], [77.2925, 30.5587], [77.2926, 30.5587], [77.2927, 30.5586], [77.2928, 30.5586], [77.2929, 30.5586], [77.2929, 30.5585], [77.293, 30.5585], [77.2931, 30.5583], [77.2933, 30.5582], [77.2934, 30.5582], [77.2934, 30.5581], [77.2934, 30.558], [77.2935, 30.5579], [77.2934, 30.5579], [77.2934, 30.5578], [77.2933, 30.5578], [77.2932, 30.5578], [77.2934, 30.5577], [77.2933, 30.5576], [77.2932, 30.5576], [77.2932, 30.5575], [77.2931, 30.5575], [77.2929, 30.5575], [77.2927, 30.5576], [77.2925, 30.5576], [77.2924, 30.5576], [77.2924, 30.5574], [77.2923, 30.5573], [77.2922, 30.5572], [77.292, 30.5571], [77.2919, 30.5572], [77.2918, 30.5574], [77.2917, 30.5576], [77.2917, 30.5578], [77.2916, 30.558], [77.2916, 30.5581], [77.2914, 30.5581], [77.2911, 30.5581], [77.2909, 30.5582], [77.2907, 30.5582], [77.2905, 30.5582], [77.2905, 30.5583], [77.2903, 30.5584], [77.2901, 30.5583], [77.2899, 30.5583], [77.2896, 30.5583], [77.2894, 30.5583], [77.2892, 30.5583], [77.289, 30.5584], [77.2891, 30.5584], [77.2888, 30.5585], [77.2887, 30.5585], [77.2885, 30.5585], [77.2883, 30.5585], [77.2882, 30.5585], [77.2881, 30.5586], [77.288, 30.5586], [77.2882, 30.5588], [77.2883, 30.5588], [77.2885, 30.559], [77.2885, 30.5591], [77.2886, 30.5592], [77.2888, 30.5593]]]}, "properties": {"objectid": 280547, "statename": "Himachal Pradesh", "statecode": "2", "districtname": "Sirmour", "districtcode": "32", "ulbname": "Nahan", "ulbcode": "800131", "wardname": "Jagannath Mandir", "wardcode": "11", "id": null, "status": "APPROVED", "misglobalid": null, "approved_by": null, "createdate": 1657617179000, "updateddate": 1657617746000, "globalid": null, "gisglobalid": "sBcPs4mc-mBRK-PK4B-QnoK-slK6QlRlQsRP", "remark": "", "st_area(shape)": 4.541927598023843e-06, "st_perimeter(shape)": 0.013230337900157898}}, {"type": "Feature", "geometry": {"type": "Polygon", "coordinates": [[[77.2702, 30.5766], [77.2704, 30.5765], [77.2707, 30.5765], [77.271, 30.5765], [77.2713, 30.5762], [77.2717, 30.5759], [77.2719, 30.5757], [77.2722, 30.5754], [77.2727, 30.5752], [77.2733, 30.5749], [77.2743, 30.5743], [77.275, 30.574], [77.2754, 30.5741], [77.2765, 30.574], [77.2769, 30.5741], [77.2774, 30.5742], [77.2777, 30.5743], [77.2782, 30.5742], [77.2788, 30.5739], [77.2791, 30.5737], [77.2798, 30.5735], [77.2801, 30.5734], [77.2806, 30.5731], [77.2811, 30.5728], [77.2818, 30.5727], [77.2826, 30.5723], [77.2835, 30.5724], [77.2844, 30.5725], [77.2854, 30.5726], [77.2854, 30.5725], [77.2864, 30.572], [77.287, 30.5715], [77.2882, 30.5705], [77.2888, 30.5701], [77.2895, 30.5694], [77.2899, 30.569], [77.2903, 30.5689], [77.2906, 30.5688], [77.2909, 30.5687], [77.2911, 30.5687], [77.2912, 30.5686], [77.2893, 30.5666], [77.2891, 30.5664], [77.2891, 30.5663], [77.2889, 30.5661], [77.2887, 30.5658], [77.2885, 30.5656], [77.2884, 30.5654], [77.2883, 30.5653], [77.288, 30.565], [77.2879, 30.5649], [77.2878, 30.5647], [77.2876, 30.5647], [77.2875, 30.5646], [77.2874, 30.5646], [77.2874, 30.5645], [77.2874, 30.5643], [77.2873, 30.5642], [77.2872, 30.564], [77.2872, 30.5638], [77.2872, 30.5637], [77.2871, 30.5636], [77.2871, 30.5634], [77.2871, 30.5631], [77.287, 30.5629], [77.2869, 30.5629], [77.2867, 30.5631], [77.2866, 30.563], [77.2865, 30.563], [77.2865, 30.5629], [77.2865, 30.5628], [77.2865, 30.5626], [77.2865, 30.5624], [77.2864, 30.5622], [77.2865, 30.5621], [77.2865, 30.5618], [77.2865, 30.5617], [77.2866, 30.5615], [77.2866, 30.5614], [77.2864, 30.5611], [77.2864, 30.5608], [77.2865, 30.5605], [77.2866, 30.5604], [77.2868, 30.56], [77.287, 30.5598], [77.2874, 30.5597], [77.2879, 30.5594], [77.2881, 30.5594], [77.2882, 30.5594], [77.2884, 30.5594], [77.2885, 30.5594], [77.2885, 30.5593], [77.2885, 30.5591], [77.2885, 30.559], [77.2883, 30.5588], [77.2882, 30.5588], [77.288, 30.5586], [77.2881, 30.5586], [77.2882, 30.5585], [77.2883, 30.5585], [77.2885, 30.5585], [77.2887, 30.5585], [77.2888, 30.5585], [77.2891, 30.5584], [77.2891, 30.5582], [77.2893, 30.558], [77.2894, 30.5579], [77.2894, 30.5577], [77.2894, 30.5575], [77.2894, 30.5572], [77.2893, 30.5569], [77.2893, 30.5568], [77.2894, 30.5567], [77.2895, 30.5567], [77.2896, 30.5567], [77.2897, 30.5566], [77.2898, 30.5567], [77.2899, 30.5568], [77.29, 30.557], [77.2901, 30.5571], [77.2903, 30.5573], [77.2906, 30.5575], [77.2908, 30.5575], [77.291, 30.5575], [77.2914, 30.5573], [77.2917, 30.5571], [77.2918, 30.5571], [77.2921, 30.557], [77.2922, 30.5571], [77.2923, 30.5572], [77.2924, 30.5571], [77.2926, 30.5568], [77.2929, 30.5565], [77.2932, 30.5562], [77.2943, 30.5558], [77.2942, 30.5553], [77.2942, 30.5548], [77.2941, 30.5533], [77.2944, 30.5517], [77.2948, 30.5502], [77.2948, 30.5499], [77.2947, 30.5498], [77.2946, 30.5498], [77.2945, 30.5497], [77.2944, 30.5497], [77.2943, 30.5496], [77.2942, 30.5495], [77.2941, 30.5495], [77.294, 30.5494], [77.2939, 30.5494], [77.2938, 30.5493], [77.2937, 30.5493], [77.2937, 30.5492], [77.2936, 30.5492], [77.2935, 30.5492], [77.2935, 30.5491], [77.2934, 30.5491], [77.2934, 30.549], [77.2933, 30.5489], [77.2933, 30.5488], [77.2933, 30.5487], [77.2934, 30.5481], [77.2934, 30.548], [77.2934, 30.5479], [77.2934, 30.5478], [77.2934, 30.5477], [77.2934, 30.5476], [77.2934, 30.5475], [77.2934, 30.5474], [77.2934, 30.5473], [77.2935, 30.5472], [77.2934, 30.5472], [77.2934, 30.5471], [77.2934, 30.547], [77.2934, 30.5469], [77.2933, 30.5468], [77.2932, 30.5468], [77.2931, 30.5468], [77.293, 30.5468], [77.2929, 30.5468], [77.2928, 30.5468], [77.2927, 30.5468], [77.2926, 30.5468], [77.2925, 30.5468], [77.2923, 30.5467], [77.2922, 30.5467], [77.2921, 30.5467], [77.2921, 30.5466], [77.292, 30.5466], [77.2919, 30.5466], [77.2919, 30.5465], [77.2918, 30.5465], [77.2917, 30.5465], [77.2916, 30.5464], [77.2912, 30.546], [77.2893, 30.5457], [77.2857, 30.5447], [77.2844, 30.5442], [77.2831, 30.544], [77.283, 30.544], [77.2829, 30.544], [77.2821, 30.5438], [77.2814, 30.5435], [77.2811, 30.5436], [77.2807, 30.5441], [77.2807, 30.5442], [77.2803, 30.5447], [77.2797, 30.5456], [77.2795, 30.546], [77.2794, 30.5464], [77.2794, 30.5469], [77.2795, 30.5474], [77.2794, 30.5476], [77.2794, 30.5479], [77.2793, 30.548], [77.2791, 30.5482], [77.279, 30.5482], [77.279, 30.5483], [77.2783, 30.5487], [77.2782, 30.5487], [77.2781, 30.5488], [77.2777, 30.5492], [77.2776, 30.5494], [77.2776, 30.5495], [77.2777, 30.5502], [77.2778, 30.5505], [77.2782, 30.5507], [77.2794, 30.551], [77.2812, 30.551], [77.2813, 30.551], [77.282, 30.551], [77.2823, 30.5515], [77.2823, 30.5516], [77.2823, 30.5518], [77.2823, 30.552], [77.2823, 30.5522], [77.2823, 30.5523], [77.2823, 30.5524], [77.2822, 30.5526], [77.2822, 30.5527], [77.2821, 30.5529], [77.2822, 30.5531], [77.2824, 30.5533], [77.2825, 30.5533], [77.2825, 30.5534], [77.2825, 30.5536], [77.2825, 30.5537], [77.2826, 30.5538], [77.2826, 30.5539], [77.2829, 30.554], [77.2834, 30.5543], [77.2837, 30.5546], [77.2837, 30.5547], [77.2838, 30.5549], [77.2837, 30.5551], [77.2837, 30.5552], [77.2837, 30.5553], [77.2836, 30.5555], [77.2836, 30.5557], [77.2836, 30.5558], [77.2838, 30.5561], [77.2837, 30.5562], [77.2835, 30.5562], [77.2834, 30.5563], [77.2834, 30.5564], [77.2834, 30.5566], [77.2832, 30.5567], [77.2828, 30.5568], [77.2824, 30.5568], [77.2822, 30.5568], [77.282, 30.5567], [77.2819, 30.5566], [77.2819, 30.5562], [77.2819, 30.5558], [77.2818, 30.5556], [77.2816, 30.5555], [77.281, 30.5553], [77.2802, 30.5552], [77.2801, 30.5552], [77.2797, 30.5552], [77.2792, 30.5555], [77.2787, 30.5558], [77.2784, 30.5563], [77.2777, 30.557], [77.2772, 30.5572], [77.2758, 30.5576], [77.2748, 30.5578], [77.2746, 30.5579], [77.2742, 30.558], [77.274, 30.558], [77.2732, 30.5582], [77.2729, 30.5581], [77.2728, 30.5581], [77.2726, 30.5578], [77.2726, 30.5577], [77.2723, 30.5575], [77.2722, 30.5574], [77.2718, 30.5574], [77.2711, 30.5574], [77.2711, 30.5575], [77.271, 30.5575], [77.271, 30.5577], [77.2709, 30.5579], [77.2707, 30.5581], [77.2705, 30.5581], [77.2702, 30.5582], [77.2701, 30.5582], [77.2694, 30.5581], [77.2688, 30.5581], [77.2682, 30.558], [77.268, 30.558], [77.268, 30.5584], [77.268, 30.5585], [77.2678, 30.5591], [77.2674, 30.5595], [77.267, 30.5597], [77.2669, 30.5597], [77.2668, 30.5597], [77.2662, 30.5599], [77.2653, 30.5601], [77.2644, 30.5604], [77.264, 30.5611], [77.2636, 30.5616], [77.2639, 30.5622], [77.2639, 30.5623], [77.2644, 30.5629], [77.2645, 30.5638], [77.2647, 30.5651], [77.2647, 30.5653], [77.2643, 30.5667], [77.264, 30.5676], [77.2641, 30.5683], [77.2641, 30.5685], [77.264, 30.5689], [77.2639, 30.5691], [77.2638, 30.5692], [77.2639, 30.5696], [77.2641, 30.5699], [77.2646, 30.5701], [77.2647, 30.5701], [77.2651, 30.5705], [77.2652, 30.5706], [77.2655, 30.5712], [77.2657, 30.5717], [77.2656, 30.5722], [77.2653, 30.5729], [77.2653, 30.5734], [77.2653, 30.5738], [77.2657, 30.5743], [77.2661, 30.5747], [77.2666, 30.5749], [77.2668, 30.5753], [77.267, 30.5756], [77.2674, 30.5759], [77.2679, 30.5761], [77.2683, 30.5762], [77.2684, 30.5763], [77.2685, 30.5765], [77.2687, 30.5772], [77.2688, 30.5777], [77.2688, 30.5778], [77.2692, 30.5778], [77.2695, 30.5775], [77.2701, 30.5767], [77.2702, 30.5766]]]}, "properties": {"objectid": 279749, "statename": "Himachal Pradesh", "statecode": "2", "districtname": "Sirmour", "districtcode": "32", "ulbname": "Nahan", "ulbcode": "800131", "wardname": "Nowni Ka Bagh", "wardcode": "12", "id": null, "status": "APPROVED", "misglobalid": null, "approved_by": null, "createdate": 1657616493000, "updateddate": 1657617791000, "globalid": null, "gisglobalid": "mnBBPn4s-5aa5-PKP4-s54a-PKlP4PPoRKdQ", "remark": "", "st_area(shape)": 0.000550232963894216, "st_perimeter(shape)": 0.13450246241690134}}, {"type": "Feature", "geometry": {"type": "Polygon", "coordinates": [[[77.2892, 30.5583], [77.2894, 30.5583], [77.2896, 30.5583], [77.2899, 30.5583], [77.2901, 30.5583], [77.2903, 30.5584], [77.2905, 30.5583], [77.2905, 30.5582], [77.2907, 30.5582], [77.2909, 30.5582], [77.2911, 30.5581], [77.2914, 30.5581], [77.2916, 30.5581], [77.2916, 30.558], [77.2917, 30.5578], [77.2917, 30.5576], [77.2918, 30.5574], [77.2919, 30.5572], [77.292, 30.5571], [77.2922, 30.5572], [77.2923, 30.5573], [77.2924, 30.5574], [77.2924, 30.5576], [77.2925, 30.5576], [77.2927, 30.5576], [77.2929, 30.5575], [77.2931, 30.5575], [77.2932, 30.5575], [77.2932, 30.5576], [77.2933, 30.5576], [77.2934, 30.5577], [77.2932, 30.5578], [77.2933, 30.5578], [77.2934, 30.5578], [77.2934, 30.5579], [77.2935, 30.5579], [77.2935, 30.558], [77.2937, 30.558], [77.2938, 30.558], [77.2941, 30.558], [77.2945, 30.5582], [77.2951, 30.5583], [77.295, 30.5582], [77.295, 30.5581], [77.295, 30.5579], [77.2949, 30.5578], [77.2949, 30.5577], [77.2949, 30.5575], [77.2948, 30.5572], [77.2945, 30.5569], [77.2945, 30.5568], [77.2945, 30.5567], [77.2943, 30.5558], [77.2932, 30.5562], [77.2929, 30.5565], [77.2926, 30.5568], [77.2924, 30.5571], [77.2923, 30.5572], [77.2922, 30.5571], [77.2921, 30.557], [77.2918, 30.5571], [77.2917, 30.5571], [77.2914, 30.5573], [77.291, 30.5575], [77.2908, 30.5575], [77.2906, 30.5575], [77.2903, 30.5573], [77.2901, 30.5571], [77.29, 30.557], [77.2899, 30.5568], [77.2898, 30.5567], [77.2897, 30.5566], [77.2896, 30.5567], [77.2895, 30.5567], [77.2894, 30.5567], [77.2893, 30.5568], [77.2893, 30.5569], [77.2894, 30.5572], [77.2894, 30.5575], [77.2894, 30.5577], [77.2894, 30.5579], [77.2893, 30.558], [77.2891, 30.5582], [77.2891, 30.5584], [77.289, 30.5584], [77.2892, 30.5583]]]}, "properties": {"objectid": 280147, "statename": "Himachal Pradesh", "statecode": "2", "districtname": "Sirmour", "districtcode": "32", "ulbname": "Nahan", "ulbcode": "800131", "wardname": "Balmiki Basti", "wardcode": "13", "id": null, "status": "APPROVED", "misglobalid": null, "approved_by": null, "createdate": 1657616596000, "updateddate": 1657617836000, "globalid": null, "gisglobalid": "c55mRRlQ-s564-PlcR-QnBo-6PKmQcoPPnRm", "remark": "", "st_area(shape)": 6.3680160557661084e-06, "st_perimeter(shape)": 0.017942436855504725}}]}
