{"type": "FeatureCollection", "features": [{"type": "Feature", "geometry": {"type": "Polygon", "coordinates": [[[81.703, 17.0446], [81.703, 17.0465], [81.7041, 17.0465], [81.7072, 17.0465], [81.7081, 17.0463], [81.7119, 17.0464], [81.7124, 17.0426], [81.7125, 17.042], [81.7122, 17.035], [81.7122, 17.0349], [81.7171, 17.0346], [81.7192, 17.0343], [81.7192, 17.0332], [81.7214, 17.0325], [81.7221, 17.0322], [81.7241, 17.032], [81.7231, 17.0252], [81.7213, 17.0253], [81.721, 17.0235], [81.7205, 17.0236], [81.7196, 17.0241], [81.7187, 17.0244], [81.7177, 17.0244], [81.7168, 17.0243], [81.7102, 17.0264], [81.7085, 17.0272], [81.7042, 17.0284], [81.7017, 17.0287], [81.7025, 17.0346], [81.703, 17.0446]]]}, "properties": {"objectid": 64702, "statename": "ANDHRA PRADESH", "statecode": "28", "districtname": "EST GODAVARI", "districtcode": "545", "ulbname": "Kovvur", "ulbcode": "802959", "wardname": "SRIRAMA COLONY,RAJEEV COLONY", "wardcode": "1", "id": null, "status": "APPROVED", "misglobalid": null, "approved_by": null, "createdate": 1734527426000, "updateddate": 1734587577000, "globalid": null, "gisglobalid": "Q6Pa5dRn-cQoR-Pcsm-Ql5o-QnadmQB5oKdK", "remark": "", "st_area(shape)": 0.0002882159825910504, "st_perimeter(shape)": 0.08212885847956106}}, {"type": "Feature", "geometry": {"type": "Polygon", "coordinates": [[[81.7125, 17.0418], [81.7125, 17.042], [81.7127, 17.042], [81.7129, 17.0421], [81.7132, 17.0422], [81.7138, 17.0421], [81.7147, 17.042], [81.7157, 17.0419], [81.7168, 17.0418], [81.7175, 17.0416], [81.7188, 17.0417], [81.719, 17.0417], [81.7196, 17.0418], [81.7207, 17.042], [81.7225, 17.0419], [81.7235, 17.0374], [81.7244, 17.0356], [81.7251, 17.0341], [81.726, 17.0321], [81.7261, 17.0312], [81.726, 17.0301], [81.7262, 17.0298], [81.7263, 17.0293], [81.7263, 17.029], [81.7262, 17.0286], [81.7261, 17.0283], [81.7259, 17.0274], [81.7263, 17.0274], [81.7269, 17.0274], [81.727, 17.0257], [81.7271, 17.0249], [81.727, 17.0238], [81.7269, 17.0224], [81.7262, 17.0226], [81.7252, 17.0229], [81.7247, 17.023], [81.724, 17.0232], [81.7234, 17.0233], [81.7228, 17.0234], [81.7222, 17.0234], [81.7216, 17.0235], [81.7211, 17.0235], [81.7213, 17.0253], [81.7231, 17.0252], [81.7241, 17.032], [81.7222, 17.0322], [81.7213, 17.0326], [81.7192, 17.0332], [81.7193, 17.0343], [81.7172, 17.0346], [81.7122, 17.035], [81.7123, 17.0372], [81.7124, 17.0398], [81.7125, 17.0415], [81.7125, 17.0418]]]}, "properties": {"objectid": 61001, "statename": "ANDHRA PRADESH", "statecode": "28", "districtname": "EST GODAVARI", "districtcode": "545", "ulbname": "Kovvur", "ulbcode": "802959", "wardname": "SRIRAMA COLONY,VINAYAKA TEMPLE AREA", "wardcode": "2", "id": null, "status": "APPROVED", "misglobalid": null, "approved_by": null, "createdate": 1734528878000, "updateddate": 1734587598000, "globalid": null, "gisglobalid": "sBlc55d6-mnRR-Plol-Q5K4-Pcml6RnnoQl6", "remark": "", "st_area(shape)": 0.00012522966656948765, "st_perimeter(shape)": 0.06807008222035524}}, {"type": "Feature", "geometry": {"type": "Polygon", "coordinates": [[[81.727, 17.026], [81.7269, 17.0274], [81.7272, 17.0274], [81.7272, 17.0277], [81.7278, 17.0277], [81.7279, 17.027], [81.7279, 17.0268], [81.7279, 17.0265], [81.7279, 17.0261], [81.7279, 17.0258], [81.7279, 17.0257], [81.7282, 17.0257], [81.7282, 17.0255], [81.7282, 17.0253], [81.7282, 17.0252], [81.7282, 17.0249], [81.7282, 17.0247], [81.7282, 17.0245], [81.7282, 17.0243], [81.7282, 17.0242], [81.7281, 17.0237], [81.7282, 17.0235], [81.7281, 17.0233], [81.7281, 17.023], [81.7281, 17.0229], [81.7281, 17.0225], [81.7278, 17.0225], [81.7273, 17.0224], [81.7271, 17.0224], [81.7269, 17.0224], [81.727, 17.0231], [81.727, 17.0239], [81.7271, 17.0247], [81.7271, 17.0249], [81.727, 17.026]]]}, "properties": {"objectid": 65443, "statename": "ANDHRA PRADESH", "statecode": "28", "districtname": "EST GODAVARI", "districtcode": "545", "ulbname": "Kovvur", "ulbcode": "802959", "wardname": "CHRISTIAN PETA", "wardcode": "3", "id": null, "status": "APPROVED", "misglobalid": null, "approved_by": null, "createdate": 1734529305000, "updateddate": 1734587609000, "globalid": null, "gisglobalid": "RPdRlcm6-c6co-PnPn-Ro5s-6Rondaac4QPa", "remark": "", "st_area(shape)": 5.4193208359102684e-06, "st_perimeter(shape)": 0.012878684210961748}}, {"type": "Feature", "geometry": {"type": "Polygon", "coordinates": [[[81.7295, 17.0227], [81.7281, 17.0225], [81.7281, 17.0232], [81.7282, 17.0234], [81.7282, 17.0237], [81.7282, 17.0238], [81.7282, 17.0242], [81.7282, 17.0244], [81.7282, 17.0248], [81.7282, 17.025], [81.7282, 17.0252], [81.7283, 17.0255], [81.7283, 17.0257], [81.7282, 17.0257], [81.7279, 17.0257], [81.7279, 17.0261], [81.7279, 17.0265], [81.7279, 17.0268], [81.7279, 17.0272], [81.7278, 17.0277], [81.7272, 17.0277], [81.7272, 17.0274], [81.7259, 17.0275], [81.7263, 17.029], [81.7263, 17.0293], [81.7262, 17.0298], [81.7261, 17.0301], [81.7261, 17.0312], [81.726, 17.0321], [81.7258, 17.0328], [81.7236, 17.0375], [81.7225, 17.0419], [81.724, 17.0419], [81.7241, 17.0407], [81.7243, 17.0398], [81.7244, 17.0392], [81.7246, 17.0384], [81.7248, 17.0375], [81.7254, 17.0363], [81.7257, 17.0358], [81.7261, 17.0352], [81.7264, 17.0347], [81.7269, 17.0339], [81.7274, 17.0329], [81.7276, 17.0325], [81.7279, 17.0314], [81.7281, 17.0308], [81.7283, 17.0304], [81.7284, 17.0296], [81.7286, 17.0291], [81.7293, 17.0275], [81.7297, 17.0263], [81.7298, 17.0258], [81.73, 17.0247], [81.7302, 17.024], [81.7305, 17.0229], [81.7295, 17.0227]]]}, "properties": {"objectid": 60763, "statename": "ANDHRA PRADESH", "statecode": "28", "districtname": "EST GODAVARI", "districtcode": "545", "ulbname": "Kovvur", "ulbcode": "802959", "wardname": "CHRISTIAN PETA", "wardcode": "4", "id": null, "status": "APPROVED", "misglobalid": null, "approved_by": null, "createdate": 1734529787000, "updateddate": 1734587617000, "globalid": null, "gisglobalid": "6BdnassQ-6K5B-Pn6K-sKam-K6anool46adc", "remark": "", "st_area(shape)": 3.313770697635185e-05, "st_perimeter(shape)": 0.04719937440862833}}, {"type": "Feature", "geometry": {"type": "Polygon", "coordinates": [[[81.7284, 17.0221], [81.7284, 17.0225], [81.7298, 17.0228], [81.7304, 17.0229], [81.7305, 17.0229], [81.7306, 17.0228], [81.7309, 17.0225], [81.7311, 17.022], [81.7312, 17.0216], [81.7314, 17.0212], [81.7315, 17.0208], [81.7309, 17.0207], [81.73, 17.0208], [81.7298, 17.0205], [81.7297, 17.0202], [81.7292, 17.0203], [81.728, 17.0205], [81.7282, 17.021], [81.7283, 17.0213], [81.7284, 17.0216], [81.7284, 17.0221]]]}, "properties": {"objectid": 65844, "statename": "ANDHRA PRADESH", "statecode": "28", "districtname": "EST GODAVARI", "districtcode": "545", "ulbname": "Kovvur", "ulbcode": "802959", "wardname": "MERAKA VEEDHI", "wardcode": "5", "id": null, "status": "APPROVED", "misglobalid": null, "approved_by": null, "createdate": 1734530581000, "updateddate": 1734587626000, "globalid": null, "gisglobalid": "5RQRBsBK-a5md-PQ5d-Roc6-l5nnRR4o4oll", "remark": "", "st_area(shape)": 6.253056692785031e-06, "st_perimeter(shape)": 0.010569873036366063}}, {"type": "Feature", "geometry": {"type": "Polygon", "coordinates": [[[81.7315, 17.0208], [81.7321, 17.0201], [81.7323, 17.0197], [81.733, 17.019], [81.7326, 17.0189], [81.7319, 17.019], [81.7313, 17.019], [81.7311, 17.0191], [81.7306, 17.0192], [81.7305, 17.019], [81.7301, 17.0191], [81.7299, 17.0186], [81.7298, 17.0185], [81.7297, 17.0184], [81.7289, 17.0186], [81.7292, 17.0192], [81.7293, 17.0195], [81.729, 17.0195], [81.7288, 17.0194], [81.7284, 17.0195], [81.7279, 17.0195], [81.728, 17.0204], [81.7289, 17.0204], [81.7293, 17.0203], [81.7297, 17.0202], [81.73, 17.0208], [81.7302, 17.0208], [81.7305, 17.0207], [81.7309, 17.0207], [81.7315, 17.0208]]]}, "properties": {"objectid": 60998, "statename": "ANDHRA PRADESH", "statecode": "28", "districtname": "EST GODAVARI", "districtcode": "545", "ulbname": "Kovvur", "ulbcode": "802959", "wardname": "SUBRAMANYESWARA SWAMY TEMPLE", "wardcode": "6", "id": null, "status": "APPROVED", "misglobalid": null, "approved_by": null, "createdate": 1734531626000, "updateddate": 1734587634000, "globalid": null, "gisglobalid": "aBm5lKdm-KQ6l-P6da-RQaB-B4ms4l5csmnm", "remark": "", "st_area(shape)": 6.572450467203685e-06, "st_perimeter(shape)": 0.014064582944326642}}, {"type": "Feature", "geometry": {"type": "Polygon", "coordinates": [[[81.7277, 17.0191], [81.7279, 17.0195], [81.7288, 17.0194], [81.729, 17.0195], [81.7293, 17.0194], [81.7292, 17.0192], [81.7289, 17.0186], [81.7297, 17.0184], [81.7299, 17.0185], [81.7301, 17.0191], [81.7305, 17.019], [81.7306, 17.0191], [81.7313, 17.019], [81.7313, 17.0189], [81.7312, 17.0188], [81.7312, 17.0186], [81.7312, 17.0183], [81.7312, 17.018], [81.7312, 17.0175], [81.7311, 17.0168], [81.7305, 17.0169], [81.7302, 17.0169], [81.7298, 17.0171], [81.7289, 17.0173], [81.728, 17.0175], [81.7277, 17.0176], [81.7276, 17.0177], [81.7275, 17.0178], [81.7276, 17.0183], [81.7276, 17.0187], [81.7277, 17.0191]]]}, "properties": {"objectid": 64279, "statename": "ANDHRA PRADESH", "statecode": "28", "districtname": "EST GODAVARI", "districtcode": "545", "ulbname": "Kovvur", "ulbcode": "802959", "wardname": "KOVVURAMMA TEMPLE", "wardcode": "7", "id": null, "status": "APPROVED", "misglobalid": null, "approved_by": null, "createdate": 1734532004000, "updateddate": 1734588000000, "globalid": null, "gisglobalid": "6ocQc6Q5-lcPn-PmQ6-slaP-sQRmBl444Q5s", "remark": "", "st_area(shape)": 6.804362210638098e-06, "st_perimeter(shape)": 0.01292715383557452}}, {"type": "Feature", "geometry": {"type": "Polygon", "coordinates": [[[81.7313, 17.019], [81.7322, 17.0189], [81.7325, 17.0189], [81.7326, 17.0189], [81.7328, 17.0189], [81.7329, 17.0189], [81.733, 17.019], [81.7331, 17.0189], [81.7333, 17.0186], [81.7337, 17.0184], [81.7336, 17.0177], [81.7335, 17.0171], [81.7333, 17.0167], [81.733, 17.0167], [81.7324, 17.0167], [81.7317, 17.0168], [81.7311, 17.0168], [81.7312, 17.0174], [81.7312, 17.0176], [81.7312, 17.0179], [81.7312, 17.0182], [81.7312, 17.0183], [81.7312, 17.0186], [81.7313, 17.0188], [81.7313, 17.019]]]}, "properties": {"objectid": 63030, "statename": "ANDHRA PRADESH", "statecode": "28", "districtname": "EST GODAVARI", "districtcode": "545", "ulbname": "Kovvur", "ulbcode": "802959", "wardname": "MASEEDU STREET", "wardcode": "8", "id": null, "status": "APPROVED", "misglobalid": null, "approved_by": null, "createdate": 1734532369000, "updateddate": 1734587992000, "globalid": null, "gisglobalid": "Ra6adQnB-dPPR-PKso-asRQ-QlBRBoa4mRsQ", "remark": "", "st_area(shape)": 5.086502451321492e-06, "st_perimeter(shape)": 0.008763662718508787}}, {"type": "Feature", "geometry": {"type": "Polygon", "coordinates": [[[81.7325, 17.0159], [81.7325, 17.0167], [81.733, 17.0167], [81.7333, 17.0167], [81.7335, 17.0171], [81.7336, 17.0176], [81.7336, 17.0181], [81.7337, 17.0184], [81.7338, 17.0183], [81.7338, 17.0182], [81.734, 17.0181], [81.7341, 17.018], [81.7344, 17.0179], [81.7346, 17.0178], [81.7348, 17.0177], [81.735, 17.0175], [81.7353, 17.0174], [81.7358, 17.017], [81.7365, 17.017], [81.7368, 17.0169], [81.7373, 17.0167], [81.7379, 17.0167], [81.737, 17.0153], [81.737, 17.0146], [81.7365, 17.0147], [81.7324, 17.0151], [81.7324, 17.0155], [81.7325, 17.0159]]]}, "properties": {"objectid": 63033, "statename": "ANDHRA PRADESH", "statecode": "28", "districtname": "EST GODAVARI", "districtcode": "545", "ulbname": "Kovvur", "ulbcode": "802959", "wardname": "TALUK OFFICE AREA", "wardcode": "9", "id": null, "status": "APPROVED", "misglobalid": null, "approved_by": null, "createdate": 1734532687000, "updateddate": 1734587985000, "globalid": null, "gisglobalid": "mRaQQPa6-smPK-PscQ-aBd6-dQBlB4B4nQnQ", "remark": "", "st_area(shape)": 1.1708041513850514e-05, "st_perimeter(shape)": 0.01575509185077235}}, {"type": "Feature", "geometry": {"type": "Polygon", "coordinates": [[[81.735, 17.0142], [81.735, 17.0144], [81.735, 17.0148], [81.737, 17.0146], [81.737, 17.0149], [81.737, 17.0153], [81.738, 17.0167], [81.7382, 17.0164], [81.7385, 17.0161], [81.7388, 17.0158], [81.739, 17.0156], [81.7403, 17.0137], [81.7405, 17.0135], [81.7408, 17.0128], [81.7421, 17.0096], [81.7407, 17.0094], [81.7359, 17.0088], [81.7341, 17.0088], [81.7343, 17.0118], [81.7348, 17.0117], [81.735, 17.0142]]]}, "properties": {"objectid": 65134, "statename": "ANDHRA PRADESH", "statecode": "28", "districtname": "EST GODAVARI", "districtcode": "545", "ulbname": "Kovvur", "ulbcode": "802959", "wardname": "NADELLA ARI VEEDHI", "wardcode": "10", "id": null, "status": "APPROVED", "misglobalid": null, "approved_by": null, "createdate": 1734532988000, "updateddate": 1734587978000, "globalid": null, "gisglobalid": "KPm5osPs-QsRl-Pcll-adlc-BBQlRRd4m5aR", "remark": "", "st_area(shape)": 3.935267092482271e-05, "st_perimeter(shape)": 0.027124261670596072}}, {"type": "Feature", "geometry": {"type": "Polygon", "coordinates": [[[81.7342, 17.0149], [81.735, 17.0148], [81.735, 17.0146], [81.735, 17.0143], [81.735, 17.014], [81.7348, 17.0118], [81.7343, 17.0118], [81.7344, 17.0124], [81.7339, 17.0124], [81.7339, 17.0129], [81.734, 17.0134], [81.7341, 17.0139], [81.7342, 17.0146], [81.7342, 17.0149]]]}, "properties": {"objectid": 65445, "statename": "ANDHRA PRADESH", "statecode": "28", "districtname": "EST GODAVARI", "districtcode": "545", "ulbname": "Kovvur", "ulbcode": "802959", "wardname": "TALLAPRAGADA VARI STREET", "wardcode": "11", "id": null, "status": "APPROVED", "misglobalid": null, "approved_by": null, "createdate": 1734533675000, "updateddate": 1734587970000, "globalid": null, "gisglobalid": "Bo6Qamdc-cBlQ-PQns-aQnP-scKB5BmBQlBc", "remark": "", "st_area(shape)": 2.4652157666847786e-06, "st_perimeter(shape)": 0.007840822137602012}}, {"type": "Feature", "geometry": {"type": "Polygon", "coordinates": [[[81.7324, 17.015], [81.7342, 17.0149], [81.7341, 17.0143], [81.7341, 17.0139], [81.734, 17.0136], [81.734, 17.0132], [81.7339, 17.0124], [81.7344, 17.0124], [81.7343, 17.0118], [81.7342, 17.0106], [81.734, 17.0088], [81.733, 17.0088], [81.7318, 17.0087], [81.7311, 17.0086], [81.7307, 17.0086], [81.7306, 17.009], [81.7308, 17.0094], [81.731, 17.0104], [81.7314, 17.0121], [81.7318, 17.012], [81.7323, 17.0146], [81.7324, 17.015]]]}, "properties": {"objectid": 63029, "statename": "ANDHRA PRADESH", "statecode": "28", "districtname": "EST GODAVARI", "districtcode": "545", "ulbname": "Kovvur", "ulbcode": "802959", "wardname": "SOMANCHI VARI STREET", "wardcode": "12", "id": null, "status": "APPROVED", "misglobalid": null, "approved_by": null, "createdate": 1734534083000, "updateddate": 1734587961000, "globalid": null, "gisglobalid": "QQPcKa6P-Pdnd-PRnQ-sslo-oclB6PmP45mR", "remark": "", "st_area(shape)": 1.6277163089930135e-05, "st_perimeter(shape)": 0.01890278852300349}}, {"type": "Feature", "geometry": {"type": "Polygon", "coordinates": [[[81.7298, 17.0171], [81.7302, 17.0169], [81.7305, 17.0168], [81.7311, 17.0168], [81.7317, 17.0167], [81.7325, 17.0167], [81.7324, 17.015], [81.7323, 17.0147], [81.7307, 17.0149], [81.7304, 17.015], [81.7295, 17.0151], [81.7296, 17.0161], [81.7298, 17.0171]]]}, "properties": {"objectid": 60765, "statename": "ANDHRA PRADESH", "statecode": "28", "districtname": "EST GODAVARI", "districtcode": "545", "ulbname": "Kovvur", "ulbcode": "802959", "wardname": "PALAKODETI VARI STREET", "wardcode": "13", "id": null, "status": "APPROVED", "misglobalid": null, "approved_by": null, "createdate": 1734534265000, "updateddate": 1734587952000, "globalid": null, "gisglobalid": "PsmBd54n-oPPn-PcaR-QQal-sn6BloRaKK64", "remark": "", "st_area(shape)": 5.4468494347902416e-06, "st_perimeter(shape)": 0.009611428754680008}}, {"type": "Feature", "geometry": {"type": "MultiPolygon", "coordinates": [[[[81.7291, 17.0127], [81.7294, 17.0151], [81.7307, 17.0149], [81.7323, 17.0147], [81.7317, 17.0121], [81.7313, 17.012], [81.731, 17.0103], [81.73, 17.0104], [81.7289, 17.0106], [81.729, 17.0113], [81.7291, 17.0127]]], [[[81.7294, 17.0151]]]]}, "properties": {"objectid": 60764, "statename": "ANDHRA PRADESH", "statecode": "28", "districtname": "EST GODAVARI", "districtcode": "545", "ulbname": "kovvur", "ulbcode": "802959", "wardname": "CHITIKINA VARI VEEDHI", "wardcode": "14", "id": null, "status": "APPROVED", "misglobalid": null, "approved_by": null, "createdate": 1734522344000, "updateddate": 1734587944000, "globalid": null, "gisglobalid": "Baa5a4lB-PQ6Q-P5aa-RaQK-BaQQall55oRn", "remark": "", "st_area(shape)": 1.1529464819847018e-05, "st_perimeter(shape)": 0.014419609714080918}}, {"type": "Feature", "geometry": {"type": "Polygon", "coordinates": [[[81.7308, 17.008], [81.7307, 17.0086], [81.7311, 17.0086], [81.7323, 17.0088], [81.733, 17.0088], [81.734, 17.0088], [81.7358, 17.0088], [81.7405, 17.0093], [81.7421, 17.0096], [81.7425, 17.0086], [81.7426, 17.0084], [81.7427, 17.0082], [81.7427, 17.0076], [81.7427, 17.0075], [81.7427, 17.0069], [81.7428, 17.0062], [81.7429, 17.0057], [81.743, 17.0011], [81.7422, 17.001], [81.7412, 17.0011], [81.7409, 17.001], [81.7397, 17.0011], [81.7391, 17.0011], [81.7388, 17.0011], [81.7381, 17.0011], [81.7372, 17.0011], [81.7352, 17.0063], [81.7344, 17.0072], [81.7335, 17.0077], [81.7322, 17.008], [81.7308, 17.008]]]}, "properties": {"objectid": 63032, "statename": "ANDHRA PRADESH", "statecode": "28", "districtname": "EST GODAVARI", "districtcode": "545", "ulbname": "Kovvur", "ulbcode": "802959", "wardname": "OLD&amp;", "wardcode": "15", "id": null, "status": "APPROVED", "misglobalid": null, "approved_by": null, "createdate": 1734534576000, "updateddate": 1734587935000, "globalid": null, "gisglobalid": "RQ4Bc6Qc-Kml5-Pmms-aQaQ-smPlaKl4ndlP", "remark": "", "st_area(shape)": 6.124223778336496e-05, "st_perimeter(shape)": 0.037038242770159546}}, {"type": "Feature", "geometry": {"type": "Polygon", "coordinates": [[[81.7356, 17.0009], [81.7356, 17.0011], [81.7382, 17.001], [81.7391, 17.0011], [81.7396, 17.0011], [81.7409, 17.001], [81.7412, 17.001], [81.7422, 17.001], [81.743, 17.0011], [81.743, 17.0007], [81.743, 16.9994], [81.743, 16.9988], [81.7431, 16.9984], [81.7433, 16.9967], [81.7435, 16.9951], [81.7436, 16.9947], [81.7435, 16.9922], [81.7438, 16.9909], [81.7441, 16.9893], [81.7442, 16.9877], [81.7444, 16.987], [81.7446, 16.9858], [81.7452, 16.9838], [81.7451, 16.9827], [81.7452, 16.9821], [81.7454, 16.9808], [81.7455, 16.9787], [81.7455, 16.9777], [81.7453, 16.9762], [81.7431, 16.9763], [81.7411, 16.9766], [81.7387, 16.9768], [81.738, 16.9769], [81.738, 16.9777], [81.7381, 16.9781], [81.7385, 16.9796], [81.7385, 16.9803], [81.7384, 16.9815], [81.7382, 16.9817], [81.7383, 16.9821], [81.738, 16.9831], [81.738, 16.9837], [81.7378, 16.9846], [81.7379, 16.9871], [81.7377, 16.9872], [81.7377, 16.9888], [81.738, 16.9898], [81.7378, 16.991], [81.7369, 16.9939], [81.7368, 16.9944], [81.7365, 16.9968], [81.7363, 16.9975], [81.7357, 17.0004], [81.7356, 17.0009]]]}, "properties": {"objectid": 65845, "statename": "ANDHRA PRADESH", "statecode": "28", "districtname": "EST GODAVARI", "districtcode": "545", "ulbname": "Kovvur", "ulbcode": "802959", "wardname": "AURANGABAD", "wardcode": "16", "id": null, "status": "APPROVED", "misglobalid": null, "approved_by": null, "createdate": 1734535040000, "updateddate": 1734587923000, "globalid": null, "gisglobalid": "4s4sRo6l-aB5l-PQdc-a5R4-Km4la44RlmKP", "remark": "", "st_area(shape)": 0.00016687237448677493, "st_perimeter(shape)": 0.0646906796945338}}, {"type": "Feature", "geometry": {"type": "Polygon", "coordinates": [[[81.7268, 17.0099], [81.727, 17.0108], [81.7289, 17.0106], [81.731, 17.0104], [81.7308, 17.0095], [81.7306, 17.009], [81.7307, 17.008], [81.7322, 17.008], [81.7334, 17.0077], [81.7344, 17.0072], [81.7352, 17.0062], [81.7372, 17.0011], [81.7347, 17.0012], [81.7341, 17.0014], [81.7321, 17.0014], [81.7313, 17.0012], [81.7294, 17.0012], [81.7277, 17.0014], [81.7264, 17.0014], [81.7263, 17.0011], [81.7261, 17.001], [81.7251, 17.0009], [81.725, 17.0009], [81.7248, 17.0013], [81.7247, 17.0015], [81.7249, 17.0017], [81.725, 17.0017], [81.7252, 17.0017], [81.7255, 17.0017], [81.7257, 17.0018], [81.7258, 17.002], [81.7259, 17.0031], [81.726, 17.0042], [81.7262, 17.0047], [81.7267, 17.0086], [81.7268, 17.0099]]]}, "properties": {"objectid": 61000, "statename": "ANDHRA PRADESH", "statecode": "28", "districtname": "EST GODAVARI", "districtcode": "545", "ulbname": "Kovvur", "ulbcode": "802959", "wardname": "SIVANANDA PARK STREET", "wardcode": "17", "id": null, "status": "APPROVED", "misglobalid": null, "approved_by": null, "createdate": 1734524066000, "updateddate": 1734587909000, "globalid": null, "gisglobalid": "QBd5RBcd-molK-PcPn-Rdnl-6mc5mn6l6dan", "remark": "", "st_area(shape)": 7.502378167366861e-05, "st_perimeter(shape)": 0.04051790559963263}}, {"type": "Feature", "geometry": {"type": "Polygon", "coordinates": [[[81.7272, 17.0144], [81.7274, 17.015], [81.7281, 17.0148], [81.7281, 17.015], [81.7284, 17.015], [81.7294, 17.0151], [81.7292, 17.0138], [81.7291, 17.013], [81.7291, 17.0125], [81.729, 17.0118], [81.7289, 17.0106], [81.727, 17.0108], [81.7269, 17.0111], [81.727, 17.0115], [81.7278, 17.0139], [81.7279, 17.0141], [81.7278, 17.0142], [81.7273, 17.0143], [81.7272, 17.0144]]]}, "properties": {"objectid": 61002, "statename": "ANDHRA PRADESH", "statecode": "28", "districtname": "EST GODAVARI", "districtcode": "545", "ulbname": "Kovvur", "ulbcode": "802959", "wardname": "ISLAM PETA", "wardcode": "18", "id": null, "status": "APPROVED", "misglobalid": null, "approved_by": null, "createdate": 1734516407000, "updateddate": 1734516476000, "globalid": null, "gisglobalid": "doBaRKdo-aloo-PmnP-sloP-mnQPBdQd4dB6", "remark": "", "st_area(shape)": 7.4430195064061285e-06, "st_perimeter(shape)": 0.013402980763806251}}, {"type": "Feature", "geometry": {"type": "Polygon", "coordinates": [[[81.7276, 17.0162], [81.728, 17.0175], [81.7289, 17.0173], [81.7298, 17.0171], [81.7294, 17.0151], [81.7284, 17.015], [81.7281, 17.015], [81.7281, 17.0148], [81.7274, 17.015], [81.7276, 17.0162]]]}, "properties": {"objectid": 60999, "statename": "ANDHRA PRADESH", "statecode": "28", "districtname": "EST GODAVARI", "districtcode": "545", "ulbname": "Kovvur", "ulbcode": "802959", "wardname": "KARNALA SATRAM VARI STREET", "wardcode": "19", "id": null, "status": "APPROVED", "misglobalid": null, "approved_by": null, "createdate": 1734526750000, "updateddate": 1734587887000, "globalid": null, "gisglobalid": "5BKc5dKs-BP4Q-Pdn4-a4dP-ccQo44Q5nmKl", "remark": "", "st_area(shape)": 4.578003475207026e-06, "st_perimeter(shape)": 0.008639967234749146}}, {"type": "Feature", "geometry": {"type": "Polygon", "coordinates": [[[81.7247, 17.0014], [81.7247, 17.0013], [81.7231, 17.0013], [81.7216, 17.0014], [81.7209, 17.0014], [81.7193, 17.0013], [81.7184, 17.0013], [81.7174, 17.0014], [81.7158, 17.0016], [81.7136, 17.002], [81.7122, 17.002], [81.7091, 17.0025], [81.7065, 17.0028], [81.7039, 17.003], [81.704, 17.004], [81.7042, 17.0049], [81.7043, 17.0058], [81.7041, 17.0085], [81.7035, 17.0096], [81.7036, 17.0122], [81.7026, 17.0128], [81.7025, 17.0136], [81.7038, 17.0137], [81.7054, 17.0139], [81.7064, 17.014], [81.7075, 17.0141], [81.7082, 17.0141], [81.7087, 17.0141], [81.709, 17.0141], [81.7103, 17.0143], [81.7112, 17.0144], [81.7127, 17.0145], [81.7132, 17.0145], [81.7153, 17.0145], [81.7159, 17.0146], [81.7166, 17.0146], [81.7173, 17.0147], [81.7179, 17.0147], [81.7186, 17.0147], [81.7192, 17.0146], [81.7198, 17.0146], [81.7204, 17.0145], [81.7209, 17.0145], [81.7213, 17.0144], [81.7216, 17.0144], [81.7218, 17.0145], [81.722, 17.0146], [81.7224, 17.0149], [81.7227, 17.0148], [81.7231, 17.0147], [81.7235, 17.0146], [81.7241, 17.0145], [81.7241, 17.0144], [81.7245, 17.0143], [81.7249, 17.0142], [81.7259, 17.0138], [81.7269, 17.0136], [81.7274, 17.0135], [81.7277, 17.0134], [81.727, 17.0115], [81.727, 17.0113], [81.7269, 17.0111], [81.7269, 17.0108], [81.7268, 17.0098], [81.7268, 17.0092], [81.7267, 17.0086], [81.7262, 17.0047], [81.726, 17.0042], [81.7259, 17.0034], [81.7258, 17.0031], [81.7258, 17.002], [81.7257, 17.0018], [81.7253, 17.0018], [81.725, 17.0018], [81.7248, 17.0017], [81.7247, 17.0015], [81.7247, 17.0014]]]}, "properties": {"objectid": 65444, "statename": "ANDHRA PRADESH", "statecode": "28", "districtname": "EST GODAVARI", "districtcode": "545", "ulbname": "Kovvur", "ulbcode": "802959", "wardname": "RRK NAGAR,ATCHAYAMMA COLONY", "wardcode": "20", "id": null, "status": "APPROVED", "misglobalid": null, "approved_by": null, "createdate": 1734584501000, "updateddate": 1734587690000, "globalid": null, "gisglobalid": "Plnacaan-mQ5c-PRaK-aQBs-B6os6R4mKnmo", "remark": "", "st_area(shape)": 0.00028332924916514915, "st_perimeter(shape)": 0.07115504101294008}}, {"type": "Feature", "geometry": {"type": "Polygon", "coordinates": [[[81.7271, 17.0169], [81.7275, 17.0178], [81.7276, 17.0176], [81.7279, 17.0175], [81.7277, 17.0166], [81.7275, 17.0157], [81.7273, 17.015], [81.7272, 17.0144], [81.7273, 17.0143], [81.7278, 17.0142], [81.7278, 17.0141], [81.7279, 17.0141], [81.7277, 17.0135], [81.7272, 17.0135], [81.7259, 17.0138], [81.7251, 17.0141], [81.7249, 17.0142], [81.7241, 17.0144], [81.7241, 17.0145], [81.7235, 17.0146], [81.7224, 17.0149], [81.7227, 17.0152], [81.7229, 17.0155], [81.7231, 17.0158], [81.7234, 17.0163], [81.7236, 17.0168], [81.7238, 17.0172], [81.724, 17.0173], [81.7242, 17.0173], [81.7251, 17.0171], [81.7258, 17.0169], [81.7263, 17.0168], [81.7267, 17.0168], [81.727, 17.0168], [81.7271, 17.0169]]]}, "properties": {"objectid": 65133, "statename": "ANDHRA PRADESH", "statecode": "28", "districtname": "EST GODAVARI", "districtcode": "545", "ulbname": "Kovvur", "ulbcode": "802959", "wardname": "VEGI VARI CHAVIDI", "wardcode": "21", "id": null, "status": "APPROVED", "misglobalid": null, "approved_by": null, "createdate": 1734537505000, "updateddate": 1734587681000, "globalid": null, "gisglobalid": "s6d6Pm5m-Pa5Q-P6Ro-QcdK-BRm66PQPa46d", "remark": "", "st_area(shape)": 1.3429319893087063e-05, "st_perimeter(shape)": 0.01777467152304127}}, {"type": "Feature", "geometry": {"type": "Polygon", "coordinates": [[[81.7272, 17.0173], [81.727, 17.0168], [81.7268, 17.0168], [81.7264, 17.0168], [81.7261, 17.0169], [81.7259, 17.0169], [81.7259, 17.017], [81.7258, 17.017], [81.7255, 17.017], [81.725, 17.0172], [81.7241, 17.0173], [81.7239, 17.0173], [81.7236, 17.0169], [81.7234, 17.0165], [81.7233, 17.0163], [81.723, 17.0158], [81.7227, 17.0153], [81.7224, 17.015], [81.7221, 17.0147], [81.7218, 17.0145], [81.7215, 17.0145], [81.7213, 17.0145], [81.721, 17.0145], [81.7198, 17.0146], [81.7195, 17.0147], [81.7192, 17.0147], [81.7186, 17.0147], [81.7181, 17.0147], [81.7177, 17.0148], [81.7175, 17.0148], [81.7172, 17.0147], [81.7162, 17.0146], [81.7156, 17.0146], [81.7149, 17.0146], [81.7138, 17.0146], [81.7135, 17.0146], [81.7129, 17.0146], [81.7117, 17.0145], [81.711, 17.0144], [81.7103, 17.0143], [81.7097, 17.0142], [81.7087, 17.0141], [81.7083, 17.0142], [81.7076, 17.0141], [81.7071, 17.0141], [81.7064, 17.014], [81.706, 17.014], [81.7057, 17.014], [81.7052, 17.0139], [81.7049, 17.0139], [81.7047, 17.0138], [81.7045, 17.0138], [81.7042, 17.0138], [81.7039, 17.0138], [81.7034, 17.0137], [81.7031, 17.0137], [81.7028, 17.0136], [81.7025, 17.0136], [81.7023, 17.0147], [81.7022, 17.0154], [81.7022, 17.016], [81.7022, 17.0163], [81.7021, 17.0166], [81.7021, 17.0169], [81.7021, 17.017], [81.7021, 17.0172], [81.7021, 17.0175], [81.7021, 17.0181], [81.7021, 17.0187], [81.702, 17.019], [81.7019, 17.02], [81.7018, 17.0213], [81.7018, 17.0217], [81.7018, 17.022], [81.7031, 17.022], [81.7049, 17.022], [81.708, 17.0219], [81.7099, 17.0218], [81.7113, 17.0217], [81.7127, 17.0217], [81.7143, 17.0216], [81.715, 17.0216], [81.7156, 17.0215], [81.7163, 17.0214], [81.7165, 17.0214], [81.7171, 17.0214], [81.7177, 17.0214], [81.7184, 17.0213], [81.7191, 17.0214], [81.7196, 17.0213], [81.7204, 17.0212], [81.7217, 17.0211], [81.7221, 17.0211], [81.7226, 17.021], [81.7232, 17.0209], [81.7236, 17.0208], [81.7245, 17.0206], [81.7255, 17.0203], [81.7272, 17.0198], [81.7275, 17.0198], [81.7276, 17.0197], [81.7277, 17.0197], [81.7278, 17.0196], [81.7276, 17.0187], [81.7275, 17.0184], [81.7275, 17.018], [81.7275, 17.0179], [81.7274, 17.0177], [81.7272, 17.0173]]]}, "properties": {"objectid": 63031, "statename": "ANDHRA PRADESH", "statecode": "28", "districtname": "EST GODAVARI", "districtcode": "545", "ulbname": "Kovvur", "ulbcode": "802959", "wardname": "VUBA VARI VEEDHI", "wardcode": "22", "id": null, "status": "APPROVED", "misglobalid": null, "approved_by": null, "createdate": 1734537686000, "updateddate": 1734587668000, "globalid": null, "gisglobalid": "QmRasQld-oQla-Pd4s-QdKs-mm4KscandBdn", "remark": "", "st_area(shape)": 0.00016699712263262937, "st_perimeter(shape)": 0.06372974897732901}}, {"type": "Feature", "geometry": {"type": "Polygon", "coordinates": [[[81.7276, 17.0224], [81.7282, 17.0225], [81.7283, 17.0224], [81.7283, 17.0221], [81.7283, 17.0219], [81.7284, 17.0217], [81.7284, 17.0215], [81.7283, 17.0214], [81.7282, 17.021], [81.7281, 17.0208], [81.7281, 17.0206], [81.728, 17.0205], [81.728, 17.0203], [81.7279, 17.0201], [81.7279, 17.02], [81.7278, 17.0198], [81.7278, 17.0196], [81.7277, 17.0197], [81.7275, 17.0198], [81.7272, 17.0198], [81.7262, 17.0202], [81.7255, 17.0204], [81.7246, 17.0206], [81.7227, 17.021], [81.7217, 17.0211], [81.7191, 17.0214], [81.7184, 17.0214], [81.7164, 17.0215], [81.7139, 17.0217], [81.7124, 17.0218], [81.7085, 17.0219], [81.7045, 17.022], [81.7018, 17.0221], [81.7017, 17.0225], [81.7015, 17.0238], [81.7015, 17.0244], [81.7016, 17.0268], [81.7017, 17.0277], [81.7017, 17.0287], [81.7032, 17.0285], [81.7042, 17.0283], [81.7062, 17.0278], [81.7078, 17.0274], [81.7085, 17.0272], [81.7096, 17.0266], [81.7101, 17.0264], [81.7109, 17.0261], [81.7119, 17.0258], [81.7139, 17.0252], [81.7158, 17.0246], [81.7168, 17.0242], [81.7169, 17.0243], [81.7177, 17.0244], [81.7186, 17.0244], [81.7195, 17.0241], [81.7203, 17.0237], [81.7205, 17.0236], [81.7211, 17.0235], [81.7214, 17.0235], [81.7234, 17.0232], [81.7246, 17.023], [81.7252, 17.0229], [81.7261, 17.0226], [81.7262, 17.0226], [81.7269, 17.0224], [81.7276, 17.0224]]]}, "properties": {"objectid": 65846, "statename": "ANDHRA PRADESH", "statecode": "28", "districtname": "EST GODAVARI", "districtcode": "545", "ulbname": "Kovvur", "ulbcode": "802959", "wardname": "MYPALA VARI STREET,ACHANTA VARI STREET", "wardcode": "23", "id": null, "status": "APPROVED", "misglobalid": null, "approved_by": null, "createdate": 1734537731000, "updateddate": 1734587653000, "globalid": null, "gisglobalid": "4R6s5K5K-na6K-PnKl-Qmoc-KmB5nsdRlcRc", "remark": "", "st_area(shape)": 0.00010276827626053721, "st_perimeter(shape)": 0.06344214771219506}}]}
