{"type": "FeatureCollection", "features": [{"type": "Feature", "geometry": {"type": "Polygon", "coordinates": [[[77.4847, 22.4729], [77.4845, 22.4727], [77.4841, 22.4725], [77.4838, 22.4723], [77.4835, 22.4721], [77.4833, 22.4719], [77.4832, 22.4719], [77.4828, 22.4716], [77.4824, 22.4714], [77.4823, 22.4713], [77.482, 22.4711], [77.4819, 22.471], [77.4816, 22.4709], [77.4814, 22.4707], [77.4813, 22.4706], [77.4812, 22.4705], [77.4808, 22.4703], [77.4798, 22.4697], [77.4798, 22.4696], [77.479, 22.4693], [77.479, 22.4692], [77.4781, 22.4686], [77.4786, 22.4679], [77.4789, 22.4677], [77.479, 22.4676], [77.4791, 22.4676], [77.4789, 22.467], [77.4787, 22.4663], [77.4787, 22.4662], [77.4788, 22.4662], [77.479, 22.4662], [77.4794, 22.4661], [77.4797, 22.466], [77.4799, 22.4661], [77.4802, 22.4659], [77.48, 22.4656], [77.4794, 22.4648], [77.4793, 22.4646], [77.4791, 22.4644], [77.4791, 22.4643], [77.479, 22.4642], [77.4789, 22.4641], [77.4789, 22.464], [77.4789, 22.4639], [77.4789, 22.4631], [77.4789, 22.463], [77.4788, 22.4625], [77.4788, 22.4623], [77.4788, 22.4618], [77.4788, 22.4611], [77.4788, 22.4609], [77.4788, 22.4604], [77.4782, 22.4605], [77.4781, 22.4605], [77.4778, 22.4606], [77.4775, 22.4606], [77.4771, 22.4606], [77.477, 22.4606], [77.4769, 22.4606], [77.4763, 22.4607], [77.4762, 22.4607], [77.4761, 22.4607], [77.4758, 22.4608], [77.4757, 22.4608], [77.4754, 22.4609], [77.4754, 22.461], [77.475, 22.4611], [77.475, 22.4612], [77.4749, 22.4614], [77.4749, 22.4615], [77.4748, 22.4615], [77.4747, 22.4616], [77.4748, 22.4616], [77.4748, 22.4617], [77.4749, 22.4617], [77.4749, 22.4618], [77.475, 22.4618], [77.4751, 22.4619], [77.4752, 22.4619], [77.4753, 22.462], [77.4754, 22.462], [77.4755, 22.462], [77.4755, 22.4621], [77.4758, 22.4623], [77.476, 22.4625], [77.4761, 22.4626], [77.4761, 22.4627], [77.4761, 22.4628], [77.476, 22.4628], [77.4759, 22.4629], [77.4758, 22.463], [77.4758, 22.4632], [77.4759, 22.4636], [77.4759, 22.4638], [77.4759, 22.4639], [77.4758, 22.4641], [77.4757, 22.4643], [77.4756, 22.4646], [77.4755, 22.4647], [77.4754, 22.4648], [77.4753, 22.4649], [77.4752, 22.465], [77.4752, 22.4651], [77.4752, 22.4652], [77.4751, 22.4652], [77.4749, 22.4653], [77.4748, 22.4653], [77.4747, 22.4652], [77.4745, 22.4652], [77.4743, 22.4653], [77.4742, 22.4654], [77.4741, 22.4655], [77.4741, 22.4656], [77.474, 22.4657], [77.4739, 22.4659], [77.4738, 22.4662], [77.4737, 22.4663], [77.4736, 22.4663], [77.4736, 22.4664], [77.4736, 22.4665], [77.4737, 22.4666], [77.4738, 22.4667], [77.4738, 22.4668], [77.4739, 22.4669], [77.4739, 22.467], [77.4739, 22.4671], [77.474, 22.4671], [77.474, 22.4672], [77.4741, 22.4673], [77.4742, 22.4673], [77.4743, 22.4674], [77.4744, 22.4674], [77.4745, 22.4675], [77.4746, 22.4676], [77.4746, 22.4677], [77.4747, 22.4677], [77.4748, 22.4677], [77.4749, 22.4677], [77.4751, 22.4677], [77.4752, 22.4677], [77.4753, 22.4677], [77.4754, 22.4677], [77.4755, 22.4678], [77.4755, 22.4679], [77.4756, 22.4679], [77.4757, 22.4679], [77.4757, 22.468], [77.4757, 22.4681], [77.4757, 22.4682], [77.4757, 22.4683], [77.4757, 22.4684], [77.4758, 22.4684], [77.4759, 22.4685], [77.476, 22.4685], [77.4761, 22.4686], [77.4762, 22.4687], [77.4763, 22.4686], [77.4764, 22.4686], [77.4765, 22.4686], [77.4766, 22.4687], [77.4767, 22.4689], [77.4768, 22.4689], [77.4768, 22.469], [77.4769, 22.469], [77.4769, 22.4691], [77.4769, 22.4692], [77.477, 22.4693], [77.4771, 22.4693], [77.4772, 22.4693], [77.4774, 22.4694], [77.4774, 22.4695], [77.4774, 22.4696], [77.4774, 22.4697], [77.4775, 22.4697], [77.4775, 22.4698], [77.4776, 22.4699], [77.4777, 22.47], [77.4776, 22.47], [77.4776, 22.4701], [77.4775, 22.4702], [77.4775, 22.4703], [77.4775, 22.4704], [77.4775, 22.4705], [77.4775, 22.4706], [77.4774, 22.4706], [77.4774, 22.4707], [77.4774, 22.4708], [77.4775, 22.4708], [77.4776, 22.4709], [77.4777, 22.4709], [77.4778, 22.4709], [77.4779, 22.471], [77.4779, 22.4711], [77.478, 22.4711], [77.478, 22.4712], [77.478, 22.4713], [77.4779, 22.4714], [77.4779, 22.4715], [77.4778, 22.4716], [77.4778, 22.4717], [77.4778, 22.4718], [77.4778, 22.4719], [77.4778, 22.472], [77.4779, 22.4721], [77.478, 22.4722], [77.4781, 22.4723], [77.4783, 22.4725], [77.4783, 22.4726], [77.4784, 22.4727], [77.4785, 22.473], [77.4786, 22.4731], [77.4787, 22.4732], [77.4787, 22.4733], [77.4788, 22.4733], [77.4789, 22.4733], [77.479, 22.4733], [77.4791, 22.4733], [77.4791, 22.4732], [77.4792, 22.4731], [77.4793, 22.4731], [77.4794, 22.4731], [77.4795, 22.4732], [77.4797, 22.4734], [77.4797, 22.4735], [77.4797, 22.4736], [77.4797, 22.4737], [77.4796, 22.4737], [77.4796, 22.4738], [77.4795, 22.4738], [77.4795, 22.4739], [77.4794, 22.4739], [77.4794, 22.474], [77.4793, 22.4741], [77.4793, 22.4742], [77.4792, 22.4742], [77.4792, 22.4743], [77.4792, 22.4744], [77.4793, 22.4745], [77.4794, 22.4746], [77.4794, 22.4747], [77.4795, 22.4748], [77.4796, 22.4749], [77.4797, 22.4749], [77.4798, 22.475], [77.4799, 22.475], [77.48, 22.475], [77.4801, 22.4749], [77.4803, 22.4748], [77.4804, 22.4747], [77.4805, 22.4747], [77.4805, 22.4748], [77.4806, 22.4748], [77.4807, 22.4746], [77.4808, 22.4744], [77.4808, 22.4742], [77.4809, 22.474], [77.4812, 22.4734], [77.4815, 22.4729], [77.4808, 22.4721], [77.4807, 22.4721], [77.481, 22.4718], [77.4811, 22.4718], [77.4812, 22.4718], [77.4818, 22.4723], [77.482, 22.4724], [77.4826, 22.4728], [77.483, 22.4731], [77.4833, 22.4734], [77.4834, 22.4734], [77.4836, 22.4732], [77.4837, 22.4732], [77.4841, 22.4735], [77.4846, 22.4729], [77.4847, 22.4729]]]}, "properties": {"objectid": 298299, "statename": "Madhya Pradesh", "statecode": "23", "districtname": "Hoshangabad", "districtcode": "449", "ulbname": "Seoni Malwa", "ulbcode": "802344", "wardname": "Raidas Ward", "wardcode": "1", "id": null, "status": "APPROVED", "misglobalid": null, "approved_by": null, "createdate": 1673724391000, "updateddate": 1674634932000, "globalid": null, "gisglobalid": "nBdPn64s-sBll-Pm54-QmQR-scnBoslP5R4a", "remark": "Approved", "st_area(shape)": 5.081424907860712e-05, "st_perimeter(shape)": 0.052560378439046054}}, {"type": "Feature", "geometry": {"type": "Polygon", "coordinates": [[[77.4845, 22.4681], [77.4844, 22.468], [77.4843, 22.4679], [77.4838, 22.468], [77.4834, 22.4681], [77.4832, 22.4681], [77.4831, 22.4682], [77.4834, 22.4686], [77.483, 22.4688], [77.4829, 22.4688], [77.4825, 22.4691], [77.4823, 22.4687], [77.4819, 22.4682], [77.4817, 22.4679], [77.4816, 22.4678], [77.4814, 22.4676], [77.4812, 22.4673], [77.481, 22.467], [77.4809, 22.4668], [77.4805, 22.4662], [77.4802, 22.4659], [77.4799, 22.4661], [77.4797, 22.466], [77.4794, 22.4661], [77.479, 22.4662], [77.4788, 22.4662], [77.4787, 22.4662], [77.4787, 22.4663], [77.4789, 22.467], [77.4791, 22.4676], [77.479, 22.4676], [77.4789, 22.4677], [77.4786, 22.4679], [77.4781, 22.4686], [77.479, 22.4692], [77.479, 22.4693], [77.4798, 22.4696], [77.4798, 22.4697], [77.4808, 22.4703], [77.4812, 22.4705], [77.4813, 22.4706], [77.4814, 22.4707], [77.4816, 22.4709], [77.4819, 22.471], [77.482, 22.4711], [77.4823, 22.4713], [77.4824, 22.4714], [77.4828, 22.4716], [77.4832, 22.4719], [77.4833, 22.4719], [77.4835, 22.4721], [77.4838, 22.4723], [77.4841, 22.4725], [77.4845, 22.4727], [77.4847, 22.4729], [77.4848, 22.473], [77.4851, 22.4731], [77.4852, 22.4732], [77.4853, 22.4732], [77.4856, 22.4734], [77.4858, 22.4731], [77.4859, 22.4731], [77.4864, 22.4726], [77.4862, 22.4724], [77.4865, 22.4722], [77.4859, 22.4715], [77.4854, 22.4709], [77.4847, 22.4701], [77.4845, 22.4698], [77.4843, 22.4696], [77.4842, 22.4693], [77.4842, 22.4691], [77.4842, 22.469], [77.4842, 22.4687], [77.4842, 22.4685], [77.4844, 22.4683], [77.4845, 22.4681]]]}, "properties": {"objectid": 298300, "statename": "Madhya Pradesh", "statecode": "23", "districtname": "Hoshangabad", "districtcode": "449", "ulbname": "Seoni Malwa", "ulbcode": "802344", "wardname": "Gandhi Ward", "wardcode": "2", "id": null, "status": "APPROVED", "misglobalid": null, "approved_by": null, "createdate": 1673724415000, "updateddate": 1674635014000, "globalid": null, "gisglobalid": "QBnscR5c-dKs6-Pa6n-QnRo-o64soccnmcln", "remark": "Approved", "st_area(shape)": 2.3571096588483117e-05, "st_perimeter(shape)": 0.027059889188404934}}, {"type": "Feature", "geometry": {"type": "Polygon", "coordinates": [[[77.4845, 22.4681], [77.4846, 22.4679], [77.485, 22.4673], [77.4854, 22.4667], [77.4856, 22.4666], [77.4861, 22.4659], [77.4865, 22.4653], [77.4866, 22.4651], [77.4867, 22.4649], [77.4867, 22.4648], [77.4868, 22.4646], [77.4868, 22.4645], [77.4868, 22.4644], [77.4868, 22.4643], [77.4868, 22.4641], [77.4868, 22.464], [77.4866, 22.464], [77.4861, 22.4639], [77.4856, 22.4638], [77.4849, 22.4636], [77.485, 22.4635], [77.4849, 22.4635], [77.4848, 22.4636], [77.4847, 22.4637], [77.4843, 22.4637], [77.4841, 22.4638], [77.484, 22.4638], [77.484, 22.4637], [77.4841, 22.4636], [77.4836, 22.4636], [77.483, 22.4636], [77.4824, 22.4636], [77.4818, 22.4627], [77.4817, 22.4626], [77.4815, 22.4621], [77.4814, 22.462], [77.4813, 22.4618], [77.4812, 22.4617], [77.4811, 22.4612], [77.4811, 22.4607], [77.4811, 22.4606], [77.481, 22.4605], [77.4809, 22.4603], [77.4807, 22.4601], [77.4806, 22.46], [77.4803, 22.4599], [77.4801, 22.4598], [77.4799, 22.4597], [77.4795, 22.4597], [77.4793, 22.4596], [77.4791, 22.4596], [77.4788, 22.4596], [77.4787, 22.4596], [77.4787, 22.4598], [77.4787, 22.4599], [77.4788, 22.4603], [77.4788, 22.4604], [77.4788, 22.4609], [77.4788, 22.4611], [77.4788, 22.4618], [77.4788, 22.4623], [77.4788, 22.4625], [77.4789, 22.463], [77.4789, 22.4631], [77.4789, 22.4639], [77.4789, 22.464], [77.4789, 22.4641], [77.479, 22.4642], [77.4791, 22.4643], [77.4791, 22.4644], [77.4793, 22.4646], [77.4794, 22.4648], [77.48, 22.4656], [77.4802, 22.4659], [77.4805, 22.4662], [77.4809, 22.4668], [77.481, 22.467], [77.4812, 22.4673], [77.4814, 22.4676], [77.4816, 22.4678], [77.4817, 22.4679], [77.4819, 22.4682], [77.4823, 22.4687], [77.4825, 22.4691], [77.4829, 22.4688], [77.483, 22.4688], [77.4834, 22.4686], [77.4831, 22.4682], [77.4832, 22.4681], [77.4834, 22.4681], [77.4838, 22.468], [77.4843, 22.4679], [77.4844, 22.468], [77.4845, 22.4681]]]}, "properties": {"objectid": 297841, "statename": "Madhya Pradesh", "statecode": "23", "districtname": "Hoshangabad", "districtcode": "449", "ulbname": "Seoni Malwa", "ulbcode": "802344", "wardname": "Subhas Ward", "wardcode": "3", "id": null, "status": "APPROVED", "misglobalid": null, "approved_by": null, "createdate": 1673724594000, "updateddate": 1674635051000, "globalid": null, "gisglobalid": "mnls64aa-onQK-PPod-QcRo-Qd5KdK4oadcn", "remark": "Approved", "st_area(shape)": 3.60553259878593e-05, "st_perimeter(shape)": 0.029297714647571933}}, {"type": "Feature", "geometry": {"type": "Polygon", "coordinates": [[[77.4747, 22.4616], [77.4746, 22.4615], [77.4744, 22.4615], [77.4742, 22.4614], [77.4741, 22.4613], [77.474, 22.4613], [77.4739, 22.4613], [77.4738, 22.4614], [77.4737, 22.4614], [77.4736, 22.4613], [77.4735, 22.4613], [77.4735, 22.4612], [77.4734, 22.4612], [77.4734, 22.4611], [77.4733, 22.4611], [77.4733, 22.461], [77.4731, 22.461], [77.4729, 22.461], [77.4728, 22.461], [77.4726, 22.4609], [77.4725, 22.4609], [77.4724, 22.4608], [77.4724, 22.4607], [77.4724, 22.4606], [77.4724, 22.4605], [77.4724, 22.4604], [77.4724, 22.4603], [77.4724, 22.4602], [77.4724, 22.4601], [77.4723, 22.4601], [77.4723, 22.46], [77.4722, 22.4599], [77.4721, 22.4599], [77.472, 22.4599], [77.4719, 22.46], [77.4718, 22.46], [77.4717, 22.46], [77.4716, 22.46], [77.4715, 22.4599], [77.4715, 22.4598], [77.4715, 22.4597], [77.4715, 22.4596], [77.4714, 22.4596], [77.4714, 22.4595], [77.4713, 22.4595], [77.4712, 22.4594], [77.4711, 22.4594], [77.471, 22.4594], [77.4709, 22.4593], [77.4708, 22.4592], [77.4707, 22.4591], [77.4706, 22.459], [77.4706, 22.4589], [77.4705, 22.4588], [77.4704, 22.4587], [77.4703, 22.4586], [77.4703, 22.4585], [77.4702, 22.4584], [77.4702, 22.4582], [77.4701, 22.4581], [77.47, 22.458], [77.4699, 22.458], [77.4698, 22.4579], [77.4697, 22.4579], [77.4696, 22.4578], [77.4696, 22.4577], [77.4696, 22.4576], [77.4697, 22.4575], [77.4698, 22.4574], [77.4699, 22.4573], [77.4699, 22.4572], [77.47, 22.4571], [77.47, 22.457], [77.4699, 22.457], [77.4699, 22.4569], [77.4699, 22.4568], [77.4699, 22.4567], [77.4698, 22.4566], [77.4698, 22.4565], [77.4699, 22.4564], [77.4699, 22.4563], [77.4699, 22.4562], [77.47, 22.4562], [77.4701, 22.4562], [77.4702, 22.4562], [77.4702, 22.4561], [77.4702, 22.456], [77.4702, 22.4559], [77.4702, 22.4558], [77.4703, 22.4557], [77.4704, 22.4557], [77.4704, 22.4556], [77.4705, 22.4556], [77.4706, 22.4555], [77.4707, 22.4555], [77.4707, 22.4554], [77.4708, 22.4554], [77.4708, 22.4553], [77.4708, 22.4552], [77.4709, 22.4552], [77.4709, 22.4551], [77.4709, 22.455], [77.4709, 22.4549], [77.471, 22.4548], [77.471, 22.4546], [77.4709, 22.4545], [77.4709, 22.4544], [77.4709, 22.4543], [77.4709, 22.4542], [77.4708, 22.4541], [77.4708, 22.454], [77.4708, 22.4539], [77.4707, 22.4537], [77.4706, 22.4536], [77.4706, 22.4535], [77.4706, 22.4534], [77.4706, 22.4533], [77.4707, 22.4533], [77.4707, 22.4532], [77.4707, 22.4531], [77.4705, 22.4531], [77.4704, 22.4531], [77.4703, 22.4531], [77.4702, 22.4531], [77.4701, 22.4531], [77.47, 22.4529], [77.4699, 22.4528], [77.4697, 22.4525], [77.4697, 22.4524], [77.4693, 22.4518], [77.4692, 22.4517], [77.4691, 22.4517], [77.4689, 22.4517], [77.4684, 22.4517], [77.4679, 22.4517], [77.4679, 22.452], [77.4679, 22.4521], [77.4679, 22.4525], [77.4679, 22.4527], [77.4679, 22.453], [77.4679, 22.4531], [77.4679, 22.4532], [77.4679, 22.4534], [77.468, 22.4536], [77.468, 22.4537], [77.468, 22.4539], [77.468, 22.454], [77.468, 22.4542], [77.468, 22.4545], [77.4681, 22.455], [77.4681, 22.4551], [77.4681, 22.4553], [77.4681, 22.4555], [77.4681, 22.4558], [77.4682, 22.4562], [77.4682, 22.4564], [77.4682, 22.4566], [77.4683, 22.4569], [77.4683, 22.4572], [77.4683, 22.4574], [77.4684, 22.4577], [77.4684, 22.4579], [77.4684, 22.458], [77.4684, 22.4581], [77.4684, 22.4582], [77.4684, 22.4584], [77.4683, 22.4585], [77.4684, 22.4585], [77.4685, 22.4588], [77.4686, 22.459], [77.4687, 22.4592], [77.4689, 22.4595], [77.469, 22.4598], [77.4692, 22.46], [77.4694, 22.4602], [77.4695, 22.4606], [77.4697, 22.4608], [77.4699, 22.4611], [77.47, 22.4615], [77.4702, 22.462], [77.4702, 22.4624], [77.4703, 22.4625], [77.4703, 22.4626], [77.4704, 22.4628], [77.4705, 22.4629], [77.4704, 22.4629], [77.4704, 22.463], [77.4703, 22.4631], [77.4741, 22.4656], [77.4741, 22.4655], [77.4742, 22.4654], [77.4743, 22.4653], [77.4745, 22.4652], [77.4747, 22.4652], [77.4748, 22.4653], [77.4749, 22.4653], [77.4751, 22.4652], [77.4752, 22.4652], [77.4752, 22.4651], [77.4752, 22.465], [77.4753, 22.4649], [77.4754, 22.4648], [77.4755, 22.4647], [77.4756, 22.4646], [77.4757, 22.4643], [77.4758, 22.4641], [77.4759, 22.4639], [77.4759, 22.4638], [77.4759, 22.4636], [77.4758, 22.4632], [77.4758, 22.463], [77.4759, 22.4629], [77.476, 22.4628], [77.4761, 22.4628], [77.4761, 22.4627], [77.4761, 22.4626], [77.476, 22.4625], [77.4758, 22.4623], [77.4755, 22.4621], [77.4755, 22.462], [77.4754, 22.462], [77.4753, 22.462], [77.4752, 22.4619], [77.4751, 22.4619], [77.475, 22.4618], [77.4749, 22.4618], [77.4749, 22.4617], [77.4748, 22.4617], [77.4748, 22.4616], [77.4747, 22.4616]]]}, "properties": {"objectid": 297842, "statename": "Madhya Pradesh", "statecode": "23", "districtname": "Hoshangabad", "districtcode": "449", "ulbname": "Seoni Malwa", "ulbcode": "802344", "wardname": "Kidwai Ward", "wardcode": "4", "id": null, "status": "APPROVED", "misglobalid": null, "approved_by": null, "createdate": 1673724700000, "updateddate": 1674635072000, "globalid": null, "gisglobalid": "4KdKKKcn-a4Q5-PsdK-QdPl-damdK6B6nssP", "remark": "Approved", "st_area(shape)": 3.9261239879828406e-05, "st_perimeter(shape)": 0.038786874442791754}}, {"type": "Feature", "geometry": {"type": "Polygon", "coordinates": [[[77.4679, 22.4532], [77.4679, 22.4531], [77.4679, 22.453], [77.4679, 22.4527], [77.4679, 22.4525], [77.4679, 22.4521], [77.4679, 22.452], [77.4679, 22.4517], [77.4676, 22.4517], [77.4676, 22.4516], [77.467, 22.4517], [77.4669, 22.4517], [77.4667, 22.4517], [77.4666, 22.4516], [77.4664, 22.4516], [77.4662, 22.4516], [77.4661, 22.4516], [77.4659, 22.4516], [77.4657, 22.4516], [77.4652, 22.4516], [77.4649, 22.4516], [77.4647, 22.4516], [77.4646, 22.4518], [77.4646, 22.4525], [77.4642, 22.4525], [77.4642, 22.4526], [77.4642, 22.4529], [77.4641, 22.4529], [77.4641, 22.453], [77.4641, 22.4532], [77.4643, 22.4533], [77.4643, 22.4535], [77.4643, 22.4538], [77.4643, 22.454], [77.4644, 22.454], [77.4644, 22.4539], [77.4646, 22.4537], [77.4648, 22.4535], [77.4649, 22.4534], [77.465, 22.4533], [77.4651, 22.4533], [77.4655, 22.4532], [77.4656, 22.4532], [77.4658, 22.4532], [77.4659, 22.4532], [77.4661, 22.4531], [77.4663, 22.4531], [77.4664, 22.4531], [77.4666, 22.4531], [77.4667, 22.4531], [77.4668, 22.4531], [77.4669, 22.4531], [77.4671, 22.4531], [77.4673, 22.4531], [77.4674, 22.4532], [77.4675, 22.4532], [77.4676, 22.4532], [77.4679, 22.4532]]]}, "properties": {"objectid": 297843, "statename": "Madhya Pradesh", "statecode": "23", "districtname": "Hoshangabad", "districtcode": "449", "ulbname": "Seoni Malwa", "ulbcode": "802344", "wardname": "Lala Lajpat Rai Ward", "wardcode": "5", "id": null, "status": "APPROVED", "misglobalid": null, "approved_by": null, "createdate": 1673724717000, "updateddate": 1674635083000, "globalid": null, "gisglobalid": "nQKoPml4-65ls-P4sl-RBos-QKmnnQaBm5aB", "remark": "Approved", "st_area(shape)": 5.736747391450135e-06, "st_perimeter(shape)": 0.011946024526849695}}, {"type": "Feature", "geometry": {"type": "Polygon", "coordinates": [[[77.4681, 22.4553], [77.4681, 22.4551], [77.4681, 22.455], [77.468, 22.4545], [77.468, 22.4542], [77.468, 22.454], [77.468, 22.4539], [77.468, 22.4537], [77.468, 22.4536], [77.4679, 22.4534], [77.4679, 22.4532], [77.4676, 22.4532], [77.4675, 22.4532], [77.4674, 22.4532], [77.4673, 22.4531], [77.4671, 22.4531], [77.4669, 22.4531], [77.4668, 22.4531], [77.4667, 22.4531], [77.4666, 22.4531], [77.4664, 22.4531], [77.4663, 22.4531], [77.4661, 22.4531], [77.4659, 22.4532], [77.4658, 22.4532], [77.4656, 22.4532], [77.4655, 22.4532], [77.4651, 22.4533], [77.465, 22.4533], [77.4649, 22.4534], [77.4648, 22.4535], [77.4646, 22.4537], [77.4644, 22.4539], [77.4644, 22.454], [77.4643, 22.454], [77.4643, 22.4541], [77.4641, 22.4543], [77.4639, 22.4545], [77.4635, 22.4548], [77.4637, 22.4548], [77.4638, 22.4548], [77.4639, 22.4547], [77.464, 22.4547], [77.4641, 22.4548], [77.4642, 22.4548], [77.4644, 22.4548], [77.4645, 22.4548], [77.4647, 22.4548], [77.4649, 22.4548], [77.465, 22.4548], [77.4651, 22.4548], [77.4653, 22.4548], [77.4654, 22.4548], [77.4656, 22.4547], [77.4658, 22.4547], [77.4659, 22.4547], [77.466, 22.4547], [77.4664, 22.4548], [77.4665, 22.4548], [77.4667, 22.4549], [77.4668, 22.4549], [77.4669, 22.455], [77.4669, 22.4551], [77.4671, 22.4552], [77.4676, 22.4553], [77.4679, 22.4553], [77.4681, 22.4553]]]}, "properties": {"objectid": 297844, "statename": "Madhya Pradesh", "statecode": "23", "districtname": "Hoshangabad", "districtcode": "449", "ulbname": "Seoni Malwa", "ulbcode": "802344", "wardname": "Nehru Ward", "wardcode": "6", "id": null, "status": "APPROVED", "misglobalid": null, "approved_by": null, "createdate": 1673724751000, "updateddate": 1674635101000, "globalid": null, "gisglobalid": "Pms56moP-QK6s-PK4K-RmRK-cR5aB5a6aPK4", "remark": "Approved", "st_area(shape)": 6.491096474930425e-06, "st_perimeter(shape)": 0.011984702881250494}}, {"type": "Feature", "geometry": {"type": "Polygon", "coordinates": [[[77.4681, 22.4553], [77.4679, 22.4553], [77.4676, 22.4553], [77.4671, 22.4552], [77.4669, 22.4551], [77.4669, 22.455], [77.4668, 22.4549], [77.4667, 22.4549], [77.4665, 22.4548], [77.4664, 22.4548], [77.466, 22.4547], [77.4659, 22.4547], [77.4658, 22.4547], [77.4656, 22.4547], [77.4654, 22.4548], [77.4653, 22.4548], [77.4651, 22.4548], [77.465, 22.4548], [77.4649, 22.4548], [77.4647, 22.4548], [77.4645, 22.4548], [77.4644, 22.4548], [77.4642, 22.4548], [77.4641, 22.4548], [77.464, 22.4547], [77.4639, 22.4547], [77.4638, 22.4548], [77.4637, 22.4548], [77.4635, 22.4548], [77.4639, 22.4545], [77.4641, 22.4543], [77.4643, 22.4541], [77.4643, 22.454], [77.4643, 22.4538], [77.4643, 22.4535], [77.4643, 22.4533], [77.4641, 22.4532], [77.4641, 22.453], [77.4641, 22.4529], [77.4636, 22.4528], [77.4636, 22.4529], [77.4635, 22.4531], [77.4635, 22.4532], [77.4634, 22.4532], [77.4633, 22.4533], [77.4633, 22.4534], [77.4632, 22.4534], [77.4631, 22.4535], [77.463, 22.4535], [77.4629, 22.4535], [77.4628, 22.4535], [77.4627, 22.4535], [77.4626, 22.4535], [77.4625, 22.4536], [77.4624, 22.4536], [77.4624, 22.4537], [77.4623, 22.4537], [77.4622, 22.4537], [77.4621, 22.4536], [77.462, 22.4536], [77.4619, 22.4535], [77.4618, 22.4535], [77.4617, 22.4535], [77.4616, 22.4535], [77.4616, 22.4534], [77.4617, 22.4533], [77.4616, 22.4532], [77.4615, 22.4531], [77.4615, 22.453], [77.4614, 22.4529], [77.4613, 22.4529], [77.4611, 22.4529], [77.461, 22.453], [77.4609, 22.453], [77.4608, 22.453], [77.4607, 22.453], [77.4606, 22.453], [77.4605, 22.453], [77.4603, 22.453], [77.4601, 22.4529], [77.46, 22.4529], [77.46, 22.4531], [77.46, 22.4534], [77.46, 22.4536], [77.4599, 22.4537], [77.4599, 22.4538], [77.4598, 22.4538], [77.459, 22.4538], [77.4576, 22.4544], [77.4574, 22.4545], [77.46, 22.4563], [77.4628, 22.4582], [77.4643, 22.4592], [77.4703, 22.4631], [77.4704, 22.463], [77.4704, 22.4629], [77.4705, 22.4629], [77.4704, 22.4628], [77.4703, 22.4626], [77.4703, 22.4625], [77.4702, 22.4624], [77.4702, 22.462], [77.47, 22.4615], [77.4699, 22.4611], [77.4697, 22.4608], [77.4695, 22.4606], [77.4694, 22.4602], [77.4692, 22.46], [77.469, 22.4598], [77.4689, 22.4595], [77.4687, 22.4592], [77.4686, 22.459], [77.4685, 22.4588], [77.4684, 22.4585], [77.4683, 22.4585], [77.4684, 22.4584], [77.4684, 22.4582], [77.4684, 22.4581], [77.4684, 22.458], [77.4684, 22.4579], [77.4684, 22.4577], [77.4683, 22.4574], [77.4683, 22.4572], [77.4683, 22.4569], [77.4682, 22.4566], [77.4682, 22.4564], [77.4682, 22.4562], [77.4681, 22.4558], [77.4681, 22.4555], [77.4681, 22.4553]]]}, "properties": {"objectid": 297845, "statename": "Madhya Pradesh", "statecode": "23", "districtname": "Hoshangabad", "districtcode": "449", "ulbname": "Seoni Malwa", "ulbcode": "802344", "wardname": "Rajendra Ward", "wardcode": "7", "id": null, "status": "APPROVED", "misglobalid": null, "approved_by": null, "createdate": 1673725607000, "updateddate": 1674635130000, "globalid": null, "gisglobalid": "6KmdRaRn-oBlm-PP45-Rn6K-4mKdoQQmmaas", "remark": "Approved", "st_area(shape)": 4.928708797772838e-05, "st_perimeter(shape)": 0.039829576926069275}}, {"type": "Feature", "geometry": {"type": "Polygon", "coordinates": [[[77.4641, 22.4529], [77.4642, 22.4529], [77.4642, 22.4526], [77.4642, 22.4525], [77.4646, 22.4525], [77.4646, 22.4518], [77.4647, 22.4516], [77.4645, 22.4516], [77.4644, 22.4516], [77.4643, 22.4515], [77.4642, 22.4515], [77.464, 22.4514], [77.4639, 22.4514], [77.4636, 22.4513], [77.4633, 22.4513], [77.4633, 22.4512], [77.4631, 22.4512], [77.4626, 22.4512], [77.4625, 22.4511], [77.4619, 22.4511], [77.4613, 22.4511], [77.461, 22.4511], [77.4606, 22.4511], [77.4601, 22.4511], [77.4596, 22.4511], [77.4594, 22.4511], [77.4592, 22.4511], [77.4591, 22.4511], [77.4591, 22.451], [77.4589, 22.451], [77.4588, 22.4509], [77.4586, 22.4508], [77.4584, 22.4507], [77.4583, 22.4506], [77.4581, 22.4504], [77.458, 22.4504], [77.4579, 22.4503], [77.4577, 22.4502], [77.4577, 22.4501], [77.4575, 22.45], [77.457, 22.4496], [77.4568, 22.4494], [77.4564, 22.4491], [77.4558, 22.4487], [77.4554, 22.4485], [77.4552, 22.4484], [77.4549, 22.4482], [77.4548, 22.4481], [77.4546, 22.448], [77.4537, 22.4474], [77.4534, 22.4472], [77.4532, 22.4471], [77.4529, 22.4467], [77.4526, 22.4464], [77.4525, 22.4463], [77.452, 22.4458], [77.4517, 22.4455], [77.4512, 22.445], [77.4511, 22.4449], [77.451, 22.445], [77.4509, 22.445], [77.4509, 22.4451], [77.4509, 22.4452], [77.4508, 22.4456], [77.4507, 22.4456], [77.4504, 22.4456], [77.4502, 22.4456], [77.4498, 22.4454], [77.4496, 22.4462], [77.4494, 22.4465], [77.4492, 22.4469], [77.4492, 22.447], [77.4486, 22.4469], [77.4486, 22.4472], [77.4478, 22.4473], [77.4479, 22.4479], [77.4479, 22.4482], [77.4479, 22.4484], [77.4486, 22.4486], [77.4487, 22.4486], [77.449, 22.4488], [77.4488, 22.4492], [77.4487, 22.4495], [77.4497, 22.4499], [77.4502, 22.4501], [77.4512, 22.4506], [77.452, 22.451], [77.453, 22.4517], [77.4545, 22.4526], [77.4559, 22.4536], [77.4574, 22.4545], [77.4576, 22.4544], [77.459, 22.4538], [77.4598, 22.4538], [77.4599, 22.4538], [77.4599, 22.4537], [77.46, 22.4536], [77.46, 22.4534], [77.46, 22.4531], [77.46, 22.4529], [77.4601, 22.4529], [77.4603, 22.453], [77.4605, 22.453], [77.4606, 22.453], [77.4607, 22.453], [77.4608, 22.453], [77.4609, 22.453], [77.461, 22.453], [77.4611, 22.4529], [77.4613, 22.4529], [77.4614, 22.4529], [77.4615, 22.453], [77.4615, 22.4531], [77.4616, 22.4532], [77.4617, 22.4533], [77.4616, 22.4534], [77.4616, 22.4535], [77.4617, 22.4535], [77.4618, 22.4535], [77.4619, 22.4535], [77.462, 22.4536], [77.4621, 22.4536], [77.4622, 22.4537], [77.4623, 22.4537], [77.4624, 22.4537], [77.4624, 22.4536], [77.4625, 22.4536], [77.4626, 22.4535], [77.4627, 22.4535], [77.4628, 22.4535], [77.4629, 22.4535], [77.463, 22.4535], [77.4631, 22.4535], [77.4632, 22.4534], [77.4633, 22.4534], [77.4633, 22.4533], [77.4634, 22.4532], [77.4635, 22.4532], [77.4635, 22.4531], [77.4636, 22.4529], [77.4636, 22.4528], [77.4641, 22.4529]]]}, "properties": {"objectid": 298301, "statename": "Madhya Pradesh", "statecode": "23", "districtname": "Hoshangabad", "districtcode": "449", "ulbname": "Seoni Malwa", "ulbcode": "802344", "wardname": "Gokhle Ward", "wardcode": "8", "id": null, "status": "APPROVED", "misglobalid": null, "approved_by": null, "createdate": 1673725646000, "updateddate": 1674635150000, "globalid": null, "gisglobalid": "dKoacKlo-4a64-Pdsd-s56o-5Bl6mmR5RPRm", "remark": "Approved", "st_area(shape)": 5.877146550828938e-05, "st_perimeter(shape)": 0.04447243285106998}}, {"type": "Feature", "geometry": {"type": "Polygon", "coordinates": [[[77.4657, 22.4516], [77.4657, 22.4513], [77.4658, 22.4511], [77.4658, 22.4508], [77.4658, 22.4507], [77.4659, 22.4505], [77.4659, 22.4504], [77.4659, 22.4501], [77.4659, 22.45], [77.4659, 22.4499], [77.4658, 22.4499], [77.4657, 22.4498], [77.4653, 22.4499], [77.465, 22.4499], [77.4648, 22.45], [77.4644, 22.4501], [77.4644, 22.45], [77.4644, 22.4499], [77.4641, 22.4499], [77.4638, 22.4498], [77.4635, 22.4497], [77.4632, 22.4496], [77.4632, 22.4495], [77.4631, 22.4492], [77.463, 22.4491], [77.463, 22.4489], [77.463, 22.4488], [77.4629, 22.4486], [77.4629, 22.4484], [77.4629, 22.4482], [77.4627, 22.4483], [77.4621, 22.4484], [77.462, 22.4484], [77.4619, 22.4485], [77.4617, 22.4485], [77.4616, 22.4485], [77.4614, 22.4485], [77.4613, 22.4485], [77.4613, 22.4483], [77.4614, 22.4477], [77.4615, 22.4471], [77.4615, 22.4466], [77.4616, 22.4463], [77.4615, 22.4463], [77.4614, 22.4463], [77.4613, 22.4463], [77.4612, 22.4462], [77.4611, 22.446], [77.4611, 22.4459], [77.461, 22.4455], [77.4609, 22.4453], [77.4609, 22.4452], [77.4608, 22.4452], [77.4608, 22.4451], [77.4607, 22.4451], [77.4605, 22.4451], [77.4604, 22.4451], [77.4601, 22.4452], [77.46, 22.4452], [77.46, 22.4451], [77.46, 22.4446], [77.4599, 22.4446], [77.4599, 22.4445], [77.4598, 22.4445], [77.4591, 22.4446], [77.4591, 22.4445], [77.459, 22.4445], [77.459, 22.4444], [77.4591, 22.4441], [77.4591, 22.4438], [77.4591, 22.4437], [77.4591, 22.4436], [77.459, 22.4436], [77.459, 22.4435], [77.4589, 22.4434], [77.4587, 22.4434], [77.4585, 22.4433], [77.4584, 22.4432], [77.4583, 22.4431], [77.4582, 22.443], [77.4582, 22.4427], [77.4574, 22.4427], [77.4565, 22.4426], [77.4559, 22.4426], [77.4557, 22.4426], [77.4556, 22.4426], [77.4555, 22.4427], [77.4554, 22.4427], [77.4553, 22.4427], [77.4549, 22.4429], [77.4548, 22.443], [77.4544, 22.4432], [77.4538, 22.4436], [77.4535, 22.4438], [77.4534, 22.4438], [77.4533, 22.4438], [77.4532, 22.4439], [77.4531, 22.4439], [77.4529, 22.4438], [77.4525, 22.4437], [77.4521, 22.4437], [77.452, 22.4436], [77.4514, 22.4435], [77.4512, 22.4434], [77.4508, 22.4433], [77.4506, 22.4432], [77.4504, 22.4431], [77.4499, 22.4429], [77.4498, 22.4428], [77.4497, 22.4428], [77.4496, 22.4428], [77.4491, 22.4431], [77.4492, 22.4432], [77.4494, 22.4433], [77.4495, 22.4434], [77.4497, 22.4435], [77.4503, 22.4441], [77.4505, 22.4443], [77.4511, 22.4449], [77.4512, 22.445], [77.4517, 22.4455], [77.452, 22.4458], [77.4525, 22.4463], [77.4526, 22.4464], [77.4529, 22.4467], [77.4532, 22.4471], [77.4534, 22.4472], [77.4537, 22.4474], [77.4546, 22.448], [77.4548, 22.4481], [77.4549, 22.4482], [77.4552, 22.4484], [77.4554, 22.4485], [77.4558, 22.4487], [77.4564, 22.4491], [77.4568, 22.4494], [77.457, 22.4496], [77.4575, 22.45], [77.4577, 22.4501], [77.4577, 22.4502], [77.4579, 22.4503], [77.458, 22.4504], [77.4581, 22.4504], [77.4583, 22.4506], [77.4584, 22.4507], [77.4586, 22.4508], [77.4588, 22.4509], [77.4589, 22.451], [77.4591, 22.451], [77.4591, 22.4511], [77.4592, 22.4511], [77.4594, 22.4511], [77.4596, 22.4511], [77.4601, 22.4511], [77.4606, 22.4511], [77.461, 22.4511], [77.4613, 22.4511], [77.4619, 22.4511], [77.4625, 22.4511], [77.4626, 22.4512], [77.4631, 22.4512], [77.4633, 22.4512], [77.4633, 22.4513], [77.4636, 22.4513], [77.4639, 22.4514], [77.464, 22.4514], [77.4642, 22.4515], [77.4643, 22.4515], [77.4644, 22.4516], [77.4645, 22.4516], [77.4647, 22.4516], [77.4649, 22.4516], [77.4652, 22.4516], [77.4657, 22.4516]]]}, "properties": {"objectid": 297846, "statename": "Madhya Pradesh", "statecode": "23", "districtname": "Hoshangabad", "districtcode": "449", "ulbname": "Seoni Malwa", "ulbcode": "802344", "wardname": "Chandrashekhar Ward", "wardcode": "9", "id": null, "status": "APPROVED", "misglobalid": null, "approved_by": null, "createdate": 1673725723000, "updateddate": 1674635168000, "globalid": null, "gisglobalid": "4QomRc4s-5nKB-PcRm-RonB-ladd5B5amslR", "remark": "Approved", "st_area(shape)": 6.522994203486526e-05, "st_perimeter(shape)": 0.045279223687935924}}, {"type": "Feature", "geometry": {"type": "Polygon", "coordinates": [[[77.4662, 22.4488], [77.4662, 22.4487], [77.4661, 22.4486], [77.4661, 22.4485], [77.4659, 22.4482], [77.4658, 22.4478], [77.4656, 22.4474], [77.4658, 22.4473], [77.4662, 22.4473], [77.4664, 22.4472], [77.4665, 22.4472], [77.4666, 22.4472], [77.4667, 22.4471], [77.4668, 22.4471], [77.4669, 22.447], [77.4671, 22.4469], [77.4671, 22.4467], [77.4673, 22.4465], [77.4674, 22.4463], [77.4674, 22.4462], [77.4675, 22.4461], [77.4677, 22.446], [77.4677, 22.4459], [77.4679, 22.4458], [77.468, 22.4457], [77.4681, 22.4456], [77.4682, 22.4454], [77.4683, 22.4454], [77.4683, 22.4453], [77.4684, 22.4452], [77.4684, 22.4451], [77.4684, 22.445], [77.4683, 22.445], [77.4681, 22.445], [77.4679, 22.4451], [77.4678, 22.4451], [77.4677, 22.4451], [77.4676, 22.4451], [77.4675, 22.445], [77.4674, 22.4449], [77.4674, 22.4448], [77.4673, 22.4447], [77.4672, 22.4445], [77.4671, 22.4444], [77.467, 22.4444], [77.4669, 22.4443], [77.4667, 22.4443], [77.4665, 22.4442], [77.4663, 22.4442], [77.4662, 22.4442], [77.4661, 22.4441], [77.466, 22.444], [77.466, 22.4439], [77.466, 22.4438], [77.4659, 22.4437], [77.4658, 22.4435], [77.4657, 22.4434], [77.4656, 22.4434], [77.4655, 22.4434], [77.4655, 22.4433], [77.4655, 22.4432], [77.4655, 22.4431], [77.4655, 22.443], [77.4655, 22.4429], [77.4656, 22.4426], [77.4656, 22.4425], [77.4656, 22.4424], [77.4655, 22.4423], [77.4652, 22.4422], [77.465, 22.4421], [77.4649, 22.442], [77.4648, 22.442], [77.4647, 22.442], [77.4647, 22.4419], [77.4646, 22.4419], [77.4646, 22.4418], [77.4646, 22.4417], [77.4646, 22.4416], [77.4645, 22.4415], [77.4645, 22.4414], [77.4645, 22.4413], [77.4645, 22.4412], [77.4644, 22.4412], [77.464, 22.4413], [77.4639, 22.4413], [77.4638, 22.441], [77.4637, 22.4407], [77.4635, 22.4405], [77.4634, 22.4405], [77.4633, 22.4404], [77.4631, 22.4404], [77.463, 22.4404], [77.4627, 22.4403], [77.4626, 22.4403], [77.4624, 22.4402], [77.4621, 22.4401], [77.462, 22.4401], [77.4615, 22.441], [77.4612, 22.4415], [77.4611, 22.4416], [77.461, 22.4417], [77.4602, 22.4422], [77.4601, 22.4423], [77.46, 22.4423], [77.46, 22.4424], [77.4591, 22.4425], [77.4584, 22.4426], [77.4583, 22.4427], [77.4582, 22.4427], [77.4582, 22.443], [77.4583, 22.4431], [77.4584, 22.4432], [77.4585, 22.4433], [77.4587, 22.4434], [77.4589, 22.4434], [77.459, 22.4435], [77.459, 22.4436], [77.4591, 22.4436], [77.4591, 22.4437], [77.4591, 22.4438], [77.4591, 22.4441], [77.459, 22.4444], [77.459, 22.4445], [77.4591, 22.4445], [77.4591, 22.4446], [77.4598, 22.4445], [77.4599, 22.4445], [77.4599, 22.4446], [77.46, 22.4446], [77.46, 22.4451], [77.46, 22.4452], [77.4601, 22.4452], [77.4604, 22.4451], [77.4605, 22.4451], [77.4607, 22.4451], [77.4608, 22.4451], [77.4608, 22.4452], [77.4609, 22.4452], [77.4609, 22.4453], [77.461, 22.4455], [77.4611, 22.4459], [77.4611, 22.446], [77.4612, 22.4462], [77.4613, 22.4463], [77.4614, 22.4463], [77.4615, 22.4463], [77.4616, 22.4463], [77.4615, 22.4466], [77.4615, 22.4471], [77.4614, 22.4477], [77.4613, 22.4483], [77.4613, 22.4485], [77.4614, 22.4485], [77.4616, 22.4485], [77.4617, 22.4485], [77.4619, 22.4485], [77.462, 22.4484], [77.4621, 22.4484], [77.4627, 22.4483], [77.4629, 22.4482], [77.4629, 22.4484], [77.4629, 22.4486], [77.463, 22.4488], [77.463, 22.4489], [77.4633, 22.4489], [77.4637, 22.4489], [77.4641, 22.449], [77.4645, 22.449], [77.4647, 22.449], [77.4649, 22.449], [77.4654, 22.449], [77.4654, 22.4491], [77.4656, 22.4491], [77.4656, 22.449], [77.4661, 22.4489], [77.4661, 22.4488], [77.4662, 22.4488]]]}, "properties": {"objectid": 298302, "statename": "Madhya Pradesh", "statecode": "23", "districtname": "Hoshangabad", "districtcode": "449", "ulbname": "Seoni Malwa", "ulbcode": "802344", "wardname": "Tilak Ward", "wardcode": "10", "id": null, "status": "APPROVED", "misglobalid": null, "approved_by": null, "createdate": 1673725736000, "updateddate": 1674635199000, "globalid": null, "gisglobalid": "6saBmRQ5-5sQ4-Pn44-sn5s-QPPmoKs4QcdB", "remark": "Approved", "st_area(shape)": 4.66738981468931e-05, "st_perimeter(shape)": 0.03419800784892707}}, {"type": "Feature", "geometry": {"type": "Polygon", "coordinates": [[[77.4679, 22.4517], [77.4679, 22.4515], [77.468, 22.4515], [77.4681, 22.4515], [77.4682, 22.4515], [77.4683, 22.4516], [77.4684, 22.4516], [77.4685, 22.4513], [77.4685, 22.4508], [77.4682, 22.4508], [77.4682, 22.4507], [77.4679, 22.4507], [77.4679, 22.4505], [77.4678, 22.4505], [77.4677, 22.4506], [77.4676, 22.4506], [77.4674, 22.4507], [77.4674, 22.4506], [77.4672, 22.4503], [77.4671, 22.4501], [77.467, 22.4498], [77.4668, 22.4495], [77.4668, 22.4494], [77.4667, 22.4494], [77.4667, 22.4493], [77.4666, 22.4493], [77.4665, 22.4492], [77.4664, 22.4491], [77.4663, 22.449], [77.4662, 22.4488], [77.4661, 22.4488], [77.4661, 22.4489], [77.4656, 22.449], [77.4656, 22.4491], [77.4654, 22.4491], [77.4654, 22.449], [77.4649, 22.449], [77.4647, 22.449], [77.4645, 22.449], [77.4641, 22.449], [77.4637, 22.4489], [77.4633, 22.4489], [77.463, 22.4489], [77.463, 22.4491], [77.4631, 22.4492], [77.4632, 22.4495], [77.4632, 22.4496], [77.4635, 22.4497], [77.4638, 22.4498], [77.4641, 22.4499], [77.4644, 22.4499], [77.4644, 22.45], [77.4644, 22.4501], [77.4648, 22.45], [77.465, 22.4499], [77.4653, 22.4499], [77.4657, 22.4498], [77.4658, 22.4499], [77.4659, 22.4499], [77.4659, 22.45], [77.4659, 22.4501], [77.4659, 22.4504], [77.4659, 22.4505], [77.4658, 22.4507], [77.4658, 22.4508], [77.4658, 22.4511], [77.4657, 22.4513], [77.4657, 22.4516], [77.4659, 22.4516], [77.4661, 22.4516], [77.4662, 22.4516], [77.4664, 22.4516], [77.4666, 22.4516], [77.4667, 22.4517], [77.4669, 22.4517], [77.467, 22.4517], [77.4676, 22.4516], [77.4676, 22.4517], [77.4679, 22.4517]]]}, "properties": {"objectid": 298303, "statename": "Madhya Pradesh", "statecode": "23", "districtname": "Hoshangabad", "districtcode": "449", "ulbname": "Seoni Malwa", "ulbcode": "802344", "wardname": "Molana Azad Ward", "wardcode": "11", "id": null, "status": "APPROVED", "misglobalid": null, "approved_by": null, "createdate": 1673725857000, "updateddate": 1674635212000, "globalid": null, "gisglobalid": "naod4oco-BK6d-PmdR-sRnc-a4BPPo5P6da6", "remark": "Approved", "st_area(shape)": 6.765260880015628e-06, "st_perimeter(shape)": 0.0159996106151322}}, {"type": "Feature", "geometry": {"type": "Polygon", "coordinates": [[[77.4705, 22.4531], [77.4705, 22.453], [77.4705, 22.4529], [77.4704, 22.4529], [77.4702, 22.4526], [77.4701, 22.4524], [77.47, 22.4523], [77.4699, 22.4522], [77.4699, 22.4521], [77.4698, 22.4519], [77.4698, 22.4518], [77.4698, 22.4517], [77.4698, 22.4516], [77.4698, 22.4512], [77.4698, 22.451], [77.4698, 22.4507], [77.4698, 22.4505], [77.4696, 22.4504], [77.4696, 22.4503], [77.4696, 22.4502], [77.4695, 22.4502], [77.4691, 22.4501], [77.4689, 22.4501], [77.4687, 22.4501], [77.4684, 22.45], [77.4684, 22.4499], [77.4685, 22.4499], [77.4686, 22.4498], [77.4688, 22.4496], [77.4689, 22.4495], [77.4689, 22.4494], [77.4688, 22.4494], [77.4687, 22.4494], [77.4686, 22.4493], [77.4684, 22.4493], [77.468, 22.4494], [77.4679, 22.4494], [77.4679, 22.4493], [77.4678, 22.4492], [77.4677, 22.4491], [77.4675, 22.4491], [77.4674, 22.449], [77.4673, 22.449], [77.4672, 22.4489], [77.4671, 22.4489], [77.4671, 22.4488], [77.467, 22.4488], [77.467, 22.4487], [77.4669, 22.4487], [77.4668, 22.4487], [77.4667, 22.4487], [77.4667, 22.4486], [77.4666, 22.4486], [77.4665, 22.4486], [77.4664, 22.4486], [77.4663, 22.4486], [77.4662, 22.4487], [77.4662, 22.4488], [77.4663, 22.449], [77.4664, 22.4491], [77.4665, 22.4492], [77.4666, 22.4493], [77.4667, 22.4493], [77.4667, 22.4494], [77.4668, 22.4494], [77.4668, 22.4495], [77.467, 22.4498], [77.4671, 22.4501], [77.4672, 22.4503], [77.4674, 22.4506], [77.4674, 22.4507], [77.4676, 22.4506], [77.4677, 22.4506], [77.4678, 22.4505], [77.4679, 22.4505], [77.4679, 22.4507], [77.4682, 22.4507], [77.4682, 22.4508], [77.4685, 22.4508], [77.4685, 22.4513], [77.4684, 22.4516], [77.4683, 22.4516], [77.4682, 22.4515], [77.4681, 22.4515], [77.468, 22.4515], [77.4679, 22.4515], [77.4679, 22.4517], [77.4684, 22.4517], [77.4689, 22.4517], [77.4691, 22.4517], [77.4692, 22.4517], [77.4693, 22.4518], [77.4697, 22.4524], [77.4697, 22.4525], [77.4699, 22.4528], [77.47, 22.4529], [77.4701, 22.4531], [77.4702, 22.4531], [77.4703, 22.4531], [77.4704, 22.4531], [77.4705, 22.4531]]]}, "properties": {"objectid": 298306, "statename": "Madhya Pradesh", "statecode": "23", "districtname": "Hoshangabad", "districtcode": "449", "ulbname": "Seoni Malwa", "ulbcode": "802344", "wardname": "Sardar Vallabha Bhai Patel Ward", "wardcode": "12", "id": null, "status": "APPROVED", "misglobalid": null, "approved_by": null, "createdate": 1673725994000, "updateddate": 1674726420000, "globalid": null, "gisglobalid": "4sBol4Rl-mcKn-PQRR-RoR4-Ka4RdcmsnmQd", "remark": "", "st_area(shape)": 5.391012033417251e-06, "st_perimeter(shape)": 0.016842795995893035}}, {"type": "Feature", "geometry": {"type": "Polygon", "coordinates": [[[77.4709, 22.4479], [77.4708, 22.4478], [77.4708, 22.4477], [77.4708, 22.4474], [77.4708, 22.447], [77.4708, 22.4469], [77.4707, 22.4468], [77.4707, 22.4467], [77.4707, 22.4466], [77.4707, 22.4463], [77.4707, 22.4462], [77.4707, 22.4461], [77.4707, 22.446], [77.4706, 22.4457], [77.4706, 22.4455], [77.4706, 22.4453], [77.4704, 22.4452], [77.4701, 22.445], [77.4698, 22.4449], [77.4697, 22.4449], [77.4693, 22.4448], [77.469, 22.4447], [77.4689, 22.4447], [77.4688, 22.4448], [77.4687, 22.4448], [77.4686, 22.4448], [77.4685, 22.4449], [77.4684, 22.445], [77.4684, 22.4451], [77.4684, 22.4452], [77.4683, 22.4453], [77.4683, 22.4454], [77.4682, 22.4454], [77.4681, 22.4456], [77.468, 22.4457], [77.4679, 22.4458], [77.4677, 22.4459], [77.4677, 22.446], [77.4675, 22.4461], [77.4674, 22.4462], [77.4674, 22.4463], [77.4673, 22.4465], [77.4671, 22.4467], [77.4671, 22.4469], [77.4669, 22.447], [77.4668, 22.4471], [77.4667, 22.4471], [77.4666, 22.4472], [77.4665, 22.4472], [77.4664, 22.4472], [77.4662, 22.4473], [77.4658, 22.4473], [77.4656, 22.4474], [77.4658, 22.4478], [77.4659, 22.4482], [77.4661, 22.4485], [77.4661, 22.4486], [77.4662, 22.4487], [77.4663, 22.4486], [77.4664, 22.4486], [77.4665, 22.4486], [77.4666, 22.4486], [77.4667, 22.4486], [77.4667, 22.4487], [77.4668, 22.4487], [77.4669, 22.4487], [77.467, 22.4487], [77.467, 22.4488], [77.4671, 22.4488], [77.4671, 22.4489], [77.4672, 22.4489], [77.4673, 22.449], [77.4674, 22.449], [77.4675, 22.4491], [77.4677, 22.4491], [77.4678, 22.4492], [77.4679, 22.4493], [77.4679, 22.4494], [77.468, 22.4494], [77.4684, 22.4493], [77.4686, 22.4493], [77.4687, 22.4494], [77.4688, 22.4494], [77.4689, 22.4494], [77.4689, 22.4495], [77.4688, 22.4496], [77.4686, 22.4498], [77.4685, 22.4499], [77.4684, 22.4499], [77.4684, 22.45], [77.4687, 22.4501], [77.4689, 22.4501], [77.4691, 22.4501], [77.4695, 22.4502], [77.4696, 22.4502], [77.4696, 22.4503], [77.4696, 22.4504], [77.4698, 22.4505], [77.4698, 22.4507], [77.4698, 22.451], [77.4698, 22.4512], [77.4698, 22.4516], [77.4698, 22.4517], [77.4698, 22.4518], [77.4698, 22.4519], [77.4699, 22.4521], [77.4699, 22.4522], [77.47, 22.4523], [77.4701, 22.4524], [77.4702, 22.4526], [77.4704, 22.4529], [77.4705, 22.4529], [77.4705, 22.453], [77.4705, 22.4531], [77.4707, 22.4531], [77.4708, 22.4531], [77.4709, 22.4532], [77.471, 22.4531], [77.4713, 22.453], [77.4715, 22.453], [77.4713, 22.4525], [77.4712, 22.4525], [77.4711, 22.4522], [77.471, 22.452], [77.471, 22.4519], [77.4706, 22.4519], [77.4705, 22.4518], [77.4705, 22.4516], [77.4706, 22.4515], [77.4706, 22.4514], [77.4705, 22.4512], [77.4704, 22.4511], [77.4704, 22.451], [77.4704, 22.4509], [77.4705, 22.4508], [77.4707, 22.4508], [77.4707, 22.4507], [77.4706, 22.4507], [77.4706, 22.4505], [77.4705, 22.4504], [77.4705, 22.4503], [77.4704, 22.4502], [77.4704, 22.4501], [77.4704, 22.45], [77.4704, 22.4499], [77.4704, 22.4498], [77.4704, 22.4496], [77.4703, 22.4495], [77.4702, 22.4495], [77.4701, 22.4495], [77.47, 22.4496], [77.4699, 22.4498], [77.4698, 22.4498], [77.4698, 22.4497], [77.4697, 22.4496], [77.4697, 22.4495], [77.4696, 22.4494], [77.4696, 22.4493], [77.4696, 22.4492], [77.4696, 22.4491], [77.4696, 22.4489], [77.4696, 22.4488], [77.4695, 22.4488], [77.4695, 22.4487], [77.4694, 22.4485], [77.4694, 22.4484], [77.4694, 22.4483], [77.4695, 22.4482], [77.4697, 22.4481], [77.47, 22.4481], [77.47, 22.448], [77.4701, 22.448], [77.4702, 22.4479], [77.4703, 22.4479], [77.4704, 22.448], [77.4705, 22.448], [77.4707, 22.448], [77.4708, 22.448], [77.4709, 22.4479]]]}, "properties": {"objectid": 298305, "statename": "Madhya Pradesh", "statecode": "23", "districtname": "Hoshangabad", "districtcode": "449", "ulbname": "Seoni Malwa", "ulbcode": "802344", "wardname": "Shastri Patel Ward", "wardcode": "13", "id": null, "status": "APPROVED", "misglobalid": null, "approved_by": null, "createdate": 1673725958000, "updateddate": 1674726467000, "globalid": null, "gisglobalid": "olmaQBQm-aQaB-P66Q-a6Ql-cBKQmQsKPRna", "remark": "", "st_area(shape)": 1.8630702995877127e-05, "st_perimeter(shape)": 0.028059129650613607}}, {"type": "Feature", "geometry": {"type": "Polygon", "coordinates": [[[77.477, 22.4556], [77.477, 22.4547], [77.477, 22.4544], [77.477, 22.454], [77.477, 22.4538], [77.477, 22.4537], [77.4769, 22.4533], [77.4768, 22.4533], [77.477, 22.4532], [77.4772, 22.4531], [77.4773, 22.4531], [77.4775, 22.453], [77.4776, 22.453], [77.4777, 22.453], [77.4776, 22.452], [77.4775, 22.4517], [77.4772, 22.4513], [77.4771, 22.4512], [77.4771, 22.4511], [77.477, 22.4511], [77.477, 22.451], [77.4769, 22.4511], [77.4768, 22.4511], [77.4766, 22.4512], [77.4765, 22.4512], [77.4764, 22.4512], [77.4761, 22.4513], [77.4755, 22.4514], [77.4753, 22.4515], [77.4752, 22.4515], [77.4751, 22.4515], [77.475, 22.4514], [77.4751, 22.4512], [77.4751, 22.4505], [77.4751, 22.4503], [77.4751, 22.4502], [77.4742, 22.4504], [77.474, 22.4504], [77.474, 22.4497], [77.4742, 22.4492], [77.474, 22.4485], [77.474, 22.448], [77.4739, 22.4478], [77.4739, 22.4477], [77.4734, 22.448], [77.473, 22.4477], [77.4728, 22.4472], [77.4727, 22.4471], [77.4726, 22.4469], [77.4724, 22.447], [77.4722, 22.4471], [77.472, 22.4472], [77.4719, 22.4471], [77.4717, 22.4472], [77.4716, 22.4474], [77.4715, 22.4474], [77.4716, 22.4475], [77.4715, 22.4476], [77.4713, 22.4478], [77.4712, 22.4479], [77.4712, 22.448], [77.4711, 22.448], [77.4711, 22.4479], [77.4709, 22.4479], [77.4708, 22.448], [77.4707, 22.448], [77.4705, 22.448], [77.4704, 22.448], [77.4703, 22.4479], [77.4702, 22.4479], [77.4701, 22.448], [77.47, 22.448], [77.47, 22.4481], [77.4697, 22.4481], [77.4695, 22.4482], [77.4694, 22.4483], [77.4694, 22.4484], [77.4694, 22.4485], [77.4695, 22.4487], [77.4695, 22.4488], [77.4696, 22.4488], [77.4696, 22.4489], [77.4696, 22.4491], [77.4696, 22.4492], [77.4696, 22.4493], [77.4696, 22.4494], [77.4697, 22.4495], [77.4697, 22.4496], [77.4698, 22.4497], [77.4698, 22.4498], [77.4699, 22.4498], [77.47, 22.4496], [77.4701, 22.4495], [77.4702, 22.4495], [77.4703, 22.4495], [77.4704, 22.4496], [77.4704, 22.4498], [77.4704, 22.4499], [77.4704, 22.45], [77.4704, 22.4501], [77.4704, 22.4502], [77.4705, 22.4503], [77.4705, 22.4504], [77.4706, 22.4505], [77.4706, 22.4507], [77.4707, 22.4507], [77.4707, 22.4508], [77.4705, 22.4508], [77.4704, 22.4509], [77.4704, 22.451], [77.4704, 22.4511], [77.4705, 22.4512], [77.4706, 22.4514], [77.4706, 22.4515], [77.4705, 22.4516], [77.4705, 22.4518], [77.4706, 22.4519], [77.471, 22.4519], [77.471, 22.452], [77.4711, 22.4522], [77.4712, 22.4525], [77.4713, 22.4525], [77.4715, 22.453], [77.4713, 22.453], [77.471, 22.4531], [77.4709, 22.4532], [77.471, 22.4532], [77.471, 22.4533], [77.4714, 22.4537], [77.4719, 22.4543], [77.4723, 22.4547], [77.4724, 22.4548], [77.4725, 22.4549], [77.4727, 22.4552], [77.4729, 22.4556], [77.4731, 22.4558], [77.4731, 22.4559], [77.4732, 22.4559], [77.4732, 22.456], [77.4734, 22.4561], [77.4735, 22.4563], [77.4736, 22.4563], [77.4738, 22.4565], [77.4739, 22.4567], [77.474, 22.4568], [77.4742, 22.4569], [77.4743, 22.457], [77.4744, 22.4571], [77.4745, 22.4572], [77.4746, 22.4573], [77.4748, 22.4575], [77.4749, 22.4575], [77.4751, 22.4577], [77.4754, 22.4575], [77.476, 22.4572], [77.4766, 22.4569], [77.4767, 22.4569], [77.477, 22.4569], [77.4772, 22.457], [77.4772, 22.4569], [77.4772, 22.4566], [77.4772, 22.4561], [77.4771, 22.4559], [77.477, 22.4556]]]}, "properties": {"objectid": 297847, "statename": "Madhya Pradesh", "statecode": "23", "districtname": "Hoshangabad", "districtcode": "449", "ulbname": "Seoni Malwa", "ulbcode": "802344", "wardname": "Indra Gandhi Ward", "wardcode": "14", "id": null, "status": "APPROVED", "misglobalid": null, "approved_by": null, "createdate": 1673725928000, "updateddate": 1674726454000, "globalid": null, "gisglobalid": "coRcmPml-cdQ6-PcBa-R6Ko-Paol4nPoddsl", "remark": "", "st_area(shape)": 4.562742961910396e-05, "st_perimeter(shape)": 0.03554378913608006}}, {"type": "Feature", "geometry": {"type": "Polygon", "coordinates": [[[77.4868, 22.464], [77.4868, 22.4639], [77.4867, 22.4637], [77.4867, 22.4635], [77.4865, 22.4632], [77.4864, 22.4631], [77.4861, 22.4626], [77.4859, 22.4624], [77.4853, 22.4616], [77.4853, 22.4615], [77.4846, 22.4605], [77.4843, 22.4601], [77.4841, 22.4598], [77.484, 22.4597], [77.4838, 22.4593], [77.4835, 22.4593], [77.4835, 22.4591], [77.4818, 22.459], [77.4804, 22.4589], [77.4794, 22.4589], [77.4787, 22.4588], [77.4786, 22.4581], [77.4785, 22.4581], [77.4784, 22.4581], [77.4783, 22.4581], [77.4781, 22.4581], [77.478, 22.4581], [77.4781, 22.4582], [77.4777, 22.4582], [77.4776, 22.4579], [77.4778, 22.4567], [77.4776, 22.4567], [77.4776, 22.4566], [77.4775, 22.4564], [77.4775, 22.4563], [77.4775, 22.4558], [77.4772, 22.4557], [77.477, 22.4556], [77.4771, 22.4559], [77.4772, 22.4561], [77.4772, 22.4566], [77.4772, 22.4569], [77.4772, 22.457], [77.477, 22.4569], [77.4767, 22.4569], [77.4766, 22.4569], [77.476, 22.4572], [77.4754, 22.4575], [77.4751, 22.4577], [77.4749, 22.4575], [77.4748, 22.4575], [77.4746, 22.4573], [77.4745, 22.4572], [77.4744, 22.4571], [77.4743, 22.457], [77.4742, 22.4569], [77.474, 22.4568], [77.4739, 22.4567], [77.4738, 22.4565], [77.4736, 22.4563], [77.4735, 22.4563], [77.4734, 22.4561], [77.4732, 22.456], [77.4732, 22.4559], [77.4731, 22.4559], [77.4731, 22.4558], [77.4729, 22.4556], [77.4727, 22.4552], [77.4725, 22.4549], [77.4724, 22.4548], [77.4723, 22.4547], [77.4719, 22.4543], [77.4714, 22.4537], [77.471, 22.4533], [77.471, 22.4532], [77.4709, 22.4532], [77.4708, 22.4531], [77.4707, 22.4531], [77.4707, 22.4532], [77.4707, 22.4533], [77.4706, 22.4533], [77.4706, 22.4534], [77.4706, 22.4535], [77.4706, 22.4536], [77.4707, 22.4537], [77.4708, 22.4539], [77.4708, 22.454], [77.4708, 22.4541], [77.4709, 22.4542], [77.4709, 22.4543], [77.4709, 22.4544], [77.4709, 22.4545], [77.471, 22.4546], [77.471, 22.4548], [77.4709, 22.4549], [77.4709, 22.455], [77.4709, 22.4551], [77.4709, 22.4552], [77.4708, 22.4552], [77.4708, 22.4553], [77.4708, 22.4554], [77.4707, 22.4554], [77.4707, 22.4555], [77.4706, 22.4555], [77.4705, 22.4556], [77.4704, 22.4556], [77.4704, 22.4557], [77.4703, 22.4557], [77.4702, 22.4558], [77.4702, 22.4559], [77.4702, 22.456], [77.4702, 22.4561], [77.4702, 22.4562], [77.4701, 22.4562], [77.47, 22.4562], [77.4699, 22.4562], [77.4699, 22.4563], [77.4699, 22.4564], [77.4698, 22.4565], [77.4698, 22.4566], [77.4699, 22.4567], [77.4699, 22.4568], [77.4699, 22.4569], [77.4699, 22.457], [77.47, 22.457], [77.47, 22.4571], [77.4699, 22.4572], [77.4699, 22.4573], [77.4698, 22.4574], [77.4697, 22.4575], [77.4696, 22.4576], [77.4696, 22.4577], [77.4696, 22.4578], [77.4697, 22.4579], [77.4698, 22.4579], [77.4699, 22.458], [77.47, 22.458], [77.4701, 22.4581], [77.4702, 22.4582], [77.4702, 22.4584], [77.4703, 22.4585], [77.4703, 22.4586], [77.4704, 22.4587], [77.4705, 22.4588], [77.4706, 22.4589], [77.4706, 22.459], [77.4707, 22.4591], [77.4708, 22.4592], [77.4709, 22.4593], [77.471, 22.4594], [77.4711, 22.4594], [77.4712, 22.4594], [77.4713, 22.4595], [77.4714, 22.4595], [77.4714, 22.4596], [77.4715, 22.4596], [77.4715, 22.4597], [77.4715, 22.4598], [77.4715, 22.4599], [77.4716, 22.46], [77.4717, 22.46], [77.4718, 22.46], [77.4719, 22.46], [77.472, 22.4599], [77.4721, 22.4599], [77.4722, 22.4599], [77.4723, 22.46], [77.4723, 22.4601], [77.4724, 22.4601], [77.4724, 22.4602], [77.4724, 22.4603], [77.4724, 22.4604], [77.4724, 22.4605], [77.4724, 22.4606], [77.4724, 22.4607], [77.4724, 22.4608], [77.4725, 22.4609], [77.4726, 22.4609], [77.4728, 22.461], [77.4729, 22.461], [77.4731, 22.461], [77.4733, 22.461], [77.4733, 22.4611], [77.4734, 22.4611], [77.4734, 22.4612], [77.4735, 22.4612], [77.4735, 22.4613], [77.4736, 22.4613], [77.4737, 22.4614], [77.4738, 22.4614], [77.4739, 22.4613], [77.474, 22.4613], [77.4741, 22.4613], [77.4742, 22.4614], [77.4744, 22.4615], [77.4746, 22.4615], [77.4747, 22.4616], [77.4748, 22.4615], [77.4749, 22.4615], [77.4749, 22.4614], [77.475, 22.4612], [77.475, 22.4611], [77.4754, 22.461], [77.4754, 22.4609], [77.4757, 22.4608], [77.4758, 22.4608], [77.4761, 22.4607], [77.4762, 22.4607], [77.4763, 22.4607], [77.4769, 22.4606], [77.477, 22.4606], [77.4771, 22.4606], [77.4775, 22.4606], [77.4778, 22.4606], [77.4781, 22.4605], [77.4782, 22.4605], [77.4788, 22.4604], [77.4788, 22.4603], [77.4787, 22.4599], [77.4787, 22.4598], [77.4787, 22.4596], [77.4788, 22.4596], [77.4791, 22.4596], [77.4793, 22.4596], [77.4795, 22.4597], [77.4799, 22.4597], [77.4801, 22.4598], [77.4803, 22.4599], [77.4806, 22.46], [77.4807, 22.4601], [77.4809, 22.4603], [77.481, 22.4605], [77.4811, 22.4606], [77.4811, 22.4607], [77.4811, 22.4612], [77.4812, 22.4617], [77.4813, 22.4618], [77.4814, 22.462], [77.4815, 22.4621], [77.4817, 22.4626], [77.4818, 22.4627], [77.4824, 22.4636], [77.483, 22.4636], [77.4836, 22.4636], [77.4841, 22.4636], [77.484, 22.4637], [77.484, 22.4638], [77.4841, 22.4638], [77.4843, 22.4637], [77.4847, 22.4637], [77.4848, 22.4636], [77.4849, 22.4635], [77.485, 22.4635], [77.4849, 22.4636], [77.4856, 22.4638], [77.4861, 22.4639], [77.4866, 22.464], [77.4868, 22.464]]]}, "properties": {"objectid": 298304, "statename": "Madhya Pradesh", "statecode": "23", "districtname": "Hoshangabad", "districtcode": "449", "ulbname": "Seoni Malwa", "ulbcode": "802344", "wardname": "Rajeev Gandhi Ward", "wardcode": "15", "id": null, "status": "APPROVED", "misglobalid": null, "approved_by": null, "createdate": 1673725901000, "updateddate": 1674726444000, "globalid": null, "gisglobalid": "PlBBRBPn-soKc-PBdm-Rc6a-5anaPPnRdmQm", "remark": "", "st_area(shape)": 5.686210115503595e-05, "st_perimeter(shape)": 0.05474317132733328}}]}
