{"type":"Topology","arcs":[[[68327,45287],[2541,3100],[414,1529]],[[71282,49916],[2619,-1383],[1143,-125]],[[75044,48408],[709,-84],[3781,-2200],[808,-1340],[512,-2179]],[[80854,42605],[-1083,-419],[-1852,1027],[-1024,-147]],[[76895,43066],[-906,608],[-4117,104]],[[71872,43778],[-1004,1215],[-1458,-167],[-1083,461]],[[75044,48408],[118,1822]],[[75162,50230],[630,314],[1871,-628],[1399,1529],[4293,188]],[[83355,51633],[355,-1801]],[[83710,49832],[-1438,-2346],[-295,-1822],[610,-3582],[847,-985]],[[83434,41097],[-1910,-544]],[[81524,40553],[-670,2052]],[[81524,40553],[-2443,-357],[79,-1906],[670,-62]],[[79830,38228],[-2029,-1592],[-1635,-2409],[-492,125]],[[75674,34352],[-1083,692]],[[74591,35044],[-611,1529],[-2600,461]],[[71380,37034],[-433,1235],[118,1802]],[[71065,40071],[1438,84],[1162,-1006],[1280,1487],[611,105],[886,1634]],[[76442,42375],[295,440]],[[76737,42815],[158,251]],[[71872,43778],[-2737,0],[256,-775]],[[69391,43003],[-1911,105]],[[67480,43108],[847,2179]],[[67697,53707],[3092,168]],[[70789,53875],[1162,-1425]],[[71951,52450],[-1063,-2325]],[[70888,50125],[-335,189],[-3250,-650],[-493,608]],[[66810,50272],[0,2262],[887,1173]],[[75162,50230],[-729,2011],[-2482,209]],[[70789,53875],[1517,817],[1497,-378]],[[73803,54314],[866,-62],[1222,900],[2009,587]],[[77900,55739],[1240,-1047],[1458,-482]],[[80598,54210],[2442,-1823],[315,-754]],[[67697,53707],[-690,440]],[[67007,54147],[414,1487]],[[67421,55634],[473,-84],[1536,1844],[-1024,2262]],[[68406,59656],[2797,-377],[1694,2011]],[[72897,61290],[2344,-985],[-788,-4357],[-1005,-440],[355,-1194]],[[66810,50272],[-1043,-650]],[[65767,49622],[-1222,671],[-1260,-63],[-1773,1005]],[[61512,51235],[-354,294]],[[61158,51529],[1103,1906],[2895,1445],[1851,-733]],[[47114,34101],[2521,3184]],[[49635,37285],[2305,2995]],[[51940,40280],[2324,2933]],[[54264,43213],[1812,2136]],[[56076,45349],[1832,-83],[1615,-671],[492,775]],[[60015,45370],[2738,-419],[1497,-1005]],[[64250,43946],[1517,-1089]],[[65767,42857],[1575,-1550],[-3841,-2200],[-965,-314],[768,-1257],[-590,-1738]],[[62714,35798],[-729,-859]],[[61985,34939],[453,-649],[-2167,-2514]],[[60271,31776],[-807,-712],[-1576,482],[276,3016],[-1143,-524],[-1300,712],[-1004,-209],[-591,-1634],[-3506,272],[-3506,922]],[[76737,42815],[-295,-440]],[[71065,40071],[-1123,1215],[-551,1717]],[[65767,49622],[374,-293],[-118,-3163],[-1773,-2220]],[[60015,45370],[-138,1215],[808,3373],[827,1277]],[[83434,41097],[434,-523]],[[83868,40574],[1122,-1173],[2206,-1488]],[[87196,37913],[-3033,-272],[-1891,-440],[-1201,922],[-1241,105]],[[87196,37913],[1044,-565]],[[88240,37348],[-1733,-608],[-1694,0]],[[84813,36740],[-2600,-1801],[-315,1215]],[[81898,36154],[-886,377],[-2206,21],[1024,1676]],[[61158,51529],[-375,-189],[-2994,-3687]],[[57789,47653],[-393,1090]],[[57396,48743],[-1182,2995],[709,1843]],[[56923,53581],[1969,1341],[3113,272],[827,566]],[[62832,55760],[2619,251]],[[65451,56011],[1970,-377]],[[66377,26958],[965,2032],[296,1822]],[[67638,30812],[1024,1571]],[[68662,32383],[2482,-251],[39,1508],[1458,-356],[275,-670]],[[72916,32614],[394,-1802]],[[73310,30812],[-472,-1738],[-2206,-1508],[-1517,-210]],[[69115,27356],[-2738,-398]],[[73310,30812],[1615,-1550],[985,2179],[768,-147]],[[76678,31294],[769,-2744],[19,-1864]],[[77466,26686],[-1083,-3498]],[[76383,23188],[-2442,544]],[[73941,23732],[-1478,357]],[[72463,24089],[-1142,272],[-1635,1906],[-571,1089]],[[43529,48973],[3270,2995],[1123,755]],[[47922,52723],[1437,-336]],[[49359,52387],[1872,1341],[1260,42]],[[52491,53770],[-59,-3016],[552,-1048]],[[52984,49706],[472,-2115],[-2068,-566]],[[51388,47025],[-807,1550],[-5693,-2283]],[[44888,46292],[-1359,2681]],[[80519,30771],[1596,125],[1240,859]],[[83355,31755],[966,-3687],[1654,-3351]],[[85975,24717],[-1930,-314],[-2462,-1215]],[[81583,23188],[335,1571],[-2128,21]],[[79790,24780],[650,1550],[-925,2555],[1556,713],[-552,1173]],[[83355,31755],[513,1592]],[[83868,33347],[2481,-3372],[985,439],[138,-2031]],[[87472,28383],[355,-964]],[[87827,27419],[-729,-293],[394,-1990],[729,105],[1142,-3687],[-1241,-84],[-1083,587],[59,1068],[-1123,1592]],[[71380,37034],[-2718,-63],[-1556,-1110]],[[67106,35861],[-355,-147]],[[66751,35714],[-334,691],[-2797,-1340]],[[63620,35065],[-906,733]],[[65767,42857],[1713,251]],[[67638,30812],[-2206,1613]],[[65432,32425],[-1812,2640]],[[66751,35714],[808,-880],[-1182,-817],[2502,-984]],[[68879,33033],[-217,-650]],[[74591,35044],[-178,-629]],[[74413,34415],[-5337,126]],[[69076,34541],[-1064,1173],[-906,147]],[[81898,36154],[-1202,-1006],[335,-2136],[-2442,-754]],[[78589,32258],[-1202,293]],[[77387,32551],[650,1152],[-2363,649]],[[88240,37348],[729,-1027],[1556,398]],[[90525,36719],[276,-1110],[-552,-1822],[1320,-2849],[1359,-984]],[[92928,29954],[-1458,-1006],[-3506,-1487],[-492,922]],[[83868,33347],[1477,1759],[-532,1634]],[[56923,53581],[-1103,-314],[-847,545],[-1773,-126]],[[53200,53686],[473,670],[2265,1069],[236,1361]],[[56174,56786],[3171,-356]],[[59345,56430],[1556,-209]],[[60901,56221],[1931,-461]],[[57396,48743],[-2817,293],[-650,880],[-945,-210]],[[52491,53770],[709,-84]],[[56076,45349],[1713,2304]],[[68879,33033],[197,1508]],[[74413,34415],[-1497,-1801]],[[72463,24089],[-512,-1425],[-1772,-251]],[[70179,22413],[-1911,293],[-1674,-1089],[-2108,-2535],[-807,-1675],[788,-2493],[1634,-482],[99,-1152],[-1024,-880],[-1458,147]],[[63718,12547],[-197,1341],[-827,502],[-2580,524],[-1753,2053],[-1872,314]],[[56489,17281],[-295,2597],[1674,398]],[[57868,20276],[1418,440],[3349,168],[1832,-398],[1496,1340],[-748,1194],[256,1781]],[[65471,24801],[788,461],[118,1696]],[[80598,54210],[2659,1131],[2738,419]],[[85995,55760],[709,-2011],[-1458,-524],[1891,-3351]],[[87137,49874],[-3427,-42]],[[86783,59907],[4845,-482]],[[91628,59425],[-532,-544],[-20,-4022],[493,-63]],[[91569,54796],[-99,-1906],[-1851,-859]],[[89619,52031],[-2580,3352],[-118,544]],[[86921,55927],[-1025,2346],[887,1634]],[[68406,59656],[-827,1759],[-1694,1948]],[[65885,63363],[-4334,4902]],[[61551,68265],[2069,1403],[1674,-62],[2186,-1027],[1852,-419]],[[69332,68160],[5672,-1906],[1399,-1424]],[[76403,64830],[-1044,314],[-788,-1550],[-1674,-2304]],[[59345,56430],[-3624,1068],[-531,1697],[-3231,230]],[[51959,59425],[-650,1739]],[[51309,61164],[1162,-419],[2659,670],[2206,1069],[1694,2157],[572,2221]],[[59602,66862],[3131,-5174]],[[62733,61688],[-1004,-2514],[-1950,-1655],[1497,-649],[-375,-649]],[[62733,61688],[1891,-4357],[827,-1320]],[[59641,92165],[138,-1215],[2285,-293],[1181,859],[1182,1592],[1202,209],[177,1466],[4963,419],[2344,-314],[1418,-1341],[-137,-2052],[1260,-1697],[276,-1697],[-808,-1298],[-256,-2284],[-3486,985],[-394,-3226],[1024,-1466]],[[72010,80812],[-39,-964]],[[71971,79848],[-3624,-104],[-3644,-671],[-1044,-1424],[1832,-901],[59,-754]],[[65550,75994],[-2442,63],[-1557,-817],[-2383,335]],[[59168,75575],[552,943],[-434,4629],[-1398,691],[-4195,1446],[-532,3142]],[[53161,86426],[-1359,7876],[4234,-168],[-492,880]],[[55544,95014],[197,-42]],[[55741,94972],[236,-21]],[[55977,94951],[966,565]],[[56943,95516],[39,21]],[[56982,95537],[118,42]],[[57100,95579],[39,21]],[[57139,95600],[60,21]],[[57199,95621],[98,21]],[[57297,95642],[20,21],[39,0]],[[57356,95663],[99,84]],[[57455,95747],[137,126]],[[57592,95873],[178,251]],[[57770,96124],[394,-210]],[[58164,95914],[295,-41]],[[58459,95873],[177,-21]],[[58636,95852],[138,-21]],[[58774,95831],[99,0]],[[58873,95831],[177,-21]],[[59050,95810],[59,-42]],[[59109,95768],[79,21]],[[59188,95789],[217,-21]],[[59405,95768],[39,-147]],[[59444,95621],[59,-230]],[[59503,95391],[295,-356]],[[59798,95035],[-78,-210]],[[59720,94825],[-40,-209]],[[59680,94616],[99,-147]],[[59779,94469],[177,-188]],[[59956,94281],[99,-21]],[[60055,94260],[236,-587]],[[60291,93673],[-59,-105]],[[60232,93568],[-315,-398]],[[59917,93170],[-138,-272]],[[59779,92898],[0,-21]],[[59779,92877],[-79,-209]],[[59700,92668],[-20,-231]],[[59680,92437],[0,-167]],[[59680,92270],[-39,-105]],[[60271,31776],[591,-733]],[[60862,31043],[-926,-1823],[-1142,-984],[-492,-1445],[-1202,-1571]],[[57100,25220],[-1044,-42],[0,-2388],[-1497,1320],[-394,1675],[-1674,922]],[[52491,26707],[335,733],[-2108,649],[-2068,42]],[[48650,28131],[-4766,1278],[1103,1885],[1497,-251],[847,2220],[-709,210]],[[46622,33473],[492,628]],[[56489,17281],[-98,-985],[-2029,-230]],[[54362,16066],[1143,3037],[-808,126],[-4077,2095],[512,942],[-1004,629]],[[50128,22895],[2363,3812]],[[57100,25220],[1083,-503],[-866,-2849],[551,-1592]],[[22355,80414],[296,419],[-1517,1529],[-847,168],[887,1717],[-138,670],[1044,1697],[2127,-712],[571,2241]],[[24778,88143],[1596,314],[1359,-1214],[1221,1696],[256,1257],[1536,880],[847,-335],[1536,586],[3191,-272],[3329,-1529],[965,1843],[-20,1047]],[[40594,92416],[4944,-2262],[-689,-377],[-20,-2325],[-965,-922],[2088,-1990],[965,608]],[[46917,85148],[532,-293],[1477,-2472],[-2167,-985],[-866,-1759],[2363,-1781],[2502,-1529]],[[50758,76329],[-1379,-125],[-1162,-1676],[-414,-1215],[-1812,419],[-39,-1424],[-591,-964]],[[45361,71344],[-2797,1341]],[[42564,72685],[827,1843],[-1930,1508],[118,-1571],[-2954,1152],[-3349,42],[-610,566],[-1714,230],[79,1885],[-2186,566],[-2364,-42],[-2285,440],[-1083,984],[-2758,126]],[[53161,86426],[-2521,-42],[-1931,-335],[-1792,-901]],[[40594,92416],[1123,1739],[749,1843],[1280,1676],[1615,-796],[1064,63],[906,942],[-316,1090],[907,1026],[925,-272],[99,-1090],[1969,-1026],[2502,-167],[2127,-2430]],[[55741,94972],[-197,42]],[[55977,94951],[-236,21]],[[56943,95516],[39,21]],[[57100,95579],[39,21]],[[57297,95642],[-98,-21]],[[57356,95663],[99,84]],[[57592,95873],[178,251]],[[58459,95873],[-295,41]],[[58774,95831],[-138,21]],[[58873,95831],[177,-21]],[[59109,95768],[-59,42]],[[59188,95789],[-79,-21]],[[59405,95768],[39,-147]],[[59444,95621],[59,-230]],[[59798,95035],[-78,-210]],[[59720,94825],[-40,-209]],[[59680,94616],[99,-147]],[[59779,94469],[177,-188]],[[59956,94281],[99,-21]],[[60291,93673],[-59,-105]],[[59917,93170],[-138,-272]],[[59779,92877],[-79,-209]],[[59680,92437],[20,231]],[[59641,92165],[39,105]],[[43529,48973],[-866,1550],[-1379,901],[-1537,-63]],[[39747,51361],[-2580,1969],[-5554,-2346],[-2679,21],[-1418,1780],[-2679,671]],[[24837,53456],[-1575,670],[551,1068],[-945,440]],[[22868,55634],[472,2723],[1202,2304]],[[24542,60661],[7721,-796],[98,189],[6540,-670]],[[38901,59384],[7839,-713]],[[46740,58671],[5101,-419]],[[51841,58252],[611,-1005]],[[52452,57247],[-2049,209]],[[50403,57456],[-3604,503],[374,-3288],[749,-1948]],[[61551,68265],[-1496,-712]],[[60055,67553],[-828,1592],[650,628],[-1221,1047],[-2738,84],[-1733,-272],[-315,-1215]],[[53870,69417],[-1044,503],[-3191,-210],[-1123,-1026]],[[48512,68684],[-413,2157],[-2738,503]],[[50758,76329],[1733,168],[6677,-922]],[[65550,75994],[492,-1466],[1438,-1194],[493,-1990],[906,-293],[709,-1320],[-256,-1571]],[[39747,51361],[-2895,-1990],[-59,-1466],[-532,-1027],[59,-1738]],[[36320,45140],[-1260,-2053],[-946,-859],[768,-1508],[-1004,-921]],[[33878,39799],[-1142,-2347],[-2049,294],[138,-2535],[-1103,-733],[138,-2870],[-1753,-419],[-1143,-921],[-354,-1613],[867,-3289],[-1084,-377],[650,-1026]],[[27043,23963],[-4825,-3121],[-1970,63],[-1694,1110],[-1142,146]],[[17412,22161],[-1418,2053],[3840,1864],[1812,2933],[40,2346],[-788,1550],[-886,3037],[137,1802],[-2324,2367],[-6460,6011],[-3230,-2073]],[[8135,44051],[1103,3058],[1477,440],[2600,-1655],[1536,1780],[1241,-209],[1182,-1445],[1536,-1236],[1359,1508]],[[20169,46292],[1103,-712],[2403,-377],[3427,1005],[-925,2325],[-532,4294],[-808,629]],[[87827,27419],[1319,-2011],[1556,-3456],[611,-230],[1280,1131],[4156,1382],[689,1131]],[[97438,25366],[2561,-1005],[-236,-1634],[-1832,-2011],[-1773,-2639],[-1733,-754],[-827,-796],[-2659,2220],[-2462,440],[-2285,-628],[-1379,-1404],[-1911,-482]],[[82902,16673],[-1319,1446],[1457,2513],[158,1676],[-1871,105]],[[81327,22413],[256,775]],[[49635,37285],[-670,859],[-2206,607]],[[46759,38751],[335,1320],[-1497,1508]],[[45597,41579],[3290,2157]],[[48887,43736],[1575,-754]],[[50462,42982],[-925,-230],[1044,-2095],[1359,-377]],[[50462,42982],[2364,-670],[-414,1320]],[[52412,43632],[926,670],[926,-1089]],[[63718,12547],[-2304,-5027],[-473,-670]],[[60941,6850],[-1418,-147],[-2403,838],[-1044,1005],[-355,2723],[-984,901],[-749,1759],[374,2137]],[[76678,31294],[709,1257]],[[78589,32258],[1930,-1487]],[[79790,24780],[-1536,921],[-788,985]],[[85995,55760],[926,167]],[[89619,52031],[1064,-1738],[-3546,-419]],[[62733,61688],[2837,1215],[315,460]],[[77900,55739],[-847,3749],[216,4986]],[[77269,64474],[473,-126]],[[77742,64348],[5082,-1634]],[[82824,62714],[5160,-503]],[[87984,62211],[-1201,-2304]],[[76403,64830],[866,-356]],[[71282,49916],[-394,209]],[[56174,56786],[-3722,461]],[[51841,58252],[118,1173]],[[65432,32425],[-1931,-2639]],[[63501,29786],[-2639,1257]],[[51388,47025],[315,-880],[-1438,-544],[906,-1927],[1241,-42]],[[48887,43736],[-3684,1865],[-315,691]],[[45597,41579],[-1339,-1026],[-1517,1089]],[[42741,41642],[-1792,607],[-808,880],[-2796,796],[196,922],[-1221,293]],[[48650,28131],[-2875,-2220],[98,-1718]],[[45873,24193],[-985,-1717],[-1556,125],[-2442,943],[394,754],[-1320,985]],[[39964,25283],[6539,8232]],[[46503,33515],[119,-42]],[[81327,22413],[-1773,84],[-3171,691]],[[49359,52387],[355,671],[689,4398]],[[65471,24801],[-3683,2388],[1713,2597]],[[73941,23732],[334,-858],[-728,-1823],[-1281,-628],[867,-1781],[1497,84],[689,-1047],[-472,-1760],[3092,-2765]],[[77939,13154],[-5417,985],[-669,1655],[-887,628],[-2107,63],[-433,2786],[1024,775],[729,2367]],[[33878,39799],[-177,-776],[1575,-1214],[3388,-901]],[[38664,36908],[237,-670],[-2246,-3750]],[[36655,32488],[-551,-1068],[-2856,-2870]],[[33248,28550],[-1478,-1864],[3329,-2367],[-1359,-1362],[-2679,1132],[-1162,-1299],[-2856,1173]],[[20169,46292],[630,1592],[-866,356],[-2974,3163],[2028,3728],[3881,503]],[[17412,22161],[-1320,-733],[-1221,985],[-1280,440],[-966,-1027],[-965,-125],[-1162,-1571],[-2324,1068],[1320,3079],[-1990,796],[-748,1760],[-886,377],[-1261,2199],[-3112,964],[-808,1382],[0,1529],[-689,2032],[118,1822],[1300,587],[3585,251],[709,964],[768,2576],[1083,1236],[572,1299]],[[77939,13154],[59,0]],[[77998,13154],[-394,-1969],[296,-712],[1595,314],[1261,-1927],[197,-1927],[531,-1026],[-669,-1843],[-2068,-650],[-1891,-1424],[-3605,-901],[-3998,-565],[-1202,670],[-1950,-1194],[-1910,2157],[216,2242],[-3466,2451]],[[46759,38751],[-1043,105],[-1084,-880],[-3289,-3896],[-1753,-251],[-197,-1320],[-2738,-21]],[[38664,36908],[1202,1110],[2875,3624]],[[92928,29954],[2009,-1425],[748,-1257],[1084,-544],[669,-1362]],[[39964,25283],[-1832,1110],[-1221,356],[-2383,1634],[-1280,167]],[[82902,16673],[-3249,-1152],[-1517,-1592],[-138,-775]],[[42564,72685],[-1753,-3331],[-433,-1278],[1162,-377]],[[41540,67699],[748,-481],[-78,-1530],[-1123,-1927],[-1832,-502],[-197,-1718],[532,-565],[-689,-1592]],[[24542,60661],[847,1110],[-3309,2305],[-532,628],[2009,2974],[315,1027],[-827,1152],[473,1047],[-2699,2241],[276,880],[1891,2032],[-1143,1990],[512,2367]],[[46740,58671],[-394,880],[2777,3037]],[[49123,62588],[2186,-1424]],[[71971,79848],[2226,-2911],[2600,21],[1240,-461],[-98,-1801],[-1261,-1969],[-236,-1027],[1655,-3519],[1240,-1110],[-39,-964],[-1556,-1759]],[[49123,62588],[-3821,3289]],[[45302,65877],[1517,2178],[807,-586],[886,1215]],[[53870,69417],[3112,-2283],[1891,1005],[669,-1152]],[[59542,66987],[60,-125]],[[41540,67699],[2659,-1068],[1103,-754]],[[59542,66987],[513,566]],[[72010,80812],[2108,-1131],[2619,293],[1103,-586],[-2403,-1320],[1891,-628],[867,-775],[-59,-2053],[2895,-1194],[1202,209],[551,-1298],[-886,-1592],[1201,-1718],[2266,293],[1024,-209],[2619,-2556],[-906,-1654],[237,-880]],[[88339,64013],[-5417,-1069],[-98,-230]],[[83868,40574],[2796,2052],[1478,1885],[5948,2137]],[[94090,46648],[965,-2283],[-3230,-3896],[-1320,-2053],[749,-1131]],[[91254,37285],[-729,-566]],[[91569,54796],[3348,-565]],[[94917,54231],[-177,-2619],[-709,-2073]],[[94031,49539],[-256,-796],[315,-2095]],[[87984,62211],[3230,-481],[-19,2387]],[[91195,64117],[571,440],[2344,0],[1832,-628],[-532,-2367],[788,-1005]],[[96198,60557],[-2679,-1530],[-1891,398]],[[88339,64013],[1851,-1236],[1005,1340]],[[96198,60557],[669,-859],[434,-1613],[-552,-796],[-1221,-210],[-39,-1759],[-572,-1089]],[[94031,49539],[1458,-1446],[1122,-460],[2600,-2116],[-177,-3331],[-965,-900],[-2147,-733],[-2462,-357],[-571,-1193],[-1635,-1718]],[[50128,22895],[-4255,1298]]],"transform":{"scale":[0.000005077050770507703,0.000004774047740477434],"translate":[76.8389,28.404700000000002]},"objects":{"postal":{"type":"GeometryCollection","geometries":[{"arcs":[[0,1,2,3,4,5]],"type":"Polygon","properties":{"pincode":"110001","office_name":"New Delhi GPO","division":"New Delhi GPO","region":"","circle":"Delhi","source_id":"src-79f27d78734d"}},{"arcs":[[-3,6,7,8,9,10,11]],"type":"Polygon","properties":{"pincode":"110002","office_name":"Indraprastha HO","division":"New Delhi Central","region":"","circle":"Delhi","source_id":"src-79f27d78734d"}},{"arcs":[[-4,-12,12,13,14,15,16,17,18,19]],"type":"Polygon","properties":{"pincode":"110003","office_name":"Lodi Road HO","division":"New Delhi South","region":"","circle":"Delhi","source_id":"src-79f27d78734d"}},{"arcs":[[-6,20,21,22]],"type":"Polygon","properties":{"pincode":"110004","office_name":"Rashtrapati Bhawan SO","division":"New Delhi Central","region":"","circle":"Delhi","source_id":"src-79f27d78734d"}},{"arcs":[[23,24,25,26,27]],"type":"Polygon","properties":{"pincode":"110005","office_name":"Karol Bagh SO","division":"New Delhi Central","region":"","circle":"Delhi","source_id":"src-79f27d78734d"}},{"arcs":[[-8,28,-25,29,30,31,32]],"type":"Polygon","properties":{"pincode":"110006","office_name":"Delhi GPO","division":"Delhi GPO","region":"","circle":"Delhi","source_id":"src-79f27d78734d"}},{"arcs":[[-24,33,34,35,36,37,-30]],"type":"Polygon","properties":{"pincode":"110007","office_name":"Malka Ganj SO","division":"Delhi North","region":"","circle":"Delhi","source_id":"src-79f27d78734d"}},{"arcs":[[-28,38,39,40,41,-34]],"type":"Polygon","properties":{"pincode":"110008","office_name":"Patel Nagar SO Central Delhi","division":"New Delhi Central","region":"","circle":"Delhi","source_id":"src-79f27d78734d"}},{"arcs":[[42,43,44,45,46,47,48,49,50,51,52]],"type":"Polygon","properties":{"pincode":"110010","office_name":"Delhi Cantt SO","division":"New Delhi South West","region":"","circle":"Delhi","source_id":"src-79f27d78734d"}},{"arcs":[[-5,-20,53,-18,54,-21]],"type":"Polygon","properties":{"pincode":"110011","office_name":"Nirman Bhawan SO","division":"New Delhi Central","region":"","circle":"Delhi","source_id":"src-79f27d78734d"}},{"arcs":[[-40,55,-48,56]],"type":"Polygon","properties":{"pincode":"110012","office_name":"IARI SO","division":"New Delhi Central","region":"","circle":"Delhi","source_id":"src-79f27d78734d"}},{"arcs":[[-11,57,58,59,-13]],"type":"Polygon","properties":{"pincode":"110013","office_name":"Hazrat Nizamuddin SO","division":"New Delhi South","region":"","circle":"Delhi","source_id":"src-79f27d78734d"}},{"arcs":[[-60,60,61,62,63]],"type":"Polygon","properties":{"pincode":"110014","office_name":"Jungpura SO","division":"New Delhi South","region":"","circle":"Delhi","source_id":"src-79f27d78734d"}},{"arcs":[[-35,-42,64,65,66,67,68,69]],"type":"Polygon","properties":{"pincode":"110015","office_name":"Ramesh Nagar H.O","division":"New Delhi West","region":"","circle":"Delhi","source_id":"src-79f27d78734d"}},{"arcs":[[70,71,72,73,74,75]],"type":"Polygon","properties":{"pincode":"110016","office_name":"Hauz Khas SO","division":"New Delhi South West","region":"","circle":"Delhi","source_id":"src-79f27d78734d"}},{"arcs":[[-75,76,77,78,79,80,81]],"type":"Polygon","properties":{"pincode":"110017","office_name":"Malviya Nagar SO South Delhi","division":"New Delhi South","region":"","circle":"Delhi","source_id":"src-79f27d78734d"}},{"arcs":[[82,83,84,85,86,87,88]],"type":"Polygon","properties":{"pincode":"110018","office_name":"Tilak Nagar S.O (West Delhi)","division":"New Delhi West","region":"","circle":"Delhi","source_id":"src-79f27d78734d"}},{"arcs":[[89,90,91,92,93]],"type":"Polygon","properties":{"pincode":"110019","office_name":"Kalkaji HO","division":"New Delhi South","region":"","circle":"Delhi","source_id":"src-79f27d78734d"}},{"arcs":[[-91,94,95,96,97]],"type":"Polygon","properties":{"pincode":"110020","office_name":"Okhla Industrial Estate SO","division":"New Delhi South","region":"","circle":"Delhi","source_id":"src-79f27d78734d"}},{"arcs":[[-17,98,99,100,101,-50,102,-22,-55]],"type":"Polygon","properties":{"pincode":"110021","office_name":"Chanakya Puri SO","division":"New Delhi South West","region":"","circle":"Delhi","source_id":"src-79f27d78734d"}},{"arcs":[[-72,103,104,-101,105,106]],"type":"Polygon","properties":{"pincode":"110022","office_name":"R K Puram Sect5 SO","division":"New Delhi South West","region":"","circle":"Delhi","source_id":"src-79f27d78734d"}},{"arcs":[[-16,107,108,109,-99]],"type":"Polygon","properties":{"pincode":"110023","office_name":"Sarojini Nagar HO","division":"New Delhi South West","region":"","circle":"Delhi","source_id":"src-79f27d78734d"}},{"arcs":[[-14,-64,110,111,112]],"type":"Polygon","properties":{"pincode":"110024","office_name":"Lajpat Nagar South Delhi SO","division":"New Delhi South","region":"","circle":"Delhi","source_id":"src-79f27d78734d"}},{"arcs":[[-62,113,114,115,-96,116]],"type":"Polygon","properties":{"pincode":"110025","office_name":"New Friends Colony SO","division":"New Delhi South","region":"","circle":"Delhi","source_id":"src-79f27d78734d"}},{"arcs":[[-68,117,118,119,120,121]],"type":"Polygon","properties":{"pincode":"110026","office_name":"Punjabi Bagh S.O","division":"New Delhi West","region":"","circle":"Delhi","source_id":"src-79f27d78734d"}},{"arcs":[[-67,122,-86,123,-118]],"type":"Polygon","properties":{"pincode":"110027","office_name":"Tagore Garden S.O","division":"New Delhi West","region":"","circle":"Delhi","source_id":"src-79f27d78734d"}},{"arcs":[[-41,-57,-47,124,-65]],"type":"Polygon","properties":{"pincode":"110028","office_name":"Naraina Industrial Estate H.O","division":"New Delhi West","region":"","circle":"Delhi","source_id":"src-79f27d78734d"}},{"arcs":[[-73,-107,125,-109,126]],"type":"Polygon","properties":{"pincode":"110029","office_name":"Safdarjung Enclave SO","division":"New Delhi South West","region":"","circle":"Delhi","source_id":"src-79f27d78734d"}},{"arcs":[[-76,-82,127,128,129,130,131,132]],"type":"Polygon","properties":{"pincode":"110030","office_name":"Mehrauli SO","division":"New Delhi South West","region":"","circle":"Delhi","source_id":"src-79f27d78734d"}},{"arcs":[[-9,-33,133,134,135]],"type":"Polygon","properties":{"pincode":"110031","office_name":"Gandhi Nagar SO East Delhi","division":"Delhi East","region":"","circle":"Delhi","source_id":"src-79f27d78734d"}},{"arcs":[[136,137,138,139,140]],"type":"Polygon","properties":{"pincode":"110032","office_name":"Shahdara SO","division":"Delhi East","region":"","circle":"Delhi","source_id":"src-79f27d78734d"}},{"arcs":[[-37,141,142,143,144,145]],"type":"Polygon","properties":{"pincode":"110033","office_name":"NSMandi SO","division":"Delhi North","region":"","circle":"Delhi","source_id":"src-79f27d78734d"}},{"arcs":[[-121,146,147,148,149,150]],"type":"Polygon","properties":{"pincode":"110034","office_name":"Saraswati Vihar SO","division":"Delhi North","region":"","circle":"Delhi","source_id":"src-79f27d78734d"}},{"arcs":[[-69,-122,-151,151]],"type":"Polygon","properties":{"pincode":"110035","office_name":"Keshavpuram SO","division":"Delhi North","region":"","circle":"Delhi","source_id":"src-79f27d78734d"}},{"arcs":[[152,153,154,155,156,157,158,159,160,161,162,163,164,165,166,167,168,169,170,171,172,173,174,175,176,177,178,179,180,181,182,183,184,185,186,187,188,189,190,191,192,193,194,195]],"type":"Polygon","properties":{"pincode":"110036","office_name":"Alipur SO","division":"Delhi North","region":"","circle":"Delhi","source_id":"src-79f27d78734d"}},{"arcs":[[-53,196,197,198,199,200,201]],"type":"Polygon","properties":{"pincode":"110037","office_name":"Gurgaon Road SO","division":"New Delhi South West","region":"","circle":"Delhi","source_id":"src-79f27d78734d"}},{"arcs":[[-131,202,203,204,-199,205]],"type":"Polygon","properties":{"pincode":"110038","office_name":"A F Rajokari SO","division":"New Delhi South West","region":"","circle":"Delhi","source_id":"src-79f27d78734d"}},{"arcs":[[206,207,208,209,210,211,212]],"type":"Polygon","properties":{"pincode":"110039","office_name":"Bawana SO","division":"Delhi North","region":"","circle":"Delhi","source_id":"src-79f27d78734d"}},{"arcs":[[-158,213,-209,214]],"type":"Polygon","properties":{"pincode":"110040","office_name":"Narela SO","division":"Delhi North","region":"","circle":"Delhi","source_id":"src-79f27d78734d"}},{"arcs":[[-83,239,240,241,242,243,244,245,246,247,248]],"type":"Polygon","properties":{"pincode":"110041","office_name":"Nangloi S.O","division":"New Delhi West","region":"","circle":"Delhi","source_id":"src-79f27d78734d"}},{"arcs":[[-144,249,250,251,252,-211,253,-156,254]],"type":"Polygon","properties":{"pincode":"110042","office_name":"Samai Pur SO","division":"Delhi North","region":"","circle":"Delhi","source_id":"src-79f27d78734d"}},{"arcs":[[-241,255,256,257,258,259,260,261]],"type":"Polygon","properties":{"pincode":"110043","office_name":"Najafgarh S.O","division":"New Delhi West","region":"","circle":"Delhi","source_id":"src-79f27d78734d"}},{"arcs":[[-92,-98,262,263,264,265]],"type":"Polygon","properties":{"pincode":"110044","office_name":"Badarpur SO South Delhi","division":"New Delhi South","region":"","circle":"Delhi","source_id":"src-79f27d78734d"}},{"arcs":[[-44,266,267,268,269,270]],"type":"Polygon","properties":{"pincode":"110045","office_name":"Palam Village S.O","division":"New Delhi West","region":"","circle":"Delhi","source_id":"src-79f27d78734d"}},{"arcs":[[-45,-271,271,272]],"type":"Polygon","properties":{"pincode":"110046","office_name":"Nangal Raya S.O","division":"New Delhi West","region":"","circle":"Delhi","source_id":"src-79f27d78734d"}},{"arcs":[[-130,273,274,-203]],"type":"Polygon","properties":{"pincode":"110047","office_name":"Arjungarh SO","division":"New Delhi South West","region":"","circle":"Delhi","source_id":"src-79f27d78734d"}},{"arcs":[[-78,275,-112,276,-94,277]],"type":"Polygon","properties":{"pincode":"110048","office_name":"Greater Kailash SO","division":"New Delhi South","region":"","circle":"Delhi","source_id":"src-79f27d78734d"}},{"arcs":[[-15,-113,-276,-77,-74,-127,-108]],"type":"Polygon","properties":{"pincode":"110049","office_name":"Andrewsganj SO","division":"New Delhi South","region":"","circle":"Delhi","source_id":"src-79f27d78734d"}},{"arcs":[[-135,278,-140,279]],"type":"Polygon","properties":{"pincode":"110051","office_name":"Krishna Nagar HO","division":"Delhi East","region":"","circle":"Delhi","source_id":"src-79f27d78734d"}},{"arcs":[[-36,-70,-152,280,-142]],"type":"Polygon","properties":{"pincode":"110052","office_name":"Ashok Vihar HO","division":"Delhi North","region":"","circle":"Delhi","source_id":"src-79f27d78734d"}},{"arcs":[[-32,281,282,283,284,285,-141,-279,-134]],"type":"Polygon","properties":{"pincode":"110053","office_name":"Seelampur SO","division":"Delhi East","region":"","circle":"Delhi","source_id":"src-79f27d78734d"}},{"arcs":[[-31,-38,-146,286,-282]],"type":"Polygon","properties":{"pincode":"110054","office_name":"Civil Lines SO North Delhi","division":"Delhi North","region":"","circle":"Delhi","source_id":"src-79f27d78734d"}},{"arcs":[[-2,287,-26,-29,-7]],"type":"Polygon","properties":{"pincode":"110055","office_name":"Swami Ram Tirth Nagar SO","division":"New Delhi Central","region":"","circle":"Delhi","source_id":"src-79f27d78734d"}},{"arcs":[[-120,288,-247,289,-147]],"type":"Polygon","properties":{"pincode":"110056","office_name":"Shakur Basti Depot SO","division":"Delhi North","region":"","circle":"Delhi","source_id":"src-79f27d78734d"}},{"arcs":[[-52,-51,-102,-105,290,291,-197]],"type":"Polygon","properties":{"pincode":"110057","office_name":"Vasant Vihar1 SO","division":"New Delhi South West","region":"","circle":"Delhi","source_id":"src-79f27d78734d"}},{"arcs":[[-88,292,-272,-270,293]],"type":"Polygon","properties":{"pincode":"110058","office_name":"Janakpuri B 1 S.O","division":"New Delhi West","region":"","circle":"Delhi","source_id":"src-79f27d78734d"}},{"arcs":[[-89,-294,-269,294,295,-256,-240]],"type":"Polygon","properties":{"pincode":"110059","office_name":"D. K. Mohan Garden S.O","division":"New Delhi West","region":"","circle":"Delhi","source_id":"src-79f27d78734d"}},{"arcs":[[-1,-23,-103,-49,-56,-39,-27,-288]],"type":"Polygon","properties":{"pincode":"110060","office_name":"Rajender Nagar SO","division":"New Delhi Central","region":"","circle":"Delhi","source_id":"src-79f27d78734d"}},{"arcs":[[-201,296,297,298,299]],"type":"Polygon","properties":{"pincode":"110061","office_name":"Bijwasan SO","division":"New Delhi South West","region":"","circle":"Delhi","source_id":"src-79f27d78734d"}},{"arcs":[[-79,-278,-93,-266,300]],"type":"Polygon","properties":{"pincode":"110062","office_name":"Pushpa Bhawan SO","division":"New Delhi South","region":"","circle":"Delhi","source_id":"src-79f27d78734d"}},{"arcs":[[-85,301,-248,-289,-119,-124]],"type":"Polygon","properties":{"pincode":"110063","office_name":"Paschim Vihar S.O","division":"New Delhi West","region":"","circle":"Delhi","source_id":"src-79f27d78734d"}},{"arcs":[[-46,-273,-293,-87,-123,-66,-125]],"type":"Polygon","properties":{"pincode":"110064","office_name":"Maya Puri S.O","division":"New Delhi West","region":"","circle":"Delhi","source_id":"src-79f27d78734d"}},{"arcs":[[-63,-117,-95,-90,-277,-111]],"type":"Polygon","properties":{"pincode":"110065","office_name":"Sriniwaspuri SO","division":"New Delhi South","region":"","circle":"Delhi","source_id":"src-79f27d78734d"}},{"arcs":[[-100,-110,-126,-106]],"type":"Polygon","properties":{"pincode":"110066","office_name":"R K Puram Main SO","division":"New Delhi South West","region":"","circle":"Delhi","source_id":"src-79f27d78734d"}},{"arcs":[[-71,-133,302,-291,-104]],"type":"Polygon","properties":{"pincode":"110067","office_name":"JNU SO","division":"New Delhi South West","region":"","circle":"Delhi","source_id":"src-79f27d78734d"}},{"arcs":[[-81,303,304,-128]],"type":"Polygon","properties":{"pincode":"110068","office_name":"Ignou SO","division":"New Delhi South West","region":"","circle":"Delhi","source_id":"src-79f27d78734d"}},{"arcs":[[-19,-54]],"type":"Polygon","properties":{"pincode":"110069","office_name":"Union Public Service Commission SO","division":"New Delhi Central","region":"","circle":"Delhi","source_id":"src-79f27d78734d"}},{"arcs":[[-132,-206,-198,-292,-303]],"type":"Polygon","properties":{"pincode":"110070","office_name":"Vasant Kunj SO","division":"New Delhi South West","region":"","circle":"Delhi","source_id":"src-79f27d78734d"}},{"arcs":[[-258,305,306,307,308]],"type":"Polygon","properties":{"pincode":"110071","office_name":"Chhawla S.O","division":"New Delhi West","region":"","circle":"Delhi","source_id":"src-79f27d78734d"}},{"arcs":[[-242,-262,309]],"type":"Polygon","properties":{"pincode":"110072","office_name":"CRPF Jharoda Kalan S.O","division":"New Delhi West","region":"","circle":"Delhi","source_id":"src-79f27d78734d"}},{"arcs":[[-260,310]],"type":"Polygon","properties":{"pincode":"110073","office_name":"Ujwa S.O","division":"New Delhi West","region":"","circle":"Delhi","source_id":"src-79f27d78734d"}},{"arcs":[[-129,-305,311,312,-274]],"type":"Polygon","properties":{"pincode":"110074","office_name":"Chattarpur SO","division":"New Delhi South West","region":"","circle":"Delhi","source_id":"src-79f27d78734d"}},{"arcs":[[-268,313,-307,314,-295]],"type":"Polygon","properties":{"pincode":"110075","office_name":"Dwarka Sec-6 S.O","division":"New Delhi West","region":"","circle":"Delhi","source_id":"src-79f27d78734d"}},{"arcs":[[-97,-116,315,-263]],"type":"Polygon","properties":{"pincode":"110076","office_name":"Sarita Vihar SO","division":"New Delhi South","region":"","circle":"Delhi","source_id":"src-79f27d78734d"}},{"arcs":[[-43,-202,-300,-299,316,-308,-314,-267]],"type":"Polygon","properties":{"pincode":"110077","office_name":"Raj Nagar   II S.O","division":"New Delhi West","region":"","circle":"Delhi","source_id":"src-79f27d78734d"}},{"arcs":[[-257,-296,-315,-306]],"type":"Polygon","properties":{"pincode":"110078","office_name":"N.S.I.T. Dwarka S.O","division":"New Delhi West","region":"","circle":"Delhi","source_id":"src-79f27d78734d"}},{"arcs":[[-80,-301,-265,317,-312,-304]],"type":"Polygon","properties":{"pincode":"110080","office_name":"Sangam Vihar SO","division":"New Delhi South","region":"","circle":"Delhi","source_id":"src-79f27d78734d"}},{"arcs":[[-213,318,319,-244,320]],"type":"Polygon","properties":{"pincode":"110081","office_name":"Kanjhawla SO","division":"Delhi North","region":"","circle":"Delhi","source_id":"src-79f27d78734d"}},{"arcs":[[-157,-254,-210,-214]],"type":"Polygon","properties":{"pincode":"110082","office_name":"Khera Kalan SO","division":"Delhi North","region":"","circle":"Delhi","source_id":"src-79f27d78734d"}},{"arcs":[[-148,-290,-246,321,322]],"type":"Polygon","properties":{"pincode":"110083","office_name":"Mangolpuri N Block SO","division":"Delhi North","region":"","circle":"Delhi","source_id":"src-79f27d78734d"}},{"arcs":[[-145,-255,-155,323,-283,-287]],"type":"Polygon","properties":{"pincode":"110084","office_name":"Burari SO","division":"Delhi North","region":"","circle":"Delhi","source_id":"src-79f27d78734d"}},{"arcs":[[-149,-323,324,325,-252,326,327]],"type":"Polygon","properties":{"pincode":"110085","office_name":"Rohini Sector7 SO","division":"Delhi North","region":"","circle":"Delhi","source_id":"src-79f27d78734d"}},{"arcs":[[-245,-320,328,-325,-322]],"type":"Polygon","properties":{"pincode":"110086","office_name":"Sultanpuri C Block SO","division":"Delhi North","region":"","circle":"Delhi","source_id":"src-79f27d78734d"}},{"arcs":[[-84,-249,-302]],"type":"Polygon","properties":{"pincode":"110087","office_name":"Sunder Vihar S.O","division":"New Delhi West","region":"","circle":"Delhi","source_id":"src-79f27d78734d"}},{"arcs":[[-143,-281,-150,-328,329,-250]],"type":"Polygon","properties":{"pincode":"110088","office_name":"Shalimar Bagh SO North West Delhi","division":"Delhi North","region":"","circle":"Delhi","source_id":"src-79f27d78734d"}},{"arcs":[[-251,-330,-327]],"type":"Polygon","properties":{"pincode":"110089","office_name":"Rohini Sector 15 SO","division":"Delhi North","region":"","circle":"Delhi","source_id":"src-79f27d78734d"}},{"arcs":[[-154,330,331,-284,-324]],"type":"Polygon","properties":{"pincode":"110090","office_name":"Karawal Nagar SO","division":"Delhi East","region":"","circle":"Delhi","source_id":"src-79f27d78734d"}},{"arcs":[[-59,332,333,334,-114,-61]],"type":"Polygon","properties":{"pincode":"110091","office_name":"Patparganj SO","division":"Delhi East","region":"","circle":"Delhi","source_id":"src-79f27d78734d"}},{"arcs":[[-10,-136,-280,-139,335,336,337,-333,-58]],"type":"Polygon","properties":{"pincode":"110092","office_name":"Laxmi Nagar SO East Delhi","division":"Delhi East","region":"","circle":"Delhi","source_id":"src-79f27d78734d"}},{"arcs":[[-137,-286,338,339,340]],"type":"Polygon","properties":{"pincode":"110093","office_name":"Nand Nagri C SO","division":"Delhi East","region":"","circle":"Delhi","source_id":"src-79f27d78734d"}},{"arcs":[[-285,-332,341,-339]],"type":"Polygon","properties":{"pincode":"110094","office_name":"Gokal Puri SO","division":"Delhi East","region":"","circle":"Delhi","source_id":"src-79f27d78734d"}},{"arcs":[[-138,-341,342,-336]],"type":"Polygon","properties":{"pincode":"110095","office_name":"Jhilmil HO","division":"Delhi East","region":"","circle":"Delhi","source_id":"src-79f27d78734d"}},{"arcs":[[-334,-338,343]],"type":"Polygon","properties":{"pincode":"110096","office_name":"Vasundhra Enclave SO","division":"Delhi East","region":"","circle":"Delhi","source_id":"src-79f27d78734d"}},{"arcs":[[-200,-205,344,-297]],"type":"Polygon","properties":{"pincode":"110097","office_name":"Kapashera SO","division":"New Delhi South West","region":"","circle":"Delhi","source_id":"src-79f27d78734d"}},{"arcs":[[-212,-253,-326,-329,-319]],"type":"Polygon","properties":{"pincode":"110099","office_name":"ROHINI SECTOR 23 SO","division":"Delhi North","region":"","circle":"Delhi","source_id":"src-79f27d78734d"}}]}}}