{"type":"Topology","arcs":[[[59336,98850],[-6639,-8621],[-1660,-12644]],[[51037,77585],[-19087,5748]],[[31950,83333],[6639,16666],[20747,-1149]],[[70124,93103],[-9958,-22989]],[[60166,70114],[-4979,-8046]],[[55187,62068],[-5809,575]],[[49378,62643],[415,4023]],[[49793,66666],[1244,10919]],[[59336,98850],[10788,-5747]],[[75934,78735],[0,-16667],[-6224,0]],[[69710,62068],[-9544,0]],[[60166,62068],[0,8046]],[[70124,93103],[5810,-14368]],[[85477,65517],[-7054,-3449],[1660,-14942],[3319,-4023]],[[83402,43103],[-829,-4598]],[[82573,38505],[-6224,5173],[-7054,1149]],[[69295,44827],[415,17241]],[[75934,78735],[8713,-7471],[830,-5747]],[[87552,65517],[-4150,-22414]],[[85477,65517],[2075,0]],[[98340,32184],[-15767,6321]],[[87552,65517],[4564,-575],[2075,-12644],[5809,-4023],[-1660,-16091]],[[98340,32184],[-16597,-575]],[[81743,31609],[1245,6322],[-7054,5172],[-17843,1724]],[[58091,44827],[-415,1724]],[[57676,46551],[830,0]],[[58506,46551],[10789,-1724]],[[81743,31609],[-10789,3448]],[[70954,35057],[-12863,1724],[0,8046]],[[58506,46551],[1660,15517]],[[57676,46551],[-6224,5173]],[[51452,51724],[3735,10344]],[[51452,51724],[-5394,-575]],[[46058,51149],[3320,9770]],[[49378,60919],[0,1724]],[[49378,60919],[-13693,-5172]],[[35685,55747],[-2905,6896]],[[32780,62643],[7469,8046]],[[40249,70689],[9544,-4023]],[[40249,70689],[-11203,6322]],[[29046,77011],[2904,6322]],[[32780,62643],[-11203,0]],[[21577,62643],[7469,14368]],[[35685,55747],[-11204,-8046]],[[24481,47701],[-5394,-575]],[[19087,47126],[-16597,575],[-2490,14942],[7469,4023],[1660,-9770],[6224,-4598],[6224,10345]],[[46058,51149],[-830,-5747]],[[45228,45402],[-8299,575]],[[36929,45977],[-10373,-4598],[-2075,6322]],[[58091,44827],[-3319,0]],[[54772,44827],[-9544,575]],[[70954,35057],[-1244,-4598]],[[69710,30459],[-12034,1725],[-415,-5747],[13278,-2874]],[[70539,23563],[-12033,-2874],[-2074,-5747]],[[56432,14942],[-415,8046]],[[56017,22988],[415,10920]],[[56432,33908],[-1660,10919]],[[81743,31609],[-1660,-1150],[0,-574]],[[80083,29885],[-10373,574]],[[80083,29885],[-9544,-6322]],[[56017,22988],[-6639,-574],[-4980,8045]],[[44398,30459],[2490,-574]],[[46888,29885],[9544,4023]],[[46888,29885],[830,8620],[-10789,7472]],[[44398,30459],[-6224,-2873],[-2904,-9770]],[[35270,17816],[-17013,6322],[-2074,7471],[2904,15517]],[[56432,14942],[-830,-14942],[-20332,17816]]],"transform":{"scale":[2.410000000000423e-7,1.7400174001740323e-7],"translate":[79.3519,12.917299999999997]},"objects":{"wards":{"type":"GeometryCollection","geometries":[{"arcs":[[0,1,2]],"type":"Polygon","properties":{"objectid":300479,"statename":"Tamil Nadu","statecode":"33","districtname":"Ranipet","districtcode":"731","ulbname":"Walajapet","ulbcode":"803384","wardname":"Ward 1","wardcode":"1","id":null,"status":"APPROVED","misglobalid":null,"approved_by":null,"createdate":1674034175000,"updateddate":1674034494000,"globalid":null,"gisglobalid":"sm5Q6Bc6-cRos-PscB-snol-BlQRnBao6nas","remark":"Approved","st_area(shape)":0.000016136056153018548,"st_perimeter(shape)":0.018962937535340375}},{"arcs":[[3,4,5,6,7,-1,8]],"type":"Polygon","properties":{"objectid":300881,"statename":"Tamil Nadu","statecode":"33","districtname":"Ranipet","districtcode":"731","ulbname":"Walajapet","ulbcode":"803384","wardname":"Ward 2","wardcode":"2","id":null,"status":"APPROVED","misglobalid":null,"approved_by":null,"createdate":1674034404000,"updateddate":1674034579000,"globalid":null,"gisglobalid":"BBBKKmms-K5cc-PRmo-QBQK-omdnaK6mndso","remark":"Approved","st_area(shape)":0.000016834839904079946,"st_perimeter(shape)":0.02075781982365393}},{"arcs":[[9,10,11,-4,12]],"type":"Polygon","properties":{"objectid":300480,"statename":"Tamil Nadu","statecode":"33","districtname":"Ranipet","districtcode":"731","ulbname":"Walajapet","ulbcode":"803384","wardname":"Ward 3","wardcode":"3","id":null,"status":"APPROVED","misglobalid":null,"approved_by":null,"createdate":1674034568000,"updateddate":1674034661000,"globalid":null,"gisglobalid":"cP4nPnsa-dcl6-PaQ5-RBRd-QdoslcnPllsn","remark":"Approved","st_area(shape)":0.000014584465367029977,"st_perimeter(shape)":0.017285594902496607}},{"arcs":[[13,14,15,16,-10,17]],"type":"Polygon","properties":{"objectid":300481,"statename":"Tamil Nadu","statecode":"33","districtname":"Ranipet","districtcode":"731","ulbname":"Walajapet","ulbcode":"803384","wardname":"Ward 4","wardcode":"4","id":null,"status":"APPROVED","misglobalid":null,"approved_by":null,"createdate":1674034643000,"updateddate":1674034726000,"globalid":null,"gisglobalid":"ml6nQ6sQ-B5QQ-Po5m-slBQ-BBdsnBRaQBPR","remark":"Approved","st_area(shape)":0.000012990190575248637,"st_perimeter(shape)":0.02132006615989147}},{"arcs":[[18,-14,19]],"type":"Polygon","properties":{"objectid":300482,"statename":"Tamil Nadu","statecode":"33","districtname":"Ranipet","districtcode":"731","ulbname":"Walajapet","ulbcode":"803384","wardname":"Ward 5","wardcode":"5","id":null,"status":"APPROVED","misglobalid":null,"approved_by":null,"createdate":1674034709000,"updateddate":1674034788000,"globalid":null,"gisglobalid":"BlBmdccn-Rscc-P6Pd-aQ6R-ood6Q5cc5QRK","remark":"Approved","st_area(shape)":0.000004933282551818223,"st_perimeter(shape)":0.011170497317817383}},{"arcs":[[20,-15,-19,21]],"type":"Polygon","properties":{"objectid":300483,"statename":"Tamil Nadu","statecode":"33","districtname":"Ranipet","districtcode":"731","ulbname":"Walajapet","ulbcode":"803384","wardname":"Ward 6","wardcode":"6","id":null,"status":"APPROVED","misglobalid":null,"approved_by":null,"createdate":1674034775000,"updateddate":1674034881000,"globalid":null,"gisglobalid":"KoosPolB-lBBs-Pan4-QQBa-oPR54QlRK5Qd","remark":"Approved","st_area(shape)":0.000014356205264886668,"st_perimeter(shape)":0.018250540933030617}},{"arcs":[[-16,-21,22,23,24,25,26]],"type":"Polygon","properties":{"objectid":300484,"statename":"Tamil Nadu","statecode":"33","districtname":"Ranipet","districtcode":"731","ulbname":"Walajapet","ulbcode":"803384","wardname":"Ward 7","wardcode":"7","id":null,"status":"APPROVED","misglobalid":null,"approved_by":null,"createdate":1674034857000,"updateddate":1674034938000,"globalid":null,"gisglobalid":"QooPPlKQ-mBKP-PB6P-sass-mcln5Q54B5Rn","remark":"Approved","st_area(shape)":0.000005350645531675311,"st_perimeter(shape)":0.023929076484691586}},{"arcs":[[27,28,-24]],"type":"Polygon","properties":{"objectid":300485,"statename":"Tamil Nadu","statecode":"33","districtname":"Ranipet","districtcode":"731","ulbname":"Walajapet","ulbcode":"803384","wardname":"Ward 8","wardcode":"8","id":null,"status":"APPROVED","misglobalid":null,"approved_by":null,"createdate":1674034918000,"updateddate":1674035016000,"globalid":null,"gisglobalid":"cPcsRBmd-4Qom-PlPc-a54s-l4PPmP5aQKRQ","remark":"Approved","st_area(shape)":0.000008507440018867337,"st_perimeter(shape)":0.014732602085250195}},{"arcs":[[29,-11,-17,-27]],"type":"Polygon","properties":{"objectid":300486,"statename":"Tamil Nadu","statecode":"33","districtname":"Ranipet","districtcode":"731","ulbname":"Walajapet","ulbcode":"803384","wardname":"Ward 9","wardcode":"9","id":null,"status":"APPROVED","misglobalid":null,"approved_by":null,"createdate":1674034991000,"updateddate":1674035070000,"globalid":null,"gisglobalid":"aBosom6d-6ndQ-P645-Rc54-BRscBRPRs6m6","remark":"Approved","st_area(shape)":0.0000069188044058908105,"st_perimeter(shape)":0.01055263630905375}},{"arcs":[[30,31,-5,-12,-30,-26]],"type":"Polygon","properties":{"objectid":300487,"statename":"Tamil Nadu","statecode":"33","districtname":"Ranipet","districtcode":"731","ulbname":"Walajapet","ulbcode":"803384","wardname":"Ward 10","wardcode":"10","id":null,"status":"APPROVED","misglobalid":null,"approved_by":null,"createdate":1674035048000,"updateddate":1674035138000,"globalid":null,"gisglobalid":"m44oPQB6-4QsQ-PomB-sn4s-4sP4BBBsBmBa","remark":"Approved","st_area(shape)":0.000003167872246514889,"st_perimeter(shape)":0.013225440979059748}},{"arcs":[[32,33,34,-6,-32]],"type":"Polygon","properties":{"objectid":300488,"statename":"Tamil Nadu","statecode":"33","districtname":"Ranipet","districtcode":"731","ulbname":"Walajapet","ulbcode":"803384","wardname":"Ward 11","wardcode":"11","id":null,"status":"APPROVED","misglobalid":null,"approved_by":null,"createdate":1674035118000,"updateddate":1674035199000,"globalid":null,"gisglobalid":"QmcaQmnB-655c-PKRm-Q4lP-K5QcamnsdmPn","remark":"Approved","st_area(shape)":0.0000036768855768609655,"st_perimeter(shape)":0.0097850820905442}},{"arcs":[[-7,-35,35,36,37,38]],"type":"Polygon","properties":{"objectid":300489,"statename":"Tamil Nadu","statecode":"33","districtname":"Ranipet","districtcode":"731","ulbname":"Walajapet","ulbcode":"803384","wardname":"Ward 12","wardcode":"12","id":null,"status":"APPROVED","misglobalid":null,"approved_by":null,"createdate":1674035180000,"updateddate":1674035257000,"globalid":null,"gisglobalid":"PP5PlcQo-caKm-Poso-QKQm-a4c5K5lRPlaR","remark":"Approved","st_area(shape)":0.000005911389501271195,"st_perimeter(shape)":0.0145855669243255}},{"arcs":[[39,40,-2,-8,-39]],"type":"Polygon","properties":{"objectid":300490,"statename":"Tamil Nadu","statecode":"33","districtname":"Ranipet","districtcode":"731","ulbname":"Walajapet","ulbcode":"803384","wardname":"Ward 13","wardcode":"13","id":null,"status":"APPROVED","misglobalid":null,"approved_by":null,"createdate":1674035234000,"updateddate":1674035351000,"globalid":null,"gisglobalid":"dBdBPnPR-64aK-PcRQ-R6cd-56doocoaKol5","remark":"Approved","st_area(shape)":0.000007167669813387126,"st_perimeter(shape)":0.01647415570860014}},{"arcs":[[41,42,-40,-38]],"type":"Polygon","properties":{"objectid":300074,"statename":"Tamil Nadu","statecode":"33","districtname":"Ranipet","districtcode":"731","ulbname":"Walajapet","ulbcode":"803384","wardname":"Ward 14","wardcode":"14","id":null,"status":"APPROVED","misglobalid":null,"approved_by":null,"createdate":1674035324000,"updateddate":1674035395000,"globalid":null,"gisglobalid":"5PaBl6o5-adBl-Pomm-sQo5-ncBRa6aman4m","remark":"Approved","st_area(shape)":0.000007495699985935004,"st_perimeter(shape)":0.014220489476087157}},{"arcs":[[43,44,45,-42,-37]],"type":"Polygon","properties":{"objectid":298887,"statename":"Tamil Nadu","statecode":"33","districtname":"Ranipet","districtcode":"731","ulbname":"Walajapet","ulbcode":"803384","wardname":"Ward 15","wardcode":"15","id":null,"status":"APPROVED","misglobalid":null,"approved_by":null,"createdate":1674035460000,"updateddate":1674035582000,"globalid":null,"gisglobalid":"KKK5scm5-d4oP-PlPs-sdBl-QdRQs4sQdl64","remark":"Approved","st_area(shape)":0.000017577555225922735,"st_perimeter(shape)":0.029667750487704595}},{"arcs":[[46,47,48,-44,-36,-34]],"type":"Polygon","properties":{"objectid":298888,"statename":"Tamil Nadu","statecode":"33","districtname":"Ranipet","districtcode":"731","ulbname":"Walajapet","ulbcode":"803384","wardname":"Ward 16","wardcode":"16","id":null,"status":"APPROVED","misglobalid":null,"approved_by":null,"createdate":1674035562000,"updateddate":1674035621000,"globalid":null,"gisglobalid":"nPoBPcd6-aRa5-PnRl-RaBo-5nB6oKnKBBd5","remark":"Approved","st_area(shape)":0.00001032006433434317,"st_perimeter(shape)":0.01816356303359847}},{"arcs":[[49,50,-47,-33,-31,-25]],"type":"Polygon","properties":{"objectid":300491,"statename":"Tamil Nadu","statecode":"33","districtname":"Ranipet","districtcode":"731","ulbname":"Walajapet","ulbcode":"803384","wardname":"Ward 17","wardcode":"17","id":null,"status":"APPROVED","misglobalid":null,"approved_by":null,"createdate":1674035662000,"updateddate":1674035792000,"globalid":null,"gisglobalid":"s4Q4sP5R-Qcol-P5sB-Rc4R-4RB66acomPRo","remark":"Approved","st_area(shape)":0.00000303681890442338,"st_perimeter(shape)":0.008256802925154088}},{"arcs":[[51,52,53,54,55,56,-50,-29]],"type":"Polygon","properties":{"objectid":300492,"statename":"Tamil Nadu","statecode":"33","districtname":"Ranipet","districtcode":"731","ulbname":"Walajapet","ulbcode":"803384","wardname":"Ward 18","wardcode":"18","id":null,"status":"APPROVED","misglobalid":null,"approved_by":null,"createdate":1674035768000,"updateddate":1674035854000,"globalid":null,"gisglobalid":"5QoaPKK4-dnon-PPal-Ql4B-mQaQKQlPoKm6","remark":"Approved","st_area(shape)":0.000006686910945362185,"st_perimeter(shape)":0.023704960900322394}},{"arcs":[[-52,-28,57,58]],"type":"Polygon","properties":{"objectid":300882,"statename":"Tamil Nadu","statecode":"33","districtname":"Ranipet","districtcode":"731","ulbname":"Walajapet","ulbcode":"803384","wardname":"Ward 19","wardcode":"19","id":null,"status":"APPROVED","misglobalid":null,"approved_by":null,"createdate":1674035820000,"updateddate":1674035931000,"globalid":null,"gisglobalid":"dPco6Rlm-KcPa-Pmll-snnd-B5sRdPsPosoB","remark":"Approved","st_area(shape)":0.000001860931200693907,"st_perimeter(shape)":0.006577250383422485}},{"arcs":[[59,-53,-59]],"type":"Polygon","properties":{"objectid":300883,"statename":"Tamil Nadu","statecode":"33","districtname":"Ranipet","districtcode":"731","ulbname":"Walajapet","ulbcode":"803384","wardname":"Ward 20","wardcode":"20","id":null,"status":"APPROVED","misglobalid":null,"approved_by":null,"createdate":1674187734000,"updateddate":1683526625000,"globalid":null,"gisglobalid":"lK5KBo56-mPsP-Pdda-RPPR-KRP5lds5RBsc","remark":"Approved","st_area(shape)":0.000004074905738050496,"st_perimeter(shape)":0.012670958044979643}},{"arcs":[[-56,60,61,62]],"type":"Polygon","properties":{"objectid":300493,"statename":"Tamil Nadu","statecode":"33","districtname":"Ranipet","districtcode":"731","ulbname":"Walajapet","ulbcode":"803384","wardname":"Ward 21","wardcode":"21","id":null,"status":"APPROVED","misglobalid":null,"approved_by":null,"createdate":1674035971000,"updateddate":1674036047000,"globalid":null,"gisglobalid":"BPRRlodc-RBdm-P5cd-QlQR-l5dlP5anPsQn","remark":"Approved","st_area(shape)":0.000005265274548268325,"st_perimeter(shape)":0.010642760356061529}},{"arcs":[[63,-48,-51,-57,-63]],"type":"Polygon","properties":{"objectid":300494,"statename":"Tamil Nadu","statecode":"33","districtname":"Ranipet","districtcode":"731","ulbname":"Walajapet","ulbcode":"803384","wardname":"Ward 22","wardcode":"22","id":null,"status":"APPROVED","misglobalid":null,"approved_by":null,"createdate":1674036027000,"updateddate":1674036110000,"globalid":null,"gisglobalid":"6PPQ5Qol-QcsR-PQan-s4Kc-lQPPRBBRlco6","remark":"Approved","st_area(shape)":0.0000065868132882337685,"st_perimeter(shape)":0.01491812267794627}},{"arcs":[[64,65,-45,-49,-64,-62]],"type":"Polygon","properties":{"objectid":300495,"statename":"Tamil Nadu","statecode":"33","districtname":"Ranipet","districtcode":"731","ulbname":"Walajapet","ulbcode":"803384","wardname":"Ward 23","wardcode":"23","id":null,"status":"APPROVED","misglobalid":null,"approved_by":null,"createdate":1674036099000,"updateddate":1674036164000,"globalid":null,"gisglobalid":"6c5amQ5K-aPsn-P4dK-amd6-Ra65mmR666dd","remark":"Approved","st_area(shape)":0.00002237945089422493,"st_perimeter(shape)":0.02822909475230122}},{"arcs":[[-61,-55,66,-65]],"type":"Polygon","properties":{"objectid":300496,"statename":"Tamil Nadu","statecode":"33","districtname":"Ranipet","districtcode":"731","ulbname":"Walajapet","ulbcode":"803384","wardname":"Ward 24","wardcode":"24","id":null,"status":"APPROVED","misglobalid":null,"approved_by":null,"createdate":1674036148000,"updateddate":1674036205000,"globalid":null,"gisglobalid":"QPocR4c6-QR5m-PBQa-RdBs-6s6QQmonnonn","remark":"Approved","st_area(shape)":0.00001578512444702969,"st_perimeter(shape)":0.02354041506865272}}]}}}