{"type":"Topology","arcs":[[[46215,63302],[-7968,-3211]],[[38247,60091],[1992,15596]],[[40239,75687],[5976,-1376]],[[46215,74311],[0,-11009]],[[54980,56880],[3187,-4587]],[[58167,52293],[-3187,4587]],[[50199,77522],[-3984,-3211]],[[40239,75687],[9960,1835]],[[77290,91283],[-12350,-13761]],[[64940,77522],[-18725,-14220]],[[46215,63302],[0,11009]],[[50199,77522],[5976,22477],[21115,-8716]],[[58167,52293],[-3187,4587]],[[54980,56880],[9960,20642]],[[77290,91283],[19920,-9632],[-3585,-15597]],[[93625,66054],[-15937,-9174]],[[77688,56880],[-15936,-3670]],[[61752,53210],[-3585,-917]],[[61752,53210],[15936,3670]],[[77688,56880],[15937,9174]],[[93625,66054],[5976,-11009],[-34263,-13302]],[[65338,41743],[-3586,11467]],[[71712,20183],[-15936,20642]],[[55776,40825],[9562,918]],[[65338,41743],[6374,-21560]],[[71712,20183],[3188,22018],[25099,0],[-17131,-24311],[-11156,2293]],[[0,18807],[17530,13761],[11952,-20642],[-15538,-11926],[-13944,18807]]],"transform":{"scale":[2.510025100251903e-7,2.180021800217895e-7],"translate":[81.6227,24.9696]},"objects":{"wards":{"type":"GeometryCollection","geometries":[{"type":null,"properties":{"objectid":37703,"statename":"Madhya Pradesh","statecode":"23","districtname":null,"districtcode":"430","ulbname":"Teonthar","ulbcode":"802181","wardname":"Shaheed Bhagat Singh","wardcode":"1","id":null,"status":"APPROVED","misglobalid":null,"approved_by":null,"createdate":1637756595000,"updateddate":1730960624000,"globalid":"5oRmmKoc-Rcdn-PoPm-ac6d-Rsa5n565aosl","gisglobalid":"6706dfc2-00e4-4c68-9cd5-2ec1fed73c9a","remark":"Approve","st_area(shape)":0.0000018678377317488435,"st_perimeter(shape)":0.006020737924601338}},{"arcs":[[0,1,2,3]],"type":"Polygon","properties":{"objectid":38901,"statename":"Madhya Pradesh","statecode":"23","districtname":null,"districtcode":"430","ulbname":"Teonthar","ulbcode":"802181","wardname":"Pt Jawahar Lal Nehru","wardcode":"2","id":null,"status":"APPROVED","misglobalid":null,"approved_by":null,"createdate":1637756595000,"updateddate":1730960643000,"globalid":"PsoKn4Rd-sQPB-Plmm-Qs6P-lPaadKnP4c6B","gisglobalid":"9ec90b3b-0aaa-440c-a53c-1a56fe24b209","remark":"Approve","st_area(shape)":0.000006375032921237148,"st_perimeter(shape)":0.010298777699465229}},{"arcs":[[4,5]],"type":"Polygon","properties":{"objectid":38105,"statename":"Madhya Pradesh","statecode":"23","districtname":null,"districtcode":"430","ulbname":"Teonthar","ulbcode":"802181","wardname":"Shaheed Padmdhar Singh","wardcode":"3","id":null,"status":"APPROVED","misglobalid":null,"approved_by":null,"createdate":1637756596000,"updateddate":1730960841000,"globalid":"n5mso4dR-Kdno-P6no-RQao-dmPsQ5aRdsaB","gisglobalid":"5897a476-3623-4c7d-9593-dc630c1ff36a","remark":"Approve","st_area(shape)":0.000002056763821055002,"st_perimeter(shape)":0.005471972618317571}},{"type":null,"properties":{"objectid":37702,"statename":"Madhya Pradesh","statecode":"23","districtname":null,"districtcode":"430","ulbname":"Teonthar","ulbcode":"802181","wardname":"Lal Bahadur Shashtri","wardcode":"4","id":null,"status":"APPROVED","misglobalid":null,"approved_by":null,"createdate":1637756595000,"updateddate":1730960660000,"globalid":"nlnKcaKa-P64K-Psma-aoac-ldonaK55QRsm","gisglobalid":"34d2bb21-6dfc-4e65-9402-189dd1ce135b","remark":"Approve","st_area(shape)":0.0000037247415080492777,"st_perimeter(shape)":0.0077511915794356645}},{"type":null,"properties":{"objectid":37344,"statename":"Madhya Pradesh","statecode":"23","districtname":null,"districtcode":"430","ulbname":"Teonthar","ulbcode":"802181","wardname":"Sardar Vallabh Bhai Patel","wardcode":"5","id":null,"status":"APPROVED","misglobalid":null,"approved_by":null,"createdate":1637756595000,"updateddate":1730960676000,"globalid":"cnnB6Plo-4dQl-P4m4-asBd-aR5PmldRQlK5","gisglobalid":"e6bac7f5-1a5d-4793-83d0-41a097a8c5a3","remark":"Approve","st_area(shape)":0.000017455781733822004,"st_perimeter(shape)":0.01881596611155705}},{"arcs":[[6,-3,7]],"type":"Polygon","properties":{"objectid":38898,"statename":"Madhya Pradesh","statecode":"23","districtname":null,"districtcode":"430","ulbname":"Teonthar","ulbcode":"802181","wardname":"Bheemrao Ambedkar","wardcode":"6","id":null,"status":"APPROVED","misglobalid":null,"approved_by":null,"createdate":1637756595000,"updateddate":1730960689000,"globalid":"PmB4Kl6Q-5aPR-Pccn-saBo-RoclndddnaoR","gisglobalid":"262d0ae7-c725-4ed4-82f5-1b9d1c22f42a","remark":"Approve","st_area(shape)":0.0000014902285018104001,"st_perimeter(shape)":0.005592969888072315}},{"arcs":[[8,9,10,-7,11]],"type":"Polygon","properties":{"objectid":39268,"statename":"Madhya Pradesh","statecode":"23","districtname":null,"districtcode":"430","ulbname":"Teonthar","ulbcode":"802181","wardname":"Ravindra Nath Tagore","wardcode":"7","id":null,"status":"APPROVED","misglobalid":null,"approved_by":null,"createdate":1637756596000,"updateddate":1730960708000,"globalid":"dK54465R-sdm6-PsKc-am5K-saad4damsRlQ","gisglobalid":"bae732bc-9660-49d3-a77f-0af4eea3431d","remark":"Approve","st_area(shape)":0.000031440252096612334,"st_perimeter(shape)":0.029581527721952473}},{"arcs":[[12,13,-9,14,15,16,17]],"type":"Polygon","properties":{"objectid":38900,"statename":"Madhya Pradesh","statecode":"23","districtname":null,"districtcode":"430","ulbname":"Teonthar","ulbcode":"802181","wardname":"Pt Deendayal Upadhyay","wardcode":"8","id":null,"status":"APPROVED","misglobalid":null,"approved_by":null,"createdate":1637756596000,"updateddate":1730960750000,"globalid":"QP4ds6nQ-o5oR-PPQo-aK4K-d6nPsPaPlnls","gisglobalid":"e566e0c0-35f2-444c-b621-2f625b54bb74","remark":"Approve","st_area(shape)":0.000058523071253485813,"st_perimeter(shape)":0.03166952839665329}},{"arcs":[[18,19,20,21]],"type":"Polygon","properties":{"objectid":39267,"statename":"Madhya Pradesh","statecode":"23","districtname":null,"districtcode":"430","ulbname":"Teonthar","ulbcode":"802181","wardname":"Dr. Ramamanohar Lohiya","wardcode":"9","id":null,"status":"APPROVED","misglobalid":null,"approved_by":null,"createdate":1637756596000,"updateddate":1730960790000,"globalid":"BKmsm6Pc-5Rlo-Pc5B-sRno-4PllBRsoaQc4","gisglobalid":"ef1c35a3-a695-4545-bd0a-b0d992116ce9","remark":"Approve","st_area(shape)":0.000027979902571400083,"st_perimeter(shape)":0.026650776620128276}},{"type":null,"properties":{"objectid":39952,"statename":"Madhya Pradesh","statecode":"23","districtname":null,"districtcode":"430","ulbname":"Teonthar","ulbcode":"802181","wardname":"Neta Ji Subhash Chandra Bose","wardcode":"10","id":null,"status":"APPROVED","misglobalid":null,"approved_by":null,"createdate":1637756596000,"updateddate":1730960886000,"globalid":"4mdad4Ba-aK56-PPBP-QmR5-4BammocdmsKP","gisglobalid":"44d94a81-f5e9-4e2c-93ab-562f3d693c67","remark":"Approve","st_area(shape)":0.00002583321960968422,"st_perimeter(shape)":0.023161530968591068}},{"arcs":[[22,23,24]],"type":"Polygon","properties":{"objectid":38899,"statename":"Madhya Pradesh","statecode":"23","districtname":null,"districtcode":"430","ulbname":"Teonthar","ulbcode":"802181","wardname":"Maharana Pratap","wardcode":"11","id":null,"status":"APPROVED","misglobalid":null,"approved_by":null,"createdate":1637756596000,"updateddate":1730960925000,"globalid":"aBPlddcm-osPB-PBlo-Q4QB-6RPdaRadc6Rl","gisglobalid":"c7b77340-4700-42b4-8579-c5587efdab1f","remark":"Approve","st_area(shape)":0.000025374967481500602,"st_perimeter(shape)":0.022083579266587675}},{"arcs":[[25]],"type":"Polygon","properties":{"objectid":38570,"statename":"Madhya Pradesh","statecode":"23","districtname":null,"districtcode":"430","ulbname":"Teonthar","ulbcode":"802181","wardname":"Mahatma Gandhi","wardcode":"12","id":null,"status":"APPROVED","misglobalid":null,"approved_by":null,"createdate":1637756596000,"updateddate":1662976505000,"globalid":"6B6Rn666-maRl-Pssm-RnBc-PoddcKodK5mc","gisglobalid":"2c3ef0d9-00f4-4965-8b1b-f9b9fb9d15b3","remark":"","st_area(shape)":0.00003514919839360622,"st_perimeter(shape)":0.02470355131898184}},{"type":null,"properties":{"objectid":39548,"statename":"Madhya Pradesh","statecode":"23","districtname":null,"districtcode":"430","ulbname":"Teonthar","ulbcode":"802181","wardname":"Sanjay Gandhi","wardcode":"13","id":null,"status":"APPROVED","misglobalid":null,"approved_by":null,"createdate":1637756595000,"updateddate":1730960934000,"globalid":"PmcBR66s-sd5K-Pm4R-s6Pm-44scn5Pm6sal","gisglobalid":"5c77f3b3-956c-4af0-b506-a928ee424f34","remark":"Approve","st_area(shape)":0.000016203668489695627,"st_perimeter(shape)":0.017623142595889863}},{"type":null,"properties":{"objectid":38106,"statename":"Madhya Pradesh","statecode":"23","districtname":null,"districtcode":"430","ulbname":"Teonthar","ulbcode":"802181","wardname":"Prithviraj Chauhan","wardcode":"14","id":null,"status":"APPROVED","misglobalid":null,"approved_by":null,"createdate":1637756595000,"updateddate":1730960948000,"globalid":"o6sKQ6m4-Bnsa-PPao-s4dc-aB5455ldmBnB","gisglobalid":"c56848e6-bfc6-4ba0-a504-3ddcd5aaa37b","remark":"Approve","st_area(shape)":0.000022011072135075257,"st_perimeter(shape)":0.019534397229839164}},{"arcs":[[26]],"type":"Polygon","properties":{"objectid":39951,"statename":"Madhya Pradesh","statecode":"23","districtname":null,"districtcode":"430","ulbname":"Teonthar","ulbcode":"802181","wardname":"Bal Gnangadhar Tilak","wardcode":"15","id":null,"status":"APPROVED","misglobalid":null,"approved_by":null,"createdate":1637756595000,"updateddate":1730962109000,"globalid":"RRcPdm6B-lBlK-PanR-s65K-mRaom55Rdnso","gisglobalid":"b8e61493-c115-40b5-8c79-852f47695587","remark":"Approve","st_area(shape)":0.000031203640943571566,"st_perimeter(shape)":0.021331888607697615}}]}}}