{"type":"Topology","arcs":[[[47851,80599],[-195,0],[0,200]],[[47656,80799],[-7422,-3800]],[[40234,76999],[-4687,-1400],[-6836,-4200],[-11133,-4000],[-8398,-1000]],[[9180,66399],[4296,7200],[4102,-1600],[14062,8200],[1172,-400],[11914,10200]],[[44726,89999],[4883,-6800],[-1758,-2600]],[[47656,56399],[-391,200]],[[47265,56599],[-5664,8200]],[[41601,64799],[5859,0]],[[47460,64799],[5469,0]],[[52929,64799],[-781,-1400],[-2148,-3000],[976,-1000],[-3320,-3000]],[[54296,25600],[-4492,-4800],[-3711,800]],[[46093,21600],[-8007,3600]],[[38086,25200],[1171,1200]],[[39257,26400],[4688,4600]],[[43945,31000],[1562,1000]],[[45507,32000],[8789,-6400]],[[79491,41800],[-6640,-1200],[-3516,2000],[-2539,2200],[586,400],[-976,1200]],[[66406,46400],[4492,3000]],[[70898,49400],[1758,1199]],[[72656,50599],[2734,-2599],[2539,-1800],[1562,-4400]],[[60546,29000],[391,3400],[6055,5000]],[[66992,37400],[195,-600]],[[67187,36800],[3711,-9200]],[[70898,27600],[1562,-3800],[-3906,-2200],[-8008,7400]],[[70116,57599],[-2539,7000]],[[67577,64599],[1758,0]],[[69335,64599],[24609,-400]],[[93944,64199],[-16406,-4400]],[[77538,59799],[-7422,-2200]],[[79491,41800],[196,0]],[[79687,41800],[4687,-2000],[-3711,-4400],[-9765,-7800]],[[67187,36800],[-195,800]],[[66992,37600],[-2735,7200]],[[64257,44800],[781,600]],[[65038,45400],[1368,1000]],[[40234,76999],[4297,-200]],[[44531,76799],[195,0]],[[44726,76799],[3516,-3600]],[[48242,73199],[-391,-400]],[[47851,72799],[-5664,-8000]],[[42187,64799],[-5078,0]],[[37109,64799],[-26953,400]],[[10156,65199],[-976,1200]],[[44726,89999],[-2344,2600],[12305,7400]],[[54687,99999],[-3125,-19600]],[[51562,80399],[-1562,-1600]],[[50000,78799],[-586,200]],[[49414,78999],[-1563,1600]],[[37109,64799],[4492,0]],[[47265,56599],[781,-600]],[[48046,55999],[3125,-1400],[3711,-600],[1367,0],[977,200],[781,0]],[[58007,54199],[-7422,-2000]],[[50585,52199],[-41015,-11599]],[[9570,40600],[-5664,-1600]],[[3906,39000],[-3711,3400],[-195,6600],[4102,1399],[1171,6000],[4883,8800]],[[49414,78999],[-4102,-1800]],[[45312,77199],[-781,-400]],[[47656,80799],[195,-200]],[[52929,64799],[3320,-200]],[[56249,64599],[3125,-6600]],[[59374,57999],[1172,-2800]],[[60546,55199],[196,-200]],[[60742,54999],[-1563,-400]],[[59179,54599],[-1172,-400]],[[48046,55999],[-390,400]],[[46093,21600],[-3320,-2800],[-2734,-5800],[-4492,-3200],[-5274,-7400],[-6445,-2400],[-6055,7600]],[[17773,7600],[10547,7600],[5859,6000]],[[34179,21200],[3907,4000]],[[72656,50599],[3320,2200]],[[75976,52799],[11328,7600],[9375,3800]],[[96679,64199],[3320,0],[-1758,-10400],[-4101,-4599],[-3711,800],[-10742,-8200]],[[60742,54999],[5859,1600]],[[66601,56599],[10937,3200]],[[93944,64199],[2735,0]],[[75976,52799],[-5078,-3399]],[[70898,49400],[-5860,-4000]],[[64257,44800],[-2344,6599]],[[61913,51399],[-585,2200]],[[61328,53599],[-586,1400]],[[54882,68199],[8399,5600],[-3125,1400],[195,4400]],[[60351,79599],[5078,-800],[17969,0],[-14063,-14200]],[[69335,64599],[-8593,0]],[[60742,64599],[-4493,0]],[[56249,64599],[-1367,3600]],[[47851,72799],[1172,1000]],[[49023,73799],[2148,3400]],[[51171,77199],[3711,-9000]],[[56249,64599],[-8789,200]],[[47460,64799],[-5273,0]],[[45507,32000],[0,200]],[[45507,32200],[7617,5200]],[[53124,37400],[6446,4200]],[[59570,41600],[4687,3200]],[[66992,37600],[0,-200]],[[60546,29000],[-6250,-3400]],[[62695,64599],[1757,-4000],[-4882,-2800]],[[59570,57799],[-196,200]],[[60742,64599],[1953,0]],[[51171,77199],[-1171,1600]],[[51562,80399],[8594,-800]],[[60156,79599],[195,0]],[[62695,64599],[4882,0]],[[70116,57599],[-3515,-1000]],[[60546,55199],[-976,2600]],[[56640,39800],[-3320,6200],[2539,2000],[-586,1200],[3320,800],[1367,1799],[1758,600]],[[61718,52399],[195,-1000]],[[59570,41600],[-2930,-1800]],[[44726,76799],[586,400]],[[49023,73799],[-781,-600]],[[54687,99999],[2539,-2800],[2930,-17600]],[[50585,52199],[8594,2400]],[[61328,53599],[390,-1200]],[[56640,39800],[-3516,-2400]],[[45507,32200],[-1562,-1200]],[[39257,26400],[-5078,-5200]],[[17773,7600],[-3515,-2400],[-2539,5200],[8593,6800],[-6445,6400],[-4883,-800],[-4687,11000],[-391,5200]],[[3906,39000],[5664,1600]]],"transform":{"scale":[5.120051200512862e-7,5.000050000499721e-7],"translate":[78.2134,28.8058]},"objects":{"wards":{"type":"GeometryCollection","geometries":[{"arcs":[[0,1,2,3,4]],"type":"Polygon","properties":{"objectid":215703,"statename":"Uttar Pradesh","statecode":"9","districtname":"Amroha","districtcode":"137","ulbname":"Gajraula","ulbcode":"800700","wardname":"Ambedkar Nagar","wardcode":"1","id":null,"status":"APPROVED","misglobalid":null,"approved_by":null,"createdate":1647244186000,"updateddate":1653116149000,"globalid":null,"gisglobalid":"nQo6m5nd-RdQo-Pn4B-RRBd-m4ssd4cnls56","remark":"","st_area(shape)":0.0000675757066281115,"st_perimeter(shape)":0.05523729743001474}},{"arcs":[[5,6,7,8,9]],"type":"Polygon","properties":{"objectid":221626,"statename":"Uttar Pradesh","statecode":"9","districtname":"Amroha","districtcode":"137","ulbname":"Gajraula","ulbcode":"800700","wardname":"Fazalpur","wardcode":"2","id":null,"status":"APPROVED","misglobalid":null,"approved_by":null,"createdate":1647244186000,"updateddate":1653116159000,"globalid":null,"gisglobalid":"c56aQKRa-nPPa-Psn6-Q5Ko-acBddnPQsnPB","remark":"","st_area(shape)":0.000013629693483468199,"st_perimeter(shape)":0.017043622119980784}},{"arcs":[[10,11,12,13,14,15]],"type":"Polygon","properties":{"objectid":221231,"statename":"Uttar Pradesh","statecode":"9","districtname":"Amroha","districtcode":"137","ulbname":"Gajraula","ulbcode":"800700","wardname":"Naipura","wardcode":"3","id":null,"status":"APPROVED","misglobalid":null,"approved_by":null,"createdate":1647244186000,"updateddate":1653116175000,"globalid":null,"gisglobalid":"sQK5Rds4-4n5Q-PB5m-amQc-56RdP4PcQPlQ","remark":"","st_area(shape)":0.00002461302542042655,"st_perimeter(shape)":0.02204894694017164}},{"arcs":[[16,17,18,19]],"type":"Polygon","properties":{"objectid":220432,"statename":"Uttar Pradesh","statecode":"9","districtname":"Amroha","districtcode":"137","ulbname":"Gajraula","ulbcode":"800700","wardname":"Sultan Nagar Purvi","wardcode":"4","id":null,"status":"APPROVED","misglobalid":null,"approved_by":null,"createdate":1647244186000,"updateddate":1653116183000,"globalid":null,"gisglobalid":"5clocnKc-Bdcm-P46B-sQac-cal4scBs55cd","remark":"","st_area(shape)":0.000017825675709601532,"st_perimeter(shape)":0.019748116345256847}},{"arcs":[[20,21,22,23]],"type":"Polygon","properties":{"objectid":215704,"statename":"Uttar Pradesh","statecode":"9","districtname":"Amroha","districtcode":"137","ulbname":"Gajraula","ulbcode":"800700","wardname":"Allipur","wardcode":"5","id":null,"status":"APPROVED","misglobalid":null,"approved_by":null,"createdate":1647244186000,"updateddate":1653116298000,"globalid":null,"gisglobalid":"454KK5Bo-oRsc-P6RQ-Rc5n-mo4dQmmdsPRP","remark":"","st_area(shape)":0.00002447362984808874,"st_perimeter(shape)":0.022332273811429944}},{"arcs":[[24,25,26,27,28]],"type":"Polygon","properties":{"objectid":216098,"statename":"Uttar Pradesh","statecode":"9","districtname":"Amroha","districtcode":"137","ulbname":"Gajraula","ulbcode":"800700","wardname":"Shivpuri","wardcode":"6","id":null,"status":"APPROVED","misglobalid":null,"approved_by":null,"createdate":1647244186000,"updateddate":1653116307000,"globalid":null,"gisglobalid":"maPPm4od-Pdcn-P4c4-sQP4-Kns4nPddRQcP","remark":"","st_area(shape)":0.000023372135244033165,"st_perimeter(shape)":0.02993650858271546}},{"arcs":[[29,30,-23,31,32,33,34,-17]],"type":"Polygon","properties":{"objectid":221625,"statename":"Uttar Pradesh","statecode":"9","districtname":"Amroha","districtcode":"137","ulbname":"Gajraula","ulbcode":"800700","wardname":"Sultan Nagar Pachemi","wardcode":"7","id":null,"status":"APPROVED","misglobalid":null,"approved_by":null,"createdate":1647244186000,"updateddate":1653116321000,"globalid":null,"gisglobalid":"Bcl6sKn6-dsBl-PlBa-ald6-l5lncRco6K6c","remark":"","st_area(shape)":0.00004135501623395977,"st_perimeter(shape)":0.03371013792028133}},{"arcs":[[-3,35,36,37,38,39,40,41,42]],"type":"Polygon","properties":{"objectid":220045,"statename":"Uttar Pradesh","statecode":"9","districtname":"Amroha","districtcode":"137","ulbname":"Gajraula","ulbcode":"800700","wardname":"Mayapuri","wardcode":"8","id":null,"status":"APPROVED","misglobalid":null,"approved_by":null,"createdate":1647244186000,"updateddate":1653116389000,"globalid":null,"gisglobalid":"lBRBmooa-nsBn-Pdm5-QdsP-sossmo4PaRsn","remark":"","st_area(shape)":0.00006057532123537474,"st_perimeter(shape)":0.04462423381065798}},{"arcs":[[-1,-5,43,44,45,46,47,0]],"type":"Polygon","properties":{"objectid":219634,"statename":"Uttar Pradesh","statecode":"9","districtname":"Amroha","districtcode":"137","ulbname":"Gajraula","ulbcode":"800700","wardname":"Naibasti","wardcode":"9","id":null,"status":"APPROVED","misglobalid":null,"approved_by":null,"createdate":1647244186000,"updateddate":1653116421000,"globalid":null,"gisglobalid":"5llP54Qm-PKo4-P6K5-ss6d-5aRP5sos6ddo","remark":"","st_area(shape)":0.00002853972156017623,"st_perimeter(shape)":0.02975867257791432}},{"arcs":[[48,-7,49,50,51,52,53,54,-42]],"type":"Polygon","properties":{"objectid":221230,"statename":"Uttar Pradesh","statecode":"9","districtname":"Amroha","districtcode":"137","ulbname":"Gajraula","ulbcode":"800700","wardname":"Tigariya Bhood","wardcode":"10","id":null,"status":"APPROVED","misglobalid":null,"approved_by":null,"createdate":1647244186000,"updateddate":1653116430000,"globalid":null,"gisglobalid":"d65mcKK4-5lcc-PKso-R465-KalKPPd5Qs66","remark":"","st_area(shape)":0.0002157450042060698,"st_perimeter(shape)":0.07850345239296057}},{"arcs":[[55,56,-36,-2,57,-48]],"type":"Polygon","properties":{"objectid":219632,"statename":"Uttar Pradesh","statecode":"9","districtname":"Amroha","districtcode":"137","ulbname":"Gajraula","ulbcode":"800700","wardname":"Mahajan Basti","wardcode":"11","id":null,"status":"APPROVED","misglobalid":null,"approved_by":null,"createdate":1647244186000,"updateddate":1653116440000,"globalid":null,"gisglobalid":"PKo4Bmn6-la44-PnaQ-Q54K-PR4BndQs45RB","remark":"","st_area(shape)":0.00000537122307218938,"st_perimeter(shape)":0.012518828383930246}},{"arcs":[[-10,58,59,60,61,62,63,-51,64]],"type":"Polygon","properties":{"objectid":220431,"statename":"Uttar Pradesh","statecode":"9","districtname":"Amroha","districtcode":"137","ulbname":"Gajraula","ulbcode":"800700","wardname":"Atarpura","wardcode":"12","id":null,"status":"APPROVED","misglobalid":null,"approved_by":null,"createdate":1647244186000,"updateddate":1653116461000,"globalid":null,"gisglobalid":"5445mdsc-cKo5-Ploo-sRn5-m5B55sd4Qcsc","remark":"","st_area(shape)":0.00002234060164864994,"st_perimeter(shape)":0.019979075393475664}},{"arcs":[[65,66,67,-12]],"type":"Polygon","properties":{"objectid":216099,"statename":"Uttar Pradesh","statecode":"9","districtname":"Amroha","districtcode":"137","ulbname":"Gajraula","ulbcode":"800700","wardname":"Budhnagar","wardcode":"13","id":null,"status":"APPROVED","misglobalid":null,"approved_by":null,"createdate":1647244186000,"updateddate":1653116471000,"globalid":null,"gisglobalid":"6annnmcB-Ps6K-PRPm-aBlQ-onQR5lodas4n","remark":"","st_area(shape)":0.00007045398768074733,"st_perimeter(shape)":0.046140402627468165}},{"arcs":[[-30,-20,68,69,70]],"type":"Polygon","properties":{"objectid":221232,"statename":"Uttar Pradesh","statecode":"9","districtname":"Amroha","districtcode":"137","ulbname":"Gajraula","ulbcode":"800700","wardname":"Bhanpur","wardcode":"14","id":null,"status":"APPROVED","misglobalid":null,"approved_by":null,"createdate":1647244186000,"updateddate":1653116482000,"globalid":null,"gisglobalid":"B4sP5lQm-R566-Pcnc-ad6s-Rmmmsd64Qla4","remark":"","st_area(shape)":0.00007379048385144045,"st_perimeter(shape)":0.042426282377652946}},{"arcs":[[71,72,-28,73,-70,74,75,-34,76,77,78]],"type":"Polygon","properties":{"objectid":219630,"statename":"Uttar Pradesh","statecode":"9","districtname":"Amroha","districtcode":"137","ulbname":"Gajraula","ulbcode":"800700","wardname":"Safi Nagar","wardcode":"15","id":null,"status":"APPROVED","misglobalid":null,"approved_by":null,"createdate":1647244186000,"updateddate":1653126722000,"globalid":null,"gisglobalid":"lcnoaKno-Poc6-PQsd-RcPn-mQlalcPBma6c","remark":"","st_area(shape)":0.00004619799995792633,"st_perimeter(shape)":0.04364110050541006}},{"arcs":[[79,80,81,82,83]],"type":"Polygon","properties":{"objectid":220832,"statename":"Uttar Pradesh","statecode":"9","districtname":"Amroha","districtcode":"137","ulbname":"Gajraula","ulbcode":"800700","wardname":"Azad Nagar","wardcode":"16","id":null,"status":"APPROVED","misglobalid":null,"approved_by":null,"createdate":1647244186000,"updateddate":1653126730000,"globalid":null,"gisglobalid":"6QQsQ6mK-m4ca-PRnd-RnoK-RRP45l56QamQ","remark":"","st_area(shape)":0.00006270821139108019,"st_perimeter(shape)":0.041956558937789566}},{"arcs":[[-40,84,85,86,-84,87,88]],"type":"Polygon","properties":{"objectid":221233,"statename":"Uttar Pradesh","statecode":"9","districtname":"Amroha","districtcode":"137","ulbname":"Gajraula","ulbcode":"800700","wardname":"Lohiya Nagar","wardcode":"17","id":null,"status":"APPROVED","misglobalid":null,"approved_by":null,"createdate":1647244186000,"updateddate":1653126738000,"globalid":null,"gisglobalid":"Pdnldsm6-PQcc-Pmo6-sa6o-dnd5RamBdadd","remark":"","st_area(shape)":0.00002260183553043753,"st_perimeter(shape)":0.021774602329626268}},{"arcs":[[-16,89,90,91,92,-33,93,-21,94]],"type":"Polygon","properties":{"objectid":219631,"statename":"Uttar Pradesh","statecode":"9","districtname":"Amroha","districtcode":"137","ulbname":"Gajraula","ulbcode":"800700","wardname":"Chaupala","wardcode":"18","id":null,"status":"APPROVED","misglobalid":null,"approved_by":null,"createdate":1647244186000,"updateddate":1653126746000,"globalid":null,"gisglobalid":"66damocQ-6PoP-Pacd-s544-nQ5B5RRscd4a","remark":"","st_area(shape)":0.000050055894662110415,"st_perimeter(shape)":0.03266393443262744}},{"arcs":[[95,96,-60,-83,97]],"type":"Polygon","properties":{"objectid":219633,"statename":"Uttar Pradesh","statecode":"9","districtname":"Amroha","districtcode":"137","ulbname":"Gajraula","ulbcode":"800700","wardname":"Indra Chowk","wardcode":"19","id":null,"status":"APPROVED","misglobalid":null,"approved_by":null,"createdate":1647244186000,"updateddate":1653126754000,"globalid":null,"gisglobalid":"adBcmaKo-ocKs-P4Po-Q6lR-lKlPcKdRmldP","remark":"","st_area(shape)":0.000008347206267303191,"st_perimeter(shape)":0.012418314469495898}},{"arcs":[[-80,-87,98,-46,99,100]],"type":"Polygon","properties":{"objectid":215705,"statename":"Uttar Pradesh","statecode":"9","districtname":"Amroha","districtcode":"137","ulbname":"Gajraula","ulbcode":"800700","wardname":"Avantika Nagar","wardcode":"20","id":null,"status":"APPROVED","misglobalid":null,"approved_by":null,"createdate":1647244186000,"updateddate":1653126766000,"globalid":null,"gisglobalid":"4RoancRR-maQB-PcQs-a5oR-c4dmsoaclcRR","remark":"","st_area(shape)":0.000025184336659847472,"st_perimeter(shape)":0.023001227985517864}},{"arcs":[[-96,101,-25,102,-72,-62,103]],"type":"Polygon","properties":{"objectid":216100,"statename":"Uttar Pradesh","statecode":"9","districtname":"Amroha","districtcode":"137","ulbname":"Gajraula","ulbcode":"800700","wardname":"Budh Bazar","wardcode":"21","id":null,"status":"APPROVED","misglobalid":null,"approved_by":null,"createdate":1647244186000,"updateddate":1653126777000,"globalid":null,"gisglobalid":"RBRnmPmQ-Pdc5-Pm4m-RolB-moPnoPoBlK5l","remark":"","st_area(shape)":0.000014648731812685144,"st_perimeter(shape)":0.01814161788904949}},{"arcs":[[104,105,-77,-93,106]],"type":"Polygon","properties":{"objectid":221624,"statename":"Uttar Pradesh","statecode":"9","districtname":"Amroha","districtcode":"137","ulbname":"Gajraula","ulbcode":"800700","wardname":"Laxmi Nagar","wardcode":"22","id":null,"status":"APPROVED","misglobalid":null,"approved_by":null,"createdate":1647244186000,"updateddate":1653126786000,"globalid":null,"gisglobalid":"KKKnBKKQ-PllQ-PlPR-aonn-BcRlR5n4Ba4m","remark":"","st_area(shape)":0.000019063066942310243,"st_perimeter(shape)":0.019546630199519938}},{"arcs":[[-38,107,-56,-47,-99,-86,108]],"type":"Polygon","properties":{"objectid":221627,"statename":"Uttar Pradesh","statecode":"9","districtname":"Amroha","districtcode":"137","ulbname":"Gajraula","ulbcode":"800700","wardname":"Sant Nagar","wardcode":"23","id":null,"status":"APPROVED","misglobalid":null,"approved_by":null,"createdate":1647244186000,"updateddate":1653126798000,"globalid":null,"gisglobalid":"a4RnKP6o-PRmP-PBPQ-s5n4-adlK6ncP6lBc","remark":"","st_area(shape)":0.000004996000804018506,"st_perimeter(shape)":0.009359059076090193}},{"arcs":[[-100,-45,109]],"type":"Polygon","properties":{"objectid":220433,"statename":"Uttar Pradesh","statecode":"9","districtname":"Amroha","districtcode":"137","ulbname":"Gajraula","ulbcode":"800700","wardname":"Jalal Nagar","wardcode":"24","id":null,"status":"APPROVED","misglobalid":null,"approved_by":null,"createdate":1647244186000,"updateddate":1653126812000,"globalid":null,"gisglobalid":"nlo4cQsc-ndo6-P6R6-a4Bn-dl6dK4dK5dn4","remark":"","st_area(shape)":0.000026951749412926585,"st_perimeter(shape)":0.025290181216752045}},{"arcs":[[-53,110,-63,-79,111,-105,112,-91,113,-14,114,-67,115,116]],"type":"Polygon","properties":{"objectid":220831,"statename":"Uttar Pradesh","statecode":"9","districtname":"Amroha","districtcode":"137","ulbname":"Gajraula","ulbcode":"800700","wardname":"Bhartiayagram","wardcode":"25","id":null,"status":"APPROVED","misglobalid":null,"approved_by":null,"createdate":1647244186000,"updateddate":1653126823000,"globalid":null,"gisglobalid":"caonlPao-5dKB-PRom-Q5Qc-PPnn6odQn4Po","remark":"","st_area(shape)":0.00030626191916336435,"st_perimeter(shape)":0.10163137703227743}}]}}}