{"type": "FeatureCollection", "features": [{"type": "Feature", "geometry": {"type": "Polygon", "coordinates": [[[79.0509, 29.0277], [79.0508, 29.0279], [79.051, 29.0282], [79.0511, 29.0284], [79.0512, 29.0285], [79.0514, 29.0285], [79.0515, 29.0284], [79.0516, 29.0285], [79.0518, 29.0287], [79.0518, 29.0286], [79.0519, 29.0286], [79.0519, 29.0285], [79.052, 29.0285], [79.0518, 29.0283], [79.0517, 29.0281], [79.0516, 29.0279], [79.0515, 29.0277], [79.0514, 29.0276], [79.0514, 29.0275], [79.0517, 29.0273], [79.0519, 29.0271], [79.0523, 29.0269], [79.0527, 29.0267], [79.0528, 29.0265], [79.0527, 29.0265], [79.0525, 29.0264], [79.0524, 29.0263], [79.0523, 29.0263], [79.0521, 29.0262], [79.0518, 29.026], [79.0515, 29.0259], [79.0513, 29.0257], [79.051, 29.0256], [79.0509, 29.0255], [79.0508, 29.0252], [79.0506, 29.025], [79.0504, 29.0248], [79.0502, 29.0247], [79.0499, 29.0245], [79.0497, 29.0244], [79.0495, 29.0242], [79.0493, 29.024], [79.0491, 29.0237], [79.0489, 29.0235], [79.0487, 29.0234], [79.0486, 29.0234], [79.0483, 29.0232], [79.048, 29.0231], [79.0476, 29.023], [79.0473, 29.023], [79.0471, 29.023], [79.0469, 29.0229], [79.0468, 29.0231], [79.0474, 29.024], [79.048, 29.0248], [79.0481, 29.0251], [79.0483, 29.0254], [79.0489, 29.0262], [79.0493, 29.0269], [79.0498, 29.0276], [79.0501, 29.0277], [79.0503, 29.0277], [79.0505, 29.0277], [79.0507, 29.0277], [79.0508, 29.0277], [79.0509, 29.0277]]]}, "properties": {"objectid": 114848, "statename": "Uttar Pradesh", "statecode": "9", "districtname": "Rampur", "districtcode": "136", "ulbname": "Suar", "ulbcode": "800691", "wardname": "Mohalla Swar Khas", "wardcode": "1", "id": null, "status": "APPROVED", "misglobalid": null, "approved_by": null, "createdate": 1643631553000, "updateddate": 1643641580000, "globalid": null, "gisglobalid": "s545Q6KQ-6lla-P5RQ-QdRl-mlKaBa5BKQKl", "remark": "Approved", "st_area(shape)": 1.1872615947743657e-05, "st_perimeter(shape)": 0.01893118829613009}}, {"type": "Feature", "geometry": {"type": "Polygon", "coordinates": [[[79.0584, 29.0268], [79.0581, 29.0269], [79.0578, 29.027], [79.0576, 29.0271], [79.0574, 29.0272], [79.0572, 29.0274], [79.0569, 29.0275], [79.0566, 29.0277], [79.0566, 29.0276], [79.0564, 29.0273], [79.056, 29.0275], [79.0559, 29.0275], [79.0555, 29.0277], [79.0555, 29.0279], [79.0557, 29.028], [79.0557, 29.0282], [79.0561, 29.0287], [79.0563, 29.0291], [79.0562, 29.0292], [79.0561, 29.0293], [79.0559, 29.0293], [79.0558, 29.0294], [79.0555, 29.0296], [79.0548, 29.0299], [79.0554, 29.0306], [79.0558, 29.0311], [79.0562, 29.0318], [79.0571, 29.0319], [79.0575, 29.0318], [79.0576, 29.032], [79.0581, 29.0318], [79.0585, 29.0316], [79.0587, 29.0313], [79.0589, 29.0311], [79.0592, 29.0309], [79.0594, 29.031], [79.0596, 29.031], [79.0593, 29.0301], [79.059, 29.0293], [79.0589, 29.0287], [79.0587, 29.028], [79.0586, 29.0275], [79.0584, 29.0268]]]}, "properties": {"objectid": 118094, "statename": "Uttar Pradesh", "statecode": "9", "districtname": "Rampur", "districtcode": "136", "ulbname": "Suar", "ulbcode": "800691", "wardname": "Mohalla Chak Swar First", "wardcode": "2", "id": null, "status": "APPROVED", "misglobalid": null, "approved_by": null, "createdate": 1643631662000, "updateddate": 1643641615000, "globalid": null, "gisglobalid": "BaP6mK6m-56so-PQRR-saQn-RPsB6mnnnBKo", "remark": "Approved", "st_area(shape)": 1.4831248311304502e-05, "st_perimeter(shape)": 0.017363035521204755}}, {"type": "Feature", "geometry": {"type": "Polygon", "coordinates": [[[79.0638, 29.0197], [79.0649, 29.0183], [79.0646, 29.0183], [79.0643, 29.0182], [79.0638, 29.018], [79.0632, 29.0177], [79.0628, 29.0177], [79.0621, 29.0177], [79.0615, 29.0177], [79.0613, 29.0179], [79.0611, 29.018], [79.0607, 29.0181], [79.0603, 29.0184], [79.0597, 29.019], [79.0595, 29.0193], [79.0593, 29.0195], [79.0589, 29.0197], [79.0586, 29.0199], [79.0584, 29.02], [79.0581, 29.0202], [79.0578, 29.0203], [79.058, 29.0219], [79.0581, 29.0237], [79.0582, 29.0248], [79.0583, 29.0262], [79.0588, 29.0261], [79.0592, 29.0259], [79.0597, 29.0258], [79.0602, 29.0256], [79.0601, 29.0253], [79.0601, 29.0252], [79.0603, 29.025], [79.06, 29.0246], [79.0603, 29.0243], [79.0606, 29.0238], [79.0606, 29.0236], [79.0607, 29.0232], [79.0611, 29.0235], [79.0614, 29.0234], [79.0614, 29.0232], [79.0613, 29.0229], [79.0612, 29.0226], [79.061, 29.0223], [79.0609, 29.0222], [79.0619, 29.0215], [79.0624, 29.0211], [79.063, 29.0205], [79.0638, 29.0197]]]}, "properties": {"objectid": 119338, "statename": "Uttar Pradesh", "statecode": "9", "districtname": "Rampur", "districtcode": "136", "ulbname": "Suar", "ulbcode": "800691", "wardname": "Aglaga Second", "wardcode": "3", "id": null, "status": "APPROVED", "misglobalid": null, "approved_by": null, "createdate": 1643640994000, "updateddate": 1643641664000, "globalid": null, "gisglobalid": "c6mKBmms-Bc6l-PB6s-QQd5-QlloQlPRaRlc", "remark": "Approved", "st_area(shape)": 2.8372598990627422e-05, "st_perimeter(shape)": 0.026611125998794154}}, {"type": "Feature", "geometry": {"type": "Polygon", "coordinates": [[[79.0565, 29.0272], [79.0564, 29.0273], [79.0565, 29.0275], [79.0566, 29.0276], [79.0566, 29.0277], [79.0571, 29.0274], [79.0576, 29.0272], [79.0579, 29.027], [79.0581, 29.0269], [79.0584, 29.0268], [79.0583, 29.0263], [79.0582, 29.0253], [79.0581, 29.0246], [79.058, 29.0237], [79.058, 29.0223], [79.0578, 29.0214], [79.0578, 29.0209], [79.0572, 29.021], [79.0568, 29.0211], [79.0561, 29.0212], [79.0555, 29.0213], [79.0551, 29.0214], [79.0547, 29.0214], [79.0539, 29.0215], [79.0536, 29.0213], [79.0537, 29.0216], [79.0542, 29.0223], [79.0546, 29.0229], [79.055, 29.0234], [79.0549, 29.0235], [79.0554, 29.0241], [79.0557, 29.0244], [79.0558, 29.0247], [79.0556, 29.0248], [79.0554, 29.025], [79.0551, 29.0252], [79.0553, 29.0255], [79.0556, 29.0258], [79.0557, 29.026], [79.0557, 29.0261], [79.0558, 29.0262], [79.0559, 29.0262], [79.056, 29.0261], [79.0561, 29.026], [79.0562, 29.026], [79.0563, 29.0259], [79.0565, 29.0261], [79.0565, 29.0262], [79.0566, 29.0262], [79.0567, 29.0262], [79.0567, 29.0261], [79.0568, 29.0261], [79.0569, 29.026], [79.057, 29.0261], [79.0571, 29.0261], [79.0572, 29.0262], [79.0574, 29.0262], [79.0576, 29.0264], [79.0577, 29.0265], [79.0576, 29.0266], [79.057, 29.0269], [79.0568, 29.027], [79.0566, 29.0271], [79.0565, 29.0272]]]}, "properties": {"objectid": 113331, "statename": "Uttar Pradesh", "statecode": "9", "districtname": "Rampur", "districtcode": "136", "ulbname": "Suar", "ulbcode": "800691", "wardname": "Chak Swar First", "wardcode": "4", "id": null, "status": "APPROVED", "misglobalid": null, "approved_by": null, "createdate": 1643631822000, "updateddate": 1643641691000, "globalid": null, "gisglobalid": "ala54BPR-RKaB-PRm5-a6Rs-llKmRPodc6Ko", "remark": "Approved", "st_area(shape)": 1.6519547119197328e-05, "st_perimeter(shape)": 0.02288004256251703}}, {"type": "Feature", "geometry": {"type": "Polygon", "coordinates": [[[79.0557, 29.0282], [79.0556, 29.0282], [79.0555, 29.0283], [79.0554, 29.0282], [79.0553, 29.0282], [79.0552, 29.0283], [79.0551, 29.0283], [79.055, 29.0283], [79.0549, 29.0282], [79.0548, 29.0281], [79.0547, 29.0282], [79.0544, 29.0284], [79.0543, 29.0286], [79.0544, 29.0288], [79.0544, 29.029], [79.0544, 29.0291], [79.0545, 29.0292], [79.0545, 29.0293], [79.0545, 29.0294], [79.0546, 29.0295], [79.0545, 29.0295], [79.0545, 29.0296], [79.0545, 29.0297], [79.0546, 29.0297], [79.0546, 29.0298], [79.0546, 29.0299], [79.0546, 29.03], [79.0548, 29.0299], [79.0551, 29.0297], [79.0556, 29.0295], [79.0559, 29.0293], [79.0561, 29.0292], [79.0563, 29.0291], [79.0562, 29.0289], [79.056, 29.0286], [79.0557, 29.0282]]]}, "properties": {"objectid": 119677, "statename": "Uttar Pradesh", "statecode": "9", "districtname": "Rampur", "districtcode": "136", "ulbname": "Suar", "ulbcode": "800691", "wardname": "Chak Swar Sixth", "wardcode": "5", "id": null, "status": "APPROVED", "misglobalid": null, "approved_by": null, "createdate": 1643631920000, "updateddate": 1643641704000, "globalid": null, "gisglobalid": "5B4smPdd-5oQ4-P4ns-RcsP-Boddao6slnPm", "remark": "Approved", "st_area(shape)": 2.2469042081642673e-06, "st_perimeter(shape)": 0.006375928798812187}}, {"type": "Feature", "geometry": {"type": "Polygon", "coordinates": [[[79.0512, 29.0285], [79.0508, 29.028], [79.0507, 29.0281], [79.0506, 29.0283], [79.0505, 29.0284], [79.0504, 29.0287], [79.0503, 29.0289], [79.0501, 29.0292], [79.05, 29.0293], [79.0499, 29.03], [79.0499, 29.0302], [79.0498, 29.0303], [79.0499, 29.0303], [79.0504, 29.03], [79.0509, 29.0297], [79.0513, 29.0294], [79.0516, 29.0292], [79.0518, 29.0291], [79.0519, 29.0291], [79.052, 29.029], [79.0522, 29.0289], [79.0524, 29.0287], [79.0525, 29.0287], [79.0527, 29.0286], [79.0528, 29.0287], [79.0529, 29.0287], [79.053, 29.0288], [79.0531, 29.0289], [79.0533, 29.029], [79.0534, 29.0289], [79.0535, 29.0288], [79.0537, 29.0287], [79.0538, 29.0286], [79.0539, 29.0285], [79.054, 29.0285], [79.0541, 29.0285], [79.054, 29.0284], [79.0539, 29.0283], [79.0538, 29.0282], [79.0538, 29.0281], [79.0538, 29.028], [79.0537, 29.028], [79.0535, 29.028], [79.0532, 29.028], [79.0531, 29.0281], [79.0529, 29.0282], [79.0528, 29.0283], [79.0527, 29.0285], [79.0527, 29.0286], [79.0526, 29.0286], [79.0525, 29.0287], [79.0523, 29.0287], [79.0523, 29.0286], [79.0521, 29.0285], [79.052, 29.0285], [79.0519, 29.0286], [79.0518, 29.0287], [79.0515, 29.0284], [79.0512, 29.0285]]]}, "properties": {"objectid": 118897, "statename": "Uttar Pradesh", "statecode": "9", "districtname": "Rampur", "districtcode": "136", "ulbname": "Suar", "ulbcode": "800691", "wardname": "Kashipur First", "wardcode": "6", "id": null, "status": "APPROVED", "misglobalid": null, "approved_by": null, "createdate": 1643631984000, "updateddate": 1643641752000, "globalid": null, "gisglobalid": "a6KnPoao-cdQs-P4oQ-Q6QP-amcKQQ5BKdKo", "remark": "Approved", "st_area(shape)": 3.2093658457871217e-06, "st_perimeter(shape)": 0.012216043502302685}}, {"type": "Feature", "geometry": {"type": "Polygon", "coordinates": [[[79.0621, 29.0247], [79.0624, 29.0246], [79.0627, 29.0245], [79.063, 29.0244], [79.0635, 29.024], [79.0641, 29.0238], [79.0646, 29.0236], [79.065, 29.0233], [79.0654, 29.0229], [79.0661, 29.0222], [79.0668, 29.0214], [79.0677, 29.0206], [79.068, 29.0203], [79.0685, 29.0198], [79.069, 29.0194], [79.0696, 29.0189], [79.0704, 29.0182], [79.072, 29.0167], [79.0714, 29.0161], [79.0706, 29.0151], [79.0701, 29.0142], [79.0692, 29.0134], [79.0686, 29.0137], [79.068, 29.0143], [79.0675, 29.015], [79.0672, 29.0156], [79.0669, 29.0162], [79.0665, 29.017], [79.0663, 29.0175], [79.0659, 29.0179], [79.0654, 29.0182], [79.0649, 29.0184], [79.0639, 29.0197], [79.0625, 29.0211], [79.0616, 29.0217], [79.061, 29.0222], [79.0612, 29.0226], [79.0614, 29.0229], [79.0614, 29.0233], [79.0616, 29.0234], [79.0617, 29.0236], [79.0618, 29.0237], [79.0619, 29.024], [79.062, 29.0243], [79.0621, 29.0246], [79.0621, 29.0247]]]}, "properties": {"objectid": 119339, "statename": "Uttar Pradesh", "statecode": "9", "districtname": "Rampur", "districtcode": "136", "ulbname": "Suar", "ulbcode": "800691", "wardname": "Aglaga First", "wardcode": "7", "id": null, "status": "APPROVED", "misglobalid": null, "approved_by": null, "createdate": 1643641015000, "updateddate": 1643641802000, "globalid": null, "gisglobalid": "d66K4s6B-5sdn-PmmR-a4so-sa4PPcs5R65o", "remark": "Approved", "st_area(shape)": 4.427665299946702e-05, "st_perimeter(shape)": 0.032451491393320334}}, {"type": "Feature", "geometry": {"type": "Polygon", "coordinates": [[[79.0548, 29.0249], [79.055, 29.0252], [79.0553, 29.025], [79.0554, 29.025], [79.0555, 29.0249], [79.0556, 29.0248], [79.0558, 29.0247], [79.0557, 29.0246], [79.0557, 29.0245], [79.0556, 29.0244], [79.0555, 29.0243], [79.0554, 29.0242], [79.0553, 29.024], [79.0551, 29.0237], [79.055, 29.0236], [79.0549, 29.0235], [79.055, 29.0234], [79.0546, 29.0229], [79.0542, 29.0223], [79.0539, 29.0219], [79.0535, 29.0213], [79.0533, 29.0212], [79.0531, 29.0211], [79.053, 29.021], [79.0529, 29.0209], [79.0525, 29.0212], [79.0527, 29.0214], [79.0529, 29.0216], [79.0531, 29.0219], [79.0533, 29.0221], [79.0537, 29.023], [79.0533, 29.0234], [79.0533, 29.0236], [79.0534, 29.0238], [79.0534, 29.0241], [79.053, 29.0246], [79.0531, 29.0248], [79.0533, 29.0252], [79.0534, 29.0253], [79.0535, 29.0255], [79.0536, 29.0254], [79.0538, 29.0251], [79.054, 29.0249], [79.0542, 29.0246], [79.0544, 29.0245], [79.0544, 29.0244], [79.0545, 29.0246], [79.0548, 29.0249]]]}, "properties": {"objectid": 113334, "statename": "Uttar Pradesh", "statecode": "9", "districtname": "Rampur", "districtcode": "136", "ulbname": "Suar", "ulbcode": "800691", "wardname": "Chak Swar Second", "wardcode": "8", "id": null, "status": "APPROVED", "misglobalid": null, "approved_by": null, "createdate": 1643632076000, "updateddate": 1643641821000, "globalid": null, "gisglobalid": "KnRccmnQ-nnKo-PaoK-QBaR-dKooaod45n6Q", "remark": "Approved", "st_area(shape)": 5.53156887268416e-06, "st_perimeter(shape)": 0.013820060449061184}}, {"type": "Feature", "geometry": {"type": "Polygon", "coordinates": [[[79.0533, 29.026], [79.0532, 29.0261], [79.0531, 29.0261], [79.0531, 29.0262], [79.053, 29.0263], [79.0529, 29.0264], [79.0528, 29.0265], [79.0528, 29.0266], [79.0526, 29.0267], [79.0523, 29.0269], [79.0525, 29.027], [79.0525, 29.0271], [79.0525, 29.0272], [79.0526, 29.0273], [79.0526, 29.0275], [79.0526, 29.0276], [79.0527, 29.0276], [79.0528, 29.0276], [79.0528, 29.0277], [79.053, 29.0279], [79.053, 29.028], [79.0531, 29.0281], [79.0532, 29.028], [79.0533, 29.028], [79.0535, 29.028], [79.0538, 29.028], [79.0539, 29.0279], [79.054, 29.0279], [79.0541, 29.0278], [79.0542, 29.0278], [79.0544, 29.0277], [79.0545, 29.0277], [79.0546, 29.0276], [79.0546, 29.0275], [79.0546, 29.0274], [79.0545, 29.0273], [79.0545, 29.0272], [79.0544, 29.0272], [79.0543, 29.0273], [79.0541, 29.0274], [79.0539, 29.0274], [79.0538, 29.0275], [79.0537, 29.0275], [79.0537, 29.0274], [79.0537, 29.0273], [79.0536, 29.0271], [79.0535, 29.027], [79.0535, 29.0269], [79.0534, 29.0268], [79.0534, 29.0267], [79.0534, 29.0266], [79.0535, 29.0266], [79.0535, 29.0265], [79.0534, 29.0264], [79.0534, 29.0262], [79.0533, 29.026]]]}, "properties": {"objectid": 118898, "statename": "Uttar Pradesh", "statecode": "9", "districtname": "Rampur", "districtcode": "136", "ulbname": "Suar", "ulbcode": "800691", "wardname": "Suar Khas Fourth", "wardcode": "9", "id": null, "status": "APPROVED", "misglobalid": null, "approved_by": null, "createdate": 1643632109000, "updateddate": 1643641836000, "globalid": null, "gisglobalid": "ol6BRKca-QlaK-PBd4-slRR-KcPlsPKdQsad", "remark": "Approved", "st_area(shape)": 1.9957535203568287e-06, "st_perimeter(shape)": 0.00742323325929547}}, {"type": "Feature", "geometry": {"type": "Polygon", "coordinates": [[[79.0555, 29.0276], [79.0555, 29.0277], [79.056, 29.0275], [79.0565, 29.0272], [79.0569, 29.027], [79.0572, 29.0268], [79.0574, 29.0267], [79.0576, 29.0266], [79.0577, 29.0265], [79.0576, 29.0264], [79.0574, 29.0263], [79.0574, 29.0262], [79.0572, 29.0262], [79.0571, 29.0261], [79.057, 29.0261], [79.0569, 29.026], [79.0569, 29.0261], [79.0568, 29.0261], [79.0567, 29.0262], [79.0566, 29.0262], [79.0565, 29.0262], [79.0564, 29.0261], [79.0564, 29.026], [79.0563, 29.0259], [79.0562, 29.026], [79.056, 29.0261], [79.0559, 29.0262], [79.0558, 29.0262], [79.0555, 29.0258], [79.0555, 29.0259], [79.0554, 29.0259], [79.0555, 29.0261], [79.0551, 29.0263], [79.0549, 29.0265], [79.0547, 29.0266], [79.0547, 29.0267], [79.0549, 29.0269], [79.055, 29.027], [79.055, 29.0272], [79.0551, 29.0272], [79.0552, 29.0272], [79.0553, 29.0273], [79.0553, 29.0274], [79.0555, 29.0276]]]}, "properties": {"objectid": 118103, "statename": "Uttar Pradesh", "statecode": "9", "districtname": "Rampur", "districtcode": "136", "ulbname": "Suar", "ulbcode": "800691", "wardname": "Chak Suar Fifth", "wardcode": "10", "id": null, "status": "APPROVED", "misglobalid": null, "approved_by": null, "createdate": 1643632136000, "updateddate": 1643641849000, "globalid": null, "gisglobalid": "cooP45P6-PsoQ-Pcna-Q5lm-6ac45dcKPlP4", "remark": "Approved", "st_area(shape)": 2.901671672296929e-06, "st_perimeter(shape)": 0.008073872326209371}}, {"type": "Feature", "geometry": {"type": "Polygon", "coordinates": [[[79.0594, 29.03], [79.0615, 29.0282], [79.0613, 29.0279], [79.0612, 29.0277], [79.0611, 29.0275], [79.061, 29.0274], [79.0609, 29.0274], [79.0608, 29.0274], [79.0608, 29.0273], [79.0607, 29.0271], [79.0607, 29.027], [79.0607, 29.0269], [79.0606, 29.0267], [79.0605, 29.0266], [79.0604, 29.0266], [79.0602, 29.0267], [79.06, 29.0267], [79.0597, 29.0267], [79.0593, 29.0269], [79.0591, 29.0269], [79.0588, 29.0269], [79.0585, 29.027], [79.0589, 29.0285], [79.0594, 29.03]]]}, "properties": {"objectid": 119026, "statename": "Uttar Pradesh", "statecode": "9", "districtname": "Rampur", "districtcode": "136", "ulbname": "Suar", "ulbcode": "800691", "wardname": "Rasoolpur Fourth", "wardcode": "11", "id": null, "status": "APPROVED", "misglobalid": null, "approved_by": null, "createdate": 1643641463000, "updateddate": 1643642391000, "globalid": null, "gisglobalid": "K4mmn6an-KBlP-PRas-Qmno-KlQnssBQmdQK", "remark": "Approved", "st_area(shape)": 5.746169819922368e-06, "st_perimeter(shape)": 0.010017043861439702}}, {"type": "Feature", "geometry": {"type": "Polygon", "coordinates": [[[79.0524, 29.027], [79.0523, 29.0269], [79.0522, 29.027], [79.052, 29.0271], [79.0518, 29.0272], [79.0517, 29.0273], [79.0516, 29.0273], [79.0514, 29.0275], [79.0515, 29.0277], [79.0516, 29.0279], [79.0516, 29.028], [79.0517, 29.0282], [79.0518, 29.0283], [79.052, 29.0285], [79.0522, 29.0286], [79.0524, 29.0287], [79.0527, 29.0286], [79.0527, 29.0285], [79.0528, 29.0284], [79.0529, 29.0282], [79.053, 29.0281], [79.0531, 29.0281], [79.0529, 29.0278], [79.0528, 29.0276], [79.0527, 29.0276], [79.0526, 29.0276], [79.0526, 29.0275], [79.0525, 29.0273], [79.0525, 29.0272], [79.0525, 29.0271], [79.0524, 29.027]]]}, "properties": {"objectid": 111880, "statename": "Uttar Pradesh", "statecode": "9", "districtname": "Rampur", "districtcode": "136", "ulbname": "Suar", "ulbcode": "800691", "wardname": "Swar Khas Third", "wardcode": "12", "id": null, "status": "APPROVED", "misglobalid": null, "approved_by": null, "createdate": 1643632177000, "updateddate": 1643641885000, "globalid": null, "gisglobalid": "6K6RKmon-KmP4-PcPR-QPls-odB5KmQnKaaa", "remark": "Approved", "st_area(shape)": 1.6854448713506236e-06, "st_perimeter(shape)": 0.005242513749276226}}, {"type": "Feature", "geometry": {"type": "Polygon", "coordinates": [[[79.0632, 29.0269], [79.0594, 29.03], [79.0604, 29.0337], [79.0617, 29.033], [79.0618, 29.0332], [79.0622, 29.0331], [79.0628, 29.033], [79.0628, 29.0328], [79.0634, 29.0328], [79.0638, 29.0328], [79.0638, 29.0327], [79.064, 29.0326], [79.0642, 29.0327], [79.0647, 29.0323], [79.065, 29.0325], [79.0651, 29.0324], [79.0649, 29.0315], [79.0646, 29.0301], [79.0645, 29.0296], [79.0645, 29.0293], [79.0645, 29.0288], [79.0644, 29.0285], [79.0639, 29.0278], [79.0636, 29.0272], [79.0632, 29.0269]]]}, "properties": {"objectid": 119332, "statename": "Uttar Pradesh", "statecode": "9", "districtname": "Rampur", "districtcode": "136", "ulbname": "Suar", "ulbcode": "800691", "wardname": "Rasoolpur Sixth", "wardcode": "13", "id": null, "status": "APPROVED", "misglobalid": null, "approved_by": null, "createdate": 1643641047000, "updateddate": 1643641928000, "globalid": null, "gisglobalid": "cocQsRco-6Ro5-P6mK-Qs6a-6dndal5nKlon", "remark": "Approved", "st_area(shape)": 2.3920646328091265e-05, "st_perimeter(shape)": 0.020242058045755084}}, {"type": "Feature", "geometry": {"type": "Polygon", "coordinates": [[[79.0487, 29.0234], [79.0489, 29.0235], [79.0491, 29.0237], [79.0495, 29.0242], [79.0496, 29.0243], [79.05, 29.0245], [79.0504, 29.0248], [79.0508, 29.0252], [79.0509, 29.0255], [79.0511, 29.0256], [79.0513, 29.0257], [79.0517, 29.0259], [79.0522, 29.0262], [79.0525, 29.0264], [79.0528, 29.0265], [79.0529, 29.0264], [79.053, 29.0263], [79.0531, 29.0261], [79.0533, 29.026], [79.0534, 29.0258], [79.0534, 29.0255], [79.0534, 29.0252], [79.0531, 29.0248], [79.053, 29.0246], [79.0534, 29.0241], [79.0533, 29.0235], [79.0532, 29.0235], [79.0529, 29.0234], [79.0525, 29.0236], [79.0521, 29.0238], [79.0517, 29.0241], [79.0516, 29.024], [79.0511, 29.0233], [79.0505, 29.0224], [79.0499, 29.0227], [79.0498, 29.0228], [79.0494, 29.0229], [79.0492, 29.023], [79.0489, 29.0232], [79.0487, 29.0234]]]}, "properties": {"objectid": 118904, "statename": "Uttar Pradesh", "statecode": "9", "districtname": "Rampur", "districtcode": "136", "ulbname": "Suar", "ulbcode": "800691", "wardname": "Suar Khas First", "wardcode": "14", "id": null, "status": "APPROVED", "misglobalid": null, "approved_by": null, "createdate": 1643632232000, "updateddate": 1643641977000, "globalid": null, "gisglobalid": "c4n5ncn4-K6dQ-PnBc-aPcP-Pl5lQlPscQRo", "remark": "Approved", "st_area(shape)": 9.19802578386962e-06, "st_perimeter(shape)": 0.014714854966178446}}, {"type": "Feature", "geometry": {"type": "Polygon", "coordinates": [[[79.0546, 29.0266], [79.0549, 29.0265], [79.0551, 29.0264], [79.0552, 29.0263], [79.0554, 29.0261], [79.0555, 29.0261], [79.0554, 29.0259], [79.0555, 29.0258], [79.0554, 29.0256], [79.0553, 29.0255], [79.0551, 29.0253], [79.055, 29.0251], [79.0549, 29.025], [79.0548, 29.0249], [79.0547, 29.0248], [79.0546, 29.0247], [79.0545, 29.0246], [79.0544, 29.0245], [79.0544, 29.0244], [79.0542, 29.0247], [79.0541, 29.0248], [79.054, 29.0249], [79.0539, 29.0251], [79.0537, 29.0253], [79.0536, 29.0254], [79.0535, 29.0255], [79.0537, 29.0256], [79.0538, 29.0258], [79.0539, 29.0259], [79.054, 29.026], [79.0541, 29.026], [79.0542, 29.0261], [79.0543, 29.0262], [79.0544, 29.0264], [79.0545, 29.0265], [79.0546, 29.0266]]]}, "properties": {"objectid": 117297, "statename": "Uttar Pradesh", "statecode": "9", "districtname": "Rampur", "districtcode": "136", "ulbname": "Suar", "ulbcode": "800691", "wardname": "Chak Suar Third", "wardcode": "15", "id": null, "status": "APPROVED", "misglobalid": null, "approved_by": null, "createdate": 1643632513000, "updateddate": 1643642040000, "globalid": null, "gisglobalid": "m4mPsndR-dBBs-P6nQ-s44o-Q4oQaKnmadna", "remark": "Approved", "st_area(shape)": 2.2349769515979237e-06, "st_perimeter(shape)": 0.006084750069704689}}, {"type": "Feature", "geometry": {"type": "Polygon", "coordinates": [[[79.0606, 29.0255], [79.0607, 29.0258], [79.0608, 29.0259], [79.0609, 29.0261], [79.0611, 29.0263], [79.0612, 29.0264], [79.0613, 29.0264], [79.0615, 29.0264], [79.0615, 29.0263], [79.0617, 29.0265], [79.0618, 29.0267], [79.062, 29.0267], [79.0625, 29.0267], [79.0627, 29.0268], [79.0632, 29.0268], [79.0626, 29.0261], [79.0622, 29.0257], [79.0621, 29.0256], [79.062, 29.0255], [79.0619, 29.0252], [79.0614, 29.0253], [79.0612, 29.0254], [79.061, 29.0255], [79.0606, 29.0255]]]}, "properties": {"objectid": 119340, "statename": "Uttar Pradesh", "statecode": "9", "districtname": "Rampur", "districtcode": "136", "ulbname": "Suar", "ulbcode": "800691", "wardname": "Rasoolpur Second", "wardcode": "16", "id": null, "status": "APPROVED", "misglobalid": null, "approved_by": null, "createdate": 1643641118000, "updateddate": 1643642229000, "globalid": null, "gisglobalid": "RdcR4KR6-4RB4-PK6P-QcKc-d4BsKQcsBKBP", "remark": "Approved", "st_area(shape)": 2.048076981502315e-06, "st_perimeter(shape)": 0.006812769568411589}}, {"type": "Feature", "geometry": {"type": "Polygon", "coordinates": [[[79.0651, 29.0321], [79.0655, 29.0322], [79.0657, 29.0323], [79.0671, 29.0316], [79.0664, 29.0305], [79.0693, 29.029], [79.0697, 29.0288], [79.073, 29.0273], [79.0745, 29.0297], [79.0757, 29.0291], [79.076, 29.0289], [79.0763, 29.0292], [79.0769, 29.0294], [79.0774, 29.0296], [79.0772, 29.029], [79.0777, 29.0281], [79.078, 29.028], [79.0781, 29.0279], [79.0783, 29.0279], [79.0784, 29.0278], [79.0784, 29.0277], [79.0785, 29.0277], [79.0785, 29.0274], [79.0791, 29.0271], [79.0792, 29.0272], [79.0795, 29.0271], [79.0793, 29.0267], [79.0794, 29.0266], [79.079, 29.0261], [79.0789, 29.0258], [79.0791, 29.0256], [79.0789, 29.0254], [79.0788, 29.0246], [79.0768, 29.0219], [79.0766, 29.0214], [79.0766, 29.0211], [79.0761, 29.0202], [79.0751, 29.0196], [79.0742, 29.0188], [79.0738, 29.0183], [79.0736, 29.0183], [79.0721, 29.0195], [79.0704, 29.021], [79.0692, 29.022], [79.0677, 29.0232], [79.0665, 29.0242], [79.0632, 29.0269], [79.0637, 29.0272], [79.064, 29.0278], [79.0644, 29.0284], [79.0646, 29.0288], [79.0646, 29.0296], [79.0646, 29.0301], [79.0649, 29.0313], [79.0651, 29.0321]]]}, "properties": {"objectid": 119016, "statename": "Uttar Pradesh", "statecode": "9", "districtname": "Rampur", "districtcode": "136", "ulbname": "Suar", "ulbcode": "800691", "wardname": "Naugaja", "wardcode": "17", "id": null, "status": "APPROVED", "misglobalid": null, "approved_by": null, "createdate": 1643640739000, "updateddate": 1643642242000, "globalid": null, "gisglobalid": "cl6RQKoP-Kdso-PQ5P-alRP-KBBd4cKomcso", "remark": "Approved", "st_area(shape)": 0.00011015361731438268, "st_perimeter(shape)": 0.05156272829987224}}, {"type": "Feature", "geometry": {"type": "Polygon", "coordinates": [[[79.0633, 29.0268], [79.0735, 29.0183], [79.0721, 29.0167], [79.0683, 29.0201], [79.0659, 29.0225], [79.0651, 29.0233], [79.0646, 29.0236], [79.0641, 29.0239], [79.0635, 29.0241], [79.0629, 29.0244], [79.0627, 29.0245], [79.0625, 29.0246], [79.0623, 29.0247], [79.0621, 29.0247], [79.0621, 29.0248], [79.0623, 29.0252], [79.0624, 29.0254], [79.0625, 29.0254], [79.0628, 29.0261], [79.0633, 29.0268]]]}, "properties": {"objectid": 118554, "statename": "Uttar Pradesh", "statecode": "9", "districtname": "Rampur", "districtcode": "136", "ulbname": "Suar", "ulbcode": "800691", "wardname": "Rasoolpur First", "wardcode": "18", "id": null, "status": "APPROVED", "misglobalid": null, "approved_by": null, "createdate": 1643640963000, "updateddate": 1643642255000, "globalid": null, "gisglobalid": "R6mK6Ro5-B5s6-P4Kd-QsQl-Qod5c6QQ5KQd", "remark": "Approved", "st_area(shape)": 2.4333281877383e-05, "st_perimeter(shape)": 0.03084130101029844}}, {"type": "Feature", "geometry": {"type": "Polygon", "coordinates": [[[79.0603, 29.0256], [79.0604, 29.0255], [79.0606, 29.0255], [79.061, 29.0255], [79.0614, 29.0253], [79.0619, 29.0252], [79.0621, 29.0256], [79.0623, 29.0257], [79.0626, 29.0261], [79.0632, 29.0268], [79.0625, 29.0255], [79.0624, 29.0255], [79.0621, 29.0248], [79.0621, 29.0247], [79.0621, 29.0245], [79.062, 29.0243], [79.0619, 29.024], [79.0617, 29.0236], [79.0615, 29.0234], [79.0611, 29.0235], [79.0607, 29.0233], [79.0606, 29.0236], [79.0606, 29.0238], [79.0604, 29.0241], [79.0603, 29.0243], [79.06, 29.0246], [79.0603, 29.025], [79.0601, 29.0252], [79.0602, 29.0253], [79.0601, 29.0253], [79.0603, 29.0256]]]}, "properties": {"objectid": 118203, "statename": "Uttar Pradesh", "statecode": "9", "districtname": "Rampur", "districtcode": "136", "ulbname": "Suar", "ulbcode": "800691", "wardname": "Aglaga Third", "wardcode": "19", "id": null, "status": "APPROVED", "misglobalid": null, "approved_by": null, "createdate": 1643641156000, "updateddate": 1643642270000, "globalid": null, "gisglobalid": "6mlRlo6R-KdRs-PRoR-adlQ-oKdmPlQcBQmd", "remark": "Approved", "st_area(shape)": 3.614138862315952e-06, "st_perimeter(shape)": 0.011432251935949865}}, {"type": "Feature", "geometry": {"type": "Polygon", "coordinates": [[[79.0609, 29.0261], [79.0606, 29.0262], [79.0606, 29.0263], [79.0605, 29.0263], [79.0606, 29.0266], [79.0605, 29.0266], [79.0606, 29.0267], [79.0607, 29.0269], [79.0607, 29.027], [79.0608, 29.0271], [79.0608, 29.0273], [79.0609, 29.0274], [79.061, 29.0274], [79.0611, 29.0275], [79.0613, 29.0279], [79.0614, 29.028], [79.0615, 29.0282], [79.0631, 29.0269], [79.0626, 29.0268], [79.0625, 29.0267], [79.0623, 29.0267], [79.0619, 29.0267], [79.0618, 29.0268], [79.0617, 29.0266], [79.0615, 29.0264], [79.0613, 29.0264], [79.0611, 29.0264], [79.0611, 29.0263], [79.0609, 29.0261]]]}, "properties": {"objectid": 119021, "statename": "Uttar Pradesh", "statecode": "9", "districtname": "Rampur", "districtcode": "136", "ulbname": "Suar", "ulbcode": "800691", "wardname": "Rasoolpur Third", "wardcode": "20", "id": null, "status": "APPROVED", "misglobalid": null, "approved_by": null, "createdate": 1643641206000, "updateddate": 1643642292000, "globalid": null, "gisglobalid": "oQ6nmdPP-nBnK-PoKa-Qo44-QcdslP6naBoP", "remark": "Approved", "st_area(shape)": 2.4788843233610708e-06, "st_perimeter(shape)": 0.007601576087769908}}, {"type": "Feature", "geometry": {"type": "Polygon", "coordinates": [[[79.0604, 29.0266], [79.0606, 29.0266], [79.0606, 29.0264], [79.0605, 29.0263], [79.0606, 29.0263], [79.0606, 29.0262], [79.0607, 29.0262], [79.0608, 29.0261], [79.0609, 29.0261], [79.0608, 29.026], [79.0607, 29.0259], [79.0607, 29.0258], [79.0606, 29.0256], [79.0606, 29.0255], [79.0604, 29.0256], [79.0599, 29.0258], [79.0596, 29.0259], [79.059, 29.026], [79.0583, 29.0262], [79.0585, 29.027], [79.0591, 29.0269], [79.0595, 29.0268], [79.0597, 29.0267], [79.0601, 29.0267], [79.0603, 29.0266], [79.0604, 29.0266]]]}, "properties": {"objectid": 118204, "statename": "Uttar Pradesh", "statecode": "9", "districtname": "Rampur", "districtcode": "136", "ulbname": "Suar", "ulbcode": "800691", "wardname": "Rasoolpur Fifth", "wardcode": "21", "id": null, "status": "APPROVED", "misglobalid": null, "approved_by": null, "createdate": 1643641258000, "updateddate": 1643642306000, "globalid": null, "gisglobalid": "lP56oRc6-sQdn-PRm4-adsd-asB6mQ6m5RKl", "remark": "Approved", "st_area(shape)": 2.0926698375772217e-06, "st_perimeter(shape)": 0.006725153836960736}}, {"type": "Feature", "geometry": {"type": "Polygon", "coordinates": [[[79.0534, 29.029], [79.0533, 29.029], [79.0532, 29.029], [79.0531, 29.0289], [79.0528, 29.0287], [79.0527, 29.0286], [79.0524, 29.0287], [79.0524, 29.0288], [79.0522, 29.0289], [79.052, 29.029], [79.0519, 29.0291], [79.0515, 29.0293], [79.0509, 29.0297], [79.0504, 29.03], [79.0507, 29.0304], [79.0506, 29.0307], [79.0509, 29.0313], [79.0512, 29.0318], [79.0513, 29.0319], [79.0516, 29.0322], [79.0526, 29.0316], [79.0527, 29.0315], [79.0527, 29.0314], [79.0527, 29.0313], [79.0527, 29.031], [79.0528, 29.0309], [79.0529, 29.0307], [79.053, 29.0304], [79.0532, 29.0302], [79.0533, 29.03], [79.0535, 29.0298], [79.0535, 29.0297], [79.0535, 29.0295], [79.0534, 29.0293], [79.0534, 29.029]]]}, "properties": {"objectid": 118913, "statename": "Uttar Pradesh", "statecode": "9", "districtname": "Rampur", "districtcode": "136", "ulbname": "Suar", "ulbcode": "800691", "wardname": "Kashipur Second", "wardcode": "22", "id": null, "status": "APPROVED", "misglobalid": null, "approved_by": null, "createdate": 1643634828000, "updateddate": 1643642319000, "globalid": null, "gisglobalid": "Ra5Bos4R-ln5B-PRnm-RnKR-lRsnla5onsPR", "remark": "Approved", "st_area(shape)": 6.311206742257187e-06, "st_perimeter(shape)": 0.010016167717818734}}, {"type": "Feature", "geometry": {"type": "Polygon", "coordinates": [[[79.0509, 29.0298], [79.0504, 29.03], [79.0506, 29.0304], [79.0506, 29.0307], [79.0507, 29.0309], [79.0508, 29.031], [79.0509, 29.0312], [79.0512, 29.0317], [79.0516, 29.0321], [79.0527, 29.0315], [79.0526, 29.0313], [79.0527, 29.031], [79.0529, 29.0306], [79.0531, 29.0303], [79.0533, 29.03], [79.0534, 29.0298], [79.0534, 29.0295], [79.0534, 29.0293], [79.0533, 29.0291], [79.0533, 29.029], [79.053, 29.0288], [79.0528, 29.0287], [79.0527, 29.0286], [79.0524, 29.0287], [79.0522, 29.0289], [79.0517, 29.0292], [79.0513, 29.0295], [79.0509, 29.0298]]]}, "properties": {"objectid": 118526, "statename": "Uttar Pradesh", "statecode": "9", "districtname": "Rampur", "districtcode": "136", "ulbname": "Suar", "ulbcode": "800691", "wardname": "Kashipur Second", "wardcode": "23", "id": null, "status": "APPROVED", "misglobalid": null, "approved_by": null, "createdate": 1643635613000, "updateddate": 1643642332000, "globalid": null, "gisglobalid": "Qc4alPc5-5mds-Po64-aanc-4QPcl5QQca5R", "remark": "Approved", "st_area(shape)": 6.124361627421106e-06, "st_perimeter(shape)": 0.009869477914525696}}, {"type": "Feature", "geometry": {"type": "Polygon", "coordinates": [[[79.0535, 29.0297], [79.0535, 29.0298], [79.0534, 29.0299], [79.0534, 29.03], [79.0533, 29.0301], [79.0531, 29.0303], [79.053, 29.0304], [79.0529, 29.0306], [79.0529, 29.0307], [79.0528, 29.0309], [79.0528, 29.031], [79.0527, 29.0313], [79.0527, 29.0314], [79.0528, 29.0315], [79.0516, 29.0322], [79.052, 29.0325], [79.0525, 29.0329], [79.0525, 29.033], [79.0527, 29.0332], [79.0531, 29.0341], [79.0534, 29.034], [79.0539, 29.0348], [79.0541, 29.0347], [79.0545, 29.0354], [79.0549, 29.0358], [79.055, 29.0363], [79.0557, 29.036], [79.0564, 29.0356], [79.0563, 29.0354], [79.0559, 29.0349], [79.0553, 29.034], [79.0548, 29.0333], [79.0547, 29.0331], [79.055, 29.033], [79.0548, 29.0326], [79.0546, 29.0323], [79.0544, 29.032], [79.0544, 29.0319], [79.0544, 29.0317], [79.0544, 29.0316], [79.0543, 29.0313], [79.0543, 29.0309], [79.0543, 29.0305], [79.0544, 29.0301], [79.0543, 29.0298], [79.0543, 29.0296], [79.0542, 29.0296], [79.0541, 29.0296], [79.054, 29.0297], [79.0539, 29.0298], [79.0538, 29.0298], [79.0537, 29.0298], [79.0536, 29.0297], [79.0535, 29.0297]]]}, "properties": {"objectid": 118116, "statename": "Uttar Pradesh", "statecode": "9", "districtname": "Rampur", "districtcode": "136", "ulbname": "Suar", "ulbcode": "800691", "wardname": "Kashipur Third", "wardcode": "24", "id": null, "status": "APPROVED", "misglobalid": null, "approved_by": null, "createdate": 1643633496000, "updateddate": 1643642351000, "globalid": null, "gisglobalid": "oK56n6mR-ocBB-PQ4s-Q5Km-RlPn6m4Qlc6s", "remark": "Approved", "st_area(shape)": 1.168505333307852e-05, "st_perimeter(shape)": 0.018802647412423778}}, {"type": "Feature", "geometry": {"type": "Polygon", "coordinates": [[[79.0548, 29.0299], [79.0546, 29.03], [79.0546, 29.0299], [79.0546, 29.0297], [79.0545, 29.0297], [79.0545, 29.0296], [79.0545, 29.0295], [79.0545, 29.0293], [79.0544, 29.0291], [79.0544, 29.029], [79.0543, 29.0288], [79.0543, 29.0286], [79.0541, 29.0285], [79.054, 29.0285], [79.0539, 29.0286], [79.0538, 29.0286], [79.0536, 29.0287], [79.0535, 29.0289], [79.0534, 29.029], [79.0534, 29.0292], [79.0535, 29.0295], [79.0535, 29.0296], [79.0535, 29.0297], [79.0536, 29.0297], [79.0538, 29.0298], [79.0539, 29.0297], [79.054, 29.0297], [79.0541, 29.0296], [79.0542, 29.0295], [79.0543, 29.0295], [79.0544, 29.03], [79.0543, 29.0305], [79.0543, 29.031], [79.0544, 29.0313], [79.0544, 29.0315], [79.0544, 29.0318], [79.0544, 29.0319], [79.0551, 29.033], [79.0547, 29.0332], [79.0548, 29.0333], [79.0555, 29.0343], [79.056, 29.035], [79.0565, 29.0356], [79.058, 29.0348], [79.0591, 29.0343], [79.0603, 29.0337], [79.0597, 29.0317], [79.0596, 29.031], [79.0594, 29.031], [79.0593, 29.031], [79.0592, 29.0309], [79.0589, 29.0311], [79.0587, 29.0314], [79.0585, 29.0316], [79.0581, 29.0318], [79.0576, 29.032], [79.0575, 29.0319], [79.0571, 29.0319], [79.0562, 29.0318], [79.0562, 29.0317], [79.0561, 29.0316], [79.0559, 29.0313], [79.0557, 29.0311], [79.0556, 29.0309], [79.0553, 29.0305], [79.0551, 29.0302], [79.0548, 29.0299]]]}, "properties": {"objectid": 119305, "statename": "Uttar Pradesh", "statecode": "9", "districtname": "Rampur", "districtcode": "136", "ulbname": "Suar", "ulbcode": "800691", "wardname": "Kashipur Fourth", "wardcode": "25", "id": null, "status": "APPROVED", "misglobalid": null, "approved_by": null, "createdate": 1643633594000, "updateddate": 1643642369000, "globalid": null, "gisglobalid": "anRoQQdd-mo4n-PPl6-sR4Q-dRmodmloBads", "remark": "Approved", "st_area(shape)": 1.8897473215782347e-05, "st_perimeter(shape)": 0.02467868615037866}}]}
