{"type": "FeatureCollection", "features": [{"type": "Feature", "geometry": {"type": "Polygon", "coordinates": [[[81.3288, 21.4628], [81.3285, 21.4629], [81.3284, 21.463], [81.3282, 21.4627], [81.3281, 21.4625], [81.3278, 21.462], [81.3272, 21.4616], [81.3269, 21.4615], [81.3265, 21.4613], [81.3265, 21.4609], [81.3261, 21.461], [81.3259, 21.4612], [81.3258, 21.4613], [81.3256, 21.4613], [81.3256, 21.4616], [81.3255, 21.4617], [81.3246, 21.4618], [81.3248, 21.4627], [81.3248, 21.4633], [81.3249, 21.4637], [81.325, 21.4639], [81.325, 21.4643], [81.3251, 21.4645], [81.3252, 21.4649], [81.3252, 21.465], [81.3253, 21.4653], [81.3247, 21.4656], [81.3242, 21.4659], [81.3231, 21.4665], [81.323, 21.4666], [81.322, 21.4671], [81.3217, 21.4674], [81.3215, 21.4676], [81.3212, 21.468], [81.321, 21.4683], [81.3212, 21.4685], [81.3213, 21.4687], [81.3214, 21.469], [81.3218, 21.4706], [81.3252, 21.4706], [81.3258, 21.4707], [81.3261, 21.4708], [81.3262, 21.4708], [81.3263, 21.4709], [81.3278, 21.4709], [81.3283, 21.4711], [81.3291, 21.471], [81.3293, 21.471], [81.3296, 21.4709], [81.3298, 21.4709], [81.3305, 21.4709], [81.3308, 21.4709], [81.3312, 21.471], [81.3319, 21.471], [81.3325, 21.471], [81.3326, 21.4702], [81.3326, 21.4695], [81.3327, 21.4691], [81.3327, 21.4675], [81.3327, 21.4668], [81.3327, 21.4664], [81.3328, 21.4654], [81.3328, 21.465], [81.3328, 21.4637], [81.3328, 21.4634], [81.3324, 21.4636], [81.3317, 21.4638], [81.3315, 21.4639], [81.3311, 21.464], [81.3306, 21.4642], [81.3304, 21.4634], [81.3303, 21.4631], [81.3296, 21.4632], [81.3293, 21.4632], [81.3289, 21.4632], [81.3288, 21.4628]]]}, "properties": {"objectid": 48346, "statename": "Chhattisgarh", "statecode": "22", "districtname": "Durg", "districtcode": "409", "ulbname": "Dhamdha", "ulbcode": "802003", "wardname": "Dr Bhimrao Abedkar", "wardcode": "1", "id": null, "status": "APPROVED", "misglobalid": null, "approved_by": null, "createdate": 1639630057000, "updateddate": 1643083546000, "globalid": null, "gisglobalid": "89a2c6ca-7a4f-41a5-8432-cc0339c8f442", "remark": "", "st_area(shape)": 7.865719885811296e-05, "st_perimeter(shape)": 0.040619041942107185}}, {"type": "Feature", "geometry": {"type": "Polygon", "coordinates": [[[81.3304, 21.4635], [81.3306, 21.4641], [81.3312, 21.464], [81.3317, 21.4638], [81.3324, 21.4636], [81.3328, 21.4634], [81.3329, 21.4625], [81.3327, 21.4623], [81.3327, 21.4621], [81.3325, 21.4619], [81.3325, 21.4617], [81.3324, 21.4614], [81.3324, 21.4612], [81.3323, 21.4612], [81.332, 21.4612], [81.3318, 21.4612], [81.3316, 21.4611], [81.3313, 21.4611], [81.331, 21.4611], [81.3308, 21.4611], [81.3306, 21.4611], [81.3303, 21.4612], [81.3302, 21.4612], [81.3301, 21.4611], [81.3298, 21.461], [81.3297, 21.461], [81.3294, 21.4611], [81.3293, 21.4612], [81.3297, 21.4616], [81.3297, 21.4621], [81.3298, 21.4624], [81.33, 21.4627], [81.3302, 21.4631], [81.3303, 21.4631], [81.3304, 21.4635]]]}, "properties": {"objectid": 45702, "statename": "Chhattisgarh", "statecode": "22", "districtname": "Durg", "districtcode": "409", "ulbname": "Dhamdha", "ulbcode": "802003", "wardname": "Indira Gandhi Ward", "wardcode": "2", "id": null, "status": "APPROVED", "misglobalid": null, "approved_by": null, "createdate": 1639630083000, "updateddate": 1643083656000, "globalid": null, "gisglobalid": "5d393b53-2405-48c7-a23f-cc8739d76017", "remark": "", "st_area(shape)": 7.4687492582536405e-06, "st_perimeter(shape)": 0.01119850443965375}}, {"type": "Feature", "geometry": {"type": "Polygon", "coordinates": [[[81.328, 21.4606], [81.3279, 21.4607], [81.3275, 21.4607], [81.3272, 21.4608], [81.3265, 21.4609], [81.3265, 21.4613], [81.3269, 21.4615], [81.3272, 21.4617], [81.3274, 21.4618], [81.3278, 21.4619], [81.3283, 21.4627], [81.3284, 21.463], [81.3288, 21.4628], [81.3289, 21.4632], [81.3294, 21.4632], [81.3296, 21.4632], [81.3298, 21.4631], [81.3302, 21.4631], [81.3301, 21.463], [81.33, 21.4627], [81.3298, 21.4624], [81.3297, 21.4621], [81.3297, 21.4616], [81.3293, 21.4612], [81.3294, 21.4611], [81.3294, 21.461], [81.3295, 21.4609], [81.3295, 21.4606], [81.3295, 21.4603], [81.3294, 21.46], [81.3292, 21.4601], [81.329, 21.4602], [81.3288, 21.4602], [81.3287, 21.4603], [81.3284, 21.4603], [81.3281, 21.4605], [81.328, 21.4606]]]}, "properties": {"objectid": 45703, "statename": "Chhattisgarh", "statecode": "22", "districtname": "Durg", "districtcode": "409", "ulbname": "Dhamdha", "ulbcode": "802003", "wardname": "Dr Rajendra Prasad", "wardcode": "3", "id": null, "status": "APPROVED", "misglobalid": null, "approved_by": null, "createdate": 1639630116000, "updateddate": 1643083667000, "globalid": null, "gisglobalid": "7b4d15b7-65b6-403e-801d-d2a8d6a5b89b", "remark": "", "st_area(shape)": 5.87055228051927e-06, "st_perimeter(shape)": 0.011489782734889539}}, {"type": "Feature", "geometry": {"type": "Polygon", "coordinates": [[[81.3297, 21.46], [81.3294, 21.4599], [81.3295, 21.4595], [81.3293, 21.4592], [81.3292, 21.459], [81.329, 21.4588], [81.329, 21.4587], [81.3289, 21.4587], [81.3288, 21.4587], [81.3286, 21.4587], [81.3285, 21.4587], [81.328, 21.4588], [81.328, 21.4589], [81.328, 21.459], [81.3279, 21.4592], [81.3279, 21.4594], [81.3278, 21.4596], [81.3276, 21.4598], [81.3272, 21.4601], [81.3269, 21.4603], [81.3264, 21.4604], [81.3265, 21.4606], [81.3265, 21.4609], [81.3272, 21.4608], [81.3275, 21.4607], [81.328, 21.4606], [81.3281, 21.4605], [81.3283, 21.4603], [81.3284, 21.4603], [81.3287, 21.4603], [81.329, 21.4601], [81.3295, 21.46], [81.3295, 21.4609], [81.3295, 21.461], [81.3294, 21.4611], [81.3295, 21.4611], [81.3297, 21.461], [81.3299, 21.461], [81.3302, 21.4611], [81.3303, 21.4611], [81.3307, 21.461], [81.331, 21.461], [81.3313, 21.4611], [81.3311, 21.4607], [81.3308, 21.4608], [81.3307, 21.4606], [81.3305, 21.4605], [81.3305, 21.4604], [81.3302, 21.4604], [81.33, 21.4605], [81.3298, 21.4602], [81.3297, 21.46]]]}, "properties": {"objectid": 45705, "statename": "Chhattisgarh", "statecode": "22", "districtname": "Durg", "districtcode": "409", "ulbname": "Dhamdha", "ulbcode": "802003", "wardname": "Jawaharlal Nehru Ward", "wardcode": "4", "id": null, "status": "APPROVED", "misglobalid": null, "approved_by": null, "createdate": 1639630258000, "updateddate": 1643083675000, "globalid": null, "gisglobalid": "dcd6c0d5-1ed7-4ca2-8bfb-21f5a387ef72", "remark": "", "st_area(shape)": 4.294382333372737e-06, "st_perimeter(shape)": 0.014015616829317859}}, {"type": "Feature", "geometry": {"type": "Polygon", "coordinates": [[[81.329, 21.4587], [81.3293, 21.4592], [81.3295, 21.4595], [81.3295, 21.4596], [81.3294, 21.4599], [81.3297, 21.46], [81.3298, 21.4602], [81.33, 21.4604], [81.33, 21.4605], [81.3302, 21.4604], [81.3305, 21.4604], [81.3305, 21.4605], [81.3307, 21.4606], [81.3308, 21.4608], [81.3311, 21.4607], [81.3309, 21.4603], [81.3308, 21.4598], [81.3306, 21.4596], [81.3306, 21.4595], [81.3305, 21.4592], [81.3306, 21.4588], [81.3307, 21.4584], [81.3308, 21.4581], [81.3308, 21.458], [81.3304, 21.4579], [81.3302, 21.4579], [81.3299, 21.4575], [81.3298, 21.4576], [81.3296, 21.4577], [81.3294, 21.4578], [81.3293, 21.458], [81.3293, 21.4583], [81.3292, 21.4584], [81.3291, 21.4586], [81.329, 21.4587]]]}, "properties": {"objectid": 46118, "statename": "Chhattisgarh", "statecode": "22", "districtname": "Durg", "districtcode": "409", "ulbname": "Dhamdha", "ulbcode": "802003", "wardname": "Sadar Bazar Ward", "wardcode": "5", "id": null, "status": "APPROVED", "misglobalid": null, "approved_by": null, "createdate": 1639630365000, "updateddate": 1643083687000, "globalid": null, "gisglobalid": "ffd69af3-b96a-43b2-b168-30b97e75cab0", "remark": "", "st_area(shape)": 3.6448650069791175e-06, "st_perimeter(shape)": 0.008938234825143686}}, {"type": "Feature", "geometry": {"type": "Polygon", "coordinates": [[[81.3312, 21.4598], [81.3308, 21.4598], [81.3309, 21.4602], [81.331, 21.4603], [81.3311, 21.4607], [81.3313, 21.4611], [81.3316, 21.4611], [81.332, 21.4612], [81.3322, 21.4612], [81.3324, 21.4612], [81.3325, 21.4617], [81.3325, 21.4619], [81.3327, 21.4621], [81.3327, 21.4623], [81.3329, 21.4625], [81.333, 21.4613], [81.333, 21.4611], [81.3331, 21.4609], [81.3333, 21.4606], [81.3339, 21.4592], [81.3336, 21.4592], [81.3334, 21.4592], [81.3333, 21.4593], [81.3331, 21.4593], [81.3328, 21.4594], [81.3327, 21.4595], [81.3326, 21.4596], [81.3322, 21.4597], [81.3318, 21.4598], [81.3314, 21.4597], [81.3312, 21.4598]]]}, "properties": {"objectid": 45706, "statename": "Chhattisgarh", "statecode": "22", "districtname": "Durg", "districtcode": "409", "ulbname": "Dhamdha", "ulbcode": "802003", "wardname": "Rajiv Gandhi Ward", "wardcode": "6", "id": null, "status": "APPROVED", "misglobalid": null, "approved_by": null, "createdate": 1639630436000, "updateddate": 1643083702000, "globalid": null, "gisglobalid": "90286499-1a50-4f3f-a118-cefb8c8e5ccc", "remark": "", "st_area(shape)": 4.279327599703723e-06, "st_perimeter(shape)": 0.010774857539971306}}, {"type": "Feature", "geometry": {"type": "Polygon", "coordinates": [[[81.3328, 21.465], [81.3328, 21.466], [81.3327, 21.4666], [81.3327, 21.4674], [81.3327, 21.4683], [81.3327, 21.4691], [81.3332, 21.4691], [81.3338, 21.469], [81.3338, 21.4682], [81.3337, 21.4674], [81.3341, 21.4673], [81.3343, 21.4672], [81.3348, 21.467], [81.3347, 21.4663], [81.3353, 21.466], [81.3362, 21.4652], [81.3377, 21.4641], [81.3426, 21.4639], [81.3426, 21.4595], [81.3449, 21.4573], [81.3444, 21.4564], [81.3436, 21.4563], [81.3432, 21.456], [81.3431, 21.456], [81.3428, 21.4561], [81.3425, 21.4561], [81.3423, 21.4562], [81.3421, 21.4562], [81.3419, 21.4561], [81.3419, 21.4559], [81.3418, 21.4557], [81.3418, 21.4555], [81.3419, 21.4554], [81.3419, 21.4553], [81.3418, 21.455], [81.3416, 21.4547], [81.3415, 21.4544], [81.3413, 21.4542], [81.3411, 21.4543], [81.3409, 21.4544], [81.3406, 21.4546], [81.3403, 21.4547], [81.3401, 21.4546], [81.3401, 21.4544], [81.3402, 21.4542], [81.3401, 21.454], [81.3399, 21.454], [81.3397, 21.4541], [81.3395, 21.4543], [81.3394, 21.4544], [81.339, 21.4543], [81.3387, 21.4544], [81.3385, 21.4544], [81.3383, 21.4543], [81.3384, 21.4541], [81.3384, 21.4538], [81.3386, 21.4535], [81.3389, 21.4532], [81.339, 21.4528], [81.3391, 21.4526], [81.3393, 21.4522], [81.3391, 21.4517], [81.339, 21.4513], [81.3385, 21.4508], [81.3378, 21.4506], [81.3375, 21.45], [81.3369, 21.45], [81.3364, 21.4503], [81.3358, 21.4503], [81.3358, 21.4512], [81.3357, 21.4526], [81.3356, 21.4535], [81.3356, 21.4539], [81.3356, 21.454], [81.3355, 21.4542], [81.3355, 21.4546], [81.3355, 21.4553], [81.3354, 21.4556], [81.3354, 21.4557], [81.3353, 21.4561], [81.3349, 21.457], [81.3347, 21.4574], [81.3339, 21.4591], [81.3339, 21.4592], [81.3335, 21.4601], [81.3333, 21.4606], [81.3331, 21.461], [81.3331, 21.4611], [81.333, 21.4613], [81.333, 21.4615], [81.333, 21.4621], [81.3329, 21.4624], [81.3329, 21.4628], [81.3328, 21.4636], [81.3328, 21.4649], [81.3328, 21.465]]]}, "properties": {"objectid": 45707, "statename": "Chhattisgarh", "statecode": "22", "districtname": "Durg", "districtcode": "409", "ulbname": "Dhamdha", "ulbcode": "802003", "wardname": "Mahtma Gandhi Ward", "wardcode": "7", "id": null, "status": "APPROVED", "misglobalid": null, "approved_by": null, "createdate": 1639630495000, "updateddate": 1643083712000, "globalid": null, "gisglobalid": "9fe3f2d4-2e3b-4c49-a134-57dc74a0fb82", "remark": "", "st_area(shape)": 0.00011059974393597195, "st_perimeter(shape)": 0.056809735737686516}}, {"type": "Feature", "geometry": {"type": "Polygon", "coordinates": [[[81.3326, 21.4571], [81.3326, 21.4575], [81.3327, 21.4578], [81.3324, 21.4579], [81.3322, 21.4579], [81.3321, 21.4578], [81.332, 21.4578], [81.3319, 21.4577], [81.3318, 21.4575], [81.3317, 21.4576], [81.3315, 21.4576], [81.3315, 21.4577], [81.3314, 21.4578], [81.3314, 21.4579], [81.3313, 21.458], [81.3312, 21.458], [81.331, 21.458], [81.3309, 21.4581], [81.3308, 21.458], [81.3306, 21.4588], [81.3305, 21.4592], [81.3306, 21.4595], [81.3306, 21.4596], [81.3308, 21.4598], [81.3311, 21.4598], [81.3314, 21.4597], [81.3318, 21.4597], [81.3322, 21.4597], [81.3326, 21.4596], [81.3327, 21.4595], [81.3328, 21.4594], [81.3331, 21.4593], [81.3334, 21.4592], [81.3337, 21.4592], [81.3339, 21.4592], [81.3343, 21.4584], [81.3348, 21.4572], [81.335, 21.4568], [81.3352, 21.4562], [81.3353, 21.456], [81.3354, 21.4557], [81.3354, 21.4555], [81.3355, 21.4553], [81.3344, 21.4554], [81.3342, 21.4556], [81.3338, 21.4557], [81.3335, 21.4559], [81.3334, 21.456], [81.3331, 21.4562], [81.333, 21.4564], [81.3329, 21.4565], [81.3327, 21.4565], [81.3323, 21.4566], [81.3324, 21.4569], [81.3326, 21.4571]]]}, "properties": {"objectid": 48664, "statename": "Chhattisgarh", "statecode": "22", "districtname": "Durg", "districtcode": "409", "ulbname": "Dhamdha", "ulbcode": "802003", "wardname": "Shankar Nagar Ward", "wardcode": "8", "id": null, "status": "APPROVED", "misglobalid": null, "approved_by": null, "createdate": 1639630556000, "updateddate": 1643083723000, "globalid": null, "gisglobalid": "7506ecf7-8b41-4d99-ac11-8f53143dba38", "remark": "", "st_area(shape)": 1.1013834920113252e-05, "st_perimeter(shape)": 0.016371299448174087}}, {"type": "Feature", "geometry": {"type": "Polygon", "coordinates": [[[81.3296, 21.4554], [81.3296, 21.4556], [81.3299, 21.4558], [81.33, 21.4563], [81.33, 21.4567], [81.3301, 21.4571], [81.3299, 21.4575], [81.3302, 21.4579], [81.3304, 21.4579], [81.3308, 21.4579], [81.3308, 21.458], [81.3309, 21.458], [81.3312, 21.458], [81.3313, 21.4579], [81.3314, 21.4578], [81.3315, 21.4577], [81.3315, 21.4576], [81.3317, 21.4576], [81.3319, 21.4575], [81.3319, 21.4572], [81.3319, 21.457], [81.3319, 21.4567], [81.3317, 21.4567], [81.3315, 21.4567], [81.3314, 21.4566], [81.3313, 21.4565], [81.3312, 21.4563], [81.3312, 21.4562], [81.3312, 21.4558], [81.3313, 21.4557], [81.3313, 21.4554], [81.3313, 21.4553], [81.3312, 21.4553], [81.3312, 21.4552], [81.3311, 21.4551], [81.3311, 21.455], [81.331, 21.455], [81.3309, 21.455], [81.3307, 21.4551], [81.3305, 21.4552], [81.3306, 21.4554], [81.3305, 21.4555], [81.3304, 21.4556], [81.3302, 21.4556], [81.3302, 21.4555], [81.3298, 21.4554], [81.3297, 21.4554], [81.3296, 21.4554]]]}, "properties": {"objectid": 46120, "statename": "Chhattisgarh", "statecode": "22", "districtname": "Durg", "districtcode": "409", "ulbname": "Dhamdha", "ulbcode": "802003", "wardname": "Shitala Mandir Ward", "wardcode": "9", "id": null, "status": "APPROVED", "misglobalid": null, "approved_by": null, "createdate": 1639630622000, "updateddate": 1643083731000, "globalid": null, "gisglobalid": "2ad89e2d-752c-4ea8-a7fa-c9be0529077c", "remark": "", "st_area(shape)": 4.092800421397434e-06, "st_perimeter(shape)": 0.010035605757955824}}, {"type": "Feature", "geometry": {"type": "Polygon", "coordinates": [[[81.3263, 21.456], [81.3263, 21.4562], [81.3263, 21.4563], [81.3264, 21.4567], [81.3265, 21.4571], [81.3265, 21.4572], [81.3266, 21.4574], [81.3268, 21.4575], [81.327, 21.4577], [81.3272, 21.458], [81.3275, 21.4579], [81.3276, 21.4582], [81.3276, 21.4583], [81.3274, 21.4584], [81.3272, 21.4584], [81.3271, 21.4581], [81.3267, 21.4583], [81.3266, 21.4584], [81.3265, 21.4586], [81.3265, 21.4587], [81.3265, 21.4588], [81.3265, 21.4592], [81.3264, 21.4593], [81.3263, 21.4595], [81.3263, 21.4597], [81.3263, 21.4598], [81.3263, 21.4599], [81.3263, 21.4601], [81.3263, 21.4602], [81.3264, 21.4604], [81.3269, 21.4603], [81.3272, 21.4601], [81.3273, 21.46], [81.3276, 21.4598], [81.3278, 21.4596], [81.3279, 21.4594], [81.3279, 21.4592], [81.328, 21.4589], [81.328, 21.4588], [81.3283, 21.4588], [81.3285, 21.4587], [81.3286, 21.4587], [81.3288, 21.4587], [81.3289, 21.4587], [81.329, 21.4587], [81.3291, 21.4586], [81.3292, 21.4584], [81.3293, 21.4583], [81.3293, 21.458], [81.3294, 21.4578], [81.3296, 21.4577], [81.3298, 21.4576], [81.3299, 21.4575], [81.3301, 21.4571], [81.33, 21.4567], [81.33, 21.4565], [81.33, 21.4563], [81.3299, 21.4558], [81.3296, 21.4556], [81.3295, 21.4557], [81.3291, 21.4557], [81.3282, 21.456], [81.3273, 21.4559], [81.3263, 21.456]]]}, "properties": {"objectid": 45709, "statename": "Chhattisgarh", "statecode": "22", "districtname": "Durg", "districtcode": "409", "ulbname": "Dhamdha", "ulbcode": "802003", "wardname": "Mahamaya Mandir Ward", "wardcode": "10", "id": null, "status": "APPROVED", "misglobalid": null, "approved_by": null, "createdate": 1639630710000, "updateddate": 1643083739000, "globalid": null, "gisglobalid": "92dc9649-67d1-48bd-aa8b-6674c660435d", "remark": "", "st_area(shape)": 1.081341073809161e-05, "st_perimeter(shape)": 0.016991248925601575}}, {"type": "Feature", "geometry": {"type": "Polygon", "coordinates": [[[81.3246, 21.4618], [81.3248, 21.4618], [81.3255, 21.4616], [81.3256, 21.4616], [81.3256, 21.4613], [81.3257, 21.4613], [81.3258, 21.4613], [81.3259, 21.4612], [81.3261, 21.461], [81.3265, 21.4609], [81.3265, 21.4606], [81.3264, 21.4604], [81.3263, 21.4602], [81.3263, 21.4601], [81.3263, 21.46], [81.3263, 21.4599], [81.3263, 21.4597], [81.3263, 21.4595], [81.3264, 21.4593], [81.3265, 21.4592], [81.3265, 21.4588], [81.3265, 21.4587], [81.3265, 21.4586], [81.3266, 21.4584], [81.3267, 21.4583], [81.3271, 21.4581], [81.3272, 21.4584], [81.3274, 21.4583], [81.3276, 21.4583], [81.3276, 21.4582], [81.3275, 21.4579], [81.3272, 21.458], [81.327, 21.4578], [81.3269, 21.4577], [81.3268, 21.4575], [81.3266, 21.4574], [81.3265, 21.4572], [81.3265, 21.457], [81.3265, 21.4569], [81.3264, 21.4567], [81.3264, 21.4566], [81.3263, 21.4563], [81.3263, 21.4562], [81.3263, 21.4561], [81.3263, 21.456], [81.3263, 21.4559], [81.3265, 21.4559], [81.3267, 21.4558], [81.3268, 21.4557], [81.3269, 21.4556], [81.327, 21.4555], [81.3271, 21.4555], [81.3273, 21.4555], [81.3274, 21.4555], [81.3276, 21.4555], [81.3277, 21.4555], [81.3278, 21.4555], [81.3278, 21.4554], [81.3278, 21.4552], [81.3278, 21.455], [81.3278, 21.4548], [81.3279, 21.4547], [81.3279, 21.4544], [81.3279, 21.4541], [81.3279, 21.4539], [81.3279, 21.4537], [81.328, 21.4536], [81.328, 21.4535], [81.328, 21.4532], [81.3277, 21.453], [81.3275, 21.4529], [81.3274, 21.4528], [81.3274, 21.4527], [81.3273, 21.4527], [81.327, 21.4523], [81.3267, 21.4519], [81.3265, 21.4517], [81.3263, 21.4513], [81.3261, 21.451], [81.3257, 21.4508], [81.3253, 21.4505], [81.3252, 21.4504], [81.3248, 21.4501], [81.3242, 21.4495], [81.3239, 21.4495], [81.3236, 21.4494], [81.3229, 21.4493], [81.3187, 21.4516], [81.3166, 21.452], [81.3152, 21.4522], [81.3138, 21.4521], [81.3129, 21.452], [81.3103, 21.4519], [81.3107, 21.4548], [81.3086, 21.4547], [81.3083, 21.456], [81.3086, 21.4572], [81.3103, 21.4576], [81.3102, 21.4588], [81.3093, 21.4588], [81.3097, 21.4598], [81.31, 21.4601], [81.3107, 21.4615], [81.3108, 21.4617], [81.3108, 21.4618], [81.3126, 21.4619], [81.3131, 21.462], [81.3137, 21.462], [81.3142, 21.4621], [81.3147, 21.4621], [81.3152, 21.4621], [81.3158, 21.4621], [81.3164, 21.4621], [81.3168, 21.462], [81.3176, 21.4619], [81.3182, 21.4618], [81.3187, 21.4617], [81.3193, 21.4615], [81.3197, 21.4614], [81.3202, 21.4614], [81.3205, 21.4615], [81.3208, 21.4615], [81.3215, 21.4619], [81.3216, 21.462], [81.3217, 21.4622], [81.3218, 21.4624], [81.322, 21.4627], [81.3221, 21.4629], [81.3222, 21.4629], [81.3224, 21.463], [81.3229, 21.463], [81.3233, 21.463], [81.3235, 21.463], [81.3238, 21.463], [81.3241, 21.463], [81.3244, 21.463], [81.3246, 21.4631], [81.3248, 21.4633], [81.3246, 21.4618]]]}, "properties": {"objectid": 46924, "statename": "Chhattisgarh", "statecode": "22", "districtname": "Durg", "districtcode": "409", "ulbname": "Dhamdha", "ulbcode": "802003", "wardname": "Gurughansidas Ward", "wardcode": "11", "id": null, "status": "APPROVED", "misglobalid": null, "approved_by": null, "createdate": 1639630773000, "updateddate": 1643083747000, "globalid": null, "gisglobalid": "8ae093aa-5d31-47be-9c74-5a44694c51f3", "remark": "", "st_area(shape)": 0.00018506411092602344, "st_perimeter(shape)": 0.06447194081316793}}, {"type": "Feature", "geometry": {"type": "Polygon", "coordinates": [[[81.3287, 21.4536], [81.3287, 21.4535], [81.3286, 21.4535], [81.3285, 21.4535], [81.3283, 21.4534], [81.3283, 21.4531], [81.3283, 21.4529], [81.3283, 21.4528], [81.3281, 21.4529], [81.3279, 21.4529], [81.3278, 21.4528], [81.3276, 21.4528], [81.3274, 21.4527], [81.3274, 21.4528], [81.3275, 21.4529], [81.3277, 21.453], [81.328, 21.4532], [81.328, 21.4535], [81.328, 21.4536], [81.3279, 21.4537], [81.3279, 21.4538], [81.3279, 21.4541], [81.3279, 21.4544], [81.3279, 21.4547], [81.3278, 21.4548], [81.3278, 21.455], [81.3278, 21.4554], [81.3278, 21.4555], [81.3277, 21.4555], [81.3275, 21.4555], [81.3274, 21.4555], [81.3273, 21.4555], [81.3271, 21.4555], [81.327, 21.4556], [81.3269, 21.4556], [81.3268, 21.4557], [81.3267, 21.4558], [81.3265, 21.4559], [81.3263, 21.4559], [81.3263, 21.456], [81.3273, 21.4559], [81.3282, 21.456], [81.3291, 21.4557], [81.3296, 21.4556], [81.3296, 21.4554], [81.3295, 21.4555], [81.329, 21.4554], [81.3291, 21.4551], [81.329, 21.4551], [81.3289, 21.4549], [81.3288, 21.4548], [81.3286, 21.4546], [81.3287, 21.4544], [81.3287, 21.4543], [81.3287, 21.4542], [81.3287, 21.4539], [81.3287, 21.4536]]]}, "properties": {"objectid": 45711, "statename": "Chhattisgarh", "statecode": "22", "districtname": "Durg", "districtcode": "409", "ulbname": "Dhamdha", "ulbcode": "802003", "wardname": "Jay Ambey Ward", "wardcode": "12", "id": null, "status": "APPROVED", "misglobalid": null, "approved_by": null, "createdate": 1639630845000, "updateddate": 1643083755000, "globalid": null, "gisglobalid": "fe67996f-dd08-470b-8760-c6ce1e25059f", "remark": "", "st_area(shape)": 3.2832413871223375e-06, "st_perimeter(shape)": 0.013025704944752577}}, {"type": "Feature", "geometry": {"type": "Polygon", "coordinates": [[[81.3314, 21.4538], [81.3314, 21.4535], [81.3308, 21.4533], [81.3306, 21.4533], [81.3304, 21.4532], [81.3302, 21.4531], [81.3301, 21.4531], [81.3296, 21.453], [81.3294, 21.4529], [81.3287, 21.4528], [81.3285, 21.4528], [81.3283, 21.4528], [81.3283, 21.4529], [81.3283, 21.4531], [81.3283, 21.4534], [81.3285, 21.4535], [81.3286, 21.4535], [81.3287, 21.4535], [81.3287, 21.4536], [81.3287, 21.4538], [81.3287, 21.4542], [81.3287, 21.4545], [81.3288, 21.4548], [81.3289, 21.4549], [81.329, 21.4551], [81.3291, 21.4551], [81.3291, 21.4553], [81.3295, 21.4555], [81.3296, 21.4554], [81.3297, 21.4554], [81.3298, 21.4554], [81.3302, 21.4555], [81.3302, 21.4556], [81.3304, 21.4556], [81.3305, 21.4555], [81.3306, 21.4554], [81.3305, 21.4552], [81.3306, 21.4551], [81.3307, 21.4551], [81.3308, 21.455], [81.3309, 21.455], [81.331, 21.4549], [81.3311, 21.4547], [81.3312, 21.4546], [81.3314, 21.4545], [81.3315, 21.4545], [81.3316, 21.4544], [81.3316, 21.4543], [81.3316, 21.454], [81.3315, 21.4539], [81.3314, 21.4538]]]}, "properties": {"objectid": 48347, "statename": "Chhattisgarh", "statecode": "22", "districtname": "Durg", "districtcode": "409", "ulbname": "Dhamdha", "ulbcode": "802003", "wardname": "Sahastrabahu Ward", "wardcode": "13", "id": null, "status": "APPROVED", "misglobalid": null, "approved_by": null, "createdate": 1639630910000, "updateddate": 1643083764000, "globalid": null, "gisglobalid": "4a39914a-8765-40df-a7f4-5b0065af0b57", "remark": "", "st_area(shape)": 5.9458566204175854e-06, "st_perimeter(shape)": 0.0104341478432548}}, {"type": "Feature", "geometry": {"type": "Polygon", "coordinates": [[[81.3356, 21.4535], [81.3356, 21.4534], [81.3357, 21.4529], [81.3357, 21.452], [81.3358, 21.4509], [81.3358, 21.4503], [81.3359, 21.4495], [81.3359, 21.449], [81.336, 21.448], [81.336, 21.4478], [81.336, 21.4475], [81.336, 21.4472], [81.3361, 21.4468], [81.3361, 21.4465], [81.3361, 21.4463], [81.3361, 21.446], [81.3362, 21.4456], [81.3362, 21.4454], [81.3362, 21.4453], [81.3363, 21.4451], [81.3363, 21.4449], [81.3364, 21.4447], [81.3364, 21.4445], [81.3365, 21.4442], [81.3366, 21.444], [81.3367, 21.4436], [81.3368, 21.4436], [81.3368, 21.4435], [81.3368, 21.4434], [81.3369, 21.4433], [81.337, 21.4431], [81.3371, 21.4429], [81.3373, 21.4427], [81.338, 21.4417], [81.3382, 21.4413], [81.3384, 21.441], [81.3388, 21.4405], [81.3389, 21.4403], [81.3391, 21.44], [81.3392, 21.4399], [81.3394, 21.4397], [81.3395, 21.4396], [81.3394, 21.4395], [81.3388, 21.4395], [81.3382, 21.4394], [81.3371, 21.4392], [81.3361, 21.4391], [81.3359, 21.4405], [81.3356, 21.441], [81.3344, 21.4398], [81.3333, 21.443], [81.3323, 21.4429], [81.3323, 21.4428], [81.3322, 21.4424], [81.3314, 21.4427], [81.3307, 21.4429], [81.3301, 21.443], [81.3292, 21.4431], [81.3291, 21.4431], [81.3284, 21.443], [81.3276, 21.4431], [81.3267, 21.4431], [81.3263, 21.4431], [81.3249, 21.443], [81.325, 21.4442], [81.3238, 21.4444], [81.3227, 21.4445], [81.3221, 21.4446], [81.3207, 21.445], [81.3207, 21.4452], [81.3209, 21.4455], [81.3213, 21.4462], [81.3214, 21.4464], [81.3216, 21.4467], [81.3218, 21.4476], [81.322, 21.4483], [81.322, 21.4484], [81.3221, 21.4487], [81.3222, 21.4489], [81.3224, 21.449], [81.3227, 21.4492], [81.3229, 21.4493], [81.3237, 21.4494], [81.3239, 21.4495], [81.3242, 21.4495], [81.3248, 21.4501], [81.3253, 21.4505], [81.3257, 21.4508], [81.3261, 21.451], [81.3263, 21.4513], [81.3265, 21.4517], [81.3267, 21.4518], [81.3273, 21.4527], [81.3274, 21.4527], [81.3275, 21.4527], [81.3276, 21.4528], [81.3278, 21.4528], [81.3279, 21.4529], [81.3281, 21.4529], [81.3283, 21.4528], [81.3284, 21.4528], [81.3285, 21.4528], [81.3294, 21.4529], [81.3301, 21.4531], [81.3303, 21.4531], [81.3308, 21.4533], [81.3314, 21.4535], [81.3314, 21.4538], [81.3315, 21.4539], [81.3316, 21.454], [81.3316, 21.4543], [81.3316, 21.4544], [81.3315, 21.4545], [81.3314, 21.4545], [81.3312, 21.4546], [81.3311, 21.4546], [81.3311, 21.4547], [81.331, 21.4549], [81.3311, 21.455], [81.3311, 21.4551], [81.3312, 21.4552], [81.3312, 21.4553], [81.3313, 21.4553], [81.3314, 21.4553], [81.3316, 21.4552], [81.3318, 21.4549], [81.3319, 21.4547], [81.3321, 21.4544], [81.3327, 21.4542], [81.333, 21.4541], [81.3337, 21.4543], [81.334, 21.4543], [81.3343, 21.4543], [81.3346, 21.4542], [81.3351, 21.4542], [81.3353, 21.4542], [81.3355, 21.4542], [81.3356, 21.454], [81.3356, 21.4535]]]}, "properties": {"objectid": 46125, "statename": "Chhattisgarh", "statecode": "22", "districtname": "Durg", "districtcode": "409", "ulbname": "Dhamdha", "ulbcode": "802003", "wardname": "Lalbahadur Shashtri Ward", "wardcode": "14", "id": null, "status": "APPROVED", "misglobalid": null, "approved_by": null, "createdate": 1639632104000, "updateddate": 1643083778000, "globalid": null, "gisglobalid": "d64eb68a-6090-4222-96bb-5df1e2921f36", "remark": "", "st_area(shape)": 0.0001444650899677546, "st_perimeter(shape)": 0.06277680106892986}}, {"type": "Feature", "geometry": {"type": "Polygon", "coordinates": [[[81.3355, 21.4542], [81.3346, 21.4542], [81.3343, 21.4543], [81.334, 21.4543], [81.333, 21.4541], [81.3327, 21.4542], [81.3321, 21.4544], [81.3319, 21.4547], [81.3316, 21.4552], [81.3314, 21.4553], [81.3313, 21.4553], [81.3313, 21.4557], [81.3312, 21.4558], [81.3312, 21.4562], [81.3312, 21.4563], [81.3314, 21.4566], [81.3315, 21.4567], [81.3317, 21.4567], [81.3319, 21.4567], [81.3319, 21.4572], [81.3319, 21.4575], [81.3319, 21.4576], [81.332, 21.4577], [81.3321, 21.4578], [81.3322, 21.4579], [81.3324, 21.4579], [81.3327, 21.4578], [81.3326, 21.4575], [81.3326, 21.4571], [81.3324, 21.4569], [81.3323, 21.4567], [81.3323, 21.4566], [81.3329, 21.4564], [81.3331, 21.4562], [81.3334, 21.4559], [81.3336, 21.4559], [81.3339, 21.4557], [81.3342, 21.4556], [81.3343, 21.4555], [81.3344, 21.4554], [81.335, 21.4553], [81.3355, 21.4552], [81.3355, 21.4548], [81.3355, 21.4542]]]}, "properties": {"objectid": 46126, "statename": "Chhattisgarh", "statecode": "22", "districtname": "Durg", "districtcode": "409", "ulbname": "Dhamdha", "ulbcode": "802003", "wardname": "Chandrashekhar Ward", "wardcode": "15", "id": null, "status": "APPROVED", "misglobalid": null, "approved_by": null, "createdate": 1639632181000, "updateddate": 1643083791000, "globalid": null, "gisglobalid": "586bd497-6409-480d-8867-cc06e6b8bff9", "remark": "", "st_area(shape)": 7.6159249780214765e-06, "st_perimeter(shape)": 0.014358904383570566}}]}
