{"type": "FeatureCollection", "features": [{"type": "Feature", "geometry": {"type": "Polygon", "coordinates": [[[84.0123, 21.8427], [84.0129, 21.8385], [84.014, 21.8385], [84.0149, 21.8385], [84.0165, 21.8385], [84.0167, 21.8385], [84.018, 21.8384], [84.018, 21.8387], [84.0183, 21.8387], [84.0189, 21.8386], [84.0193, 21.8385], [84.0194, 21.8376], [84.0195, 21.8369], [84.0196, 21.8359], [84.0198, 21.8352], [84.0201, 21.8345], [84.0201, 21.8343], [84.0201, 21.8336], [84.02, 21.833], [84.0214, 21.8262], [84.0213, 21.8254], [84.0214, 21.825], [84.0215, 21.8241], [84.0214, 21.824], [84.0215, 21.8234], [84.0222, 21.8214], [84.0225, 21.821], [84.0231, 21.8204], [84.0233, 21.8201], [84.0243, 21.8195], [84.0245, 21.8194], [84.0244, 21.8194], [84.0243, 21.8195], [84.0242, 21.8195], [84.0241, 21.8195], [84.024, 21.8196], [84.0239, 21.8196], [84.0237, 21.8197], [84.0233, 21.8198], [84.0231, 21.8198], [84.0229, 21.8199], [84.0228, 21.8199], [84.0227, 21.82], [84.0226, 21.82], [84.0225, 21.82], [84.0223, 21.8201], [84.0222, 21.8201], [84.022, 21.8201], [84.0219, 21.8201], [84.0219, 21.8202], [84.0218, 21.8202], [84.0217, 21.8202], [84.0215, 21.8202], [84.021, 21.8203], [84.0209, 21.8203], [84.0207, 21.8204], [84.0204, 21.8205], [84.0203, 21.8205], [84.0201, 21.8205], [84.02, 21.8205], [84.0198, 21.8205], [84.0196, 21.8206], [84.0191, 21.8207], [84.0188, 21.8207], [84.0187, 21.8208], [84.0185, 21.8208], [84.0184, 21.8208], [84.0181, 21.8209], [84.018, 21.8209], [84.0179, 21.8209], [84.0179, 21.821], [84.0178, 21.821], [84.0174, 21.821], [84.0172, 21.821], [84.0172, 21.8211], [84.0171, 21.8211], [84.0171, 21.8212], [84.017, 21.8212], [84.0169, 21.8212], [84.0168, 21.8212], [84.0166, 21.8213], [84.0166, 21.8215], [84.0163, 21.8216], [84.016, 21.8217], [84.0159, 21.8219], [84.0157, 21.822], [84.0154, 21.8222], [84.0153, 21.8223], [84.0151, 21.8224], [84.015, 21.8225], [84.0149, 21.8225], [84.0148, 21.8225], [84.0147, 21.8226], [84.0144, 21.8227], [84.0144, 21.823], [84.0141, 21.823], [84.0141, 21.8231], [84.0139, 21.8234], [84.0135, 21.8235], [84.0133, 21.8235], [84.0131, 21.8236], [84.0129, 21.8236], [84.0127, 21.8236], [84.0126, 21.8236], [84.0124, 21.8236], [84.0122, 21.8237], [84.0121, 21.8237], [84.012, 21.8237], [84.0117, 21.8237], [84.0114, 21.8237], [84.0113, 21.8238], [84.0111, 21.8238], [84.0109, 21.8239], [84.0108, 21.8239], [84.0107, 21.8239], [84.0106, 21.8239], [84.0105, 21.8239], [84.0104, 21.824], [84.0103, 21.824], [84.0102, 21.824], [84.01, 21.8241], [84.0098, 21.8242], [84.0096, 21.8243], [84.0095, 21.8243], [84.0095, 21.8244], [84.0094, 21.8245], [84.0092, 21.8245], [84.0091, 21.8245], [84.0088, 21.8246], [84.0086, 21.8246], [84.0086, 21.8247], [84.0085, 21.8247], [84.0085, 21.8249], [84.0085, 21.825], [84.0083, 21.825], [84.0082, 21.825], [84.0081, 21.825], [84.0081, 21.8251], [84.008, 21.8251], [84.0079, 21.8251], [84.0077, 21.8251], [84.0076, 21.8251], [84.0075, 21.8252], [84.0072, 21.8254], [84.007, 21.8255], [84.0069, 21.8256], [84.0068, 21.8256], [84.0068, 21.8257], [84.0067, 21.8258], [84.0065, 21.8258], [84.0065, 21.8259], [84.0064, 21.826], [84.0061, 21.8261], [84.006, 21.8261], [84.006, 21.8264], [84.006, 21.8265], [84.0059, 21.8266], [84.0057, 21.8266], [84.0055, 21.8266], [84.0053, 21.8267], [84.0052, 21.8267], [84.0052, 21.8268], [84.005, 21.8269], [84.005, 21.827], [84.005, 21.8272], [84.005, 21.8274], [84.005, 21.8275], [84.0049, 21.8277], [84.0049, 21.8279], [84.0049, 21.828], [84.0049, 21.8281], [84.0049, 21.8282], [84.0049, 21.8283], [84.0049, 21.8285], [84.0049, 21.8286], [84.0049, 21.8288], [84.0049, 21.8289], [84.0049, 21.8291], [84.0049, 21.8293], [84.0049, 21.8294], [84.0049, 21.8295], [84.0049, 21.8296], [84.0049, 21.8297], [84.0049, 21.8298], [84.0048, 21.8298], [84.0047, 21.8298], [84.0047, 21.8299], [84.0046, 21.8299], [84.0045, 21.83], [84.0044, 21.83], [84.0042, 21.8299], [84.0041, 21.83], [84.004, 21.83], [84.0039, 21.8301], [84.0039, 21.8302], [84.0039, 21.8304], [84.0038, 21.8305], [84.0038, 21.8306], [84.0037, 21.8306], [84.0036, 21.8307], [84.0035, 21.8308], [84.0034, 21.8308], [84.0034, 21.8309], [84.0032, 21.831], [84.003, 21.8312], [84.0027, 21.8314], [84.0026, 21.8315], [84.0025, 21.8315], [84.0024, 21.8316], [84.0023, 21.8317], [84.0022, 21.8318], [84.0021, 21.8319], [84.002, 21.8319], [84.002, 21.832], [84.0019, 21.8321], [84.0018, 21.8322], [84.0017, 21.8322], [84.0016, 21.8323], [84.0014, 21.8324], [84.0013, 21.8326], [84.0011, 21.8327], [84.001, 21.8328], [84.0009, 21.8328], [84.0008, 21.8329], [84.0007, 21.833], [84.0006, 21.833], [84.0005, 21.8331], [84.0004, 21.8331], [84.0004, 21.8332], [84.0002, 21.8333], [84.0002, 21.8334], [84.0, 21.8335], [84.0, 21.8336], [83.9998, 21.8338], [83.9997, 21.8338], [83.9997, 21.8339], [83.9996, 21.834], [83.9995, 21.8341], [83.9993, 21.8342], [83.9992, 21.8343], [83.9991, 21.8344], [83.999, 21.8345], [83.9988, 21.8346], [83.9987, 21.8347], [83.9986, 21.8348], [83.9985, 21.8349], [83.9985, 21.835], [83.9985, 21.8352], [83.9986, 21.8354], [83.9986, 21.8355], [83.9987, 21.8356], [83.9987, 21.8357], [83.9988, 21.8358], [83.9988, 21.8359], [83.9988, 21.836], [83.9987, 21.8362], [83.9987, 21.8363], [83.9986, 21.8367], [83.9986, 21.8369], [83.9986, 21.8373], [83.9987, 21.8376], [83.9987, 21.8378], [83.9987, 21.8379], [83.9987, 21.838], [83.9988, 21.8382], [83.9988, 21.8383], [83.9988, 21.8385], [83.9989, 21.8386], [83.9989, 21.8389], [83.9989, 21.839], [83.999, 21.8391], [83.9991, 21.8393], [83.9992, 21.8395], [83.9993, 21.8396], [83.9993, 21.8397], [83.9994, 21.84], [83.9994, 21.8402], [83.9994, 21.8404], [83.9994, 21.8406], [83.9994, 21.8408], [83.9994, 21.8409], [83.9994, 21.8411], [83.9994, 21.8412], [83.9993, 21.8412], [83.9993, 21.8413], [83.9993, 21.8414], [83.9993, 21.8415], [83.9993, 21.8416], [83.9993, 21.8417], [83.9992, 21.8418], [83.9991, 21.8418], [83.9991, 21.8419], [83.999, 21.8419], [83.999, 21.842], [83.999, 21.8423], [83.999, 21.8425], [83.9989, 21.8428], [83.9989, 21.8431], [83.9989, 21.8433], [83.9989, 21.8435], [83.9989, 21.8436], [83.9989, 21.8437], [83.9988, 21.8439], [83.9988, 21.844], [83.9987, 21.8442], [83.9987, 21.8444], [83.9986, 21.8449], [83.9985, 21.8451], [83.9985, 21.8452], [83.9985, 21.8454], [83.9985, 21.8457], [83.9984, 21.8458], [83.9984, 21.846], [83.9983, 21.8462], [83.9983, 21.8463], [84.0041, 21.8513], [84.006, 21.8526], [84.008, 21.8532], [84.0098, 21.8526], [84.0106, 21.8516], [84.0109, 21.851], [84.0116, 21.8464], [84.0123, 21.8427]]]}, "properties": {"objectid": 46899, "statename": "Odisha", "statecode": "21", "districtname": "Jharsuguda", "districtcode": "371", "ulbname": "Jharsuguda (M)", "ulbcode": "801808", "wardname": "Ward 1", "wardcode": "1", "id": null, "status": "APPROVED", "misglobalid": null, "approved_by": null, "createdate": 1639583009000, "updateddate": 1642753755000, "globalid": null, "gisglobalid": "927ba02c-d6e7-4d2d-8e7b-da93ab6c78dc", "remark": "Ward 1 (Ok)", "st_area(shape)": 0.0004443479819890086, "st_perimeter(shape)": 0.10114206512278971}}, {"type": "Feature", "geometry": {"type": "Polygon", "coordinates": [[[84.0031, 21.8599], [84.0039, 21.8575], [84.0037, 21.8562], [84.0037, 21.8548], [84.0043, 21.8543], [84.0043, 21.8538], [84.0042, 21.8518], [84.0042, 21.8513], [84.0041, 21.8513], [83.9983, 21.8463], [83.9983, 21.8464], [83.9982, 21.8466], [83.9983, 21.8467], [83.9983, 21.8468], [83.9984, 21.8468], [83.9983, 21.8469], [83.9982, 21.847], [83.9982, 21.8471], [83.9981, 21.8472], [83.998, 21.8473], [83.998, 21.8474], [83.998, 21.8475], [83.998, 21.8477], [83.998, 21.8478], [83.998, 21.8479], [83.998, 21.848], [83.9979, 21.848], [83.9978, 21.848], [83.9976, 21.8479], [83.9975, 21.8479], [83.9975, 21.8481], [83.9975, 21.8482], [83.9974, 21.8481], [83.9973, 21.8481], [83.9972, 21.8482], [83.9972, 21.8483], [83.997, 21.8484], [83.9969, 21.8486], [83.9968, 21.8487], [83.9967, 21.8487], [83.9965, 21.8487], [83.9964, 21.8487], [83.9963, 21.8487], [83.9962, 21.8487], [83.9961, 21.8487], [83.9959, 21.8488], [83.9958, 21.8488], [83.9957, 21.8489], [83.9952, 21.8489], [83.9949, 21.849], [83.9947, 21.849], [83.9947, 21.8491], [83.9946, 21.8491], [83.9944, 21.8491], [83.9943, 21.8491], [83.9941, 21.8492], [83.9939, 21.8492], [83.9937, 21.8493], [83.9935, 21.8494], [83.9934, 21.8495], [83.9931, 21.8495], [83.993, 21.8496], [83.9929, 21.8496], [83.9927, 21.8496], [83.9924, 21.8497], [83.9922, 21.8497], [83.992, 21.8498], [83.9918, 21.8498], [83.9918, 21.8499], [83.9918, 21.85], [83.9914, 21.8502], [83.991, 21.8503], [83.9905, 21.8505], [83.9903, 21.8506], [83.99, 21.8507], [83.9898, 21.8508], [83.9897, 21.8508], [83.9896, 21.8508], [83.9895, 21.8507], [83.9894, 21.8507], [83.989, 21.8507], [83.9887, 21.8506], [83.9885, 21.8507], [83.9884, 21.8508], [83.9882, 21.8509], [83.9879, 21.851], [83.9877, 21.8511], [83.9875, 21.8512], [83.9871, 21.8513], [83.987, 21.8514], [83.9868, 21.8515], [83.9867, 21.8515], [83.9866, 21.8516], [83.9865, 21.8516], [83.9863, 21.8517], [83.9862, 21.8517], [83.986, 21.8518], [83.9858, 21.8519], [83.9856, 21.8519], [83.9855, 21.852], [83.9854, 21.852], [83.9852, 21.8521], [83.985, 21.8521], [83.9849, 21.8522], [83.9846, 21.8523], [83.9844, 21.8524], [83.9843, 21.8524], [83.9843, 21.8526], [83.9843, 21.8527], [83.9843, 21.8535], [83.9843, 21.8537], [83.9843, 21.854], [83.9843, 21.8541], [83.9842, 21.8541], [83.9841, 21.8541], [83.984, 21.8541], [83.9841, 21.8541], [83.9841, 21.8543], [83.9842, 21.8544], [83.9842, 21.8546], [83.9843, 21.8547], [83.9844, 21.8552], [83.9845, 21.8554], [83.9844, 21.8554], [83.9843, 21.8556], [83.9844, 21.8558], [83.9845, 21.8562], [83.9845, 21.8564], [83.9846, 21.8565], [83.9846, 21.8567], [83.9846, 21.8569], [83.9846, 21.857], [83.9847, 21.8571], [83.9847, 21.8572], [83.9847, 21.8574], [83.9847, 21.8575], [83.9848, 21.8576], [83.9848, 21.8578], [83.9848, 21.8579], [83.9849, 21.8582], [83.9849, 21.8583], [83.985, 21.8584], [83.985, 21.8585], [83.9851, 21.8586], [83.9851, 21.8589], [83.9851, 21.8591], [83.9852, 21.8594], [83.9854, 21.8594], [83.9856, 21.8598], [83.9857, 21.8598], [83.9858, 21.8599], [83.9858, 21.86], [83.9859, 21.8601], [83.9859, 21.8602], [83.986, 21.8602], [83.986, 21.8603], [83.9861, 21.8603], [83.9861, 21.8605], [83.9862, 21.8606], [83.9862, 21.8607], [83.9862, 21.8608], [83.9863, 21.8609], [83.9864, 21.861], [83.9864, 21.8611], [83.9865, 21.8611], [83.9866, 21.8611], [83.9866, 21.8613], [83.9867, 21.8615], [83.9867, 21.8617], [83.9868, 21.8619], [83.9868, 21.8621], [83.9869, 21.8624], [83.9869, 21.8626], [83.987, 21.8629], [83.987, 21.863], [83.9872, 21.863], [83.9874, 21.863], [83.9874, 21.8628], [83.9874, 21.8627], [83.9876, 21.8627], [83.9877, 21.8627], [83.9878, 21.8626], [83.9879, 21.8626], [83.988, 21.8626], [83.988, 21.8624], [83.9883, 21.8624], [83.9884, 21.8623], [83.9883, 21.8622], [83.9883, 21.8621], [83.9885, 21.8621], [83.9887, 21.8621], [83.9888, 21.862], [83.9889, 21.862], [83.989, 21.862], [83.9892, 21.8619], [83.9893, 21.8618], [83.9894, 21.8618], [83.9895, 21.8618], [83.9896, 21.8617], [83.9897, 21.8617], [83.9897, 21.8616], [83.9898, 21.8616], [83.9901, 21.8615], [83.9904, 21.8613], [83.9907, 21.8612], [83.991, 21.8611], [83.9911, 21.8611], [83.9911, 21.861], [83.9912, 21.861], [83.9913, 21.861], [83.9914, 21.861], [83.9916, 21.8609], [83.9918, 21.8608], [83.9919, 21.8608], [83.9919, 21.8607], [83.9922, 21.8606], [83.9924, 21.8606], [83.9925, 21.8605], [83.9925, 21.8604], [83.9925, 21.8603], [83.9927, 21.8603], [83.9928, 21.8603], [83.993, 21.8603], [83.9932, 21.8603], [83.9933, 21.8602], [83.9934, 21.8602], [83.9934, 21.8603], [83.9935, 21.8603], [83.9936, 21.8603], [83.9937, 21.8603], [83.9937, 21.8601], [83.9937, 21.86], [83.9939, 21.86], [83.994, 21.86], [83.9942, 21.86], [83.9943, 21.86], [83.9944, 21.86], [83.9946, 21.86], [83.9947, 21.86], [83.9948, 21.86], [83.9949, 21.8601], [83.995, 21.8601], [83.995, 21.86], [83.9951, 21.86], [83.9951, 21.8599], [83.9952, 21.8599], [83.9952, 21.8598], [83.9953, 21.8597], [83.9954, 21.8597], [83.9957, 21.8597], [83.9959, 21.8596], [83.996, 21.8595], [83.9961, 21.8595], [83.9961, 21.8596], [83.9962, 21.8599], [83.9963, 21.8601], [83.9963, 21.8602], [83.9963, 21.8603], [83.9963, 21.8604], [83.9964, 21.8606], [83.9964, 21.8607], [83.9964, 21.8608], [83.9964, 21.8609], [83.9964, 21.861], [83.9964, 21.8611], [83.9964, 21.8612], [83.9964, 21.8613], [83.9965, 21.8615], [83.9965, 21.8616], [83.9965, 21.8617], [83.9966, 21.8618], [83.9966, 21.8619], [83.9965, 21.862], [83.9966, 21.862], [83.9967, 21.862], [83.9968, 21.8621], [83.9968, 21.8622], [83.9969, 21.8622], [83.9969, 21.8623], [83.997, 21.8623], [83.997, 21.8624], [83.9971, 21.8624], [83.9972, 21.8625], [83.9973, 21.8626], [83.9974, 21.8627], [83.9975, 21.8628], [83.9976, 21.8628], [83.9977, 21.863], [83.9978, 21.8631], [83.9978, 21.8632], [83.9978, 21.8633], [83.9979, 21.8634], [83.998, 21.8635], [83.998, 21.8636], [83.9981, 21.8636], [83.9981, 21.8637], [83.9981, 21.8638], [83.9981, 21.864], [83.9981, 21.8641], [83.9982, 21.8644], [83.9982, 21.8645], [83.9982, 21.8646], [83.9983, 21.8646], [83.9983, 21.8647], [83.9984, 21.8647], [83.9984, 21.8648], [83.9984, 21.8649], [83.9983, 21.8651], [83.9983, 21.8653], [83.9982, 21.8656], [83.9982, 21.8657], [83.9982, 21.8658], [83.9982, 21.8659], [83.9982, 21.866], [83.9982, 21.8661], [83.9982, 21.8663], [83.9984, 21.8661], [83.9992, 21.8654], [84.0, 21.8648], [84.0009, 21.8638], [84.0016, 21.863], [84.002, 21.8622], [84.0023, 21.8617], [84.0024, 21.8615], [84.0031, 21.8605], [84.0031, 21.8599]]]}, "properties": {"objectid": 46086, "statename": "Odisha", "statecode": "21", "districtname": "Jharsuguda", "districtcode": "371", "ulbname": "Jharsuguda (M)", "ulbcode": "801808", "wardname": "Ward 2", "wardcode": "2", "id": null, "status": "APPROVED", "misglobalid": null, "approved_by": null, "createdate": 1639583040000, "updateddate": 1642753852000, "globalid": null, "gisglobalid": "cceb04bc-7bf8-4ca8-b4bc-ff070b9c7040", "remark": "Ward 2 (Ok)", "st_area(shape)": 0.00023296914124582672, "st_perimeter(shape)": 0.07303028350132602}}, {"type": "Feature", "geometry": {"type": "Polygon", "coordinates": [[[84.0109, 21.851], [84.011, 21.8516], [84.0109, 21.8526], [84.0108, 21.8535], [84.0109, 21.8542], [84.0111, 21.8549], [84.0116, 21.8563], [84.0119, 21.8569], [84.0125, 21.8577], [84.0131, 21.8584], [84.0138, 21.8575], [84.0142, 21.8571], [84.0141, 21.8571], [84.0135, 21.854], [84.0132, 21.8497], [84.0131, 21.8463], [84.0128, 21.8422], [84.0131, 21.8415], [84.0131, 21.841], [84.0126, 21.8408], [84.0123, 21.8427], [84.0116, 21.8464], [84.0109, 21.8508], [84.0109, 21.851]]]}, "properties": {"objectid": 45304, "statename": "Odisha", "statecode": "21", "districtname": "Jharsuguda", "districtcode": "371", "ulbname": "Jharsuguda (M)", "ulbcode": "801808", "wardname": "Ward 3", "wardcode": "3", "id": null, "status": "APPROVED", "misglobalid": null, "approved_by": null, "createdate": 1639583052000, "updateddate": 1642753882000, "globalid": null, "gisglobalid": "e971acfc-b4de-4e8e-8263-46b42be2760d", "remark": "Ward 3 (Ok)", "st_area(shape)": 2.9813513839251334e-05, "st_perimeter(shape)": 0.036913327014438904}}, {"type": "Feature", "geometry": {"type": "Polygon", "coordinates": [[[84.0095, 21.8627], [84.0108, 21.8611], [84.0118, 21.8601], [84.0123, 21.8595], [84.0128, 21.8589], [84.0131, 21.8584], [84.0125, 21.8577], [84.0119, 21.8569], [84.0116, 21.8563], [84.0111, 21.8549], [84.0109, 21.8542], [84.0108, 21.8535], [84.0109, 21.8526], [84.011, 21.8516], [84.0109, 21.851], [84.0106, 21.8516], [84.0098, 21.8526], [84.008, 21.8532], [84.006, 21.8526], [84.0042, 21.8513], [84.0042, 21.8518], [84.0043, 21.8538], [84.0043, 21.8543], [84.0037, 21.8548], [84.0037, 21.8562], [84.0039, 21.8575], [84.0031, 21.8599], [84.0031, 21.8605], [84.0024, 21.8615], [84.0023, 21.8617], [84.0024, 21.8617], [84.0031, 21.8617], [84.0031, 21.8621], [84.0034, 21.8626], [84.004, 21.8627], [84.0046, 21.8627], [84.0051, 21.8629], [84.0055, 21.8629], [84.0059, 21.8626], [84.0062, 21.8624], [84.0065, 21.8623], [84.0071, 21.8619], [84.0073, 21.8618], [84.0083, 21.8619], [84.0086, 21.8623], [84.009, 21.8623], [84.0095, 21.8627]]]}, "properties": {"objectid": 46087, "statename": "Odisha", "statecode": "21", "districtname": "Jharsuguda", "districtcode": "371", "ulbname": "Jharsuguda (M)", "ulbcode": "801808", "wardname": "Ward 4", "wardcode": "4", "id": null, "status": "APPROVED", "misglobalid": null, "approved_by": null, "createdate": 1639583069000, "updateddate": 1642753906000, "globalid": null, "gisglobalid": "3227eb8b-9789-4980-b56c-d16dee58b114", "remark": "Ward 4(Ok)", "st_area(shape)": 7.84978954011338e-05, "st_perimeter(shape)": 0.041208967152966236}}, {"type": "Feature", "geometry": {"type": "Polygon", "coordinates": [[[84.0083, 21.8619], [84.0073, 21.8618], [84.0071, 21.8619], [84.0065, 21.8623], [84.0062, 21.8624], [84.006, 21.8626], [84.0081, 21.8671], [84.0082, 21.8675], [84.008, 21.8678], [84.0076, 21.8682], [84.007, 21.8682], [84.0065, 21.8684], [84.0053, 21.8688], [84.0045, 21.8689], [84.0049, 21.8697], [84.005, 21.8703], [84.0061, 21.8726], [84.0071, 21.8748], [84.0083, 21.875], [84.0119, 21.8756], [84.0149, 21.8761], [84.0155, 21.8748], [84.016, 21.8735], [84.0162, 21.8728], [84.0165, 21.8718], [84.0167, 21.8708], [84.0167, 21.87], [84.0168, 21.8692], [84.0167, 21.8689], [84.0166, 21.8689], [84.0166, 21.8688], [84.0163, 21.8686], [84.0151, 21.8677], [84.0144, 21.8671], [84.0127, 21.8659], [84.0123, 21.8655], [84.0109, 21.8645], [84.0091, 21.8631], [84.0093, 21.8628], [84.0095, 21.8627], [84.009, 21.8623], [84.0086, 21.8623], [84.0083, 21.8619]]]}, "properties": {"objectid": 48315, "statename": "Odisha", "statecode": "21", "districtname": "Jharsuguda", "districtcode": "371", "ulbname": "Jharsuguda (M)", "ulbcode": "801808", "wardname": "Ward 5", "wardcode": "5", "id": null, "status": "APPROVED", "misglobalid": null, "approved_by": null, "createdate": 1639583084000, "updateddate": 1642753927000, "globalid": null, "gisglobalid": "e9c3805c-a4d5-4785-84ab-5c69a28c91c7", "remark": "Ward 5(Ok)", "st_area(shape)": 0.00010398021952064025, "st_perimeter(shape)": 0.04547124964011577}}, {"type": "Feature", "geometry": {"type": "Polygon", "coordinates": [[[84.0081, 21.8671], [84.006, 21.8626], [84.0059, 21.8626], [84.0055, 21.8629], [84.0051, 21.8629], [84.0046, 21.8627], [84.004, 21.8627], [84.0034, 21.8626], [84.0031, 21.8621], [84.0031, 21.8617], [84.0024, 21.8617], [84.0023, 21.8617], [84.002, 21.8622], [84.0016, 21.863], [84.0009, 21.8638], [84.0, 21.8648], [83.9992, 21.8654], [83.9984, 21.8661], [83.9982, 21.8663], [83.9982, 21.8664], [83.9982, 21.8667], [83.9982, 21.8668], [83.9982, 21.8669], [83.9982, 21.867], [83.9982, 21.8671], [83.9982, 21.8672], [83.9982, 21.8673], [83.9982, 21.8674], [83.9982, 21.8676], [83.9982, 21.8677], [83.9982, 21.8678], [83.9982, 21.8679], [83.9981, 21.868], [83.9981, 21.8681], [83.9981, 21.8682], [83.9981, 21.8683], [83.9981, 21.8684], [83.9981, 21.8685], [83.9981, 21.8686], [83.998, 21.8686], [83.998, 21.8687], [83.998, 21.869], [83.998, 21.8692], [83.998, 21.8693], [83.998, 21.8696], [83.998, 21.8698], [83.998, 21.8699], [83.998, 21.87], [83.998, 21.8701], [83.998, 21.8702], [83.998, 21.8703], [83.998, 21.8705], [83.9979, 21.8707], [83.9979, 21.8708], [83.9979, 21.8709], [83.9979, 21.871], [83.9979, 21.8711], [83.9978, 21.8711], [83.9978, 21.8713], [83.9977, 21.8714], [83.9977, 21.8716], [83.9977, 21.8719], [83.9977, 21.872], [83.9976, 21.8721], [83.9976, 21.8722], [83.9976, 21.8723], [83.9976, 21.8724], [83.9976, 21.8725], [83.9976, 21.8727], [83.9977, 21.8729], [83.9977, 21.873], [83.9978, 21.873], [83.9978, 21.8731], [83.9999, 21.8735], [84.0032, 21.874], [84.0071, 21.8748], [84.0061, 21.8726], [84.005, 21.8703], [84.0049, 21.8697], [84.0045, 21.8689], [84.0053, 21.8688], [84.0065, 21.8684], [84.007, 21.8682], [84.0076, 21.8682], [84.008, 21.8678], [84.0082, 21.8675], [84.0081, 21.8671]]]}, "properties": {"objectid": 46088, "statename": "Odisha", "statecode": "21", "districtname": "Jharsuguda", "districtcode": "371", "ulbname": "Jharsuguda (M)", "ulbcode": "801808", "wardname": "Ward 6", "wardcode": "6", "id": null, "status": "APPROVED", "misglobalid": null, "approved_by": null, "createdate": 1639583099000, "updateddate": 1642753962000, "globalid": null, "gisglobalid": "029a723d-e260-48f6-b42a-115632b18985", "remark": "Ward 6(Ok)", "st_area(shape)": 8.83722632866899e-05, "st_perimeter(shape)": 0.04320469062713812}}, {"type": "Feature", "geometry": {"type": "Polygon", "coordinates": [[[84.0149, 21.8761], [84.0119, 21.8756], [84.0083, 21.875], [84.0071, 21.8748], [84.0032, 21.874], [83.9999, 21.8735], [83.9978, 21.8731], [83.9978, 21.8732], [83.9979, 21.8735], [83.9979, 21.8737], [83.998, 21.8738], [83.998, 21.8739], [83.998, 21.874], [83.9981, 21.8742], [83.9981, 21.8743], [83.9981, 21.8744], [83.9979, 21.8744], [83.9977, 21.8745], [83.9976, 21.8744], [83.9975, 21.8745], [83.9974, 21.8745], [83.9973, 21.8745], [83.9971, 21.8745], [83.997, 21.8745], [83.9968, 21.8745], [83.9967, 21.8746], [83.9965, 21.8746], [83.9962, 21.8746], [83.9961, 21.8747], [83.996, 21.8747], [83.9958, 21.8747], [83.9955, 21.8748], [83.9954, 21.8748], [83.9952, 21.8748], [83.9951, 21.8749], [83.9949, 21.8749], [83.9948, 21.8749], [83.9947, 21.8749], [83.9946, 21.8749], [83.9943, 21.875], [83.9942, 21.875], [83.9941, 21.875], [83.9939, 21.875], [83.9937, 21.875], [83.9936, 21.8751], [83.9935, 21.8751], [83.9934, 21.8751], [83.9933, 21.8751], [83.9932, 21.8751], [83.9931, 21.8751], [83.9928, 21.8752], [83.9926, 21.8753], [83.9924, 21.8753], [83.9923, 21.8753], [83.992, 21.8754], [83.9917, 21.8754], [83.9914, 21.8754], [83.9912, 21.8754], [83.9911, 21.8754], [83.991, 21.8754], [83.9908, 21.8754], [83.9907, 21.8754], [83.9906, 21.8754], [83.9906, 21.8755], [83.9906, 21.8756], [83.9906, 21.8757], [83.9906, 21.8758], [83.9907, 21.8758], [83.9907, 21.8759], [83.9907, 21.876], [83.9908, 21.8761], [83.9909, 21.8763], [83.9909, 21.8765], [83.991, 21.8767], [83.9911, 21.8769], [83.9911, 21.877], [83.9912, 21.8772], [83.9913, 21.8774], [83.9913, 21.8775], [83.9914, 21.8777], [83.9915, 21.878], [83.9915, 21.8781], [83.9916, 21.8781], [83.9916, 21.8783], [83.9917, 21.8783], [83.9917, 21.8784], [83.9918, 21.8786], [83.9918, 21.8788], [83.9918, 21.8791], [83.9919, 21.8792], [83.9919, 21.8793], [83.9918, 21.8795], [83.9918, 21.8796], [83.9919, 21.8798], [83.992, 21.8798], [83.992, 21.8799], [83.992, 21.8801], [83.992, 21.8802], [83.992, 21.8805], [83.992, 21.8806], [83.9921, 21.8808], [83.9921, 21.881], [83.9922, 21.8811], [83.9922, 21.8813], [83.9922, 21.8815], [83.9923, 21.8817], [83.9923, 21.8819], [83.9924, 21.882], [83.9924, 21.8821], [83.9924, 21.8823], [83.9925, 21.8825], [83.9926, 21.8826], [83.9926, 21.8828], [83.9927, 21.883], [83.9927, 21.8831], [83.9927, 21.8832], [83.9928, 21.8833], [83.9928, 21.8834], [83.9928, 21.8836], [83.9928, 21.8839], [83.9928, 21.884], [83.9928, 21.8841], [83.9928, 21.8842], [83.9927, 21.8843], [83.9927, 21.8844], [83.9926, 21.8845], [83.9924, 21.8845], [83.9923, 21.8846], [83.9921, 21.8847], [83.9919, 21.8848], [83.9917, 21.8849], [83.9917, 21.885], [83.9917, 21.8851], [83.9918, 21.8853], [83.9919, 21.8855], [83.9919, 21.8856], [83.9919, 21.8857], [83.9919, 21.8858], [83.992, 21.886], [83.992, 21.8862], [83.992, 21.8864], [83.992, 21.8866], [83.992, 21.8868], [83.992, 21.887], [83.992, 21.8874], [83.992, 21.8875], [83.992, 21.8876], [83.9919, 21.8876], [83.9919, 21.8878], [83.9918, 21.8879], [83.9918, 21.8881], [83.9918, 21.8883], [83.9918, 21.8884], [83.9917, 21.8886], [83.994, 21.8889], [83.9948, 21.8889], [83.9954, 21.8891], [83.9961, 21.8893], [83.9966, 21.8892], [83.9972, 21.8889], [83.9977, 21.8888], [83.998, 21.8887], [83.9988, 21.8888], [83.9992, 21.889], [83.9995, 21.8891], [84.0001, 21.8892], [84.0009, 21.8891], [84.006, 21.8893], [84.0065, 21.8896], [84.0071, 21.8898], [84.0075, 21.8887], [84.0081, 21.8868], [84.0089, 21.8851], [84.0096, 21.8837], [84.0109, 21.8813], [84.0116, 21.88], [84.0122, 21.8789], [84.0127, 21.8783], [84.0139, 21.8773], [84.0152, 21.8763], [84.0149, 21.8761]]]}, "properties": {"objectid": 46900, "statename": "Odisha", "statecode": "21", "districtname": "Jharsuguda", "districtcode": "371", "ulbname": "Jharsuguda (M)", "ulbcode": "801808", "wardname": "Ward 7", "wardcode": "7", "id": null, "status": "APPROVED", "misglobalid": null, "approved_by": null, "createdate": 1639583116000, "updateddate": 1642753998000, "globalid": null, "gisglobalid": "e7bb20c6-3c20-42d7-9571-2e9722cc9ec8", "remark": "Ward 7(Ok)", "st_area(shape)": 0.00027347686289474625, "st_perimeter(shape)": 0.0728809389807823}}, {"type": "Feature", "geometry": {"type": "Polygon", "coordinates": [[[83.9852, 21.9035], [83.9847, 21.904], [83.9853, 21.9047], [83.986, 21.9053], [83.987, 21.9062], [83.9881, 21.9072], [83.9899, 21.9092], [83.9903, 21.9096], [83.9911, 21.9097], [83.9916, 21.9101], [83.9928, 21.9106], [83.9942, 21.9121], [83.9955, 21.9138], [83.9969, 21.9149], [83.998, 21.9155], [83.9991, 21.916], [84.0001, 21.9169], [84.0015, 21.9172], [84.0027, 21.9178], [84.0041, 21.9193], [84.0042, 21.9193], [84.0045, 21.9193], [84.0047, 21.9193], [84.005, 21.9193], [84.0052, 21.9192], [84.0053, 21.9192], [84.0056, 21.9192], [84.0058, 21.9192], [84.0059, 21.9192], [84.0061, 21.9191], [84.0063, 21.9191], [84.0065, 21.919], [84.0065, 21.9192], [84.0068, 21.9193], [84.0069, 21.9193], [84.007, 21.9192], [84.007, 21.9191], [84.0071, 21.9191], [84.0072, 21.9191], [84.0073, 21.9191], [84.0075, 21.9192], [84.0077, 21.9192], [84.0079, 21.9192], [84.008, 21.9191], [84.0077, 21.9187], [84.0076, 21.9185], [84.0073, 21.9183], [84.0072, 21.9182], [84.0071, 21.9182], [84.0069, 21.9182], [84.0068, 21.9183], [84.0066, 21.9185], [84.0065, 21.9185], [84.0064, 21.9183], [84.0064, 21.9181], [84.0063, 21.9179], [84.0062, 21.9178], [84.006, 21.9177], [84.0058, 21.9176], [84.0055, 21.9174], [84.0054, 21.9173], [84.0053, 21.9173], [84.0052, 21.9174], [84.005, 21.9175], [84.0048, 21.9177], [84.0047, 21.9178], [84.0046, 21.9178], [84.0045, 21.9177], [84.0044, 21.9176], [84.0044, 21.9173], [84.0043, 21.9171], [84.0043, 21.9169], [84.0043, 21.9168], [84.0043, 21.9167], [84.0042, 21.9165], [84.0042, 21.9164], [84.0042, 21.9162], [84.0043, 21.9162], [84.0048, 21.9162], [84.0049, 21.9162], [84.005, 21.9161], [84.005, 21.916], [84.005, 21.9158], [84.0051, 21.9156], [84.0051, 21.9155], [84.0052, 21.9155], [84.0055, 21.9154], [84.0057, 21.9154], [84.0059, 21.9153], [84.0061, 21.9153], [84.0064, 21.9153], [84.0065, 21.9153], [84.0066, 21.9152], [84.0068, 21.9151], [84.0069, 21.9149], [84.0068, 21.9149], [84.0068, 21.9148], [84.0068, 21.9147], [84.0069, 21.9146], [84.0072, 21.9145], [84.0073, 21.9145], [84.0075, 21.9144], [84.0078, 21.9141], [84.0082, 21.9139], [84.0083, 21.9138], [84.0084, 21.9137], [84.0087, 21.9138], [84.0088, 21.9138], [84.0089, 21.9137], [84.009, 21.9134], [84.0092, 21.9132], [84.0094, 21.9128], [84.0094, 21.9127], [84.0094, 21.9126], [84.0093, 21.9125], [84.0092, 21.9124], [84.0092, 21.9123], [84.0091, 21.9123], [84.0091, 21.9122], [84.0091, 21.912], [84.0091, 21.9119], [84.0091, 21.9118], [84.0092, 21.9117], [84.0093, 21.9117], [84.0094, 21.9117], [84.0095, 21.9117], [84.0096, 21.9117], [84.0098, 21.9117], [84.0099, 21.9117], [84.01, 21.9118], [84.0101, 21.912], [84.0102, 21.9121], [84.0103, 21.9122], [84.0105, 21.9123], [84.0106, 21.9123], [84.0107, 21.9123], [84.0108, 21.9123], [84.0109, 21.9122], [84.011, 21.912], [84.0111, 21.9118], [84.0112, 21.9116], [84.0113, 21.9114], [84.0114, 21.9113], [84.0113, 21.9111], [84.0114, 21.9109], [84.0115, 21.9106], [84.0116, 21.9104], [84.0116, 21.9103], [84.0117, 21.9103], [84.0119, 21.9103], [84.0122, 21.9103], [84.0126, 21.9103], [84.0127, 21.9102], [84.0128, 21.9102], [84.0128, 21.9101], [84.0128, 21.9099], [84.0129, 21.9096], [84.013, 21.9095], [84.0132, 21.9093], [84.0134, 21.9091], [84.0134, 21.909], [84.0136, 21.9087], [84.0136, 21.9084], [84.0137, 21.9082], [84.0137, 21.908], [84.0139, 21.9079], [84.0139, 21.9077], [84.0136, 21.9077], [84.0132, 21.9078], [84.0128, 21.9077], [84.0125, 21.9078], [84.0121, 21.9078], [84.0118, 21.9077], [84.0115, 21.9075], [84.0112, 21.9073], [84.0108, 21.9074], [84.0105, 21.9074], [84.0103, 21.9076], [84.0101, 21.9078], [84.01, 21.908], [84.0098, 21.9082], [84.0095, 21.9083], [84.0083, 21.9086], [84.0074, 21.9085], [84.007, 21.9084], [84.0067, 21.9084], [84.0059, 21.9082], [84.0054, 21.908], [84.0044, 21.9078], [84.004, 21.9076], [84.0037, 21.9076], [84.0031, 21.9075], [84.0027, 21.9074], [84.0026, 21.9073], [84.0024, 21.9072], [84.0021, 21.9067], [84.0019, 21.9063], [84.0018, 21.9058], [84.0018, 21.9055], [84.0018, 21.905], [84.0018, 21.9042], [84.0018, 21.904], [84.0019, 21.9037], [84.0022, 21.9027], [84.0023, 21.9022], [84.0027, 21.9013], [84.0035, 21.8995], [84.0039, 21.8985], [84.0041, 21.8979], [84.0045, 21.8968], [84.0071, 21.8898], [84.0065, 21.8896], [84.006, 21.8893], [84.0009, 21.8891], [84.0001, 21.8892], [83.9995, 21.8891], [83.9992, 21.889], [83.9988, 21.8888], [83.998, 21.8887], [83.9977, 21.8888], [83.9972, 21.8889], [83.9966, 21.8892], [83.9961, 21.8893], [83.9954, 21.8891], [83.9948, 21.8889], [83.994, 21.8889], [83.9917, 21.8886], [83.9917, 21.8887], [83.9916, 21.8889], [83.9916, 21.8891], [83.9916, 21.8894], [83.9915, 21.8896], [83.9914, 21.8903], [83.9913, 21.8909], [83.9913, 21.8912], [83.9912, 21.8917], [83.991, 21.8918], [83.9909, 21.8919], [83.9909, 21.892], [83.9908, 21.8922], [83.9907, 21.8925], [83.9906, 21.8926], [83.9904, 21.893], [83.9904, 21.8931], [83.9903, 21.8935], [83.9902, 21.8937], [83.9899, 21.894], [83.9896, 21.8943], [83.9895, 21.8944], [83.9894, 21.895], [83.9894, 21.8952], [83.9893, 21.8957], [83.9893, 21.896], [83.9893, 21.8961], [83.9892, 21.8962], [83.9892, 21.8964], [83.9892, 21.8966], [83.9893, 21.8967], [83.9893, 21.897], [83.9894, 21.8971], [83.9895, 21.8972], [83.9896, 21.8972], [83.9896, 21.8973], [83.9897, 21.8974], [83.9897, 21.8976], [83.9898, 21.8978], [83.9899, 21.8982], [83.99, 21.8984], [83.99, 21.8986], [83.9901, 21.8987], [83.99, 21.8989], [83.99, 21.899], [83.99, 21.8991], [83.99, 21.8993], [83.9901, 21.8995], [83.9901, 21.8996], [83.9901, 21.8997], [83.9901, 21.8998], [83.9899, 21.8998], [83.9896, 21.8998], [83.9895, 21.8998], [83.9894, 21.8998], [83.9892, 21.8998], [83.989, 21.9], [83.989, 21.9001], [83.9889, 21.9002], [83.9889, 21.9003], [83.9887, 21.9006], [83.9887, 21.9007], [83.9885, 21.9009], [83.9884, 21.9013], [83.9882, 21.9015], [83.9881, 21.9017], [83.988, 21.9019], [83.9879, 21.902], [83.9878, 21.9021], [83.9878, 21.9022], [83.9877, 21.9023], [83.9876, 21.9024], [83.9875, 21.9026], [83.9873, 21.9029], [83.9873, 21.903], [83.9872, 21.9031], [83.987, 21.9032], [83.9869, 21.9033], [83.9866, 21.9034], [83.9864, 21.9034], [83.9862, 21.9034], [83.9861, 21.9035], [83.986, 21.9035], [83.9859, 21.9034], [83.9856, 21.9034], [83.9856, 21.9036], [83.9855, 21.9036], [83.9852, 21.9035]]]}, "properties": {"objectid": 48316, "statename": "Odisha", "statecode": "21", "districtname": "Jharsuguda", "districtcode": "371", "ulbname": "Jharsuguda (M)", "ulbcode": "801808", "wardname": "Ward 8", "wardcode": "8", "id": null, "status": "APPROVED", "misglobalid": null, "approved_by": null, "createdate": 1639583129000, "updateddate": 1642754039000, "globalid": null, "gisglobalid": "0590dd1f-6894-4466-bf2d-7d989426a12e", "remark": "Ward 8(Ok)", "st_area(shape)": 0.0004290644824334558, "st_perimeter(shape)": 0.11900062068738128}}, {"type": "Feature", "geometry": {"type": "Polygon", "coordinates": [[[84.0289, 21.9079], [84.029, 21.9078], [84.0291, 21.9077], [84.0294, 21.9076], [84.0296, 21.9076], [84.0297, 21.9075], [84.0298, 21.9074], [84.0299, 21.9074], [84.03, 21.9072], [84.0301, 21.9072], [84.0303, 21.9071], [84.0305, 21.907], [84.0307, 21.9068], [84.0308, 21.9067], [84.0308, 21.9064], [84.0309, 21.9061], [84.0309, 21.9059], [84.0309, 21.9057], [84.0308, 21.9056], [84.0307, 21.9054], [84.0307, 21.9053], [84.0306, 21.9052], [84.0306, 21.905], [84.0306, 21.9048], [84.0305, 21.9045], [84.0305, 21.9044], [84.0305, 21.9041], [84.0305, 21.904], [84.0305, 21.9036], [84.0306, 21.9034], [84.0306, 21.9033], [84.0306, 21.9031], [84.0306, 21.903], [84.0306, 21.9029], [84.0306, 21.9026], [84.0309, 21.9026], [84.031, 21.9026], [84.0311, 21.9026], [84.0313, 21.9026], [84.0314, 21.9027], [84.0315, 21.9027], [84.0318, 21.9027], [84.0319, 21.9027], [84.032, 21.9027], [84.0321, 21.9027], [84.0322, 21.9027], [84.0323, 21.9027], [84.0326, 21.9027], [84.0327, 21.9027], [84.0328, 21.9028], [84.0329, 21.9028], [84.0328, 21.9025], [84.0328, 21.9018], [84.0328, 21.9014], [84.033, 21.901], [84.0334, 21.9], [84.0339, 21.8989], [84.0341, 21.8983], [84.0342, 21.8979], [84.0343, 21.8973], [84.0342, 21.8969], [84.0335, 21.8954], [84.0328, 21.8941], [84.0317, 21.8926], [84.031, 21.8917], [84.0302, 21.8908], [84.0297, 21.8901], [84.0286, 21.8883], [84.0281, 21.8875], [84.028, 21.8871], [84.0279, 21.886], [84.0279, 21.8848], [84.0278, 21.884], [84.0277, 21.8834], [84.027, 21.8815], [84.0265, 21.8802], [84.0257, 21.8786], [84.0255, 21.878], [84.025, 21.8779], [84.0234, 21.8776], [84.0207, 21.8771], [84.0184, 21.8767], [84.0159, 21.8764], [84.0152, 21.8763], [84.0139, 21.8773], [84.0127, 21.8783], [84.0122, 21.8789], [84.0116, 21.88], [84.0109, 21.8813], [84.0096, 21.8837], [84.0089, 21.8851], [84.0081, 21.8868], [84.0075, 21.8887], [84.0045, 21.8968], [84.0041, 21.8979], [84.0039, 21.8985], [84.0035, 21.8995], [84.0027, 21.9013], [84.0023, 21.9022], [84.0022, 21.9027], [84.0019, 21.9037], [84.0018, 21.904], [84.0018, 21.9042], [84.0018, 21.905], [84.0018, 21.9055], [84.0018, 21.9058], [84.0019, 21.9063], [84.0021, 21.9067], [84.0024, 21.9072], [84.0026, 21.9073], [84.0027, 21.9074], [84.0031, 21.9075], [84.0037, 21.9076], [84.004, 21.9076], [84.0044, 21.9078], [84.0054, 21.908], [84.0059, 21.9082], [84.0067, 21.9084], [84.007, 21.9084], [84.0074, 21.9085], [84.0083, 21.9086], [84.0095, 21.9083], [84.0098, 21.9082], [84.01, 21.908], [84.0101, 21.9078], [84.0103, 21.9076], [84.0105, 21.9074], [84.0108, 21.9074], [84.0112, 21.9073], [84.0115, 21.9075], [84.0118, 21.9077], [84.0121, 21.9078], [84.0125, 21.9078], [84.0128, 21.9077], [84.0132, 21.9078], [84.0136, 21.9077], [84.0139, 21.9077], [84.0139, 21.9076], [84.014, 21.9076], [84.014, 21.9075], [84.0141, 21.9074], [84.0142, 21.9074], [84.0144, 21.9074], [84.0145, 21.9074], [84.0146, 21.9074], [84.0147, 21.9074], [84.0149, 21.9074], [84.015, 21.9074], [84.015, 21.9073], [84.0153, 21.9073], [84.0154, 21.9073], [84.0154, 21.9074], [84.0159, 21.9074], [84.016, 21.9075], [84.0162, 21.9075], [84.0166, 21.9076], [84.017, 21.9078], [84.0171, 21.9078], [84.0174, 21.9079], [84.0175, 21.9079], [84.0177, 21.908], [84.0178, 21.908], [84.018, 21.9081], [84.0181, 21.9081], [84.0183, 21.9082], [84.0185, 21.9083], [84.0187, 21.9083], [84.0189, 21.9082], [84.0191, 21.9082], [84.0193, 21.9082], [84.0194, 21.9082], [84.0198, 21.9081], [84.0199, 21.9081], [84.0201, 21.9081], [84.0203, 21.9081], [84.0204, 21.908], [84.0205, 21.908], [84.0206, 21.908], [84.0207, 21.908], [84.0208, 21.908], [84.0209, 21.908], [84.021, 21.908], [84.0211, 21.908], [84.0213, 21.908], [84.0216, 21.9081], [84.0217, 21.9081], [84.022, 21.9082], [84.0221, 21.9083], [84.0226, 21.9085], [84.0228, 21.9085], [84.023, 21.9086], [84.0231, 21.9087], [84.0231, 21.9088], [84.0233, 21.9088], [84.0236, 21.9091], [84.0241, 21.9094], [84.0243, 21.9095], [84.0245, 21.9097], [84.0246, 21.9097], [84.0246, 21.9098], [84.0247, 21.9098], [84.0248, 21.9099], [84.025, 21.91], [84.0251, 21.9101], [84.0252, 21.9101], [84.0252, 21.9102], [84.0253, 21.9103], [84.0255, 21.9104], [84.0256, 21.9105], [84.0257, 21.9106], [84.0258, 21.9103], [84.0261, 21.9101], [84.0262, 21.9101], [84.0264, 21.9101], [84.0265, 21.91], [84.027, 21.91], [84.0271, 21.91], [84.0271, 21.9098], [84.0272, 21.9097], [84.0273, 21.9097], [84.0274, 21.9096], [84.0274, 21.9095], [84.0275, 21.9092], [84.0275, 21.9091], [84.0275, 21.909], [84.0276, 21.9089], [84.0277, 21.9088], [84.0278, 21.9088], [84.0279, 21.9087], [84.028, 21.9086], [84.0282, 21.9085], [84.0284, 21.9083], [84.0287, 21.908], [84.0289, 21.9079]]]}, "properties": {"objectid": 46901, "statename": "Odisha", "statecode": "21", "districtname": "Jharsuguda", "districtcode": "371", "ulbname": "Jharsuguda (M)", "ulbcode": "801808", "wardname": "Ward 9", "wardcode": "9", "id": null, "status": "APPROVED", "misglobalid": null, "approved_by": null, "createdate": 1639583146000, "updateddate": 1642754073000, "globalid": null, "gisglobalid": "c8a0b3a5-0034-4229-8f5e-a9478046f9e9", "remark": "Ward 9 (Ok)", "st_area(shape)": 0.0007416469084804053, "st_perimeter(shape)": 0.11098129807979142}}, {"type": "Feature", "geometry": {"type": "Polygon", "coordinates": [[[84.0167, 21.8689], [84.0168, 21.8692], [84.0167, 21.87], [84.0167, 21.8708], [84.0165, 21.8718], [84.0162, 21.8728], [84.016, 21.8735], [84.0155, 21.8748], [84.0149, 21.8761], [84.0152, 21.8763], [84.0159, 21.8764], [84.0184, 21.8767], [84.0207, 21.8771], [84.0234, 21.8776], [84.025, 21.8779], [84.0255, 21.878], [84.0252, 21.8774], [84.0249, 21.8768], [84.0247, 21.8755], [84.0246, 21.8754], [84.0242, 21.8735], [84.0242, 21.8734], [84.0242, 21.8733], [84.0244, 21.8716], [84.0246, 21.8704], [84.0234, 21.8705], [84.0233, 21.8699], [84.0232, 21.8698], [84.0222, 21.869], [84.0204, 21.8676], [84.0191, 21.869], [84.0184, 21.869], [84.0177, 21.869], [84.0167, 21.8689]]]}, "properties": {"objectid": 48318, "statename": "Odisha", "statecode": "21", "districtname": "Jharsuguda", "districtcode": "371", "ulbname": "Jharsuguda (M)", "ulbcode": "801808", "wardname": "Ward 10", "wardcode": "10", "id": null, "status": "APPROVED", "misglobalid": null, "approved_by": null, "createdate": 1639583189000, "updateddate": 1642754107000, "globalid": null, "gisglobalid": "23e24e03-42ec-484b-ad6e-f15de4410c90", "remark": "Ward 10(Ok)", "st_area(shape)": 6.852751906256415e-05, "st_perimeter(shape)": 0.03603053514668315}}, {"type": "Feature", "geometry": {"type": "Polygon", "coordinates": [[[84.0353, 21.8687], [84.0331, 21.8686], [84.03, 21.8685], [84.0279, 21.8684], [84.0268, 21.8683], [84.0251, 21.8677], [84.0248, 21.8682], [84.0247, 21.8688], [84.0247, 21.8693], [84.0246, 21.8704], [84.0244, 21.8716], [84.0242, 21.8733], [84.0242, 21.8734], [84.0242, 21.8735], [84.0246, 21.8754], [84.0247, 21.8755], [84.0249, 21.8768], [84.0252, 21.8774], [84.0255, 21.878], [84.0257, 21.8786], [84.0265, 21.8802], [84.027, 21.8815], [84.0277, 21.8834], [84.0278, 21.884], [84.0279, 21.8848], [84.0279, 21.886], [84.028, 21.8871], [84.0281, 21.8875], [84.0286, 21.8883], [84.0297, 21.8901], [84.0302, 21.8908], [84.0303, 21.8909], [84.0304, 21.8908], [84.031, 21.8906], [84.0313, 21.8904], [84.0318, 21.89], [84.0324, 21.8896], [84.0326, 21.8893], [84.0329, 21.8889], [84.0332, 21.8887], [84.0337, 21.8886], [84.0341, 21.8885], [84.0342, 21.8882], [84.0344, 21.888], [84.0346, 21.8879], [84.0349, 21.8878], [84.0353, 21.8874], [84.0355, 21.887], [84.0355, 21.8866], [84.0355, 21.8862], [84.0354, 21.8859], [84.0354, 21.8858], [84.0355, 21.8856], [84.0357, 21.8855], [84.0357, 21.8854], [84.0358, 21.8851], [84.0357, 21.8833], [84.0356, 21.8808], [84.0355, 21.8803], [84.0353, 21.8797], [84.0352, 21.8796], [84.0351, 21.8796], [84.0349, 21.8796], [84.0348, 21.8795], [84.0348, 21.8793], [84.0348, 21.8791], [84.0347, 21.879], [84.0346, 21.8788], [84.0347, 21.8787], [84.0349, 21.8787], [84.035, 21.8786], [84.0351, 21.8783], [84.0352, 21.8781], [84.0356, 21.8779], [84.0359, 21.8778], [84.036, 21.8777], [84.0361, 21.8775], [84.0362, 21.8773], [84.0363, 21.8772], [84.0363, 21.877], [84.0361, 21.877], [84.0359, 21.8768], [84.0359, 21.8767], [84.036, 21.8765], [84.0359, 21.8761], [84.0358, 21.8757], [84.0358, 21.8752], [84.0355, 21.8747], [84.0356, 21.874], [84.0354, 21.8698], [84.0353, 21.8687]]]}, "properties": {"objectid": 48319, "statename": "Odisha", "statecode": "21", "districtname": "Jharsuguda", "districtcode": "371", "ulbname": "Jharsuguda (M)", "ulbcode": "801808", "wardname": "Ward 11", "wardcode": "11", "id": null, "status": "APPROVED", "misglobalid": null, "approved_by": null, "createdate": 1639583205000, "updateddate": 1642754133000, "globalid": null, "gisglobalid": "a72bc244-aac2-48f9-843d-b7fc9fb2f685", "remark": "Ward 11(Ok)", "st_area(shape)": 0.00019616530000603276, "st_perimeter(shape)": 0.06193988035193582}}, {"type": "Feature", "geometry": {"type": "Polygon", "coordinates": [[[84.0614, 21.8807], [84.0613, 21.8808], [84.0613, 21.881], [84.0614, 21.8811], [84.0615, 21.8811], [84.0615, 21.8812], [84.0614, 21.8812], [84.061, 21.8814], [84.0607, 21.8816], [84.0598, 21.8822], [84.0597, 21.8823], [84.0598, 21.8828], [84.0599, 21.8833], [84.0599, 21.8836], [84.0597, 21.8838], [84.0595, 21.8838], [84.0595, 21.8839], [84.0594, 21.884], [84.0591, 21.8841], [84.0585, 21.8843], [84.0583, 21.8844], [84.0581, 21.8837], [84.0577, 21.8835], [84.0572, 21.8834], [84.0565, 21.8834], [84.0558, 21.8834], [84.055, 21.8836], [84.0545, 21.8838], [84.0543, 21.8839], [84.0541, 21.8842], [84.0538, 21.8847], [84.0534, 21.8855], [84.0529, 21.8858], [84.0518, 21.8867], [84.0509, 21.8873], [84.0499, 21.8876], [84.0496, 21.8879], [84.0485, 21.8888], [84.0477, 21.8895], [84.0469, 21.8902], [84.0462, 21.8909], [84.0457, 21.8914], [84.0455, 21.8914], [84.044, 21.891], [84.0426, 21.8907], [84.0407, 21.8902], [84.0393, 21.8898], [84.0377, 21.8893], [84.036, 21.8887], [84.0351, 21.8885], [84.0346, 21.8885], [84.0341, 21.8885], [84.0337, 21.8886], [84.0332, 21.8887], [84.0329, 21.8889], [84.0326, 21.8893], [84.0324, 21.8896], [84.0318, 21.89], [84.0313, 21.8904], [84.031, 21.8906], [84.0304, 21.8908], [84.0303, 21.8909], [84.031, 21.8917], [84.0317, 21.8926], [84.0328, 21.8941], [84.0335, 21.8954], [84.0342, 21.8969], [84.0343, 21.8973], [84.0342, 21.8979], [84.0341, 21.8983], [84.0339, 21.8989], [84.0334, 21.9], [84.033, 21.901], [84.0328, 21.9014], [84.0328, 21.9018], [84.0328, 21.9025], [84.0329, 21.9028], [84.033, 21.9028], [84.0331, 21.9028], [84.0332, 21.9029], [84.0334, 21.903], [84.0339, 21.9033], [84.034, 21.9034], [84.0341, 21.9034], [84.0343, 21.9036], [84.0344, 21.9037], [84.0347, 21.9039], [84.0349, 21.904], [84.0351, 21.9042], [84.0352, 21.9042], [84.0354, 21.9042], [84.0354, 21.9043], [84.0355, 21.9043], [84.0357, 21.9044], [84.0358, 21.9044], [84.0359, 21.9045], [84.0361, 21.9047], [84.0361, 21.9048], [84.0362, 21.9049], [84.0362, 21.905], [84.0361, 21.9051], [84.0362, 21.9051], [84.0362, 21.9052], [84.0363, 21.9052], [84.0364, 21.9052], [84.0364, 21.9053], [84.0365, 21.9053], [84.0367, 21.9054], [84.0368, 21.9054], [84.0368, 21.9055], [84.0369, 21.9055], [84.037, 21.9055], [84.0371, 21.9055], [84.0373, 21.9056], [84.0374, 21.9056], [84.0375, 21.9058], [84.0375, 21.9059], [84.0376, 21.9059], [84.0376, 21.9061], [84.0378, 21.9061], [84.038, 21.9062], [84.0383, 21.9064], [84.0385, 21.9065], [84.0388, 21.9067], [84.0389, 21.9067], [84.039, 21.9067], [84.0391, 21.9068], [84.0394, 21.9071], [84.0396, 21.9072], [84.0396, 21.9073], [84.0398, 21.9074], [84.0399, 21.9074], [84.0404, 21.9075], [84.0406, 21.9076], [84.0409, 21.9077], [84.0412, 21.9078], [84.0416, 21.9081], [84.0418, 21.9082], [84.0421, 21.9082], [84.0426, 21.9085], [84.043, 21.9087], [84.0431, 21.9087], [84.0436, 21.9089], [84.0437, 21.909], [84.0439, 21.909], [84.044, 21.909], [84.0443, 21.909], [84.0447, 21.909], [84.0448, 21.9091], [84.0449, 21.9094], [84.0451, 21.9096], [84.0452, 21.9098], [84.0453, 21.9099], [84.0454, 21.91], [84.0456, 21.9102], [84.0458, 21.9104], [84.0464, 21.9109], [84.0467, 21.9112], [84.0472, 21.9116], [84.0478, 21.912], [84.0481, 21.9123], [84.0484, 21.9125], [84.0485, 21.9126], [84.0486, 21.9126], [84.049, 21.9128], [84.0492, 21.9128], [84.0494, 21.9129], [84.0495, 21.9129], [84.0496, 21.913], [84.0499, 21.9131], [84.05, 21.9132], [84.0501, 21.9132], [84.0502, 21.9133], [84.0504, 21.9133], [84.0506, 21.9133], [84.0507, 21.9134], [84.0509, 21.9134], [84.0511, 21.9135], [84.0514, 21.9136], [84.0516, 21.9137], [84.0517, 21.9137], [84.0517, 21.9138], [84.052, 21.9141], [84.052, 21.9143], [84.0521, 21.9144], [84.0524, 21.9147], [84.0525, 21.9148], [84.0528, 21.9151], [84.0533, 21.9155], [84.0534, 21.9156], [84.0536, 21.9158], [84.0538, 21.916], [84.0539, 21.9161], [84.054, 21.9162], [84.0541, 21.9161], [84.0543, 21.9161], [84.0544, 21.9161], [84.0547, 21.9162], [84.055, 21.9162], [84.0552, 21.9162], [84.0554, 21.9161], [84.0555, 21.9161], [84.0558, 21.916], [84.0561, 21.9159], [84.0565, 21.9159], [84.0569, 21.9158], [84.0571, 21.9157], [84.0572, 21.9157], [84.0575, 21.9157], [84.0578, 21.9156], [84.058, 21.9156], [84.0583, 21.9156], [84.0585, 21.9156], [84.0586, 21.9156], [84.0589, 21.9155], [84.059, 21.9154], [84.0591, 21.9153], [84.0593, 21.9153], [84.0594, 21.9152], [84.0596, 21.9151], [84.0598, 21.915], [84.0603, 21.9148], [84.0606, 21.9147], [84.0609, 21.9146], [84.0613, 21.9145], [84.0614, 21.9144], [84.0615, 21.9143], [84.0619, 21.9141], [84.0623, 21.9138], [84.0626, 21.9136], [84.063, 21.9134], [84.0633, 21.9132], [84.0635, 21.913], [84.0637, 21.9128], [84.0639, 21.9126], [84.0641, 21.9125], [84.0642, 21.9124], [84.0645, 21.9123], [84.0646, 21.9123], [84.0648, 21.9122], [84.0649, 21.9122], [84.0652, 21.912], [84.0655, 21.9119], [84.0656, 21.9118], [84.0658, 21.9117], [84.0661, 21.9116], [84.0663, 21.9116], [84.0665, 21.9115], [84.0669, 21.9114], [84.0674, 21.9112], [84.0676, 21.9113], [84.0677, 21.9114], [84.0679, 21.9114], [84.068, 21.9115], [84.0682, 21.9115], [84.0684, 21.9115], [84.0685, 21.9115], [84.0687, 21.9115], [84.0689, 21.9115], [84.0691, 21.9115], [84.0694, 21.9116], [84.0696, 21.9116], [84.0697, 21.9116], [84.0698, 21.9115], [84.07, 21.9115], [84.0704, 21.9114], [84.0706, 21.9113], [84.0707, 21.9112], [84.0709, 21.9111], [84.0711, 21.911], [84.0713, 21.9109], [84.0715, 21.9108], [84.0716, 21.9107], [84.0717, 21.9106], [84.0719, 21.9103], [84.0721, 21.9101], [84.0724, 21.9098], [84.0725, 21.9097], [84.0727, 21.9095], [84.073, 21.9093], [84.0733, 21.909], [84.0734, 21.9089], [84.0735, 21.9088], [84.0736, 21.9088], [84.0738, 21.9088], [84.0741, 21.9088], [84.0743, 21.9088], [84.0745, 21.9088], [84.0746, 21.9088], [84.0747, 21.9087], [84.0749, 21.9087], [84.075, 21.9087], [84.0751, 21.9087], [84.0752, 21.9087], [84.0753, 21.9087], [84.0754, 21.9087], [84.0757, 21.9087], [84.0758, 21.9087], [84.076, 21.9087], [84.0763, 21.9087], [84.0765, 21.9087], [84.0765, 21.9085], [84.0765, 21.9084], [84.0764, 21.9083], [84.0763, 21.9082], [84.0763, 21.908], [84.0762, 21.9079], [84.0761, 21.9078], [84.0761, 21.9076], [84.076, 21.9075], [84.0759, 21.9073], [84.0758, 21.9071], [84.0758, 21.907], [84.0757, 21.9068], [84.0757, 21.9067], [84.0756, 21.9065], [84.0756, 21.9064], [84.0756, 21.9062], [84.0756, 21.9061], [84.0755, 21.906], [84.0755, 21.9059], [84.0753, 21.9054], [84.0753, 21.9051], [84.0752, 21.905], [84.0752, 21.9048], [84.075, 21.9048], [84.075, 21.9044], [84.0749, 21.9042], [84.0748, 21.9038], [84.0748, 21.9036], [84.0748, 21.9034], [84.0748, 21.9032], [84.0748, 21.9029], [84.0748, 21.9027], [84.0748, 21.9026], [84.0747, 21.9025], [84.0746, 21.9024], [84.0745, 21.9023], [84.0743, 21.9022], [84.0741, 21.902], [84.074, 21.9019], [84.0739, 21.9018], [84.0739, 21.9017], [84.0739, 21.9016], [84.0738, 21.9013], [84.0737, 21.9011], [84.0737, 21.9007], [84.0736, 21.9004], [84.0736, 21.9002], [84.0735, 21.9], [84.0734, 21.8999], [84.0734, 21.8998], [84.0734, 21.8997], [84.0734, 21.8996], [84.0733, 21.8994], [84.0732, 21.8994], [84.0732, 21.8993], [84.0733, 21.8992], [84.0733, 21.8991], [84.0734, 21.8991], [84.0735, 21.899], [84.0735, 21.8989], [84.0735, 21.8988], [84.0735, 21.8986], [84.0735, 21.8985], [84.0735, 21.8983], [84.0735, 21.8982], [84.0734, 21.8981], [84.0734, 21.898], [84.0734, 21.8978], [84.0734, 21.8976], [84.0734, 21.8974], [84.0734, 21.8973], [84.0734, 21.8972], [84.0733, 21.897], [84.0733, 21.8969], [84.0733, 21.8967], [84.0733, 21.8966], [84.0732, 21.8964], [84.0732, 21.8963], [84.0732, 21.8962], [84.0732, 21.8961], [84.0732, 21.8959], [84.0732, 21.8957], [84.0732, 21.8955], [84.0732, 21.8954], [84.073, 21.8952], [84.0729, 21.8951], [84.0728, 21.895], [84.0726, 21.8949], [84.0725, 21.8948], [84.0725, 21.8947], [84.0724, 21.8946], [84.0723, 21.8946], [84.0723, 21.8945], [84.0722, 21.8944], [84.0721, 21.8943], [84.0721, 21.8942], [84.072, 21.8942], [84.072, 21.8941], [84.0719, 21.894], [84.0718, 21.8939], [84.0718, 21.8936], [84.0717, 21.8935], [84.0717, 21.8934], [84.0717, 21.8933], [84.0716, 21.8932], [84.0716, 21.8931], [84.0715, 21.8931], [84.0715, 21.893], [84.0714, 21.8929], [84.0713, 21.8928], [84.0712, 21.8927], [84.0712, 21.8926], [84.0711, 21.8924], [84.071, 21.8923], [84.071, 21.8922], [84.0711, 21.892], [84.0712, 21.8917], [84.0712, 21.8914], [84.0711, 21.8913], [84.071, 21.8909], [84.071, 21.8908], [84.071, 21.8907], [84.0709, 21.8906], [84.0709, 21.8904], [84.071, 21.8899], [84.071, 21.8895], [84.071, 21.8893], [84.071, 21.889], [84.0711, 21.8889], [84.0711, 21.8888], [84.0711, 21.8887], [84.0711, 21.8886], [84.0711, 21.8884], [84.0711, 21.8883], [84.0711, 21.888], [84.0711, 21.8879], [84.0711, 21.8878], [84.0711, 21.8876], [84.0711, 21.8874], [84.071, 21.8872], [84.0709, 21.887], [84.0709, 21.8869], [84.0708, 21.8867], [84.0708, 21.8866], [84.0614, 21.8807]]]}, "properties": {"objectid": 48320, "statename": "Odisha", "statecode": "21", "districtname": "Jharsuguda", "districtcode": "371", "ulbname": "Jharsuguda (M)", "ulbcode": "801808", "wardname": "Ward 12", "wardcode": "12", "id": null, "status": "APPROVED", "misglobalid": null, "approved_by": null, "createdate": 1639583226000, "updateddate": 1642754155000, "globalid": null, "gisglobalid": "8ce32e69-47f1-42ec-8c0b-2943761914f8", "remark": "Ward 12(Ok)", "st_area(shape)": 0.0009888556346927177, "st_perimeter(shape)": 0.13822003253908868}}, {"type": "Feature", "geometry": {"type": "Polygon", "coordinates": [[[84.0485, 21.8888], [84.0496, 21.8879], [84.0499, 21.8876], [84.0509, 21.8873], [84.0518, 21.8867], [84.0529, 21.8858], [84.0534, 21.8855], [84.0538, 21.8847], [84.0541, 21.8842], [84.0543, 21.8839], [84.0545, 21.8838], [84.055, 21.8836], [84.0558, 21.8834], [84.0565, 21.8834], [84.0572, 21.8834], [84.0577, 21.8835], [84.0581, 21.8837], [84.0583, 21.8844], [84.0585, 21.8843], [84.0591, 21.8841], [84.0594, 21.884], [84.0595, 21.8839], [84.0595, 21.8838], [84.0597, 21.8838], [84.0599, 21.8836], [84.0599, 21.8833], [84.0598, 21.8828], [84.0597, 21.8823], [84.0598, 21.8822], [84.0607, 21.8816], [84.061, 21.8814], [84.0614, 21.8812], [84.0615, 21.8812], [84.0615, 21.8811], [84.0614, 21.8811], [84.0613, 21.881], [84.0613, 21.8808], [84.0614, 21.8807], [84.0708, 21.8866], [84.0708, 21.8865], [84.0707, 21.8863], [84.0705, 21.8857], [84.0704, 21.8854], [84.0704, 21.8853], [84.0704, 21.8851], [84.0704, 21.8848], [84.0703, 21.8848], [84.0703, 21.8846], [84.0703, 21.8843], [84.0702, 21.8838], [84.0701, 21.8837], [84.0701, 21.8836], [84.0701, 21.8835], [84.0701, 21.8833], [84.0701, 21.8831], [84.0701, 21.883], [84.07, 21.8826], [84.0699, 21.8824], [84.0699, 21.8822], [84.0698, 21.882], [84.0698, 21.8819], [84.0698, 21.8817], [84.0697, 21.8813], [84.0696, 21.8811], [84.0695, 21.8808], [84.0695, 21.8806], [84.0695, 21.8805], [84.0694, 21.88], [84.0694, 21.8798], [84.0694, 21.8796], [84.0693, 21.8795], [84.0691, 21.8792], [84.0691, 21.8791], [84.069, 21.879], [84.069, 21.8789], [84.0694, 21.8788], [84.0697, 21.8786], [84.0698, 21.8785], [84.07, 21.8783], [84.0703, 21.878], [84.0707, 21.8776], [84.071, 21.8773], [84.0711, 21.8772], [84.0712, 21.8772], [84.0713, 21.877], [84.0714, 21.877], [84.0715, 21.8768], [84.0716, 21.8767], [84.0716, 21.8766], [84.0717, 21.8765], [84.072, 21.8766], [84.0722, 21.8767], [84.0723, 21.8766], [84.0725, 21.8765], [84.0727, 21.8764], [84.0728, 21.8764], [84.073, 21.8763], [84.0734, 21.8761], [84.0735, 21.876], [84.0737, 21.8759], [84.074, 21.8755], [84.0744, 21.8756], [84.0743, 21.8755], [84.0743, 21.8753], [84.0742, 21.8751], [84.0742, 21.8749], [84.0742, 21.8748], [84.0742, 21.8745], [84.0742, 21.8744], [84.0741, 21.8742], [84.0741, 21.8741], [84.074, 21.874], [84.074, 21.8739], [84.0739, 21.8736], [84.0739, 21.8735], [84.0738, 21.8735], [84.0738, 21.8734], [84.0737, 21.8734], [84.0734, 21.8732], [84.0732, 21.873], [84.0731, 21.8729], [84.073, 21.8728], [84.073, 21.8727], [84.0731, 21.8726], [84.0733, 21.8723], [84.0735, 21.872], [84.0736, 21.8718], [84.0737, 21.8718], [84.0739, 21.8717], [84.074, 21.8717], [84.0741, 21.8718], [84.0742, 21.8718], [84.0743, 21.8717], [84.0745, 21.8716], [84.0745, 21.8715], [84.0744, 21.8713], [84.0744, 21.8712], [84.0745, 21.8711], [84.0745, 21.8709], [84.0746, 21.8705], [84.0746, 21.8703], [84.0745, 21.8701], [84.0744, 21.8699], [84.0742, 21.8695], [84.074, 21.8693], [84.0739, 21.8692], [84.0737, 21.8692], [84.0732, 21.8691], [84.0729, 21.8691], [84.0728, 21.8691], [84.0728, 21.869], [84.0727, 21.8688], [84.0727, 21.8684], [84.0727, 21.8681], [84.0728, 21.868], [84.0729, 21.8678], [84.0731, 21.8674], [84.0731, 21.8673], [84.0732, 21.8671], [84.0733, 21.8669], [84.0737, 21.8666], [84.0737, 21.8665], [84.0737, 21.8664], [84.0737, 21.8663], [84.0735, 21.8662], [84.0732, 21.8661], [84.073, 21.866], [84.0729, 21.866], [84.0729, 21.8658], [84.0729, 21.8657], [84.0729, 21.8656], [84.073, 21.8652], [84.073, 21.8651], [84.073, 21.865], [84.0728, 21.8648], [84.0726, 21.8647], [84.0725, 21.8647], [84.0724, 21.8647], [84.0723, 21.8647], [84.0721, 21.865], [84.072, 21.8651], [84.0719, 21.8651], [84.0718, 21.8651], [84.0718, 21.865], [84.0717, 21.8649], [84.0717, 21.8647], [84.0705, 21.8647], [84.0698, 21.8647], [84.0685, 21.8645], [84.0656, 21.8643], [84.0526, 21.8645], [84.0513, 21.865], [84.0501, 21.865], [84.0478, 21.8648], [84.0463, 21.865], [84.0452, 21.865], [84.0435, 21.8645], [84.0424, 21.8642], [84.0428, 21.8659], [84.043, 21.8664], [84.0431, 21.8671], [84.043, 21.868], [84.0431, 21.8691], [84.0428, 21.869], [84.0418, 21.8688], [84.0399, 21.8688], [84.0371, 21.8687], [84.0353, 21.8687], [84.0354, 21.8698], [84.0356, 21.874], [84.0355, 21.8747], [84.0358, 21.8752], [84.0358, 21.8757], [84.0359, 21.8761], [84.036, 21.8765], [84.0359, 21.8767], [84.0359, 21.8768], [84.0361, 21.877], [84.0363, 21.877], [84.0363, 21.8772], [84.0362, 21.8773], [84.0361, 21.8775], [84.036, 21.8777], [84.0359, 21.8778], [84.0356, 21.8779], [84.0352, 21.8781], [84.0351, 21.8783], [84.035, 21.8786], [84.0349, 21.8787], [84.0347, 21.8787], [84.0346, 21.8788], [84.0347, 21.879], [84.0348, 21.8791], [84.0348, 21.8793], [84.0348, 21.8795], [84.0349, 21.8796], [84.0351, 21.8796], [84.0352, 21.8796], [84.0353, 21.8797], [84.0355, 21.8803], [84.0356, 21.8808], [84.0357, 21.8833], [84.0358, 21.8851], [84.0357, 21.8854], [84.0357, 21.8855], [84.0355, 21.8856], [84.0354, 21.8858], [84.0354, 21.8859], [84.0355, 21.8862], [84.0355, 21.8866], [84.0355, 21.887], [84.0353, 21.8874], [84.0349, 21.8878], [84.0346, 21.8879], [84.0344, 21.888], [84.0342, 21.8882], [84.0341, 21.8885], [84.0346, 21.8885], [84.0351, 21.8885], [84.036, 21.8887], [84.0377, 21.8893], [84.0393, 21.8898], [84.0407, 21.8902], [84.0426, 21.8907], [84.044, 21.891], [84.0455, 21.8914], [84.0457, 21.8914], [84.0462, 21.8909], [84.0469, 21.8902], [84.0477, 21.8895], [84.0485, 21.8888]]]}, "properties": {"objectid": 46902, "statename": "Odisha", "statecode": "21", "districtname": "Jharsuguda", "districtcode": "371", "ulbname": "Jharsuguda (M)", "ulbcode": "801808", "wardname": "Ward 13", "wardcode": "13", "id": null, "status": "APPROVED", "misglobalid": null, "approved_by": null, "createdate": 1639583241000, "updateddate": 1642754174000, "globalid": null, "gisglobalid": "499b7f28-0ab9-4f56-81af-b46d43d05e71", "remark": "Ward 13(Ok)", "st_area(shape)": 0.0007670395576813147, "st_perimeter(shape)": 0.14064581267939466}}, {"type": "Feature", "geometry": {"type": "Polygon", "coordinates": [[[84.0717, 21.8647], [84.0716, 21.8646], [84.0716, 21.8642], [84.0718, 21.8638], [84.072, 21.8636], [84.0722, 21.8633], [84.0722, 21.8631], [84.0723, 21.8629], [84.0724, 21.8628], [84.0725, 21.8627], [84.0727, 21.8626], [84.0729, 21.8625], [84.073, 21.8624], [84.073, 21.8623], [84.073, 21.8622], [84.0728, 21.8619], [84.0728, 21.8618], [84.0728, 21.8617], [84.0728, 21.8612], [84.0728, 21.861], [84.0726, 21.8607], [84.0724, 21.8603], [84.0723, 21.86], [84.0722, 21.8596], [84.0722, 21.8594], [84.0723, 21.8592], [84.0728, 21.8587], [84.0733, 21.8583], [84.0734, 21.8583], [84.0737, 21.8581], [84.0737, 21.858], [84.0738, 21.8579], [84.0739, 21.8579], [84.074, 21.8578], [84.0742, 21.8576], [84.0743, 21.8575], [84.0745, 21.8573], [84.0743, 21.8572], [84.0737, 21.8569], [84.0736, 21.8569], [84.0735, 21.8569], [84.0733, 21.8567], [84.0732, 21.8567], [84.0729, 21.8565], [84.0727, 21.8564], [84.0725, 21.8564], [84.0722, 21.8562], [84.0719, 21.8561], [84.0717, 21.8559], [84.0716, 21.8559], [84.0716, 21.8558], [84.0715, 21.8558], [84.0714, 21.8558], [84.0715, 21.8557], [84.0717, 21.8555], [84.0719, 21.8553], [84.072, 21.8552], [84.0721, 21.8549], [84.0722, 21.8547], [84.0721, 21.8543], [84.0721, 21.854], [84.0721, 21.8538], [84.0722, 21.8534], [84.0722, 21.8531], [84.0722, 21.8529], [84.0721, 21.8525], [84.0721, 21.8523], [84.0722, 21.8521], [84.0724, 21.8518], [84.0726, 21.8516], [84.0727, 21.8514], [84.0727, 21.8512], [84.0727, 21.851], [84.0726, 21.8509], [84.0725, 21.8507], [84.0724, 21.8506], [84.0723, 21.8505], [84.0723, 21.8503], [84.0724, 21.8501], [84.0725, 21.8499], [84.0727, 21.8498], [84.0729, 21.8496], [84.0731, 21.8495], [84.0732, 21.8494], [84.0733, 21.8494], [84.0735, 21.8494], [84.074, 21.8494], [84.0743, 21.8495], [84.0744, 21.8494], [84.0746, 21.8493], [84.0748, 21.849], [84.075, 21.8488], [84.075, 21.8486], [84.0752, 21.8482], [84.0752, 21.848], [84.0755, 21.8476], [84.0755, 21.8475], [84.0755, 21.8474], [84.0754, 21.8471], [84.0753, 21.8469], [84.0752, 21.8467], [84.075, 21.8466], [84.0747, 21.8466], [84.0744, 21.8465], [84.0738, 21.8466], [84.0731, 21.8465], [84.0728, 21.8464], [84.0726, 21.8464], [84.0725, 21.8463], [84.0721, 21.8462], [84.072, 21.8462], [84.0717, 21.8462], [84.0712, 21.8463], [84.071, 21.8462], [84.0709, 21.8462], [84.0709, 21.8461], [84.0707, 21.8461], [84.0706, 21.8462], [84.0705, 21.8462], [84.0702, 21.8463], [84.0699, 21.8464], [84.0696, 21.8466], [84.0695, 21.8466], [84.0694, 21.8467], [84.0693, 21.8468], [84.0692, 21.8468], [84.069, 21.8467], [84.0687, 21.8467], [84.0686, 21.8467], [84.0684, 21.8467], [84.0683, 21.8467], [84.0682, 21.8467], [84.0679, 21.8467], [84.0675, 21.8469], [84.0674, 21.847], [84.0672, 21.8471], [84.0668, 21.8471], [84.0666, 21.8471], [84.0664, 21.8471], [84.0661, 21.847], [84.066, 21.847], [84.0659, 21.847], [84.0658, 21.847], [84.0654, 21.847], [84.065, 21.847], [84.0649, 21.847], [84.0646, 21.8473], [84.0645, 21.8472], [84.0644, 21.8472], [84.0644, 21.8473], [84.0641, 21.8476], [84.064, 21.8478], [84.0638, 21.8478], [84.0637, 21.8479], [84.0636, 21.8479], [84.0634, 21.848], [84.0632, 21.8481], [84.0629, 21.8482], [84.0628, 21.8483], [84.0627, 21.8483], [84.0626, 21.8484], [84.0625, 21.8484], [84.0624, 21.8485], [84.0623, 21.8486], [84.062, 21.8487], [84.0619, 21.8488], [84.0617, 21.8489], [84.0614, 21.8489], [84.0611, 21.849], [84.061, 21.8491], [84.0608, 21.8492], [84.0606, 21.8493], [84.0605, 21.8493], [84.0605, 21.8494], [84.0604, 21.8495], [84.0603, 21.8495], [84.0601, 21.8497], [84.0599, 21.8498], [84.0599, 21.85], [84.0599, 21.8502], [84.0596, 21.8503], [84.0593, 21.8504], [84.059, 21.8505], [84.0588, 21.8507], [84.0585, 21.8507], [84.0584, 21.8508], [84.0582, 21.8509], [84.0582, 21.851], [84.058, 21.8511], [84.0578, 21.8512], [84.0577, 21.8513], [84.0575, 21.8514], [84.0573, 21.8515], [84.0572, 21.8516], [84.057, 21.8517], [84.0567, 21.8517], [84.0564, 21.8519], [84.0563, 21.8519], [84.0562, 21.852], [84.056, 21.8521], [84.0559, 21.8522], [84.0558, 21.8523], [84.0556, 21.8524], [84.0555, 21.8525], [84.0551, 21.8528], [84.055, 21.8529], [84.0549, 21.853], [84.0548, 21.8532], [84.0547, 21.8532], [84.0546, 21.8534], [84.0545, 21.8535], [84.0544, 21.8536], [84.0542, 21.8537], [84.0541, 21.8537], [84.0539, 21.8537], [84.0538, 21.8537], [84.0537, 21.8537], [84.0536, 21.8537], [84.0532, 21.8537], [84.0531, 21.8537], [84.0529, 21.8536], [84.0528, 21.8535], [84.0526, 21.8534], [84.0525, 21.8534], [84.0524, 21.8533], [84.0523, 21.8532], [84.052, 21.8531], [84.052, 21.853], [84.0519, 21.8529], [84.0518, 21.8529], [84.0518, 21.8528], [84.0517, 21.8527], [84.0516, 21.8527], [84.0515, 21.8527], [84.0515, 21.8526], [84.0515, 21.8525], [84.0514, 21.8525], [84.0513, 21.8525], [84.0513, 21.8524], [84.0512, 21.8524], [84.0511, 21.8524], [84.051, 21.8523], [84.0509, 21.8523], [84.0509, 21.8522], [84.0508, 21.8522], [84.0507, 21.8522], [84.0506, 21.8522], [84.0506, 21.8521], [84.0506, 21.8519], [84.0506, 21.8518], [84.0506, 21.8517], [84.0506, 21.8516], [84.0504, 21.8515], [84.0503, 21.8515], [84.0502, 21.8515], [84.0501, 21.8515], [84.0499, 21.8514], [84.0497, 21.8512], [84.0496, 21.8512], [84.0494, 21.8511], [84.0493, 21.8509], [84.0492, 21.8509], [84.0491, 21.8508], [84.049, 21.8508], [84.049, 21.8507], [84.0489, 21.8506], [84.0488, 21.8506], [84.0486, 21.8505], [84.0483, 21.8503], [84.0482, 21.8503], [84.048, 21.8501], [84.0477, 21.8498], [84.0476, 21.8498], [84.0476, 21.8497], [84.0475, 21.8497], [84.0469, 21.8505], [84.0459, 21.8515], [84.0453, 21.8517], [84.0445, 21.8519], [84.0441, 21.8519], [84.0433, 21.8517], [84.0426, 21.8514], [84.0419, 21.851], [84.0413, 21.8507], [84.0347, 21.8572], [84.0346, 21.8575], [84.0342, 21.8576], [84.0343, 21.8578], [84.0341, 21.8583], [84.0345, 21.8594], [84.0351, 21.8615], [84.0354, 21.8638], [84.0356, 21.8654], [84.0348, 21.8658], [84.0326, 21.8666], [84.0297, 21.8674], [84.0283, 21.8675], [84.0274, 21.8674], [84.0265, 21.8668], [84.0249, 21.8654], [84.0241, 21.865], [84.0243, 21.8653], [84.0248, 21.8657], [84.0251, 21.8661], [84.0253, 21.8664], [84.0254, 21.8666], [84.0254, 21.8669], [84.0253, 21.8672], [84.0251, 21.8676], [84.0251, 21.8677], [84.0268, 21.8683], [84.0279, 21.8684], [84.03, 21.8685], [84.0331, 21.8686], [84.0371, 21.8687], [84.0399, 21.8688], [84.0418, 21.8688], [84.0428, 21.869], [84.0431, 21.8691], [84.043, 21.868], [84.0431, 21.8671], [84.043, 21.8664], [84.0428, 21.8659], [84.0424, 21.8642], [84.0435, 21.8645], [84.0452, 21.865], [84.0463, 21.865], [84.0478, 21.8648], [84.0501, 21.865], [84.0513, 21.865], [84.0526, 21.8645], [84.0656, 21.8643], [84.0685, 21.8645], [84.0698, 21.8647], [84.0705, 21.8647], [84.0717, 21.8647]]]}, "properties": {"objectid": 46903, "statename": "Odisha", "statecode": "21", "districtname": "Jharsuguda", "districtcode": "371", "ulbname": "Jharsuguda (M)", "ulbcode": "801808", "wardname": "Ward 14", "wardcode": "14", "id": null, "status": "APPROVED", "misglobalid": null, "approved_by": null, "createdate": 1639583355000, "updateddate": 1642754195000, "globalid": null, "gisglobalid": "ee4d9f31-6316-4aee-876a-38aefb89507f", "remark": "Ward 14(Ok)", "st_area(shape)": 0.0005828294057731105, "st_perimeter(shape)": 0.15068210232787424}}, {"type": "Feature", "geometry": {"type": "Polygon", "coordinates": [[[84.0343, 21.8578], [84.0342, 21.8576], [84.0346, 21.8575], [84.0347, 21.8572], [84.0413, 21.8507], [84.0419, 21.851], [84.0426, 21.8514], [84.0433, 21.8517], [84.0441, 21.8519], [84.0445, 21.8519], [84.0453, 21.8517], [84.0459, 21.8515], [84.0469, 21.8505], [84.0475, 21.8497], [84.0475, 21.8496], [84.0474, 21.8495], [84.0473, 21.8495], [84.0471, 21.8493], [84.047, 21.8492], [84.0469, 21.8492], [84.0469, 21.8491], [84.0467, 21.849], [84.0466, 21.8489], [84.0466, 21.8488], [84.0465, 21.8488], [84.0462, 21.8485], [84.0461, 21.8485], [84.0461, 21.8484], [84.046, 21.8483], [84.046, 21.8482], [84.0458, 21.848], [84.0458, 21.8479], [84.0457, 21.8479], [84.0456, 21.8477], [84.0456, 21.8476], [84.0455, 21.8476], [84.0454, 21.8474], [84.0453, 21.8472], [84.0452, 21.847], [84.045, 21.847], [84.0449, 21.847], [84.0448, 21.847], [84.0448, 21.8471], [84.0447, 21.8471], [84.0447, 21.8469], [84.0447, 21.8468], [84.0447, 21.8467], [84.0447, 21.8466], [84.0446, 21.8463], [84.0446, 21.8462], [84.0445, 21.8462], [84.0442, 21.8462], [84.0441, 21.8462], [84.044, 21.846], [84.0439, 21.8459], [84.0439, 21.8458], [84.0437, 21.8457], [84.0437, 21.8456], [84.0436, 21.8456], [84.0434, 21.8454], [84.0433, 21.8453], [84.0432, 21.8452], [84.0432, 21.8451], [84.043, 21.845], [84.0428, 21.8448], [84.0426, 21.8446], [84.0425, 21.8445], [84.0425, 21.8444], [84.0424, 21.8444], [84.0423, 21.8443], [84.0422, 21.8442], [84.0421, 21.8441], [84.042, 21.844], [84.0419, 21.8439], [84.0418, 21.8437], [84.0417, 21.8437], [84.0417, 21.8436], [84.0417, 21.8435], [84.0416, 21.8433], [84.0415, 21.8431], [84.0415, 21.843], [84.0414, 21.8428], [84.0414, 21.8427], [84.0413, 21.8427], [84.0413, 21.8426], [84.0413, 21.8424], [84.0413, 21.8423], [84.0412, 21.8423], [84.0412, 21.8422], [84.0412, 21.8421], [84.0411, 21.8419], [84.0411, 21.8418], [84.041, 21.8417], [84.041, 21.8415], [84.0409, 21.8413], [84.0409, 21.8411], [84.0409, 21.841], [84.041, 21.8409], [84.041, 21.8408], [84.041, 21.8407], [84.0411, 21.8405], [84.0412, 21.8404], [84.0413, 21.8402], [84.0415, 21.8398], [84.0416, 21.8396], [84.0417, 21.8395], [84.0417, 21.8394], [84.0418, 21.8394], [84.0418, 21.8393], [84.0418, 21.8392], [84.0419, 21.8392], [84.0419, 21.8391], [84.0419, 21.839], [84.0419, 21.8389], [84.042, 21.8389], [84.0421, 21.8389], [84.0421, 21.8388], [84.0422, 21.8387], [84.0421, 21.8386], [84.0421, 21.8385], [84.0421, 21.8384], [84.0423, 21.8384], [84.0424, 21.8384], [84.0425, 21.8384], [84.0425, 21.8383], [84.0425, 21.8382], [84.0426, 21.8382], [84.0426, 21.838], [84.0426, 21.8379], [84.0426, 21.8378], [84.0427, 21.8377], [84.0429, 21.8376], [84.0429, 21.8375], [84.043, 21.8374], [84.0431, 21.8373], [84.0431, 21.8372], [84.0432, 21.8371], [84.0432, 21.837], [84.0433, 21.8369], [84.0433, 21.8368], [84.0434, 21.8368], [84.0434, 21.8367], [84.0435, 21.8365], [84.0435, 21.8364], [84.0436, 21.8363], [84.0437, 21.8363], [84.0437, 21.8362], [84.0438, 21.8361], [84.0439, 21.836], [84.0439, 21.8359], [84.0439, 21.8358], [84.044, 21.8358], [84.0441, 21.8356], [84.0441, 21.8355], [84.0441, 21.8354], [84.0441, 21.8353], [84.0442, 21.8353], [84.0442, 21.8352], [84.0442, 21.8351], [84.0443, 21.835], [84.0444, 21.835], [84.0444, 21.8349], [84.0444, 21.8348], [84.0444, 21.8347], [84.0444, 21.8346], [84.0444, 21.8345], [84.0445, 21.8345], [84.0445, 21.8344], [84.0445, 21.8343], [84.0445, 21.8342], [84.0445, 21.8341], [84.0445, 21.834], [84.0446, 21.8339], [84.0447, 21.8337], [84.0447, 21.8336], [84.0448, 21.8335], [84.0449, 21.8334], [84.045, 21.8333], [84.0451, 21.8332], [84.0452, 21.8332], [84.0453, 21.8332], [84.0454, 21.8332], [84.0456, 21.8331], [84.0458, 21.833], [84.046, 21.833], [84.046, 21.8329], [84.0461, 21.8328], [84.0461, 21.8327], [84.0462, 21.8325], [84.0463, 21.8324], [84.0464, 21.8323], [84.0465, 21.8323], [84.0466, 21.8323], [84.0467, 21.8323], [84.0468, 21.8323], [84.047, 21.8324], [84.047, 21.8323], [84.047, 21.8322], [84.0472, 21.8322], [84.0472, 21.832], [84.0472, 21.8318], [84.0475, 21.8318], [84.0477, 21.8318], [84.0478, 21.8316], [84.0479, 21.8315], [84.0481, 21.8313], [84.0482, 21.8312], [84.0483, 21.8311], [84.0484, 21.8311], [84.0484, 21.831], [84.0485, 21.831], [84.0486, 21.831], [84.0489, 21.8309], [84.049, 21.8309], [84.0494, 21.8309], [84.0496, 21.8309], [84.0497, 21.8309], [84.0498, 21.8309], [84.0502, 21.8309], [84.0503, 21.8309], [84.0503, 21.831], [84.0503, 21.8311], [84.0503, 21.8312], [84.0503, 21.8313], [84.0506, 21.8313], [84.0509, 21.8314], [84.051, 21.8314], [84.0514, 21.8314], [84.0516, 21.8314], [84.0517, 21.8313], [84.0517, 21.8312], [84.0518, 21.8311], [84.0519, 21.8311], [84.052, 21.8311], [84.0521, 21.8311], [84.0523, 21.8311], [84.0524, 21.8311], [84.0527, 21.831], [84.0527, 21.8313], [84.053, 21.8314], [84.0533, 21.8314], [84.0535, 21.8314], [84.0536, 21.8314], [84.0537, 21.8313], [84.0538, 21.8314], [84.054, 21.8315], [84.0542, 21.8315], [84.0543, 21.8315], [84.0543, 21.8316], [84.0545, 21.8316], [84.0545, 21.8317], [84.0547, 21.8317], [84.0549, 21.8318], [84.0552, 21.8318], [84.0553, 21.8318], [84.0553, 21.8319], [84.0554, 21.8318], [84.0554, 21.8319], [84.0555, 21.8319], [84.0556, 21.8319], [84.0556, 21.832], [84.0558, 21.832], [84.0559, 21.832], [84.0561, 21.832], [84.0561, 21.8321], [84.0562, 21.8322], [84.0563, 21.8322], [84.0564, 21.8321], [84.0565, 21.832], [84.0566, 21.832], [84.0567, 21.8319], [84.0567, 21.8318], [84.0568, 21.8318], [84.0569, 21.8317], [84.057, 21.8317], [84.0571, 21.8316], [84.0572, 21.8315], [84.0573, 21.8315], [84.0574, 21.8314], [84.0576, 21.8313], [84.0577, 21.8312], [84.0578, 21.8311], [84.0579, 21.8311], [84.058, 21.831], [84.0581, 21.8309], [84.0582, 21.8309], [84.0582, 21.8308], [84.0583, 21.8307], [84.0584, 21.8306], [84.0585, 21.8306], [84.0585, 21.8305], [84.0586, 21.8304], [84.0587, 21.8304], [84.0587, 21.8303], [84.0588, 21.8303], [84.0589, 21.8302], [84.059, 21.8302], [84.0591, 21.8301], [84.0593, 21.83], [84.0594, 21.8299], [84.0595, 21.8298], [84.0596, 21.8297], [84.0596, 21.8296], [84.0599, 21.8293], [84.0599, 21.8292], [84.06, 21.8291], [84.0601, 21.8289], [84.0602, 21.8289], [84.0603, 21.8287], [84.0604, 21.8286], [84.0606, 21.8284], [84.0606, 21.8283], [84.0607, 21.8282], [84.0608, 21.8282], [84.0608, 21.8281], [84.0609, 21.828], [84.061, 21.8279], [84.0611, 21.8278], [84.0612, 21.8276], [84.0613, 21.8275], [84.0613, 21.8274], [84.0614, 21.8274], [84.0615, 21.8273], [84.0615, 21.8272], [84.0616, 21.8271], [84.0617, 21.8269], [84.0618, 21.8269], [84.0619, 21.8268], [84.0619, 21.8267], [84.062, 21.8266], [84.062, 21.8264], [84.0621, 21.8262], [84.0622, 21.826], [84.0622, 21.8259], [84.0622, 21.8258], [84.0623, 21.8258], [84.0625, 21.8257], [84.0627, 21.8257], [84.0628, 21.8257], [84.063, 21.8256], [84.0631, 21.8255], [84.0631, 21.8254], [84.0633, 21.8253], [84.0634, 21.8252], [84.0635, 21.8251], [84.0636, 21.825], [84.0637, 21.825], [84.0638, 21.8249], [84.0639, 21.8248], [84.064, 21.8247], [84.0641, 21.8246], [84.0642, 21.8245], [84.0643, 21.8244], [84.0644, 21.8243], [84.0645, 21.8242], [84.0646, 21.8242], [84.0647, 21.8241], [84.0648, 21.824], [84.0649, 21.8239], [84.065, 21.8238], [84.0651, 21.8237], [84.0652, 21.8236], [84.0653, 21.8235], [84.0654, 21.8234], [84.0656, 21.8233], [84.0656, 21.8232], [84.0657, 21.8232], [84.0657, 21.8231], [84.0658, 21.8231], [84.0661, 21.823], [84.0663, 21.823], [84.0666, 21.8229], [84.0669, 21.8229], [84.0672, 21.8228], [84.0673, 21.8227], [84.0674, 21.8227], [84.0677, 21.8227], [84.0679, 21.8227], [84.0681, 21.8227], [84.0682, 21.8227], [84.0683, 21.8227], [84.0683, 21.8226], [84.0684, 21.8226], [84.0683, 21.8224], [84.0683, 21.8223], [84.0681, 21.822], [84.0678, 21.8216], [84.0677, 21.8213], [84.0676, 21.8212], [84.0676, 21.8211], [84.0676, 21.8209], [84.0675, 21.8207], [84.0675, 21.8204], [84.0675, 21.8202], [84.0675, 21.8201], [84.0675, 21.8198], [84.0674, 21.8196], [84.0673, 21.8194], [84.067, 21.8189], [84.0669, 21.8188], [84.0668, 21.8188], [84.0667, 21.8186], [84.0667, 21.8185], [84.0666, 21.8182], [84.0666, 21.8181], [84.0666, 21.818], [84.0667, 21.8177], [84.0666, 21.8177], [84.0664, 21.8176], [84.0663, 21.8175], [84.0662, 21.8175], [84.066, 21.8175], [84.0659, 21.8175], [84.0659, 21.8174], [84.0657, 21.8174], [84.0655, 21.8175], [84.0654, 21.8175], [84.0654, 21.8176], [84.0653, 21.8176], [84.0654, 21.8177], [84.0653, 21.8178], [84.0648, 21.818], [84.0645, 21.8181], [84.0644, 21.8181], [84.064, 21.8183], [84.0638, 21.8183], [84.0636, 21.8184], [84.0632, 21.8185], [84.0627, 21.8186], [84.0624, 21.8186], [84.0622, 21.8187], [84.0619, 21.8188], [84.0617, 21.8189], [84.0616, 21.8189], [84.0615, 21.819], [84.0614, 21.819], [84.0611, 21.8191], [84.0608, 21.8192], [84.0606, 21.8193], [84.0603, 21.8195], [84.0601, 21.8195], [84.06, 21.8195], [84.0598, 21.8195], [84.0596, 21.8195], [84.0595, 21.8195], [84.0594, 21.8196], [84.0591, 21.8195], [84.059, 21.8196], [84.0589, 21.8196], [84.0587, 21.8196], [84.0586, 21.8196], [84.0584, 21.8197], [84.0583, 21.8197], [84.0582, 21.8197], [84.0581, 21.8197], [84.0579, 21.8198], [84.0576, 21.8199], [84.0575, 21.8199], [84.0572, 21.8199], [84.0568, 21.8199], [84.0565, 21.8199], [84.0563, 21.82], [84.0562, 21.82], [84.0561, 21.82], [84.056, 21.82], [84.0558, 21.82], [84.0556, 21.82], [84.0553, 21.8201], [84.055, 21.8201], [84.0549, 21.8201], [84.0546, 21.8202], [84.0544, 21.8202], [84.0544, 21.8203], [84.0543, 21.8203], [84.0542, 21.8203], [84.054, 21.8203], [84.0539, 21.8203], [84.0538, 21.8203], [84.0536, 21.8203], [84.0535, 21.8203], [84.0532, 21.8204], [84.053, 21.8205], [84.0529, 21.8205], [84.0528, 21.8205], [84.0527, 21.8205], [84.0527, 21.8204], [84.0525, 21.8203], [84.0523, 21.8203], [84.0521, 21.8203], [84.0519, 21.8203], [84.0516, 21.8203], [84.0513, 21.8204], [84.0511, 21.8204], [84.0509, 21.8203], [84.0506, 21.8203], [84.0504, 21.8203], [84.05, 21.8203], [84.0497, 21.8203], [84.0496, 21.8203], [84.0494, 21.8203], [84.0493, 21.8203], [84.0491, 21.8204], [84.0482, 21.8206], [84.0477, 21.8207], [84.0472, 21.8208], [84.0467, 21.8209], [84.0465, 21.8209], [84.0466, 21.8212], [84.0466, 21.8213], [84.0466, 21.8214], [84.0467, 21.8215], [84.0467, 21.8216], [84.0468, 21.8218], [84.0469, 21.822], [84.047, 21.8221], [84.0471, 21.8222], [84.0471, 21.8223], [84.0472, 21.8224], [84.0472, 21.8225], [84.0472, 21.8226], [84.0473, 21.8228], [84.0474, 21.823], [84.0474, 21.8231], [84.0475, 21.8233], [84.0476, 21.8234], [84.0476, 21.8235], [84.0477, 21.8237], [84.0479, 21.8239], [84.048, 21.824], [84.0481, 21.824], [84.0482, 21.8242], [84.0484, 21.8243], [84.0483, 21.8244], [84.0482, 21.8245], [84.0482, 21.8246], [84.0481, 21.8246], [84.0481, 21.8247], [84.048, 21.8247], [84.0478, 21.8248], [84.0477, 21.8249], [84.0476, 21.8251], [84.0475, 21.8253], [84.0474, 21.8255], [84.0473, 21.8255], [84.0473, 21.8256], [84.0472, 21.8257], [84.0471, 21.8258], [84.047, 21.826], [84.0469, 21.8261], [84.0469, 21.8262], [84.0468, 21.8263], [84.0466, 21.8267], [84.0464, 21.8269], [84.0464, 21.827], [84.0463, 21.827], [84.0463, 21.8271], [84.0462, 21.8272], [84.0462, 21.8273], [84.0461, 21.8273], [84.0461, 21.8275], [84.0459, 21.8277], [84.0459, 21.8278], [84.0458, 21.8279], [84.0456, 21.8279], [84.0456, 21.828], [84.0455, 21.828], [84.0454, 21.8281], [84.0452, 21.8282], [84.0451, 21.8283], [84.0449, 21.8284], [84.0448, 21.8284], [84.0447, 21.8285], [84.0446, 21.8286], [84.0445, 21.8286], [84.0444, 21.8287], [84.044, 21.8286], [84.0439, 21.8286], [84.0433, 21.8286], [84.0429, 21.8285], [84.0424, 21.8285], [84.0422, 21.8285], [84.042, 21.8285], [84.0419, 21.8285], [84.0418, 21.8285], [84.0417, 21.8285], [84.0416, 21.8286], [84.0415, 21.8287], [84.0414, 21.8288], [84.0414, 21.8289], [84.0412, 21.8291], [84.0411, 21.8292], [84.041, 21.8292], [84.041, 21.8293], [84.0409, 21.8294], [84.0408, 21.8294], [84.0407, 21.8295], [84.0406, 21.8295], [84.0405, 21.8295], [84.0404, 21.8296], [84.0402, 21.8296], [84.04, 21.8297], [84.0397, 21.8297], [84.0393, 21.8297], [84.0392, 21.8297], [84.039, 21.8297], [84.0383, 21.8297], [84.0382, 21.8297], [84.0382, 21.8298], [84.0381, 21.8298], [84.0379, 21.8298], [84.0379, 21.8297], [84.0379, 21.8296], [84.0378, 21.8296], [84.0378, 21.8295], [84.0378, 21.8294], [84.0377, 21.8294], [84.0377, 21.8291], [84.0376, 21.8289], [84.0376, 21.8288], [84.0376, 21.8287], [84.0375, 21.8287], [84.0375, 21.8286], [84.0375, 21.8285], [84.0375, 21.8283], [84.0374, 21.8281], [84.0374, 21.8279], [84.0374, 21.8277], [84.0373, 21.8275], [84.0373, 21.8272], [84.0373, 21.827], [84.0372, 21.8269], [84.0372, 21.8267], [84.0372, 21.8266], [84.0371, 21.8263], [84.0371, 21.8262], [84.037, 21.8259], [84.0369, 21.8258], [84.0368, 21.8255], [84.0368, 21.8254], [84.0368, 21.8253], [84.0367, 21.8252], [84.0367, 21.8251], [84.0366, 21.8249], [84.0364, 21.8243], [84.0363, 21.824], [84.0362, 21.8237], [84.0361, 21.8235], [84.036, 21.8233], [84.036, 21.8232], [84.0359, 21.8226], [84.0359, 21.8225], [84.0359, 21.8223], [84.0358, 21.8221], [84.0358, 21.8219], [84.0358, 21.8216], [84.0358, 21.8214], [84.0357, 21.8212], [84.0357, 21.8211], [84.0357, 21.821], [84.0357, 21.8208], [84.0357, 21.8206], [84.0357, 21.8204], [84.0356, 21.8203], [84.0356, 21.8201], [84.0356, 21.82], [84.0356, 21.8199], [84.0356, 21.8197], [84.0356, 21.8195], [84.0355, 21.8194], [84.0355, 21.8193], [84.0355, 21.8192], [84.0354, 21.819], [84.0353, 21.8189], [84.0352, 21.8187], [84.0352, 21.8186], [84.035, 21.8183], [84.0349, 21.8181], [84.0348, 21.818], [84.0348, 21.8179], [84.0347, 21.8178], [84.0346, 21.8175], [84.0345, 21.8172], [84.0343, 21.8168], [84.0342, 21.8168], [84.034, 21.8164], [84.0338, 21.8162], [84.0337, 21.8161], [84.0336, 21.8163], [84.0334, 21.8166], [84.0333, 21.8167], [84.0333, 21.8168], [84.0331, 21.817], [84.033, 21.817], [84.0329, 21.8171], [84.033, 21.8173], [84.0327, 21.8182], [84.0318, 21.8189], [84.0296, 21.8215], [84.0273, 21.8235], [84.0267, 21.8244], [84.0268, 21.8249], [84.0268, 21.8252], [84.0264, 21.8258], [84.0262, 21.8264], [84.0263, 21.8271], [84.0269, 21.8277], [84.0274, 21.8281], [84.0269, 21.8292], [84.0271, 21.8303], [84.0264, 21.831], [84.0256, 21.8314], [84.025, 21.8316], [84.0247, 21.8318], [84.0248, 21.8334], [84.0248, 21.8344], [84.0251, 21.8353], [84.0259, 21.8359], [84.0262, 21.8365], [84.0261, 21.8372], [84.026, 21.8378], [84.0263, 21.8389], [84.0262, 21.8401], [84.0264, 21.8406], [84.0267, 21.8411], [84.0267, 21.8416], [84.027, 21.8423], [84.0273, 21.8428], [84.0272, 21.8437], [84.0274, 21.8441], [84.0278, 21.8444], [84.0281, 21.8446], [84.0283, 21.845], [84.0283, 21.8457], [84.0283, 21.8462], [84.0284, 21.8465], [84.0292, 21.8473], [84.0298, 21.8478], [84.0301, 21.8481], [84.0302, 21.8484], [84.0302, 21.8488], [84.0301, 21.8493], [84.0302, 21.8498], [84.0306, 21.85], [84.031, 21.8504], [84.0311, 21.8507], [84.0311, 21.851], [84.031, 21.8511], [84.0308, 21.8513], [84.0304, 21.8516], [84.03, 21.8519], [84.0295, 21.8521], [84.0289, 21.8522], [84.0283, 21.8523], [84.0279, 21.8524], [84.0276, 21.8527], [84.0275, 21.8528], [84.027, 21.8534], [84.0267, 21.8541], [84.0263, 21.8549], [84.0258, 21.8561], [84.0253, 21.8571], [84.025, 21.8577], [84.025, 21.858], [84.0254, 21.8579], [84.0263, 21.8578], [84.0268, 21.8577], [84.0273, 21.8577], [84.0277, 21.8578], [84.0284, 21.858], [84.0289, 21.8582], [84.0293, 21.8584], [84.0294, 21.8585], [84.0296, 21.8588], [84.03, 21.8594], [84.0301, 21.8595], [84.0304, 21.8594], [84.031, 21.8593], [84.0313, 21.8592], [84.0321, 21.8589], [84.0327, 21.8586], [84.0334, 21.8582], [84.0338, 21.858], [84.0343, 21.8578]]]}, "properties": {"objectid": 48321, "statename": "Odisha", "statecode": "21", "districtname": "Jharsuguda", "districtcode": "371", "ulbname": "Jharsuguda (M)", "ulbcode": "801808", "wardname": "Ward 15", "wardcode": "15", "id": null, "status": "APPROVED", "misglobalid": null, "approved_by": null, "createdate": 1639583380000, "updateddate": 1642754216000, "globalid": null, "gisglobalid": "49084707-de39-4165-9876-7f15af4a87d4", "remark": "Ard 15(Ok)", "st_area(shape)": 0.0007396987181292096, "st_perimeter(shape)": 0.19022414954750733}}, {"type": "Feature", "geometry": {"type": "Polygon", "coordinates": [[[84.0343, 21.8578], [84.0338, 21.858], [84.0334, 21.8582], [84.0327, 21.8586], [84.0321, 21.8589], [84.0313, 21.8592], [84.031, 21.8593], [84.0304, 21.8594], [84.0301, 21.8595], [84.03, 21.8594], [84.0296, 21.8588], [84.0294, 21.8585], [84.0293, 21.8584], [84.0289, 21.8582], [84.0284, 21.858], [84.0277, 21.8578], [84.0273, 21.8577], [84.0268, 21.8577], [84.0263, 21.8578], [84.0254, 21.8579], [84.025, 21.858], [84.0249, 21.8583], [84.0248, 21.8585], [84.0248, 21.8587], [84.0247, 21.8589], [84.0246, 21.859], [84.0244, 21.8593], [84.0239, 21.8597], [84.0237, 21.8599], [84.0234, 21.8601], [84.023, 21.8604], [84.0227, 21.8606], [84.0224, 21.8608], [84.0222, 21.8611], [84.0221, 21.8613], [84.022, 21.8614], [84.0218, 21.8619], [84.0216, 21.8623], [84.0212, 21.8627], [84.0213, 21.8628], [84.0222, 21.8634], [84.0224, 21.8635], [84.0229, 21.864], [84.0238, 21.8646], [84.0241, 21.865], [84.0249, 21.8654], [84.0265, 21.8668], [84.0274, 21.8674], [84.0283, 21.8675], [84.0297, 21.8674], [84.0326, 21.8666], [84.0348, 21.8658], [84.0356, 21.8654], [84.0354, 21.8638], [84.0351, 21.8615], [84.0345, 21.8594], [84.0341, 21.8583], [84.0343, 21.8578]]]}, "properties": {"objectid": 45689, "statename": "Odisha", "statecode": "21", "districtname": "Jharsuguda", "districtcode": "371", "ulbname": "Jharsuguda (M)", "ulbcode": "801808", "wardname": "Ward 16", "wardcode": "16", "id": null, "status": "APPROVED", "misglobalid": null, "approved_by": null, "createdate": 1639583475000, "updateddate": 1642754281000, "globalid": null, "gisglobalid": "138f675b-4d76-4a75-8f11-c0e41aafa026", "remark": "Ok", "st_area(shape)": 9.802342826770736e-05, "st_perimeter(shape)": 0.040687163329583005}}, {"type": "Feature", "geometry": {"type": "Polygon", "coordinates": [[[84.0249, 21.8583], [84.025, 21.858], [84.025, 21.8577], [84.0253, 21.8571], [84.0258, 21.8561], [84.0263, 21.8549], [84.0267, 21.8541], [84.027, 21.8534], [84.0275, 21.8528], [84.0276, 21.8527], [84.0279, 21.8524], [84.0283, 21.8523], [84.0289, 21.8522], [84.0295, 21.8521], [84.03, 21.8519], [84.0304, 21.8516], [84.0308, 21.8513], [84.031, 21.8511], [84.0311, 21.851], [84.0311, 21.8507], [84.031, 21.8504], [84.0306, 21.85], [84.0302, 21.8498], [84.0301, 21.8493], [84.0302, 21.8488], [84.0302, 21.8484], [84.0301, 21.8481], [84.0298, 21.8478], [84.0292, 21.8473], [84.0284, 21.8465], [84.0283, 21.8462], [84.0283, 21.8457], [84.0283, 21.845], [84.0281, 21.8446], [84.0278, 21.8444], [84.0274, 21.8441], [84.0272, 21.8437], [84.0273, 21.8428], [84.027, 21.8423], [84.0267, 21.8416], [84.0267, 21.8415], [84.0267, 21.8414], [84.026, 21.8415], [84.0239, 21.8435], [84.0228, 21.8445], [84.022, 21.8451], [84.0216, 21.8453], [84.0216, 21.8454], [84.0217, 21.8458], [84.0218, 21.8459], [84.0218, 21.846], [84.0217, 21.8462], [84.0217, 21.8464], [84.0216, 21.8465], [84.0217, 21.8468], [84.0216, 21.8477], [84.0215, 21.8479], [84.0216, 21.848], [84.0216, 21.8481], [84.0217, 21.8486], [84.0217, 21.8489], [84.0219, 21.8492], [84.0224, 21.8497], [84.0226, 21.8499], [84.0229, 21.8507], [84.023, 21.8511], [84.0228, 21.8513], [84.0224, 21.8516], [84.0222, 21.8519], [84.022, 21.8522], [84.022, 21.8524], [84.0218, 21.8525], [84.022, 21.8526], [84.0222, 21.8527], [84.0222, 21.8532], [84.0225, 21.8542], [84.023, 21.855], [84.0231, 21.8558], [84.0231, 21.857], [84.0231, 21.8575], [84.0233, 21.8579], [84.0233, 21.8584], [84.0233, 21.8587], [84.0234, 21.8592], [84.0237, 21.8598], [84.0238, 21.8599], [84.0239, 21.8597], [84.0244, 21.8593], [84.0246, 21.859], [84.0247, 21.8589], [84.0248, 21.8587], [84.0248, 21.8585], [84.0249, 21.8583]]]}, "properties": {"objectid": 46904, "statename": "Odisha", "statecode": "21", "districtname": "Jharsuguda", "districtcode": "371", "ulbname": "Jharsuguda (M)", "ulbcode": "801808", "wardname": "Ward 17", "wardcode": "17", "id": null, "status": "APPROVED", "misglobalid": null, "approved_by": null, "createdate": 1639583496000, "updateddate": 1642754292000, "globalid": null, "gisglobalid": "7bdc0ca0-0a8c-478f-ac4e-88d13231eb41", "remark": "Ok", "st_area(shape)": 8.893569135883193e-05, "st_perimeter(shape)": 0.04636927376134694}}, {"type": "Feature", "geometry": {"type": "Polygon", "coordinates": [[[84.0238, 21.8599], [84.0237, 21.8598], [84.0234, 21.8592], [84.0233, 21.8587], [84.0233, 21.8584], [84.0233, 21.8579], [84.0231, 21.8575], [84.0231, 21.857], [84.0231, 21.8558], [84.023, 21.855], [84.0225, 21.8542], [84.0222, 21.8532], [84.0222, 21.8527], [84.022, 21.8526], [84.0218, 21.8525], [84.0213, 21.8525], [84.0203, 21.8525], [84.0196, 21.8523], [84.0191, 21.8523], [84.0182, 21.8522], [84.0182, 21.8529], [84.0181, 21.8536], [84.0178, 21.8539], [84.0176, 21.8539], [84.0172, 21.8539], [84.017, 21.8536], [84.0167, 21.8535], [84.0166, 21.8535], [84.0167, 21.8539], [84.0166, 21.8547], [84.0167, 21.8557], [84.0168, 21.8566], [84.0169, 21.8583], [84.0168, 21.8592], [84.0168, 21.8593], [84.0169, 21.8593], [84.0181, 21.8603], [84.0188, 21.8608], [84.0203, 21.862], [84.0212, 21.8627], [84.0216, 21.8623], [84.0218, 21.8619], [84.022, 21.8614], [84.0221, 21.8613], [84.0222, 21.8611], [84.0224, 21.8608], [84.0227, 21.8606], [84.023, 21.8604], [84.0234, 21.8601], [84.0237, 21.8599], [84.0238, 21.8599]]]}, "properties": {"objectid": 46905, "statename": "Odisha", "statecode": "21", "districtname": "Jharsuguda", "districtcode": "371", "ulbname": "Jharsuguda (M)", "ulbcode": "801808", "wardname": "Ward 18", "wardcode": "18", "id": null, "status": "APPROVED", "misglobalid": null, "approved_by": null, "createdate": 1639583513000, "updateddate": 1642754303000, "globalid": null, "gisglobalid": "5f198588-a996-4648-a8a7-01e519cd2cdb", "remark": "Ok", "st_area(shape)": 5.227656346172909e-05, "st_perimeter(shape)": 0.029781431561704548}}, {"type": "Feature", "geometry": {"type": "Polygon", "coordinates": [[[84.0135, 21.8542], [84.0141, 21.8571], [84.0168, 21.8593], [84.0168, 21.8592], [84.0169, 21.8583], [84.0168, 21.8566], [84.0167, 21.8557], [84.0166, 21.8547], [84.0167, 21.8539], [84.0166, 21.8535], [84.0157, 21.8537], [84.0144, 21.854], [84.0135, 21.8542]]]}, "properties": {"objectid": 46089, "statename": "Odisha", "statecode": "21", "districtname": "Jharsuguda", "districtcode": "371", "ulbname": "Jharsuguda (M)", "ulbcode": "801808", "wardname": "Ward 19", "wardcode": "19", "id": null, "status": "APPROVED", "misglobalid": null, "approved_by": null, "createdate": 1639583530000, "updateddate": 1642754320000, "globalid": null, "gisglobalid": "d80e195a-b5a7-42c5-9b7d-d5ac77cef831", "remark": "Ok", "st_area(shape)": 1.2667472805983884e-05, "st_perimeter(shape)": 0.015479767133496025}}, {"type": "Feature", "geometry": {"type": "Polygon", "coordinates": [[[84.0215, 21.8479], [84.021, 21.8484], [84.0202, 21.8489], [84.0196, 21.849], [84.0191, 21.849], [84.0184, 21.8489], [84.0178, 21.8489], [84.0171, 21.8489], [84.0163, 21.8491], [84.0152, 21.8493], [84.0146, 21.8493], [84.0139, 21.8494], [84.0132, 21.8496], [84.0132, 21.8497], [84.0135, 21.854], [84.0135, 21.8542], [84.0144, 21.854], [84.0157, 21.8537], [84.0166, 21.8535], [84.0167, 21.8535], [84.017, 21.8536], [84.0172, 21.8539], [84.0176, 21.8539], [84.0178, 21.8539], [84.0181, 21.8536], [84.0182, 21.8529], [84.0182, 21.8522], [84.0191, 21.8523], [84.0196, 21.8523], [84.0203, 21.8525], [84.0213, 21.8525], [84.0218, 21.8525], [84.022, 21.8524], [84.022, 21.8522], [84.0222, 21.8519], [84.0224, 21.8516], [84.0228, 21.8513], [84.023, 21.8511], [84.0229, 21.8507], [84.0226, 21.8499], [84.0224, 21.8497], [84.0219, 21.8492], [84.0217, 21.8489], [84.0217, 21.8486], [84.0216, 21.8481], [84.0216, 21.848], [84.0215, 21.8479]]]}, "properties": {"objectid": 45306, "statename": "Odisha", "statecode": "21", "districtname": "Jharsuguda", "districtcode": "371", "ulbname": "Jharsuguda (M)", "ulbcode": "801808", "wardname": "Ward 20", "wardcode": "20", "id": null, "status": "APPROVED", "misglobalid": null, "approved_by": null, "createdate": 1639583544000, "updateddate": 1645530321000, "globalid": null, "gisglobalid": "e4b4cb54-8e30-4041-b6bb-55254d5e588c", "remark": "Ok", "st_area(shape)": 3.7980324232041754e-05, "st_perimeter(shape)": 0.028737716111969312}}, {"type": "Feature", "geometry": {"type": "Polygon", "coordinates": [[[84.0245, 21.8194], [84.0243, 21.8195], [84.0233, 21.8201], [84.0231, 21.8204], [84.0225, 21.821], [84.0222, 21.8214], [84.0215, 21.8234], [84.0214, 21.824], [84.0215, 21.8241], [84.0214, 21.825], [84.0213, 21.8254], [84.0214, 21.8262], [84.02, 21.833], [84.0201, 21.8336], [84.0201, 21.8343], [84.0201, 21.8345], [84.0198, 21.8352], [84.0196, 21.8359], [84.0195, 21.8369], [84.0194, 21.8376], [84.0193, 21.8386], [84.0191, 21.8395], [84.0187, 21.8407], [84.0188, 21.8423], [84.0187, 21.844], [84.0188, 21.8442], [84.0189, 21.8447], [84.0191, 21.8454], [84.0184, 21.8456], [84.0185, 21.8466], [84.0186, 21.8471], [84.0186, 21.8473], [84.0186, 21.8476], [84.0185, 21.8484], [84.0183, 21.8489], [84.0184, 21.8489], [84.0191, 21.849], [84.0196, 21.849], [84.0202, 21.8489], [84.021, 21.8484], [84.0215, 21.8479], [84.0216, 21.8477], [84.0217, 21.8468], [84.0216, 21.8465], [84.0217, 21.8464], [84.0217, 21.8462], [84.0218, 21.846], [84.0218, 21.8459], [84.0217, 21.8458], [84.0216, 21.8454], [84.0216, 21.8453], [84.022, 21.8451], [84.0228, 21.8445], [84.0239, 21.8435], [84.026, 21.8415], [84.0267, 21.8414], [84.0267, 21.8411], [84.0264, 21.8406], [84.0262, 21.8401], [84.0263, 21.8389], [84.026, 21.8378], [84.0261, 21.8372], [84.0262, 21.8365], [84.0259, 21.8359], [84.0251, 21.8353], [84.0248, 21.8344], [84.0248, 21.8334], [84.0247, 21.8318], [84.025, 21.8316], [84.0256, 21.8314], [84.0264, 21.831], [84.0271, 21.8303], [84.0269, 21.8292], [84.0274, 21.8281], [84.0269, 21.8277], [84.0263, 21.8271], [84.0262, 21.8264], [84.0264, 21.8258], [84.0268, 21.8252], [84.0268, 21.8249], [84.0267, 21.8244], [84.0273, 21.8235], [84.0296, 21.8215], [84.0318, 21.8189], [84.0327, 21.8182], [84.033, 21.8173], [84.0329, 21.8171], [84.0326, 21.8174], [84.0325, 21.8175], [84.0324, 21.8176], [84.0321, 21.8176], [84.032, 21.8177], [84.0317, 21.8177], [84.0315, 21.8178], [84.0313, 21.8178], [84.0307, 21.8179], [84.0304, 21.818], [84.0302, 21.818], [84.0301, 21.818], [84.03, 21.818], [84.0298, 21.8181], [84.0295, 21.8181], [84.0292, 21.8182], [84.0288, 21.8182], [84.0286, 21.8182], [84.0281, 21.8183], [84.0278, 21.8184], [84.0274, 21.8185], [84.0268, 21.8186], [84.0265, 21.8187], [84.0261, 21.8188], [84.0259, 21.8189], [84.0256, 21.819], [84.0255, 21.8191], [84.0253, 21.8191], [84.025, 21.8193], [84.0248, 21.8193], [84.0247, 21.8194], [84.0246, 21.8194], [84.0245, 21.8194]]]}, "properties": {"objectid": 45307, "statename": "Odisha", "statecode": "21", "districtname": "Jharsuguda", "districtcode": "371", "ulbname": "Jharsuguda (M)", "ulbcode": "801808", "wardname": "Ward 21", "wardcode": "21", "id": null, "status": "APPROVED", "misglobalid": null, "approved_by": null, "createdate": 1639583563000, "updateddate": 1642754344000, "globalid": null, "gisglobalid": "8c469168-520e-4485-a727-4b47565fd77a", "remark": "Ok", "st_area(shape)": 0.0001738394013169759, "st_perimeter(shape)": 0.08319518056573917}}, {"type": "Feature", "geometry": {"type": "Polygon", "coordinates": [[[84.0193, 21.8385], [84.0189, 21.8386], [84.0183, 21.8387], [84.018, 21.8387], [84.018, 21.8384], [84.0167, 21.8385], [84.0165, 21.8385], [84.0149, 21.8385], [84.014, 21.8385], [84.0129, 21.8385], [84.0126, 21.8408], [84.0131, 21.841], [84.0131, 21.8415], [84.0128, 21.8422], [84.0131, 21.8463], [84.0132, 21.8494], [84.0132, 21.8496], [84.0139, 21.8494], [84.0146, 21.8493], [84.0152, 21.8493], [84.0163, 21.8491], [84.0171, 21.8489], [84.0178, 21.8489], [84.0183, 21.8489], [84.0185, 21.8484], [84.0186, 21.8476], [84.0186, 21.8473], [84.0186, 21.8471], [84.0185, 21.8466], [84.0184, 21.8456], [84.0191, 21.8454], [84.0189, 21.8447], [84.0188, 21.8442], [84.0187, 21.844], [84.0188, 21.8423], [84.0187, 21.8407], [84.0191, 21.8395], [84.0193, 21.8386], [84.0193, 21.8385]]]}, "properties": {"objectid": 46090, "statename": "Odisha", "statecode": "21", "districtname": "Jharsuguda", "districtcode": "371", "ulbname": "Jharsuguda (M)", "ulbcode": "801808", "wardname": "Ward 22", "wardcode": "22", "id": null, "status": "APPROVED", "misglobalid": null, "approved_by": null, "createdate": 1639583579000, "updateddate": 1642754389000, "globalid": null, "gisglobalid": "805bbcce-066e-44ff-a487-dec66e7f2473", "remark": "Ok", "st_area(shape)": 6.163899915344982e-05, "st_perimeter(shape)": 0.034447570398607116}}, {"type": "Feature", "geometry": {"type": "Polygon", "coordinates": [[[84.0234, 21.8705], [84.0246, 21.8704], [84.0247, 21.8693], [84.0247, 21.8688], [84.0248, 21.8682], [84.0251, 21.8677], [84.0251, 21.8676], [84.0253, 21.8672], [84.0254, 21.8669], [84.0254, 21.8666], [84.0253, 21.8664], [84.0251, 21.8661], [84.0248, 21.8657], [84.0243, 21.8653], [84.0241, 21.865], [84.0238, 21.8646], [84.0229, 21.864], [84.0224, 21.8635], [84.0222, 21.8634], [84.0213, 21.8628], [84.0212, 21.8627], [84.0203, 21.862], [84.0188, 21.8608], [84.0181, 21.8603], [84.0169, 21.8593], [84.0142, 21.8571], [84.0138, 21.8575], [84.0131, 21.8584], [84.013, 21.8586], [84.0143, 21.8597], [84.0171, 21.8618], [84.019, 21.8634], [84.0179, 21.8644], [84.0163, 21.8661], [84.0154, 21.8669], [84.0148, 21.8674], [84.0151, 21.8677], [84.0163, 21.8686], [84.0166, 21.8688], [84.0166, 21.8689], [84.0167, 21.8689], [84.0177, 21.869], [84.0184, 21.869], [84.0191, 21.869], [84.0204, 21.8676], [84.0222, 21.869], [84.0232, 21.8698], [84.0233, 21.8699], [84.0234, 21.8705]]]}, "properties": {"objectid": 48323, "statename": "Odisha", "statecode": "21", "districtname": "Jharsuguda", "districtcode": "371", "ulbname": "Jharsuguda (M)", "ulbcode": "801808", "wardname": "Ward 23", "wardcode": "23", "id": null, "status": "APPROVED", "misglobalid": null, "approved_by": null, "createdate": 1639583632000, "updateddate": 1642754410000, "globalid": null, "gisglobalid": "6cc353e0-b21e-477a-8ca1-5b090ce32228", "remark": "Ok", "st_area(shape)": 6.104837388524879e-05, "st_perimeter(shape)": 0.04651463522433108}}, {"type": "Feature", "geometry": {"type": "Polygon", "coordinates": [[[84.019, 21.8634], [84.0171, 21.8618], [84.0143, 21.8597], [84.013, 21.8586], [84.0128, 21.8589], [84.0123, 21.8595], [84.0118, 21.8601], [84.0108, 21.8611], [84.0093, 21.8628], [84.0091, 21.8631], [84.0109, 21.8645], [84.0123, 21.8655], [84.0127, 21.8659], [84.0144, 21.8671], [84.0148, 21.8674], [84.0154, 21.8669], [84.0163, 21.8661], [84.0179, 21.8644], [84.019, 21.8634]]]}, "properties": {"objectid": 46091, "statename": "Odisha", "statecode": "21", "districtname": "Jharsuguda", "districtcode": "371", "ulbname": "Jharsuguda (M)", "ulbcode": "801808", "wardname": "Ward 24", "wardcode": "24", "id": null, "status": "APPROVED", "misglobalid": null, "approved_by": null, "createdate": 1639583654000, "updateddate": 1642754429000, "globalid": null, "gisglobalid": "d3d5add0-48a7-4189-8f94-7b6d1282e964", "remark": "Ok", "st_area(shape)": 4.338061689390266e-05, "st_perimeter(shape)": 0.02654167778651532}}]}
