{"type":"Topology","arcs":[[[56935,10226],[-1345,-3890]],[[55590,6336],[-2174,629]],[[53416,6965],[-3727,149]],[[49689,7114],[1397,2741],[2795,853]],[[53881,10708],[3054,-482]],[[56935,10226],[4089,519]],[[61024,10745],[7091,222]],[[68115,10967],[-2070,-7262],[-7660,593],[-2795,2038]],[[53881,10708],[-51,1519]],[[53830,12227],[6987,333]],[[60817,12560],[207,-1815]],[[68892,13412],[-777,-2445]],[[60817,12560],[104,852],[7971,0]],[[53416,6965],[155,-1482],[-5073,-1630],[-6573,-3853],[-2536,852],[-4555,3668],[-1501,3853],[2743,6336]],[[36076,14709],[5228,-704],[-1553,-2186],[5124,-4372],[4814,-333]],[[25517,22008],[-6625,0]],[[18892,22008],[-103,4965]],[[18789,26973],[5538,963]],[[24327,27936],[-259,-2631],[1449,-3297]],[[9990,27269],[-2537,-1556],[-4192,-852]],[[3261,24861],[-1708,2149]],[[1553,27010],[1294,704]],[[2847,27714],[6314,518]],[[9161,28232],[829,-963]],[[18892,22008],[-4451,296],[-1708,-1185],[-7557,1445],[-1915,2297]],[[9990,27269],[8540,1445]],[[18530,28714],[259,-1741]],[[3002,29344],[-155,-1630]],[[1553,27010],[-1553,1259],[207,2816],[1863,1779]],[[2070,32864],[932,-3520]],[[4710,32715],[-1708,-3371]],[[2070,32864],[1087,111]],[[3157,32975],[1553,-260]],[[23136,32753],[1191,-4817]],[[18530,28714],[2174,4298]],[[20704,33012],[2432,-259]],[[56987,32345],[-2484,-6447],[-2588,-1371],[4968,-5557],[4711,-1482]],[[61594,17488],[-880,-2038],[-7505,-74],[621,-3149]],[[36076,14709],[-259,1334],[-5538,2853],[932,4520]],[[31211,23416],[3934,-297],[1708,-2223],[6159,-1852],[3157,6595],[-517,1852]],[[45652,27491],[2691,5521],[8644,-667]],[[34472,35309],[983,-2149],[5487,-852],[-466,-3631],[5176,-1186]],[[31211,23416],[-3779,-37],[-1915,-1371]],[[23136,32753],[104,889]],[[23240,33642],[7660,518],[3572,1149]],[[3157,32975],[1139,3816],[2536,-593],[-414,-3260],[-1708,-223]],[[19462,40385],[2380,-445]],[[21842,39940],[-1863,-2816],[725,-4112]],[[9161,28232],[1294,1816],[-724,2223],[1656,4520]],[[11387,36791],[5642,1334],[2433,2260]],[[21842,39940],[4503,1112]],[[26345,41052],[-931,-5669],[-2174,-1741]],[[77070,38347],[-2640,-5335],[-1605,-5706],[-1449,-8299],[-828,-1964]],[[70548,17043],[-3882,667],[-5072,-222]],[[56987,32345],[9420,5187],[-155,2075],[-2381,2334]],[[63871,41941],[3002,1112],[2381,-2742],[3002,-1593],[4814,-371]],[[11387,36791],[621,3335],[-1035,2852]],[[10973,42978],[1346,1223],[3726,-370],[3417,-3446]],[[47412,45016],[-829,-4779],[-3209,-2446],[-3105,556],[-1035,-2482],[-3261,1185],[-1501,-1741]],[[26345,41052],[2847,5446],[-673,6410]],[[28519,52908],[7816,-1482],[155,-2927],[3779,37],[0,-1964],[3312,-148],[3831,-1408]],[[48861,59873],[-725,-5335],[5849,-111],[-932,-5372]],[[53053,49055],[-1035,-1779]],[[52018,47276],[-4244,148],[-362,-2408]],[[28519,52908],[3727,3890],[983,3261]],[[33229,60059],[4918,1482],[4347,-482],[2123,-1186],[4244,0]],[[18271,64357],[3778,-519],[2847,778]],[[24896,64616],[4244,-3446],[2174,260]],[[31314,61430],[1915,-1371]],[[10973,42978],[-7919,2631],[-621,2260],[-2329,1593],[-104,3113],[2019,6669],[2018,2037],[-1138,3298],[4399,1074],[7091,-481],[3882,-815]],[[33281,65246],[-1967,-3816]],[[24896,64616],[2485,1593]],[[27381,66209],[5900,-963]],[[83281,65950],[-1398,-2075],[1812,-9374],[-1812,-4335],[1708,-667]],[[83591,49499],[-8178,2260],[-7608,74]],[[67805,51833],[-932,2372],[1760,5002],[-1346,815],[2070,4483]],[[69357,64505],[6263,2482],[7661,-1037]],[[66252,67876],[-1553,-2741],[4658,-630]],[[67805,51833],[-3623,-2074],[-4969,37],[-6160,-741]],[[48861,59873],[3519,519],[-621,5595],[3727,333],[2070,2112],[3520,37]],[[61076,68469],[5176,-593]],[[35455,69655],[-2174,-4409]],[[27381,66209],[2018,778],[2847,3298]],[[32246,70285],[3209,-630]],[[18271,64357],[155,3112],[5228,333],[4089,2890]],[[27743,70692],[4503,-407]],[[67701,71878],[-1449,-4002]],[[61076,68469],[207,4483]],[[61283,72952],[6418,-1074]],[[57712,74286],[3571,-1334]],[[35455,69655],[1035,2853],[5124,-297]],[[41614,72211],[2899,1593]],[[44513,73804],[3468,1260],[4606,-37]],[[52587,75027],[5125,-741]],[[41614,72211],[-569,3335]],[[41045,75546],[3830,741]],[[44875,76287],[-362,-2483]],[[44875,76287],[3779,2667]],[[48654,78954],[5434,704]],[[54088,79658],[-1501,-4631]],[[59627,78917],[-1915,-4631]],[[54088,79658],[3003,334]],[[57091,79992],[2536,-1075]],[[39182,76768],[1863,-1222]],[[27743,70692],[-207,3742],[-1346,1001],[2019,2408],[3675,2297],[7298,-3372]],[[76552,79584],[104,-3297],[-3675,-4187],[-5280,-222]],[[59627,78917],[10196,1038]],[[69823,79955],[3520,593],[3209,-964]],[[46325,81177],[2329,-2223]],[[39182,76768],[4192,4446]],[[43374,81214],[2951,-37]],[[46325,81177],[621,75]],[[46946,81252],[5797,370],[1345,-1964]],[[68219,82067],[-673,1222]],[[67546,83289],[1294,260]],[[68840,83549],[-621,-1482]],[[46946,81252],[2639,3001],[2899,-37],[5176,-1816],[-569,-2408]],[[85092,86068],[-1087,-3372],[-3882,-3186],[-3571,74]],[[69823,79955],[-1604,2112]],[[68840,83549],[103,4112],[-1087,964]],[[67856,88625],[0,37]],[[67856,88662],[3003,111],[14233,-2705]],[[67546,83289],[-7505,-111],[-3830,3335]],[[56211,86513],[621,2778],[7919,-1000],[3105,334]],[[87266,89736],[7868,-1371]],[[95134,88365],[-2588,-5965],[-3468,-6299],[310,-963],[-6107,-9188]],[[85092,86068],[2174,3668]],[[87939,92959],[-673,-3223]],[[67856,88662],[725,5075],[-828,2668],[3416,1890],[3416,-741],[-207,-2631],[7661,-3186],[5900,1222]],[[87939,92959],[3830,3854],[104,1185],[6107,2001],[2019,-74],[-2174,-3964],[-2691,-7596]],[[70548,17043],[-1656,-3631]],[[52018,47276],[-259,-3260],[3727,-2149],[6004,630],[2381,-556]],[[83591,49499],[-2484,186],[-1035,-2335],[3105,-1037],[-4296,-4780],[-1811,-3186]],[[43374,81214],[-931,2409],[310,3334],[4659,-1222],[3467,1111],[5332,-333]]],"transform":{"scale":[0.000001932019320193247,0.000002699026990269901],"translate":[80.1402,12.9651]},"objects":{"panchayats":{"type":"GeometryCollection","geometries":[{"arcs":[[0,1,2,3,4]],"type":"Polygon","properties":{"OBJECTID":302502,"gpcode":"","gpname":"","stname":"TAMIL NADU","dtname":"Chennai","sdtname":"Velachery","stcode11":"33","dtcode11":"603","sdtcode11":"","blklgdcode":"0","blkname":"Chennai","dt_lgd":568,"sdt_lgd":7171,"st_lgd":33,"vilcode11":0,"vilname11":"KANAGAM","pan_local":" ","b_pan_code":0,"b_pan_name":" ","d_pan_code":0,"d_pan_name":" ","gp_code":"","gp_name":"","st_2011":"33","dt_2011":"603","sdt_2011":"","subdtname":"Velachery","block_name":"Chennai","blk_lgdcod":"0","dtcode14":"603","SHAPE_Length":5038.433550726855,"SHAPE_Area":1273194.9273599018}},{"arcs":[[-1,5,6,7]],"type":"Polygon","properties":{"OBJECTID":302504,"gpcode":"","gpname":"","stname":"TAMIL NADU","dtname":"Chennai","sdtname":"Velachery","stcode11":"33","dtcode11":"603","sdtcode11":"","blklgdcode":"0","blkname":"Chennai","dt_lgd":568,"sdt_lgd":7171,"st_lgd":33,"vilcode11":0,"vilname11":"TIRUVANMIYUR","pan_local":" ","b_pan_code":0,"b_pan_name":" ","d_pan_code":0,"d_pan_name":" ","gp_code":"","gp_name":"","st_2011":"33","dt_2011":"603","sdt_2011":"","subdtname":"Velachery","block_name":"Chennai","blk_lgdcod":"0","dtcode14":"603","SHAPE_Length":8694.91246003313,"SHAPE_Area":4360606.12654334}},{"arcs":[[-6,-5,8,9,10]],"type":"Polygon","properties":{"OBJECTID":302507,"gpcode":"","gpname":"","stname":"TAMIL NADU","dtname":"Chennai","sdtname":"Velachery","stcode11":"33","dtcode11":"603","sdtcode11":"","blklgdcode":"0","blkname":"Chennai","dt_lgd":568,"sdt_lgd":7171,"st_lgd":33,"vilcode11":0,"vilname11":"KALIKUNDRAM","pan_local":" ","b_pan_code":0,"b_pan_name":" ","d_pan_code":0,"d_pan_name":" ","gp_code":"","gp_name":"","st_2011":"33","dt_2011":"603","sdt_2011":"","subdtname":"Velachery","block_name":"Chennai","blk_lgdcod":"0","dtcode14":"603","SHAPE_Length":4157.17136086049,"SHAPE_Area":974792.7119438222}},{"arcs":[[11,-7,-11,12]],"type":"Polygon","properties":{"OBJECTID":302509,"gpcode":"","gpname":"","stname":"TAMIL NADU","dtname":"Chennai","sdtname":"Velachery","stcode11":"33","dtcode11":"603","sdtcode11":"","blklgdcode":"0","blkname":"Chennai","dt_lgd":568,"sdt_lgd":7171,"st_lgd":33,"vilcode11":0,"vilname11":"SHASTRINAGAR","pan_local":" ","b_pan_code":0,"b_pan_name":" ","d_pan_code":0,"d_pan_name":" ","gp_code":"","gp_name":"","st_2011":"33","dt_2011":"603","sdt_2011":"","subdtname":"Velachery","block_name":"Chennai","blk_lgdcod":"0","dtcode14":"603","SHAPE_Length":4870.826000634783,"SHAPE_Area":1339138.7146274676}},{"arcs":[[-3,13,14]],"type":"Polygon","properties":{"OBJECTID":302514,"gpcode":"","gpname":"","stname":"TAMIL NADU","dtname":"Chennai","sdtname":"Velachery","stcode11":"33","dtcode11":"603","sdtcode11":"","blklgdcode":"0","blkname":"Chennai","dt_lgd":568,"sdt_lgd":7171,"st_lgd":33,"vilcode11":0,"vilname11":"TARAMANI","pan_local":" ","b_pan_code":0,"b_pan_name":" ","d_pan_code":0,"d_pan_name":" ","gp_code":"","gp_name":"","st_2011":"33","dt_2011":"603","sdt_2011":"","subdtname":"Velachery","block_name":"Chennai","blk_lgdcod":"0","dtcode14":"603","SHAPE_Length":14861.135742569328,"SHAPE_Area":9065875.46913866}},{"arcs":[[15,16,17,18]],"type":"Polygon","properties":{"OBJECTID":302531,"gpcode":"","gpname":"","stname":"TAMIL NADU","dtname":"Chennai","sdtname":"Maduravoyal","stcode11":"33","dtcode11":"603","sdtcode11":"","blklgdcode":"0","blkname":"Chennai","dt_lgd":568,"sdt_lgd":5981,"st_lgd":33,"vilcode11":629176,"vilname11":"Ramapuram (CT)","pan_local":" ","b_pan_code":0,"b_pan_name":" ","d_pan_code":0,"d_pan_name":" ","gp_code":"","gp_name":"","st_2011":"33","dt_2011":"603","sdt_2011":"","subdtname":"Maduravoyal","block_name":"Chennai","blk_lgdcod":"0","dtcode14":"603","SHAPE_Length":6827.0912259347415,"SHAPE_Area":2179618.9296547244}},{"arcs":[[19,20,21,22,23]],"type":"Polygon","properties":{"OBJECTID":302532,"gpcode":"","gpname":"","stname":"TAMIL NADU","dtname":"Chennai","sdtname":"Maduravoyal","stcode11":"33","dtcode11":"603","sdtcode11":"","blklgdcode":"0","blkname":"Chennai","dt_lgd":568,"sdt_lgd":5981,"st_lgd":33,"vilcode11":629175,"vilname11":"Karambakkam (CT)","pan_local":" ","b_pan_code":0,"b_pan_name":" ","d_pan_code":0,"d_pan_name":" ","gp_code":"","gp_name":"","st_2011":"33","dt_2011":"603","sdt_2011":"","subdtname":"Maduravoyal","block_name":"Chennai","blk_lgdcod":"0","dtcode14":"603","SHAPE_Length":4687.677078111772,"SHAPE_Area":1076737.8877747743}},{"arcs":[[-17,24,-20,25,26]],"type":"Polygon","properties":{"OBJECTID":302534,"gpcode":"","gpname":"","stname":"TAMIL NADU","dtname":"Chennai","sdtname":"Maduravoyal","stcode11":"33","dtcode11":"603","sdtcode11":"","blklgdcode":"0","blkname":"Chennai","dt_lgd":568,"sdt_lgd":5981,"st_lgd":33,"vilcode11":803331,"vilname11":"Porur (TP)","pan_local":" ","b_pan_code":0,"b_pan_name":" ","d_pan_code":0,"d_pan_name":" ","gp_code":"","gp_name":"","st_2011":"33","dt_2011":"603","sdt_2011":"","subdtname":"Maduravoyal","block_name":"Chennai","blk_lgdcod":"0","dtcode14":"603","SHAPE_Length":11411.942702356004,"SHAPE_Area":5136546.82352344}},{"arcs":[[27,-22,28,29]],"type":"Polygon","properties":{"OBJECTID":302538,"gpcode":"","gpname":"","stname":"TAMIL NADU","dtname":"Chennai","sdtname":"Maduravoyal","stcode11":"33","dtcode11":"603","sdtcode11":"","blklgdcode":"0","blkname":"Chennai","dt_lgd":568,"sdt_lgd":5981,"st_lgd":33,"vilcode11":0,"vilname11":"TANDALAM","pan_local":" ","b_pan_code":0,"b_pan_name":" ","d_pan_code":0,"d_pan_name":" ","gp_code":"","gp_name":"","st_2011":"33","dt_2011":"603","sdt_2011":"","subdtname":"Maduravoyal","block_name":"Chennai","blk_lgdcod":"0","dtcode14":"603","SHAPE_Length":5876.582304164686,"SHAPE_Area":992809.2734839785}},{"arcs":[[30,-30,31,32]],"type":"Polygon","properties":{"OBJECTID":302539,"gpcode":"","gpname":"","stname":"TAMIL NADU","dtname":"Chennai","sdtname":"Maduravoyal","stcode11":"33","dtcode11":"603","sdtcode11":"","blklgdcode":"0","blkname":"Chennai","dt_lgd":568,"sdt_lgd":5981,"st_lgd":33,"vilcode11":0,"vilname11":"CHETTIYARAGARAM","pan_local":" ","b_pan_code":0,"b_pan_name":" ","d_pan_code":0,"d_pan_name":" ","gp_code":"","gp_name":"","st_2011":"33","dt_2011":"603","sdt_2011":"","subdtname":"Maduravoyal","block_name":"Chennai","blk_lgdcod":"0","dtcode14":"603","SHAPE_Length":3786.744573287557,"SHAPE_Area":646730.7233130457}},{"arcs":[[33,-18,-27,34,35]],"type":"Polygon","properties":{"OBJECTID":302540,"gpcode":"","gpname":"","stname":"TAMIL NADU","dtname":"Chennai","sdtname":"Maduravoyal","stcode11":"33","dtcode11":"603","sdtcode11":"","blklgdcode":"0","blkname":"Chennai","dt_lgd":568,"sdt_lgd":5981,"st_lgd":33,"vilcode11":803330,"vilname11":"Valasaravakkam (M)","pan_local":" ","b_pan_code":0,"b_pan_name":" ","d_pan_code":0,"d_pan_name":" ","gp_code":"","gp_name":"","st_2011":"33","dt_2011":"603","sdt_2011":"","subdtname":"Maduravoyal","block_name":"Chennai","blk_lgdcod":"0","dtcode14":"603","SHAPE_Length":5383.615708688926,"SHAPE_Area":1672746.2883456973}},{"arcs":[[36,37,-9,-4,-15,38,39,40]],"type":"Polygon","properties":{"OBJECTID":302542,"gpcode":"","gpname":"","stname":"TAMIL NADU","dtname":"Chennai","sdtname":"Guindy","stcode11":"33","dtcode11":"603","sdtcode11":"","blklgdcode":"0","blkname":"Chennai","dt_lgd":568,"sdt_lgd":7169,"st_lgd":33,"vilcode11":0,"vilname11":"GUINDY PARK RF","pan_local":" ","b_pan_code":0,"b_pan_name":" ","d_pan_code":0,"d_pan_name":" ","gp_code":"","gp_name":"","st_2011":"33","dt_2011":"603","sdt_2011":"","subdtname":"Guindy","block_name":"Chennai","blk_lgdcod":"0","dtcode14":"603","SHAPE_Length":34222.02390205445,"SHAPE_Area":22232423.770331975}},{"arcs":[[41,-40,42,-19,-34,43,44]],"type":"Polygon","properties":{"OBJECTID":302545,"gpcode":"","gpname":"","stname":"TAMIL NADU","dtname":"Chennai","sdtname":"Mambalam","stcode11":"33","dtcode11":"603","sdtcode11":"","blklgdcode":"0","blkname":"Chennai","dt_lgd":568,"sdt_lgd":7165,"st_lgd":33,"vilcode11":803351,"vilname11":"Alandur (M)","pan_local":" ","b_pan_code":0,"b_pan_name":" ","d_pan_code":0,"d_pan_name":" ","gp_code":"","gp_name":"","st_2011":"33","dt_2011":"603","sdt_2011":"","subdtname":"Mambalam","block_name":"Chennai","blk_lgdcod":"0","dtcode14":"603","SHAPE_Length":23197.47344736601,"SHAPE_Area":15808751.261139205}},{"arcs":[[-33,45]],"type":"Polygon","properties":{"OBJECTID":302547,"gpcode":"","gpname":"","stname":"TAMIL NADU","dtname":"Chennai","sdtname":"Maduravoyal","stcode11":"33","dtcode11":"603","sdtcode11":"","blklgdcode":"0","blkname":"Chennai","dt_lgd":568,"sdt_lgd":5981,"st_lgd":33,"vilcode11":0,"vilname11":"SIVABOOTHAM","pan_local":" ","b_pan_code":0,"b_pan_name":" ","d_pan_code":0,"d_pan_name":" ","gp_code":"","gp_name":"","st_2011":"33","dt_2011":"603","sdt_2011":"","subdtname":"Maduravoyal","block_name":"Chennai","blk_lgdcod":"0","dtcode14":"603","SHAPE_Length":3709.4837261763237,"SHAPE_Area":878358.3959715633}},{"arcs":[[46,47,-35,-26,19,-20,-24,48,49]],"type":"Polygon","properties":{"OBJECTID":302552,"gpcode":"","gpname":"","stname":"TAMIL NADU","dtname":"Chennai","sdtname":"Maduravoyal","stcode11":"33","dtcode11":"603","sdtcode11":"","blklgdcode":"0","blkname":"Chennai","dt_lgd":568,"sdt_lgd":5981,"st_lgd":33,"vilcode11":803329,"vilname11":"Maduravoyal (M)","pan_local":" ","b_pan_code":0,"b_pan_name":" ","d_pan_code":0,"d_pan_name":" ","gp_code":"","gp_name":"","st_2011":"33","dt_2011":"603","sdt_2011":"","subdtname":"Maduravoyal","block_name":"Chennai","blk_lgdcod":"0","dtcode14":"603","SHAPE_Length":15209.87098817292,"SHAPE_Area":6633875.1052770475}},{"arcs":[[-44,-36,-48,50,51]],"type":"Polygon","properties":{"OBJECTID":302553,"gpcode":"","gpname":"","stname":"TAMIL NADU","dtname":"Chennai","sdtname":"Maduravoyal","stcode11":"33","dtcode11":"603","sdtcode11":"","blklgdcode":"0","blkname":"Chennai","dt_lgd":568,"sdt_lgd":5981,"st_lgd":33,"vilcode11":629173,"vilname11":"Nerkunram (CT)","pan_local":" ","b_pan_code":0,"b_pan_name":" ","d_pan_code":0,"d_pan_name":" ","gp_code":"","gp_name":"","st_2011":"33","dt_2011":"603","sdt_2011":"","subdtname":"Maduravoyal","block_name":"Chennai","blk_lgdcod":"0","dtcode14":"603","SHAPE_Length":6983.81863265017,"SHAPE_Area":2236238.3551486856}},{"arcs":[[52,53,-37,54,55]],"type":"Polygon","properties":{"OBJECTID":302556,"gpcode":"","gpname":"","stname":"TAMIL NADU","dtname":"Chennai","sdtname":"Mylapore","stcode11":"33","dtcode11":"603","sdtcode11":"","blklgdcode":"0","blkname":"Chennai","dt_lgd":568,"sdt_lgd":7170,"st_lgd":33,"vilcode11":0,"vilname11":"MYLAPORE TIRUVALLI KKENI","pan_local":" ","b_pan_code":0,"b_pan_name":" ","d_pan_code":0,"d_pan_name":" ","gp_code":"","gp_name":"","st_2011":"33","dt_2011":"603","sdt_2011":"","subdtname":"Mylapore","block_name":"Chennai","blk_lgdcod":"0","dtcode14":"603","SHAPE_Length":24117.923258594878,"SHAPE_Area":23745753.153220467}},{"arcs":[[-50,56,57]],"type":"Polygon","properties":{"OBJECTID":302557,"gpcode":"","gpname":"","stname":"TAMIL NADU","dtname":"Chennai","sdtname":"Maduravoyal","stcode11":"33","dtcode11":"603","sdtcode11":"","blklgdcode":"0","blkname":"Chennai","dt_lgd":568,"sdt_lgd":5981,"st_lgd":33,"vilcode11":629172,"vilname11":"Nolambur (CT)","pan_local":" ","b_pan_code":0,"b_pan_name":" ","d_pan_code":0,"d_pan_name":" ","gp_code":"","gp_name":"","st_2011":"33","dt_2011":"603","sdt_2011":"","subdtname":"Maduravoyal","block_name":"Chennai","blk_lgdcod":"0","dtcode14":"603","SHAPE_Length":6938.00551447098,"SHAPE_Area":2650720.5190775846}},{"arcs":[[58,-45,-52,59,60]],"type":"Polygon","properties":{"OBJECTID":302568,"gpcode":"","gpname":"","stname":"TAMIL NADU","dtname":"Chennai","sdtname":"Aminjikarai","stcode11":"33","dtcode11":"603","sdtcode11":"","blklgdcode":"0","blkname":"Chennai","dt_lgd":568,"sdt_lgd":7161,"st_lgd":33,"vilcode11":0,"vilname11":"EGMORE NUNGAMBAKKAM","pan_local":" ","b_pan_code":0,"b_pan_name":" ","d_pan_code":0,"d_pan_name":" ","gp_code":"","gp_name":"","st_2011":"33","dt_2011":"603","sdt_2011":"","subdtname":"Aminjikarai","block_name":"Chennai","blk_lgdcod":"0","dtcode14":"603","SHAPE_Length":22146.367209060136,"SHAPE_Area":17033372.836758435}},{"arcs":[[61,62,63,-61,64,65]],"type":"Polygon","properties":{"OBJECTID":302573,"gpcode":"","gpname":"","stname":"TAMIL NADU","dtname":"Chennai","sdtname":"Ayanavaram","stcode11":"33","dtcode11":"603","sdtcode11":"","blklgdcode":"0","blkname":"Chennai","dt_lgd":568,"sdt_lgd":7163,"st_lgd":33,"vilcode11":0,"vilname11":"PERAMBUR PURASAVAKKAM","pan_local":" ","b_pan_code":0,"b_pan_name":" ","d_pan_code":0,"d_pan_name":" ","gp_code":"","gp_name":"","st_2011":"33","dt_2011":"603","sdt_2011":"","subdtname":"Ayanavaram","block_name":"Chennai","blk_lgdcod":"0","dtcode14":"603","SHAPE_Length":20230.888903148396,"SHAPE_Area":16314118.639989661}},{"arcs":[[66,67,68,-65,-60,-51,-47,-58,69]],"type":"Polygon","properties":{"OBJECTID":302578,"gpcode":"","gpname":"","stname":"TAMIL NADU","dtname":"Chennai","sdtname":"Ambattur","stcode11":"33","dtcode11":"603","sdtcode11":"05700","blklgdcode":"0","blkname":"Chennai","dt_lgd":568,"sdt_lgd":5700,"st_lgd":33,"vilcode11":803328,"vilname11":"Ambattur (M)","pan_local":" ","b_pan_code":0,"b_pan_name":" ","d_pan_code":0,"d_pan_name":" ","gp_code":"","gp_name":"","st_2011":"33","dt_2011":"603","sdt_2011":"05700","subdtname":"Ambattur","block_name":"Chennai","blk_lgdcod":"0","dtcode14":"603","SHAPE_Length":28337.039452065197,"SHAPE_Area":40014502.875039175}},{"arcs":[[70,-68,71,72]],"type":"Polygon","properties":{"OBJECTID":302579,"gpcode":"","gpname":"","stname":"TAMIL NADU","dtname":"Chennai","sdtname":"Mathavaram","stcode11":"33","dtcode11":"603","sdtcode11":"05701","blklgdcode":"0","blkname":"Chennai","dt_lgd":568,"sdt_lgd":5701,"st_lgd":33,"vilcode11":629199,"vilname11":"Puthagaram (CT)","pan_local":" ","b_pan_code":0,"b_pan_name":" ","d_pan_code":0,"d_pan_name":" ","gp_code":"","gp_name":"","st_2011":"33","dt_2011":"603","sdt_2011":"05701","subdtname":"Mathavaram","block_name":"Chennai","blk_lgdcod":"0","dtcode14":"603","SHAPE_Length":5486.146958028293,"SHAPE_Area":1839823.9467134813}},{"arcs":[[73,74,75,76]],"type":"Polygon","properties":{"OBJECTID":302580,"gpcode":"","gpname":"","stname":"TAMIL NADU","dtname":"Chennai","sdtname":"Tondiarpet","stcode11":"33","dtcode11":"603","sdtcode11":"","blklgdcode":"0","blkname":"Chennai","dt_lgd":568,"sdt_lgd":7168,"st_lgd":33,"vilcode11":803339,"vilname11":"Chennai (M Corp.)","pan_local":" ","b_pan_code":0,"b_pan_name":" ","d_pan_code":0,"d_pan_name":" ","gp_code":"","gp_name":"","st_2011":"33","dt_2011":"603","sdt_2011":"","subdtname":"Tondiarpet","block_name":"Chennai","blk_lgdcod":"0","dtcode14":"603","SHAPE_Length":22892.42248344033,"SHAPE_Area":14572165.147745574}},{"arcs":[[77,-76,78,-62,79,80]],"type":"Polygon","properties":{"OBJECTID":302581,"gpcode":"","gpname":"","stname":"TAMIL NADU","dtname":"Chennai","sdtname":"Perambur","stcode11":"33","dtcode11":"603","sdtcode11":"","blklgdcode":"0","blkname":"Chennai","dt_lgd":568,"sdt_lgd":7166,"st_lgd":33,"vilcode11":0,"vilname11":"FORT TANDIARPET","pan_local":" ","b_pan_code":0,"b_pan_name":" ","d_pan_code":0,"d_pan_name":" ","gp_code":"","gp_name":"","st_2011":"33","dt_2011":"603","sdt_2011":"","subdtname":"Perambur","block_name":"Chennai","blk_lgdcod":"0","dtcode14":"603","SHAPE_Length":22188.280427811744,"SHAPE_Area":19025149.9368049}},{"arcs":[[81,-73,82,83]],"type":"Polygon","properties":{"OBJECTID":302582,"gpcode":"","gpname":"","stname":"TAMIL NADU","dtname":"Chennai","sdtname":"Mathavaram","stcode11":"33","dtcode11":"603","sdtcode11":"05701","blklgdcode":"0","blkname":"Chennai","dt_lgd":568,"sdt_lgd":5701,"st_lgd":33,"vilcode11":629197,"vilname11":"Kadhirvedu (CT)","pan_local":" ","b_pan_code":0,"b_pan_name":" ","d_pan_code":0,"d_pan_name":" ","gp_code":"","gp_name":"","st_2011":"33","dt_2011":"603","sdt_2011":"05701","subdtname":"Mathavaram","block_name":"Chennai","blk_lgdcod":"0","dtcode14":"603","SHAPE_Length":5269.767953185708,"SHAPE_Area":1291606.5357540725}},{"arcs":[[-83,-72,-67,84,85]],"type":"Polygon","properties":{"OBJECTID":302583,"gpcode":"","gpname":"","stname":"TAMIL NADU","dtname":"Chennai","sdtname":"Mathavaram","stcode11":"33","dtcode11":"603","sdtcode11":"05701","blklgdcode":"0","blkname":"Chennai","dt_lgd":568,"sdt_lgd":5701,"st_lgd":33,"vilcode11":629198,"vilname11":"Soorapattu (CT)","pan_local":" ","b_pan_code":0,"b_pan_name":" ","d_pan_code":0,"d_pan_name":" ","gp_code":"","gp_name":"","st_2011":"33","dt_2011":"603","sdt_2011":"05701","subdtname":"Mathavaram","block_name":"Chennai","blk_lgdcod":"0","dtcode14":"603","SHAPE_Length":9079.005326681952,"SHAPE_Area":2838868.070106242}},{"arcs":[[86,-81,87,88]],"type":"Polygon","properties":{"OBJECTID":302585,"gpcode":"","gpname":"","stname":"TAMIL NADU","dtname":"Chennai","sdtname":"Tiruvottiyur","stcode11":"33","dtcode11":"603","sdtcode11":"","blklgdcode":"0","blkname":"Chennai","dt_lgd":568,"sdt_lgd":5982,"st_lgd":33,"vilcode11":803338,"vilname11":"Chinnasekkadu (TP)","pan_local":" ","b_pan_code":0,"b_pan_name":" ","d_pan_code":0,"d_pan_name":" ","gp_code":"","gp_name":"","st_2011":"33","dt_2011":"603","sdt_2011":"","subdtname":"Tiruvottiyur","block_name":"Chennai","blk_lgdcod":"0","dtcode14":"603","SHAPE_Length":5510.543931096369,"SHAPE_Area":1567900.2153213525}},{"arcs":[[89,-88,-80,-66,-69,-71,-82,90,91,92,93]],"type":"Polygon","properties":{"OBJECTID":302587,"gpcode":"","gpname":"","stname":"TAMIL NADU","dtname":"Chennai","sdtname":"Mathavaram","stcode11":"33","dtcode11":"603","sdtcode11":"05701","blklgdcode":"0","blkname":"Chennai","dt_lgd":568,"sdt_lgd":5701,"st_lgd":33,"vilcode11":803337,"vilname11":"Madavaram (M)","pan_local":" ","b_pan_code":0,"b_pan_name":" ","d_pan_code":0,"d_pan_name":" ","gp_code":"","gp_name":"","st_2011":"33","dt_2011":"603","sdt_2011":"05701","subdtname":"Mathavaram","block_name":"Chennai","blk_lgdcod":"0","dtcode14":"603","SHAPE_Length":21004.542991730355,"SHAPE_Area":19743124.77622354}},{"arcs":[[-92,94,95,96]],"type":"Polygon","properties":{"OBJECTID":302588,"gpcode":"","gpname":"","stname":"TAMIL NADU","dtname":"Chennai","sdtname":"Mathavaram","stcode11":"33","dtcode11":"603","sdtcode11":"05701","blklgdcode":"0","blkname":"Chennai","dt_lgd":568,"sdt_lgd":5701,"st_lgd":33,"vilcode11":0,"vilname11":"MANJAMBAKKAM","pan_local":" ","b_pan_code":0,"b_pan_name":" ","d_pan_code":0,"d_pan_name":" ","gp_code":"","gp_name":"","st_2011":"33","dt_2011":"603","sdt_2011":"05701","subdtname":"Mathavaram","block_name":"Chennai","blk_lgdcod":"0","dtcode14":"603","SHAPE_Length":3629.5492627436406,"SHAPE_Area":704555.9750667169}},{"arcs":[[-93,-97,97,98,99]],"type":"Polygon","properties":{"OBJECTID":302590,"gpcode":"","gpname":"","stname":"TAMIL NADU","dtname":"Chennai","sdtname":"Mathavaram","stcode11":"33","dtcode11":"603","sdtcode11":"05701","blklgdcode":"0","blkname":"Chennai","dt_lgd":568,"sdt_lgd":5701,"st_lgd":33,"vilcode11":0,"vilname11":"MATTUR","pan_local":" ","b_pan_code":0,"b_pan_name":" ","d_pan_code":0,"d_pan_name":" ","gp_code":"","gp_name":"","st_2011":"33","dt_2011":"603","sdt_2011":"05701","subdtname":"Mathavaram","block_name":"Chennai","blk_lgdcod":"0","dtcode14":"603","SHAPE_Length":6665.895241890732,"SHAPE_Area":2142488.647094572}},{"arcs":[[100,-94,-100,101,102]],"type":"Polygon","properties":{"OBJECTID":302591,"gpcode":"","gpname":"","stname":"TAMIL NADU","dtname":"Chennai","sdtname":"Tiruvottiyur","stcode11":"33","dtcode11":"603","sdtcode11":"","blklgdcode":"0","blkname":"Chennai","dt_lgd":568,"sdt_lgd":5982,"st_lgd":33,"vilcode11":629196,"vilname11":"Mathur (CT)","pan_local":" ","b_pan_code":0,"b_pan_name":" ","d_pan_code":0,"d_pan_name":" ","gp_code":"","gp_name":"","st_2011":"33","dt_2011":"603","sdt_2011":"","subdtname":"Tiruvottiyur","block_name":"Chennai","blk_lgdcod":"0","dtcode14":"603","SHAPE_Length":5705.032536789164,"SHAPE_Area":1932523.7896167464}},{"arcs":[[103,-95,-91,-84,-86,104]],"type":"Polygon","properties":{"OBJECTID":302592,"gpcode":"","gpname":"","stname":"TAMIL NADU","dtname":"Chennai","sdtname":"Mathavaram","stcode11":"33","dtcode11":"603","sdtcode11":"05701","blklgdcode":"0","blkname":"Chennai","dt_lgd":568,"sdt_lgd":5701,"st_lgd":33,"vilcode11":629187,"vilname11":"Villakkupattu","pan_local":" ","b_pan_code":0,"b_pan_name":" ","d_pan_code":0,"d_pan_name":" ","gp_code":"","gp_name":"","st_2011":"33","dt_2011":"603","sdt_2011":"05701","subdtname":"Mathavaram","block_name":"Chennai","blk_lgdcod":"0","dtcode14":"603","SHAPE_Length":11663.831570551423,"SHAPE_Area":6415104.281263583}},{"arcs":[[105,-89,-90,-101,106,107]],"type":"Polygon","properties":{"OBJECTID":302593,"gpcode":"","gpname":"","stname":"TAMIL NADU","dtname":"Chennai","sdtname":"Tiruvottiyur","stcode11":"33","dtcode11":"603","sdtcode11":"","blklgdcode":"0","blkname":"Chennai","dt_lgd":568,"sdt_lgd":5982,"st_lgd":33,"vilcode11":803334,"vilname11":"Manali (M)","pan_local":" ","b_pan_code":0,"b_pan_name":" ","d_pan_code":0,"d_pan_name":" ","gp_code":"","gp_name":"","st_2011":"33","dt_2011":"603","sdt_2011":"","subdtname":"Tiruvottiyur","block_name":"Chennai","blk_lgdcod":"0","dtcode14":"603","SHAPE_Length":11748.542076819014,"SHAPE_Area":7896033.152333026}},{"arcs":[[108,-98,-96,-104,109,110]],"type":"Polygon","properties":{"OBJECTID":302594,"gpcode":"","gpname":"","stname":"TAMIL NADU","dtname":"Chennai","sdtname":"Mathavaram","stcode11":"33","dtcode11":"603","sdtcode11":"05701","blklgdcode":"0","blkname":"Chennai","dt_lgd":568,"sdt_lgd":5701,"st_lgd":33,"vilcode11":629186,"vilname11":"Vadaperumbakkam","pan_local":" ","b_pan_code":0,"b_pan_name":" ","d_pan_code":0,"d_pan_name":" ","gp_code":"","gp_name":"","st_2011":"33","dt_2011":"603","sdt_2011":"05701","subdtname":"Mathavaram","block_name":"Chennai","blk_lgdcod":"0","dtcode14":"603","SHAPE_Length":6007.104024717839,"SHAPE_Area":1955347.338411551}},{"arcs":[[-99,-109,111,112]],"type":"Polygon","properties":{"OBJECTID":302595,"gpcode":"","gpname":"","stname":"TAMIL NADU","dtname":"Chennai","sdtname":"Mathavaram","stcode11":"33","dtcode11":"603","sdtcode11":"05701","blklgdcode":"0","blkname":"Chennai","dt_lgd":568,"sdt_lgd":5701,"st_lgd":33,"vilcode11":629184,"vilname11":"Kosapur","pan_local":" ","b_pan_code":0,"b_pan_name":" ","d_pan_code":0,"d_pan_name":" ","gp_code":"","gp_name":"","st_2011":"33","dt_2011":"603","sdt_2011":"05701","subdtname":"Mathavaram","block_name":"Chennai","blk_lgdcod":"0","dtcode14":"603","SHAPE_Length":4324.236074969562,"SHAPE_Area":1033328.8822705366}},{"arcs":[[113,114,115]],"type":"Polygon","properties":{"OBJECTID":302597,"gpcode":"","gpname":"","stname":"TAMIL NADU","dtname":"Chennai","sdtname":"Tiruvottiyur","stcode11":"33","dtcode11":"603","sdtcode11":"","blklgdcode":"0","blkname":"Chennai","dt_lgd":568,"sdt_lgd":5982,"st_lgd":33,"vilcode11":629183,"vilname11":"Elandancheri","pan_local":" ","b_pan_code":0,"b_pan_name":" ","d_pan_code":0,"d_pan_name":" ","gp_code":"","gp_name":"","st_2011":"33","dt_2011":"603","sdt_2011":"","subdtname":"Tiruvottiyur","block_name":"Chennai","blk_lgdcod":"0","dtcode14":"603","SHAPE_Length":1917.43594405205,"SHAPE_Area":261903.49907196843}},{"arcs":[[-102,-113,116]],"type":"Polygon","properties":{"OBJECTID":302598,"gpcode":"","gpname":"","stname":"TAMIL NADU","dtname":"Chennai","sdtname":"Tiruvottiyur","stcode11":"33","dtcode11":"603","sdtcode11":"","blklgdcode":"0","blkname":"Chennai","dt_lgd":568,"sdt_lgd":5982,"st_lgd":33,"vilcode11":0,"vilname11":"KOSAPPUR","pan_local":" ","b_pan_code":0,"b_pan_name":" ","d_pan_code":0,"d_pan_name":" ","gp_code":"","gp_name":"","st_2011":"33","dt_2011":"603","sdt_2011":"","subdtname":"Tiruvottiyur","block_name":"Chennai","blk_lgdcod":"0","dtcode14":"603","SHAPE_Length":6631.291781335032,"SHAPE_Area":1972736.5120104526}},{"arcs":[[117,-108,118,-116,119,120,121]],"type":"Polygon","properties":{"OBJECTID":302601,"gpcode":"","gpname":"","stname":"TAMIL NADU","dtname":"Chennai","sdtname":"Tiruvottiyur","stcode11":"33","dtcode11":"603","sdtcode11":"","blklgdcode":"0","blkname":"Chennai","dt_lgd":568,"sdt_lgd":5982,"st_lgd":33,"vilcode11":629182,"vilname11":"Sadayankuppam","pan_local":" ","b_pan_code":0,"b_pan_name":" ","d_pan_code":0,"d_pan_name":" ","gp_code":"","gp_name":"","st_2011":"33","dt_2011":"603","sdt_2011":"","subdtname":"Tiruvottiyur","block_name":"Chennai","blk_lgdcod":"0","dtcode14":"603","SHAPE_Length":12323.570261238634,"SHAPE_Area":7415293.971109452}},{"arcs":[[-120,-115,122,123]],"type":"Polygon","properties":{"OBJECTID":302602,"gpcode":"","gpname":"","stname":"TAMIL NADU","dtname":"Chennai","sdtname":"Tiruvottiyur","stcode11":"33","dtcode11":"603","sdtcode11":"","blklgdcode":"0","blkname":"Chennai","dt_lgd":568,"sdt_lgd":5982,"st_lgd":33,"vilcode11":629181,"vilname11":"Kadapakkam","pan_local":" ","b_pan_code":0,"b_pan_name":" ","d_pan_code":0,"d_pan_name":" ","gp_code":"","gp_name":"","st_2011":"33","dt_2011":"603","sdt_2011":"","subdtname":"Tiruvottiyur","block_name":"Chennai","blk_lgdcod":"0","dtcode14":"603","SHAPE_Length":8496.472546960389,"SHAPE_Area":4045034.9730876214}},{"arcs":[[124,125,-77,-78,-87,-106,-118,126]],"type":"Polygon","properties":{"OBJECTID":302603,"gpcode":"","gpname":"","stname":"TAMIL NADU","dtname":"Chennai","sdtname":"Tiruvottiyur","stcode11":"33","dtcode11":"603","sdtcode11":"","blklgdcode":"0","blkname":"Chennai","dt_lgd":568,"sdt_lgd":5982,"st_lgd":33,"vilcode11":803333,"vilname11":"Tiruvottiyur (M)","pan_local":" ","b_pan_code":0,"b_pan_name":" ","d_pan_code":0,"d_pan_name":" ","gp_code":"","gp_name":"","st_2011":"33","dt_2011":"603","sdt_2011":"","subdtname":"Tiruvottiyur","block_name":"Chennai","blk_lgdcod":"0","dtcode14":"603","SHAPE_Length":24203.812094876113,"SHAPE_Area":20383039.79160869}},{"arcs":[[127,-127,-122,128]],"type":"Polygon","properties":{"OBJECTID":302611,"gpcode":"","gpname":"","stname":"TAMIL NADU","dtname":"Chennai","sdtname":"Tiruvottiyur","stcode11":"33","dtcode11":"603","sdtcode11":"","blklgdcode":"0","blkname":"Chennai","dt_lgd":568,"sdt_lgd":5982,"st_lgd":33,"vilcode11":628773,"vilname11":"Edayanchavadi (CT)","pan_local":" ","b_pan_code":0,"b_pan_name":" ","d_pan_code":0,"d_pan_name":" ","gp_code":"","gp_name":"","st_2011":"33","dt_2011":"603","sdt_2011":"","subdtname":"Tiruvottiyur","block_name":"Chennai","blk_lgdcod":"0","dtcode14":"603","SHAPE_Length":14641.650810065194,"SHAPE_Area":8761882.593965346}},{"arcs":[[-125,-128,129]],"type":"Polygon","properties":{"OBJECTID":302612,"gpcode":"","gpname":"","stname":"TAMIL NADU","dtname":"Chennai","sdtname":"Tiruvottiyur","stcode11":"33","dtcode11":"603","sdtcode11":"","blklgdcode":"0","blkname":"Chennai","dt_lgd":568,"sdt_lgd":5982,"st_lgd":33,"vilcode11":803332,"vilname11":"Kattivakkam (M)","pan_local":" ","b_pan_code":0,"b_pan_name":" ","d_pan_code":0,"d_pan_name":" ","gp_code":"","gp_name":"","st_2011":"33","dt_2011":"603","sdt_2011":"","subdtname":"Tiruvottiyur","block_name":"Chennai","blk_lgdcod":"0","dtcode14":"603","SHAPE_Length":10453.657063538969,"SHAPE_Area":5358363.749009298}},{"arcs":[[130,-13,-10,-38,-54]],"type":"Polygon","properties":{"OBJECTID":318891,"gpcode":"","gpname":"","stname":"TAMIL NADU","dtname":"Chennai","sdtname":"Velachery","stcode11":"33","dtcode11":"603","sdtcode11":"","blklgdcode":"0","blkname":"Chennai","dt_lgd":568,"sdt_lgd":7171,"st_lgd":33,"vilcode11":0,"vilname11":" ","pan_local":" ","b_pan_code":0,"b_pan_name":" ","d_pan_code":0,"d_pan_name":" ","gp_code":"","gp_name":"","st_2011":"33","dt_2011":"603","sdt_2011":"","subdtname":"Velachery","block_name":"Chennai","blk_lgdcod":"0","dtcode14":"603","SHAPE_Length":10124.859210923858,"SHAPE_Area":3824473.6466079163}},{"arcs":[[131,-55,-41,-42,-59,-64]],"type":"Polygon","properties":{"OBJECTID":318897,"gpcode":"","gpname":"","stname":"TAMIL NADU","dtname":"Chennai","sdtname":"Chennai","stcode11":"33","dtcode11":"603","sdtcode11":"05925","blklgdcode":"0","blkname":"Chennai","dt_lgd":568,"sdt_lgd":0,"st_lgd":33,"vilcode11":0,"vilname11":" ","pan_local":" ","b_pan_code":0,"b_pan_name":" ","d_pan_code":0,"d_pan_name":" ","gp_code":"","gp_name":"","st_2011":"33","dt_2011":"603","sdt_2011":"05925","subdtname":"Chennai","block_name":"Chennai","blk_lgdcod":"0","dtcode14":"603","SHAPE_Length":26195.850739491812,"SHAPE_Area":18604078.17621347}},{"arcs":[[-56,-132,-63,-79,-75,132]],"type":"Polygon","properties":{"OBJECTID":318899,"gpcode":"","gpname":"","stname":"TAMIL NADU","dtname":"Chennai","sdtname":"Purasawalkam","stcode11":"33","dtcode11":"603","sdtcode11":"","blklgdcode":"0","blkname":"Chennai","dt_lgd":568,"sdt_lgd":7167,"st_lgd":33,"vilcode11":0,"vilname11":" ","pan_local":" ","b_pan_code":0,"b_pan_name":" ","d_pan_code":0,"d_pan_name":" ","gp_code":"","gp_name":"","st_2011":"33","dt_2011":"603","sdt_2011":"","subdtname":"Purasawalkam","block_name":"Chennai","blk_lgdcod":"0","dtcode14":"603","SHAPE_Length":27545.464452484623,"SHAPE_Area":17884610.99051772}},{"arcs":[[-123,-114,-119,-107,-103,-117,-112,-111,133]],"type":"Polygon","properties":{"OBJECTID":241340,"gpcode":"229450","gpname":"Sendrambakkam","stname":"TAMIL NADU","dtname":"Chennai","sdtname":"Tiruvottiyur","stcode11":"33","dtcode11":"603","sdtcode11":"","blklgdcode":"0","blkname":"Chennai","dt_lgd":568,"sdt_lgd":5982,"st_lgd":33,"vilcode11":0,"vilname11":"","pan_local":" ","b_pan_code":0,"b_pan_name":" ","d_pan_code":0,"d_pan_name":" ","gp_code":"229450","gp_name":"Sendrambakkam","st_2011":"33","dt_2011":"603","sdt_2011":"","subdtname":"Tiruvottiyur","block_name":"Chennai","blk_lgdcod":"0","dtcode14":"603","SHAPE_Length":18065.326347404047,"SHAPE_Area":6879115.565106708}}]}}}