{"type":"Topology","arcs":[[[47132,66148],[4987,-11490],[-36658,-15528],[7980,35093],[23691,-8075]],[[60598,66148],[26932,-16770],[-23191,-13354],[-3741,30124]],[[85286,0],[-12219,17081],[17206,22360],[9726,-28882],[-14713,-10559]]],"transform":{"scale":[4.0100401004019615e-7,3.2200322003216044e-7],"translate":[74.7101,34.0056]},"objects":{"wards":{"type":"GeometryCollection","geometries":[{"type":null,"properties":{"objectid":112461,"statename":"Jammu And Kashmir","statecode":"1","districtname":"Budgam","districtcode":"2","ulbname":"Municipal Council Budgam","ulbcode":"800019","wardname":"Ganie Mohalla ","wardcode":"1","id":null,"status":"APPROVED","misglobalid":null,"approved_by":null,"createdate":1643572335000,"updateddate":1643659190000,"globalid":null,"gisglobalid":"ccBm4nQs-s6nP-P5cl-sBQ6-oRalnc6cnla4","remark":"","st_area(shape)":0.00005914121917783236,"st_perimeter(shape)":0.033007013386306246}},{"type":null,"properties":{"objectid":110100,"statename":"Jammu And Kashmir","statecode":"1","districtname":"Budgam","districtcode":"2","ulbname":"Municipal Council Budgam","ulbcode":"800019","wardname":"Khanpora ","wardcode":"2","id":null,"status":"APPROVED","misglobalid":null,"approved_by":null,"createdate":1643572390000,"updateddate":1643659298000,"globalid":null,"gisglobalid":"Qlddos44-QoRP-PoQR-Qcsl-RllmRBBnKmKd","remark":"","st_area(shape)":0.00003575506797857793,"st_perimeter(shape)":0.025502405746472216}},{"type":null,"properties":{"objectid":112462,"statename":"Jammu And Kashmir","statecode":"1","districtname":"Budgam","districtcode":"2","ulbname":"Municipal Council Budgam","ulbcode":"800019","wardname":"Haknipora","wardcode":"3","id":null,"status":"APPROVED","misglobalid":null,"approved_by":null,"createdate":1643571182000,"updateddate":1643659318000,"globalid":null,"gisglobalid":"Rdl46dP5-oPKP-PPQc-Q4l6-6BRmnlnP5l6o","remark":"","st_area(shape)":0.000009841108539699458,"st_perimeter(shape)":0.014467662732360132}},{"type":null,"properties":{"objectid":111746,"statename":"Jammu And Kashmir","statecode":"1","districtname":"Budgam","districtcode":"2","ulbname":"Municipal Council Budgam","ulbcode":"800019","wardname":"Wahadatpora ","wardcode":"4","id":null,"status":"APPROVED","misglobalid":null,"approved_by":null,"createdate":1643572008000,"updateddate":1643659336000,"globalid":null,"gisglobalid":"5RBomQQ5-KBcK-PKQ4-s654-QP6adRdlPRmo","remark":"","st_area(shape)":0.000053694859874217054,"st_perimeter(shape)":0.034824401744959724}},{"type":null,"properties":{"objectid":112463,"statename":"Jammu And Kashmir","statecode":"1","districtname":"Budgam","districtcode":"2","ulbname":"Municipal Council Budgam","ulbcode":"800019","wardname":"Bazar Mohalla","wardcode":"5","id":null,"status":"APPROVED","misglobalid":null,"approved_by":null,"createdate":1643571216000,"updateddate":1643659351000,"globalid":null,"gisglobalid":"K6BKP646-5Ra4-PlPm-Rl6n-QQal4QldQ55m","remark":"","st_area(shape)":0.00002112625501239814,"st_perimeter(shape)":0.01900063851998645}},{"arcs":[[0]],"type":"Polygon","properties":{"objectid":111742,"statename":"Jammu And Kashmir","statecode":"1","districtname":"Budgam","districtcode":"2","ulbname":"Municipal Council Budgam","ulbcode":"800019","wardname":"Karipora ","wardcode":"6","id":null,"status":"APPROVED","misglobalid":null,"approved_by":null,"createdate":1643572548000,"updateddate":1643659374000,"globalid":null,"gisglobalid":"oam4cB6R-aKQo-Pdca-sPQs-slcacdP6s6mm","remark":"","st_area(shape)":0.00015262452127256257,"st_perimeter(shape)":0.05555682365241183}},{"type":null,"properties":{"objectid":111745,"statename":"Jammu And Kashmir","statecode":"1","districtname":"Budgam","districtcode":"2","ulbname":"Municipal Council Budgam","ulbcode":"800019","wardname":"Narespora","wardcode":"7","id":null,"status":"APPROVED","misglobalid":null,"approved_by":null,"createdate":1643571910000,"updateddate":1643659385000,"globalid":null,"gisglobalid":"R54d5lK4-5c6s-PnRP-Q4Bn-oR645Kddl5n4","remark":"","st_area(shape)":0.000016580286976555675,"st_perimeter(shape)":0.01733785697443494}},{"arcs":[[1]],"type":"Polygon","properties":{"objectid":111741,"statename":"Jammu And Kashmir","statecode":"1","districtname":"Budgam","districtcode":"2","ulbname":"Municipal Council Budgam","ulbcode":"800019","wardname":"Housing Colony","wardcode":"8","id":null,"status":"APPROVED","misglobalid":null,"approved_by":null,"createdate":1643571251000,"updateddate":1643659268000,"globalid":null,"gisglobalid":"maPK5544-5BsR-P45n-aBsP-4n46oKdcmnBc","remark":"","st_area(shape)":0.00009059844135042255,"st_perimeter(shape)":0.03702610441943241}},{"arcs":[[2]],"type":"Polygon","properties":{"objectid":112465,"statename":"Jammu And Kashmir","statecode":"1","districtname":"Budgam","districtcode":"2","ulbname":"Municipal Council Budgam","ulbcode":"800019","wardname":"Dhobi Mohalla ","wardcode":"9","id":null,"status":"APPROVED","misglobalid":null,"approved_by":null,"createdate":1643571550000,"updateddate":1643659398000,"globalid":null,"gisglobalid":"sBBsK5mc-oma4-Pn4B-QP5l-K4R4lPl4nPKa","remark":"","st_area(shape)":0.0001043531315396213,"st_perimeter(shape)":0.04366073528973206}},{"type":null,"properties":{"objectid":112464,"statename":"Jammu And Kashmir","statecode":"1","districtname":"Budgam","districtcode":"2","ulbname":"Municipal Council Budgam","ulbcode":"800019","wardname":"Kasie Mohalla ","wardcode":"10","id":null,"status":"APPROVED","misglobalid":null,"approved_by":null,"createdate":1643571310000,"updateddate":1643659411000,"globalid":null,"gisglobalid":"oBPPomnm-dsdm-PcQo-QBQn-R546nRRB44do","remark":"","st_area(shape)":0.00009065666152767306,"st_perimeter(shape)":0.03852781896486837}},{"type":null,"properties":{"objectid":111744,"statename":"Jammu And Kashmir","statecode":"1","districtname":"Budgam","districtcode":"2","ulbname":"Municipal Council Budgam","ulbcode":"800019","wardname":"Parray Mohalla ","wardcode":"11","id":null,"status":"APPROVED","misglobalid":null,"approved_by":null,"createdate":1643571891000,"updateddate":1643659424000,"globalid":null,"gisglobalid":"oQcc46Ps-5Ro6-Pddd-QnQl-dmcc5nRomBl5","remark":"","st_area(shape)":0.00006774838100757573,"st_perimeter(shape)":0.03296352061450046}},{"type":null,"properties":{"objectid":112466,"statename":"Jammu And Kashmir","statecode":"1","districtname":"Budgam","districtcode":"2","ulbname":"Municipal Council Budgam","ulbcode":"800019","wardname":"Kharpora ","wardcode":"12","id":null,"status":"APPROVED","misglobalid":null,"approved_by":null,"createdate":1643571796000,"updateddate":1643659461000,"globalid":null,"gisglobalid":"QdR56lRQ-Rml5-Pnom-aso4-QK5RdRnQPm5o","remark":"","st_area(shape)":0.00001321180861050312,"st_perimeter(shape)":0.0190571032096065}},{"type":null,"properties":{"objectid":111743,"statename":"Jammu And Kashmir","statecode":"1","districtname":"Budgam","districtcode":"2","ulbname":"Municipal Council Budgam","ulbcode":"800019","wardname":"Mohanpora ","wardcode":"13","id":null,"status":"APPROVED","misglobalid":null,"approved_by":null,"createdate":1643571844000,"updateddate":1643659478000,"globalid":null,"gisglobalid":"lm66PKK5-mn5o-PcsQ-snPl-loKccldBnR64","remark":"","st_area(shape)":0.000042719784326774754,"st_perimeter(shape)":0.030029603955363547}}]}}}