{"type":"Topology","arcs":[[[28808,75923],[-8742,12829]],[[20066,88752],[3113,1230],[1589,-2724],[4901,3427],[1788,-87]],[[31457,90598],[463,-3515],[-1391,-967],[-66,-9315],[-1655,-878]],[[37483,85413],[-3112,-11863]],[[34371,73550],[-3510,176]],[[30861,73726],[-2053,2197]],[[31457,90598],[3708,-88],[133,-3427],[2185,-1670]],[[47284,85149],[-2847,-9402],[-1656,-4042]],[[42781,71705],[-5364,1669],[-265,-4481]],[[37152,68893],[-1060,0],[-1721,4657]],[[37483,85413],[1192,4569],[6291,-1406],[0,-3075],[2318,-352]],[[49072,68366],[-2980,2021]],[[46092,70387],[-3245,1318]],[[42847,71705],[-66,0]],[[47284,85149],[6292,11600],[3907,-3164],[-1391,-5096]],[[56092,88489],[-1920,-7294],[-5365,-88],[-66,-6590],[2053,-1846],[-1722,-4305]],[[63907,71968],[-7682,-8172],[265,-1318]],[[56490,62478],[-4040,3251]],[[52450,65729],[-3378,2637]],[[56092,88489],[2053,-3164],[-1258,-4569],[5695,-4306],[1325,-4482]],[[70463,71441],[-2782,-2021],[-66,-5624],[-1192,-5975],[-4702,175],[-596,-1581]],[[61125,56415],[-2384,-615],[-397,3075],[-2119,3076]],[[56225,61951],[265,527]],[[63907,71968],[5298,2724],[1258,-3251]],[[73774,67838],[-2185,-14411],[-1855,-9139],[-662,-1406]],[[69072,42882],[-3907,-2724]],[[65165,40158],[0,176]],[[65165,40334],[0,4306]],[[65165,44640],[-133,439]],[[65032,45079],[-132,615]],[[64900,45694],[-199,703]],[[64701,46397],[0,264]],[[64701,46661],[-2053,6063]],[[62648,52724],[-463,1230]],[[62185,53954],[-1060,2461]],[[70463,71441],[3311,-3603]],[[73774,67838],[1391,-88],[596,-3163],[5828,-527],[3311,-1846],[1722,-15290],[3841,-175],[-2384,-11424]],[[88079,35325],[-4173,352],[-4370,1142]],[[79536,36819],[-2980,1318],[-265,-1318],[-398,0],[-1920,1054],[-199,352],[596,88],[331,439],[0,527],[-1126,528],[-331,439],[0,176],[-132,263],[-596,0],[-265,88],[-397,264],[-133,0],[0,527],[66,1055],[-2781,175]],[[69006,42794],[66,88]],[[69006,42794],[2583,-790],[265,-791],[264,-440],[1060,-88],[66,-615],[464,-439],[795,-176],[-133,-791],[-530,-439],[530,-527],[464,-264],[1258,-264],[861,616],[2516,-1582]],[[79469,36204],[-1788,-4218],[-3311,1757],[-3973,616],[-464,2899],[-1391,440],[-265,2109],[-1456,1406],[2185,1581]],[[88079,35325],[3774,-4218],[2120,-3251],[331,-2373],[-530,-6239],[-1854,-2900],[-2318,-703]],[[89602,15641],[-7152,7118]],[[82450,22759],[2450,-1581],[5232,527],[-1457,2197],[-67,2812],[-10397,4920]],[[78211,31634],[1258,4570]],[[79469,36204],[67,615]],[[89602,15641],[5231,-4305],[5166,-5097],[-1258,-2548],[-9205,4305],[-6822,1846],[133,4833],[-2782,2988],[530,5975],[-861,527]],[[79734,24165],[2716,-1406]],[[79734,24165],[-6688,2461],[993,2372]],[[74039,28998],[1126,2724]],[[75165,31722],[331,1406]],[[75496,33128],[2715,-1494]],[[75165,31722],[-1126,-2724]],[[74039,28998],[-8477,5800],[-1390,-176]],[[64172,34622],[993,5536]],[[65165,40158],[1324,879],[1855,-3251],[265,0],[927,-88],[530,-264],[-67,-3163],[5497,-1143]],[[65165,40246],[0,-88]],[[64172,34622],[1125,-791],[-662,-5096],[-1854,351]],[[62781,29086],[-3576,3515],[1589,4482]],[[60794,37083],[1126,2899],[3245,264]],[[62781,29086],[-3311,879]],[[59470,29965],[-6822,1318]],[[52648,31283],[-4900,5272]],[[47748,36555],[2119,440]],[[49867,36995],[2848,-3164],[2781,4394],[-132,3779]],[[55364,42004],[2450,-2285]],[[57814,39719],[2119,-1933]],[[59933,37786],[861,-703]],[[65165,40334],[0,-88]],[[59933,37786],[-2119,1933]],[[57814,39719],[-2914,2724]],[[54900,42443],[2384,-615],[5894,2021],[1722,1845]],[[65032,45079],[133,-439]],[[56423,53339],[6093,-351]],[[62516,52988],[132,-264]],[[64701,46661],[0,-264]],[[54900,42443],[-397,351]],[[54503,42794],[-8676,8436],[-1059,967]],[[44768,52197],[1722,879]],[[46490,53076],[1788,-3252],[5430,-1494],[133,2637],[2582,2372]],[[47417,49649],[7086,-6855]],[[54503,42794],[861,-790]],[[49867,36995],[2384,1933],[-5033,7206]],[[47218,46134],[-397,1493],[-265,616],[-265,790],[-66,352]],[[46225,49385],[132,0]],[[46357,49385],[1060,264]],[[44437,46661],[2781,-527]],[[47748,36555],[-2252,1934],[-1390,3163]],[[44106,41652],[-1789,3251]],[[42317,44903],[-132,0]],[[42185,44903],[2252,1758]],[[52648,31283],[-6622,4745],[-2649,-1054],[662,-4482]],[[44039,30492],[-2649,879]],[[41390,31371],[-1523,2724],[-1722,-4042]],[[38145,30053],[-1258,2284]],[[36887,32337],[-464,4130]],[[36423,36467],[199,616]],[[36622,37083],[331,2196]],[[36953,39279],[3378,-439],[1920,2373]],[[42251,41213],[1855,439]],[[56357,20299],[-662,-264],[-1060,176],[-1390,0]],[[53245,20211],[-199,703]],[[53046,20914],[-3245,7908],[-2053,-6766]],[[47748,22056],[-1854,3515]],[[45894,25571],[66,3076],[-1921,1845]],[[59470,29965],[-2120,-3691],[-993,-5975]],[[56357,20299],[-265,-5888],[-861,-1581]],[[55231,12830],[-2119,3602]],[[53112,16432],[-199,440]],[[52913,16872],[398,3163]],[[53311,20035],[-66,176]],[[52913,16872],[-66,88]],[[52847,16960],[-861,1493],[-3377,-175],[-530,-1582]],[[48079,16696],[-1325,0]],[[46754,16696],[-198,2812],[1192,2548]],[[53046,20914],[265,-879]],[[52847,16960],[265,-528]],[[55231,12830],[-2980,-4306],[-2516,-440]],[[49735,8084],[-1524,2373],[-132,6239]],[[42053,1933],[331,6679],[-398,7029]],[[41986,15641],[3312,0],[1456,1055]],[[49735,8084],[66,-6239],[-7417,-1230],[-331,1318]],[[41986,15641],[-66,5712]],[[41920,21353],[3974,4218]],[[41920,21353],[-3510,1582]],[[38410,22935],[-2516,2724]],[[35894,25659],[2251,4394]],[[38476,527],[-198,10281]],[[38278,10808],[0,4833]],[[38278,15641],[132,7294]],[[42053,1933],[463,-1933],[-4040,527]],[[38476,527],[-2847,527],[-3113,2988],[-4569,1494],[-265,4306],[-1788,2372]],[[25894,12214],[3973,-1406],[8411,0]],[[32781,27856],[795,-615]],[[33576,27241],[397,-6854],[-2781,615],[-464,-3076],[-2053,-2372],[9603,87]],[[25894,12214],[596,1846]],[[26490,14060],[2251,5272]],[[28741,19332],[1192,2197]],[[29933,21529],[133,264]],[[30066,21793],[530,1230]],[[30596,23023],[66,176]],[[30662,23199],[2119,4657]],[[33576,27241],[2318,-1582]],[[32781,27856],[993,2372]],[[33774,30228],[530,1143]],[[34304,31371],[398,1054]],[[34702,32425],[2185,-88]],[[32649,38752],[3774,-2285]],[[34702,32425],[-3113,2021]],[[31589,34446],[-132,88]],[[31457,34534],[-1325,528]],[[30132,35062],[133,1845],[2384,1845]],[[34304,31371],[-397,-791]],[[33907,30580],[-1921,1142]],[[31986,31722],[-463,2724]],[[31523,34446],[66,0]],[[30662,23199],[0,-88]],[[30662,23111],[-133,88],[-1192,1845],[-529,1054]],[[28808,26098],[2119,3603]],[[30927,29701],[1059,2021]],[[33907,30580],[-133,-352]],[[30927,29701],[-2384,4218]],[[28543,33919],[1589,1143]],[[31457,34534],[66,-88]],[[28543,33919],[-2384,2197]],[[26159,36116],[-331,2197]],[[25828,38313],[-133,3866]],[[25695,42179],[0,88]],[[25695,42267],[4238,1670]],[[29933,43937],[2716,-5185]],[[28808,26098],[-4769,5361]],[[24039,31459],[1722,1581],[398,3076]],[[30662,23111],[-66,-88]],[[30066,21793],[-66,-88]],[[30000,21705],[-4239,527],[-66,2812],[-2516,4921]],[[23179,29965],[-332,615]],[[22847,30580],[1192,879]],[[30000,21705],[-67,-176]],[[28741,19332],[-8741,0],[530,6151],[2649,4482]],[[26490,14060],[-4835,-352],[-2516,6064],[-3245,1669],[-1854,-2021],[0,-4657],[-5961,703],[464,3427],[-464,5799],[464,3252]],[[8543,27944],[6821,3339]],[[15364,31283],[1258,-2197],[2120,-176],[4105,1670]],[[8543,27944],[-1258,3603]],[[7285,31547],[6887,4217]],[[14172,35764],[1192,-4481]],[[14172,35764],[132,88]],[[14304,35852],[1259,615]],[[15563,36467],[2847,1143]],[[18410,37610],[1722,1406]],[[20132,39016],[2715,-8436]],[[20596,38840],[5232,-527]],[[20132,39016],[464,-176]],[[21457,46837],[728,-2285]],[[22185,44552],[-596,-4218],[4106,1845]],[[20596,38840],[-1457,3779],[530,4218]],[[19669,46837],[1788,0]],[[22185,44552],[3444,527],[66,-2812]],[[21457,46837],[2185,615],[-1589,4745]],[[22053,52197],[5496,-791]],[[27549,51406],[861,-88]],[[28410,51318],[265,-3691],[1258,-3690]],[[28410,51318],[1788,-1142],[1060,-3427]],[[31258,46749],[3179,-7733],[2185,-1933]],[[37814,44815],[-2251,-1933],[1390,-3603]],[[31258,46749],[1987,1669],[2384,352]],[[35629,48770],[0,-264]],[[35629,48506],[2185,-3691]],[[37814,44815],[1457,791]],[[39271,45606],[199,-2284],[2781,-2109]],[[42185,44903],[132,0]],[[39271,45606],[199,791]],[[39470,46397],[1059,1318],[3908,-1054]],[[35629,48506],[0,352]],[[35629,48858],[-530,1493]],[[35099,50351],[596,1494]],[[35695,51845],[3377,528]],[[39072,52373],[1457,439]],[[40529,52812],[-397,-1845]],[[40132,50967],[-1126,-1318],[464,-3252]],[[39072,52373],[-1986,4569]],[[37086,56942],[2251,527]],[[39337,57469],[2517,-2372]],[[41854,55097],[1126,-1143]],[[42980,53954],[66,-88]],[[43046,53866],[-2517,-1054]],[[45761,49209],[464,176]],[[40132,50967],[2583,-528],[1258,-2109],[1788,879]],[[44768,52197],[2649,-2548]],[[46357,49385],[-596,-176]],[[43046,53866],[-66,88]],[[42980,53954],[662,615]],[[43642,54569],[3311,1846]],[[46953,56415],[133,-1230],[-530,-2022]],[[46556,53163],[-66,-87]],[[46490,53076],[4966,1142]],[[51456,54218],[1126,439]],[[52582,54657],[133,0]],[[52715,54657],[3907,615],[-199,-1933]],[[49668,60105],[199,-2196]],[[49867,57909],[1722,1054]],[[51589,58963],[993,-4306]],[[46490,53076],[66,87]],[[46953,56415],[0,-88]],[[46953,56327],[0,351],[0,352],[-530,1582],[3245,1493]],[[62185,53954],[331,-966]],[[52715,54657],[-133,0]],[[51589,58963],[1788,1230]],[[53377,60193],[2848,1758]],[[53377,60193],[-3510,-2284]],[[49668,60105],[1457,2461],[-794,1845],[2119,1318]],[[43046,62390],[2516,-2460],[3510,8436]],[[46953,56327],[-3311,-1758]],[[41854,55097],[1324,1845],[-1986,2021],[463,3691],[1391,-264]],[[43046,62390],[1192,5097],[1854,2900]],[[39337,57469],[-463,5800]],[[38874,63269],[2781,-527],[795,5272]],[[42450,68014],[-133,703]],[[42317,68717],[530,2988]],[[42317,68717],[133,-703]],[[38874,63269],[530,6415],[-2252,-791]],[[37086,56942],[-1060,3163]],[[36026,60105],[-1126,2988],[-4172,6766]],[[30728,69859],[-2185,3603]],[[28543,73462],[2318,264]],[[37086,56942],[-1391,-615]],[[35695,56327],[-2384,-2636],[-4238,8699]],[[29073,62390],[6953,-2285]],[[35695,51845],[0,4482]],[[35099,50351],[-4834,528],[529,3690],[-3973,3164]],[[26821,57733],[2252,4657]],[[35629,48858],[0,-88]],[[28410,51318],[-397,0]],[[28013,51318],[199,1933],[-2252,1934],[861,2548]],[[28013,51318],[-464,88]],[[22053,52197],[2185,7293]],[[24238,59490],[1192,3691],[-1722,2460],[2914,1758]],[[26622,67399],[2451,-5009]],[[26622,67399],[4106,2460]],[[23179,74341],[397,-791],[4967,-88]],[[24238,59490],[-2781,2724]],[[21457,62214],[-1060,1582]],[[20397,63796],[530,3251],[-3974,6239],[1987,967],[4239,88]],[[22053,52197],[-1656,0]],[[20397,52197],[-199,2724],[-1523,4218],[-1722,1494]],[[16953,60633],[1789,1581],[2715,0]],[[19669,46837],[-994,-88]],[[18675,46749],[-3311,-176]],[[15364,46573],[-1457,-176]],[[13907,46397],[0,1758],[662,1669],[199,3164],[993,-176]],[[15761,52812],[4636,-615]],[[14304,35852],[-927,2900],[5298,7997]],[[13046,46309],[2318,264]],[[7285,31547],[-596,3075],[2185,440],[2583,2724],[199,4305],[-2782,1846],[-6556,703],[-199,4306],[662,6239],[-2781,263],[0,2548]],[[0,57996],[6225,-1054],[1656,-791],[198,-7030],[-993,-2900],[5960,88]],[[15563,61775],[463,-2900],[-265,-6063]],[[13907,46397],[-861,-88]],[[0,57996],[132,2637],[4504,1757],[3046,264]],[[7682,62654],[4106,-967],[-861,4042]],[[10927,65729],[4636,-3954]],[[15563,61775],[1390,-1142]],[[10927,65729],[-265,2197],[9735,-4130]],[[7682,62654],[66,3690],[1656,88],[1192,7382],[-66,2812],[6159,527],[3907,2460]],[[20596,79613],[2583,-5272]],[[20596,79613],[-9272,19245],[1457,1142],[7285,-11248]]],"transform":{"scale":[0.0000015100151001509638,0.0000011379999999999769],"translate":[75.5166,31.2767]},"objects":{"wards":{"type":"GeometryCollection","geometries":[{"arcs":[[0,1,2]],"type":"Polygon","properties":{"objectid":155862,"statename":"Punjab","statecode":"3","districtname":"Jalandhar","districtcode":"37","ulbname":"Jalandhar","ulbcode":"800166","wardname":"Ward 1","wardcode":"1","id":null,"status":"APPROVED","misglobalid":null,"approved_by":null,"createdate":1656928156000,"updateddate":1656928860000,"globalid":null,"gisglobalid":"PQc5lods-cmsB-Pd5l-Qa4d-sl5BBmRRR4P5","remark":"Okapproved","st_area(shape)":0.00014280745723691365,"st_perimeter(shape)":0.06431700060418537}},{"arcs":[[3,4,5,-3,6]],"type":"Polygon","properties":{"objectid":155861,"statename":"Punjab","statecode":"3","districtname":"Jalandhar","districtcode":"37","ulbname":"Jalandhar","ulbcode":"800166","wardname":"Ward 2","wardcode":"2","id":null,"status":"APPROVED","misglobalid":null,"approved_by":null,"createdate":1656929930000,"updateddate":1656929971000,"globalid":null,"gisglobalid":"QndlR4ll-aomo-PKBd-aosQ-dmaQ45BR4mB5","remark":"Ok Approved","st_area(shape)":0.0001548272645894316,"st_perimeter(shape)":0.060576779124143644}},{"arcs":[[7,8,9,-4,10]],"type":"Polygon","properties":{"objectid":152315,"statename":"Punjab","statecode":"3","districtname":"","districtcode":"37","ulbname":"Jalandhar","ulbcode":"800166","wardname":"Ward 3","wardcode":"3","id":null,"status":"APPROVED","misglobalid":null,"approved_by":null,"createdate":1644571562000,"updateddate":1644631079000,"globalid":null,"gisglobalid":"oPPslQam-nR4B-Ponl-Q6Pd-ll6csRlmamKK","remark":"Approved","st_area(shape)":0.0002710980918964166,"st_perimeter(shape)":0.07627495384690154}},{"arcs":[[11,12,13,-8,14,15]],"type":"Polygon","properties":{"objectid":152353,"statename":"Punjab","statecode":"3","districtname":"","districtcode":"37","ulbname":"Jalandhar","ulbcode":"800166","wardname":"Ward 4","wardcode":"4","id":null,"status":"APPROVED","misglobalid":null,"approved_by":null,"createdate":1644593438000,"updateddate":1644631098000,"globalid":null,"gisglobalid":"ao65amdd-caPR-Pcna-QsRd-4oBaoscsl4sR","remark":"Approved","st_area(shape)":0.00026339772138340783,"st_perimeter(shape)":0.09118379112354576}},{"arcs":[[16,17,18,-16,19]],"type":"Polygon","properties":{"objectid":152354,"statename":"Punjab","statecode":"3","districtname":"","districtcode":"37","ulbname":"Jalandhar","ulbcode":"800166","wardname":"Ward 5","wardcode":"5","id":null,"status":"APPROVED","misglobalid":null,"approved_by":null,"createdate":1644595426000,"updateddate":1644631112000,"globalid":null,"gisglobalid":"nd4o4smm-Qn5P-PsmK-sB6c-6BK5mcPdsl44","remark":"Approved","st_area(shape)":0.00035639427764731503,"st_perimeter(shape)":0.09716217347518583}},{"arcs":[[20,21,22,-17,23]],"type":"Polygon","properties":{"objectid":153873,"statename":"Punjab","statecode":"3","districtname":"","districtcode":"37","ulbname":"Jalandhar","ulbcode":"800166","wardname":"Ward 6","wardcode":"6","id":null,"status":"APPROVED","misglobalid":null,"approved_by":null,"createdate":1644595921000,"updateddate":1644631124000,"globalid":null,"gisglobalid":"4KaRQBdn-ao4a-PnRl-Q6BB-4onPnlmoRlRl","remark":"Approved","st_area(shape)":0.00024298273075255603,"st_perimeter(shape)":0.07479574127767921}},{"arcs":[[24,25,26,27,28,29,30,31,32,33,34,-21,35]],"type":"Polygon","properties":{"objectid":152359,"statename":"Punjab","statecode":"3","districtname":"","districtcode":"37","ulbname":"Jalandhar","ulbcode":"800166","wardname":"Ward 7","wardcode":"7","id":null,"status":"APPROVED","misglobalid":null,"approved_by":null,"createdate":1644596421000,"updateddate":1644631146000,"globalid":null,"gisglobalid":"KslRomcB-adnd-Pn45-allB-mooQooRcnQPK","remark":"Approved","st_area(shape)":0.0003301070374746023,"st_perimeter(shape)":0.09656384903798819}},{"arcs":[[36,37,38,39,-25]],"type":"Polygon","properties":{"objectid":152355,"statename":"Punjab","statecode":"3","districtname":"","districtcode":"37","ulbname":"Jalandhar","ulbcode":"800166","wardname":"Ward 8","wardcode":"8","id":null,"status":"APPROVED","misglobalid":null,"approved_by":null,"createdate":1644595679000,"updateddate":1644631158000,"globalid":null,"gisglobalid":"aBs654c4-csas-PmBm-s6nl-BPR6mm44a56c","remark":"Approved","st_area(shape)":0.0007329614229351777,"st_perimeter(shape)":0.12550978375152788}},{"arcs":[[40,41]],"type":"Polygon","properties":{"objectid":152331,"statename":"Punjab","statecode":"3","districtname":"","districtcode":"37","ulbname":"Jalandhar","ulbcode":"800166","wardname":"Ward 9","wardcode":"9","id":null,"status":"APPROVED","misglobalid":null,"approved_by":null,"createdate":1644579146000,"updateddate":1644631173000,"globalid":null,"gisglobalid":"Pn5nKn5Q-aBa5-Pa4s-aKdQ-mPBaPmlo4R45","remark":"Approved","st_area(shape)":0.00010658419907250446,"st_perimeter(shape)":0.05413091260676588}},{"arcs":[[42,43,44,45,46,-38]],"type":"Polygon","properties":{"objectid":154644,"statename":"Punjab","statecode":"3","districtname":"Jalandhar","districtcode":"37","ulbname":"Jalandhar","ulbcode":"800166","wardname":"Ward 10","wardcode":"10","id":null,"status":"APPROVED","misglobalid":null,"approved_by":null,"createdate":1657010690000,"updateddate":1657010739000,"globalid":null,"gisglobalid":"Blm46lsc-6s5c-PdRn-sQc4-n5om5Pocdn46","remark":"Ok Approved","st_area(shape)":0.00027048032423064914,"st_perimeter(shape)":0.1045255105869692}},{"arcs":[[47,48,-44]],"type":"Polygon","properties":{"objectid":155903,"statename":"Punjab","statecode":"3","districtname":"","districtcode":"37","ulbname":"Jalandhar","ulbcode":"800166","wardname":"Ward 11","wardcode":"11","id":null,"status":"APPROVED","misglobalid":null,"approved_by":null,"createdate":1644598662000,"updateddate":1644631198000,"globalid":null,"gisglobalid":"sloRPlKm-sPQK-P4K4-an56-6aKanosc6aK5","remark":"Approved","st_area(shape)":0.0002486791833970789,"st_perimeter(shape)":0.08589620168332797}},{"arcs":[[-49,49,50,51,52,-45]],"type":"Polygon","properties":{"objectid":152363,"statename":"Punjab","statecode":"3","districtname":"","districtcode":"37","ulbname":"Jalandhar","ulbcode":"800166","wardname":"Ward 12","wardcode":"12","id":null,"status":"APPROVED","misglobalid":null,"approved_by":null,"createdate":1644598674000,"updateddate":1644631211000,"globalid":null,"gisglobalid":"P6d6566Q-4QoB-Pa4R-aRBR-la4544nd4omR","remark":"Approved","st_area(shape)":0.0001719876703995155,"st_perimeter(shape)":0.0670770058226108}},{"arcs":[[-52,53,54,55,56]],"type":"Polygon","properties":{"objectid":155914,"statename":"Punjab","statecode":"3","districtname":"","districtcode":"37","ulbname":"Jalandhar","ulbcode":"800166","wardname":"Ward 13","wardcode":"13","id":null,"status":"APPROVED","misglobalid":null,"approved_by":null,"createdate":1644601494000,"updateddate":1644631223000,"globalid":null,"gisglobalid":"66old6mm-sncP-P4BQ-sas5-KKR6QKdolRc5","remark":"Approved","st_area(shape)":0.0000873124691199208,"st_perimeter(shape)":0.05196748357125654}},{"arcs":[[57,-56,58,59,60]],"type":"Polygon","properties":{"objectid":152364,"statename":"Punjab","statecode":"3","districtname":"","districtcode":"37","ulbname":"Jalandhar","ulbcode":"800166","wardname":"Ward 14","wardcode":"14","id":null,"status":"APPROVED","misglobalid":null,"approved_by":null,"createdate":1644598791000,"updateddate":1644631235000,"globalid":null,"gisglobalid":"lRPalnlB-csam-PQcs-RcRa-lRPQoRslcnnm","remark":"Approved","st_area(shape)":0.00007306340969130451,"st_perimeter(shape)":0.04074214865196257}},{"arcs":[[61,62,63,64,65,66,67,68,-60]],"type":"Polygon","properties":{"objectid":152365,"statename":"Punjab","statecode":"3","districtname":"","districtcode":"37","ulbname":"Jalandhar","ulbcode":"800166","wardname":"Ward 15","wardcode":"15","id":null,"status":"APPROVED","misglobalid":null,"approved_by":null,"createdate":1644598805000,"updateddate":1644631245000,"globalid":null,"gisglobalid":"Ks5PlR4P-ocnR-PcQ6-QQcl-nPmsPo5a45Qo","remark":"Approved","st_area(shape)":0.00011710053059040354,"st_perimeter(shape)":0.07239444644681303}},{"arcs":[[69,-61,-69,70,71,72,-30,73,-28]],"type":"Polygon","properties":{"objectid":155904,"statename":"Punjab","statecode":"3","districtname":"","districtcode":"37","ulbname":"Jalandhar","ulbcode":"800166","wardname":"Ward 16","wardcode":"16","id":null,"status":"APPROVED","misglobalid":null,"approved_by":null,"createdate":1644598820000,"updateddate":1644631258000,"globalid":null,"gisglobalid":"sQoolssa-QcB6-PKm5-sPl4-BP4B5aPmQQmd","remark":"Approved","st_area(shape)":0.0000593636997813675,"st_perimeter(shape)":0.04341562871966982}},{"arcs":[[74,75,-33,76,-31,-73,77,78,79,80]],"type":"Polygon","properties":{"objectid":155905,"statename":"Punjab","statecode":"3","districtname":"","districtcode":"37","ulbname":"Jalandhar","ulbcode":"800166","wardname":"Ward 17","wardcode":"17","id":null,"status":"APPROVED","misglobalid":null,"approved_by":null,"createdate":1644598833000,"updateddate":1644631271000,"globalid":null,"gisglobalid":"lKP5QclR-64sn-PQ6P-a4so-RmQos4cdocPm","remark":"Approved","st_area(shape)":0.00022312182090902108,"st_perimeter(shape)":0.08390835646528916}},{"arcs":[[81,82,-66,83,84,85,86]],"type":"Polygon","properties":{"objectid":155906,"statename":"Punjab","statecode":"3","districtname":"","districtcode":"37","ulbname":"Jalandhar","ulbcode":"800166","wardname":"Ward 18","wardcode":"18","id":null,"status":"APPROVED","misglobalid":null,"approved_by":null,"createdate":1644598915000,"updateddate":1644631284000,"globalid":null,"gisglobalid":"5BKBnond-5mBd-Pm5Q-sQm5-Qn4RK5m4QlB6","remark":"Approved","st_area(shape)":0.0000978717773785675,"st_perimeter(shape)":0.060624081591156245}},{"arcs":[[87,-84,-65,88,89,90,91]],"type":"Polygon","properties":{"objectid":155907,"statename":"Punjab","statecode":"3","districtname":"","districtcode":"37","ulbname":"Jalandhar","ulbcode":"800166","wardname":"Ward 19","wardcode":"19","id":null,"status":"APPROVED","misglobalid":null,"approved_by":null,"createdate":1644598928000,"updateddate":1644631296000,"globalid":null,"gisglobalid":"KmsP5sdl-4PPl-PQcl-an45-4amsdd6aPmd4","remark":"Approved","st_area(shape)":0.00009906719448767681,"st_perimeter(shape)":0.0465185633469667}},{"arcs":[[-89,-64,92,93,94,95,96,97,98,99,100]],"type":"Polygon","properties":{"objectid":155908,"statename":"Punjab","statecode":"3","districtname":"","districtcode":"37","ulbname":"Jalandhar","ulbcode":"800166","wardname":"Ward 20","wardcode":"20","id":null,"status":"APPROVED","misglobalid":null,"approved_by":null,"createdate":1644598942000,"updateddate":1644631308000,"globalid":null,"gisglobalid":"RP4BaPBs-cPQR-PcKl-adod-moP5oRcQKoRK","remark":"Approved","st_area(shape)":0.00012781135686020453,"st_perimeter(shape)":0.09223191594794704}},{"arcs":[[101,102,103,104,105,-93,-63,106]],"type":"Polygon","properties":{"objectid":155889,"statename":"Punjab","statecode":"3","districtname":"","districtcode":"37","ulbname":"Jalandhar","ulbcode":"800166","wardname":"Ward 21","wardcode":"21","id":null,"status":"APPROVED","misglobalid":null,"approved_by":null,"createdate":1644594753000,"updateddate":1644631320000,"globalid":null,"gisglobalid":"6slQRQl5-6RcB-Pols-RKBa-R54Pd4mQnQPc","remark":"Approved","st_area(shape)":0.0002057793491818982,"st_perimeter(shape)":0.08645309544295937}},{"arcs":[[107,108,109,110,111,-102]],"type":"Polygon","properties":{"objectid":155898,"statename":"Punjab","statecode":"3","districtname":"","districtcode":"37","ulbname":"Jalandhar","ulbcode":"800166","wardname":"Ward 22","wardcode":"22","id":null,"status":"APPROVED","misglobalid":null,"approved_by":null,"createdate":1644597779000,"updateddate":1644631333000,"globalid":null,"gisglobalid":"RsRm6QKR-sPa5-PaQa-aRlK-mPQP5Bmmmlac","remark":"Approved","st_area(shape)":0.0000267183081541168,"st_perimeter(shape)":0.025904189216642604}},{"arcs":[[-111,112,113,114,115,-104,116]],"type":"Polygon","properties":{"objectid":155899,"statename":"Punjab","statecode":"3","districtname":"","districtcode":"37","ulbname":"Jalandhar","ulbcode":"800166","wardname":"Ward 23","wardcode":"23","id":null,"status":"APPROVED","misglobalid":null,"approved_by":null,"createdate":1644597798000,"updateddate":1644631345000,"globalid":null,"gisglobalid":"QlQKsmB4-Rdsc-P556-sQRB-Q4oon5BsmddP","remark":"Approved","st_area(shape)":0.00007662914948436856,"st_perimeter(shape)":0.048069042349738}},{"arcs":[[117,-109,118,119,-114]],"type":"Polygon","properties":{"objectid":155900,"statename":"Punjab","statecode":"3","districtname":"","districtcode":"37","ulbname":"Jalandhar","ulbcode":"800166","wardname":"Ward 24","wardcode":"24","id":null,"status":"APPROVED","misglobalid":null,"approved_by":null,"createdate":1644597815000,"updateddate":1644631357000,"globalid":null,"gisglobalid":"4s4a6aPQ-PoBB-PBco-scmP-adQcKdK54dc4","remark":"Approved","st_area(shape)":0.00009041516676574643,"st_perimeter(shape)":0.04069952339354935}},{"arcs":[[120,121,-115,-120,122]],"type":"Polygon","properties":{"objectid":152360,"statename":"Punjab","statecode":"3","districtname":"","districtcode":"37","ulbname":"Jalandhar","ulbcode":"800166","wardname":"Ward 25","wardcode":"25","id":null,"status":"APPROVED","misglobalid":null,"approved_by":null,"createdate":1644597829000,"updateddate":1644631372000,"globalid":null,"gisglobalid":"mPdm46dR-6a5Q-Psm4-Rall-Q54PPdaBP4RK","remark":"Approved","st_area(shape)":0.00017502022706404003,"st_perimeter(shape)":0.05862596306717207}},{"arcs":[[-116,-122,123,124,-105]],"type":"Polygon","properties":{"objectid":150702,"statename":"Punjab","statecode":"3","districtname":"","districtcode":"37","ulbname":"Jalandhar","ulbcode":"800166","wardname":"Ward 26","wardcode":"26","id":null,"status":"APPROVED","misglobalid":null,"approved_by":null,"createdate":1644597936000,"updateddate":1644631384000,"globalid":null,"gisglobalid":"amcQ4BPa-mdK4-PPoc-aamQ-B5cc6mBlc5Qo","remark":"Approved","st_area(shape)":0.00007067914107847711,"st_perimeter(shape)":0.03970206985372012}},{"arcs":[[-94,-106,-125,125,126,127,-95]],"type":"Polygon","properties":{"objectid":152361,"statename":"Punjab","statecode":"3","districtname":"","districtcode":"37","ulbname":"Jalandhar","ulbcode":"800166","wardname":"Ward 27","wardcode":"27","id":null,"status":"APPROVED","misglobalid":null,"approved_by":null,"createdate":1644597952000,"updateddate":1644631397000,"globalid":null,"gisglobalid":"nml4B4dP-nQ5R-P564-sBal-csQnscaQ6nQP","remark":"Approved","st_area(shape)":0.00012235950988609816,"st_perimeter(shape)":0.05433169174559801}},{"arcs":[[128,129,130,-126,-124,-121,131]],"type":"Polygon","properties":{"objectid":155901,"statename":"Punjab","statecode":"3","districtname":"","districtcode":"37","ulbname":"Jalandhar","ulbcode":"800166","wardname":"Ward 28","wardcode":"28","id":null,"status":"APPROVED","misglobalid":null,"approved_by":null,"createdate":1644597972000,"updateddate":1644631411000,"globalid":null,"gisglobalid":"caKc656o-6nQl-PRQc-a44n-ms4RKd6ls4ls","remark":"Approved","st_area(shape)":0.00014239343852198673,"st_perimeter(shape)":0.06186781560268479}},{"arcs":[[-129,132,133]],"type":"Polygon","properties":{"objectid":155902,"statename":"Punjab","statecode":"3","districtname":"","districtcode":"37","ulbname":"Jalandhar","ulbcode":"800166","wardname":"Ward 29","wardcode":"29","id":null,"status":"APPROVED","misglobalid":null,"approved_by":null,"createdate":1644597988000,"updateddate":1644631423000,"globalid":null,"gisglobalid":"sKQcmonn-5Plo-P4Po-s6o5-mK4B4sdnlmcB","remark":"Approved","st_area(shape)":0.00015491495221607254,"st_perimeter(shape)":0.06299952908254057}},{"arcs":[[134,135,-130,-134,136,137,138,139,140,141,142]],"type":"Polygon","properties":{"objectid":152362,"statename":"Punjab","statecode":"3","districtname":"","districtcode":"37","ulbname":"Jalandhar","ulbcode":"800166","wardname":"Ward 30","wardcode":"30","id":null,"status":"APPROVED","misglobalid":null,"approved_by":null,"createdate":1644598000000,"updateddate":1644631440000,"globalid":null,"gisglobalid":"KRos4QQd-PBo5-Pcss-RlPl-csnd6QKmmQQm","remark":"Approved","st_area(shape)":0.00013493154780555686,"st_perimeter(shape)":0.08588640245961258}},{"arcs":[[-136,143,-127,-131]],"type":"Polygon","properties":{"objectid":155885,"statename":"Punjab","statecode":"3","districtname":"","districtcode":"37","ulbname":"Jalandhar","ulbcode":"800166","wardname":"Ward 31","wardcode":"31","id":null,"status":"APPROVED","misglobalid":null,"approved_by":null,"createdate":1644592106000,"updateddate":1644631455000,"globalid":null,"gisglobalid":"lo4d5Qaa-Q4aK-PasQ-s54a-Kd65P6cRa5Q4","remark":"Approved","st_area(shape)":0.00011212237672664643,"st_perimeter(shape)":0.05623111195568694}},{"arcs":[[-96,-128,-144,-135,144,145,146,147]],"type":"Polygon","properties":{"objectid":153869,"statename":"Punjab","statecode":"3","districtname":"","districtcode":"37","ulbname":"Jalandhar","ulbcode":"800166","wardname":"Ward 32","wardcode":"32","id":null,"status":"APPROVED","misglobalid":null,"approved_by":null,"createdate":1644592188000,"updateddate":1644631470000,"globalid":null,"gisglobalid":"lPBP5mlP-5Q4m-PoQB-aaQs-6oca5scs6K5K","remark":"Approved","st_area(shape)":0.00004032631269509612,"st_perimeter(shape)":0.025575365496418423}},{"arcs":[[148,-97,-148,149,150,151,152]],"type":"Polygon","properties":{"objectid":155445,"statename":"Punjab","statecode":"3","districtname":"","districtcode":"37","ulbname":"Jalandhar","ulbcode":"800166","wardname":"Ward 33","wardcode":"33","id":null,"status":"APPROVED","misglobalid":null,"approved_by":null,"createdate":1644592850000,"updateddate":1644631483000,"globalid":null,"gisglobalid":"aRoP55PB-c5nK-PsQK-R5aR-6Pl6PQQlolll","remark":"Approved","st_area(shape)":0.000047203558845080734,"st_perimeter(shape)":0.03913470103919168}},{"arcs":[[-147,153,154,155,156,-150]],"type":"Polygon","properties":{"objectid":152347,"statename":"Punjab","statecode":"3","districtname":"","districtcode":"37","ulbname":"Jalandhar","ulbcode":"800166","wardname":"Ward 34","wardcode":"34","id":null,"status":"APPROVED","misglobalid":null,"approved_by":null,"createdate":1644592864000,"updateddate":1644631494000,"globalid":null,"gisglobalid":"QQddQdKo-a4cR-Pano-aBoP-RsR6PdB5RPms","remark":"Approved","st_area(shape)":0.000014742764983423867,"st_perimeter(shape)":0.017578447413244967}},{"arcs":[[-143,157,158,159,160,-155,161,-145]],"type":"Polygon","properties":{"objectid":155446,"statename":"Punjab","statecode":"3","districtname":"","districtcode":"37","ulbname":"Jalandhar","ulbcode":"800166","wardname":"Ward 35","wardcode":"35","id":null,"status":"APPROVED","misglobalid":null,"approved_by":null,"createdate":1644592884000,"updateddate":1644631508000,"globalid":null,"gisglobalid":"slKR4n4m-PaP6-P6Qa-Roo6-loRa6KRPPnos","remark":"Approved","st_area(shape)":0.00003241170653959595,"st_perimeter(shape)":0.025489521118408777}},{"arcs":[[-156,-161,162,163,-152,164]],"type":"Polygon","properties":{"objectid":155447,"statename":"Punjab","statecode":"3","districtname":"","districtcode":"37","ulbname":"Jalandhar","ulbcode":"800166","wardname":"Ward 36","wardcode":"36","id":null,"status":"APPROVED","misglobalid":null,"approved_by":null,"createdate":1644592926000,"updateddate":1644631519000,"globalid":null,"gisglobalid":"Rd4nolos-Koam-P4nR-a5dR-d6nnoPccddsP","remark":"Approved","st_area(shape)":0.000017084912701420305,"st_perimeter(shape)":0.020872977198016156}},{"arcs":[[165,166,167,168,169,170,-153,-164]],"type":"Polygon","properties":{"objectid":155448,"statename":"Punjab","statecode":"3","districtname":"","districtcode":"37","ulbname":"Jalandhar","ulbcode":"800166","wardname":"Ward 37","wardcode":"37","id":null,"status":"APPROVED","misglobalid":null,"approved_by":null,"createdate":1644592942000,"updateddate":1644631533000,"globalid":null,"gisglobalid":"B5a4KQ5d-oKcn-PoBR-Q6Qm-4cddodoPKPP6","remark":"Approved","st_area(shape)":0.00006858625908668304,"st_perimeter(shape)":0.043490845546823496}},{"arcs":[[-160,171,172,-166,-163]],"type":"Polygon","properties":{"objectid":156250,"statename":"Punjab","statecode":"3","districtname":"","districtcode":"37","ulbname":"Jalandhar","ulbcode":"800166","wardname":"Ward 38","wardcode":"38","id":null,"status":"APPROVED","misglobalid":null,"approved_by":null,"createdate":1644592954000,"updateddate":1644631545000,"globalid":null,"gisglobalid":"naR5Qod4-cKl4-Pm5Q-sRla-BKams5Rl6n6s","remark":"Approved","st_area(shape)":0.000052985024857527795,"st_perimeter(shape)":0.03677361944621041}},{"arcs":[[-159,173,-141,174,175,176,177,-172]],"type":"Polygon","properties":{"objectid":155449,"statename":"Punjab","statecode":"3","districtname":"","districtcode":"37","ulbname":"Jalandhar","ulbcode":"800166","wardname":"Ward 39","wardcode":"39","id":null,"status":"APPROVED","misglobalid":null,"approved_by":null,"createdate":1644592968000,"updateddate":1644631560000,"globalid":null,"gisglobalid":"d6o5Bclo-lnR4-Pdc5-ao5a-a4Qcsa5msann","remark":"Approved","st_area(shape)":0.0000540090986201457,"st_perimeter(shape)":0.03933703685398442}},{"arcs":[[178,-139,179,-176]],"type":"Polygon","properties":{"objectid":153870,"statename":"Punjab","statecode":"3","districtname":"","districtcode":"37","ulbname":"Jalandhar","ulbcode":"800166","wardname":"Ward 40","wardcode":"40","id":null,"status":"APPROVED","misglobalid":null,"approved_by":null,"createdate":1644592982000,"updateddate":1644631574000,"globalid":null,"gisglobalid":"PPa5dRnn-6BKl-PsK5-QlmR-cl45ocloll4l","remark":"Approved","st_area(shape)":0.00009610790150543803,"st_perimeter(shape)":0.0492176576875081}},{"arcs":[[-177,-180,-138,180,181,182]],"type":"Polygon","properties":{"objectid":155890,"statename":"Punjab","statecode":"3","districtname":"","districtcode":"37","ulbname":"Jalandhar","ulbcode":"800166","wardname":"Ward 41","wardcode":"41","id":null,"status":"APPROVED","misglobalid":null,"approved_by":null,"createdate":1644595920000,"updateddate":1644631590000,"globalid":null,"gisglobalid":"md4m5aBl-snnB-PaBP-RaKc-am5QQnKo4PQ4","remark":"Approved","st_area(shape)":0.000321590600519788,"st_perimeter(shape)":0.11668994831866279}},{"arcs":[[-182,183,184,185]],"type":"Polygon","properties":{"objectid":155891,"statename":"Punjab","statecode":"3","districtname":"","districtcode":"37","ulbname":"Jalandhar","ulbcode":"800166","wardname":"Ward 42","wardcode":"42","id":null,"status":"APPROVED","misglobalid":null,"approved_by":null,"createdate":1644595934000,"updateddate":1644631603000,"globalid":null,"gisglobalid":"PcQK4mnd-lPld-P4KR-RPRl-o4nsRQlonnRd","remark":"Approved","st_area(shape)":0.00005417253865308192,"st_perimeter(shape)":0.03302091107601756}},{"arcs":[[-183,-186,186,187,188,189,190]],"type":"Polygon","properties":{"objectid":155451,"statename":"Punjab","statecode":"3","districtname":"","districtcode":"37","ulbname":"Jalandhar","ulbcode":"800166","wardname":"Ward 43","wardcode":"43","id":null,"status":"APPROVED","misglobalid":null,"approved_by":null,"createdate":1644595944000,"updateddate":1644631615000,"globalid":null,"gisglobalid":"5cmcQlls-os4Q-PPoQ-slK4-46cnBlKomond","remark":"Approved","st_area(shape)":0.00008969043387054728,"st_perimeter(shape)":0.041841506967254985}},{"arcs":[[191,-167,-173,-178,-191,192]],"type":"Polygon","properties":{"objectid":153874,"statename":"Punjab","statecode":"3","districtname":"","districtcode":"37","ulbname":"Jalandhar","ulbcode":"800166","wardname":"Ward 44","wardcode":"44","id":null,"status":"APPROVED","misglobalid":null,"approved_by":null,"createdate":1644595953000,"updateddate":1644631628000,"globalid":null,"gisglobalid":"KB5onooo-a5Bd-PQKs-QBQP-coaP5lBsB4mc","remark":"Approved","st_area(shape)":0.000049894159415612506,"st_perimeter(shape)":0.032547514334366645}},{"arcs":[[193,194,-168,-192,195,196]],"type":"Polygon","properties":{"objectid":152356,"statename":"Punjab","statecode":"3","districtname":"","districtcode":"37","ulbname":"Jalandhar","ulbcode":"800166","wardname":"Ward 45","wardcode":"45","id":null,"status":"APPROVED","misglobalid":null,"approved_by":null,"createdate":1644595962000,"updateddate":1644631640000,"globalid":null,"gisglobalid":"PKBl4onQ-5Qdl-PnPn-QQ4B-cRad6nR5BKKR","remark":"Approved","st_area(shape)":0.00004689017954812284,"st_perimeter(shape)":0.04304027063584748}},{"arcs":[[-169,-195,197]],"type":"Polygon","properties":{"objectid":155892,"statename":"Punjab","statecode":"3","districtname":"","districtcode":"37","ulbname":"Jalandhar","ulbcode":"800166","wardname":"Ward 46","wardcode":"46","id":null,"status":"APPROVED","misglobalid":null,"approved_by":null,"createdate":1644595973000,"updateddate":1644631653000,"globalid":null,"gisglobalid":"QsdmsPRm-Rcdm-PB6n-RBBc-Rd4m6KRQsR4d","remark":"Approved","st_area(shape)":0.000028636011976294405,"st_perimeter(shape)":0.022587098545127235}},{"arcs":[[-170,-198,-194,198,199,200,201]],"type":"Polygon","properties":{"objectid":152357,"statename":"Punjab","statecode":"3","districtname":"","districtcode":"37","ulbname":"Jalandhar","ulbcode":"800166","wardname":"Ward 47","wardcode":"47","id":null,"status":"APPROVED","misglobalid":null,"approved_by":null,"createdate":1644595981000,"updateddate":1644631675000,"globalid":null,"gisglobalid":"K5caPQdc-nl66-Pa5d-RsRQ-Qsodmon54Bda","remark":"Approved","st_area(shape)":0.00008964400787032026,"st_perimeter(shape)":0.050502546631111624}},{"arcs":[[202,203,-98,-149,-171,-202]],"type":"Polygon","properties":{"objectid":152358,"statename":"Punjab","statecode":"3","districtname":"","districtcode":"37","ulbname":"Jalandhar","ulbcode":"800166","wardname":"Ward 48","wardcode":"48","id":null,"status":"APPROVED","misglobalid":null,"approved_by":null,"createdate":1644595994000,"updateddate":1644631688000,"globalid":null,"gisglobalid":"nc6R6l5P-RcR6-PRdn-sP5n-nPlmlcan5mBB","remark":"Approved","st_area(shape)":0.000049742443574300696,"st_perimeter(shape)":0.04581560141113478}},{"arcs":[[204,-99,-204,205,206,207]],"type":"Polygon","properties":{"objectid":155893,"statename":"Punjab","statecode":"3","districtname":"","districtcode":"37","ulbname":"Jalandhar","ulbcode":"800166","wardname":"Ward 49","wardcode":"49","id":null,"status":"APPROVED","misglobalid":null,"approved_by":null,"createdate":1644596004000,"updateddate":1644631702000,"globalid":null,"gisglobalid":"m44Pcmam-o5R4-P6Pd-RBmc-nnsmQRnlnBR5","remark":"Approved","st_area(shape)":0.00006389276482875236,"st_perimeter(shape)":0.040380488790101254}},{"arcs":[[-205,208,209,-100]],"type":"Polygon","properties":{"objectid":155894,"statename":"Punjab","statecode":"3","districtname":"","districtcode":"37","ulbname":"Jalandhar","ulbcode":"800166","wardname":"Ward 50","wardcode":"50","id":null,"status":"APPROVED","misglobalid":null,"approved_by":null,"createdate":1644596014000,"updateddate":1644631715000,"globalid":null,"gisglobalid":"QaBaomKa-QBl6-Plna-soPl-PnQRdBlsm4s6","remark":"Approved","st_area(shape)":0.00004739266172173403,"st_perimeter(shape)":0.04030217243286755}},{"arcs":[[-92,210,-90,-101,-210,211,212]],"type":"Polygon","properties":{"objectid":153875,"statename":"Punjab","statecode":"3","districtname":"Jalandhar","districtcode":"37","ulbname":"Jalandhar","ulbcode":"800166","wardname":"Ward 51","wardcode":"51","id":null,"status":"APPROVED","misglobalid":null,"approved_by":null,"createdate":1656742648000,"updateddate":1656872549000,"globalid":null,"gisglobalid":"P5cKo4d5-66PB-PP4B-Rcnl-o56nRm55nmPQ","remark":"Ok Approved","st_area(shape)":0.00003235776190934597,"st_perimeter(shape)":0.034262742140284894}},{"arcs":[[-212,-209,-208,213,214,215,216,217,218,219]],"type":"Polygon","properties":{"objectid":153876,"statename":"Punjab","statecode":"3","districtname":"","districtcode":"37","ulbname":"Jalandhar","ulbcode":"800166","wardname":"Ward 52","wardcode":"52","id":null,"status":"APPROVED","misglobalid":null,"approved_by":null,"createdate":1644596069000,"updateddate":1644631741000,"globalid":null,"gisglobalid":"RQcP4QQQ-c5BP-P4no-QR6R-QQBo5sn4nnl4","remark":"Approved","st_area(shape)":0.00004297881056488998,"st_perimeter(shape)":0.0320897856761369}},{"arcs":[[-218,220,221,222,223,224,225]],"type":"Polygon","properties":{"objectid":155895,"statename":"Punjab","statecode":"3","districtname":"","districtcode":"37","ulbname":"Jalandhar","ulbcode":"800166","wardname":"Ward 53","wardcode":"53","id":null,"status":"APPROVED","misglobalid":null,"approved_by":null,"createdate":1644596080000,"updateddate":1644631755000,"globalid":null,"gisglobalid":"QaBocPlP-RP5R-PcQQ-Qc5o-PoQn4oKRcKR6","remark":"Approved","st_area(shape)":0.000029305977056658306,"st_perimeter(shape)":0.024491274606344277}},{"arcs":[[226,-85,-88,-213,-220,227]],"type":"Polygon","properties":{"objectid":155896,"statename":"Punjab","statecode":"3","districtname":"","districtcode":"37","ulbname":"Jalandhar","ulbcode":"800166","wardname":"Ward 54","wardcode":"54","id":null,"status":"APPROVED","misglobalid":null,"approved_by":null,"createdate":1644596089000,"updateddate":1644631768000,"globalid":null,"gisglobalid":"lmR6l64d-d5dm-PKPo-sR5n-6Qs5llc4mnla","remark":"Approved","st_area(shape)":0.000036496825636708427,"st_perimeter(shape)":0.03946264061419334}},{"arcs":[[228,-87,229,-228,-219,-226,230,231,232,233,234,-80]],"type":"Polygon","properties":{"objectid":155897,"statename":"Punjab","statecode":"3","districtname":"","districtcode":"37","ulbname":"Jalandhar","ulbcode":"800166","wardname":"Ward 55","wardcode":"55","id":null,"status":"APPROVED","misglobalid":null,"approved_by":null,"createdate":1644596099000,"updateddate":1644631780000,"globalid":null,"gisglobalid":"aK55scdQ-lBRP-PodK-aco4-lKdPBKlcm4d4","remark":"Approved","st_area(shape)":0.00004771440120275681,"st_perimeter(shape)":0.03942460837961734}},{"arcs":[[235,236,237,238,-81]],"type":"Polygon","properties":{"objectid":155452,"statename":"Punjab","statecode":"3","districtname":"","districtcode":"37","ulbname":"Jalandhar","ulbcode":"800166","wardname":"Ward 56","wardcode":"56","id":null,"status":"APPROVED","misglobalid":null,"approved_by":null,"createdate":1644596108000,"updateddate":1644631794000,"globalid":null,"gisglobalid":"mmlQsRal-nB46-PRPR-QdsQ-K46dKsoPRlPP","remark":"Approved","st_area(shape)":0.000058729251340366596,"st_perimeter(shape)":0.04559573176159956}},{"arcs":[[239,240,241,-237,-236,242,-234,243,244]],"type":"Polygon","properties":{"objectid":155453,"statename":"Punjab","statecode":"3","districtname":"","districtcode":"37","ulbname":"Jalandhar","ulbcode":"800166","wardname":"Ward 57","wardcode":"57","id":null,"status":"APPROVED","misglobalid":null,"approved_by":null,"createdate":1644596118000,"updateddate":1644631806000,"globalid":null,"gisglobalid":"mKlKd5ac-KaKR-PaoR-Q5om-nmonmoRQ4Klo","remark":"Approved","st_area(shape)":0.00004971054705413847,"st_perimeter(shape)":0.03415739983101924}},{"arcs":[[-35,245,-75,-239,246,-242,247,248,-22]],"type":"Polygon","properties":{"objectid":156251,"statename":"Punjab","statecode":"3","districtname":"","districtcode":"37","ulbname":"Jalandhar","ulbcode":"800166","wardname":"Ward 58","wardcode":"58","id":null,"status":"APPROVED","misglobalid":null,"approved_by":null,"createdate":1644596126000,"updateddate":1644631819000,"globalid":null,"gisglobalid":"ddPdsBsB-PRc5-Pdon-snPm-colQBaKaBB4m","remark":"Approved","st_area(shape)":0.00008115797274654329,"st_perimeter(shape)":0.04881921241419111}},{"arcs":[[-23,-249,249,-240,250,-18]],"type":"Polygon","properties":{"objectid":155454,"statename":"Punjab","statecode":"3","districtname":"","districtcode":"37","ulbname":"Jalandhar","ulbcode":"800166","wardname":"Ward 59","wardcode":"59","id":null,"status":"APPROVED","misglobalid":null,"approved_by":null,"createdate":1644596136000,"updateddate":1644631849000,"globalid":null,"gisglobalid":"acd5K5RQ-lomQ-P5o5-sQlo-lmB6KaPl4amR","remark":"Approved","st_area(shape)":0.000046655650519089116,"st_perimeter(shape)":0.03253822075769971}},{"arcs":[[251,-19,-251,-245,252,-232,-224,253]],"type":"Polygon","properties":{"objectid":155455,"statename":"Punjab","statecode":"3","districtname":"","districtcode":"37","ulbname":"Jalandhar","ulbcode":"800166","wardname":"Ward 60","wardcode":"60","id":null,"status":"APPROVED","misglobalid":null,"approved_by":null,"createdate":1644596145000,"updateddate":1644631970000,"globalid":null,"gisglobalid":"BQRP5ll5-64ss-PQPK-sQsP-dBPlRo6nsald","remark":"Approved","st_area(shape)":0.000104266618888929,"st_perimeter(shape)":0.0644861469824495}},{"arcs":[[254,-12,-252]],"type":"Polygon","properties":{"objectid":152366,"statename":"Punjab","statecode":"3","districtname":"","districtcode":"37","ulbname":"Jalandhar","ulbcode":"800166","wardname":"Ward 61","wardcode":"61","id":null,"status":"APPROVED","misglobalid":null,"approved_by":null,"createdate":1644599771000,"updateddate":1644632004000,"globalid":null,"gisglobalid":"K5ac5P4o-c65n-PsKo-QdPB-Kdsalc546Q44","remark":"Approved","st_area(shape)":0.000051016299446942944,"st_perimeter(shape)":0.03318011768354116}},{"arcs":[[-254,-223,255,256,257,258,-13,-255]],"type":"Polygon","properties":{"objectid":155909,"statename":"Punjab","statecode":"3","districtname":"","districtcode":"37","ulbname":"Jalandhar","ulbcode":"800166","wardname":"Ward 62","wardcode":"62","id":null,"status":"APPROVED","misglobalid":null,"approved_by":null,"createdate":1644599786000,"updateddate":1644632056000,"globalid":null,"gisglobalid":"mdolBnP4-6nK4-P56a-RoPs-RQPsmQRKcPmR","remark":"Approved","st_area(shape)":0.00006788312954867181,"st_perimeter(shape)":0.05690393963208537}},{"arcs":[[-9,-14,-259,259,-257,260]],"type":"Polygon","properties":{"objectid":155910,"statename":"Punjab","statecode":"3","districtname":"","districtcode":"37","ulbname":"Jalandhar","ulbcode":"800166","wardname":"Ward 63","wardcode":"63","id":null,"status":"APPROVED","misglobalid":null,"approved_by":null,"createdate":1644599805000,"updateddate":1644631921000,"globalid":null,"gisglobalid":"osKKncsR-56cP-Pc6B-RK6P-o4dasQsRP4Qc","remark":"Approved","st_area(shape)":0.00006088164595979631,"st_perimeter(shape)":0.040134375238329044}},{"arcs":[[261,262,263,264,-5,-10,-261,-256,-222]],"type":"Polygon","properties":{"objectid":152367,"statename":"Punjab","statecode":"3","districtname":"","districtcode":"37","ulbname":"Jalandhar","ulbcode":"800166","wardname":"Ward 64","wardcode":"64","id":null,"status":"APPROVED","misglobalid":null,"approved_by":null,"createdate":1644599825000,"updateddate":1644632074000,"globalid":null,"gisglobalid":"cPmPBP6m-m46P-PPnB-QRsm-laBocao4PKKK","remark":"Approved","st_area(shape)":0.00013738457052740835,"st_perimeter(shape)":0.062034004833901764}},{"arcs":[[-262,265,266,267]],"type":"Polygon","properties":{"objectid":152368,"statename":"Punjab","statecode":"3","districtname":"","districtcode":"37","ulbname":"Jalandhar","ulbcode":"800166","wardname":"Ward 65","wardcode":"65","id":null,"status":"APPROVED","misglobalid":null,"approved_by":null,"createdate":1644599900000,"updateddate":1644632087000,"globalid":null,"gisglobalid":"l4Rna6Kc-P54n-P6aP-RsRs-sdRcBam6Kdm6","remark":"Approved","st_area(shape)":0.00005565175990673513,"st_perimeter(shape)":0.03453525481504599}},{"arcs":[[-217,268,-266,-221]],"type":"Polygon","properties":{"objectid":155911,"statename":"Punjab","statecode":"3","districtname":"","districtcode":"37","ulbname":"Jalandhar","ulbcode":"800166","wardname":"Ward 66","wardcode":"66","id":null,"status":"APPROVED","misglobalid":null,"approved_by":null,"createdate":1644599913000,"updateddate":1644632100000,"globalid":null,"gisglobalid":"QBPQosPs-4PBR-Po5o-R5Q4-ona6ncRmdB5l","remark":"Approved","st_area(shape)":0.000021599212825946964,"st_perimeter(shape)":0.0196144558036657}},{"arcs":[[-269,-216,269,270,-267]],"type":"Polygon","properties":{"objectid":155912,"statename":"Punjab","statecode":"3","districtname":"","districtcode":"37","ulbname":"Jalandhar","ulbcode":"800166","wardname":"Ward 67","wardcode":"67","id":null,"status":"APPROVED","misglobalid":null,"approved_by":null,"createdate":1644599926000,"updateddate":1644632112000,"globalid":null,"gisglobalid":"5nR4cBKB-mlRc-PPmQ-QmKs-amB65oPPlm4d","remark":"Approved","st_area(shape)":0.00007068773236156622,"st_perimeter(shape)":0.05607896090662892}},{"arcs":[[-215,271,-206,-203,272,273,-270]],"type":"Polygon","properties":{"objectid":152369,"statename":"Punjab","statecode":"3","districtname":"","districtcode":"37","ulbname":"Jalandhar","ulbcode":"800166","wardname":"Ward 68","wardcode":"68","id":null,"status":"APPROVED","misglobalid":null,"approved_by":null,"createdate":1644600016000,"updateddate":1644632125000,"globalid":null,"gisglobalid":"dRn4K4PP-6aoR-PmaR-QoR6-5aPcK6P4PmmP","remark":"Approved","st_area(shape)":0.00005895593888733967,"st_perimeter(shape)":0.0493152003937113}},{"arcs":[[-271,-274,274,-200,275,276,277]],"type":"Polygon","properties":{"objectid":152370,"statename":"Punjab","statecode":"3","districtname":"","districtcode":"37","ulbname":"Jalandhar","ulbcode":"800166","wardname":"Ward 69","wardcode":"69","id":null,"status":"APPROVED","misglobalid":null,"approved_by":null,"createdate":1644600029000,"updateddate":1644632139000,"globalid":null,"gisglobalid":"dm5lcdcP-nm5a-Pa55-QBmd-46nmnK4cdP6a","remark":"Approved","st_area(shape)":0.00009165852873337865,"st_perimeter(shape)":0.056425878467093224}},{"arcs":[[-263,-268,-278,278]],"type":"Polygon","properties":{"objectid":155913,"statename":"Punjab","statecode":"3","districtname":"","districtcode":"37","ulbname":"Jalandhar","ulbcode":"800166","wardname":"Ward 70","wardcode":"70","id":null,"status":"APPROVED","misglobalid":null,"approved_by":null,"createdate":1644600043000,"updateddate":1644632151000,"globalid":null,"gisglobalid":"oP55cPoa-cBlK-PKQ5-sP65-cm5oKaRscand","remark":"Approved","st_area(shape)":0.00007548930271854983,"st_perimeter(shape)":0.03849518416708216}},{"arcs":[[279,-264,-279,-277,280,281,282]],"type":"Polygon","properties":{"objectid":155915,"statename":"Punjab","statecode":"3","districtname":"","districtcode":"37","ulbname":"Jalandhar","ulbcode":"800166","wardname":"Ward 71","wardcode":"71","id":null,"status":"APPROVED","misglobalid":null,"approved_by":null,"createdate":1644602306000,"updateddate":1644632165000,"globalid":null,"gisglobalid":"n4cRn4Rs-R5Pl-PQso-aBQK-oPasRQnQQaBK","remark":"Approved","st_area(shape)":0.00016702460998961074,"st_perimeter(shape)":0.06674242948201685}},{"arcs":[[-276,283,284,285,-281]],"type":"Polygon","properties":{"objectid":155918,"statename":"Punjab","statecode":"3","districtname":"Jalandhar","districtcode":"37","ulbname":"Jalandhar","ulbcode":"800166","wardname":"Ward 72","wardcode":"72","id":null,"status":"APPROVED","misglobalid":null,"approved_by":null,"createdate":1657010347000,"updateddate":1657010393000,"globalid":null,"gisglobalid":"QKs4mKml-KQla-Pasc-aKoo-Rnld54snBdnn","remark":"Ok Approved","st_area(shape)":0.00006330002774699843,"st_perimeter(shape)":0.03729648281561809}},{"arcs":[[-197,286,287,288,289,290,-284,-199]],"type":"Polygon","properties":{"objectid":152371,"statename":"Punjab","statecode":"3","districtname":"","districtcode":"37","ulbname":"Jalandhar","ulbcode":"800166","wardname":"Ward 73","wardcode":"73","id":null,"status":"APPROVED","misglobalid":null,"approved_by":null,"createdate":1644602363000,"updateddate":1644632192000,"globalid":null,"gisglobalid":"nldmmooR-nd6B-Pn44-sKK6-c5ln5Ks4sRBa","remark":"Approved","st_area(shape)":0.00008115632127462373,"st_perimeter(shape)":0.04472924040505121}},{"arcs":[[-193,-190,-189,-188,291,-287,-196]],"type":"Polygon","properties":{"objectid":152372,"statename":"Punjab","statecode":"3","districtname":"","districtcode":"37","ulbname":"Jalandhar","ulbcode":"800166","wardname":"Ward 74","wardcode":"74","id":null,"status":"APPROVED","misglobalid":null,"approved_by":null,"createdate":1644602376000,"updateddate":1644632206000,"globalid":null,"gisglobalid":"446KsaQB-KsRQ-Pasl-snmc-sQlPmccP5Bld","remark":"Approved","st_area(shape)":0.00006615098126881929,"st_perimeter(shape)":0.03747929052766714}},{"arcs":[[292,-288,-292,-187,-185,293,294]],"type":"Polygon","properties":{"objectid":155916,"statename":"Punjab","statecode":"3","districtname":"","districtcode":"37","ulbname":"Jalandhar","ulbcode":"800166","wardname":"Ward 75","wardcode":"75","id":null,"status":"APPROVED","misglobalid":null,"approved_by":null,"createdate":1644602389000,"updateddate":1644632225000,"globalid":null,"gisglobalid":"RaaBQ4ln-5as5-P4c6-Qn5K-mQcn4nK5RdRd","remark":"Approved","st_area(shape)":0.0002497793214934273,"st_perimeter(shape)":0.1261100476458063}},{"arcs":[[295,-290,296,-295,297,298,299]],"type":"Polygon","properties":{"objectid":152373,"statename":"Punjab","statecode":"3","districtname":"","districtcode":"37","ulbname":"Jalandhar","ulbcode":"800166","wardname":"Ward 76","wardcode":"76","id":null,"status":"APPROVED","misglobalid":null,"approved_by":null,"createdate":1644602410000,"updateddate":1644632236000,"globalid":null,"gisglobalid":"RP5maaRd-PR6K-Pcna-QQB6-6cdao46mncmn","remark":"Approved","st_area(shape)":0.0002728320380275263,"st_perimeter(shape)":0.09781264417465825}},{"arcs":[[-285,-291,-296,300]],"type":"Polygon","properties":{"objectid":152374,"statename":"Punjab","statecode":"3","districtname":"","districtcode":"37","ulbname":"Jalandhar","ulbcode":"800166","wardname":"Ward 77","wardcode":"77","id":null,"status":"APPROVED","misglobalid":null,"approved_by":null,"createdate":1644602460000,"updateddate":1644632248000,"globalid":null,"gisglobalid":"a66Q6QdB-amQR-P6nR-Q5K4-lBmmQdQadcnn","remark":"Approved","st_area(shape)":0.00005578126895923405,"st_perimeter(shape)":0.033710163878072734}},{"arcs":[[-286,-301,-300,301,-282]],"type":"Polygon","properties":{"objectid":152375,"statename":"Punjab","statecode":"3","districtname":"","districtcode":"37","ulbname":"Jalandhar","ulbcode":"800166","wardname":"Ward 78","wardcode":"78","id":null,"status":"APPROVED","misglobalid":null,"approved_by":null,"createdate":1644602473000,"updateddate":1644632260000,"globalid":null,"gisglobalid":"6nclsmKs-5daB-PQ4l-so4Q-ona664P4QKdl","remark":"Approved","st_area(shape)":0.00005505211219316495,"st_perimeter(shape)":0.040503909808136083}},{"arcs":[[302,303,-283,-302,-299]],"type":"Polygon","properties":{"objectid":152376,"statename":"Punjab","statecode":"3","districtname":"","districtcode":"37","ulbname":"Jalandhar","ulbcode":"800166","wardname":"Ward 79","wardcode":"79","id":null,"status":"APPROVED","misglobalid":null,"approved_by":null,"createdate":1644602487000,"updateddate":1644632278000,"globalid":null,"gisglobalid":"Pmd4dm5m-R5Ro-Pm6P-alRK-KBo5QaKPoaa5","remark":"Approved","st_area(shape)":0.00022761182082487014,"st_perimeter(shape)":0.10513665465652211}},{"arcs":[[-1,-6,-265,-280,-304,304]],"type":"Polygon","properties":{"objectid":155917,"statename":"Punjab","statecode":"3","districtname":"","districtcode":"37","ulbname":"Jalandhar","ulbcode":"800166","wardname":"Ward 80","wardcode":"80","id":null,"status":"APPROVED","misglobalid":null,"approved_by":null,"createdate":1644602502000,"updateddate":1644632296000,"globalid":null,"gisglobalid":"QnodllaP-4smm-Pc4o-QBKs-5maB5oPdaPB6","remark":"Approved","st_area(shape)":0.0001957528433279634,"st_perimeter(shape)":0.08856480783310361}}]}}}