{"type":"Topology","arcs":[[[74550,55585],[-898,-6267]],[[73652,49318],[-4790,1090]],[[68862,50408],[-5090,2180]],[[63772,52588],[-18263,14714],[30838,32697],[11676,-25613],[-13473,-18801]],[[74550,55585],[25449,-19891],[-2096,-14168],[-26946,2997],[2994,13624]],[[73951,38147],[-299,11171]],[[73951,38147],[-17964,-21798]],[[55987,16349],[-8682,2997]],[[47305,19346],[-3593,1362]],[[43712,20708],[6587,13352]],[[50299,34060],[23652,4087]],[[60478,54223],[3294,-1635]],[[68862,50408],[-18563,-16348]],[[50299,34060],[-6587,-13352]],[[43712,20708],[-5389,2725],[2395,4905],[13473,12534],[6287,13351]],[[43712,20436],[-3593,-1363]],[[40119,19073],[-2095,-1362]],[[38024,17711],[-899,2180]],[[37125,19891],[300,1907]],[[37425,21798],[-2096,1907]],[[35329,23705],[8383,-3269]],[[43712,20436],[3593,-1090]],[[47305,19346],[8682,-2997]],[[55987,16349],[-12574,272]],[[43413,16621],[0,1362]],[[43413,17983],[299,2453]],[[43413,16621],[-2096,-817]],[[41317,15804],[-1198,272]],[[40119,16076],[-898,0]],[[39221,16076],[-898,273]],[[38323,16349],[-299,1090]],[[38024,17439],[2095,1634]],[[40119,19073],[3294,-1090]],[[41317,15804],[-2395,-545],[-2994,-9265],[-1497,1090]],[[34431,7084],[1197,1363]],[[35628,8447],[599,545]],[[36227,8992],[599,1635]],[[36826,10627],[299,817]],[[37125,11444],[599,1362]],[[37724,12806],[1198,3270]],[[38922,16076],[299,0]],[[39221,16076],[898,0]],[[40119,16076],[1198,-272]],[[35928,13079],[599,0]],[[36527,13079],[1497,4360]],[[38024,17439],[299,-1090]],[[38323,16349],[599,-273]],[[37724,12806],[-599,-1362]],[[37125,11444],[-299,-817]],[[36826,10627],[-599,-1635]],[[36227,8992],[-2096,545]],[[34131,9537],[0,272]],[[34131,9809],[300,545]],[[34431,10354],[1197,818]],[[35628,11172],[-299,817]],[[35329,11989],[599,1090]],[[37425,21798],[-300,-1907]],[[37125,19891],[899,-2180]],[[38024,17711],[-1497,-4632]],[[36527,13079],[-4192,545]],[[32335,13624],[-3892,1635]],[[28443,15259],[599,1907]],[[29042,17166],[6287,6539]],[[35928,13079],[-599,-1090]],[[35628,11172],[-1197,-818]],[[34131,9809],[-1796,2180]],[[32335,11989],[3593,1090]],[[34131,9537],[1497,-1090]],[[35628,8447],[-1197,-1363]],[[34431,7084],[-11677,-7084]],[[22754,0],[1797,4905]],[[24551,4905],[1497,5449]],[[26048,10354],[6287,3270]],[[32335,13624],[0,-1635]],[[32335,11989],[1796,-2180]],[[29042,17166],[-599,-1907]],[[28443,15259],[-2395,-4905]],[[24551,4905],[-1797,-4905]],[[22754,0],[-22754,15804],[18563,16076],[10479,-14714]],[[60478,54223],[-6287,-13079],[-13473,-12534],[-1197,-1907],[-27246,31880],[-9580,20435],[57783,-24795]]],"transform":{"scale":[3.3400334003340353e-7,3.670036700366977e-7],"translate":[85.9597,21.7532]},"objects":{"wards":{"type":"GeometryCollection","geometries":[{"arcs":[[0,1,2,3]],"type":"Polygon","properties":{"objectid":96386,"statename":"Odisha","statecode":"21","districtname":"Mayurbhanj ","districtcode":"376","ulbname":"Karanjia(Nac) ","ulbcode":"801826","wardname":"Sarubali ","wardcode":"1","id":null,"status":"APPROVED","misglobalid":null,"approved_by":null,"createdate":1643279647000,"updateddate":1643279667000,"globalid":null,"gisglobalid":"5coa66od-RBBc-PPsa-RncP-PB4m6o6dKaBl","remark":"","st_area(shape)":0.0001501757692618328,"st_perimeter(shape)":0.05080625634109879}},{"arcs":[[-1,4,5]],"type":"Polygon","properties":{"objectid":99137,"statename":"Odisha ","statecode":"21","districtname":"Mayurbhanj ","districtcode":"376","ulbname":"Karanjia(Nac) ","ulbcode":"801826","wardname":"Karadia ","wardcode":"2","id":null,"status":"APPROVED","misglobalid":null,"approved_by":null,"createdate":1643281178000,"updateddate":1643281221000,"globalid":null,"gisglobalid":"nBP654cQ-ssKP-PBnB-RPoK-4BndPPKK4BRo","remark":"","st_area(shape)":0.00008034875942421085,"st_perimeter(shape)":0.03825185272661205}},{"arcs":[[6,7,8,9,10]],"type":"Polygon","properties":{"objectid":105090,"statename":"Odisha","statecode":"21","districtname":"Mayurbhanj ","districtcode":"376","ulbname":"Karanjia(Nac) ","ulbcode":"801826","wardname":"Manika Chhaka ","wardcode":"3","id":null,"status":"APPROVED","misglobalid":null,"approved_by":null,"createdate":1643339192000,"updateddate":1643339237000,"globalid":null,"gisglobalid":"KaPKoKdo-B44m-PBmo-Qosl-PRolRRaQamld","remark":"","st_area(shape)":0.0000671787436508433,"st_perimeter(shape)":0.034100216152808456}},{"arcs":[[11,-3,12,13,14]],"type":"Polygon","properties":{"objectid":102301,"statename":"Odisha","statecode":"21","districtname":"Mayurbhanj ","districtcode":"376","ulbname":"Karanjia(Nac) ","ulbcode":"801826","wardname":"Rajabandha Sahi ","wardcode":"4","id":null,"status":"APPROVED","misglobalid":null,"approved_by":null,"createdate":1643284228000,"updateddate":1643284296000,"globalid":null,"gisglobalid":"QPP6o6Rl-645a-PQPP-ssQ5-onodn4sPPdds","remark":"","st_area(shape)":0.000031011139702376314,"st_perimeter(shape)":0.035850743547299925}},{"arcs":[[15,16,17,18,19,20]],"type":"Polygon","properties":{"objectid":105889,"statename":"Odisha","statecode":"21","districtname":"Mayurbhanj ","districtcode":"376","ulbname":"Karanjia(Nac) ","ulbcode":"801826","wardname":"Patrasahi ","wardcode":"5","id":null,"status":"APPROVED","misglobalid":null,"approved_by":null,"createdate":1643343155000,"updateddate":1643343179000,"globalid":null,"gisglobalid":"aaPmBaoB-dR65-PdQ4-Ra4B-KPQoomPP4oKo","remark":"","st_area(shape)":0.000003863338142345487,"st_perimeter(shape)":0.010761355897614696}},{"arcs":[[21,22,23,24,25]],"type":"Polygon","properties":{"objectid":107888,"statename":"Odisha","statecode":"21","districtname":"Mayurbhanj ","districtcode":"376","ulbname":"Karanjia(Nac) ","ulbcode":"801826","wardname":"Patakathasahi ","wardcode":"6","id":null,"status":"APPROVED","misglobalid":null,"approved_by":null,"createdate":1643343754000,"updateddate":1643343780000,"globalid":null,"gisglobalid":"dKco5QcP-lKd4-Pccc-QKR5-4KK6nP6aPomP","remark":"","st_area(shape)":0.000002872857493990413,"st_perimeter(shape)":0.010002351817391798}},{"arcs":[[-25,26,27,28,29,30,31,32]],"type":"Polygon","properties":{"objectid":107490,"statename":"Odisha","statecode":"21","districtname":"Mayurbhanj ","districtcode":"376","ulbname":"Karanjia(Nac) ","ulbcode":"801826","wardname":"Tangiriasahi ","wardcode":"7","id":null,"status":"APPROVED","misglobalid":null,"approved_by":null,"createdate":1643344227000,"updateddate":1643344263000,"globalid":null,"gisglobalid":"KQKcm54m-dK54-PQmc-slRR-nRlnRKn5R5nl","remark":"","st_area(shape)":0.0000019498052946493192,"st_perimeter(shape)":0.005953226836501924}},{"arcs":[[33,34,35,36,37,38,39,40,41,42]],"type":"Polygon","properties":{"objectid":107094,"statename":"Odisha","statecode":"21","districtname":"Mayurbhanj ","districtcode":"376","ulbname":"Karanjia(Nac) ","ulbcode":"801826","wardname":"Gudisahi ","wardcode":"8","id":null,"status":"APPROVED","misglobalid":null,"approved_by":null,"createdate":1643347054000,"updateddate":1643347100000,"globalid":null,"gisglobalid":"osKmoBa5-llls-PnnB-sPcs-Po6R4mP5asKs","remark":"","st_area(shape)":0.0000013027413667759427,"st_perimeter(shape)":0.011849012950552835}},{"arcs":[[43,44,45,46,-40,47,48,49,50,51,52,53,54,55]],"type":"Polygon","properties":{"objectid":107889,"statename":"Odisha ","statecode":"21","districtname":"Mayurbhanj ","districtcode":"376","ulbname":"Karanjia(Nac) ","ulbcode":"801826","wardname":"Hansisahi ","wardcode":"9","id":null,"status":"APPROVED","misglobalid":null,"approved_by":null,"createdate":1643346551000,"updateddate":1643346583000,"globalid":null,"gisglobalid":"6PadnP6d-Rmm5-Pn66-Qnoa-5Qoom4dod4da","remark":"","st_area(shape)":0.000001497369154026267,"st_perimeter(shape)":0.007670817287792568}},{"arcs":[[-20,56,57,58,59,60,61,62]],"type":"Polygon","properties":{"objectid":107491,"statename":"Odisha","statecode":"21","districtname":"Mayurbhanj ","districtcode":"376","ulbname":"Karanjia(Nac) ","ulbcode":"801826","wardname":"Telisahi ","wardcode":"10","id":null,"status":"APPROVED","misglobalid":null,"approved_by":null,"createdate":1643345181000,"updateddate":1643345218000,"globalid":null,"gisglobalid":"4o4BdR6R-nPaR-P5cn-Qlsd-6mndKQPno4n5","remark":"","st_area(shape)":0.000008064260825023017,"st_perimeter(shape)":0.01144648875092159}},{"arcs":[[63,-55,64,-53,65,66]],"type":"Polygon","properties":{"objectid":108288,"statename":"Odisha","statecode":"21","districtname":"Mayurbhanj ","districtcode":"376","ulbname":"Karanjia(Nac) ","ulbcode":"801826","wardname":"Hansisahi ","wardcode":"11","id":null,"status":"APPROVED","misglobalid":null,"approved_by":null,"createdate":1643345567000,"updateddate":1643345594000,"globalid":null,"gisglobalid":"sao446sd-mmcs-Plnc-a4aR-mK4QKmmBnn56","remark":"","st_area(shape)":0.0000012651142052267737,"st_perimeter(shape)":0.004661703486253016}},{"arcs":[[-52,67,68,69,70,71,72,73,74]],"type":"Polygon","properties":{"objectid":107492,"statename":"Odisha","statecode":"21","districtname":"Mayurbhanj ","districtcode":"376","ulbname":"Karanjia(Nac) ","ulbcode":"801826","wardname":"Nuasahi ","wardcode":"12","id":null,"status":"APPROVED","misglobalid":null,"approved_by":null,"createdate":1643347507000,"updateddate":1643347521000,"globalid":null,"gisglobalid":"ooBKnlRR-5msQ-PnnQ-QcaK-cKl4PaKB6aBP","remark":"","st_area(shape)":0.00001152631536938155,"st_perimeter(shape)":0.01687374133434971}},{"arcs":[[75,76,-72,77,78]],"type":"Polygon","properties":{"objectid":107095,"statename":"Odisha ","statecode":"21","districtname":"Mayurbhanj ","districtcode":"376","ulbname":"Karanjia(Nac) ","ulbcode":"801826","wardname":"Niunti ","wardcode":"13","id":null,"status":"APPROVED","misglobalid":null,"approved_by":null,"createdate":1643438541000,"updateddate":1643438567000,"globalid":null,"gisglobalid":"6KmBQsc5-55aB-PBs6-R4dP-oKK54dQRcRPK","remark":"","st_area(shape)":0.00007243842880486481,"st_perimeter(shape)":0.03780320926607037}},{"arcs":[[79]],"type":"Polygon","properties":{"objectid":99162,"statename":"Odisha","statecode":"21","districtname":"Mayurbhanj ","districtcode":"376","ulbname":"Karanjia(Nac) ","ulbcode":"801826","wardname":"Bana Sahi ","wardcode":"15","id":null,"status":"APPROVED","misglobalid":null,"approved_by":null,"createdate":1643339439000,"updateddate":1643339492000,"globalid":null,"gisglobalid":"K45mmRsd-nRaB-PnPa-alsn-5B654nK4ladl","remark":"","st_area(shape)":0.00020368762605768752,"st_perimeter(shape)":0.07587471805937127}}]}}}