{"type": "FeatureCollection", "features": [{"type": "Feature", "geometry": {"type": "Polygon", "coordinates": [[[72.9872, 21.6999], [72.9873, 21.6997], [72.9875, 21.6997], [72.9877, 21.6998], [72.9879, 21.699], [72.9882, 21.6989], [72.9884, 21.6987], [72.9885, 21.6985], [72.9877, 21.6982], [72.9875, 21.6981], [72.9861, 21.6974], [72.9848, 21.6967], [72.984, 21.696], [72.9838, 21.6958], [72.9837, 21.6952], [72.9834, 21.695], [72.9834, 21.6948], [72.9815, 21.6939], [72.9812, 21.6937], [72.9807, 21.6956], [72.9808, 21.6963], [72.9799, 21.6963], [72.9798, 21.698], [72.9802, 21.698], [72.98, 21.6987], [72.98, 21.6988], [72.9796, 21.6993], [72.9791, 21.7005], [72.9792, 21.7007], [72.9793, 21.7009], [72.9793, 21.7012], [72.9793, 21.7013], [72.9793, 21.7014], [72.9794, 21.7016], [72.9794, 21.7017], [72.9794, 21.7026], [72.9793, 21.7029], [72.9793, 21.7032], [72.9793, 21.7035], [72.9792, 21.7037], [72.9792, 21.7038], [72.9791, 21.7038], [72.9791, 21.704], [72.979, 21.704], [72.9794, 21.7042], [72.9796, 21.7044], [72.9797, 21.7043], [72.9804, 21.7046], [72.981, 21.7049], [72.9818, 21.7053], [72.9835, 21.7061], [72.9844, 21.7065], [72.9844, 21.7066], [72.9844, 21.7067], [72.9844, 21.7069], [72.9846, 21.7069], [72.9847, 21.707], [72.9849, 21.7071], [72.9852, 21.7072], [72.9856, 21.7073], [72.986, 21.7075], [72.9866, 21.7078], [72.9871, 21.708], [72.9871, 21.7081], [72.9872, 21.7081], [72.9873, 21.708], [72.9874, 21.7078], [72.9874, 21.7077], [72.9875, 21.7077], [72.9876, 21.7075], [72.9879, 21.7071], [72.9881, 21.7067], [72.9884, 21.7066], [72.9893, 21.7066], [72.9894, 21.7065], [72.9895, 21.7065], [72.9896, 21.7065], [72.9899, 21.7065], [72.9902, 21.7065], [72.9903, 21.7064], [72.9905, 21.7064], [72.9909, 21.7063], [72.9911, 21.7042], [72.9912, 21.7026], [72.9913, 21.7019], [72.9913, 21.7018], [72.991, 21.7017], [72.9906, 21.7016], [72.9896, 21.7014], [72.9894, 21.7013], [72.9889, 21.7012], [72.9882, 21.7009], [72.9877, 21.7008], [72.9876, 21.7008], [72.9874, 21.7007], [72.9873, 21.7007], [72.9871, 21.7006], [72.9871, 21.7004], [72.9872, 21.6999]], [[72.9873, 21.6997], [72.9872, 21.6997], [72.9873, 21.6997]]]}, "properties": {"objectid": 715, "statename": "Gujarat", "statecode": "24", "districtname": "Bharuch", "districtcode": "488", "ulbname": "Bharuch (M)", "ulbcode": "802607", "wardname": "", "wardcode": null, "id": null, "status": "APPROVED", "misglobalid": null, "approved_by": "ULB Nodal Officer", "createdate": null, "updateddate": 1635229158000, "globalid": null, "gisglobalid": "e0a4e210-d781-4bc4-a66e-0b3c19fccf0b", "remark": "", "st_area(shape)": 0.00010137080418032815, "st_perimeter(shape)": 0.04736181774405135}}, {"type": "Feature", "geometry": {"type": "Polygon", "coordinates": [[[72.9682, 21.7078], [72.9681, 21.7077], [72.9675, 21.7071], [72.967, 21.7065], [72.9664, 21.7057], [72.9661, 21.7055], [72.966, 21.7053], [72.9661, 21.7051], [72.9662, 21.7049], [72.9663, 21.7047], [72.9663, 21.7046], [72.9664, 21.7044], [72.9668, 21.7037], [72.9668, 21.7035], [72.9671, 21.7029], [72.9675, 21.702], [72.9678, 21.7013], [72.9681, 21.7006], [72.9684, 21.7], [72.9685, 21.6998], [72.9686, 21.6995], [72.9691, 21.6985], [72.9694, 21.6977], [72.9697, 21.6972], [72.9699, 21.6969], [72.9699, 21.6968], [72.97, 21.6966], [72.9701, 21.6965], [72.9704, 21.6961], [72.9709, 21.6958], [72.972, 21.6955], [72.9735, 21.6954], [72.9745, 21.6953], [72.9747, 21.6953], [72.9751, 21.6953], [72.9751, 21.6949], [72.9752, 21.6938], [72.9752, 21.6935], [72.9752, 21.6933], [72.9752, 21.6931], [72.9751, 21.6928], [72.9748, 21.6922], [72.9744, 21.6916], [72.974, 21.691], [72.9738, 21.6909], [72.9735, 21.6906], [72.9724, 21.6906], [72.972, 21.6901], [72.9717, 21.6889], [72.9713, 21.6889], [72.9711, 21.6891], [72.9708, 21.6893], [72.9707, 21.6893], [72.9698, 21.6897], [72.969, 21.6898], [72.9685, 21.6894], [72.9679, 21.6893], [72.967, 21.6891], [72.9656, 21.6888], [72.965, 21.6887], [72.9645, 21.6886], [72.9645, 21.6887], [72.9635, 21.6885], [72.9634, 21.6884], [72.9625, 21.6883], [72.9621, 21.6883], [72.9619, 21.6883], [72.9617, 21.6883], [72.9613, 21.6883], [72.9612, 21.6882], [72.9606, 21.6882], [72.9603, 21.6882], [72.959, 21.6881], [72.9589, 21.6881], [72.9584, 21.6882], [72.9583, 21.6882], [72.9582, 21.6882], [72.9582, 21.6881], [72.9576, 21.688], [72.9576, 21.6881], [72.9576, 21.6883], [72.9574, 21.6888], [72.9572, 21.689], [72.9572, 21.6892], [72.9574, 21.6892], [72.9577, 21.6892], [72.9578, 21.6892], [72.9579, 21.6891], [72.958, 21.6891], [72.9579, 21.6903], [72.9579, 21.6912], [72.9579, 21.6915], [72.9578, 21.6918], [72.9578, 21.692], [72.9578, 21.6921], [72.9577, 21.6925], [72.9577, 21.6928], [72.9577, 21.693], [72.9576, 21.6936], [72.9576, 21.6942], [72.9576, 21.6947], [72.9575, 21.6953], [72.9575, 21.6954], [72.9575, 21.6955], [72.9574, 21.696], [72.9574, 21.6963], [72.9573, 21.6974], [72.9573, 21.6976], [72.9572, 21.6982], [72.9572, 21.6984], [72.9573, 21.6995], [72.9573, 21.7004], [72.9573, 21.701], [72.9572, 21.7012], [72.9572, 21.702], [72.9573, 21.7033], [72.9574, 21.7035], [72.9569, 21.7037], [72.9566, 21.7039], [72.9562, 21.7041], [72.9551, 21.7046], [72.9551, 21.7047], [72.9547, 21.7048], [72.9546, 21.7049], [72.9543, 21.705], [72.9538, 21.7053], [72.9536, 21.7054], [72.9528, 21.7059], [72.9526, 21.706], [72.9513, 21.7071], [72.9513, 21.7072], [72.9522, 21.7075], [72.9524, 21.7075], [72.9528, 21.7075], [72.954, 21.7076], [72.9544, 21.7077], [72.9544, 21.7078], [72.9553, 21.708], [72.9557, 21.7081], [72.9562, 21.7082], [72.9565, 21.7082], [72.9569, 21.7082], [72.9574, 21.7083], [72.9576, 21.7084], [72.9577, 21.7084], [72.9581, 21.7086], [72.9583, 21.7086], [72.9588, 21.7088], [72.9592, 21.7091], [72.9593, 21.7091], [72.9607, 21.7094], [72.9609, 21.7095], [72.9613, 21.7096], [72.9617, 21.7097], [72.9621, 21.7098], [72.9627, 21.7101], [72.9633, 21.7103], [72.9637, 21.7105], [72.9638, 21.7106], [72.9641, 21.7107], [72.9647, 21.7109], [72.965, 21.7109], [72.9652, 21.7107], [72.9655, 21.7103], [72.9658, 21.7101], [72.9662, 21.7097], [72.9672, 21.7089], [72.9676, 21.7084], [72.9678, 21.7082], [72.9682, 21.7078]]]}, "properties": {"objectid": 716, "statename": "Gujarat", "statecode": "24", "districtname": "Bharuch", "districtcode": "488", "ulbname": "Bharuch (M)", "ulbcode": "802607", "wardname": "", "wardcode": null, "id": null, "status": "APPROVED", "misglobalid": null, "approved_by": "ULB Nodal Officer", "createdate": null, "updateddate": 1635228710000, "globalid": null, "gisglobalid": "ab2e4bee-88cc-4653-85f7-4f6602131f37", "remark": "", "st_area(shape)": 0.0002765995238003673, "st_perimeter(shape)": 0.08414434828147577}}, {"type": "Feature", "geometry": {"type": "Polygon", "coordinates": [[[73.0168, 21.7062], [73.0167, 21.7062], [73.0161, 21.7059], [73.0159, 21.7059], [73.0156, 21.7058], [73.0155, 21.7057], [73.0152, 21.7056], [73.015, 21.7055], [73.0149, 21.7055], [73.0148, 21.7055], [73.0142, 21.7052], [73.013, 21.7048], [73.0124, 21.7046], [73.0124, 21.7045], [73.0122, 21.7045], [73.0119, 21.7044], [73.0119, 21.7048], [73.0118, 21.7049], [73.0113, 21.7045], [73.0111, 21.7044], [73.011, 21.7043], [73.0109, 21.704], [73.0103, 21.7037], [73.0093, 21.7034], [73.0086, 21.7033], [73.0081, 21.703], [73.0076, 21.7027], [73.0072, 21.7024], [73.0071, 21.7024], [73.0068, 21.7023], [73.0066, 21.7022], [73.006, 21.7021], [73.0058, 21.702], [73.0054, 21.7019], [73.0053, 21.702], [73.0045, 21.7016], [73.0036, 21.7013], [73.0035, 21.7012], [73.0033, 21.7012], [73.0033, 21.7011], [73.0011, 21.7003], [73.001, 21.7002], [73.0008, 21.7001], [73.0007, 21.7001], [73.0003, 21.7018], [73.0, 21.7019], [72.9995, 21.7028], [72.9992, 21.7033], [72.999, 21.7039], [72.9989, 21.7039], [72.9984, 21.7055], [72.9982, 21.7057], [72.998, 21.7056], [72.9966, 21.7054], [72.9961, 21.7057], [72.9955, 21.7059], [72.995, 21.7059], [72.9936, 21.706], [72.9935, 21.706], [72.9931, 21.7059], [72.993, 21.7059], [72.9928, 21.7059], [72.9925, 21.706], [72.9922, 21.706], [72.9918, 21.7061], [72.9917, 21.7061], [72.9916, 21.7061], [72.991, 21.7063], [72.9909, 21.7063], [72.9905, 21.7064], [72.9903, 21.7064], [72.9902, 21.7065], [72.9899, 21.7065], [72.9896, 21.7065], [72.9895, 21.7065], [72.9894, 21.7065], [72.9893, 21.7066], [72.9884, 21.7066], [72.9881, 21.7067], [72.9879, 21.7071], [72.9876, 21.7075], [72.9875, 21.7077], [72.9874, 21.7077], [72.9874, 21.7078], [72.988, 21.708], [72.9887, 21.7081], [72.9894, 21.7082], [72.9896, 21.7082], [72.9898, 21.7083], [72.9901, 21.7083], [72.991, 21.7083], [72.9917, 21.7083], [72.9918, 21.7082], [72.9924, 21.7081], [72.9927, 21.7079], [72.9937, 21.7076], [72.9936, 21.7073], [72.9938, 21.7073], [72.9938, 21.7072], [72.9939, 21.7075], [72.994, 21.7075], [72.9941, 21.7077], [72.9943, 21.7085], [72.9943, 21.7086], [72.9957, 21.7081], [72.997, 21.7076], [72.9995, 21.7075], [72.9994, 21.7077], [72.9994, 21.7079], [72.9992, 21.7088], [72.999, 21.7097], [72.9992, 21.7098], [72.999, 21.711], [72.9991, 21.711], [73.0001, 21.7109], [73.0002, 21.711], [73.0003, 21.7113], [73.0003, 21.7114], [73.0004, 21.7116], [73.0005, 21.7118], [73.0008, 21.7126], [73.0012, 21.7129], [73.0015, 21.7132], [73.002, 21.7132], [73.0022, 21.7133], [73.0023, 21.7134], [73.0034, 21.7135], [73.0044, 21.7136], [73.0046, 21.7137], [73.0056, 21.7138], [73.0061, 21.7139], [73.0063, 21.7139], [73.0074, 21.714], [73.0076, 21.7141], [73.0083, 21.7141], [73.0096, 21.7143], [73.0103, 21.7144], [73.0112, 21.7145], [73.0117, 21.7146], [73.0125, 21.7146], [73.0133, 21.7147], [73.0136, 21.7147], [73.0137, 21.7147], [73.0139, 21.7148], [73.0146, 21.7148], [73.0149, 21.7148], [73.0151, 21.7148], [73.0152, 21.7148], [73.0155, 21.7148], [73.0155, 21.7147], [73.0156, 21.714], [73.0156, 21.7136], [73.0157, 21.7135], [73.0157, 21.7131], [73.0158, 21.7128], [73.0158, 21.7126], [73.0158, 21.7125], [73.0159, 21.7122], [73.0158, 21.7121], [73.0158, 21.7117], [73.0158, 21.7116], [73.0161, 21.7108], [73.0158, 21.7093], [73.0158, 21.7092], [73.0157, 21.7091], [73.0152, 21.7089], [73.015, 21.7088], [73.0151, 21.7082], [73.015, 21.708], [73.0149, 21.708], [73.0149, 21.7078], [73.0149, 21.7077], [73.0147, 21.7077], [73.0145, 21.7077], [73.0141, 21.7077], [73.0141, 21.7075], [73.0141, 21.7074], [73.0143, 21.7073], [73.0149, 21.7073], [73.015, 21.7072], [73.0153, 21.7072], [73.0154, 21.7072], [73.0161, 21.7072], [73.0162, 21.7072], [73.0163, 21.7071], [73.0166, 21.7065], [73.0168, 21.7062]]]}, "properties": {"objectid": 719, "statename": "Gujarat", "statecode": "24", "districtname": "Bharuch", "districtcode": "488", "ulbname": "Bharuch (M)", "ulbcode": "802607", "wardname": "", "wardcode": null, "id": null, "status": "APPROVED", "misglobalid": null, "approved_by": "ULB Nodal Officer", "createdate": null, "updateddate": 1635231514000, "globalid": null, "gisglobalid": "e7a1b19c-c63f-437e-9725-083a2217127f", "remark": "", "st_area(shape)": 0.0002034842368516866, "st_perimeter(shape)": 0.0841098724512809}}, {"type": "Feature", "geometry": {"type": "Polygon", "coordinates": [[[72.979, 21.704], [72.9791, 21.704], [72.9791, 21.7038], [72.9792, 21.7038], [72.9792, 21.7037], [72.9793, 21.7035], [72.9793, 21.7032], [72.9793, 21.7029], [72.9794, 21.7026], [72.9794, 21.7017], [72.9794, 21.7016], [72.9793, 21.7014], [72.9793, 21.7013], [72.9793, 21.7012], [72.9793, 21.7009], [72.9792, 21.7007], [72.9791, 21.7005], [72.9796, 21.6993], [72.98, 21.6988], [72.98, 21.6987], [72.9802, 21.698], [72.9798, 21.698], [72.9799, 21.6963], [72.9793, 21.6963], [72.9788, 21.696], [72.9782, 21.696], [72.977, 21.6957], [72.9768, 21.6956], [72.9767, 21.6956], [72.976, 21.6955], [72.9759, 21.6955], [72.9758, 21.6956], [72.9754, 21.6955], [72.9752, 21.6953], [72.9751, 21.6953], [72.9747, 21.6953], [72.9745, 21.6953], [72.9735, 21.6954], [72.972, 21.6955], [72.9709, 21.6958], [72.9704, 21.6961], [72.9701, 21.6965], [72.97, 21.6966], [72.9699, 21.6968], [72.9699, 21.6969], [72.9697, 21.6972], [72.9694, 21.6977], [72.9691, 21.6985], [72.9686, 21.6995], [72.9685, 21.6998], [72.9684, 21.7], [72.9681, 21.7006], [72.9678, 21.7013], [72.9675, 21.702], [72.9671, 21.7029], [72.9668, 21.7035], [72.9668, 21.7037], [72.9664, 21.7044], [72.9663, 21.7046], [72.9663, 21.7047], [72.9662, 21.7049], [72.9661, 21.7051], [72.966, 21.7053], [72.9661, 21.7055], [72.9664, 21.7057], [72.967, 21.7065], [72.9675, 21.7071], [72.9681, 21.7077], [72.9682, 21.7078], [72.9687, 21.7084], [72.9693, 21.7091], [72.9695, 21.7094], [72.9702, 21.7103], [72.9712, 21.7114], [72.9714, 21.7117], [72.9716, 21.712], [72.972, 21.7125], [72.9727, 21.7132], [72.9739, 21.7147], [72.9743, 21.7147], [72.9747, 21.7148], [72.9755, 21.7149], [72.9756, 21.7145], [72.9756, 21.7144], [72.9756, 21.7142], [72.9757, 21.7139], [72.9758, 21.7135], [72.9759, 21.713], [72.9759, 21.7129], [72.976, 21.7125], [72.9762, 21.7121], [72.9765, 21.7113], [72.9765, 21.7112], [72.9767, 21.7107], [72.9769, 21.7103], [72.9772, 21.7094], [72.9773, 21.7092], [72.9777, 21.7081], [72.9777, 21.708], [72.9779, 21.7076], [72.978, 21.7072], [72.978, 21.707], [72.9783, 21.7063], [72.9784, 21.7058], [72.9785, 21.7056], [72.9785, 21.7055], [72.9787, 21.7049], [72.9789, 21.7044], [72.9789, 21.7043], [72.979, 21.7041], [72.979, 21.704]]]}, "properties": {"objectid": 720, "statename": "Gujarat", "statecode": "24", "districtname": "Bharuch", "districtcode": "488", "ulbname": "Bharuch (M)", "ulbcode": "802607", "wardname": "", "wardcode": null, "id": null, "status": "APPROVED", "misglobalid": null, "approved_by": "ULB Nodal Officer", "createdate": null, "updateddate": 1635229358000, "globalid": null, "gisglobalid": "046ca68f-7ae5-44c9-baba-4e17aa4ef960", "remark": "", "st_area(shape)": 0.00017461938359255216, "st_perimeter(shape)": 0.0540277717307337}}, {"type": "Feature", "geometry": {"type": "Polygon", "coordinates": [[[73.0168, 21.7062], [73.0166, 21.7065], [73.0163, 21.7071], [73.0162, 21.7072], [73.0161, 21.7072], [73.0154, 21.7072], [73.0153, 21.7072], [73.015, 21.7072], [73.0149, 21.7073], [73.0143, 21.7073], [73.0141, 21.7074], [73.0141, 21.7075], [73.0141, 21.7077], [73.0145, 21.7077], [73.0147, 21.7077], [73.0149, 21.7077], [73.0149, 21.7078], [73.0149, 21.708], [73.015, 21.708], [73.0151, 21.7082], [73.015, 21.7088], [73.0152, 21.7089], [73.0157, 21.7091], [73.0158, 21.7092], [73.0158, 21.7093], [73.0161, 21.7108], [73.0158, 21.7116], [73.0158, 21.7117], [73.0158, 21.7121], [73.0159, 21.7122], [73.0158, 21.7125], [73.0158, 21.7126], [73.0158, 21.7128], [73.0157, 21.7131], [73.0157, 21.7135], [73.0156, 21.7136], [73.0156, 21.714], [73.0155, 21.7147], [73.0155, 21.7148], [73.0157, 21.7149], [73.0161, 21.7149], [73.0175, 21.715], [73.0187, 21.7151], [73.0204, 21.7154], [73.0219, 21.7158], [73.0219, 21.7156], [73.0222, 21.7157], [73.0223, 21.7157], [73.0224, 21.7157], [73.0235, 21.7158], [73.0253, 21.7159], [73.0258, 21.7153], [73.0266, 21.7154], [73.0269, 21.7155], [73.0276, 21.7156], [73.0279, 21.7144], [73.0277, 21.7143], [73.0276, 21.7139], [73.0283, 21.7136], [73.0285, 21.7135], [73.0286, 21.7135], [73.0291, 21.7133], [73.0295, 21.7132], [73.0297, 21.712], [73.0299, 21.7116], [73.0298, 21.7113], [73.0301, 21.7105], [73.0304, 21.71], [73.0307, 21.7094], [73.0311, 21.7088], [73.0312, 21.7085], [73.0315, 21.708], [73.0306, 21.7077], [73.0306, 21.7076], [73.0298, 21.7074], [73.0289, 21.707], [73.0277, 21.7066], [73.0264, 21.7061], [73.0255, 21.7059], [73.0246, 21.7056], [73.0237, 21.7055], [73.0236, 21.7055], [73.023, 21.7056], [73.0229, 21.7066], [73.0229, 21.7068], [73.0228, 21.7069], [73.0226, 21.7078], [73.0225, 21.7079], [73.0222, 21.7082], [73.022, 21.7081], [73.0195, 21.7072], [73.0187, 21.7069], [73.0181, 21.7066], [73.0172, 21.7063], [73.0168, 21.7062]], [[73.0224, 21.7132], [73.0215, 21.7127], [73.0214, 21.7125], [73.0217, 21.7122], [73.0219, 21.7119], [73.022, 21.7115], [73.0221, 21.7112], [73.0221, 21.7109], [73.0207, 21.7106], [73.0207, 21.7111], [73.0203, 21.7118], [73.0202, 21.7118], [73.0197, 21.7115], [73.0199, 21.7111], [73.0193, 21.7108], [73.0193, 21.7106], [73.0195, 21.7104], [73.0193, 21.7101], [73.0192, 21.7098], [73.0192, 21.7096], [73.0193, 21.7096], [73.0198, 21.7098], [73.0198, 21.7093], [73.02, 21.7094], [73.02, 21.7093], [73.0204, 21.7094], [73.0205, 21.7089], [73.0206, 21.7084], [73.0207, 21.7084], [73.0208, 21.7084], [73.021, 21.7085], [73.0213, 21.7085], [73.0215, 21.7085], [73.0221, 21.7087], [73.023, 21.7088], [73.0227, 21.7115], [73.0227, 21.7122], [73.0227, 21.7125], [73.0225, 21.7124], [73.0224, 21.7132]]]}, "properties": {"objectid": 724, "statename": "Gujarat", "statecode": "24", "districtname": "Bharuch", "districtcode": "488", "ulbname": "Bharuch (M)", "ulbcode": "802607", "wardname": "", "wardcode": null, "id": null, "status": "APPROVED", "misglobalid": null, "approved_by": "ULB Nodal Officer", "createdate": null, "updateddate": 1635229460000, "globalid": null, "gisglobalid": "21343348-a0e0-43c7-a70b-aee3567c4596", "remark": "", "st_area(shape)": 0.00011348245019403321, "st_perimeter(shape)": 0.07108620325864416}}, {"type": "Feature", "geometry": {"type": "Polygon", "coordinates": [[[72.9861, 21.7164], [72.9862, 21.7162], [72.9862, 21.716], [72.9863, 21.7158], [72.9863, 21.7157], [72.9863, 21.7154], [72.9863, 21.715], [72.9863, 21.7148], [72.9863, 21.7145], [72.9863, 21.7143], [72.9863, 21.714], [72.9863, 21.7136], [72.9863, 21.7133], [72.9863, 21.713], [72.9861, 21.7124], [72.9861, 21.7123], [72.986, 21.7121], [72.9859, 21.7119], [72.9858, 21.7117], [72.9858, 21.7116], [72.9857, 21.7115], [72.9859, 21.7116], [72.9863, 21.7109], [72.9863, 21.7107], [72.9864, 21.7103], [72.9864, 21.7099], [72.9864, 21.7097], [72.9864, 21.7094], [72.9864, 21.7091], [72.9867, 21.7091], [72.9869, 21.7087], [72.9871, 21.7084], [72.9872, 21.7081], [72.9871, 21.7081], [72.9871, 21.708], [72.9866, 21.7078], [72.986, 21.7075], [72.9856, 21.7073], [72.9852, 21.7072], [72.9849, 21.7071], [72.9847, 21.707], [72.9846, 21.7069], [72.9844, 21.7069], [72.9844, 21.7067], [72.9844, 21.7066], [72.9844, 21.7065], [72.9835, 21.7061], [72.9818, 21.7053], [72.981, 21.7049], [72.9804, 21.7046], [72.9797, 21.7043], [72.9796, 21.7044], [72.9794, 21.7042], [72.979, 21.704], [72.979, 21.7041], [72.9789, 21.7043], [72.9789, 21.7044], [72.9787, 21.7049], [72.9785, 21.7055], [72.9785, 21.7056], [72.9784, 21.7058], [72.9783, 21.7063], [72.978, 21.707], [72.978, 21.7072], [72.9779, 21.7076], [72.9777, 21.708], [72.9777, 21.7081], [72.9773, 21.7092], [72.9772, 21.7094], [72.9769, 21.7103], [72.9767, 21.7107], [72.9765, 21.7112], [72.9765, 21.7113], [72.9762, 21.7121], [72.976, 21.7125], [72.9759, 21.7129], [72.9759, 21.713], [72.9758, 21.7135], [72.9757, 21.7139], [72.9756, 21.7142], [72.9756, 21.7144], [72.9756, 21.7145], [72.9755, 21.7149], [72.9754, 21.7151], [72.9753, 21.7155], [72.9755, 21.7161], [72.9756, 21.7165], [72.9757, 21.7168], [72.9765, 21.7169], [72.9768, 21.7169], [72.9769, 21.7169], [72.977, 21.7169], [72.9772, 21.717], [72.9788, 21.7171], [72.9793, 21.7172], [72.9802, 21.7172], [72.981, 21.7173], [72.9816, 21.7173], [72.9822, 21.7171], [72.9824, 21.717], [72.9832, 21.717], [72.9843, 21.7171], [72.9849, 21.7172], [72.9855, 21.7173], [72.9858, 21.7173], [72.986, 21.7173], [72.9861, 21.7169], [72.9861, 21.7165], [72.9861, 21.7164]]]}, "properties": {"objectid": 727, "statename": "Gujarat", "statecode": "24", "districtname": "Bharuch", "districtcode": "488", "ulbname": "Bharuch (M)", "ulbcode": "802607", "wardname": "", "wardcode": null, "id": null, "status": "APPROVED", "misglobalid": null, "approved_by": "ULB Nodal Officer", "createdate": null, "updateddate": 1635229396000, "globalid": null, "gisglobalid": "751a2721-1ae7-4aa2-963c-fbd9c1c36a9c", "remark": "", "st_area(shape)": 0.00011066012295098544, "st_perimeter(shape)": 0.04343917621878893}}, {"type": "Feature", "geometry": {"type": "Polygon", "coordinates": [[[72.999, 21.711], [72.9992, 21.7098], [72.999, 21.7097], [72.9992, 21.7088], [72.9994, 21.7079], [72.9994, 21.7077], [72.9995, 21.7075], [72.997, 21.7076], [72.9957, 21.7081], [72.9943, 21.7086], [72.9943, 21.7085], [72.9941, 21.7077], [72.994, 21.7075], [72.9939, 21.7075], [72.9938, 21.7072], [72.9938, 21.7073], [72.9936, 21.7073], [72.9937, 21.7076], [72.9927, 21.7079], [72.9924, 21.7081], [72.9918, 21.7082], [72.9917, 21.7083], [72.991, 21.7083], [72.9901, 21.7083], [72.9898, 21.7083], [72.9896, 21.7082], [72.9894, 21.7082], [72.9887, 21.7081], [72.988, 21.708], [72.9874, 21.7078], [72.9873, 21.708], [72.9872, 21.7081], [72.9871, 21.7084], [72.9869, 21.7087], [72.9867, 21.7091], [72.9864, 21.7091], [72.9864, 21.7094], [72.9864, 21.7097], [72.9864, 21.7099], [72.9864, 21.7103], [72.9863, 21.7107], [72.9863, 21.7109], [72.9859, 21.7116], [72.9857, 21.7115], [72.9858, 21.7116], [72.9858, 21.7117], [72.9859, 21.7119], [72.986, 21.7121], [72.9861, 21.7123], [72.9861, 21.7124], [72.9863, 21.713], [72.9863, 21.7131], [72.9863, 21.7133], [72.9863, 21.7136], [72.9863, 21.714], [72.9863, 21.7143], [72.9863, 21.7145], [72.9863, 21.7148], [72.9863, 21.715], [72.9863, 21.7154], [72.9863, 21.7157], [72.9863, 21.7158], [72.9862, 21.716], [72.9862, 21.7162], [72.9861, 21.7164], [72.9866, 21.7165], [72.9869, 21.7165], [72.9875, 21.7166], [72.9878, 21.7167], [72.9885, 21.7166], [72.9891, 21.7164], [72.9901, 21.7168], [72.9903, 21.7169], [72.9908, 21.7171], [72.9927, 21.7176], [72.9932, 21.7178], [72.994, 21.718], [72.9942, 21.7181], [72.9943, 21.7182], [72.9944, 21.7182], [72.9947, 21.7176], [72.9947, 21.7175], [72.9949, 21.7171], [72.9952, 21.7153], [72.9953, 21.7151], [72.9955, 21.7139], [72.9955, 21.7138], [72.9955, 21.7135], [72.9969, 21.7135], [72.9973, 21.7135], [72.9974, 21.7132], [72.9974, 21.713], [72.9975, 21.7125], [72.9976, 21.7113], [72.999, 21.711]]]}, "properties": {"objectid": 728, "statename": "Gujarat", "statecode": "24", "districtname": "Bharuch", "districtcode": "488", "ulbname": "Bharuch (M)", "ulbcode": "802607", "wardname": "", "wardcode": null, "id": null, "status": "APPROVED", "misglobalid": null, "approved_by": "ULB Nodal Officer", "createdate": null, "updateddate": 1635229531000, "globalid": null, "gisglobalid": "d8cd914c-5fc0-4026-85a3-17d72cc9d0c5", "remark": "", "st_area(shape)": 9.891248845747876e-05, "st_perimeter(shape)": 0.046277434315594904}}, {"type": "Feature", "geometry": {"type": "Polygon", "coordinates": [[[73.0007, 21.7001], [73.0006, 21.7001], [73.0003, 21.7], [72.999, 21.6994], [72.9986, 21.6992], [72.9966, 21.6979], [72.9966, 21.6977], [72.9963, 21.6977], [72.9954, 21.6974], [72.9953, 21.6974], [72.9934, 21.696], [72.9927, 21.6955], [72.9926, 21.6954], [72.9924, 21.6953], [72.9925, 21.6945], [72.9921, 21.6943], [72.9916, 21.6947], [72.992, 21.695], [72.9923, 21.6951], [72.9918, 21.6973], [72.9921, 21.6974], [72.992, 21.6974], [72.992, 21.6975], [72.9924, 21.6976], [72.9931, 21.6982], [72.9918, 21.6995], [72.9916, 21.6996], [72.9915, 21.6999], [72.9916, 21.7002], [72.9914, 21.7008], [72.9913, 21.7013], [72.9913, 21.7018], [72.9913, 21.7019], [72.9912, 21.7026], [72.9911, 21.7042], [72.9909, 21.7063], [72.991, 21.7063], [72.9916, 21.7061], [72.9917, 21.7061], [72.9918, 21.7061], [72.9922, 21.706], [72.9925, 21.706], [72.9928, 21.7059], [72.993, 21.7059], [72.9931, 21.7059], [72.9935, 21.706], [72.9936, 21.706], [72.995, 21.7059], [72.9955, 21.7059], [72.9961, 21.7057], [72.9966, 21.7054], [72.998, 21.7056], [72.9982, 21.7057], [72.9984, 21.7055], [72.9989, 21.7039], [72.999, 21.7039], [72.9992, 21.7033], [72.9995, 21.7028], [73.0, 21.7019], [73.0003, 21.7018], [73.0007, 21.7001]]]}, "properties": {"objectid": 714, "statename": "Gujarat", "statecode": "24", "districtname": "Bharuch", "districtcode": "488", "ulbname": "Bharuch (M)", "ulbcode": "802607", "wardname": "7 - Dandiyabazar", "wardcode": null, "id": null, "status": "APPROVED", "misglobalid": null, "approved_by": "ULB Nodal Officer", "createdate": null, "updateddate": 1635234162000, "globalid": null, "gisglobalid": "0e317191-7cb1-4634-8b25-347c1135153b", "remark": "", "st_area(shape)": 6.757857116355346e-05, "st_perimeter(shape)": 0.039171510024081015}}, {"type": "Feature", "geometry": {"type": "Polygon", "coordinates": [[[72.9921, 21.6943], [72.9916, 21.6943], [72.991, 21.6939], [72.9901, 21.6933], [72.9893, 21.6929], [72.9882, 21.6925], [72.9874, 21.6921], [72.9867, 21.692], [72.9858, 21.6916], [72.9856, 21.6919], [72.9856, 21.6928], [72.9855, 21.6932], [72.9857, 21.6935], [72.9857, 21.6938], [72.9855, 21.6941], [72.985, 21.6939], [72.9845, 21.6935], [72.9838, 21.693], [72.9833, 21.6929], [72.9831, 21.6928], [72.9825, 21.6924], [72.9821, 21.6921], [72.9819, 21.693], [72.9815, 21.6939], [72.9834, 21.6948], [72.9834, 21.695], [72.9837, 21.6952], [72.9838, 21.6958], [72.984, 21.696], [72.9848, 21.6967], [72.9861, 21.6974], [72.9875, 21.6981], [72.9877, 21.6982], [72.9885, 21.6985], [72.9884, 21.6987], [72.9882, 21.6989], [72.9879, 21.699], [72.9877, 21.6998], [72.9875, 21.6997], [72.9873, 21.6997], [72.9872, 21.6999], [72.9871, 21.7004], [72.9871, 21.7006], [72.9873, 21.7007], [72.9874, 21.7007], [72.9876, 21.7008], [72.9877, 21.7008], [72.9882, 21.7009], [72.9889, 21.7012], [72.9894, 21.7013], [72.9896, 21.7014], [72.9906, 21.7016], [72.991, 21.7017], [72.9913, 21.7018], [72.9913, 21.7013], [72.9914, 21.7008], [72.9916, 21.7002], [72.9915, 21.6999], [72.9916, 21.6996], [72.9918, 21.6995], [72.9931, 21.6982], [72.9924, 21.6976], [72.992, 21.6975], [72.992, 21.6974], [72.9921, 21.6974], [72.9918, 21.6973], [72.9923, 21.6951], [72.992, 21.695], [72.9916, 21.6947], [72.9921, 21.6943]]]}, "properties": {"objectid": 713, "statename": "Gujarat", "statecode": "24", "districtname": "Bharuch", "districtcode": "488", "ulbname": "Bharuch (M)", "ulbcode": "802607", "wardname": "Sonehrimahel", "wardcode": null, "id": null, "status": "APPROVED", "misglobalid": null, "approved_by": "ULB Nodal Officer", "createdate": null, "updateddate": 1635234046000, "globalid": null, "gisglobalid": "265dfbf1-9d8b-480c-9cf9-b6a32e71adf7", "remark": "", "st_area(shape)": 5.590716449326014e-05, "st_perimeter(shape)": 0.0414718123291264}}, {"type": "Feature", "geometry": {"type": "Polygon", "coordinates": [[[72.977, 21.688], [72.9769, 21.6879], [72.9749, 21.6871], [72.974, 21.6868], [72.9737, 21.6866], [72.9732, 21.6864], [72.9715, 21.6863], [72.971, 21.6862], [72.9709, 21.6862], [72.9704, 21.6859], [72.9692, 21.6856], [72.9673, 21.685], [72.9673, 21.6849], [72.9668, 21.6848], [72.9667, 21.6846], [72.9659, 21.6845], [72.9658, 21.6845], [72.9658, 21.6844], [72.9656, 21.6842], [72.9652, 21.6841], [72.9639, 21.6835], [72.9636, 21.6833], [72.9626, 21.6828], [72.9623, 21.6828], [72.9622, 21.6828], [72.9622, 21.6829], [72.9606, 21.6827], [72.9597, 21.6826], [72.9588, 21.6824], [72.9586, 21.6823], [72.958, 21.6827], [72.9579, 21.6827], [72.9582, 21.6838], [72.9582, 21.6839], [72.9581, 21.684], [72.958, 21.6842], [72.9579, 21.6846], [72.9578, 21.6848], [72.9578, 21.6855], [72.9582, 21.6856], [72.9582, 21.6857], [72.9582, 21.686], [72.9582, 21.6861], [72.958, 21.6865], [72.958, 21.6866], [72.9579, 21.687], [72.9579, 21.6871], [72.9576, 21.688], [72.9582, 21.6881], [72.9582, 21.6882], [72.9583, 21.6882], [72.9584, 21.6882], [72.9589, 21.6881], [72.959, 21.6881], [72.9603, 21.6882], [72.9606, 21.6882], [72.9612, 21.6882], [72.9613, 21.6883], [72.9617, 21.6883], [72.9619, 21.6883], [72.9621, 21.6883], [72.9625, 21.6883], [72.9634, 21.6884], [72.9635, 21.6885], [72.9645, 21.6887], [72.9645, 21.6886], [72.965, 21.6887], [72.9656, 21.6888], [72.967, 21.6891], [72.9679, 21.6893], [72.9685, 21.6894], [72.969, 21.6898], [72.9698, 21.6897], [72.9707, 21.6893], [72.9708, 21.6893], [72.9711, 21.6891], [72.9713, 21.6889], [72.9717, 21.6889], [72.972, 21.6901], [72.9724, 21.6906], [72.9735, 21.6906], [72.9738, 21.6909], [72.974, 21.691], [72.9744, 21.6916], [72.9748, 21.6922], [72.9751, 21.6928], [72.9752, 21.6931], [72.9752, 21.6933], [72.9759, 21.6929], [72.9764, 21.6929], [72.9767, 21.6915], [72.9764, 21.6913], [72.9763, 21.6911], [72.9762, 21.6907], [72.9762, 21.6905], [72.9764, 21.6903], [72.9767, 21.6902], [72.9769, 21.6899], [72.977, 21.6894], [72.9767, 21.6892], [72.9767, 21.6888], [72.977, 21.688]]]}, "properties": {"objectid": 707, "statename": "Gujarat", "statecode": "24", "districtname": "Bharuch", "districtcode": "488", "ulbname": "Bharuch (M)", "ulbcode": "802607", "wardname": "Vejalpur Bambakhana", "wardcode": null, "id": null, "status": "APPROVED", "misglobalid": null, "approved_by": "ULB Nodal Officer", "createdate": null, "updateddate": 1635233688000, "globalid": null, "gisglobalid": "a7a4c9a6-4305-45b3-841d-c92330a79595", "remark": "", "st_area(shape)": 8.763599324852615e-05, "st_perimeter(shape)": 0.05445943456286932}}, {"type": "Feature", "geometry": {"type": "Polygon", "coordinates": [[[72.9577, 21.6881], [72.9576, 21.6888], [72.9581, 21.6892], [72.958, 21.6917], [72.9576, 21.6955], [72.9574, 21.6975], [72.9573, 21.6985], [72.9574, 21.6995], [72.9573, 21.7016], [72.9574, 21.7035], [72.9544, 21.7051], [72.9527, 21.7061], [72.9513, 21.7071], [72.9523, 21.7074], [72.9543, 21.7075], [72.9559, 21.7081], [72.9575, 21.7082], [72.9592, 21.7089], [72.9617, 21.7096], [72.9649, 21.7108], [72.9664, 21.7094], [72.9681, 21.7078], [72.966, 21.7054], [72.9682, 21.7004], [72.9702, 21.6961], [72.9713, 21.6956], [72.9727, 21.6954], [72.9751, 21.6952], [72.9751, 21.6932], [72.9748, 21.6924], [72.9744, 21.6916], [72.974, 21.691], [72.9735, 21.6906], [72.9725, 21.6905], [72.9719, 21.6901], [72.9717, 21.689], [72.9706, 21.6894], [72.9698, 21.6898], [72.9689, 21.6898], [72.9684, 21.6894], [72.967, 21.6891], [72.9645, 21.6886], [72.9644, 21.6887], [72.9634, 21.6885], [72.9608, 21.6883], [72.959, 21.6881], [72.9585, 21.6882], [72.9577, 21.6881]]]}, "properties": {"objectid": 46636, "statename": "Gujarat", "statecode": "24", "districtname": "Bharuch", "districtcode": "488", "ulbname": "Bharuch", "ulbcode": "802607", "wardname": "Mohmadpura", "wardcode": "1", "id": null, "status": "APPROVED", "misglobalid": null, "approved_by": "ULB Nodal Officer", "createdate": 1639377962000, "updateddate": 1640006873000, "globalid": "anamBBPP-c644-PoBB-adsl-sod44Pcn5lon", "gisglobalid": "0df76ce5-8a1d-4132-b36d-8da6bbeaf643", "remark": "Done", "st_area(shape)": 0.00027077973765600097, "st_perimeter(shape)": 0.08223182097416364}}, {"type": "Feature", "geometry": {"type": "Polygon", "coordinates": [[[72.9693, 21.6982], [72.9663, 21.7053], [72.9707, 21.7104], [72.9726, 21.7129], [72.9739, 21.7145], [72.9752, 21.7147], [72.977, 21.7095], [72.9785, 21.7057], [72.9793, 21.7034], [72.9789, 21.7007], [72.9796, 21.6989], [72.9798, 21.6965], [72.9772, 21.696], [72.975, 21.6955], [72.9728, 21.6954], [72.9706, 21.6962], [72.9693, 21.6982]]]}, "properties": {"objectid": 46628, "statename": "Gujarat", "statecode": "24", "districtname": null, "districtcode": "488", "ulbname": "Bharuch", "ulbcode": "802607", "wardname": "Charrasta", "wardcode": "2", "id": null, "status": "APPROVED", "misglobalid": null, "approved_by": null, "createdate": 1638950078000, "updateddate": 1653726758000, "globalid": "Qss5RKao-dBo6-PmsP-RKQn-BlK5ls6mKc4l", "gisglobalid": "74c1a648-d9e5-4c8f-b98c-fd7e5fef8562", "remark": "Ok", "st_area(shape)": 0.000166135199063256, "st_perimeter(shape)": 0.05198010087179424}}, {"type": "Feature", "geometry": {"type": "Polygon", "coordinates": [[[72.9791, 21.7042], [72.9769, 21.7105], [72.9758, 21.7136], [72.9753, 21.7155], [72.9758, 21.7168], [72.9781, 21.7171], [72.9815, 21.7173], [72.9824, 21.7169], [72.9832, 21.7169], [72.9858, 21.7171], [72.9862, 21.7157], [72.9862, 21.7142], [72.9862, 21.7129], [72.9857, 21.7115], [72.9864, 21.7105], [72.9863, 21.7093], [72.9871, 21.7081], [72.9844, 21.7069], [72.9842, 21.7066], [72.9832, 21.706], [72.9813, 21.7051], [72.9791, 21.7042]]]}, "properties": {"objectid": 46640, "statename": "Gujarat", "statecode": "24", "districtname": null, "districtcode": "488", "ulbname": "Bharuch", "ulbcode": "802607", "wardname": "Shaktinath", "wardcode": "3", "id": null, "status": "APPROVED", "misglobalid": null, "approved_by": "ULB Nodal Officer", "createdate": 1638952469000, "updateddate": 1639852726000, "globalid": "oclQRBms-QoQl-Pldn-Ras4-dKdnoo6l555R", "gisglobalid": "9670a354-2685-42c5-b183-cc474d714873", "remark": "Done", "st_area(shape)": 0.00010730117381334109, "st_perimeter(shape)": 0.042047507919588355}}, {"type": "Feature", "geometry": {"type": "MultiPolygon", "coordinates": [[[[72.9937, 21.7076], [72.9923, 21.7081], [72.9908, 21.7084], [72.9891, 21.7082], [72.988, 21.7081], [72.9875, 21.7078], [72.9867, 21.7091], [72.9864, 21.7092], [72.9864, 21.7105], [72.9859, 21.7116], [72.9863, 21.7131], [72.9863, 21.7148], [72.9863, 21.7158], [72.9862, 21.7163], [72.9877, 21.7166], [72.9884, 21.7167], [72.9891, 21.7163], [72.9914, 21.7172], [72.9944, 21.7181], [72.9952, 21.7158], [72.9955, 21.7135], [72.9972, 21.7134], [72.9976, 21.7113], [72.9989, 21.711], [72.9993, 21.7098], [72.9991, 21.7097], [72.9991, 21.7092], [72.9994, 21.7076], [72.9971, 21.7076], [72.9948, 21.7085], [72.9943, 21.7085], [72.9939, 21.7075], [72.9937, 21.7076]]], [[[72.9936, 21.7076], [72.9937, 21.7076], [72.9936, 21.7076]]]]}, "properties": {"objectid": 46642, "statename": "Gujarat", "statecode": "24", "districtname": null, "districtcode": "488", "ulbname": "Bharuch", "ulbcode": "802607", "wardname": "Muktinagar", "wardcode": "4", "id": null, "status": "APPROVED", "misglobalid": null, "approved_by": "ULB Nodal Officer", "createdate": 1638952491000, "updateddate": 1639853876000, "globalid": "ccPdKccP-QK6a-Paam-sKdm-sQ6mBlPKa4QP", "gisglobalid": "9d55e115-618a-48be-b1a1-cb4679a287c4", "remark": "Done", "st_area(shape)": 9.708855555861646e-05, "st_perimeter(shape)": 0.0446952579316293}}, {"type": "Feature", "geometry": {"type": "Polygon", "coordinates": [[[73.0007, 21.7001], [73.0003, 21.7018], [73.0, 21.7019], [72.9997, 21.7026], [72.9992, 21.7033], [72.9991, 21.7039], [72.9989, 21.7039], [72.9987, 21.7046], [72.9985, 21.7054], [72.9982, 21.7056], [72.9981, 21.7056], [72.9966, 21.7054], [72.9961, 21.7057], [72.9956, 21.7058], [72.9936, 21.706], [72.9929, 21.7059], [72.9918, 21.7061], [72.9908, 21.7063], [72.9904, 21.7063], [72.9901, 21.7065], [72.9885, 21.7066], [72.9882, 21.7066], [72.988, 21.7069], [72.9879, 21.7072], [72.9874, 21.7077], [72.988, 21.708], [72.9905, 21.7083], [72.9915, 21.7083], [72.9923, 21.7081], [72.9939, 21.7075], [72.9941, 21.7079], [72.9943, 21.7086], [72.9957, 21.7081], [72.997, 21.7076], [72.9994, 21.7076], [72.9991, 21.7097], [72.9992, 21.7099], [72.999, 21.7109], [73.0002, 21.711], [73.0007, 21.712], [73.0012, 21.7128], [73.003, 21.7134], [73.0083, 21.7141], [73.012, 21.7145], [73.0155, 21.7148], [73.0158, 21.7126], [73.0157, 21.7117], [73.016, 21.711], [73.0158, 21.7093], [73.015, 21.7088], [73.015, 21.7082], [73.0148, 21.7078], [73.014, 21.7078], [73.0141, 21.7074], [73.0153, 21.7072], [73.0161, 21.7071], [73.0162, 21.7072], [73.0165, 21.7067], [73.0167, 21.7063], [73.0155, 21.7058], [73.0143, 21.7053], [73.012, 21.7045], [73.0119, 21.7048], [73.0119, 21.7051], [73.0107, 21.7042], [73.0106, 21.7041], [73.0105, 21.704], [73.0102, 21.7039], [73.0085, 21.7033], [73.008, 21.7031], [73.0064, 21.7023], [73.0054, 21.702], [73.0042, 21.7016], [73.003, 21.7011], [73.0007, 21.7001]]]}, "properties": {"objectid": 46643, "statename": "Gujarat", "statecode": "24", "districtname": null, "districtcode": "488", "ulbname": "Bharuch", "ulbcode": "802607", "wardname": "Kasak", "wardcode": "5", "id": null, "status": "APPROVED", "misglobalid": null, "approved_by": "ULB Nodal Officer", "createdate": 1638952510000, "updateddate": 1639858956000, "globalid": "dmsmmnRB-Kn5d-PcaR-acKB-sn5Qom6ooBs4", "gisglobalid": "f49c31d8-591c-45f5-a926-418153b74b29", "remark": "Done", "st_area(shape)": 0.000200009160509796, "st_perimeter(shape)": 0.08231606325730632}}, {"type": "Feature", "geometry": {"type": "Polygon", "coordinates": [[[73.0167, 21.7063], [73.0162, 21.7072], [73.0158, 21.7072], [73.0153, 21.7072], [73.0149, 21.7073], [73.0144, 21.7073], [73.0141, 21.7074], [73.0141, 21.7077], [73.0149, 21.7077], [73.015, 21.7079], [73.0151, 21.7082], [73.015, 21.7088], [73.0158, 21.7092], [73.0161, 21.7107], [73.0158, 21.7117], [73.0159, 21.7123], [73.0156, 21.7148], [73.0194, 21.7152], [73.0219, 21.7156], [73.0252, 21.7158], [73.0258, 21.7153], [73.0276, 21.7156], [73.0277, 21.7149], [73.0275, 21.7139], [73.0294, 21.7131], [73.0297, 21.7116], [73.0298, 21.711], [73.0301, 21.7105], [73.0313, 21.7081], [73.0289, 21.7071], [73.0277, 21.7067], [73.0265, 21.7062], [73.0242, 21.7057], [73.0231, 21.7057], [73.0229, 21.707], [73.0227, 21.7078], [73.0221, 21.7082], [73.0196, 21.7073], [73.0182, 21.7068], [73.0167, 21.7063]]]}, "properties": {"objectid": 45859, "statename": "Gujarat", "statecode": "24", "districtname": null, "districtcode": "488", "ulbname": "Bharuch", "ulbcode": "802607", "wardname": "Maktampur", "wardcode": "6", "id": null, "status": "APPROVED", "misglobalid": null, "approved_by": "ULB Nodal Officer", "createdate": 1638959361000, "updateddate": 1639858872000, "globalid": "ns6Q4lo5-P654-Pol4-snad-cQ6PRPssPRRQ", "gisglobalid": "90963d2c-7412-4692-bc0a-a7114b0b6b81", "remark": "Done", "st_area(shape)": 0.0001193056256641252, "st_perimeter(shape)": 0.05084151375016111}}, {"type": "Feature", "geometry": {"type": "Polygon", "coordinates": [[[72.9941, 21.6967], [72.9923, 21.6953], [72.9918, 21.6973], [72.9926, 21.6977], [72.9931, 21.6982], [72.9917, 21.6997], [72.9913, 21.7017], [72.9912, 21.7039], [72.991, 21.7062], [72.9931, 21.7059], [72.9937, 21.7059], [72.9945, 21.7059], [72.9953, 21.7058], [72.996, 21.7057], [72.9968, 21.7054], [72.9983, 21.7055], [72.9992, 21.7031], [73.0, 21.7019], [73.0002, 21.7016], [73.0005, 21.7011], [73.0006, 21.7001], [72.9987, 21.6994], [72.9975, 21.6985], [72.9964, 21.698], [72.9953, 21.6974], [72.9941, 21.6967]]]}, "properties": {"objectid": 46663, "statename": "Gujarat", "statecode": "24", "districtname": null, "districtcode": "488", "ulbname": "Bharuch", "ulbcode": "802607", "wardname": "Supermarket", "wardcode": "7", "id": null, "status": "APPROVED", "misglobalid": null, "approved_by": "ULB Nodal Officer", "createdate": 1638959393000, "updateddate": 1640007270000, "globalid": "4aBmdn4Q-RBnK-P56R-sPnm-PsQsQlPRdnRP", "gisglobalid": "a3e73cb6-dd19-4bfd-81c9-095d2b963ad0", "remark": "Done", "st_area(shape)": 6.486086081250613e-05, "st_perimeter(shape)": 0.035306922103307666}}, {"type": "Feature", "geometry": {"type": "Polygon", "coordinates": [[[72.9812, 21.6938], [72.9808, 21.6964], [72.9799, 21.6964], [72.9799, 21.6972], [72.9799, 21.6979], [72.9802, 21.6979], [72.9801, 21.6988], [72.9797, 21.6993], [72.9793, 21.7003], [72.9795, 21.7012], [72.9792, 21.704], [72.9872, 21.708], [72.9881, 21.7066], [72.9909, 21.7062], [72.9912, 21.7018], [72.9871, 21.7006], [72.9872, 21.6997], [72.9877, 21.6997], [72.9879, 21.699], [72.9885, 21.6986], [72.987, 21.6978], [72.9847, 21.6967], [72.9839, 21.696], [72.9837, 21.6954], [72.9833, 21.695], [72.9829, 21.6946], [72.9823, 21.6943], [72.9812, 21.6938]]]}, "properties": {"objectid": 46015, "statename": "Gujarat", "statecode": "24", "districtname": "Bharuch", "districtcode": "488", "ulbname": "Bharuch", "ulbcode": "802607", "wardname": "Fatatalav", "wardcode": "8", "id": null, "status": "APPROVED", "misglobalid": null, "approved_by": null, "createdate": 1639462883000, "updateddate": 1651642121000, "globalid": "Bnc6on4c-nQdB-PRQs-RRdB-KB6BnsPQBKls", "gisglobalid": "c700447e-ebc6-4f3f-b678-afcba7819506", "remark": "Ok", "st_area(shape)": 9.842184984200841e-05, "st_perimeter(shape)": 0.04557148569628709}}, {"type": "Feature", "geometry": {"type": "Polygon", "coordinates": [[[72.971, 21.6866], [72.9683, 21.6856], [72.9629, 21.6832], [72.9583, 21.6827], [72.9583, 21.684], [72.9579, 21.6851], [72.9584, 21.686], [72.9579, 21.6873], [72.9578, 21.688], [72.9644, 21.6885], [72.9664, 21.6889], [72.9682, 21.6892], [72.9689, 21.6897], [72.9701, 21.6896], [72.9708, 21.6893], [72.9712, 21.6888], [72.9718, 21.6889], [72.972, 21.6901], [72.9724, 21.6905], [72.9735, 21.6905], [72.9742, 21.6912], [72.9748, 21.6922], [72.9752, 21.6932], [72.9763, 21.6928], [72.9766, 21.6917], [72.9762, 21.6911], [72.9762, 21.6905], [72.9768, 21.69], [72.9769, 21.6895], [72.9767, 21.6892], [72.9768, 21.6881], [72.9741, 21.6871], [72.973, 21.6868], [72.971, 21.6866]]]}, "properties": {"objectid": 46665, "statename": "Gujarat", "statecode": "24", "districtname": null, "districtcode": "488", "ulbname": "Bharuch", "ulbcode": "802607", "wardname": "Bambakhana", "wardcode": "9", "id": null, "status": "APPROVED", "misglobalid": null, "approved_by": null, "createdate": 1638959870000, "updateddate": 1641467883000, "globalid": null, "gisglobalid": "7d523559-8366-480d-857d-153f44cb1b85", "remark": "Done", "st_area(shape)": 7.970197725825156e-05, "st_perimeter(shape)": 0.05206721930844273}}, {"type": "Feature", "geometry": {"type": "Polygon", "coordinates": [[[72.9766, 21.6903], [72.9764, 21.6909], [72.9767, 21.6915], [72.9765, 21.6929], [72.9753, 21.6933], [72.9752, 21.6951], [72.9759, 21.6955], [72.9777, 21.6958], [72.9806, 21.6962], [72.9809, 21.6948], [72.9812, 21.6936], [72.982, 21.6921], [72.9838, 21.693], [72.9845, 21.6935], [72.9855, 21.694], [72.9854, 21.6921], [72.9812, 21.6901], [72.9769, 21.6882], [72.9769, 21.689], [72.9771, 21.6897], [72.9766, 21.6903]]]}, "properties": {"objectid": 46666, "statename": "Gujarat", "statecode": "24", "districtname": null, "districtcode": "488", "ulbname": "Bharuch", "ulbcode": "802607", "wardname": "Charrasta", "wardcode": "10", "id": null, "status": "APPROVED", "misglobalid": null, "approved_by": "ULB Nodal Officer", "createdate": 1638959917000, "updateddate": 1639117021000, "globalid": "ldososRd-ls4P-PQRQ-QPBo-lPcQlK4RcnBB", "gisglobalid": "e9f90077-e3f0-445c-ae26-fa6e5f48bbcf", "remark": "Done", "st_area(shape)": 4.123665174199978e-05, "st_perimeter(shape)": 0.03328627232227961}}, {"type": "Feature", "geometry": {"type": "Polygon", "coordinates": [[[72.9847, 21.6966], [72.9886, 21.6986], [72.9883, 21.6989], [72.988, 21.6991], [72.9877, 21.6998], [72.9873, 21.6996], [72.9871, 21.7006], [72.9891, 21.7012], [72.9912, 21.7017], [72.9915, 21.6999], [72.9916, 21.6996], [72.9922, 21.6991], [72.993, 21.6982], [72.9924, 21.6976], [72.992, 21.6975], [72.9918, 21.6973], [72.9922, 21.6951], [72.9916, 21.6947], [72.9919, 21.6945], [72.9913, 21.6944], [72.9889, 21.6929], [72.9876, 21.6925], [72.9868, 21.6923], [72.9856, 21.6922], [72.9856, 21.6932], [72.9858, 21.6938], [72.9856, 21.6941], [72.9851, 21.6939], [72.9845, 21.6935], [72.9838, 21.693], [72.9831, 21.6928], [72.9821, 21.6922], [72.9815, 21.6939], [72.9833, 21.6948], [72.9834, 21.695], [72.9838, 21.6952], [72.9839, 21.6958], [72.9847, 21.6966]]]}, "properties": {"objectid": 45860, "statename": "Gujarat", "statecode": "24", "districtname": null, "districtcode": "488", "ulbname": "Bharuch", "ulbcode": "802607", "wardname": "Soneri Mahel", "wardcode": "11", "id": null, "status": "APPROVED", "misglobalid": null, "approved_by": "ULB Nodal Officer", "createdate": 1638959954000, "updateddate": 1640006175000, "globalid": "lcBsK5l4-QmBl-PcRm-sQd5-5dKBlRdQR5dm", "gisglobalid": "beb85b89-bbd0-43f4-8f5f-1ecca193f1f3", "remark": "Done", "st_area(shape)": 5.329096556335302e-05, "st_perimeter(shape)": 0.03978160301433395}}]}
