{"type": "FeatureCollection", "features": [{"type": "Feature", "geometry": {"type": "Polygon", "coordinates": [[[76.0705, 25.4129], [76.0702, 25.4127], [76.0709, 25.4116], [76.071, 25.4113], [76.0712, 25.4112], [76.0712, 25.4111], [76.071, 25.4104], [76.0701, 25.4106], [76.07, 25.4103], [76.0699, 25.4102], [76.0697, 25.4101], [76.0693, 25.41], [76.0692, 25.4095], [76.0693, 25.4095], [76.0694, 25.4092], [76.0698, 25.4093], [76.0701, 25.409], [76.0702, 25.4088], [76.0706, 25.4088], [76.0706, 25.408], [76.0709, 25.4074], [76.0708, 25.4073], [76.0707, 25.4073], [76.0706, 25.4073], [76.0706, 25.4072], [76.0704, 25.4071], [76.0701, 25.407], [76.0698, 25.4067], [76.0695, 25.4067], [76.0693, 25.4067], [76.0692, 25.4068], [76.069, 25.4069], [76.069, 25.407], [76.0689, 25.4071], [76.0688, 25.4072], [76.0687, 25.4072], [76.0685, 25.4072], [76.0682, 25.4071], [76.0678, 25.4071], [76.0677, 25.4072], [76.0675, 25.4072], [76.0673, 25.4073], [76.0671, 25.4071], [76.0669, 25.4068], [76.0666, 25.4066], [76.0661, 25.4062], [76.066, 25.4062], [76.0659, 25.4061], [76.0656, 25.406], [76.0653, 25.4058], [76.0652, 25.4058], [76.0651, 25.4057], [76.0648, 25.4055], [76.0646, 25.4054], [76.0645, 25.4053], [76.0644, 25.4053], [76.0644, 25.4052], [76.0642, 25.4051], [76.064, 25.4051], [76.0639, 25.4051], [76.0637, 25.4053], [76.0635, 25.4053], [76.0634, 25.4054], [76.0629, 25.4055], [76.0627, 25.4055], [76.0625, 25.4055], [76.0621, 25.4054], [76.0619, 25.4054], [76.0617, 25.4055], [76.0615, 25.4055], [76.0613, 25.4056], [76.0611, 25.4056], [76.061, 25.4057], [76.0608, 25.4058], [76.0605, 25.4061], [76.0604, 25.4062], [76.0603, 25.4063], [76.0602, 25.4063], [76.0601, 25.4063], [76.0598, 25.4063], [76.0596, 25.4063], [76.0594, 25.4064], [76.0592, 25.4064], [76.059, 25.4064], [76.0589, 25.4064], [76.0587, 25.4065], [76.0584, 25.4066], [76.0583, 25.4066], [76.0582, 25.4066], [76.0581, 25.4066], [76.0578, 25.4065], [76.0577, 25.4065], [76.0576, 25.4065], [76.0576, 25.4066], [76.0575, 25.4066], [76.0574, 25.4066], [76.0573, 25.4066], [76.0571, 25.4065], [76.0569, 25.4063], [76.0567, 25.4062], [76.0565, 25.4061], [76.0562, 25.4059], [76.0557, 25.4056], [76.0554, 25.4055], [76.0551, 25.4054], [76.0549, 25.4052], [76.0544, 25.405], [76.0541, 25.405], [76.0536, 25.4047], [76.053, 25.4044], [76.0527, 25.4043], [76.0522, 25.4042], [76.0512, 25.4041], [76.0503, 25.4081], [76.0509, 25.4085], [76.0517, 25.409], [76.0551, 25.4102], [76.0598, 25.4117], [76.0597, 25.4119], [76.0587, 25.4125], [76.0571, 25.4139], [76.0554, 25.4153], [76.055, 25.4158], [76.0532, 25.4168], [76.053, 25.4169], [76.0528, 25.417], [76.0526, 25.4172], [76.0525, 25.4173], [76.0522, 25.4175], [76.0518, 25.4178], [76.0517, 25.4178], [76.0515, 25.4182], [76.0514, 25.4183], [76.0581, 25.4235], [76.0622, 25.4269], [76.0624, 25.4271], [76.0625, 25.4268], [76.0625, 25.4267], [76.0625, 25.4266], [76.0625, 25.4265], [76.0626, 25.4264], [76.0626, 25.4263], [76.0627, 25.426], [76.0627, 25.4259], [76.0627, 25.4258], [76.0628, 25.4258], [76.0628, 25.4257], [76.0629, 25.4257], [76.063, 25.4256], [76.063, 25.4255], [76.0631, 25.4255], [76.0633, 25.4254], [76.0634, 25.4254], [76.0635, 25.4253], [76.0636, 25.4253], [76.0636, 25.4252], [76.0637, 25.4252], [76.0638, 25.4251], [76.0639, 25.4251], [76.064, 25.4251], [76.0641, 25.4251], [76.0642, 25.4251], [76.0642, 25.425], [76.0643, 25.425], [76.0643, 25.4249], [76.0644, 25.4249], [76.0645, 25.4248], [76.0647, 25.4245], [76.0648, 25.4244], [76.0648, 25.4243], [76.0649, 25.4243], [76.0649, 25.4242], [76.065, 25.4242], [76.065, 25.4241], [76.0651, 25.424], [76.0652, 25.4239], [76.0652, 25.4238], [76.0653, 25.4237], [76.0654, 25.4237], [76.0654, 25.4236], [76.0655, 25.4236], [76.0655, 25.4235], [76.0656, 25.4235], [76.0656, 25.4234], [76.0657, 25.4233], [76.0657, 25.4232], [76.0659, 25.4231], [76.0659, 25.423], [76.0662, 25.4227], [76.0663, 25.4226], [76.0663, 25.4225], [76.0664, 25.4224], [76.0664, 25.4223], [76.0665, 25.4223], [76.0665, 25.4222], [76.0665, 25.4221], [76.0666, 25.422], [76.0666, 25.4219], [76.0666, 25.4218], [76.0666, 25.4217], [76.0667, 25.4215], [76.0667, 25.4214], [76.0667, 25.4213], [76.0667, 25.4211], [76.0667, 25.421], [76.0668, 25.4209], [76.067, 25.4203], [76.067, 25.4202], [76.0674, 25.4194], [76.0674, 25.4192], [76.0676, 25.419], [76.0676, 25.4189], [76.0676, 25.4188], [76.0677, 25.4186], [76.0678, 25.4185], [76.0678, 25.4184], [76.0679, 25.4182], [76.068, 25.418], [76.068, 25.4179], [76.0681, 25.4175], [76.0681, 25.4174], [76.0681, 25.4173], [76.0682, 25.4172], [76.0682, 25.4171], [76.0682, 25.417], [76.0682, 25.4169], [76.0682, 25.4167], [76.0682, 25.4166], [76.0682, 25.4165], [76.0682, 25.4164], [76.0682, 25.4163], [76.0683, 25.4161], [76.0683, 25.416], [76.0684, 25.4159], [76.0685, 25.4157], [76.0685, 25.4156], [76.0686, 25.4156], [76.0686, 25.4155], [76.0687, 25.4152], [76.0688, 25.4151], [76.0689, 25.4148], [76.0689, 25.4147], [76.0691, 25.4144], [76.0692, 25.4143], [76.0693, 25.4143], [76.0693, 25.4141], [76.0695, 25.414], [76.0695, 25.4139], [76.0696, 25.4139], [76.0697, 25.4138], [76.0698, 25.4137], [76.0699, 25.4137], [76.07, 25.4135], [76.0703, 25.4132], [76.0703, 25.4131], [76.0704, 25.413], [76.0705, 25.4129]]]}, "properties": {"objectid": 165347, "statename": "Rajasthan", "statecode": "8", "districtname": "", "districtcode": "121", "ulbname": "Kapren", "ulbcode": "800586", "wardname": "Ward 1", "wardcode": "1", "id": null, "status": "APPROVED", "misglobalid": null, "approved_by": null, "createdate": 1645698158000, "updateddate": 1685429759000, "globalid": null, "gisglobalid": "aQooomPd-PndQ-PnBl-QmQQ-dnPll4clPmK5", "remark": "", "st_area(shape)": 0.0002661460264373833, "st_perimeter(shape)": 0.08739832761792707}}, {"type": "Feature", "geometry": {"type": "Polygon", "coordinates": [[[76.0512, 25.4041], [76.0511, 25.4041], [76.0507, 25.4041], [76.0504, 25.4041], [76.05, 25.4042], [76.0497, 25.4041], [76.0492, 25.404], [76.0486, 25.4039], [76.0478, 25.4038], [76.0474, 25.4037], [76.0472, 25.4036], [76.0471, 25.4036], [76.047, 25.4036], [76.0467, 25.4036], [76.0466, 25.4035], [76.0464, 25.4035], [76.0463, 25.4035], [76.0461, 25.4035], [76.046, 25.4035], [76.0459, 25.4035], [76.0457, 25.4035], [76.0456, 25.4035], [76.0453, 25.4035], [76.0451, 25.4035], [76.0449, 25.4035], [76.0448, 25.4035], [76.0446, 25.4035], [76.0444, 25.4035], [76.0443, 25.4035], [76.0441, 25.4035], [76.044, 25.4035], [76.0439, 25.4035], [76.0438, 25.4034], [76.0437, 25.4034], [76.0437, 25.4033], [76.0436, 25.4033], [76.0436, 25.4032], [76.0429, 25.4027], [76.0428, 25.4027], [76.0426, 25.4026], [76.042, 25.4022], [76.0418, 25.402], [76.0412, 25.4016], [76.041, 25.4015], [76.0406, 25.4013], [76.0404, 25.4012], [76.0399, 25.4009], [76.0396, 25.4008], [76.0395, 25.4007], [76.039, 25.4005], [76.0382, 25.4003], [76.0382, 25.4004], [76.0382, 25.4005], [76.0382, 25.4006], [76.0382, 25.4007], [76.0383, 25.401], [76.0384, 25.4013], [76.0384, 25.4014], [76.0384, 25.4015], [76.0384, 25.4016], [76.0384, 25.4017], [76.0384, 25.4018], [76.0383, 25.4019], [76.0383, 25.402], [76.0383, 25.4021], [76.0383, 25.4022], [76.0382, 25.4023], [76.0382, 25.4024], [76.0382, 25.4025], [76.0382, 25.4026], [76.0382, 25.4027], [76.0383, 25.4028], [76.0383, 25.4029], [76.0383, 25.403], [76.0383, 25.4031], [76.0384, 25.4031], [76.0384, 25.4032], [76.0383, 25.4033], [76.0383, 25.4034], [76.0383, 25.4035], [76.0383, 25.4036], [76.0383, 25.4037], [76.0383, 25.4038], [76.0383, 25.4039], [76.0383, 25.404], [76.0382, 25.404], [76.0382, 25.4041], [76.0381, 25.4042], [76.0381, 25.4043], [76.0381, 25.4044], [76.0381, 25.4045], [76.038, 25.4046], [76.038, 25.4047], [76.0379, 25.4048], [76.0378, 25.4049], [76.0378, 25.405], [76.0378, 25.4051], [76.0377, 25.4051], [76.0376, 25.4052], [76.0375, 25.4053], [76.0375, 25.4054], [76.0374, 25.4054], [76.0374, 25.4055], [76.0373, 25.4056], [76.0373, 25.4057], [76.0372, 25.406], [76.0372, 25.4061], [76.0371, 25.4061], [76.0371, 25.4062], [76.037, 25.4063], [76.037, 25.4064], [76.037, 25.4065], [76.037, 25.4067], [76.037, 25.4068], [76.037, 25.4069], [76.037, 25.4071], [76.037, 25.4073], [76.037, 25.4074], [76.037, 25.4075], [76.037, 25.4076], [76.037, 25.4077], [76.0369, 25.4077], [76.0369, 25.4078], [76.0369, 25.4079], [76.0393, 25.4089], [76.0404, 25.4098], [76.0457, 25.4139], [76.0459, 25.414], [76.0478, 25.4154], [76.0496, 25.4169], [76.0514, 25.4183], [76.0515, 25.4182], [76.0517, 25.4178], [76.0518, 25.4178], [76.0522, 25.4175], [76.0525, 25.4173], [76.0526, 25.4172], [76.0528, 25.417], [76.053, 25.4169], [76.0532, 25.4168], [76.055, 25.4158], [76.0554, 25.4153], [76.0571, 25.4139], [76.0587, 25.4125], [76.0597, 25.4119], [76.0598, 25.4117], [76.0551, 25.4102], [76.0517, 25.409], [76.0509, 25.4085], [76.0503, 25.4081], [76.0512, 25.4041]]]}, "properties": {"objectid": 165348, "statename": "Rajasthan", "statecode": "8", "districtname": "", "districtcode": "121", "ulbname": "Kapren", "ulbcode": "800586", "wardname": "Ward 2", "wardcode": "2", "id": null, "status": "APPROVED", "misglobalid": null, "approved_by": null, "createdate": 1645698218000, "updateddate": 1685429785000, "globalid": null, "gisglobalid": "daQ4lcRo-cB5P-PcKc-sRQc-4Pc46B5nKPmn", "remark": "", "st_area(shape)": 0.00017627917671818555, "st_perimeter(shape)": 0.06519593639719602}}, {"type": "Feature", "geometry": {"type": "Polygon", "coordinates": [[[76.034, 25.4016], [76.0313, 25.3995], [76.0245, 25.3939], [76.0236, 25.3953], [76.0234, 25.3961], [76.0244, 25.3978], [76.0252, 25.4006], [76.0257, 25.4022], [76.0259, 25.4026], [76.0261, 25.4031], [76.0264, 25.4035], [76.0269, 25.4037], [76.0369, 25.4079], [76.0369, 25.4078], [76.0369, 25.4077], [76.037, 25.4077], [76.037, 25.4076], [76.037, 25.4075], [76.037, 25.4074], [76.037, 25.4073], [76.037, 25.4071], [76.037, 25.4069], [76.037, 25.4068], [76.037, 25.4067], [76.037, 25.4065], [76.037, 25.4064], [76.037, 25.4063], [76.0371, 25.4062], [76.0371, 25.4061], [76.0372, 25.4061], [76.0372, 25.406], [76.0373, 25.4057], [76.0373, 25.4056], [76.0374, 25.4055], [76.0374, 25.4054], [76.0375, 25.4054], [76.0375, 25.4053], [76.0376, 25.4052], [76.0377, 25.4051], [76.0378, 25.4051], [76.0378, 25.405], [76.0378, 25.4049], [76.0379, 25.4048], [76.038, 25.4047], [76.038, 25.4046], [76.0381, 25.4045], [76.0381, 25.4044], [76.0381, 25.4043], [76.0381, 25.4042], [76.0382, 25.4041], [76.0382, 25.404], [76.0383, 25.404], [76.0383, 25.4039], [76.0383, 25.4038], [76.0383, 25.4037], [76.0383, 25.4036], [76.0383, 25.4034], [76.0382, 25.4034], [76.0381, 25.4034], [76.0379, 25.4034], [76.0378, 25.4035], [76.0377, 25.4035], [76.0377, 25.4036], [76.0374, 25.4036], [76.0374, 25.4033], [76.0375, 25.4033], [76.0375, 25.4032], [76.0375, 25.4031], [76.0375, 25.403], [76.0376, 25.403], [76.0375, 25.403], [76.0374, 25.403], [76.0373, 25.403], [76.0373, 25.4031], [76.0372, 25.4031], [76.037, 25.4032], [76.0369, 25.4032], [76.0368, 25.4033], [76.0367, 25.4033], [76.0366, 25.4033], [76.0366, 25.4032], [76.0365, 25.4031], [76.0364, 25.403], [76.0364, 25.4029], [76.0363, 25.4028], [76.0362, 25.4025], [76.0362, 25.4023], [76.0361, 25.4023], [76.0351, 25.4021], [76.0345, 25.4019], [76.0341, 25.4016], [76.034, 25.4016]]]}, "properties": {"objectid": 172875, "statename": "Rajasthan", "statecode": "8", "districtname": "", "districtcode": "121", "ulbname": "Kapren", "ulbcode": "800586", "wardname": "Ward 3", "wardcode": "3", "id": null, "status": "APPROVED", "misglobalid": null, "approved_by": null, "createdate": 1645700946000, "updateddate": 1685437898000, "globalid": null, "gisglobalid": "ndm66RlP-maBm-Psol-QR4Q-cBQB5RdmBmsB", "remark": "", "st_area(shape)": 8.205395344829221e-05, "st_perimeter(shape)": 0.04516627642463542}}, {"type": "Feature", "geometry": {"type": "Polygon", "coordinates": [[[76.0383, 25.4034], [76.0383, 25.4033], [76.0384, 25.4032], [76.0384, 25.4031], [76.0383, 25.4031], [76.0383, 25.403], [76.0383, 25.4029], [76.0383, 25.4028], [76.0382, 25.4027], [76.0382, 25.4026], [76.0382, 25.4025], [76.0382, 25.4024], [76.0382, 25.4023], [76.0383, 25.4022], [76.0383, 25.4021], [76.0383, 25.402], [76.0383, 25.4019], [76.0384, 25.4018], [76.0384, 25.4017], [76.0384, 25.4016], [76.0384, 25.4015], [76.0384, 25.4014], [76.0384, 25.4013], [76.0383, 25.401], [76.0382, 25.4007], [76.0382, 25.4006], [76.0382, 25.4005], [76.0382, 25.4004], [76.0382, 25.4003], [76.0346, 25.3989], [76.0332, 25.3981], [76.0326, 25.3976], [76.0311, 25.3945], [76.031, 25.3945], [76.0305, 25.3947], [76.0303, 25.3946], [76.0302, 25.3945], [76.0302, 25.3944], [76.03, 25.3944], [76.0292, 25.3945], [76.0273, 25.3948], [76.0258, 25.3949], [76.0313, 25.3995], [76.0339, 25.4015], [76.034, 25.4016], [76.0341, 25.4016], [76.0345, 25.4019], [76.0351, 25.4021], [76.0361, 25.4023], [76.0362, 25.4023], [76.0362, 25.4024], [76.0362, 25.4025], [76.0363, 25.4028], [76.0364, 25.4029], [76.0364, 25.403], [76.0365, 25.4031], [76.0366, 25.4032], [76.0366, 25.4033], [76.0367, 25.4033], [76.0368, 25.4033], [76.0369, 25.4032], [76.037, 25.4032], [76.0372, 25.4031], [76.0373, 25.4031], [76.0373, 25.403], [76.0374, 25.403], [76.0375, 25.403], [76.0376, 25.403], [76.0375, 25.403], [76.0375, 25.4031], [76.0375, 25.4032], [76.0375, 25.4033], [76.0374, 25.4033], [76.0374, 25.4036], [76.0377, 25.4036], [76.0377, 25.4035], [76.0378, 25.4035], [76.0379, 25.4034], [76.0381, 25.4034], [76.0382, 25.4034], [76.0383, 25.4034]]]}, "properties": {"objectid": 165353, "statename": "Rajasthan", "statecode": "8", "districtname": "", "districtcode": "121", "ulbname": "Kapren", "ulbcode": "800586", "wardname": "Ward 4", "wardcode": "4", "id": null, "status": "APPROVED", "misglobalid": null, "approved_by": null, "createdate": 1645699926000, "updateddate": 1685437913000, "globalid": null, "gisglobalid": "ndBs655Q-lsRl-PBon-s5sd-ls5BaclRco4d", "remark": "", "st_area(shape)": 3.613160863228157e-05, "st_perimeter(shape)": 0.035247239197227484}}, {"type": "Feature", "geometry": {"type": "Polygon", "coordinates": [[[76.0681, 25.4013], [76.0674, 25.4009], [76.0667, 25.4], [76.0663, 25.3994], [76.0662, 25.3991], [76.0663, 25.3989], [76.0679, 25.3983], [76.0663, 25.3966], [76.0659, 25.3964], [76.0654, 25.3963], [76.065, 25.3962], [76.0648, 25.396], [76.0635, 25.3918], [76.0618, 25.3865], [76.0606, 25.3829], [76.06, 25.3831], [76.0596, 25.3832], [76.0593, 25.3833], [76.0592, 25.3833], [76.0591, 25.3834], [76.0583, 25.3836], [76.0576, 25.3837], [76.0567, 25.3839], [76.0562, 25.3839], [76.0559, 25.3839], [76.0542, 25.3842], [76.0535, 25.3844], [76.0527, 25.3848], [76.0516, 25.3851], [76.0504, 25.3854], [76.0497, 25.3855], [76.0482, 25.3854], [76.0466, 25.3853], [76.0465, 25.3853], [76.0456, 25.3851], [76.0435, 25.3854], [76.043, 25.3851], [76.0427, 25.3848], [76.0426, 25.3847], [76.0425, 25.3845], [76.0423, 25.3844], [76.042, 25.3844], [76.0416, 25.3845], [76.0415, 25.3845], [76.0414, 25.3846], [76.0413, 25.3847], [76.0411, 25.3849], [76.0405, 25.3851], [76.0402, 25.3852], [76.04, 25.3853], [76.0399, 25.3853], [76.0396, 25.3854], [76.0393, 25.3852], [76.039, 25.3851], [76.0389, 25.385], [76.0388, 25.385], [76.0387, 25.3849], [76.0384, 25.385], [76.0381, 25.3851], [76.038, 25.3851], [76.0378, 25.3854], [76.0376, 25.386], [76.0373, 25.3863], [76.0365, 25.3864], [76.0364, 25.3864], [76.0361, 25.3865], [76.0361, 25.3867], [76.0361, 25.3874], [76.0363, 25.3884], [76.0363, 25.3885], [76.0363, 25.3886], [76.0365, 25.389], [76.0364, 25.3892], [76.0364, 25.3893], [76.0363, 25.3894], [76.0362, 25.3894], [76.0361, 25.3895], [76.0359, 25.3896], [76.0343, 25.3898], [76.0341, 25.3898], [76.034, 25.3898], [76.033, 25.39], [76.0295, 25.3906], [76.0294, 25.3906], [76.0293, 25.3905], [76.0311, 25.3945], [76.0326, 25.3976], [76.0332, 25.3981], [76.0346, 25.3989], [76.0382, 25.4003], [76.039, 25.4005], [76.0395, 25.4007], [76.0396, 25.4008], [76.0399, 25.4009], [76.0404, 25.4012], [76.0406, 25.4013], [76.041, 25.4015], [76.0412, 25.4016], [76.0418, 25.402], [76.042, 25.4022], [76.0426, 25.4026], [76.0428, 25.4027], [76.0429, 25.4027], [76.0436, 25.4032], [76.0436, 25.4033], [76.0437, 25.4033], [76.0437, 25.4034], [76.0438, 25.4034], [76.0439, 25.4035], [76.044, 25.4035], [76.0441, 25.4035], [76.0443, 25.4035], [76.0444, 25.4035], [76.0446, 25.4035], [76.0448, 25.4035], [76.0449, 25.4035], [76.0451, 25.4035], [76.0453, 25.4035], [76.0456, 25.4035], [76.0457, 25.4035], [76.0459, 25.4035], [76.046, 25.4035], [76.0461, 25.4035], [76.0463, 25.4035], [76.0464, 25.4035], [76.0466, 25.4035], [76.0467, 25.4036], [76.047, 25.4036], [76.0471, 25.4036], [76.0472, 25.4036], [76.0477, 25.4036], [76.0478, 25.4036], [76.0483, 25.4036], [76.0488, 25.4037], [76.0489, 25.4037], [76.049, 25.4037], [76.0494, 25.4037], [76.0496, 25.4037], [76.05, 25.4037], [76.0503, 25.4037], [76.0505, 25.4037], [76.0507, 25.4037], [76.0513, 25.4038], [76.0516, 25.4038], [76.0521, 25.4038], [76.0524, 25.4038], [76.0527, 25.4038], [76.0528, 25.4038], [76.0538, 25.4039], [76.0542, 25.4039], [76.0543, 25.4039], [76.0546, 25.4039], [76.0549, 25.4039], [76.0551, 25.4039], [76.0552, 25.4039], [76.0552, 25.404], [76.0554, 25.404], [76.0555, 25.404], [76.0554, 25.404], [76.0554, 25.4039], [76.0555, 25.4039], [76.0557, 25.4039], [76.0558, 25.4039], [76.0564, 25.4039], [76.0565, 25.4039], [76.0566, 25.4039], [76.0568, 25.4039], [76.0572, 25.4039], [76.0574, 25.4039], [76.0576, 25.4039], [76.0579, 25.4039], [76.058, 25.4039], [76.0581, 25.4039], [76.0587, 25.4039], [76.0589, 25.4039], [76.059, 25.4039], [76.0591, 25.4039], [76.0592, 25.4039], [76.0593, 25.4039], [76.0594, 25.4039], [76.0596, 25.4039], [76.06, 25.4039], [76.0603, 25.4039], [76.0609, 25.4039], [76.061, 25.4039], [76.0612, 25.4039], [76.0614, 25.4039], [76.0614, 25.4038], [76.0616, 25.4038], [76.0618, 25.4038], [76.062, 25.4038], [76.0621, 25.4038], [76.0625, 25.4038], [76.0626, 25.4038], [76.063, 25.4038], [76.0631, 25.4038], [76.0633, 25.4039], [76.0635, 25.4039], [76.0638, 25.4039], [76.0642, 25.4039], [76.0643, 25.4039], [76.0644, 25.4039], [76.0645, 25.4039], [76.0646, 25.4039], [76.0648, 25.404], [76.0649, 25.404], [76.0652, 25.404], [76.0653, 25.404], [76.0654, 25.404], [76.0655, 25.404], [76.0656, 25.404], [76.0657, 25.404], [76.0659, 25.4041], [76.066, 25.4041], [76.0661, 25.4041], [76.0662, 25.4041], [76.0663, 25.4041], [76.0664, 25.4042], [76.0665, 25.4042], [76.0666, 25.4042], [76.0667, 25.4042], [76.0668, 25.4043], [76.067, 25.4043], [76.0671, 25.4044], [76.0672, 25.4044], [76.0673, 25.4044], [76.0674, 25.4044], [76.0675, 25.4045], [76.0678, 25.4045], [76.0684, 25.4047], [76.0685, 25.4047], [76.0687, 25.4048], [76.0689, 25.4048], [76.069, 25.4048], [76.0691, 25.4049], [76.0692, 25.4049], [76.0694, 25.405], [76.0695, 25.405], [76.0696, 25.405], [76.0697, 25.405], [76.0698, 25.405], [76.0698, 25.4051], [76.0699, 25.4051], [76.0698, 25.4043], [76.0697, 25.404], [76.0696, 25.4034], [76.0696, 25.4032], [76.0683, 25.4016], [76.0681, 25.4013]]]}, "properties": {"objectid": 165369, "statename": "Rajasthan", "statecode": "8", "districtname": "", "districtcode": "121", "ulbname": "Kapren", "ulbcode": "800586", "wardname": "Ward 5", "wardcode": "5", "id": null, "status": "APPROVED", "misglobalid": null, "approved_by": null, "createdate": 1645701209000, "updateddate": 1685437932000, "globalid": null, "gisglobalid": "BQmBaanB-saQP-PndK-s6n6-aoKa6Km6anK6", "remark": "", "st_area(shape)": 0.0005729427448785559, "st_perimeter(shape)": 0.11057872394655802}}, {"type": "Feature", "geometry": {"type": "Polygon", "coordinates": [[[76.0721, 25.4063], [76.0722, 25.4062], [76.0723, 25.4062], [76.0723, 25.4061], [76.0724, 25.406], [76.0724, 25.4059], [76.0723, 25.4057], [76.0723, 25.4055], [76.0724, 25.4055], [76.0725, 25.4056], [76.0725, 25.4057], [76.0726, 25.4057], [76.0727, 25.4056], [76.0727, 25.4054], [76.0728, 25.4053], [76.0729, 25.4053], [76.073, 25.4053], [76.073, 25.4054], [76.0732, 25.4053], [76.0731, 25.4053], [76.0731, 25.4052], [76.0731, 25.4051], [76.0731, 25.405], [76.073, 25.4048], [76.073, 25.4047], [76.0729, 25.4046], [76.0728, 25.4045], [76.0728, 25.4043], [76.0727, 25.4043], [76.0726, 25.4044], [76.0726, 25.4045], [76.0725, 25.4045], [76.0725, 25.4046], [76.0725, 25.4047], [76.0724, 25.4048], [76.0724, 25.4049], [76.0723, 25.405], [76.0722, 25.405], [76.072, 25.405], [76.0719, 25.405], [76.0718, 25.405], [76.0717, 25.405], [76.0716, 25.405], [76.0715, 25.405], [76.0714, 25.405], [76.0714, 25.4051], [76.0713, 25.4051], [76.0712, 25.4051], [76.0711, 25.4051], [76.071, 25.4051], [76.0709, 25.4052], [76.0707, 25.4052], [76.0706, 25.4052], [76.0704, 25.4052], [76.0703, 25.4052], [76.0703, 25.4053], [76.0702, 25.4052], [76.0701, 25.4052], [76.0701, 25.4051], [76.07, 25.4051], [76.0699, 25.4051], [76.0698, 25.4051], [76.0697, 25.405], [76.0696, 25.405], [76.0695, 25.405], [76.0694, 25.405], [76.0692, 25.4049], [76.0691, 25.4049], [76.069, 25.4048], [76.0689, 25.4048], [76.0687, 25.4048], [76.0685, 25.4047], [76.0684, 25.4047], [76.0678, 25.4045], [76.0675, 25.4045], [76.0674, 25.4044], [76.0673, 25.4044], [76.0672, 25.4044], [76.0671, 25.4044], [76.067, 25.4043], [76.0669, 25.4043], [76.0668, 25.4043], [76.0667, 25.4042], [76.0666, 25.4042], [76.0665, 25.4042], [76.0664, 25.4042], [76.0663, 25.4041], [76.0662, 25.4041], [76.0661, 25.4041], [76.066, 25.4041], [76.0659, 25.4041], [76.0657, 25.404], [76.0656, 25.404], [76.0655, 25.404], [76.0654, 25.404], [76.0653, 25.404], [76.0652, 25.404], [76.0649, 25.404], [76.0648, 25.404], [76.0646, 25.4039], [76.0645, 25.4039], [76.0644, 25.4039], [76.0643, 25.4039], [76.0642, 25.4039], [76.0638, 25.4039], [76.0635, 25.4039], [76.0633, 25.4039], [76.0631, 25.4038], [76.063, 25.4038], [76.0625, 25.4038], [76.0621, 25.4038], [76.062, 25.4038], [76.0618, 25.4038], [76.0616, 25.4038], [76.0614, 25.4038], [76.0614, 25.4039], [76.0612, 25.4039], [76.061, 25.4039], [76.0609, 25.4039], [76.0603, 25.4039], [76.06, 25.4039], [76.0596, 25.4039], [76.0594, 25.4039], [76.0593, 25.4039], [76.0592, 25.4039], [76.0591, 25.4039], [76.059, 25.4039], [76.0587, 25.4039], [76.0581, 25.4039], [76.058, 25.4039], [76.0579, 25.4039], [76.0576, 25.4039], [76.0574, 25.4039], [76.0572, 25.4039], [76.0568, 25.4039], [76.0566, 25.4039], [76.0565, 25.4039], [76.0564, 25.4039], [76.0558, 25.4039], [76.0557, 25.4039], [76.0555, 25.4039], [76.0555, 25.404], [76.0554, 25.404], [76.0552, 25.404], [76.0552, 25.4039], [76.0551, 25.4039], [76.0549, 25.4039], [76.0546, 25.4039], [76.0543, 25.4039], [76.0542, 25.4039], [76.0538, 25.4039], [76.0528, 25.4038], [76.0527, 25.4038], [76.0524, 25.4038], [76.0521, 25.4038], [76.0516, 25.4038], [76.0513, 25.4038], [76.0507, 25.4037], [76.0505, 25.4037], [76.0503, 25.4037], [76.05, 25.4037], [76.0496, 25.4037], [76.0494, 25.4037], [76.049, 25.4037], [76.0489, 25.4037], [76.0488, 25.4037], [76.0483, 25.4036], [76.0478, 25.4036], [76.0477, 25.4036], [76.0472, 25.4036], [76.0474, 25.4037], [76.0478, 25.4038], [76.0486, 25.4039], [76.0492, 25.404], [76.0497, 25.4041], [76.05, 25.4042], [76.0504, 25.4041], [76.0507, 25.4041], [76.0511, 25.4041], [76.0512, 25.4041], [76.0522, 25.4042], [76.0527, 25.4043], [76.053, 25.4044], [76.0536, 25.4047], [76.0541, 25.405], [76.0544, 25.405], [76.0549, 25.4052], [76.0551, 25.4054], [76.0554, 25.4055], [76.0557, 25.4056], [76.0562, 25.4059], [76.0565, 25.4061], [76.0567, 25.4062], [76.0569, 25.4063], [76.0571, 25.4065], [76.0573, 25.4066], [76.0574, 25.4066], [76.0575, 25.4066], [76.0576, 25.4066], [76.0576, 25.4065], [76.0577, 25.4065], [76.0578, 25.4065], [76.0581, 25.4066], [76.0582, 25.4066], [76.0583, 25.4066], [76.0584, 25.4066], [76.0587, 25.4065], [76.0589, 25.4064], [76.059, 25.4064], [76.0592, 25.4064], [76.0594, 25.4064], [76.0596, 25.4063], [76.0598, 25.4063], [76.0601, 25.4063], [76.0602, 25.4063], [76.0603, 25.4063], [76.0604, 25.4062], [76.0605, 25.4061], [76.0608, 25.4058], [76.061, 25.4057], [76.0611, 25.4056], [76.0613, 25.4056], [76.0615, 25.4055], [76.0617, 25.4055], [76.0619, 25.4054], [76.0621, 25.4054], [76.0625, 25.4055], [76.0627, 25.4055], [76.0629, 25.4055], [76.0634, 25.4054], [76.0635, 25.4053], [76.0637, 25.4053], [76.0639, 25.4051], [76.064, 25.4051], [76.0642, 25.4051], [76.0644, 25.4052], [76.0644, 25.4053], [76.0645, 25.4053], [76.0646, 25.4054], [76.0648, 25.4055], [76.0651, 25.4057], [76.0652, 25.4058], [76.0653, 25.4058], [76.0656, 25.406], [76.0659, 25.4061], [76.066, 25.4062], [76.0661, 25.4062], [76.0666, 25.4066], [76.0669, 25.4068], [76.0671, 25.4071], [76.0673, 25.4073], [76.0675, 25.4072], [76.0677, 25.4072], [76.0678, 25.4071], [76.0682, 25.4071], [76.0685, 25.4072], [76.0687, 25.4072], [76.0688, 25.4072], [76.0689, 25.4071], [76.069, 25.407], [76.069, 25.4069], [76.0692, 25.4068], [76.0693, 25.4067], [76.0695, 25.4067], [76.0698, 25.4067], [76.0701, 25.407], [76.0704, 25.4071], [76.0706, 25.4072], [76.0706, 25.4073], [76.0707, 25.4073], [76.0707, 25.4072], [76.071, 25.407], [76.0711, 25.4069], [76.0712, 25.4069], [76.0713, 25.4069], [76.0713, 25.4068], [76.0716, 25.4067], [76.0717, 25.4066], [76.0719, 25.4064], [76.072, 25.4064], [76.0721, 25.4063]]]}, "properties": {"objectid": 172859, "statename": "Rajasthan", "statecode": "8", "districtname": "", "districtcode": "121", "ulbname": "Kapren", "ulbcode": "800586", "wardname": "Ward 6", "wardcode": "6", "id": null, "status": "APPROVED", "misglobalid": null, "approved_by": null, "createdate": 1645699971000, "updateddate": 1685437945000, "globalid": null, "gisglobalid": "dQKcs5c4-a5n4-P5cQ-sPPs-nsPKRKBQRlRd", "remark": "", "st_area(shape)": 3.950705902359345e-05, "st_perimeter(shape)": 0.05726039748171177}}, {"type": "Feature", "geometry": {"type": "Polygon", "coordinates": [[[76.0703, 25.4053], [76.0703, 25.4052], [76.0704, 25.4052], [76.0706, 25.4052], [76.0707, 25.4052], [76.0709, 25.4052], [76.071, 25.4051], [76.0711, 25.4051], [76.0712, 25.4051], [76.0713, 25.4051], [76.0714, 25.4051], [76.0714, 25.405], [76.0715, 25.405], [76.0716, 25.405], [76.0717, 25.405], [76.0718, 25.405], [76.0719, 25.405], [76.072, 25.405], [76.0722, 25.405], [76.0723, 25.405], [76.0724, 25.4049], [76.0724, 25.4048], [76.0725, 25.4047], [76.0725, 25.4046], [76.0725, 25.4045], [76.0726, 25.4045], [76.0726, 25.4044], [76.0727, 25.4043], [76.0727, 25.4042], [76.0727, 25.4041], [76.0726, 25.4039], [76.0727, 25.4034], [76.0726, 25.4033], [76.0724, 25.4033], [76.0724, 25.4032], [76.072, 25.4033], [76.0716, 25.4035], [76.0714, 25.4037], [76.0712, 25.4041], [76.071, 25.404], [76.071, 25.4037], [76.0708, 25.4037], [76.0705, 25.4034], [76.0705, 25.403], [76.0702, 25.4026], [76.0699, 25.4022], [76.0681, 25.4013], [76.0683, 25.4016], [76.0696, 25.4032], [76.0696, 25.4034], [76.0697, 25.404], [76.0698, 25.4043], [76.0699, 25.4051], [76.07, 25.4051], [76.0699, 25.4051], [76.07, 25.4051], [76.0701, 25.4051], [76.0701, 25.4052], [76.0702, 25.4052], [76.0703, 25.4053]]]}, "properties": {"objectid": 172470, "statename": "Rajasthan", "statecode": "8", "districtname": "", "districtcode": "121", "ulbname": "Kapren", "ulbcode": "800586", "wardname": "Ward 7", "wardcode": "7", "id": null, "status": "APPROVED", "misglobalid": null, "approved_by": null, "createdate": 1645699998000, "updateddate": 1685437959000, "globalid": null, "gisglobalid": "c5aPoc5l-lo54-PBKm-R46o-4l6mlQRlBn5d", "remark": "", "st_area(shape)": 6.219548834435892e-06, "st_perimeter(shape)": 0.015087858345331393}}, {"type": "Feature", "geometry": {"type": "Polygon", "coordinates": [[[76.0724, 25.4032], [76.0726, 25.4031], [76.0729, 25.4031], [76.073, 25.4031], [76.0731, 25.4031], [76.0733, 25.4031], [76.0735, 25.403], [76.0738, 25.403], [76.0741, 25.4029], [76.0744, 25.4028], [76.0747, 25.4027], [76.0749, 25.4026], [76.075, 25.4026], [76.0751, 25.4026], [76.0752, 25.4025], [76.0753, 25.4025], [76.0754, 25.4025], [76.0755, 25.4025], [76.0755, 25.4024], [76.0756, 25.4024], [76.0757, 25.4028], [76.0758, 25.403], [76.076, 25.403], [76.0764, 25.403], [76.0764, 25.4032], [76.0763, 25.4032], [76.0761, 25.4033], [76.076, 25.4034], [76.0758, 25.4033], [76.0757, 25.4036], [76.0759, 25.4036], [76.076, 25.4037], [76.0761, 25.4037], [76.0763, 25.4037], [76.0765, 25.4037], [76.0765, 25.4033], [76.0765, 25.4031], [76.0765, 25.403], [76.0767, 25.4029], [76.0768, 25.4028], [76.0771, 25.4027], [76.077, 25.4023], [76.0768, 25.402], [76.0765, 25.4015], [76.0762, 25.4011], [76.0758, 25.4013], [76.0757, 25.4012], [76.0754, 25.4008], [76.0748, 25.3997], [76.0741, 25.3985], [76.0737, 25.3969], [76.0724, 25.3925], [76.0712, 25.3882], [76.0702, 25.3848], [76.0702, 25.3847], [76.0639, 25.3798], [76.0597, 25.3801], [76.0606, 25.3829], [76.0618, 25.3865], [76.0635, 25.3918], [76.0648, 25.396], [76.065, 25.3962], [76.0654, 25.3963], [76.0659, 25.3964], [76.0663, 25.3966], [76.0679, 25.3983], [76.0663, 25.3989], [76.0662, 25.3991], [76.0663, 25.3994], [76.0667, 25.4], [76.0674, 25.4009], [76.0681, 25.4013], [76.0699, 25.4022], [76.0702, 25.4026], [76.0705, 25.403], [76.0705, 25.4034], [76.0708, 25.4037], [76.071, 25.4037], [76.071, 25.404], [76.0712, 25.4041], [76.0714, 25.4037], [76.0716, 25.4035], [76.072, 25.4033], [76.0724, 25.4032]]]}, "properties": {"objectid": 172860, "statename": "Rajasthan", "statecode": "8", "districtname": "", "districtcode": "121", "ulbname": "Kapren", "ulbcode": "800586", "wardname": "Ward 8", "wardcode": "8", "id": null, "status": "APPROVED", "misglobalid": null, "approved_by": null, "createdate": 1645700017000, "updateddate": 1685437980000, "globalid": null, "gisglobalid": "nQa65scn-4656-PP64-sa5Q-PQasc55BslRc", "remark": "", "st_area(shape)": 0.000185354699371599, "st_perimeter(shape)": 0.07180384106323437}}, {"type": "Feature", "geometry": {"type": "Polygon", "coordinates": [[[76.0818, 25.4031], [76.0833, 25.4027], [76.0866, 25.4018], [76.087, 25.4016], [76.0871, 25.4015], [76.0872, 25.4014], [76.088, 25.4012], [76.0887, 25.401], [76.0911, 25.3998], [76.0918, 25.3997], [76.0928, 25.3995], [76.093, 25.3995], [76.0937, 25.3994], [76.0948, 25.3992], [76.0965, 25.3985], [76.0963, 25.3982], [76.0962, 25.3977], [76.0961, 25.3975], [76.0958, 25.3972], [76.0954, 25.3967], [76.095, 25.3963], [76.0947, 25.395], [76.0946, 25.3944], [76.0945, 25.3936], [76.0943, 25.3933], [76.0941, 25.393], [76.0941, 25.3928], [76.0941, 25.3925], [76.0942, 25.3923], [76.0945, 25.3913], [76.0948, 25.3909], [76.095, 25.3907], [76.0951, 25.3903], [76.0947, 25.3898], [76.0943, 25.3891], [76.094, 25.3885], [76.0937, 25.388], [76.0934, 25.3875], [76.0934, 25.3874], [76.0933, 25.387], [76.0929, 25.3861], [76.0926, 25.386], [76.0922, 25.3859], [76.0917, 25.3854], [76.0915, 25.3849], [76.0912, 25.3841], [76.0907, 25.3837], [76.0896, 25.3834], [76.0885, 25.3825], [76.0876, 25.3818], [76.0871, 25.3812], [76.0864, 25.3806], [76.086, 25.3804], [76.0858, 25.3803], [76.0855, 25.3799], [76.0849, 25.3796], [76.084, 25.3795], [76.0835, 25.3796], [76.0818, 25.3801], [76.0806, 25.3803], [76.0798, 25.3802], [76.0797, 25.3802], [76.0793, 25.3801], [76.0791, 25.3798], [76.0791, 25.3777], [76.0791, 25.3776], [76.0792, 25.3769], [76.0793, 25.3758], [76.0794, 25.3756], [76.0795, 25.3745], [76.0796, 25.3738], [76.0798, 25.3729], [76.0798, 25.3726], [76.0799, 25.3724], [76.0801, 25.3716], [76.0801, 25.3715], [76.0803, 25.3711], [76.0807, 25.3698], [76.0808, 25.3698], [76.0809, 25.3694], [76.081, 25.3694], [76.081, 25.3693], [76.0817, 25.3688], [76.0819, 25.3685], [76.0823, 25.3674], [76.0824, 25.3671], [76.0825, 25.367], [76.0827, 25.3656], [76.0828, 25.3653], [76.0829, 25.3645], [76.0829, 25.364], [76.0829, 25.3639], [76.0829, 25.3636], [76.083, 25.3632], [76.083, 25.3628], [76.0828, 25.3619], [76.0828, 25.3618], [76.0821, 25.3602], [76.082, 25.3594], [76.0821, 25.3584], [76.0822, 25.3576], [76.0823, 25.3565], [76.0826, 25.3551], [76.0826, 25.3536], [76.0825, 25.3533], [76.079, 25.3541], [76.0764, 25.3542], [76.0738, 25.3543], [76.073, 25.3543], [76.0719, 25.3541], [76.0715, 25.354], [76.0694, 25.3532], [76.068, 25.3528], [76.0677, 25.3529], [76.0672, 25.357], [76.0671, 25.3572], [76.0672, 25.3592], [76.0672, 25.3607], [76.0672, 25.3617], [76.0673, 25.3621], [76.0673, 25.3622], [76.0671, 25.3626], [76.0664, 25.3633], [76.0662, 25.3634], [76.0659, 25.3636], [76.0656, 25.3637], [76.065, 25.364], [76.0648, 25.3643], [76.0648, 25.3644], [76.0648, 25.3645], [76.0645, 25.3658], [76.0644, 25.366], [76.0636, 25.3677], [76.0631, 25.3688], [76.063, 25.369], [76.0624, 25.3708], [76.0623, 25.3709], [76.062, 25.3717], [76.0621, 25.3722], [76.0622, 25.3725], [76.0622, 25.3729], [76.0622, 25.373], [76.0622, 25.3732], [76.0622, 25.3734], [76.0619, 25.3734], [76.06, 25.3742], [76.0596, 25.3742], [76.0592, 25.3759], [76.0597, 25.3763], [76.0597, 25.3773], [76.0594, 25.3784], [76.0594, 25.3793], [76.0594, 25.3801], [76.0597, 25.3801], [76.0639, 25.3798], [76.0702, 25.3847], [76.0702, 25.3848], [76.0712, 25.3882], [76.0724, 25.3925], [76.0737, 25.3969], [76.0741, 25.3985], [76.0748, 25.3997], [76.0754, 25.4008], [76.0757, 25.4012], [76.0758, 25.4013], [76.0762, 25.4011], [76.0765, 25.4015], [76.0768, 25.402], [76.077, 25.4023], [76.0771, 25.4027], [76.0768, 25.4028], [76.0767, 25.4029], [76.077, 25.4034], [76.0772, 25.4035], [76.0774, 25.4036], [76.0777, 25.4037], [76.0779, 25.4038], [76.0781, 25.4039], [76.0786, 25.4039], [76.0788, 25.404], [76.0791, 25.404], [76.0796, 25.4039], [76.0805, 25.4036], [76.0815, 25.4032], [76.0818, 25.4031]]]}, "properties": {"objectid": 165354, "statename": "Rajasthan", "statecode": "8", "districtname": "", "districtcode": "121", "ulbname": "Kapren", "ulbcode": "800586", "wardname": "Ward 9", "wardcode": "9", "id": null, "status": "APPROVED", "misglobalid": null, "approved_by": null, "createdate": 1645700044000, "updateddate": 1685437995000, "globalid": null, "gisglobalid": "KRQladsn-6cPQ-PmKm-saBd-oQRKPsRnKPcP", "remark": "", "st_area(shape)": 0.0009257864947926335, "st_perimeter(shape)": 0.1585986252808548}}, {"type": "Feature", "geometry": {"type": "Polygon", "coordinates": [[[76.0743, 25.4042], [76.0747, 25.404], [76.0746, 25.4039], [76.0745, 25.4038], [76.0745, 25.4037], [76.0746, 25.4034], [76.0747, 25.4034], [76.0751, 25.4034], [76.0754, 25.4035], [76.0756, 25.4035], [76.0757, 25.4036], [76.0758, 25.4033], [76.076, 25.4034], [76.0761, 25.4033], [76.0763, 25.4032], [76.0764, 25.4032], [76.0764, 25.403], [76.076, 25.403], [76.0758, 25.403], [76.0757, 25.4028], [76.0756, 25.4024], [76.0755, 25.4024], [76.0755, 25.4025], [76.0754, 25.4025], [76.0753, 25.4025], [76.0752, 25.4025], [76.0751, 25.4026], [76.075, 25.4026], [76.0749, 25.4026], [76.0747, 25.4027], [76.0744, 25.4028], [76.0741, 25.4029], [76.0738, 25.403], [76.0735, 25.403], [76.0733, 25.4031], [76.0731, 25.4031], [76.073, 25.4031], [76.0729, 25.4031], [76.0726, 25.4031], [76.0724, 25.4032], [76.0724, 25.4033], [76.0726, 25.4033], [76.0727, 25.4034], [76.0729, 25.4034], [76.073, 25.4034], [76.0731, 25.4034], [76.0733, 25.4035], [76.0737, 25.4038], [76.074, 25.404], [76.0743, 25.4042]]]}, "properties": {"objectid": 165355, "statename": "Rajasthan", "statecode": "8", "districtname": "", "districtcode": "121", "ulbname": "Kapren", "ulbcode": "800586", "wardname": "Ward 10", "wardcode": "10", "id": null, "status": "APPROVED", "misglobalid": null, "approved_by": null, "createdate": 1645700073000, "updateddate": 1685438014000, "globalid": null, "gisglobalid": "K4o454Qo-6nml-PP65-sdQa-PKc6PoPKKsQm", "remark": "", "st_area(shape)": 2.7062222939518184e-06, "st_perimeter(shape)": 0.010337343162694928}}, {"type": "Feature", "geometry": {"type": "Polygon", "coordinates": [[[76.0745, 25.4051], [76.0743, 25.4049], [76.0742, 25.4048], [76.0743, 25.4048], [76.0743, 25.4047], [76.0742, 25.4047], [76.0743, 25.4047], [76.0743, 25.4046], [76.0744, 25.4046], [76.0744, 25.4045], [76.0745, 25.4045], [76.0745, 25.4044], [76.0745, 25.4043], [76.0744, 25.4043], [76.0743, 25.4042], [76.074, 25.404], [76.0737, 25.4038], [76.0733, 25.4035], [76.0731, 25.4034], [76.073, 25.4034], [76.0729, 25.4034], [76.0727, 25.4034], [76.0726, 25.4039], [76.0727, 25.4041], [76.0727, 25.4042], [76.0727, 25.4043], [76.0728, 25.4043], [76.0728, 25.4045], [76.0729, 25.4046], [76.073, 25.4047], [76.073, 25.4048], [76.0731, 25.405], [76.0731, 25.4051], [76.0731, 25.4052], [76.0731, 25.4053], [76.0732, 25.4053], [76.0732, 25.4054], [76.0732, 25.4055], [76.0733, 25.4056], [76.0734, 25.4056], [76.0734, 25.4057], [76.0735, 25.4057], [76.0736, 25.4056], [76.0737, 25.4056], [76.0738, 25.4056], [76.0739, 25.4055], [76.074, 25.4055], [76.0741, 25.4054], [76.0742, 25.4054], [76.0742, 25.4053], [76.0743, 25.4053], [76.0744, 25.4052], [76.0745, 25.4051]]]}, "properties": {"objectid": 172861, "statename": "Rajasthan", "statecode": "8", "districtname": "", "districtcode": "121", "ulbname": "Kapren", "ulbcode": "800586", "wardname": "Ward 11", "wardcode": "11", "id": null, "status": "APPROVED", "misglobalid": null, "approved_by": null, "createdate": 1645700093000, "updateddate": 1685438051000, "globalid": null, "gisglobalid": "sRPsdmmd-lo4o-Pnm6-Qao5-scRaooKmdRQa", "remark": "", "st_area(shape)": 2.644420256604247e-06, "st_perimeter(shape)": 0.006979922227558435}}, {"type": "Feature", "geometry": {"type": "Polygon", "coordinates": [[[76.074, 25.4069], [76.074, 25.4066], [76.074, 25.4065], [76.074, 25.4064], [76.074, 25.4063], [76.0741, 25.4063], [76.0742, 25.4063], [76.0743, 25.4063], [76.0743, 25.4062], [76.0744, 25.4062], [76.0745, 25.4061], [76.0746, 25.4061], [76.0747, 25.4061], [76.0748, 25.406], [76.0748, 25.4059], [76.0748, 25.4058], [76.0748, 25.4057], [76.0748, 25.4056], [76.0747, 25.4056], [76.0747, 25.4055], [76.0748, 25.4055], [76.0747, 25.4054], [76.0747, 25.4053], [76.0746, 25.4053], [76.0746, 25.4052], [76.0745, 25.4051], [76.0744, 25.4052], [76.0743, 25.4053], [76.0742, 25.4053], [76.0742, 25.4054], [76.0741, 25.4054], [76.074, 25.4055], [76.0739, 25.4055], [76.0738, 25.4056], [76.0737, 25.4056], [76.0736, 25.4056], [76.0735, 25.4057], [76.0734, 25.4057], [76.0734, 25.4056], [76.0733, 25.4056], [76.0732, 25.4055], [76.0732, 25.4054], [76.0732, 25.4053], [76.073, 25.4054], [76.073, 25.4053], [76.0729, 25.4053], [76.0728, 25.4053], [76.0727, 25.4054], [76.0727, 25.4056], [76.0726, 25.4057], [76.0725, 25.4057], [76.0725, 25.4056], [76.0724, 25.4055], [76.0723, 25.4055], [76.0723, 25.4057], [76.0724, 25.4059], [76.0724, 25.406], [76.0723, 25.4061], [76.0723, 25.4062], [76.0722, 25.4062], [76.0732, 25.4067], [76.074, 25.4071], [76.074, 25.4069]]]}, "properties": {"objectid": 165356, "statename": "Rajasthan", "statecode": "8", "districtname": "", "districtcode": "121", "ulbname": "Kapren", "ulbcode": "800586", "wardname": "Ward 12", "wardcode": "12", "id": null, "status": "APPROVED", "misglobalid": null, "approved_by": null, "createdate": 1645700116000, "updateddate": 1685438203000, "globalid": null, "gisglobalid": "RQ565KRm-Qns6-Posa-sQcc-PBs6cBl5no64", "remark": "", "st_area(shape)": 2.706179176040782e-06, "st_perimeter(shape)": 0.008657504304673132}}, {"type": "Feature", "geometry": {"type": "Polygon", "coordinates": [[[76.0762, 25.4075], [76.0762, 25.4074], [76.0762, 25.4073], [76.0762, 25.4072], [76.0763, 25.4072], [76.0763, 25.4071], [76.0764, 25.407], [76.0764, 25.4069], [76.0764, 25.4067], [76.0764, 25.4066], [76.0763, 25.4065], [76.0763, 25.4064], [76.0762, 25.4063], [76.0762, 25.4062], [76.076, 25.406], [76.0759, 25.4061], [76.0758, 25.4062], [76.0755, 25.4064], [76.0755, 25.4065], [76.0754, 25.4065], [76.0753, 25.4066], [76.0753, 25.4065], [76.0751, 25.4063], [76.075, 25.4063], [76.0748, 25.406], [76.0747, 25.4061], [76.0746, 25.4061], [76.0745, 25.4061], [76.0744, 25.4062], [76.0743, 25.4062], [76.0743, 25.4063], [76.0742, 25.4063], [76.0741, 25.4063], [76.074, 25.4063], [76.074, 25.4064], [76.074, 25.4065], [76.074, 25.4066], [76.074, 25.4069], [76.0745, 25.4069], [76.0747, 25.4069], [76.0748, 25.4069], [76.0748, 25.4068], [76.0751, 25.4068], [76.0752, 25.4068], [76.0754, 25.4068], [76.0755, 25.4069], [76.0755, 25.407], [76.0755, 25.4071], [76.0755, 25.4072], [76.0755, 25.4073], [76.0755, 25.4074], [76.0755, 25.4075], [76.0756, 25.4075], [76.0757, 25.4075], [76.0757, 25.4076], [76.0758, 25.4076], [76.076, 25.4075], [76.0761, 25.4075], [76.0762, 25.4075]]]}, "properties": {"objectid": 172862, "statename": "Rajasthan", "statecode": "8", "districtname": "", "districtcode": "121", "ulbname": "Kapren", "ulbcode": "800586", "wardname": "Ward 13", "wardcode": "13", "id": null, "status": "APPROVED", "misglobalid": null, "approved_by": null, "createdate": 1645700137000, "updateddate": 1685438244000, "globalid": null, "gisglobalid": "mmPalQ4a-olR6-PaRK-soan-Q66olPPKQaR4", "remark": "", "st_area(shape)": 1.93301640957923e-06, "st_perimeter(shape)": 0.0077616581815349635}}, {"type": "Feature", "geometry": {"type": "Polygon", "coordinates": [[[76.0755, 25.4064], [76.0754, 25.4062], [76.0754, 25.4061], [76.0754, 25.406], [76.0754, 25.4059], [76.0755, 25.4058], [76.0755, 25.4056], [76.0755, 25.4054], [76.0754, 25.4053], [76.0753, 25.4051], [76.0754, 25.405], [76.0756, 25.4049], [76.0755, 25.4046], [76.0756, 25.4046], [76.0754, 25.4043], [76.0754, 25.4041], [76.0754, 25.404], [76.0753, 25.4039], [76.0752, 25.4038], [76.075, 25.4038], [76.075, 25.4039], [76.0749, 25.404], [76.0747, 25.404], [76.0743, 25.4042], [76.0744, 25.4043], [76.0745, 25.4043], [76.0745, 25.4044], [76.0745, 25.4045], [76.0744, 25.4045], [76.0744, 25.4046], [76.0743, 25.4046], [76.0743, 25.4047], [76.0742, 25.4047], [76.0743, 25.4047], [76.0743, 25.4048], [76.0742, 25.4048], [76.0743, 25.4049], [76.0744, 25.405], [76.0745, 25.4051], [76.0746, 25.4052], [76.0746, 25.4053], [76.0747, 25.4053], [76.0747, 25.4054], [76.0748, 25.4055], [76.0747, 25.4055], [76.0747, 25.4056], [76.0748, 25.4056], [76.0748, 25.4057], [76.0748, 25.4058], [76.0748, 25.4059], [76.0748, 25.406], [76.075, 25.4063], [76.0751, 25.4063], [76.0753, 25.4065], [76.0753, 25.4066], [76.0754, 25.4065], [76.0755, 25.4065], [76.0755, 25.4064]]]}, "properties": {"objectid": 172863, "statename": "Rajasthan", "statecode": "8", "districtname": "", "districtcode": "121", "ulbname": "Kapren", "ulbcode": "800586", "wardname": "Ward 14", "wardcode": "14", "id": null, "status": "APPROVED", "misglobalid": null, "approved_by": null, "createdate": 1645700161000, "updateddate": 1685438223000, "globalid": null, "gisglobalid": "cKRcBlsc-Rcao-PdmK-QscK-PKQQc4cRsssQ", "remark": "", "st_area(shape)": 2.117637936819316e-06, "st_perimeter(shape)": 0.007366429599159217}}, {"type": "Feature", "geometry": {"type": "Polygon", "coordinates": [[[76.0789, 25.4071], [76.0787, 25.4068], [76.0786, 25.4067], [76.0786, 25.4066], [76.0785, 25.4065], [76.0783, 25.4063], [76.0782, 25.4062], [76.0781, 25.4061], [76.0779, 25.406], [76.0777, 25.4059], [76.0772, 25.406], [76.0772, 25.4061], [76.0771, 25.4061], [76.0769, 25.4063], [76.0764, 25.4064], [76.0763, 25.4065], [76.0764, 25.4066], [76.0764, 25.4067], [76.0764, 25.4069], [76.0764, 25.407], [76.0763, 25.4071], [76.0763, 25.4072], [76.0762, 25.4072], [76.0762, 25.4073], [76.0762, 25.4074], [76.0762, 25.4075], [76.0764, 25.4074], [76.0767, 25.4073], [76.0771, 25.4072], [76.0773, 25.4073], [76.0776, 25.4073], [76.0778, 25.4072], [76.0779, 25.4072], [76.078, 25.4073], [76.0781, 25.4073], [76.0783, 25.4072], [76.0786, 25.4072], [76.0788, 25.4072], [76.0789, 25.4072], [76.0789, 25.4071]]]}, "properties": {"objectid": 165358, "statename": "Rajasthan", "statecode": "8", "districtname": "", "districtcode": "121", "ulbname": "Kapren", "ulbcode": "800586", "wardname": "Ward 15", "wardcode": "15", "id": null, "status": "APPROVED", "misglobalid": null, "approved_by": null, "createdate": 1645700191000, "updateddate": 1685438264000, "globalid": null, "gisglobalid": "oPPP5KnB-aRKs-Pnol-QmQo-loPQ4mQam5Bn", "remark": "", "st_area(shape)": 2.5690942127396396e-06, "st_perimeter(shape)": 0.007275961665897188}}, {"type": "Feature", "geometry": {"type": "Polygon", "coordinates": [[[76.0771, 25.4061], [76.0771, 25.406], [76.077, 25.406], [76.0769, 25.406], [76.0769, 25.4058], [76.0768, 25.4055], [76.0766, 25.4051], [76.0765, 25.4051], [76.0763, 25.4049], [76.0763, 25.4047], [76.0763, 25.4046], [76.0762, 25.4046], [76.0761, 25.4046], [76.0758, 25.4046], [76.0756, 25.4046], [76.0755, 25.4046], [76.0756, 25.4049], [76.0754, 25.405], [76.0753, 25.4051], [76.0754, 25.4053], [76.0755, 25.4054], [76.0755, 25.4056], [76.0755, 25.4058], [76.0754, 25.4059], [76.0754, 25.406], [76.0754, 25.4061], [76.0754, 25.4062], [76.0755, 25.4064], [76.0758, 25.4062], [76.0759, 25.4061], [76.076, 25.406], [76.0762, 25.4062], [76.0762, 25.4063], [76.0763, 25.4064], [76.0763, 25.4065], [76.0764, 25.4064], [76.0769, 25.4063], [76.0771, 25.4061]]]}, "properties": {"objectid": 165359, "statename": "Rajasthan", "statecode": "8", "districtname": "", "districtcode": "121", "ulbname": "Kapren", "ulbcode": "800586", "wardname": "Ward 16", "wardcode": "16", "id": null, "status": "APPROVED", "misglobalid": null, "approved_by": null, "createdate": 1645700221000, "updateddate": 1685438284000, "globalid": null, "gisglobalid": "ac4nQPRP-64ld-PPo5-RmQa-5KsRQoKQBRBR", "remark": "", "st_area(shape)": 2.1073502899575122e-06, "st_perimeter(shape)": 0.006702333846244323}}, {"type": "Feature", "geometry": {"type": "Polygon", "coordinates": [[[76.0779, 25.4038], [76.0777, 25.4037], [76.0774, 25.4036], [76.0772, 25.4035], [76.077, 25.4034], [76.0767, 25.4029], [76.0765, 25.403], [76.0765, 25.4031], [76.0765, 25.4033], [76.0765, 25.4037], [76.0763, 25.4037], [76.0761, 25.4037], [76.076, 25.4037], [76.0759, 25.4036], [76.0757, 25.4036], [76.0756, 25.4035], [76.0754, 25.4035], [76.0751, 25.4034], [76.0747, 25.4034], [76.0746, 25.4034], [76.0745, 25.4037], [76.0745, 25.4038], [76.0746, 25.4039], [76.0747, 25.404], [76.0749, 25.404], [76.075, 25.4039], [76.075, 25.4038], [76.0752, 25.4038], [76.0753, 25.4039], [76.0754, 25.404], [76.0754, 25.4041], [76.0754, 25.4043], [76.0756, 25.4046], [76.0758, 25.4046], [76.0761, 25.4046], [76.0762, 25.4046], [76.0763, 25.4046], [76.0764, 25.4046], [76.0767, 25.4045], [76.0769, 25.4044], [76.077, 25.4044], [76.0771, 25.4043], [76.0774, 25.4042], [76.0775, 25.4041], [76.0777, 25.4039], [76.0779, 25.4038]]]}, "properties": {"objectid": 172864, "statename": "Rajasthan", "statecode": "8", "districtname": "", "districtcode": "121", "ulbname": "Kapren", "ulbcode": "800586", "wardname": "Ward 17", "wardcode": "17", "id": null, "status": "APPROVED", "misglobalid": null, "approved_by": null, "createdate": 1645700254000, "updateddate": 1685438298000, "globalid": null, "gisglobalid": "m4KdllB4-onsB-Pa5m-aBmB-dKP54K5BconQ", "remark": "", "st_area(shape)": 2.5915583741773796e-06, "st_perimeter(shape)": 0.009312901959234404}}, {"type": "Feature", "geometry": {"type": "Polygon", "coordinates": [[[76.0787, 25.4059], [76.0788, 25.4058], [76.0791, 25.4056], [76.0793, 25.4055], [76.0797, 25.4056], [76.0801, 25.4055], [76.0803, 25.4055], [76.0807, 25.4057], [76.081, 25.4059], [76.0813, 25.406], [76.0819, 25.4052], [76.0818, 25.4048], [76.0815, 25.4044], [76.0815, 25.4042], [76.0816, 25.404], [76.0817, 25.4037], [76.0818, 25.4036], [76.0819, 25.4034], [76.0818, 25.4031], [76.0815, 25.4032], [76.0805, 25.4036], [76.0796, 25.4039], [76.0791, 25.404], [76.0788, 25.404], [76.0786, 25.4039], [76.0781, 25.4039], [76.0779, 25.4038], [76.0777, 25.4039], [76.0775, 25.4041], [76.0774, 25.4042], [76.0771, 25.4043], [76.077, 25.4044], [76.0769, 25.4044], [76.0767, 25.4045], [76.0764, 25.4046], [76.0763, 25.4046], [76.0763, 25.4047], [76.0763, 25.4049], [76.0765, 25.4051], [76.0766, 25.4051], [76.0768, 25.4055], [76.0769, 25.4058], [76.0769, 25.406], [76.077, 25.406], [76.0771, 25.406], [76.0771, 25.4061], [76.0772, 25.4061], [76.0772, 25.406], [76.0777, 25.4059], [76.0779, 25.406], [76.0781, 25.4061], [76.0782, 25.4062], [76.0783, 25.4063], [76.0785, 25.4061], [76.0787, 25.4059]]]}, "properties": {"objectid": 172865, "statename": "Rajasthan", "statecode": "8", "districtname": "", "districtcode": "121", "ulbname": "Kapren", "ulbcode": "800586", "wardname": "Ward 18", "wardcode": "18", "id": null, "status": "APPROVED", "misglobalid": null, "approved_by": null, "createdate": 1645700280000, "updateddate": 1685438312000, "globalid": null, "gisglobalid": "RQQK6dQd-sd4a-Pcoa-Q5Bs-cdRmRnP5nanQ", "remark": "", "st_area(shape)": 1.0114810194408392e-05, "st_perimeter(shape)": 0.015992578223640405}}, {"type": "Feature", "geometry": {"type": "Polygon", "coordinates": [[[76.0965, 25.3985], [76.0948, 25.3992], [76.0937, 25.3994], [76.093, 25.3995], [76.0928, 25.3995], [76.0918, 25.3997], [76.0911, 25.3998], [76.0887, 25.401], [76.088, 25.4012], [76.0872, 25.4014], [76.0871, 25.4015], [76.0873, 25.4016], [76.0875, 25.4017], [76.0877, 25.4017], [76.0883, 25.4017], [76.0923, 25.4013], [76.0928, 25.4013], [76.093, 25.4014], [76.0932, 25.4019], [76.0935, 25.4027], [76.0937, 25.4029], [76.0943, 25.4031], [76.0944, 25.4031], [76.0949, 25.4032], [76.095, 25.4033], [76.0951, 25.4035], [76.0952, 25.4036], [76.0954, 25.404], [76.0963, 25.4055], [76.0965, 25.4059], [76.097, 25.4065], [76.097, 25.4066], [76.0969, 25.4067], [76.0969, 25.4068], [76.0969, 25.407], [76.097, 25.4072], [76.0972, 25.4076], [76.0972, 25.4078], [76.0974, 25.4081], [76.0975, 25.4083], [76.0975, 25.4086], [76.0976, 25.4089], [76.0978, 25.4093], [76.0982, 25.4096], [76.0984, 25.4097], [76.0987, 25.4098], [76.0989, 25.4099], [76.0991, 25.4099], [76.0993, 25.4099], [76.0995, 25.4098], [76.0996, 25.4098], [76.0996, 25.4099], [76.0995, 25.4101], [76.0996, 25.4103], [76.0996, 25.4104], [76.0995, 25.4104], [76.0994, 25.4105], [76.0995, 25.4106], [76.0996, 25.4108], [76.0997, 25.411], [76.0999, 25.4112], [76.0999, 25.4113], [76.1001, 25.4112], [76.1002, 25.4115], [76.1005, 25.4114], [76.1006, 25.4113], [76.1007, 25.4114], [76.1009, 25.4118], [76.101, 25.4121], [76.1014, 25.4128], [76.1016, 25.4129], [76.1021, 25.4127], [76.1024, 25.4125], [76.1026, 25.4124], [76.1031, 25.4125], [76.1034, 25.4126], [76.1037, 25.4126], [76.1038, 25.4128], [76.1038, 25.413], [76.1041, 25.413], [76.1046, 25.4131], [76.1046, 25.4128], [76.1047, 25.4125], [76.1045, 25.4124], [76.1044, 25.4123], [76.1044, 25.4121], [76.1041, 25.4119], [76.1038, 25.412], [76.1036, 25.4117], [76.1035, 25.4114], [76.1033, 25.4111], [76.1031, 25.4107], [76.1031, 25.4102], [76.1034, 25.41], [76.1035, 25.4096], [76.1033, 25.4093], [76.1028, 25.4089], [76.1023, 25.4085], [76.1021, 25.4082], [76.1023, 25.4077], [76.1023, 25.4073], [76.1021, 25.407], [76.1019, 25.4064], [76.1015, 25.4059], [76.1015, 25.4055], [76.1015, 25.4052], [76.1013, 25.4045], [76.1016, 25.404], [76.1016, 25.4032], [76.1004, 25.4022], [76.0999, 25.4018], [76.0992, 25.4017], [76.0987, 25.4015], [76.0982, 25.4009], [76.098, 25.4005], [76.0979, 25.4002], [76.0977, 25.4002], [76.0975, 25.3998], [76.0977, 25.3992], [76.0977, 25.3989], [76.0974, 25.3984], [76.0969, 25.3983], [76.0965, 25.3985]]]}, "properties": {"objectid": 172471, "statename": "Rajasthan", "statecode": "8", "districtname": "", "districtcode": "121", "ulbname": "Kapren", "ulbcode": "800586", "wardname": "Ward 19", "wardcode": "19", "id": null, "status": "APPROVED", "misglobalid": null, "approved_by": null, "createdate": 1645700304000, "updateddate": 1685438326000, "globalid": null, "gisglobalid": "lPQnmsKo-Blcl-PooK-RdKc-mlPQcl5565oB", "remark": "", "st_area(shape)": 7.673677298062477e-05, "st_perimeter(shape)": 0.05558833127022329}}, {"type": "Feature", "geometry": {"type": "Polygon", "coordinates": [[[76.1073, 25.4208], [76.1084, 25.4204], [76.1093, 25.4204], [76.1103, 25.4206], [76.1106, 25.4201], [76.1104, 25.4195], [76.1103, 25.4191], [76.1098, 25.4186], [76.1096, 25.4183], [76.1091, 25.418], [76.1087, 25.4175], [76.1083, 25.4172], [76.108, 25.4172], [76.1077, 25.4172], [76.1074, 25.4168], [76.1072, 25.4164], [76.1069, 25.4158], [76.1067, 25.4151], [76.1064, 25.4143], [76.1061, 25.414], [76.1059, 25.4138], [76.1057, 25.4135], [76.1056, 25.4134], [76.1054, 25.4134], [76.1051, 25.4134], [76.105, 25.4134], [76.1048, 25.4133], [76.1046, 25.4131], [76.1041, 25.413], [76.1038, 25.413], [76.1038, 25.4128], [76.1037, 25.4126], [76.1034, 25.4126], [76.1031, 25.4125], [76.1026, 25.4124], [76.1024, 25.4125], [76.1021, 25.4127], [76.1016, 25.4129], [76.1014, 25.4128], [76.101, 25.4121], [76.1009, 25.4118], [76.1007, 25.4114], [76.1006, 25.4113], [76.1005, 25.4114], [76.1002, 25.4115], [76.1001, 25.4112], [76.0999, 25.4113], [76.0999, 25.4112], [76.0997, 25.411], [76.0996, 25.4108], [76.0995, 25.4106], [76.0994, 25.4105], [76.0995, 25.4104], [76.0996, 25.4104], [76.0996, 25.4103], [76.0995, 25.4101], [76.0996, 25.4099], [76.0996, 25.4098], [76.0995, 25.4098], [76.0993, 25.4099], [76.0991, 25.4099], [76.0989, 25.4099], [76.0987, 25.4098], [76.0984, 25.4097], [76.0982, 25.4096], [76.0978, 25.4093], [76.0976, 25.4089], [76.0975, 25.4086], [76.0975, 25.4083], [76.0974, 25.4081], [76.0972, 25.4078], [76.0972, 25.4076], [76.097, 25.4072], [76.0969, 25.407], [76.0969, 25.4068], [76.0969, 25.4067], [76.097, 25.4066], [76.097, 25.4065], [76.0965, 25.4059], [76.0963, 25.4055], [76.0954, 25.404], [76.0952, 25.4036], [76.0951, 25.4035], [76.095, 25.4033], [76.0949, 25.4032], [76.0944, 25.4031], [76.0943, 25.4031], [76.0937, 25.4029], [76.0935, 25.4027], [76.0932, 25.4019], [76.093, 25.4014], [76.0928, 25.4013], [76.0923, 25.4013], [76.0883, 25.4017], [76.0877, 25.4017], [76.0875, 25.4017], [76.0873, 25.4016], [76.0871, 25.4015], [76.087, 25.4016], [76.0866, 25.4018], [76.0833, 25.4027], [76.0818, 25.4031], [76.0819, 25.4034], [76.0818, 25.4036], [76.0817, 25.4037], [76.0816, 25.404], [76.0815, 25.4042], [76.0815, 25.4044], [76.0818, 25.4048], [76.0819, 25.4052], [76.0813, 25.406], [76.081, 25.4059], [76.0807, 25.4057], [76.0803, 25.4055], [76.0801, 25.4055], [76.0797, 25.4056], [76.0793, 25.4055], [76.0791, 25.4056], [76.0788, 25.4058], [76.0787, 25.4059], [76.079, 25.4061], [76.079, 25.4062], [76.0793, 25.4065], [76.0793, 25.4066], [76.0794, 25.4069], [76.0798, 25.4079], [76.08, 25.4081], [76.0801, 25.4082], [76.0803, 25.4083], [76.0807, 25.4089], [76.0808, 25.4089], [76.0816, 25.409], [76.0818, 25.4091], [76.082, 25.4093], [76.0822, 25.4136], [76.0813, 25.4131], [76.0807, 25.4133], [76.0801, 25.4136], [76.0796, 25.4144], [76.0796, 25.4151], [76.0797, 25.4171], [76.0803, 25.422], [76.0804, 25.4221], [76.0807, 25.422], [76.0808, 25.422], [76.081, 25.422], [76.0811, 25.422], [76.0813, 25.422], [76.0818, 25.422], [76.082, 25.422], [76.0824, 25.422], [76.0828, 25.4222], [76.0832, 25.4224], [76.0833, 25.4225], [76.0834, 25.4225], [76.0835, 25.4225], [76.0835, 25.4226], [76.0837, 25.4227], [76.0839, 25.4228], [76.0839, 25.4229], [76.0841, 25.4231], [76.0842, 25.4232], [76.0847, 25.4237], [76.0853, 25.4242], [76.0854, 25.4242], [76.0856, 25.4245], [76.086, 25.4248], [76.0862, 25.425], [76.0862, 25.4251], [76.0865, 25.4253], [76.0866, 25.4252], [76.0867, 25.4252], [76.0868, 25.4251], [76.0869, 25.4251], [76.0871, 25.4251], [76.0872, 25.425], [76.0874, 25.425], [76.0875, 25.425], [76.0876, 25.425], [76.0877, 25.425], [76.0877, 25.4249], [76.0878, 25.4248], [76.0882, 25.4246], [76.0887, 25.4243], [76.0889, 25.4242], [76.0892, 25.4241], [76.0894, 25.424], [76.0895, 25.4239], [76.0896, 25.4238], [76.0899, 25.4237], [76.0901, 25.4236], [76.0902, 25.4235], [76.0902, 25.4234], [76.0904, 25.4233], [76.0907, 25.423], [76.0908, 25.423], [76.0909, 25.423], [76.091, 25.423], [76.0913, 25.4232], [76.0914, 25.4232], [76.0915, 25.4232], [76.0916, 25.4233], [76.0917, 25.4233], [76.0918, 25.4233], [76.0918, 25.4234], [76.0919, 25.4234], [76.0921, 25.4235], [76.0922, 25.4235], [76.0922, 25.4236], [76.0923, 25.4236], [76.0934, 25.4245], [76.0961, 25.4228], [76.096, 25.4223], [76.0958, 25.4217], [76.0963, 25.4215], [76.0965, 25.4214], [76.0967, 25.421], [76.0969, 25.4208], [76.0972, 25.4205], [76.0976, 25.4202], [76.098, 25.4201], [76.099, 25.4201], [76.0999, 25.4198], [76.1006, 25.4198], [76.101, 25.4197], [76.1025, 25.4197], [76.1031, 25.4198], [76.1038, 25.42], [76.1048, 25.4201], [76.1055, 25.4202], [76.106, 25.4206], [76.1063, 25.4205], [76.1067, 25.4203], [76.107, 25.4205], [76.1073, 25.4208]]]}, "properties": {"objectid": 172866, "statename": "Rajasthan", "statecode": "8", "districtname": "", "districtcode": "121", "ulbname": "Kapren", "ulbcode": "800586", "wardname": "Ward 20", "wardcode": "20", "id": null, "status": "APPROVED", "misglobalid": null, "approved_by": null, "createdate": 1645700323000, "updateddate": 1685438336000, "globalid": null, "gisglobalid": "sn5sK5dc-cc5n-Plmc-anc6-asl6c6saQca4", "remark": "", "st_area(shape)": 0.0004339544199828987, "st_perimeter(shape)": 0.10360790281124814}}, {"type": "Feature", "geometry": {"type": "Polygon", "coordinates": [[[76.1073, 25.4208], [76.107, 25.4205], [76.1067, 25.4203], [76.1063, 25.4205], [76.106, 25.4206], [76.1055, 25.4202], [76.1048, 25.4201], [76.1038, 25.42], [76.1031, 25.4198], [76.1025, 25.4197], [76.101, 25.4197], [76.1006, 25.4198], [76.0999, 25.4198], [76.099, 25.4201], [76.098, 25.4201], [76.0976, 25.4202], [76.0972, 25.4205], [76.0969, 25.4208], [76.0967, 25.421], [76.0965, 25.4214], [76.0963, 25.4215], [76.0958, 25.4217], [76.096, 25.4223], [76.0961, 25.4228], [76.0934, 25.4245], [76.0923, 25.4236], [76.0922, 25.4236], [76.0922, 25.4235], [76.0921, 25.4235], [76.0919, 25.4234], [76.0918, 25.4234], [76.0918, 25.4233], [76.0917, 25.4233], [76.0916, 25.4233], [76.0915, 25.4232], [76.0914, 25.4232], [76.0913, 25.4232], [76.091, 25.423], [76.0909, 25.423], [76.0908, 25.423], [76.0907, 25.423], [76.0904, 25.4233], [76.0902, 25.4234], [76.0902, 25.4235], [76.0901, 25.4236], [76.0899, 25.4237], [76.0896, 25.4238], [76.0895, 25.4239], [76.0894, 25.424], [76.0892, 25.4241], [76.0889, 25.4242], [76.0887, 25.4243], [76.0882, 25.4246], [76.0878, 25.4248], [76.0877, 25.4249], [76.0877, 25.425], [76.0876, 25.425], [76.0875, 25.425], [76.0874, 25.425], [76.0872, 25.425], [76.0871, 25.4251], [76.0869, 25.4251], [76.0868, 25.4251], [76.0867, 25.4252], [76.0866, 25.4252], [76.0865, 25.4253], [76.0889, 25.4275], [76.0906, 25.4304], [76.0911, 25.4309], [76.0929, 25.4321], [76.1052, 25.4397], [76.1053, 25.4397], [76.1056, 25.4394], [76.1057, 25.4392], [76.1057, 25.4391], [76.106, 25.4387], [76.1063, 25.4385], [76.1064, 25.4383], [76.1065, 25.4381], [76.1064, 25.4379], [76.1052, 25.4371], [76.1036, 25.4359], [76.103, 25.4355], [76.1025, 25.4352], [76.1024, 25.4351], [76.1021, 25.4347], [76.102, 25.4346], [76.1017, 25.4342], [76.1016, 25.4339], [76.1016, 25.4338], [76.1014, 25.4332], [76.1013, 25.433], [76.1012, 25.4328], [76.1012, 25.4325], [76.1008, 25.4301], [76.1007, 25.4297], [76.1007, 25.4293], [76.1004, 25.4283], [76.1001, 25.4277], [76.0997, 25.4272], [76.0996, 25.4269], [76.0996, 25.4267], [76.0996, 25.4266], [76.0997, 25.4264], [76.0998, 25.4263], [76.1002, 25.4261], [76.1015, 25.4255], [76.1018, 25.4254], [76.1033, 25.4248], [76.1038, 25.4245], [76.1046, 25.424], [76.1055, 25.4228], [76.1063, 25.4213], [76.1066, 25.4209], [76.1073, 25.4208]]]}, "properties": {"objectid": 172472, "statename": "Rajasthan", "statecode": "8", "districtname": "", "districtcode": "121", "ulbname": "Kapren", "ulbcode": "800586", "wardname": "Ward 21", "wardcode": "21", "id": null, "status": "APPROVED", "misglobalid": null, "approved_by": null, "createdate": 1645700340000, "updateddate": 1685438350000, "globalid": null, "gisglobalid": "Kd4RKsKP-Pa5m-PB5m-s46d-PRBaR4BdllBs", "remark": "", "st_area(shape)": 0.00017071937059718394, "st_perimeter(shape)": 0.07519146368497076}}, {"type": "Feature", "geometry": {"type": "Polygon", "coordinates": [[[76.1052, 25.4397], [76.0929, 25.4321], [76.0911, 25.4309], [76.0906, 25.4304], [76.0889, 25.4275], [76.0865, 25.4253], [76.0862, 25.4251], [76.0862, 25.425], [76.086, 25.4248], [76.0856, 25.4245], [76.0854, 25.4242], [76.0853, 25.4242], [76.0847, 25.4237], [76.0842, 25.4232], [76.0841, 25.4231], [76.0839, 25.4229], [76.0839, 25.4228], [76.0837, 25.4227], [76.0835, 25.4226], [76.0835, 25.4225], [76.0834, 25.4225], [76.0833, 25.4225], [76.0832, 25.4224], [76.0828, 25.4222], [76.0824, 25.422], [76.082, 25.422], [76.0818, 25.422], [76.0813, 25.422], [76.0811, 25.422], [76.081, 25.422], [76.0808, 25.422], [76.0807, 25.422], [76.0804, 25.4221], [76.0803, 25.422], [76.0797, 25.4221], [76.0798, 25.4238], [76.0795, 25.4238], [76.0791, 25.424], [76.0782, 25.4243], [76.0778, 25.4244], [76.0776, 25.4245], [76.0775, 25.4245], [76.0775, 25.4247], [76.0775, 25.4249], [76.0774, 25.4251], [76.0773, 25.4252], [76.0771, 25.4253], [76.0769, 25.4253], [76.0766, 25.4253], [76.0763, 25.4253], [76.0769, 25.4275], [76.0776, 25.4296], [76.0775, 25.4298], [76.0776, 25.4317], [76.0774, 25.4337], [76.0771, 25.4368], [76.0768, 25.4373], [76.0768, 25.4381], [76.0767, 25.4386], [76.0889, 25.4485], [76.0906, 25.4469], [76.091, 25.4471], [76.0989, 25.4462], [76.0991, 25.446], [76.0992, 25.4456], [76.0993, 25.4447], [76.0994, 25.4446], [76.0994, 25.4443], [76.0998, 25.4431], [76.1002, 25.4423], [76.1003, 25.4423], [76.1004, 25.4422], [76.1007, 25.442], [76.1009, 25.4418], [76.1011, 25.4414], [76.1012, 25.4413], [76.1012, 25.4412], [76.1017, 25.4412], [76.1023, 25.4412], [76.1025, 25.4411], [76.1028, 25.441], [76.1038, 25.4405], [76.1048, 25.4401], [76.1051, 25.4398], [76.1052, 25.4397]]]}, "properties": {"objectid": 172867, "statename": "Rajasthan", "statecode": "8", "districtname": "", "districtcode": "121", "ulbname": "Kapren", "ulbcode": "800586", "wardname": "Ward 22", "wardcode": "22", "id": null, "status": "APPROVED", "misglobalid": null, "approved_by": null, "createdate": 1645700357000, "updateddate": 1685438363000, "globalid": null, "gisglobalid": "Q6sdm45B-6K4P-Ps5d-aQm5-ao6KnmRnsKoo", "remark": "", "st_area(shape)": 0.0004009608546702797, "st_perimeter(shape)": 0.088101900231279}}, {"type": "Feature", "geometry": {"type": "Polygon", "coordinates": [[[76.0803, 25.422], [76.0797, 25.4171], [76.0796, 25.4151], [76.0796, 25.4144], [76.0801, 25.4136], [76.0807, 25.4133], [76.0813, 25.4131], [76.0822, 25.4136], [76.082, 25.4093], [76.0818, 25.4091], [76.0816, 25.409], [76.0808, 25.4089], [76.0807, 25.4089], [76.0803, 25.4083], [76.0801, 25.4082], [76.08, 25.4081], [76.0798, 25.4079], [76.0794, 25.4069], [76.0793, 25.4066], [76.0793, 25.4065], [76.079, 25.4062], [76.079, 25.4061], [76.0787, 25.4059], [76.0785, 25.4061], [76.0783, 25.4063], [76.0785, 25.4065], [76.0786, 25.4066], [76.0786, 25.4067], [76.0787, 25.4068], [76.0789, 25.4071], [76.0792, 25.4074], [76.079, 25.4075], [76.0791, 25.4077], [76.0793, 25.4085], [76.0791, 25.4085], [76.0791, 25.4089], [76.0789, 25.409], [76.0779, 25.4092], [76.0778, 25.4092], [76.0777, 25.4093], [76.0776, 25.4095], [76.0766, 25.4096], [76.0765, 25.41], [76.0756, 25.41], [76.0757, 25.4104], [76.0758, 25.4108], [76.0763, 25.4121], [76.0775, 25.4156], [76.0784, 25.4179], [76.0789, 25.4195], [76.0796, 25.4214], [76.0797, 25.4221], [76.0803, 25.422]]]}, "properties": {"objectid": 173657, "statename": "Rajasthan", "statecode": "8", "districtname": "", "districtcode": "121", "ulbname": "Kapren", "ulbcode": "800586", "wardname": "Ward 23", "wardcode": "23", "id": null, "status": "APPROVED", "misglobalid": null, "approved_by": null, "createdate": 1645700381000, "updateddate": 1685438376000, "globalid": null, "gisglobalid": "aKBPmKnK-66oP-PBQK-sKcc-sacBQoRnccsl", "remark": "", "st_area(shape)": 4.152334269932009e-05, "st_perimeter(shape)": 0.04175066149634832}}, {"type": "Feature", "geometry": {"type": "Polygon", "coordinates": [[[76.0756, 25.41], [76.0765, 25.41], [76.0766, 25.4096], [76.0776, 25.4095], [76.0777, 25.4093], [76.0778, 25.4092], [76.0779, 25.4092], [76.0789, 25.409], [76.0791, 25.4089], [76.0791, 25.4085], [76.0793, 25.4085], [76.0791, 25.4077], [76.079, 25.4075], [76.0792, 25.4074], [76.0789, 25.4071], [76.0789, 25.4072], [76.0788, 25.4072], [76.0786, 25.4072], [76.0783, 25.4072], [76.0781, 25.4073], [76.078, 25.4073], [76.0779, 25.4072], [76.0778, 25.4072], [76.0776, 25.4073], [76.0773, 25.4073], [76.0771, 25.4072], [76.0767, 25.4073], [76.0764, 25.4074], [76.0762, 25.4075], [76.0761, 25.4075], [76.076, 25.4075], [76.0758, 25.4076], [76.0757, 25.4076], [76.0757, 25.4075], [76.0756, 25.4075], [76.0755, 25.4075], [76.0755, 25.4074], [76.0755, 25.4073], [76.0755, 25.4072], [76.0755, 25.4071], [76.0755, 25.407], [76.0755, 25.4069], [76.0754, 25.4068], [76.0752, 25.4068], [76.0751, 25.4068], [76.0748, 25.4068], [76.0748, 25.4069], [76.0747, 25.4069], [76.0745, 25.4069], [76.074, 25.4069], [76.074, 25.4071], [76.0732, 25.4067], [76.0722, 25.4062], [76.0721, 25.4063], [76.072, 25.4064], [76.0719, 25.4064], [76.0717, 25.4066], [76.0716, 25.4067], [76.0713, 25.4068], [76.0713, 25.4069], [76.0712, 25.4069], [76.0711, 25.4069], [76.071, 25.407], [76.0707, 25.4072], [76.0707, 25.4073], [76.0708, 25.4073], [76.0709, 25.4074], [76.0706, 25.408], [76.0706, 25.4088], [76.0702, 25.4088], [76.0701, 25.409], [76.0698, 25.4093], [76.0694, 25.4092], [76.0693, 25.4095], [76.0692, 25.4095], [76.0693, 25.41], [76.0697, 25.4101], [76.0699, 25.4102], [76.07, 25.4103], [76.0701, 25.4106], [76.071, 25.4104], [76.0712, 25.4111], [76.0712, 25.4112], [76.071, 25.4113], [76.0709, 25.4116], [76.0702, 25.4127], [76.0705, 25.4129], [76.0709, 25.4124], [76.0712, 25.4116], [76.0716, 25.4111], [76.0722, 25.4105], [76.073, 25.4102], [76.0736, 25.41], [76.074, 25.4101], [76.0739, 25.4095], [76.0738, 25.4087], [76.0739, 25.4086], [76.074, 25.4085], [76.0742, 25.4084], [76.0742, 25.4083], [76.0743, 25.408], [76.0746, 25.4081], [76.0749, 25.4081], [76.0752, 25.408], [76.0757, 25.408], [76.0756, 25.4082], [76.0756, 25.41]]]}, "properties": {"objectid": 174055, "statename": "Rajasthan", "statecode": "8", "districtname": "", "districtcode": "121", "ulbname": "Kapren", "ulbcode": "800586", "wardname": "Ward 24", "wardcode": "24", "id": null, "status": "APPROVED", "misglobalid": null, "approved_by": null, "createdate": 1645700404000, "updateddate": 1685438411000, "globalid": null, "gisglobalid": "RKacl65P-sKam-Ps5o-Q56a-nQmQoondlasP", "remark": "", "st_area(shape)": 2.4281271372467537e-05, "st_perimeter(shape)": 0.03600402965854606}}, {"type": "Feature", "geometry": {"type": "Polygon", "coordinates": [[[76.0797, 25.4221], [76.0796, 25.4214], [76.0789, 25.4195], [76.0784, 25.4179], [76.0775, 25.4156], [76.0763, 25.4121], [76.0758, 25.4108], [76.0757, 25.4104], [76.0756, 25.41], [76.0756, 25.4082], [76.0757, 25.408], [76.0752, 25.408], [76.0749, 25.4081], [76.0746, 25.4081], [76.0743, 25.408], [76.0742, 25.4083], [76.0742, 25.4084], [76.074, 25.4085], [76.0739, 25.4086], [76.0738, 25.4087], [76.0739, 25.4095], [76.074, 25.4101], [76.0736, 25.41], [76.073, 25.4102], [76.0722, 25.4105], [76.0716, 25.4111], [76.0712, 25.4116], [76.0709, 25.4124], [76.0705, 25.4129], [76.0704, 25.413], [76.0703, 25.4131], [76.0703, 25.4132], [76.07, 25.4135], [76.0699, 25.4137], [76.0698, 25.4137], [76.0697, 25.4138], [76.0696, 25.4139], [76.0695, 25.4139], [76.0695, 25.414], [76.0693, 25.4141], [76.0693, 25.4143], [76.0692, 25.4143], [76.0691, 25.4144], [76.0689, 25.4147], [76.0689, 25.4148], [76.0688, 25.4151], [76.0687, 25.4152], [76.0686, 25.4155], [76.0686, 25.4156], [76.0685, 25.4156], [76.0685, 25.4157], [76.0684, 25.4159], [76.0683, 25.416], [76.0683, 25.4161], [76.0682, 25.4163], [76.0682, 25.4164], [76.0682, 25.4165], [76.0682, 25.4166], [76.0682, 25.4167], [76.0682, 25.4169], [76.0682, 25.417], [76.0682, 25.4171], [76.0682, 25.4172], [76.0681, 25.4173], [76.0681, 25.4174], [76.0681, 25.4175], [76.068, 25.4179], [76.068, 25.418], [76.0679, 25.4182], [76.0678, 25.4184], [76.0678, 25.4185], [76.0677, 25.4186], [76.0676, 25.4188], [76.0676, 25.4189], [76.0676, 25.419], [76.0674, 25.4192], [76.0674, 25.4194], [76.067, 25.4202], [76.067, 25.4203], [76.0668, 25.4209], [76.0667, 25.421], [76.0667, 25.4211], [76.0667, 25.4213], [76.0667, 25.4214], [76.0667, 25.4215], [76.0666, 25.4217], [76.0666, 25.4218], [76.0666, 25.4219], [76.0666, 25.422], [76.0665, 25.4221], [76.0665, 25.4222], [76.0665, 25.4223], [76.0664, 25.4223], [76.0664, 25.4224], [76.0663, 25.4225], [76.0663, 25.4226], [76.0662, 25.4227], [76.0659, 25.423], [76.0659, 25.4231], [76.0657, 25.4232], [76.0657, 25.4233], [76.0656, 25.4234], [76.0656, 25.4235], [76.0655, 25.4235], [76.0655, 25.4236], [76.0654, 25.4236], [76.0654, 25.4237], [76.0653, 25.4237], [76.0652, 25.4238], [76.0652, 25.4239], [76.0651, 25.424], [76.065, 25.4241], [76.065, 25.4242], [76.0649, 25.4242], [76.0649, 25.4243], [76.0648, 25.4243], [76.0648, 25.4244], [76.0647, 25.4245], [76.0645, 25.4248], [76.0644, 25.4249], [76.0643, 25.4249], [76.0643, 25.425], [76.0642, 25.425], [76.0642, 25.4251], [76.0641, 25.4251], [76.064, 25.4251], [76.0639, 25.4251], [76.0638, 25.4251], [76.0637, 25.4252], [76.0636, 25.4252], [76.0636, 25.4253], [76.0635, 25.4253], [76.0634, 25.4254], [76.0633, 25.4254], [76.0631, 25.4255], [76.063, 25.4255], [76.063, 25.4256], [76.0629, 25.4257], [76.0628, 25.4257], [76.0628, 25.4258], [76.0627, 25.4258], [76.0627, 25.4259], [76.0627, 25.426], [76.0626, 25.4263], [76.0626, 25.4264], [76.0625, 25.4265], [76.0625, 25.4266], [76.0625, 25.4267], [76.0625, 25.4268], [76.0624, 25.4271], [76.063, 25.4276], [76.0767, 25.4386], [76.0768, 25.4381], [76.0768, 25.4373], [76.0771, 25.4368], [76.0774, 25.4337], [76.0776, 25.4317], [76.0775, 25.4298], [76.0776, 25.4296], [76.0769, 25.4275], [76.0763, 25.4253], [76.0766, 25.4253], [76.0769, 25.4253], [76.0771, 25.4253], [76.0773, 25.4252], [76.0774, 25.4251], [76.0775, 25.4249], [76.0775, 25.4247], [76.0775, 25.4245], [76.0776, 25.4245], [76.0778, 25.4244], [76.0782, 25.4243], [76.0791, 25.424], [76.0795, 25.4238], [76.0798, 25.4238], [76.0797, 25.4221]]]}, "properties": {"objectid": 172868, "statename": "Rajasthan", "statecode": "8", "districtname": "", "districtcode": "121", "ulbname": "Kapren", "ulbcode": "800586", "wardname": "Ward 25", "wardcode": "25", "id": null, "status": "APPROVED", "misglobalid": null, "approved_by": null, "createdate": 1645700441000, "updateddate": 1685438428000, "globalid": null, "gisglobalid": "scRsB654-4Q64-PaKR-s4K4-65cd666RslKo", "remark": "", "st_area(shape)": 0.0002673351962605592, "st_perimeter(shape)": 0.0782423115404321}}]}
