{"type":"Topology","arcs":[[[44511,98807],[598,-4769],[-3193,-9389],[0,-7452]],[[41916,77197],[-7785,1640]],[[34131,78837],[-11976,2682]],[[22155,81519],[1597,12072],[2994,3874],[10978,0],[6787,1342]],[[68263,91355],[-4591,-9538]],[[63672,81817],[-200,-149]],[[63472,81668],[-9780,4620],[-2794,-8942],[-5389,-447]],[[45509,76899],[-3593,298]],[[44511,98807],[6586,-1342],[5190,2534],[3193,-3577],[8783,-5067]],[[56486,72130],[-5189,-3129],[-6986,-1789]],[[44311,67212],[1198,9687]],[[63472,81668],[-1596,-4918],[-5390,-4620]],[[78243,75856],[-998,-5514]],[[77245,70342],[-4791,-2086],[-6586,596]],[[65868,68852],[-9382,3278]],[[63672,81817],[11178,-5514],[3393,-447]],[[86626,75558],[-8383,298]],[[68263,91355],[14770,-3278],[399,-2981],[-4790,-7601],[7984,-1937]],[[88023,64977],[-9181,-2534]],[[78842,62443],[-1597,7899]],[[86626,75558],[3792,-2831],[3593,1341],[3194,-9091]],[[97205,64977],[-9182,0]],[[66866,60208],[2594,6259],[-3592,2385]],[[78842,62443],[-998,-745]],[[77844,61698],[-2795,-2682]],[[75049,59016],[-8183,1192]],[[47305,61251],[-2794,5812]],[[44511,67063],[-200,149]],[[66866,60208],[-7386,-298],[-6586,-2981]],[[52894,56929],[-5589,4322]],[[57085,52906],[-4191,4023]],[[75049,59016],[-3193,-4620],[-14771,-1490]],[[77844,61698],[-3793,-7302]],[[74051,54396],[-7784,-6855]],[[66267,47541],[-9182,5365]],[[82834,56482],[-8783,-2086]],[[88023,64977],[2595,-3577],[-1597,-3725],[-6187,-1193]],[[96207,50521],[-10180,-3279]],[[86027,47242],[-4391,4769]],[[81636,52011],[1198,4471]],[[97205,64977],[2794,-9389],[-3792,-5067]],[[81636,52011],[-3393,298],[-1397,-5961],[-9382,0]],[[67464,46348],[-1197,1193]],[[86027,47242],[-7984,-9836]],[[78043,37406],[-1397,299]],[[76646,37705],[-6387,2831]],[[70259,40536],[-2795,5812]],[[96207,50521],[-2795,-9389],[-5189,-5514]],[[88223,35618],[-10180,1788]],[[85229,30253],[-7785,-447],[-3992,-2086]],[[73452,27720],[-199,1192]],[[73253,28912],[3393,8793]],[[88223,35618],[-2994,-5365]],[[85229,30253],[4191,-7899],[399,-3725]],[[89819,18629],[-7584,0],[-1397,3875],[-7386,5216]],[[64870,25186],[0,745]],[[64870,25931],[4590,3726]],[[69460,29657],[3793,-745]],[[89819,18629],[-1996,-3279],[-5788,-894],[-6587,6408],[-10578,4322]],[[69460,29657],[0,3428]],[[69460,33085],[799,7451]],[[64870,25931],[-5988,894],[-2396,3726]],[[56486,30551],[3793,2534],[9181,0]],[[59480,44411],[6787,3130]],[[56486,30551],[-3592,0]],[[52894,30551],[2395,8495]],[[55289,39046],[5988,1639],[-1797,3726]],[[55089,19523],[-9780,8048]],[[45309,27571],[7585,2980]],[[64870,25186],[-7386,-2682],[-2395,-2981]],[[37325,34128],[17964,4918]],[[45309,27571],[-3992,2831]],[[41317,30402],[-3992,3726]],[[55089,19523],[-1197,-3130]],[[53892,16393],[-17365,149],[-3194,7899]],[[33333,24441],[5988,1341],[1996,4620]],[[26746,25782],[399,2832]],[[27145,28614],[2196,2533],[599,7154]],[[29940,38301],[7385,-4173]],[[33333,24441],[-6587,1341]],[[15170,3130],[12375,7153],[-1597,8942],[-8184,1341]],[[17764,20566],[7186,2087],[1796,3129]],[[53892,16393],[-10180,-3278],[-15968,-7601],[-12574,-2384]],[[1198,10879],[10578,3726],[599,3726],[5389,2235]],[[15170,3130],[-10779,-3130],[-4391,6706],[1198,4173]],[[17565,30253],[9580,-1639]],[[1198,10879],[399,7601],[9181,596],[7385,5216],[-598,5961]],[[16966,48584],[9780,-8048]],[[26746,40536],[3194,-2235]],[[17565,30253],[-4192,8197],[1797,9389],[1796,745]],[[26746,40536],[9781,2981]],[[36527,43517],[10379,-149],[1197,2086]],[[48103,45454],[11377,-1043]],[[48103,45454],[-798,8346]],[[47305,53800],[2595,1639],[-2595,5812]],[[36527,43517],[0,4322],[-10380,-298],[-1796,4768],[1198,3726]],[[25549,56035],[16566,-4918],[5190,2683]],[[16966,55439],[4591,447]],[[21557,55886],[3992,149]],[[16966,48584],[2395,3427],[-2395,3428]],[[34131,78837],[-2994,-5067],[-199,-10134]],[[30938,63636],[-3393,1043],[-5390,-3726],[-598,-5067]],[[16966,55439],[-1996,5514],[2195,9240],[-1796,3130],[6587,4471],[199,3725]],[[30938,63636],[4591,2831],[8982,596]]],"transform":{"scale":[5.010050100501053e-7,6.710067100671e-7],"translate":[76.3025,10.2781]},"objects":{"wards":{"type":"GeometryCollection","geometries":[{"arcs":[[0,1,2,3]],"type":"Polygon","properties":{"objectid":292511,"statename":"Kerala","statecode":"32","districtname":"Thrissur","districtcode":"594","ulbname":"Chalakkudy (M)","ulbcode":"803283","wardname":"Ward 1","wardcode":"1","id":null,"status":"APPROVED","misglobalid":null,"approved_by":null,"createdate":1664175968000,"updateddate":1670846011000,"globalid":null,"gisglobalid":"QaRP4do4-Q5K6-Po4K-a5Km-mad4omPQ4n66","remark":"","st_area(shape)":0.00012289986222250142,"st_perimeter(shape)":0.04903371795991591}},{"arcs":[[4,5,6,7,-1,8]],"type":"Polygon","properties":{"objectid":292056,"statename":"Kerala","statecode":"32","districtname":"Thrissur","districtcode":"594","ulbname":"Chalakkudy (M)","ulbcode":"803283","wardname":"Ward 2","wardcode":"2","id":null,"status":"APPROVED","misglobalid":null,"approved_by":null,"createdate":1664175968000,"updateddate":1670846019000,"globalid":null,"gisglobalid":"nlcPRodQ-6PRP-P6Kl-QKlc-cQlma6ldc5R4","remark":"","st_area(shape)":0.00012395489289551494,"st_perimeter(shape)":0.057383327878335416}},{"arcs":[[9,10,-7,11]],"type":"Polygon","properties":{"objectid":291658,"statename":"Kerala","statecode":"32","districtname":"Thrissur","districtcode":"594","ulbname":"Chalakkudy (M)","ulbcode":"803283","wardname":"Ward 3","wardcode":"3","id":null,"status":"APPROVED","misglobalid":null,"approved_by":null,"createdate":1664175968000,"updateddate":1670915532000,"globalid":null,"gisglobalid":"5nsBdlR4-m5sd-PoRa-s6P5-aBn5KBmam4Pc","remark":"","st_area(shape)":0.00005848816695265039,"st_perimeter(shape)":0.04274277924754858}},{"arcs":[[12,13,14,-12,-6,15]],"type":"Polygon","properties":{"objectid":293345,"statename":"Kerala","statecode":"32","districtname":"Thrissur","districtcode":"594","ulbname":"Chalakkudy (M)","ulbcode":"803283","wardname":"Ward 4","wardcode":"4","id":null,"status":"APPROVED","misglobalid":null,"approved_by":null,"createdate":1664175968000,"updateddate":1670915539000,"globalid":null,"gisglobalid":"5PQssadn-olld-PKcs-Qndo-cm4d4ssnd5mQ","remark":"","st_area(shape)":0.000055661461972051035,"st_perimeter(shape)":0.03235364350786309}},{"arcs":[[16,-16,-5,17]],"type":"Polygon","properties":{"objectid":293359,"statename":"Kerala","statecode":"32","districtname":"Thrissur","districtcode":"594","ulbname":"Chalakkudy (M)","ulbcode":"803283","wardname":"Ward 5","wardcode":"5","id":null,"status":"APPROVED","misglobalid":null,"approved_by":null,"createdate":1664175968000,"updateddate":1670915553000,"globalid":null,"gisglobalid":"QKQaacRn-QcBQ-Pand-am4o-nn5BKc5aBRcd","remark":"","st_area(shape)":0.00007197502356380352,"st_perimeter(shape)":0.04466518094855934}},{"arcs":[[18,19,-13,-17,20,21]],"type":"Polygon","properties":{"objectid":293354,"statename":"Kerala","statecode":"32","districtname":"Thrissur","districtcode":"594","ulbname":"Chalakkudy (M)","ulbcode":"803283","wardname":"Ward 6","wardcode":"6","id":null,"status":"APPROVED","misglobalid":null,"approved_by":null,"createdate":1664175968000,"updateddate":1670846027000,"globalid":null,"gisglobalid":"RBPPBoPn-daK4-PPc5-aamQ-ao44Rd6Pnscl","remark":"","st_area(shape)":0.00006388083223084343,"st_perimeter(shape)":0.03633940508681587}},{"arcs":[[22,-14,-20,23,24,25]],"type":"Polygon","properties":{"objectid":293348,"statename":"Kerala","statecode":"32","districtname":"Thrissur","districtcode":"594","ulbname":"Chalakkudy (M)","ulbcode":"803283","wardname":"Ward 7","wardcode":"7","id":null,"status":"APPROVED","misglobalid":null,"approved_by":null,"createdate":1664175968000,"updateddate":1670846039000,"globalid":null,"gisglobalid":"BlRPRaPB-lRmo-PnKd-sKa4-6oo54QdQ54KK","remark":"","st_area(shape)":0.000031660118928349216,"st_perimeter(shape)":0.02696587631432264}},{"arcs":[[26,27,-10,-15,-23,28,29]],"type":"Polygon","properties":{"objectid":292515,"statename":"Kerala","statecode":"32","districtname":"Thrissur","districtcode":"594","ulbname":"Chalakkudy (M)","ulbcode":"803283","wardname":"Ward 8","wardcode":"8","id":null,"status":"APPROVED","misglobalid":null,"approved_by":null,"createdate":1664175968000,"updateddate":1670846046000,"globalid":null,"gisglobalid":"45msmndP-5ld4-PolK-Q5ln-RK44o4sa5olm","remark":"","st_area(shape)":0.00008015598612283818,"st_perimeter(shape)":0.0406420221312273}},{"arcs":[[30,-29,-26,31]],"type":"Polygon","properties":{"objectid":292514,"statename":"Kerala","statecode":"32","districtname":"Thrissur","districtcode":"594","ulbname":"Chalakkudy (M)","ulbcode":"803283","wardname":"Ward 9","wardcode":"9","id":null,"status":"APPROVED","misglobalid":null,"approved_by":null,"createdate":1664175968000,"updateddate":1670915523000,"globalid":null,"gisglobalid":"KoadcPKa-mcdm-PnnQ-sRKm-KB4c6d45aBs4","remark":"","st_area(shape)":0.00004052233532901381,"st_perimeter(shape)":0.02687997211928471}},{"arcs":[[-32,-25,32,33,34]],"type":"Polygon","properties":{"objectid":292057,"statename":"Kerala","statecode":"32","districtname":"Thrissur","districtcode":"594","ulbname":"Chalakkudy (M)","ulbcode":"803283","wardname":"Ward 10","wardcode":"10","id":null,"status":"APPROVED","misglobalid":null,"approved_by":null,"createdate":1664175968000,"updateddate":1670915505000,"globalid":null,"gisglobalid":"ll66mold-6KKc-Plds-QKKR-lQRml6Kd6ca6","remark":"","st_area(shape)":0.000021701625964297473,"st_perimeter(shape)":0.030693547557587093}},{"arcs":[[35,-33,-24,-19,36]],"type":"Polygon","properties":{"objectid":292512,"statename":"Kerala","statecode":"32","districtname":"Thrissur","districtcode":"594","ulbname":"Chalakkudy (M)","ulbcode":"803283","wardname":"Ward 11","wardcode":"11","id":null,"status":"APPROVED","misglobalid":null,"approved_by":null,"createdate":1664175968000,"updateddate":1670915499000,"globalid":null,"gisglobalid":"lo6nn6RQ-n6oK-PBms-sRa6-laoRRQmcB5ol","remark":"","st_area(shape)":0.000031213484401965514,"st_perimeter(shape)":0.02729298328423136}},{"arcs":[[37,38,39,-37,-22,40]],"type":"Polygon","properties":{"objectid":292058,"statename":"Kerala","statecode":"32","districtname":"Thrissur","districtcode":"594","ulbname":"Chalakkudy (M)","ulbcode":"803283","wardname":"Ward 12","wardcode":"12","id":null,"status":"APPROVED","misglobalid":null,"approved_by":null,"createdate":1664175968000,"updateddate":1670915492000,"globalid":null,"gisglobalid":"dR6s55KK-Kmn4-PRlK-RmRl-oQQ5a6m46Bla","remark":"","st_area(shape)":0.00006899650100856356,"st_perimeter(shape)":0.03878524791956709}},{"arcs":[[-40,41,42,-34,-36]],"type":"Polygon","properties":{"objectid":293346,"statename":"Kerala","statecode":"32","districtname":"Thrissur","districtcode":"594","ulbname":"Chalakkudy (M)","ulbcode":"803283","wardname":"Ward 13","wardcode":"13","id":null,"status":"APPROVED","misglobalid":null,"approved_by":null,"createdate":1664175968000,"updateddate":1670915486000,"globalid":null,"gisglobalid":"sQ5caBdo-ncda-P4sR-aRBs-4mosoPsQnQP4","remark":"","st_area(shape)":0.00002605197779721588,"st_perimeter(shape)":0.026783269668128676}},{"arcs":[[-39,43,44,45,46,-42]],"type":"Polygon","properties":{"objectid":291659,"statename":"Kerala","statecode":"32","districtname":"Thrissur","districtcode":"594","ulbname":"Chalakkudy (M)","ulbcode":"803283","wardname":"Ward 14","wardcode":"14","id":null,"status":"APPROVED","misglobalid":null,"approved_by":null,"createdate":1664175968000,"updateddate":1670915479000,"globalid":null,"gisglobalid":"BBsodnn5-an5R-PaKo-s4md-R6m6KRcdR5sl","remark":"","st_area(shape)":0.00004315679716406901,"st_perimeter(shape)":0.03283197113014359}},{"arcs":[[47,48,-44,-38]],"type":"Polygon","properties":{"objectid":292513,"statename":"Kerala","statecode":"32","districtname":"Thrissur","districtcode":"594","ulbname":"Chalakkudy (M)","ulbcode":"803283","wardname":"Ward 15","wardcode":"15","id":null,"status":"APPROVED","misglobalid":null,"approved_by":null,"createdate":1664175968000,"updateddate":1670915471000,"globalid":null,"gisglobalid":"PsBKQ6P4-4QPo-P66d-slc4-a6KPR6lmKQn4","remark":"","st_area(shape)":0.00004519295978855688,"st_perimeter(shape)":0.029645660004063705}},{"arcs":[[49,50,51,-45,-49,52]],"type":"Polygon","properties":{"objectid":291657,"statename":"Kerala","statecode":"32","districtname":"Thrissur","districtcode":"594","ulbname":"Chalakkudy (M)","ulbcode":"803283","wardname":"Ward 16","wardcode":"16","id":null,"status":"APPROVED","misglobalid":null,"approved_by":null,"createdate":1664175968000,"updateddate":1670915573000,"globalid":null,"gisglobalid":"l55sKlaP-d6c5-PQQm-Qd5m-sQs5caolPoQo","remark":"","st_area(shape)":0.000030409954799626905,"st_perimeter(shape)":0.02534354969151934}},{"arcs":[[53,54,-50]],"type":"Polygon","properties":{"objectid":292517,"statename":"Kerala","statecode":"32","districtname":"Thrissur","districtcode":"594","ulbname":"Chalakkudy (M)","ulbcode":"803283","wardname":"Ward 17","wardcode":"17","id":null,"status":"APPROVED","misglobalid":null,"approved_by":null,"createdate":1664175968000,"updateddate":1670915456000,"globalid":null,"gisglobalid":"5dBd4oRK-o5B6-PddP-RBd5-lBcs5mK6dKQc","remark":"","st_area(shape)":0.00003817417815691945,"st_perimeter(shape)":0.028547362773712986}},{"arcs":[[55,56,57,-51,-55,58]],"type":"Polygon","properties":{"objectid":292518,"statename":"Kerala","statecode":"32","districtname":"Thrissur","districtcode":"594","ulbname":"Chalakkudy (M)","ulbcode":"803283","wardname":"Ward 18","wardcode":"18","id":null,"status":"APPROVED","misglobalid":null,"approved_by":null,"createdate":1664175968000,"updateddate":1670915450000,"globalid":null,"gisglobalid":"c4BaaRQB-K5mB-PdPs-asn4-n6K4dlaKQn4P","remark":"","st_area(shape)":0.0000368782413790001,"st_perimeter(shape)":0.03782203269380597}},{"arcs":[[-46,-52,-58,59,60]],"type":"Polygon","properties":{"objectid":292055,"statename":"Kerala","statecode":"32","districtname":"Thrissur","districtcode":"594","ulbname":"Chalakkudy (M)","ulbcode":"803283","wardname":"Ward 19","wardcode":"19","id":null,"status":"APPROVED","misglobalid":null,"approved_by":null,"createdate":1664175968000,"updateddate":1670915415000,"globalid":null,"gisglobalid":"a5smdQ5o-n6nK-Pl56-RKnK-dmdmoocnlcPm","remark":"","st_area(shape)":0.000017891447221891764,"st_perimeter(shape)":0.020916449888136256}},{"arcs":[[61,62,-60,-57]],"type":"Polygon","properties":{"objectid":293350,"statename":"Kerala","statecode":"32","districtname":"Thrissur","districtcode":"594","ulbname":"Chalakkudy (M)","ulbcode":"803283","wardname":"Ward 20","wardcode":"20","id":null,"status":"APPROVED","misglobalid":null,"approved_by":null,"createdate":1664175968000,"updateddate":1670915407000,"globalid":null,"gisglobalid":"KooBad5n-s4dc-Pn4o-s65Q-a5K5KKoodnQ5","remark":"","st_area(shape)":0.00003061042398695417,"st_perimeter(shape)":0.027936312213477945}},{"arcs":[[63,-43,-47,-61,-63,64,65,66]],"type":"Polygon","properties":{"objectid":292060,"statename":"Kerala","statecode":"32","districtname":"Thrissur","districtcode":"594","ulbname":"Chalakkudy (M)","ulbcode":"803283","wardname":"Ward 21","wardcode":"21","id":null,"status":"APPROVED","misglobalid":null,"approved_by":null,"createdate":1664175968000,"updateddate":1670915400000,"globalid":null,"gisglobalid":"m66cQ6mR-m5Ro-P4dm-aB6Q-l4aQnoo4Q44n","remark":"","st_area(shape)":0.0000539514290162312,"st_perimeter(shape)":0.041023494359164726}},{"arcs":[[67,68,-65,-62,-56,69]],"type":"Polygon","properties":{"objectid":293352,"statename":"Kerala","statecode":"32","districtname":"Thrissur","districtcode":"594","ulbname":"Chalakkudy (M)","ulbcode":"803283","wardname":"Ward 22","wardcode":"22","id":null,"status":"APPROVED","misglobalid":null,"approved_by":null,"createdate":1664175968000,"updateddate":1670915392000,"globalid":null,"gisglobalid":"Qnla5QQm-smnm-P5da-am6K-QPaKQanad4mc","remark":"","st_area(shape)":0.000030165356969438597,"st_perimeter(shape)":0.029523350777204197}},{"arcs":[[70,-66,-69,71,72]],"type":"Polygon","properties":{"objectid":293351,"statename":"Kerala","statecode":"32","districtname":"Thrissur","districtcode":"594","ulbname":"Chalakkudy (M)","ulbcode":"803283","wardname":"Ward 23","wardcode":"23","id":null,"status":"APPROVED","misglobalid":null,"approved_by":null,"createdate":1664175968000,"updateddate":1670915383000,"globalid":null,"gisglobalid":"5KBQPc5B-B5BP-Pnnl-asQc-m4Romll6BPK6","remark":"","st_area(shape)":0.00003742259775511861,"st_perimeter(shape)":0.02636956112983891}},{"arcs":[[73,74,75,-72,-68]],"type":"Polygon","properties":{"objectid":293349,"statename":"Kerala","statecode":"32","districtname":"Thrissur","districtcode":"594","ulbname":"Chalakkudy (M)","ulbcode":"803283","wardname":"Ward 24","wardcode":"24","id":null,"status":"APPROVED","misglobalid":null,"approved_by":null,"createdate":1664175968000,"updateddate":1670915375000,"globalid":null,"gisglobalid":"QBP4aRBm-aods-PKmQ-RQn4-san5KsRBoBnd","remark":"","st_area(shape)":0.00006355871776084367,"st_perimeter(shape)":0.034986986670921996}},{"arcs":[[76,77,78,-73,-76,79]],"type":"Polygon","properties":{"objectid":293358,"statename":"Kerala","statecode":"32","districtname":"Thrissur","districtcode":"594","ulbname":"Chalakkudy (M)","ulbcode":"803283","wardname":"Ward 25","wardcode":"25","id":null,"status":"APPROVED","misglobalid":null,"approved_by":null,"createdate":1664175968000,"updateddate":1670915368000,"globalid":null,"gisglobalid":"colcRsKl-msQc-PBsK-Qals-54PmsKddsKcK","remark":"","st_area(shape)":0.00004070292115599085,"st_perimeter(shape)":0.029496843504115227}},{"arcs":[[80,81,-80,-75,82]],"type":"Polygon","properties":{"objectid":293347,"statename":"Kerala","statecode":"32","districtname":"Thrissur","districtcode":"594","ulbname":"Chalakkudy (M)","ulbcode":"803283","wardname":"Ward 26","wardcode":"26","id":null,"status":"APPROVED","misglobalid":null,"approved_by":null,"createdate":1664175968000,"updateddate":1670915356000,"globalid":null,"gisglobalid":"os6B4aso-4Kns-PoRm-Qmcn-oQ5aBc4mP6ao","remark":"","st_area(shape)":0.00009684050487485702,"st_perimeter(shape)":0.06779902634105354}},{"arcs":[[83,-81,84]],"type":"Polygon","properties":{"objectid":293353,"statename":"Kerala","statecode":"32","districtname":"Thrissur","districtcode":"594","ulbname":"Chalakkudy (M)","ulbcode":"803283","wardname":"Ward 27","wardcode":"27","id":null,"status":"APPROVED","misglobalid":null,"approved_by":null,"createdate":1664175968000,"updateddate":1670915347000,"globalid":null,"gisglobalid":"o6a5manB-RacB-PcR6-Rm4K-QadoRdonddRa","remark":"","st_area(shape)":0.00011392012219652337,"st_perimeter(shape)":0.05511906542913841}},{"arcs":[[85,-77,-82,-84,86]],"type":"Polygon","properties":{"objectid":292062,"statename":"Kerala","statecode":"32","districtname":"Thrissur","districtcode":"594","ulbname":"Chalakkudy (M)","ulbcode":"803283","wardname":"Ward 28","wardcode":"28","id":null,"status":"APPROVED","misglobalid":null,"approved_by":null,"createdate":1664175968000,"updateddate":1670915338000,"globalid":null,"gisglobalid":"mQcocQ5o-Bs64-PQnm-smdn-asR4PaPBsaPn","remark":"","st_area(shape)":0.00004567879117312361,"st_perimeter(shape)":0.046055939344349886}},{"arcs":[[87,88,-78,-86,89]],"type":"Polygon","properties":{"objectid":292061,"statename":"Kerala","statecode":"32","districtname":"Thrissur","districtcode":"594","ulbname":"Chalakkudy (M)","ulbcode":"803283","wardname":"Ward 29","wardcode":"29","id":null,"status":"APPROVED","misglobalid":null,"approved_by":null,"createdate":1664175968000,"updateddate":1670915329000,"globalid":null,"gisglobalid":"oP5s5Bd5-RRQn-PdKP-QdKK-PnaoKRRPllPP","remark":"","st_area(shape)":0.00006773260968150623,"st_perimeter(shape)":0.03848403864824822}},{"arcs":[[-71,-79,-89,90,91,92,-67]],"type":"Polygon","properties":{"objectid":291660,"statename":"Kerala","statecode":"32","districtname":"Thrissur","districtcode":"594","ulbname":"Chalakkudy (M)","ulbcode":"803283","wardname":"Ward 30","wardcode":"30","id":null,"status":"APPROVED","misglobalid":null,"approved_by":null,"createdate":1664175968000,"updateddate":1670915280000,"globalid":null,"gisglobalid":"Rac4mBmQ-aKB6-PQl4-sl5Q-mK5alsooaBmP","remark":"","st_area(shape)":0.0000725563549437299,"st_perimeter(shape)":0.041200917917176}},{"arcs":[[-64,-93,93,94,-30,-31,-35]],"type":"Polygon","properties":{"objectid":292059,"statename":"Kerala","statecode":"32","districtname":"Thrissur","districtcode":"594","ulbname":"Chalakkudy (M)","ulbcode":"803283","wardname":"Ward 31","wardcode":"31","id":null,"status":"APPROVED","misglobalid":null,"approved_by":null,"createdate":1664175968000,"updateddate":1670915266000,"globalid":null,"gisglobalid":"o6RPmK44-l56B-P6K6-aQd6-o4mam4lRKadK","remark":"","st_area(shape)":0.00004677290100311248,"st_perimeter(shape)":0.035791982659623266}},{"arcs":[[95,96,-94,-92]],"type":"Polygon","properties":{"objectid":292516,"statename":"Kerala","statecode":"32","districtname":"Thrissur","districtcode":"594","ulbname":"Chalakkudy (M)","ulbcode":"803283","wardname":"Ward 32","wardcode":"32","id":null,"status":"APPROVED","misglobalid":null,"approved_by":null,"createdate":1664175968000,"updateddate":1670915257000,"globalid":null,"gisglobalid":"sdQ6cmn4-5Kcn-Pmc6-scdn-PR4Qddn6nRn4","remark":"","st_area(shape)":0.000060127844635835125,"st_perimeter(shape)":0.04050989245891859}},{"arcs":[[97,98,-96,-91,-88,99]],"type":"Polygon","properties":{"objectid":293355,"statename":"Kerala","statecode":"32","districtname":"Thrissur","districtcode":"594","ulbname":"Chalakkudy (M)","ulbcode":"803283","wardname":"Ward 33","wardcode":"33","id":null,"status":"APPROVED","misglobalid":null,"approved_by":null,"createdate":1664175968000,"updateddate":1670915245000,"globalid":null,"gisglobalid":"BnRacd5o-aoaP-PB4a-RR4c-so5BRR5aPmdl","remark":"","st_area(shape)":0.00005112361651322091,"st_perimeter(shape)":0.03749840693167289}},{"arcs":[[-3,100,101,-98,102]],"type":"Polygon","properties":{"objectid":291661,"statename":"Kerala","statecode":"32","districtname":"Thrissur","districtcode":"594","ulbname":"Chalakkudy (M)","ulbcode":"803283","wardname":"Ward 34","wardcode":"34","id":null,"status":"APPROVED","misglobalid":null,"approved_by":null,"createdate":1664175968000,"updateddate":1670915225000,"globalid":null,"gisglobalid":"lKPPcK4B-do65-P66n-Q6QR-RaPKa4445Ban","remark":"","st_area(shape)":0.00009358189580003343,"st_perimeter(shape)":0.049867498955944674}},{"arcs":[[-95,-97,-99,-102,103,-27]],"type":"Polygon","properties":{"objectid":293357,"statename":"Kerala","statecode":"32","districtname":"Thrissur","districtcode":"594","ulbname":"Chalakkudy (M)","ulbcode":"803283","wardname":"Ward 35","wardcode":"35","id":null,"status":"APPROVED","misglobalid":null,"approved_by":null,"createdate":1664175968000,"updateddate":1670915215000,"globalid":null,"gisglobalid":"KPnQoQdd-BaP4-PKmo-R6B4-RlnKKPRnodoQ","remark":"","st_area(shape)":0.00009713567390888394,"st_perimeter(shape)":0.04285203712518392}},{"arcs":[[-2,-8,-11,-28,-104,-101]],"type":"Polygon","properties":{"objectid":293356,"statename":"Kerala","statecode":"32","districtname":"Thrissur","districtcode":"594","ulbname":"Chalakkudy (M)","ulbcode":"803283","wardname":"Ward 36","wardcode":"36","id":null,"status":"APPROVED","misglobalid":null,"approved_by":null,"createdate":1664175968000,"updateddate":1670915204000,"globalid":null,"gisglobalid":"nKssKBQs-55s5-PQnl-s4Bn-R4dRacdQBdPc","remark":"","st_area(shape)":0.00005630766956555191,"st_perimeter(shape)":0.033013840216405715}}]}}}