{"type": "FeatureCollection", "features": [{"type": "Feature", "geometry": {"type": "Polygon", "coordinates": [[[73.8915, 17.9604], [73.8942, 17.9602], [73.8966, 17.9595], [73.9004, 17.9585], [73.9021, 17.958], [73.9026, 17.9579], [73.9026, 17.9576], [73.9025, 17.9573], [73.9024, 17.9569], [73.9022, 17.9559], [73.9021, 17.9553], [73.9018, 17.9536], [73.9, 17.9539], [73.8982, 17.9534], [73.8979, 17.9531], [73.8975, 17.9531], [73.8977, 17.9536], [73.898, 17.9539], [73.8974, 17.954], [73.8973, 17.954], [73.897, 17.9541], [73.8956, 17.9544], [73.8959, 17.9554], [73.8964, 17.9553], [73.8966, 17.9557], [73.8962, 17.9558], [73.8959, 17.956], [73.8952, 17.9559], [73.8952, 17.9561], [73.895, 17.9562], [73.8948, 17.9557], [73.8948, 17.9556], [73.8946, 17.9553], [73.8932, 17.9553], [73.8932, 17.9547], [73.8924, 17.9547], [73.8924, 17.9551], [73.8916, 17.9552], [73.8909, 17.9554], [73.8909, 17.956], [73.8909, 17.9565], [73.8909, 17.957], [73.8909, 17.9574], [73.8909, 17.9577], [73.8912, 17.9587], [73.8912, 17.9589], [73.8915, 17.9604]]]}, "properties": {"objectid": 162484, "statename": "Maharashtra", "statecode": "27", "districtname": "", "districtcode": "527", "ulbname": "Wai", "ulbcode": "802865", "wardname": "Raviwar Peth01", "wardcode": "1", "id": null, "status": "APPROVED", "misglobalid": null, "approved_by": null, "createdate": 1645558809000, "updateddate": 1646636043000, "globalid": null, "gisglobalid": "anKQ4Kmm-n6n6-PBmK-sQd6-s464cdRKBcoB", "remark": "Ward No 1", "st_area(shape)": 5.517507175965448e-05, "st_perimeter(shape)": 0.038580344809631816}}, {"type": "Feature", "geometry": {"type": "Polygon", "coordinates": [[[73.9018, 17.9536], [73.9011, 17.9501], [73.898, 17.9429], [73.8967, 17.9431], [73.8958, 17.9438], [73.8957, 17.9438], [73.8956, 17.9439], [73.8954, 17.9439], [73.8949, 17.944], [73.8943, 17.9451], [73.8942, 17.9459], [73.894, 17.947], [73.8934, 17.9487], [73.8929, 17.9501], [73.8933, 17.9503], [73.8934, 17.9507], [73.8934, 17.9508], [73.8934, 17.9513], [73.8935, 17.952], [73.8936, 17.9523], [73.8937, 17.9524], [73.8951, 17.9522], [73.8951, 17.9523], [73.8953, 17.9523], [73.8957, 17.9522], [73.8958, 17.9522], [73.896, 17.9522], [73.8961, 17.9522], [73.8965, 17.9522], [73.8967, 17.9527], [73.897, 17.9527], [73.8974, 17.9529], [73.8975, 17.9531], [73.8979, 17.9531], [73.8982, 17.9534], [73.8994, 17.9538], [73.9, 17.9539], [73.9018, 17.9536]]]}, "properties": {"objectid": 172358, "statename": "Maharashtra", "statecode": "27", "districtname": "", "districtcode": "527", "ulbname": "Wai", "ulbcode": "802865", "wardname": "Phulenagar", "wardcode": "2", "id": null, "status": "APPROVED", "misglobalid": null, "approved_by": null, "createdate": 1645519808000, "updateddate": 1646636255000, "globalid": null, "gisglobalid": "5oRd5R4n-aRco-PcmB-smcR-mRm44acmPmBn", "remark": "Ward No 2", "st_area(shape)": 6.138296999226478e-05, "st_perimeter(shape)": 0.03284688675581888}}, {"type": "Feature", "geometry": {"type": "Polygon", "coordinates": [[[73.8951, 17.9523], [73.8951, 17.9522], [73.8937, 17.9524], [73.8938, 17.9529], [73.8939, 17.9534], [73.8939, 17.9537], [73.894, 17.9538], [73.8941, 17.9537], [73.8942, 17.9542], [73.8941, 17.9546], [73.8932, 17.9547], [73.8932, 17.9553], [73.8946, 17.9553], [73.8947, 17.9555], [73.8948, 17.9556], [73.8948, 17.9557], [73.8949, 17.9562], [73.895, 17.9562], [73.8952, 17.9562], [73.8952, 17.9559], [73.8956, 17.9559], [73.8957, 17.9559], [73.8958, 17.956], [73.8959, 17.956], [73.896, 17.9559], [73.8962, 17.9558], [73.8966, 17.9557], [73.8964, 17.9553], [73.8959, 17.9554], [73.8956, 17.9544], [73.8964, 17.9542], [73.8971, 17.9541], [73.8973, 17.954], [73.8974, 17.9541], [73.8979, 17.954], [73.898, 17.954], [73.8981, 17.954], [73.8978, 17.9536], [73.8975, 17.9531], [73.8974, 17.9529], [73.897, 17.9527], [73.8967, 17.9527], [73.8965, 17.9522], [73.8961, 17.9522], [73.896, 17.9522], [73.8958, 17.9522], [73.8957, 17.9522], [73.8954, 17.9522], [73.8953, 17.9523], [73.8951, 17.9523]]]}, "properties": {"objectid": 45827, "statename": "Maharashtra", "statecode": "27", "districtname": "", "districtcode": "527", "ulbname": "Wai", "ulbcode": "802865", "wardname": "Raviwar Peth 02", "wardcode": "3", "id": null, "status": "APPROVED", "misglobalid": null, "approved_by": null, "createdate": 1645519831000, "updateddate": 1646644603000, "globalid": null, "gisglobalid": "KQoRBn6Q-n5QR-P5dn-scPo-PmaQKs6Bc5Bo", "remark": "Ward No 3", "st_area(shape)": 1.0281239011393766e-05, "st_perimeter(shape)": 0.018477829749179706}}, {"type": "Feature", "geometry": {"type": "Polygon", "coordinates": [[[73.8894, 17.9549], [73.8897, 17.9549], [73.8915, 17.9547], [73.8924, 17.9547], [73.8932, 17.9547], [73.8941, 17.9546], [73.8942, 17.9542], [73.8941, 17.9537], [73.894, 17.9538], [73.8939, 17.9537], [73.8937, 17.9524], [73.8936, 17.9523], [73.8935, 17.952], [73.8934, 17.9512], [73.8934, 17.9508], [73.8934, 17.9507], [73.8933, 17.9503], [73.8929, 17.9501], [73.8929, 17.9503], [73.8928, 17.9508], [73.8927, 17.951], [73.8927, 17.9512], [73.8927, 17.9513], [73.8924, 17.9516], [73.8922, 17.9517], [73.892, 17.9515], [73.8917, 17.9514], [73.8915, 17.951], [73.8911, 17.9507], [73.8905, 17.9508], [73.8897, 17.9511], [73.8892, 17.9514], [73.8885, 17.9515], [73.8885, 17.9526], [73.8887, 17.9531], [73.8888, 17.9539], [73.8891, 17.9539], [73.8892, 17.9541], [73.8894, 17.9549]]]}, "properties": {"objectid": 45125, "statename": "Maharashtra", "statecode": "27", "districtname": "", "districtcode": "527", "ulbname": "Wai", "ulbcode": "802865", "wardname": "Brahmanshahi Ramdoh Ali", "wardcode": "4", "id": null, "status": "APPROVED", "misglobalid": null, "approved_by": null, "createdate": 1645519851000, "updateddate": 1646636435000, "globalid": null, "gisglobalid": "4mnn446n-Q4l6-Po6a-Q5Qo-6cc4d44llQRQ", "remark": "Ward No 4", "st_area(shape)": 1.8587306245692925e-05, "st_perimeter(shape)": 0.019851798391392346}}, {"type": "Feature", "geometry": {"type": "Polygon", "coordinates": [[[73.8887, 17.9531], [73.8885, 17.9526], [73.8885, 17.9515], [73.8876, 17.9517], [73.8867, 17.952], [73.8866, 17.9521], [73.886, 17.9523], [73.8856, 17.9524], [73.8855, 17.9533], [73.8858, 17.9543], [73.8859, 17.9559], [73.8866, 17.9559], [73.8866, 17.9555], [73.8875, 17.9554], [73.8876, 17.9563], [73.8888, 17.9561], [73.8891, 17.9559], [73.8898, 17.9558], [73.8897, 17.9549], [73.8894, 17.9549], [73.8892, 17.9541], [73.8891, 17.9539], [73.8888, 17.9539], [73.8887, 17.9531]]]}, "properties": {"objectid": 46622, "statename": "Maharashtra", "statecode": "27", "districtname": "", "districtcode": "527", "ulbname": "Wai", "ulbcode": "802865", "wardname": "Ganpati Ali", "wardcode": "5", "id": null, "status": "APPROVED", "misglobalid": null, "approved_by": null, "createdate": 1645519864000, "updateddate": 1646644615000, "globalid": null, "gisglobalid": "d54odP45-cP5a-P4PR-scRs-lQclcRo5o6Bl", "remark": "Ward No 5", "st_area(shape)": 1.3434153899566536e-05, "st_perimeter(shape)": 0.016864385417038972}}, {"type": "Feature", "geometry": {"type": "Polygon", "coordinates": [[[73.8795, 17.9592], [73.8804, 17.9618], [73.8813, 17.9617], [73.8823, 17.9615], [73.8831, 17.9614], [73.8844, 17.9612], [73.8867, 17.9608], [73.8874, 17.9607], [73.8882, 17.9606], [73.8915, 17.9604], [73.8913, 17.9597], [73.8912, 17.9589], [73.8912, 17.9587], [73.8909, 17.9577], [73.891, 17.9573], [73.8909, 17.9565], [73.8909, 17.9554], [73.8916, 17.9552], [73.8916, 17.9551], [73.8918, 17.9552], [73.8924, 17.9551], [73.8924, 17.9547], [73.8915, 17.9547], [73.8897, 17.955], [73.8898, 17.9558], [73.8891, 17.9559], [73.8888, 17.9561], [73.8876, 17.9563], [73.8875, 17.9554], [73.8866, 17.9555], [73.8866, 17.9559], [73.8859, 17.9559], [73.8858, 17.9543], [73.8852, 17.9543], [73.8852, 17.9547], [73.8849, 17.9547], [73.8848, 17.9542], [73.8842, 17.9549], [73.8843, 17.9557], [73.8839, 17.9558], [73.8839, 17.9587], [73.8834, 17.9587], [73.8833, 17.9571], [73.8826, 17.9571], [73.8826, 17.9561], [73.8822, 17.9561], [73.8822, 17.957], [73.8806, 17.9578], [73.8808, 17.9584], [73.8795, 17.9592]]]}, "properties": {"objectid": 162485, "statename": "Maharashtra", "statecode": "27", "districtname": "", "districtcode": "527", "ulbname": "Wai", "ulbcode": "802865", "wardname": "Dharampuri", "wardcode": "6", "id": null, "status": "APPROVED", "misglobalid": null, "approved_by": null, "createdate": 1645559450000, "updateddate": 1646644631000, "globalid": null, "gisglobalid": "5clao4ol-dm6s-PBoc-sKQR-olBmmdlmalaQ", "remark": "Ward No 6", "st_area(shape)": 5.476479800834506e-05, "st_perimeter(shape)": 0.04720255991622387}}, {"type": "Feature", "geometry": {"type": "Polygon", "coordinates": [[[73.8851, 17.9525], [73.8851, 17.9526], [73.8845, 17.9529], [73.8839, 17.9531], [73.8795, 17.955], [73.8783, 17.9556], [73.8783, 17.9561], [73.8795, 17.9592], [73.8808, 17.9584], [73.8806, 17.9578], [73.8822, 17.957], [73.8822, 17.9561], [73.8826, 17.9561], [73.8826, 17.9571], [73.8833, 17.9571], [73.8834, 17.9587], [73.8839, 17.9587], [73.8839, 17.956], [73.8839, 17.9558], [73.8843, 17.9557], [73.8843, 17.9555], [73.8842, 17.9551], [73.8842, 17.9549], [73.8848, 17.9542], [73.8849, 17.9547], [73.8852, 17.9547], [73.8852, 17.9543], [73.8858, 17.9543], [73.8855, 17.9533], [73.8855, 17.9531], [73.8855, 17.9528], [73.8856, 17.9524], [73.8851, 17.9525]]]}, "properties": {"objectid": 172359, "statename": "Maharashtra", "statecode": "27", "districtname": "", "districtcode": "527", "ulbname": "Wai", "ulbcode": "802865", "wardname": "Gangapuri", "wardcode": "7", "id": null, "status": "APPROVED", "misglobalid": null, "approved_by": null, "createdate": 1645519902000, "updateddate": 1646644643000, "globalid": null, "gisglobalid": "Pnomn4cQ-dnaB-PoPc-saQ6-Rm4Pc6msRolm", "remark": "Ward No 7", "st_area(shape)": 2.241426993713748e-05, "st_perimeter(shape)": 0.029580519632670627}}, {"type": "Feature", "geometry": {"type": "Polygon", "coordinates": [[[73.8783, 17.9556], [73.8851, 17.9526], [73.8848, 17.9524], [73.8849, 17.9522], [73.8848, 17.9517], [73.8845, 17.9512], [73.8847, 17.9511], [73.8849, 17.9515], [73.8854, 17.9514], [73.885, 17.951], [73.8848, 17.9504], [73.8827, 17.95], [73.8815, 17.949], [73.8802, 17.9497], [73.8799, 17.9493], [73.8799, 17.9492], [73.8798, 17.949], [73.879, 17.9494], [73.8778, 17.9505], [73.8783, 17.9556]]]}, "properties": {"objectid": 162434, "statename": "Maharashtra", "statecode": "27", "districtname": "", "districtcode": "527", "ulbname": "Wai", "ulbcode": "802865", "wardname": "Sidhanathwadi", "wardcode": "8", "id": null, "status": "APPROVED", "misglobalid": null, "approved_by": null, "createdate": 1645519912000, "updateddate": 1646644658000, "globalid": null, "gisglobalid": "mnRmdd5l-dnad-Psn5-s5ac-Qd6d4445ocnm", "remark": "Ward No 8", "st_area(shape)": 3.063827654073783e-05, "st_perimeter(shape)": 0.024984765780506284}}, {"type": "Feature", "geometry": {"type": "Polygon", "coordinates": [[[73.8895, 17.9474], [73.8898, 17.9464], [73.8896, 17.9439], [73.8869, 17.9442], [73.8843, 17.9446], [73.8838, 17.9446], [73.8806, 17.9478], [73.879, 17.9494], [73.8798, 17.949], [73.8799, 17.9492], [73.8799, 17.9493], [73.8802, 17.9497], [73.8815, 17.949], [73.8827, 17.95], [73.8848, 17.9504], [73.885, 17.951], [73.8854, 17.9514], [73.8862, 17.951], [73.8863, 17.9509], [73.8864, 17.9512], [73.8865, 17.9513], [73.8867, 17.9513], [73.8869, 17.9512], [73.8871, 17.9512], [73.8872, 17.9504], [73.8882, 17.9504], [73.8883, 17.9496], [73.8886, 17.9493], [73.8888, 17.9491], [73.8889, 17.949], [73.889, 17.949], [73.889, 17.9489], [73.8893, 17.9484], [73.8894, 17.948], [73.8895, 17.9474]]]}, "properties": {"objectid": 53039, "statename": "Maharashtra", "statecode": "27", "districtname": "", "districtcode": "527", "ulbname": "Wai", "ulbcode": "802865", "wardname": "Dattanagar", "wardcode": "9", "id": null, "status": "APPROVED", "misglobalid": null, "approved_by": null, "createdate": 1645519923000, "updateddate": 1646644669000, "globalid": null, "gisglobalid": "5aPsdQnd-Q6dn-PRQa-saB6-4dPmPKo6PBol", "remark": "Ward No 9", "st_area(shape)": 4.753228277390745e-05, "st_perimeter(shape)": 0.031651315136176236}}, {"type": "Feature", "geometry": {"type": "Polygon", "coordinates": [[[73.8967, 17.9431], [73.8896, 17.9439], [73.8898, 17.9464], [73.8895, 17.9473], [73.8894, 17.9479], [73.8893, 17.9484], [73.889, 17.9489], [73.8883, 17.9496], [73.8882, 17.9505], [73.8872, 17.9504], [73.8871, 17.9507], [73.8871, 17.9512], [73.8867, 17.9513], [73.8865, 17.9513], [73.8864, 17.9512], [73.8863, 17.9509], [73.8862, 17.951], [73.8857, 17.9512], [73.8854, 17.9514], [73.8849, 17.9515], [73.8847, 17.9511], [73.8845, 17.9512], [73.8848, 17.9517], [73.8849, 17.9522], [73.8848, 17.9524], [73.8851, 17.9526], [73.8851, 17.9525], [73.8856, 17.9524], [73.886, 17.9523], [73.8867, 17.952], [73.8876, 17.9517], [73.8884, 17.9516], [73.8885, 17.9515], [73.8892, 17.9514], [73.8898, 17.9511], [73.8905, 17.9508], [73.8911, 17.9507], [73.8914, 17.9509], [73.8915, 17.951], [73.8917, 17.9514], [73.892, 17.9516], [73.8922, 17.9517], [73.8927, 17.9513], [73.8928, 17.9508], [73.8929, 17.9503], [73.8929, 17.9501], [73.8934, 17.9487], [73.894, 17.947], [73.894, 17.9466], [73.8943, 17.9451], [73.8949, 17.944], [73.8958, 17.9438], [73.8967, 17.9431]]]}, "properties": {"objectid": 54465, "statename": "Maharashtra", "statecode": "27", "districtname": "", "districtcode": "527", "ulbname": "Wai", "ulbcode": "802865", "wardname": "Songirwadi", "wardcode": "10", "id": null, "status": "APPROVED", "misglobalid": null, "approved_by": null, "createdate": 1645519933000, "updateddate": 1646644682000, "globalid": null, "gisglobalid": "BBQm4Rd6-mR6Q-PK5P-scao-lPcnKRmmlnR5", "remark": "Ward No 10", "st_area(shape)": 3.93315193843502e-05, "st_perimeter(shape)": 0.039240287910114566}}]}
