{"type": "FeatureCollection", "features": [{"type": "Feature", "geometry": {"type": "Polygon", "coordinates": [[[77.1992, 27.2201], [77.1993, 27.2199], [77.1993, 27.2196], [77.1992, 27.2192], [77.1992, 27.219], [77.1989, 27.2191], [77.1989, 27.2194], [77.1981, 27.2197], [77.1982, 27.22], [77.1982, 27.2202], [77.1984, 27.2203], [77.1986, 27.2203], [77.1987, 27.2204], [77.199, 27.2206], [77.1991, 27.2203], [77.1992, 27.2201]]]}, "properties": {"objectid": 177137, "statename": "Rajasthan", "statecode": "8", "districtname": "", "districtcode": "105", "ulbname": "Nadbai", "ulbcode": "800496", "wardname": "Ward 1", "wardcode": "1", "id": null, "status": "APPROVED", "misglobalid": null, "approved_by": null, "createdate": 1646002659000, "updateddate": 1646028218000, "globalid": null, "gisglobalid": "la65d5mn-ssQc-P6lR-s6B5-odlo44a55a64", "remark": "", "st_area(shape)": 1.1055732171970235e-06, "st_perimeter(shape)": 0.004538391236354723}}, {"type": "Feature", "geometry": {"type": "Polygon", "coordinates": [[[77.2037, 27.2235], [77.202, 27.2219], [77.2015, 27.2216], [77.2012, 27.2212], [77.2009, 27.2212], [77.2004, 27.2212], [77.1998, 27.2212], [77.1994, 27.221], [77.1991, 27.2208], [77.199, 27.2206], [77.1987, 27.2204], [77.1986, 27.2203], [77.1984, 27.2203], [77.1982, 27.2202], [77.1982, 27.22], [77.1981, 27.2197], [77.198, 27.2197], [77.198, 27.2198], [77.1978, 27.2199], [77.1977, 27.22], [77.1979, 27.2202], [77.1979, 27.2203], [77.1981, 27.2206], [77.1977, 27.2208], [77.1974, 27.2209], [77.1973, 27.2207], [77.1973, 27.2203], [77.197, 27.2203], [77.1968, 27.2204], [77.1967, 27.2204], [77.1969, 27.2214], [77.1964, 27.2213], [77.1959, 27.2211], [77.1956, 27.2207], [77.1951, 27.2199], [77.1948, 27.2196], [77.1945, 27.2191], [77.1937, 27.2193], [77.1934, 27.2195], [77.1931, 27.2199], [77.1929, 27.2202], [77.1922, 27.2209], [77.1927, 27.2213], [77.194, 27.2221], [77.1955, 27.2227], [77.1973, 27.2232], [77.199, 27.2237], [77.202, 27.2243], [77.2041, 27.2251], [77.2054, 27.2255], [77.2055, 27.2249], [77.2037, 27.2235]]]}, "properties": {"objectid": 184446, "statename": "Rajasthan", "statecode": "8", "districtname": "", "districtcode": "105", "ulbname": "Nadbai", "ulbcode": "800496", "wardname": "Ward 2", "wardcode": "2", "id": null, "status": "APPROVED", "misglobalid": null, "approved_by": null, "createdate": 1646002659000, "updateddate": 1646028234000, "globalid": null, "gisglobalid": "aR5o46ns-c655-PKPa-QQQs-cPBlaa4mKR5l", "remark": "", "st_area(shape)": 2.9059112447735863e-05, "st_perimeter(shape)": 0.03502809964559553}}, {"type": "Feature", "geometry": {"type": "Polygon", "coordinates": [[[77.1967, 27.2206], [77.1966, 27.22], [77.1969, 27.22], [77.1971, 27.2199], [77.1972, 27.2199], [77.1973, 27.2199], [77.1976, 27.2198], [77.1976, 27.2197], [77.1976, 27.2194], [77.1976, 27.2192], [77.1975, 27.2187], [77.1974, 27.2187], [77.1971, 27.2187], [77.1971, 27.219], [77.1967, 27.2191], [77.1966, 27.2195], [77.1966, 27.2196], [77.1964, 27.2196], [77.1964, 27.2195], [77.1962, 27.2195], [77.1961, 27.2191], [77.196, 27.2187], [77.1956, 27.2187], [77.1944, 27.2191], [77.1948, 27.2196], [77.1951, 27.2199], [77.1956, 27.2207], [77.1959, 27.2211], [77.1964, 27.2213], [77.1969, 27.2214], [77.1967, 27.2206]]]}, "properties": {"objectid": 183900, "statename": "Rajasthan", "statecode": "8", "districtname": "", "districtcode": "105", "ulbname": "Nadbai", "ulbcode": "800496", "wardname": "Ward 3", "wardcode": "3", "id": null, "status": "APPROVED", "misglobalid": null, "approved_by": null, "createdate": 1646002659000, "updateddate": 1646028762000, "globalid": null, "gisglobalid": "d5mKndal-cBRo-Pl6B-R64n-cclcP6mB66Rm", "remark": "Ok", "st_area(shape)": 4.311702649273738e-06, "st_perimeter(shape)": 0.011518713486203948}}, {"type": "Feature", "geometry": {"type": "Polygon", "coordinates": [[[77.1992, 27.219], [77.1991, 27.2183], [77.1991, 27.218], [77.1989, 27.2173], [77.1987, 27.2174], [77.1986, 27.2176], [77.1985, 27.2176], [77.1986, 27.2178], [77.1986, 27.218], [77.1985, 27.2182], [77.1982, 27.2184], [77.1979, 27.2186], [77.1977, 27.2187], [77.1976, 27.2187], [77.1975, 27.2187], [77.1976, 27.2192], [77.1976, 27.2194], [77.1976, 27.2197], [77.1976, 27.2198], [77.1973, 27.2199], [77.1972, 27.2199], [77.1971, 27.2199], [77.1969, 27.22], [77.1966, 27.22], [77.1967, 27.2204], [77.1968, 27.2204], [77.197, 27.2203], [77.1973, 27.2203], [77.1973, 27.2207], [77.1974, 27.2209], [77.1977, 27.2208], [77.1981, 27.2206], [77.1979, 27.2203], [77.1979, 27.2202], [77.1977, 27.22], [77.1978, 27.2199], [77.198, 27.2198], [77.198, 27.2197], [77.1989, 27.2194], [77.1989, 27.2191], [77.1992, 27.219]]]}, "properties": {"objectid": 185112, "statename": "Rajasthan", "statecode": "8", "districtname": "", "districtcode": "105", "ulbname": "Nadbai", "ulbcode": "800496", "wardname": "Ward 4", "wardcode": "4", "id": null, "status": "APPROVED", "misglobalid": null, "approved_by": null, "createdate": 1646002659000, "updateddate": 1646028949000, "globalid": null, "gisglobalid": "665snPQd-B564-PBd6-and4-os4smK56QaoB", "remark": "Ok", "st_area(shape)": 3.0621360959244145e-06, "st_perimeter(shape)": 0.011265188824842943}}, {"type": "Feature", "geometry": {"type": "Polygon", "coordinates": [[[77.1982, 27.2184], [77.1985, 27.2182], [77.1986, 27.218], [77.1986, 27.2178], [77.1985, 27.2176], [77.1983, 27.2177], [77.1982, 27.2178], [77.198, 27.2179], [77.1979, 27.2177], [77.1977, 27.2178], [77.1976, 27.2177], [77.1975, 27.2175], [77.1974, 27.2172], [77.1968, 27.2174], [77.1967, 27.2169], [77.1964, 27.2169], [77.1963, 27.217], [77.1965, 27.2174], [77.1964, 27.2175], [77.1964, 27.2177], [77.1962, 27.2177], [77.1964, 27.2181], [77.1966, 27.2185], [77.1968, 27.2188], [77.1967, 27.219], [77.1967, 27.2191], [77.1971, 27.219], [77.1971, 27.2187], [77.1974, 27.2187], [77.1976, 27.2187], [77.1977, 27.2187], [77.1979, 27.2186], [77.1982, 27.2184]]]}, "properties": {"objectid": 182711, "statename": "Rajasthan", "statecode": "8", "districtname": "", "districtcode": "105", "ulbname": "Nadbai", "ulbcode": "800496", "wardname": "Ward 5", "wardcode": "5", "id": null, "status": "APPROVED", "misglobalid": null, "approved_by": null, "createdate": 1646002659000, "updateddate": 1646028967000, "globalid": null, "gisglobalid": "cKm4R65Q-4mnl-Pdld-Rm5P-as5a5moQK6s5", "remark": "", "st_area(shape)": 2.5245806572888645e-06, "st_perimeter(shape)": 0.008550181336648598}}, {"type": "Feature", "geometry": {"type": "Polygon", "coordinates": [[[77.1987, 27.2174], [77.1989, 27.2173], [77.1988, 27.2169], [77.1985, 27.2169], [77.1981, 27.2169], [77.1979, 27.2166], [77.1978, 27.2165], [77.1978, 27.2164], [77.1977, 27.2164], [77.1977, 27.2166], [77.1977, 27.2167], [77.1979, 27.2169], [77.1977, 27.217], [77.1974, 27.2172], [77.1975, 27.2175], [77.1976, 27.2177], [77.1977, 27.2178], [77.1979, 27.2177], [77.198, 27.2179], [77.1982, 27.2178], [77.1983, 27.2177], [77.1985, 27.2176], [77.1986, 27.2176], [77.1987, 27.2174]]]}, "properties": {"objectid": 185114, "statename": "Rajasthan", "statecode": "8", "districtname": "", "districtcode": "105", "ulbname": "Nadbai", "ulbcode": "800496", "wardname": "Ward 6", "wardcode": "6", "id": null, "status": "APPROVED", "misglobalid": null, "approved_by": null, "createdate": 1646002659000, "updateddate": 1646028979000, "globalid": null, "gisglobalid": "s5o6RPma-s5oP-PcPn-s5nn-saPl5BooP6aQ", "remark": "", "st_area(shape)": 1.1437392804660281e-06, "st_perimeter(shape)": 0.005176167969936259}}, {"type": "Feature", "geometry": {"type": "Polygon", "coordinates": [[[77.1968, 27.2188], [77.1966, 27.2185], [77.1964, 27.2181], [77.1962, 27.2177], [77.1964, 27.2177], [77.1964, 27.2175], [77.1965, 27.2174], [77.1963, 27.217], [77.1961, 27.2171], [77.1958, 27.2172], [77.196, 27.2181], [77.1958, 27.2182], [77.196, 27.2185], [77.196, 27.2187], [77.1961, 27.2191], [77.1962, 27.2195], [77.1964, 27.2195], [77.1964, 27.2196], [77.1966, 27.2196], [77.1966, 27.2195], [77.1967, 27.2191], [77.1967, 27.219], [77.1968, 27.2188]]]}, "properties": {"objectid": 185111, "statename": "Rajasthan", "statecode": "8", "districtname": "", "districtcode": "105", "ulbname": "Nadbai", "ulbcode": "800496", "wardname": "Ward 7", "wardcode": "7", "id": null, "status": "APPROVED", "misglobalid": null, "approved_by": null, "createdate": 1646002659000, "updateddate": 1646029000000, "globalid": null, "gisglobalid": "RBKoocsQ-6oco-Pds6-RsKc-66aad4lRnPnR", "remark": "", "st_area(shape)": 1.4102947029398797e-06, "st_perimeter(shape)": 0.006424600666657324}}, {"type": "Feature", "geometry": {"type": "Polygon", "coordinates": [[[77.1954, 27.2162], [77.1956, 27.2158], [77.1953, 27.2156], [77.1948, 27.2158], [77.1946, 27.2159], [77.1944, 27.2153], [77.1944, 27.2148], [77.1943, 27.2147], [77.1941, 27.2145], [77.1938, 27.2145], [77.1933, 27.2146], [77.193, 27.2145], [77.1924, 27.2144], [77.192, 27.2142], [77.1914, 27.2143], [77.1908, 27.2144], [77.1899, 27.2147], [77.1904, 27.2161], [77.1908, 27.2173], [77.1911, 27.2188], [77.1917, 27.2206], [77.1922, 27.2209], [77.1929, 27.2202], [77.1931, 27.2199], [77.1934, 27.2195], [77.1937, 27.2193], [77.1944, 27.2191], [77.1956, 27.2187], [77.196, 27.2187], [77.196, 27.2185], [77.1958, 27.2182], [77.196, 27.2181], [77.1958, 27.2172], [77.1956, 27.2167], [77.1954, 27.2162]]]}, "properties": {"objectid": 185386, "statename": "Rajasthan", "statecode": "8", "districtname": "", "districtcode": "105", "ulbname": "Nadbai", "ulbcode": "800496", "wardname": "Ward 8", "wardcode": "8", "id": null, "status": "APPROVED", "misglobalid": null, "approved_by": null, "createdate": 1646002659000, "updateddate": 1646029013000, "globalid": null, "gisglobalid": "B5lRa6Kd-4Rm4-P5Ko-RRKB-an4s65Ko5od4", "remark": "Ok", "st_area(shape)": 2.469304080582354e-05, "st_perimeter(shape)": 0.02149655811192786}}, {"type": "Feature", "geometry": {"type": "Polygon", "coordinates": [[[77.1962, 27.2154], [77.1958, 27.214], [77.1956, 27.2139], [77.1952, 27.2125], [77.1939, 27.2124], [77.194, 27.2131], [77.1941, 27.2132], [77.1943, 27.2137], [77.1946, 27.2144], [77.1945, 27.2148], [77.1944, 27.2153], [77.1946, 27.2159], [77.1948, 27.2158], [77.1953, 27.2156], [77.1956, 27.2158], [77.1954, 27.2162], [77.1956, 27.2167], [77.1958, 27.2172], [77.1961, 27.2171], [77.1963, 27.217], [77.1964, 27.2169], [77.1964, 27.2166], [77.1964, 27.2164], [77.1966, 27.2161], [77.1966, 27.216], [77.1965, 27.2158], [77.1965, 27.2157], [77.1963, 27.2157], [77.1963, 27.2156], [77.1962, 27.2154]]]}, "properties": {"objectid": 184608, "statename": "Rajasthan", "statecode": "8", "districtname": "", "districtcode": "105", "ulbname": "Nadbai", "ulbcode": "800496", "wardname": "Ward 9", "wardcode": "9", "id": null, "status": "APPROVED", "misglobalid": null, "approved_by": null, "createdate": 1646002659000, "updateddate": 1646029029000, "globalid": null, "gisglobalid": "na55nmRl-Qlsd-PBcs-alcd-RmnRKRml4cQR", "remark": "Ok", "st_area(shape)": 5.951910535706648e-06, "st_perimeter(shape)": 0.013277891809746466}}, {"type": "Feature", "geometry": {"type": "Polygon", "coordinates": [[[77.1952, 27.212], [77.1946, 27.2104], [77.1943, 27.2091], [77.1943, 27.2069], [77.1943, 27.2051], [77.194, 27.2052], [77.1928, 27.206], [77.192, 27.2079], [77.1912, 27.2099], [77.1906, 27.2113], [77.1899, 27.2147], [77.1908, 27.2144], [77.1914, 27.2143], [77.192, 27.2142], [77.1924, 27.2144], [77.193, 27.2145], [77.1933, 27.2146], [77.1938, 27.2145], [77.1941, 27.2145], [77.1943, 27.2147], [77.1944, 27.2148], [77.1946, 27.2144], [77.1943, 27.2137], [77.1941, 27.2132], [77.194, 27.2131], [77.1939, 27.2124], [77.1952, 27.2125], [77.1956, 27.2139], [77.1958, 27.214], [77.1962, 27.2154], [77.1967, 27.2153], [77.1968, 27.2148], [77.1967, 27.2146], [77.197, 27.2145], [77.1968, 27.2141], [77.1965, 27.2142], [77.1962, 27.2141], [77.196, 27.2135], [77.1958, 27.2125], [77.1958, 27.2122], [77.1952, 27.212]]]}, "properties": {"objectid": 181444, "statename": "Rajasthan", "statecode": "8", "districtname": "", "districtcode": "105", "ulbname": "Nadbai", "ulbcode": "800496", "wardname": "Ward 10", "wardcode": "10", "id": null, "status": "APPROVED", "misglobalid": null, "approved_by": null, "createdate": 1646002659000, "updateddate": 1646029042000, "globalid": null, "gisglobalid": "ol6a4aQR-o4Pa-Pds5-RQRR-PK5KQoBm5ms5", "remark": "Ok", "st_area(shape)": 3.092678143631116e-05, "st_perimeter(shape)": 0.03521202282987779}}, {"type": "Feature", "geometry": {"type": "Polygon", "coordinates": [[[77.1973, 27.2167], [77.1972, 27.2164], [77.1972, 27.2161], [77.1972, 27.2158], [77.1969, 27.2158], [77.1965, 27.2157], [77.1965, 27.2158], [77.1966, 27.216], [77.1966, 27.2161], [77.1964, 27.2164], [77.1964, 27.2166], [77.1964, 27.2169], [77.1967, 27.2169], [77.1968, 27.2174], [77.1974, 27.2172], [77.1973, 27.2167]]]}, "properties": {"objectid": 182712, "statename": "Rajasthan", "statecode": "8", "districtname": "", "districtcode": "105", "ulbname": "Nadbai", "ulbcode": "800496", "wardname": "Ward 11", "wardcode": "11", "id": null, "status": "APPROVED", "misglobalid": null, "approved_by": null, "createdate": 1646002659000, "updateddate": 1646029052000, "globalid": null, "gisglobalid": "almBncRd-P4Kd-PBKc-aRdP-mmaodPaRKc64", "remark": "Ok", "st_area(shape)": 1.116454292464559e-06, "st_perimeter(shape)": 0.00476324435488162}}, {"type": "Feature", "geometry": {"type": "Polygon", "coordinates": [[[77.1983, 27.2162], [77.1979, 27.216], [77.1976, 27.2158], [77.1972, 27.2158], [77.1972, 27.2161], [77.1972, 27.2164], [77.1973, 27.2167], [77.1974, 27.2172], [77.1977, 27.217], [77.1979, 27.2169], [77.1977, 27.2167], [77.1977, 27.2166], [77.1977, 27.2164], [77.1978, 27.2164], [77.1978, 27.2165], [77.1979, 27.2166], [77.1981, 27.2169], [77.1985, 27.2169], [77.1984, 27.2166], [77.1985, 27.2164], [77.1983, 27.2162]]]}, "properties": {"objectid": 184441, "statename": "Rajasthan", "statecode": "8", "districtname": "", "districtcode": "105", "ulbname": "Nadbai", "ulbcode": "800496", "wardname": "Ward 12", "wardcode": "12", "id": null, "status": "APPROVED", "misglobalid": null, "approved_by": null, "createdate": 1646002659000, "updateddate": 1646029062000, "globalid": null, "gisglobalid": "RmnsmlnQ-Pln6-P5lK-RKmm-65lP5oKcBnoB", "remark": "Ok", "st_area(shape)": 1.0653782901035144e-06, "st_perimeter(shape)": 0.005536515138784363}}, {"type": "Feature", "geometry": {"type": "Polygon", "coordinates": [[[77.1982, 27.2138], [77.1981, 27.2134], [77.1979, 27.2125], [77.1958, 27.2122], [77.1958, 27.2125], [77.196, 27.2135], [77.1962, 27.2141], [77.1965, 27.2142], [77.1968, 27.2141], [77.197, 27.2145], [77.1967, 27.2146], [77.1968, 27.2148], [77.1967, 27.2153], [77.1962, 27.2154], [77.1963, 27.2156], [77.1963, 27.2157], [77.1965, 27.2157], [77.1969, 27.2158], [77.1972, 27.2158], [77.1976, 27.2158], [77.1977, 27.2153], [77.1979, 27.2153], [77.198, 27.2147], [77.198, 27.2145], [77.1985, 27.2144], [77.1982, 27.2138]]]}, "properties": {"objectid": 182710, "statename": "Rajasthan", "statecode": "8", "districtname": "", "districtcode": "105", "ulbname": "Nadbai", "ulbcode": "800496", "wardname": "Ward 13", "wardcode": "13", "id": null, "status": "APPROVED", "misglobalid": null, "approved_by": null, "createdate": 1646002659000, "updateddate": 1646029075000, "globalid": null, "gisglobalid": "4lao6sBc-cnnQ-P5Ko-ss5d-4R4RPdodQaaR", "remark": "Ok", "st_area(shape)": 5.809914439779484e-06, "st_perimeter(shape)": 0.012417586063661008}}, {"type": "Feature", "geometry": {"type": "Polygon", "coordinates": [[[77.1996, 27.2148], [77.1994, 27.2145], [77.1992, 27.2141], [77.1991, 27.2142], [77.1989, 27.2143], [77.1986, 27.2144], [77.198, 27.2145], [77.198, 27.2147], [77.1979, 27.2153], [77.1981, 27.2153], [77.1984, 27.2154], [77.1988, 27.2154], [77.199, 27.2157], [77.1993, 27.2155], [77.1998, 27.2153], [77.1996, 27.2148]]]}, "properties": {"objectid": 181445, "statename": "Rajasthan", "statecode": "8", "districtname": "", "districtcode": "105", "ulbname": "Nadbai", "ulbcode": "800496", "wardname": "Ward 14", "wardcode": "14", "id": null, "status": "APPROVED", "misglobalid": null, "approved_by": null, "createdate": 1646002659000, "updateddate": 1646029086000, "globalid": null, "gisglobalid": "n6amQmna-cBma-PKPo-sPcR-dl6oa6n5nsna", "remark": "Ok", "st_area(shape)": 1.759546753798132e-06, "st_perimeter(shape)": 0.005536492606163464}}, {"type": "Feature", "geometry": {"type": "Polygon", "coordinates": [[[77.1992, 27.2141], [77.1988, 27.2135], [77.1989, 27.2135], [77.1987, 27.2126], [77.1979, 27.2125], [77.1981, 27.2134], [77.1982, 27.2138], [77.1985, 27.2144], [77.1986, 27.2144], [77.1989, 27.2143], [77.1991, 27.2142], [77.1992, 27.2141]]]}, "properties": {"objectid": 184609, "statename": "Rajasthan", "statecode": "8", "districtname": "", "districtcode": "105", "ulbname": "Nadbai", "ulbcode": "800496", "wardname": "Ward 15", "wardcode": "15", "id": null, "status": "APPROVED", "misglobalid": null, "approved_by": null, "createdate": 1646002659000, "updateddate": 1646029097000, "globalid": null, "gisglobalid": "n5nlc6BK-B6nR-PBK6-RK5n-5mlKdR66llKc", "remark": "Ok", "st_area(shape)": 1.4325846349653715e-06, "st_perimeter(shape)": 0.005369386356922709}}, {"type": "Feature", "geometry": {"type": "Polygon", "coordinates": [[[77.199, 27.2157], [77.1988, 27.2154], [77.1984, 27.2154], [77.1981, 27.2153], [77.1977, 27.2153], [77.1976, 27.2158], [77.1979, 27.216], [77.1983, 27.2162], [77.1985, 27.2164], [77.1989, 27.2159], [77.199, 27.2157]]]}, "properties": {"objectid": 177136, "statename": "Rajasthan", "statecode": "8", "districtname": "", "districtcode": "105", "ulbname": "Nadbai", "ulbcode": "800496", "wardname": "Ward 16", "wardcode": "16", "id": null, "status": "APPROVED", "misglobalid": null, "approved_by": null, "createdate": 1646002659000, "updateddate": 1646029107000, "globalid": null, "gisglobalid": "Rd6PoBKn-madB-P66B-R44m-n6oKdlPQoPoa", "remark": "Ok", "st_area(shape)": 1.0068388619185933e-06, "st_perimeter(shape)": 0.004001992495056156}}, {"type": "Feature", "geometry": {"type": "Polygon", "coordinates": [[[77.2003, 27.2142], [77.1997, 27.2135], [77.2, 27.2131], [77.1993, 27.213], [77.1992, 27.2126], [77.1987, 27.2126], [77.1989, 27.2135], [77.1988, 27.2135], [77.1992, 27.2141], [77.1994, 27.2145], [77.1996, 27.2148], [77.1998, 27.2153], [77.1993, 27.2155], [77.199, 27.2157], [77.1989, 27.2159], [77.1985, 27.2164], [77.1984, 27.2166], [77.1985, 27.2169], [77.1988, 27.2169], [77.1991, 27.2168], [77.2003, 27.2162], [77.2002, 27.2159], [77.2, 27.2152], [77.2003, 27.2149], [77.2, 27.2144], [77.2003, 27.2142]]]}, "properties": {"objectid": 185389, "statename": "Rajasthan", "statecode": "8", "districtname": "", "districtcode": "105", "ulbname": "Nadbai", "ulbcode": "800496", "wardname": "Ward 17", "wardcode": "17", "id": null, "status": "APPROVED", "misglobalid": null, "approved_by": null, "createdate": 1646002659000, "updateddate": 1646029118000, "globalid": null, "gisglobalid": "dol4d5BR-6BK5-P44m-Qcnn-5QcQamoBRoQd", "remark": "Ok", "st_area(shape)": 3.7332478282160086e-06, "st_perimeter(shape)": 0.012608474782947137}}, {"type": "Feature", "geometry": {"type": "Polygon", "coordinates": [[[77.2024, 27.2148], [77.2022, 27.2144], [77.2018, 27.2145], [77.2015, 27.2141], [77.2009, 27.2133], [77.2005, 27.2129], [77.2005, 27.2127], [77.1992, 27.2126], [77.1993, 27.213], [77.2, 27.2131], [77.1997, 27.2135], [77.2003, 27.2142], [77.2, 27.2144], [77.2003, 27.2149], [77.2, 27.2152], [77.2002, 27.2159], [77.2003, 27.2162], [77.2006, 27.2161], [77.2014, 27.2159], [77.2021, 27.2158], [77.2025, 27.2157], [77.2028, 27.2155], [77.2024, 27.2148]]]}, "properties": {"objectid": 182714, "statename": "Rajasthan", "statecode": "8", "districtname": "", "districtcode": "105", "ulbname": "Nadbai", "ulbcode": "800496", "wardname": "Ward 18", "wardcode": "18", "id": null, "status": "APPROVED", "misglobalid": null, "approved_by": null, "createdate": 1646002659000, "updateddate": 1646029133000, "globalid": null, "gisglobalid": "45n45m5d-K4m4-PBQB-anlP-PnBdmmnn5ssa", "remark": "Ok", "st_area(shape)": 5.651504999542033e-06, "st_perimeter(shape)": 0.012675411581440926}}, {"type": "Feature", "geometry": {"type": "Polygon", "coordinates": [[[77.1989, 27.2112], [77.199, 27.2079], [77.199, 27.2044], [77.1988, 27.2044], [77.1962, 27.2048], [77.1947, 27.205], [77.1943, 27.2051], [77.1943, 27.2069], [77.1943, 27.2091], [77.1946, 27.2104], [77.1952, 27.212], [77.1958, 27.2122], [77.1979, 27.2125], [77.1987, 27.2126], [77.1988, 27.2119], [77.1989, 27.2112]]]}, "properties": {"objectid": 185115, "statename": "Rajasthan", "statecode": "8", "districtname": "", "districtcode": "105", "ulbname": "Nadbai", "ulbcode": "800496", "wardname": "Ward 19", "wardcode": "19", "id": null, "status": "APPROVED", "misglobalid": null, "approved_by": null, "createdate": 1646002659000, "updateddate": 1646029143000, "globalid": null, "gisglobalid": "45ocaoRB-m5n6-PK4K-aBKa-Pam4KRm5R4nR", "remark": "Ok", "st_area(shape)": 3.360559298024413e-05, "st_perimeter(shape)": 0.023620253186972685}}, {"type": "Feature", "geometry": {"type": "Polygon", "coordinates": [[[77.2031, 27.2101], [77.2045, 27.2095], [77.2044, 27.2093], [77.2042, 27.2086], [77.2039, 27.2078], [77.2036, 27.207], [77.2033, 27.2058], [77.2028, 27.2044], [77.2027, 27.2044], [77.199, 27.2044], [77.199, 27.2079], [77.1989, 27.2112], [77.1988, 27.2119], [77.1987, 27.2126], [77.1992, 27.2126], [77.2005, 27.2127], [77.2037, 27.213], [77.2038, 27.2127], [77.2036, 27.2127], [77.2031, 27.2122], [77.2025, 27.2116], [77.2022, 27.211], [77.2027, 27.2107], [77.2025, 27.2103], [77.203, 27.21], [77.2031, 27.2101]]]}, "properties": {"objectid": 182713, "statename": "Rajasthan", "statecode": "8", "districtname": "", "districtcode": "105", "ulbname": "Nadbai", "ulbcode": "800496", "wardname": "Ward 20", "wardcode": "20", "id": null, "status": "APPROVED", "misglobalid": null, "approved_by": null, "createdate": 1646002659000, "updateddate": 1646029152000, "globalid": null, "gisglobalid": "5B5dQadQ-QRnm-Pclc-Qsss-smmsPcPl5mmd", "remark": "Ok", "st_area(shape)": 3.727633769676393e-05, "st_perimeter(shape)": 0.028526162566540485}}, {"type": "Feature", "geometry": {"type": "Polygon", "coordinates": [[[77.2051, 27.2111], [77.2049, 27.2107], [77.2048, 27.2103], [77.2046, 27.2098], [77.2045, 27.2095], [77.2031, 27.2101], [77.203, 27.21], [77.2025, 27.2103], [77.2027, 27.2107], [77.2022, 27.211], [77.2025, 27.2116], [77.2031, 27.2122], [77.2036, 27.2127], [77.2038, 27.2127], [77.2039, 27.2126], [77.2041, 27.2125], [77.2042, 27.2124], [77.2044, 27.2122], [77.2046, 27.212], [77.2048, 27.2118], [77.205, 27.2114], [77.2051, 27.2111]]]}, "properties": {"objectid": 181446, "statename": "Rajasthan", "statecode": "8", "districtname": "", "districtcode": "105", "ulbname": "Nadbai", "ulbcode": "800496", "wardname": "Ward 21", "wardcode": "21", "id": null, "status": "APPROVED", "misglobalid": null, "approved_by": null, "createdate": 1646002659000, "updateddate": 1646029161000, "globalid": null, "gisglobalid": "aomcn6BK-4mKc-PKlQ-Rlcc-4BcnK4sQlsm6", "remark": "Ok", "st_area(shape)": 5.682968223203703e-06, "st_perimeter(shape)": 0.009637600534336346}}, {"type": "Feature", "geometry": {"type": "Polygon", "coordinates": [[[77.2097, 27.2112], [77.2089, 27.2102], [77.2082, 27.209], [77.2075, 27.2092], [77.2065, 27.2096], [77.2048, 27.2103], [77.2049, 27.2107], [77.2051, 27.2111], [77.205, 27.2114], [77.2048, 27.2118], [77.2046, 27.212], [77.2044, 27.2122], [77.2042, 27.2124], [77.2041, 27.2125], [77.2046, 27.2126], [77.2058, 27.2128], [77.2064, 27.2129], [77.2071, 27.2128], [77.2079, 27.2126], [77.2084, 27.2124], [77.2092, 27.2118], [77.2097, 27.2112]]]}, "properties": {"objectid": 184610, "statename": "Rajasthan", "statecode": "8", "districtname": "", "districtcode": "105", "ulbname": "Nadbai", "ulbcode": "800496", "wardname": "Ward 22", "wardcode": "22", "id": null, "status": "APPROVED", "misglobalid": null, "approved_by": null, "createdate": 1646002659000, "updateddate": 1646029171000, "globalid": null, "gisglobalid": "oo4Ksodm-4osn-PPnK-sP4R-odoQQBKdKnK4", "remark": "Ok", "st_area(shape)": 1.3351422000277953e-05, "st_perimeter(shape)": 0.015063279924716812}}, {"type": "Feature", "geometry": {"type": "Polygon", "coordinates": [[[77.2124, 27.2081], [77.2135, 27.2067], [77.2117, 27.2058], [77.21, 27.2053], [77.2085, 27.205], [77.2072, 27.2049], [77.2054, 27.2045], [77.2046, 27.2045], [77.2028, 27.2044], [77.2033, 27.2058], [77.2036, 27.207], [77.2039, 27.2078], [77.2042, 27.2086], [77.2044, 27.2093], [77.2046, 27.2098], [77.2048, 27.2103], [77.2065, 27.2096], [77.2075, 27.2092], [77.2082, 27.209], [77.2089, 27.2102], [77.2097, 27.2112], [77.2098, 27.2112], [77.2108, 27.21], [77.2124, 27.2081]]]}, "properties": {"objectid": 181449, "statename": "Rajasthan", "statecode": "8", "districtname": "", "districtcode": "105", "ulbname": "Nadbai", "ulbcode": "800496", "wardname": "Ward 23", "wardcode": "23", "id": null, "status": "APPROVED", "misglobalid": null, "approved_by": null, "createdate": 1646002659000, "updateddate": 1646029191000, "globalid": null, "gisglobalid": "asaKmas4-5RBs-PmRP-QPnQ-mol5PQ6RmdoR", "remark": "Ok", "st_area(shape)": 4.211966259616375e-05, "st_perimeter(shape)": 0.029583951370312903}}, {"type": "Feature", "geometry": {"type": "Polygon", "coordinates": [[[77.2035, 27.2142], [77.2036, 27.2137], [77.2037, 27.213], [77.2005, 27.2127], [77.2005, 27.2129], [77.2009, 27.2133], [77.2015, 27.2141], [77.2018, 27.2145], [77.2022, 27.2144], [77.2024, 27.2148], [77.2028, 27.2155], [77.2034, 27.2151], [77.2035, 27.2142]]]}, "properties": {"objectid": 183901, "statename": "Rajasthan", "statecode": "8", "districtname": "", "districtcode": "105", "ulbname": "Nadbai", "ulbcode": "800496", "wardname": "Ward 24", "wardcode": "24", "id": null, "status": "APPROVED", "misglobalid": null, "approved_by": null, "createdate": 1646002659000, "updateddate": 1646029213000, "globalid": null, "gisglobalid": "aRd44saP-65so-PKsB-RP6n-4K6BQPP5scQ6", "remark": "Ok", "st_area(shape)": 4.767426966093737e-06, "st_perimeter(shape)": 0.010151951194014441}}, {"type": "Feature", "geometry": {"type": "Polygon", "coordinates": [[[77.2047, 27.2143], [77.2061, 27.2138], [77.2063, 27.2139], [77.2064, 27.2133], [77.2139, 27.2143], [77.2141, 27.2129], [77.2143, 27.2114], [77.2145, 27.2102], [77.2144, 27.2094], [77.2142, 27.208], [77.2135, 27.2067], [77.2124, 27.2081], [77.2108, 27.21], [77.2098, 27.2112], [77.2092, 27.2118], [77.2084, 27.2124], [77.2079, 27.2126], [77.2071, 27.2128], [77.2064, 27.2129], [77.2058, 27.2128], [77.2046, 27.2126], [77.2041, 27.2125], [77.2039, 27.2126], [77.2038, 27.2127], [77.2037, 27.213], [77.2036, 27.2137], [77.2035, 27.2142], [77.2034, 27.2151], [77.204, 27.2147], [77.2047, 27.2143]]]}, "properties": {"objectid": 184445, "statename": "Rajasthan", "statecode": "8", "districtname": "", "districtcode": "105", "ulbname": "Nadbai", "ulbcode": "800496", "wardname": "Ward 25", "wardcode": "25", "id": null, "status": "APPROVED", "misglobalid": null, "approved_by": null, "createdate": 1646002659000, "updateddate": 1646029227000, "globalid": null, "gisglobalid": "KP6R4QlB-m6RB-PoBo-sd6o-5o46R4K464Kn", "remark": "Ok", "st_area(shape)": 3.234887208569678e-05, "st_perimeter(shape)": 0.034016398005511726}}, {"type": "Feature", "geometry": {"type": "Polygon", "coordinates": [[[77.2063, 27.2139], [77.2064, 27.2133], [77.2048, 27.2131], [77.2037, 27.213], [77.2036, 27.2137], [77.2035, 27.2142], [77.2034, 27.2151], [77.204, 27.2147], [77.2047, 27.2143], [77.2061, 27.2138], [77.2063, 27.2139]]]}, "properties": {"objectid": 184443, "statename": "Rajasthan", "statecode": "8", "districtname": "", "districtcode": "105", "ulbname": "Nadbai", "ulbcode": "800496", "wardname": "Ward 26", "wardcode": "26", "id": null, "status": "APPROVED", "misglobalid": null, "approved_by": null, "createdate": 1646002659000, "updateddate": 1646029242000, "globalid": null, "gisglobalid": "oPQnRPd6-olaK-PQmB-QoRo-K4cBodlnlcnd", "remark": "Ok", "st_area(shape)": 3.0585344496151246e-06, "st_perimeter(shape)": 0.008653112607229604}}, {"type": "Feature", "geometry": {"type": "Polygon", "coordinates": [[[77.2139, 27.2143], [77.2064, 27.2133], [77.2063, 27.2139], [77.2064, 27.2143], [77.2065, 27.2144], [77.2067, 27.2144], [77.2069, 27.215], [77.207, 27.2151], [77.2071, 27.2157], [77.2076, 27.2156], [77.2073, 27.2149], [77.2072, 27.2145], [77.2076, 27.2144], [77.209, 27.2145], [77.2102, 27.2146], [77.2119, 27.2146], [77.2138, 27.2147], [77.2139, 27.2143]]]}, "properties": {"objectid": 184444, "statename": "Rajasthan", "statecode": "8", "districtname": "", "districtcode": "105", "ulbname": "Nadbai", "ulbcode": "800496", "wardname": "Ward 27", "wardcode": "27", "id": null, "status": "APPROVED", "misglobalid": null, "approved_by": null, "createdate": 1646002659000, "updateddate": 1646029257000, "globalid": null, "gisglobalid": "s6slomsQ-RRQ4-PmR6-RQPc-Rn4m5cQ5coR6", "remark": "Ok", "st_area(shape)": 6.062761165210967e-06, "st_perimeter(shape)": 0.019007068193494802}}, {"type": "Feature", "geometry": {"type": "Polygon", "coordinates": [[[77.2069, 27.215], [77.2067, 27.2144], [77.2065, 27.2144], [77.2064, 27.2143], [77.2063, 27.2139], [77.2061, 27.2138], [77.2047, 27.2143], [77.204, 27.2147], [77.2034, 27.2151], [77.2028, 27.2155], [77.2027, 27.2156], [77.2032, 27.2162], [77.2038, 27.2159], [77.2035, 27.2153], [77.2038, 27.2151], [77.2041, 27.2151], [77.2046, 27.215], [77.205, 27.2149], [77.2054, 27.2159], [77.2057, 27.2158], [77.2057, 27.2163], [77.2072, 27.2162], [77.2071, 27.2157], [77.207, 27.2151], [77.2069, 27.215]]]}, "properties": {"objectid": 185388, "statename": "Rajasthan", "statecode": "8", "districtname": "", "districtcode": "105", "ulbname": "Nadbai", "ulbcode": "800496", "wardname": "Ward 28", "wardcode": "28", "id": null, "status": "APPROVED", "misglobalid": null, "approved_by": null, "createdate": 1646002659000, "updateddate": 1646029269000, "globalid": null, "gisglobalid": "aKQPnddl-65a6-PQsR-Qo5a-aP54QPRKKdQo", "remark": "Ok", "st_area(shape)": 5.219362991447308e-06, "st_perimeter(shape)": 0.013667870976885002}}, {"type": "Feature", "geometry": {"type": "Polygon", "coordinates": [[[77.2073, 27.2167], [77.2072, 27.2162], [77.2057, 27.2163], [77.2057, 27.2158], [77.2054, 27.2159], [77.205, 27.2149], [77.2046, 27.215], [77.2041, 27.2151], [77.2038, 27.2151], [77.2035, 27.2153], [77.2038, 27.2159], [77.2032, 27.2162], [77.2039, 27.217], [77.2045, 27.2168], [77.2054, 27.2167], [77.207, 27.2167], [77.2073, 27.2167]]]}, "properties": {"objectid": 185113, "statename": "Rajasthan", "statecode": "8", "districtname": "", "districtcode": "105", "ulbname": "Nadbai", "ulbcode": "800496", "wardname": "Ward 29", "wardcode": "29", "id": null, "status": "APPROVED", "misglobalid": null, "approved_by": null, "createdate": 1646002659000, "updateddate": 1646029284000, "globalid": null, "gisglobalid": "sB66olPQ-5P4l-PmRP-aQ4l-5BaaKco45Ran", "remark": "Ok", "st_area(shape)": 4.0439251275155285e-06, "st_perimeter(shape)": 0.01117300487096214}}, {"type": "Feature", "geometry": {"type": "Polygon", "coordinates": [[[77.2133, 27.2165], [77.2138, 27.2152], [77.2138, 27.2147], [77.2119, 27.2146], [77.2102, 27.2146], [77.209, 27.2145], [77.2076, 27.2144], [77.2072, 27.2145], [77.2073, 27.2149], [77.2076, 27.2156], [77.2071, 27.2157], [77.2072, 27.2162], [77.2073, 27.2167], [77.2075, 27.2168], [77.2082, 27.2167], [77.2089, 27.2168], [77.2098, 27.2169], [77.2104, 27.2168], [77.2111, 27.2168], [77.2117, 27.2167], [77.2119, 27.2167], [77.2123, 27.2167], [77.2133, 27.2165]]]}, "properties": {"objectid": 181447, "statename": "Rajasthan", "statecode": "8", "districtname": "", "districtcode": "105", "ulbname": "Nadbai", "ulbcode": "800496", "wardname": "Ward 30", "wardcode": "30", "id": null, "status": "APPROVED", "misglobalid": null, "approved_by": null, "createdate": 1646002659000, "updateddate": 1646029294000, "globalid": null, "gisglobalid": "ndo5dm56-daKs-PKRa-a4al-R4Q6Pnldcnom", "remark": "Ok", "st_area(shape)": 1.3799310421287807e-05, "st_perimeter(shape)": 0.017281214405212554}}, {"type": "Feature", "geometry": {"type": "Polygon", "coordinates": [[[77.2097, 27.2238], [77.2104, 27.2232], [77.2109, 27.2226], [77.211, 27.2226], [77.2101, 27.2204], [77.2098, 27.2199], [77.2099, 27.2191], [77.2096, 27.2183], [77.2092, 27.2181], [77.2089, 27.217], [77.2089, 27.2168], [77.2082, 27.2167], [77.2075, 27.2168], [77.207, 27.2167], [77.2054, 27.2167], [77.2045, 27.2168], [77.2039, 27.217], [77.2045, 27.2176], [77.2052, 27.2184], [77.2056, 27.2191], [77.2056, 27.2199], [77.2056, 27.2202], [77.2055, 27.2209], [77.2056, 27.2218], [77.2055, 27.2228], [77.2055, 27.2243], [77.2056, 27.2249], [77.2072, 27.2263], [77.2076, 27.2259], [77.2086, 27.2249], [77.2091, 27.2244], [77.2097, 27.2238]]]}, "properties": {"objectid": 181448, "statename": "Rajasthan", "statecode": "8", "districtname": "", "districtcode": "105", "ulbname": "Nadbai", "ulbcode": "800496", "wardname": "Ward 31", "wardcode": "31", "id": null, "status": "APPROVED", "misglobalid": null, "approved_by": null, "createdate": 1646002659000, "updateddate": 1646029339000, "globalid": null, "gisglobalid": "KBsBs66d-PB4m-Pl4P-R4l5-4BQolaPPl5nd", "remark": "Ok", "st_area(shape)": 3.940067563479171e-05, "st_perimeter(shape)": 0.027387843136523208}}, {"type": "Feature", "geometry": {"type": "Polygon", "coordinates": [[[77.213, 27.22], [77.2131, 27.219], [77.2131, 27.2182], [77.2133, 27.2174], [77.2132, 27.2167], [77.2133, 27.2165], [77.2123, 27.2167], [77.2119, 27.2167], [77.2117, 27.2167], [77.2111, 27.2168], [77.2104, 27.2168], [77.2098, 27.2169], [77.2089, 27.2168], [77.2089, 27.217], [77.2092, 27.2181], [77.2096, 27.2183], [77.2099, 27.2191], [77.2098, 27.2199], [77.2101, 27.2204], [77.211, 27.2226], [77.2113, 27.2223], [77.212, 27.2217], [77.2126, 27.2208], [77.213, 27.22]]]}, "properties": {"objectid": 183902, "statename": "Rajasthan", "statecode": "8", "districtname": "", "districtcode": "105", "ulbname": "Nadbai", "ulbcode": "800496", "wardname": "Ward 32", "wardcode": "32", "id": null, "status": "APPROVED", "misglobalid": null, "approved_by": null, "createdate": 1646002659000, "updateddate": 1646029323000, "globalid": null, "gisglobalid": "ocdsQBa4-6mKB-Pc6l-QPd6-54mdss5dlo6l", "remark": "Ok", "st_area(shape)": 1.6280779391789636e-05, "st_perimeter(shape)": 0.01766521013668038}}, {"type": "Feature", "geometry": {"type": "Polygon", "coordinates": [[[77.2038, 27.2199], [77.2035, 27.2192], [77.2027, 27.2183], [77.2022, 27.2179], [77.2018, 27.2174], [77.2016, 27.2172], [77.2013, 27.2169], [77.2011, 27.2165], [77.2009, 27.2163], [77.2008, 27.216], [77.2006, 27.2161], [77.2003, 27.2162], [77.1991, 27.2168], [77.1988, 27.2169], [77.1989, 27.2173], [77.1991, 27.218], [77.1991, 27.2183], [77.1992, 27.219], [77.1992, 27.2192], [77.1992, 27.2193], [77.2, 27.2194], [77.2003, 27.2194], [77.2007, 27.2194], [77.2007, 27.2192], [77.2015, 27.219], [77.2016, 27.2194], [77.2017, 27.2196], [77.2016, 27.2212], [77.2042, 27.221], [77.2042, 27.2208], [77.2038, 27.2199]]]}, "properties": {"objectid": 177138, "statename": "Rajasthan", "statecode": "8", "districtname": "", "districtcode": "105", "ulbname": "Nadbai", "ulbcode": "800496", "wardname": "Ward 33", "wardcode": "33", "id": null, "status": "APPROVED", "misglobalid": null, "approved_by": null, "createdate": 1646002659000, "updateddate": 1646029356000, "globalid": null, "gisglobalid": "RsBQ6dQn-sPc6-PclB-sa44-KnsnBnm4soo4", "remark": "Ok", "st_area(shape)": 1.3449598915240858e-05, "st_perimeter(shape)": 0.01834140462011822}}, {"type": "Feature", "geometry": {"type": "Polygon", "coordinates": [[[77.2056, 27.2199], [77.2056, 27.2191], [77.2052, 27.2184], [77.2045, 27.2176], [77.2027, 27.2156], [77.2025, 27.2157], [77.2021, 27.2158], [77.2014, 27.2159], [77.2008, 27.216], [77.2009, 27.2163], [77.2011, 27.2165], [77.2013, 27.2169], [77.2016, 27.2172], [77.2018, 27.2174], [77.2022, 27.2179], [77.2027, 27.2183], [77.2035, 27.2192], [77.2038, 27.2199], [77.2042, 27.2208], [77.2042, 27.221], [77.2055, 27.2209], [77.2056, 27.2202], [77.2056, 27.2199]]]}, "properties": {"objectid": 185387, "statename": "Rajasthan", "statecode": "8", "districtname": "", "districtcode": "105", "ulbname": "Nadbai", "ulbcode": "800496", "wardname": "Ward 34", "wardcode": "34", "id": null, "status": "APPROVED", "misglobalid": null, "approved_by": null, "createdate": 1646002659000, "updateddate": 1646029372000, "globalid": null, "gisglobalid": "nc466sPa-Pon6-Pldd-Qmnl-Ro5RdsnKolBB", "remark": "Ok", "st_area(shape)": 1.1187014832680409e-05, "st_perimeter(shape)": 0.015866206990171886}}, {"type": "Feature", "geometry": {"type": "Polygon", "coordinates": [[[77.2016, 27.2212], [77.2017, 27.2196], [77.2016, 27.2194], [77.2015, 27.219], [77.2007, 27.2192], [77.2007, 27.2194], [77.2003, 27.2194], [77.2, 27.2194], [77.1992, 27.2193], [77.1993, 27.2196], [77.1993, 27.2199], [77.1992, 27.2201], [77.1991, 27.2203], [77.199, 27.2206], [77.1991, 27.2208], [77.1994, 27.221], [77.1998, 27.2212], [77.2004, 27.2212], [77.2009, 27.2212], [77.2012, 27.2212], [77.2015, 27.2216], [77.202, 27.2219], [77.2037, 27.2235], [77.2055, 27.2249], [77.2054, 27.2255], [77.2069, 27.2266], [77.2072, 27.2263], [77.2056, 27.2249], [77.2055, 27.2243], [77.2055, 27.2228], [77.2056, 27.2218], [77.2055, 27.2209], [77.2042, 27.221], [77.2016, 27.2212]]]}, "properties": {"objectid": 184442, "statename": "Rajasthan", "statecode": "8", "districtname": "", "districtcode": "105", "ulbname": "Nadbai", "ulbcode": "800496", "wardname": "Ward 35", "wardcode": "35", "id": null, "status": "APPROVED", "misglobalid": null, "approved_by": null, "createdate": 1646002659000, "updateddate": 1646029384000, "globalid": null, "gisglobalid": "o6R4Pcac-R5P4-Pnom-sdo5-Kc5do4nsaa6m", "remark": "Ok", "st_area(shape)": 1.4452422108642564e-05, "st_perimeter(shape)": 0.02722198435243973}}]}
