{"type":"Topology","arcs":[[[16951,0],[-16951,18631],[22792,14259],[10683,-13688],[-16524,-19202]],[[38746,69202],[8689,-11978],[-9401,-760],[712,12738]],[[49572,55323],[-1994,14829],[7692,1521],[2992,-5513],[-1140,-7985],[-4416,-1331],[-1140,-2471],[-1994,950]],[[49857,70913],[285,8174],[11396,1141],[-285,-6274],[-11396,-3041]],[[28205,32129],[7265,7034],[6125,11978],[5128,-10457],[-10683,-17490],[-7835,8935]],[[26353,34981],[-8404,5323],[10683,11217],[-2279,-16540]],[[47435,44677],[570,4182],[1852,3612],[2707,2092],[284,2091],[4416,1331],[855,5133],[5556,-4563],[-16240,-13878]],[[78489,73574],[-8974,-8745],[-570,12167],[9544,-3422]],[[84757,93726],[8832,5894],[-2564,-15209],[-6268,9315]],[[95156,83080],[-1425,16540],[6268,380],[-4843,-16920]]],"transform":{"scale":[7.020070200701989e-7,5.260000000000175e-7],"translate":[83.5284,25.5415]},"objects":{"wards":{"type":"GeometryCollection","geometries":[{"arcs":[[0]],"type":"Polygon","properties":{"objectid":106540,"statename":"Uttar Pradesh","statecode":"9","districtname":"Ghazipur","districtcode":"195","ulbname":"Ghazipur","ulbcode":"801222","wardname":"Pawahari Baba Nagar","wardcode":"1","id":null,"status":"APPROVED","misglobalid":null,"approved_by":null,"createdate":1643523625000,"updateddate":1646981284000,"globalid":null,"gisglobalid":"B4K6dKmK-Rcdd-Pa45-saKn-oBocds6sa54K","remark":"","st_area(shape)":0.00021209460246592396,"st_perimeter(shape)":0.05941733595622306}},{"type":null,"properties":{"objectid":110445,"statename":"Uttar Pradesh","statecode":"9","districtname":"Ghazipur","districtcode":"195","ulbname":"Ghazipur","ulbcode":"801222","wardname":"Mohan Purwa","wardcode":"2","id":null,"status":"APPROVED","misglobalid":null,"approved_by":null,"createdate":1643523145000,"updateddate":1646981318000,"globalid":null,"gisglobalid":"scdaco4n-KolP-Po5l-RPBP-acKPQmR6ndan","remark":"","st_area(shape)":0.000034512821486237505,"st_perimeter(shape)":0.03910808672330099}},{"arcs":[[1]],"type":"Polygon","properties":{"objectid":109043,"statename":"Uttar Pradesh","statecode":"9","districtname":"Ghazipur","districtcode":"195","ulbname":"Ghazipur","ulbcode":"801222","wardname":"Swami Vivekanand Nagar","wardcode":"3","id":null,"status":"APPROVED","misglobalid":null,"approved_by":null,"createdate":1643522946000,"updateddate":1646981850000,"globalid":null,"gisglobalid":"nQBadPlB-osPP-PPm5-aaQo-cR6BQlm5sll6","remark":"","st_area(shape)":0.000059780884071691945,"st_perimeter(shape)":0.0394667034866874}},{"type":null,"properties":{"objectid":105426,"statename":"Uttar Pradesh","statecode":"9","districtname":"Ghazipur","districtcode":"195","ulbname":"Ghazipur","ulbcode":"801222","wardname":"Kazitola","wardcode":"4","id":null,"status":"APPROVED","misglobalid":null,"approved_by":null,"createdate":1643524215000,"updateddate":1646981938000,"globalid":null,"gisglobalid":"n5lBadBR-QcsP-PR6o-sR5Q-sQdcBcm6ls4s","remark":"","st_area(shape)":0.000009286496741476444,"st_perimeter(shape)":0.012575657941863548}},{"type":null,"properties":{"objectid":107797,"statename":"Uttar Pradesh","statecode":"9","districtname":"Ghazipur","districtcode":"195","ulbname":"Ghazipur","ulbcode":"801222","wardname":"Subhash Nagar","wardcode":"5","id":null,"status":"APPROVED","misglobalid":null,"approved_by":null,"createdate":1643524406000,"updateddate":1646982344000,"globalid":null,"gisglobalid":"olsl56cB-5cca-PmQs-QsoB-PQm4nocaK5Ps","remark":"","st_area(shape)":0.000029355753180623826,"st_perimeter(shape)":0.036101361982322513}},{"arcs":[[2]],"type":"Polygon","properties":{"objectid":104664,"statename":"Uttar Pradesh","statecode":"9","districtname":"Ghazipur","districtcode":"195","ulbname":"Ghazipur","ulbcode":"801222","wardname":"Lal Bahadur Shastri Nagar","wardcode":"6","id":null,"status":"APPROVED","misglobalid":null,"approved_by":null,"createdate":1643522956000,"updateddate":1646982105000,"globalid":null,"gisglobalid":"PaQa4slK-KQsB-PPlK-R4QP-lBsl5PdnQPsm","remark":"","st_area(shape)":0.00005656707656790808,"st_perimeter(shape)":0.03818102656690718}},{"arcs":[[3]],"type":"Polygon","properties":{"objectid":107787,"statename":"Uttar Pradesh","statecode":"9","districtname":"Ghazipur","districtcode":"195","ulbname":"Ghazipur","ulbcode":"801222","wardname":"Kazitola","wardcode":"7","id":null,"status":"APPROVED","misglobalid":null,"approved_by":null,"createdate":1643522965000,"updateddate":1646983553000,"globalid":null,"gisglobalid":"saBBnQcB-R5nn-P5no-QBoa-P4B6KBc5lscP","remark":"","st_area(shape)":0.00003094841096064015,"st_perimeter(shape)":0.02405825912395182}},{"arcs":[[4]],"type":"Polygon","properties":{"objectid":110451,"statename":"Uttar Pradesh","statecode":"9","districtname":"Ghazipur","districtcode":"195","ulbname":"Ghazipur","ulbcode":"801222","wardname":"Jai Prakash Narayan Nagar","wardcode":"8","id":null,"status":"APPROVED","misglobalid":null,"approved_by":null,"createdate":1643523999000,"updateddate":1646983608000,"globalid":null,"gisglobalid":"o55occRc-dQB4-Pnln-sKao-asRnKPsoRPoc","remark":"","st_area(shape)":0.00010182977639249424,"st_perimeter(shape)":0.05434852792747355}},{"arcs":[[5]],"type":"Polygon","properties":{"objectid":107784,"statename":"Uttar Pradesh","statecode":"9","districtname":"Ghazipur","districtcode":"195","ulbname":"Ghazipur","ulbcode":"801222","wardname":"Ravindra Nath Taigor Nagar","wardcode":"9","id":null,"status":"APPROVED","misglobalid":null,"approved_by":null,"createdate":1643523935000,"updateddate":1646983567000,"globalid":null,"gisglobalid":"mdsc65Qs-mQRo-PKss-ad5m-RnK6dcPnn4BK","remark":"","st_area(shape)":0.00007280033408536801,"st_perimeter(shape)":0.053974092711085775}},{"arcs":[[6]],"type":"Polygon","properties":{"objectid":107788,"statename":"Uttar Pradesh","statecode":"9","districtname":"Ghazipur","districtcode":"195","ulbname":"Ghazipur","ulbcode":"801222","wardname":"Ambedkar Nagar","wardcode":"10","id":null,"status":"APPROVED","misglobalid":null,"approved_by":null,"createdate":1643522974000,"updateddate":1646983639000,"globalid":null,"gisglobalid":"4dmdcKd6-a5mn-P6mK-QlKc-Kmso4Kndoldo","remark":"","st_area(shape)":0.00003901187990669695,"st_perimeter(shape)":0.036182741292250215}},{"type":null,"properties":{"objectid":104669,"statename":"Uttar Pradesh","statecode":"9","districtname":"Ghazipur","districtcode":"195","ulbname":"Ghazipur","ulbcode":"801222","wardname":"Raiganj","wardcode":"11","id":null,"status":"APPROVED","misglobalid":null,"approved_by":null,"createdate":1643524747000,"updateddate":1646983581000,"globalid":null,"gisglobalid":"6RnRlPK5-oBla-PscP-anaQ-55BsRa54QQ66","remark":"","st_area(shape)":0.00000991322762869679,"st_perimeter(shape)":0.01316587752306381}},{"type":null,"properties":{"objectid":109294,"statename":"Uttar Pradesh","statecode":"9","districtname":"Ghazipur","districtcode":"195","ulbname":"Ghazipur","ulbcode":"801222","wardname":"Bhagat Singh Nagar","wardcode":"12","id":null,"status":"APPROVED","misglobalid":null,"approved_by":null,"createdate":1643524144000,"updateddate":1646983766000,"globalid":null,"gisglobalid":"PBcm646m-dncd-PsRP-sRK4-PBBPo5mBmasR","remark":"","st_area(shape)":0.00003153433602893964,"st_perimeter(shape)":0.023877304297407906}},{"type":null,"properties":{"objectid":109050,"statename":"Uttar Pradesh","statecode":"9","districtname":"Ghazipur","districtcode":"195","ulbname":"Ghazipur","ulbcode":"801222","wardname":"Mahajan Toli","wardcode":"13","id":null,"status":"APPROVED","misglobalid":null,"approved_by":null,"createdate":1643524252000,"updateddate":1646983779000,"globalid":null,"gisglobalid":"4KK5aoKP-6ndn-P4Kc-QRBo-aK6ns5PdKmRR","remark":"","st_area(shape)":0.000017231527643626154,"st_perimeter(shape)":0.019300028191068477}},{"type":null,"properties":{"objectid":105427,"statename":"Uttar Pradesh","statecode":"9","districtname":"Ghazipur","districtcode":"195","ulbname":"Ghazipur","ulbcode":"801222","wardname":"Dr. Abdul Kalam Nagar","wardcode":"14","id":null,"status":"APPROVED","misglobalid":null,"approved_by":null,"createdate":1643524504000,"updateddate":1646983793000,"globalid":null,"gisglobalid":"Bs6QdQR5-sRsK-P5RQ-sddn-P5caBPKsn6do","remark":"","st_area(shape)":0.000014952013704308708,"st_perimeter(shape)":0.015709714172178403}},{"type":null,"properties":{"objectid":106551,"statename":"Uttar Pradesh","statecode":"9","districtname":"Ghazipur","districtcode":"195","ulbname":"Ghazipur","ulbcode":"801222","wardname":"Veer Abdul Hamid Nagar","wardcode":"15","id":null,"status":"APPROVED","misglobalid":null,"approved_by":null,"createdate":1643524686000,"updateddate":1646983826000,"globalid":null,"gisglobalid":"PsmPodnK-cn6c-PBmK-Rnss-mQ4dc4PaQmKc","remark":"","st_area(shape)":0.000004123961154178366,"st_perimeter(shape)":0.010482474379579223}},{"type":null,"properties":{"objectid":110455,"statename":"Uttar Pradesh","statecode":"9","districtname":"Ghazipur","districtcode":"195","ulbname":"Ghazipur","ulbcode":"801222","wardname":"Kapoorpur","wardcode":"16","id":null,"status":"APPROVED","misglobalid":null,"approved_by":null,"createdate":1643524537000,"updateddate":1646983846000,"globalid":null,"gisglobalid":"5sdmm5Kd-clcP-PsaK-Ql4c-ccRa6RBBadQ4","remark":"","st_area(shape)":0.00002165534707564532,"st_perimeter(shape)":0.02423499546604007}},{"type":null,"properties":{"objectid":107800,"statename":"Uttar Pradesh","statecode":"9","districtname":"Ghazipur","districtcode":"195","ulbname":"Ghazipur","ulbcode":"801222","wardname":"Lok Manya Tilak Nagar","wardcode":"17","id":null,"status":"APPROVED","misglobalid":null,"approved_by":null,"createdate":1643524611000,"updateddate":1646983806000,"globalid":null,"gisglobalid":"BmPoPP4a-Pa6o-PRod-adBl-Kda6cca56oda","remark":"","st_area(shape)":0.00004201439686178864,"st_perimeter(shape)":0.030554526221850873}},{"type":null,"properties":{"objectid":110453,"statename":"Uttar Pradesh","statecode":"9","districtname":"Ghazipur","districtcode":"195","ulbname":"Ghazipur","ulbcode":"801222","wardname":"Urdubazar","wardcode":"18","id":null,"status":"APPROVED","misglobalid":null,"approved_by":null,"createdate":1643524171000,"updateddate":1646983869000,"globalid":null,"gisglobalid":"occnaamn-45BK-P6K4-sRsB-KaKRd4oaocRK","remark":"","st_area(shape)":0.000013204281179502714,"st_perimeter(shape)":0.02212279326588857}},{"type":null,"properties":{"objectid":106552,"statename":"Uttar Pradesh","statecode":"9","districtname":"Ghazipur","districtcode":"195","ulbname":"Ghazipur","ulbcode":"801222","wardname":"Dr. Rahi Masum Rja Nagar","wardcode":"19","id":null,"status":"APPROVED","misglobalid":null,"approved_by":null,"createdate":1643524700000,"updateddate":1646983889000,"globalid":null,"gisglobalid":"44B4RBss-lRco-Pmo4-QmKK-m6PoQKnRsRlR","remark":"","st_area(shape)":0.000012465451574142544,"st_perimeter(shape)":0.014578277429529406}},{"type":null,"properties":{"objectid":106550,"statename":"Uttar Pradesh","statecode":"9","districtname":"Ghazipur","districtcode":"195","ulbname":"Ghazipur","ulbcode":"801222","wardname":"Markinganj","wardcode":"20","id":null,"status":"APPROVED","misglobalid":null,"approved_by":null,"createdate":1643524647000,"updateddate":1646983918000,"globalid":null,"gisglobalid":"K6mRlmdB-P664-PBQ6-Qn6l-d5dmon4s4aol","remark":"","st_area(shape)":0.000005554369788114864,"st_perimeter(shape)":0.011055400431634048}},{"arcs":[[7]],"type":"Polygon","properties":{"objectid":109052,"statename":"Uttar Pradesh","statecode":"9","districtname":"Ghazipur","districtcode":"195","ulbname":"Ghazipur","ulbcode":"801222","wardname":"Mahatma Gandhi Nagar","wardcode":"21","id":null,"status":"APPROVED","misglobalid":null,"approved_by":null,"createdate":1643524802000,"updateddate":1646983909000,"globalid":null,"gisglobalid":"cs5maBdl-KsBP-PBs5-RPlm-nKaodmm65PQQ","remark":"","st_area(shape)":0.000033651079891741145,"st_perimeter(shape)":0.026912962618107744}},{"arcs":[[8]],"type":"Polygon","properties":{"objectid":110454,"statename":"Uttar Pradesh","statecode":"9","districtname":"Ghazipur","districtcode":"195","ulbname":"Ghazipur","ulbcode":"801222","wardname":"Nurooddinpura","wardcode":"22","id":null,"status":"APPROVED","misglobalid":null,"approved_by":null,"createdate":1643524494000,"updateddate":1646983924000,"globalid":null,"gisglobalid":"m4daQndQ-Q6n5-PRmd-slRR-R6lsoP4mlQRR","remark":"","st_area(shape)":0.00003085747632550632,"st_perimeter(shape)":0.023015184944126965}},{"arcs":[[9]],"type":"Polygon","properties":{"objectid":107798,"statename":"Uttar Pradesh","statecode":"9","districtname":"Ghazipur","districtcode":"195","ulbname":"Ghazipur","ulbcode":"801222","wardname":"Nawabganj","wardcode":"23","id":null,"status":"APPROVED","misglobalid":null,"approved_by":null,"createdate":1643524450000,"updateddate":1646983934000,"globalid":null,"gisglobalid":"5BoKol4s-Q44c-Pdl6-Qsa6-6cc4oPBaPnK6","remark":"","st_area(shape)":0.000028461681110181236,"st_perimeter(shape)":0.025609439412437797}},{"type":null,"properties":{"objectid":107795,"statename":"Uttar Pradesh","statecode":"9","districtname":"Ghazipur","districtcode":"195","ulbname":"Ghazipur","ulbcode":"801222","wardname":"Pandit Dindyal Nagar","wardcode":"24","id":null,"status":"APPROVED","misglobalid":null,"approved_by":null,"createdate":1643524158000,"updateddate":1646983942000,"globalid":null,"gisglobalid":"d45aoBln-BmmR-P4ms-RPQ5-4KBn4dQsPdKl","remark":"","st_area(shape)":0.000013136206364515045,"st_perimeter(shape)":0.017060662259671136}},{"type":null,"properties":{"objectid":104662,"statename":"Uttar Pradesh","statecode":"9","districtname":"Ghazipur","districtcode":"195","ulbname":"Ghazipur","ulbcode":"801222","wardname":"Manniy Kanshi Ram Naagar","wardcode":"25","id":null,"status":"APPROVED","misglobalid":null,"approved_by":null,"createdate":1643521984000,"updateddate":1646983961000,"globalid":null,"gisglobalid":"dQ4oaQQB-Bsdm-PPln-ascs-Kss46aK5l5aP","remark":"","st_area(shape)":0.000028847038866171847,"st_perimeter(shape)":0.03188218407692699}}]}}}