{"type": "FeatureCollection", "features": [{"type": "Feature", "geometry": {"type": "Polygon", "coordinates": [[[75.6754, 15.9386], [75.6755, 15.9378], [75.6755, 15.9377], [75.6755, 15.9372], [75.6755, 15.9371], [75.6755, 15.9365], [75.6756, 15.936], [75.6756, 15.9355], [75.6756, 15.9351], [75.6757, 15.9347], [75.6757, 15.9343], [75.6757, 15.9342], [75.6758, 15.9339], [75.6759, 15.9335], [75.6759, 15.9334], [75.676, 15.9329], [75.676, 15.9324], [75.6761, 15.9323], [75.6761, 15.932], [75.6762, 15.9318], [75.6763, 15.9314], [75.6763, 15.9313], [75.6764, 15.9311], [75.6765, 15.9309], [75.6765, 15.9307], [75.6766, 15.9303], [75.6766, 15.9302], [75.6766, 15.9301], [75.6767, 15.93], [75.6767, 15.9299], [75.6767, 15.9298], [75.6768, 15.9297], [75.6769, 15.9296], [75.6771, 15.9292], [75.6772, 15.9288], [75.6773, 15.9285], [75.6774, 15.9285], [75.6774, 15.9284], [75.6775, 15.9282], [75.6776, 15.928], [75.6776, 15.9279], [75.6777, 15.9276], [75.6778, 15.9276], [75.6779, 15.9271], [75.678, 15.927], [75.678, 15.9268], [75.6781, 15.9266], [75.6782, 15.9265], [75.6783, 15.9263], [75.6783, 15.9262], [75.6783, 15.9261], [75.6785, 15.9258], [75.6785, 15.9257], [75.6787, 15.9253], [75.6788, 15.9251], [75.6789, 15.9246], [75.679, 15.9245], [75.679, 15.9243], [75.6791, 15.9242], [75.6791, 15.924], [75.6792, 15.9238], [75.6788, 15.9237], [75.6787, 15.9237], [75.6784, 15.9237], [75.6783, 15.9237], [75.6782, 15.9237], [75.6779, 15.9237], [75.6778, 15.9237], [75.6777, 15.9237], [75.6774, 15.9237], [75.6772, 15.9237], [75.6771, 15.9237], [75.6764, 15.9238], [75.6764, 15.9236], [75.6764, 15.9234], [75.6764, 15.9233], [75.6762, 15.9233], [75.6761, 15.9231], [75.676, 15.9231], [75.6759, 15.9232], [75.6758, 15.9232], [75.6756, 15.9232], [75.6754, 15.9232], [75.6752, 15.9233], [75.6751, 15.9233], [75.6749, 15.9234], [75.6749, 15.9233], [75.6749, 15.9232], [75.6746, 15.9233], [75.6743, 15.9235], [75.6742, 15.9236], [75.6742, 15.9237], [75.6742, 15.9238], [75.6741, 15.9238], [75.674, 15.9238], [75.6739, 15.9238], [75.6737, 15.9238], [75.6736, 15.9238], [75.6734, 15.9239], [75.6733, 15.924], [75.6732, 15.9241], [75.6731, 15.9242], [75.673, 15.9242], [75.673, 15.9243], [75.6729, 15.9244], [75.6729, 15.9245], [75.673, 15.9247], [75.673, 15.9248], [75.6731, 15.9252], [75.6734, 15.9255], [75.6738, 15.9261], [75.6739, 15.9262], [75.6739, 15.9263], [75.674, 15.9262], [75.6741, 15.9262], [75.6743, 15.9266], [75.6744, 15.9267], [75.6744, 15.9268], [75.6745, 15.9267], [75.6746, 15.9267], [75.6746, 15.9268], [75.6746, 15.9269], [75.6748, 15.9273], [75.6748, 15.9277], [75.6749, 15.9285], [75.6749, 15.9287], [75.6749, 15.9292], [75.6749, 15.9299], [75.675, 15.93], [75.675, 15.9302], [75.675, 15.9304], [75.675, 15.9305], [75.6751, 15.9305], [75.6752, 15.9305], [75.6753, 15.9306], [75.6752, 15.9308], [75.6749, 15.9311], [75.6746, 15.9314], [75.6744, 15.9317], [75.6744, 15.9318], [75.6743, 15.9319], [75.6742, 15.9321], [75.674, 15.9322], [75.674, 15.9323], [75.6739, 15.9324], [75.6735, 15.9329], [75.6734, 15.933], [75.6739, 15.9334], [75.674, 15.9334], [75.6741, 15.9335], [75.6741, 15.9336], [75.6742, 15.9337], [75.6745, 15.9344], [75.6746, 15.9347], [75.6745, 15.9356], [75.6745, 15.9358], [75.6744, 15.937], [75.6744, 15.9371], [75.6743, 15.9385], [75.6743, 15.9386], [75.6748, 15.9385], [75.675, 15.9385], [75.6752, 15.9386], [75.6754, 15.9386]]]}, "properties": {"objectid": 150694, "statename": "Karnataka", "statecode": "29", "districtname": "Bagalkot", "districtcode": "556", "ulbname": "Badami", "ulbcode": "803046", "wardname": "Ward 1", "wardcode": "1", "id": null, "status": "APPROVED", "misglobalid": null, "approved_by": null, "createdate": 1670233519000, "updateddate": 1670304246000, "globalid": null, "gisglobalid": "BBBldll5-KQcB-Pmc6-Q56d-5Blo4odRR6Q6", "remark": "Approved", "st_area(shape)": 3.7466945495855786e-05, "st_perimeter(shape)": 0.04086638715353828}}, {"type": "Feature", "geometry": {"type": "Polygon", "coordinates": [[[75.6792, 15.9238], [75.6792, 15.9237], [75.6793, 15.9232], [75.6794, 15.9232], [75.6794, 15.9231], [75.6794, 15.9229], [75.6795, 15.9227], [75.6795, 15.9226], [75.6796, 15.9225], [75.6796, 15.9224], [75.6797, 15.9219], [75.6798, 15.9218], [75.6798, 15.9217], [75.6798, 15.9216], [75.6798, 15.9215], [75.6796, 15.9215], [75.6795, 15.9215], [75.6792, 15.9215], [75.6791, 15.9215], [75.6789, 15.9215], [75.6784, 15.9214], [75.6783, 15.9214], [75.6776, 15.9214], [75.6775, 15.9214], [75.6768, 15.9213], [75.6767, 15.9213], [75.6765, 15.9213], [75.6763, 15.9213], [75.6763, 15.9214], [75.6762, 15.9214], [75.6762, 15.9215], [75.6762, 15.9217], [75.6762, 15.9218], [75.6759, 15.9218], [75.6757, 15.9218], [75.6758, 15.9223], [75.6758, 15.9224], [75.6758, 15.9225], [75.6759, 15.9225], [75.6761, 15.9225], [75.6761, 15.9227], [75.676, 15.9227], [75.6761, 15.9228], [75.6761, 15.9229], [75.6759, 15.9229], [75.6759, 15.923], [75.6759, 15.9232], [75.676, 15.9231], [75.6761, 15.9231], [75.6762, 15.9233], [75.6764, 15.9233], [75.6764, 15.9234], [75.6764, 15.9236], [75.6764, 15.9238], [75.6771, 15.9237], [75.6772, 15.9237], [75.6774, 15.9237], [75.6777, 15.9237], [75.6778, 15.9237], [75.6779, 15.9237], [75.6782, 15.9237], [75.6783, 15.9237], [75.6784, 15.9237], [75.6787, 15.9237], [75.6788, 15.9237], [75.6792, 15.9238]]]}, "properties": {"objectid": 147453, "statename": "Karnataka", "statecode": "29", "districtname": "", "districtcode": "556", "ulbname": "Badami", "ulbcode": "803046", "wardname": "Ward 2", "wardcode": "2", "id": null, "status": "APPROVED", "misglobalid": null, "approved_by": null, "createdate": 1644563842000, "updateddate": 1670304258000, "globalid": null, "gisglobalid": "odsB4Qcn-lBlo-PcR5-QQ6o-s4cKd5s6dRaP", "remark": "Approved", "st_area(shape)": 8.0965196847454e-06, "st_perimeter(shape)": 0.012663485356181198}}, {"type": "Feature", "geometry": {"type": "Polygon", "coordinates": [[[75.6759, 15.9232], [75.6759, 15.923], [75.6759, 15.9229], [75.6761, 15.9229], [75.6761, 15.9228], [75.676, 15.9227], [75.6761, 15.9227], [75.6761, 15.9225], [75.6759, 15.9225], [75.6758, 15.9225], [75.6758, 15.9224], [75.6758, 15.9223], [75.6757, 15.9218], [75.6759, 15.9218], [75.6762, 15.9218], [75.6762, 15.9217], [75.6762, 15.9215], [75.6762, 15.9214], [75.6762, 15.9213], [75.6763, 15.921], [75.6763, 15.9209], [75.6764, 15.9209], [75.6765, 15.9209], [75.6768, 15.9209], [75.6768, 15.9208], [75.6768, 15.9206], [75.6769, 15.9201], [75.677, 15.9201], [75.6771, 15.9202], [75.6772, 15.9202], [75.6773, 15.9202], [75.6774, 15.9198], [75.6775, 15.9194], [75.6773, 15.9193], [75.6769, 15.9192], [75.6768, 15.9192], [75.6762, 15.919], [75.6761, 15.919], [75.676, 15.919], [75.6759, 15.9195], [75.6759, 15.9197], [75.6758, 15.9197], [75.6757, 15.9197], [75.6757, 15.9199], [75.6757, 15.92], [75.6757, 15.9201], [75.6757, 15.9205], [75.6757, 15.9208], [75.6757, 15.921], [75.6757, 15.9212], [75.6757, 15.9215], [75.6756, 15.9215], [75.6755, 15.9215], [75.6748, 15.9216], [75.6747, 15.9216], [75.6744, 15.9217], [75.6743, 15.9217], [75.6742, 15.9217], [75.6738, 15.9217], [75.6736, 15.9217], [75.6729, 15.9218], [75.6728, 15.9218], [75.6727, 15.9218], [75.6726, 15.9218], [75.6725, 15.9218], [75.6724, 15.9218], [75.6723, 15.9218], [75.6723, 15.9219], [75.6724, 15.9221], [75.6725, 15.9225], [75.6726, 15.9229], [75.6726, 15.9231], [75.6728, 15.9238], [75.6729, 15.924], [75.6729, 15.9242], [75.6729, 15.9243], [75.6728, 15.9243], [75.6729, 15.9244], [75.673, 15.9243], [75.673, 15.9242], [75.6731, 15.9242], [75.6732, 15.9241], [75.6733, 15.924], [75.6734, 15.9239], [75.6736, 15.9238], [75.6737, 15.9238], [75.6739, 15.9238], [75.674, 15.9238], [75.6741, 15.9238], [75.6742, 15.9238], [75.6742, 15.9237], [75.6742, 15.9236], [75.6743, 15.9235], [75.6746, 15.9233], [75.6749, 15.9232], [75.6749, 15.9233], [75.6749, 15.9234], [75.6751, 15.9233], [75.6752, 15.9233], [75.6754, 15.9232], [75.6756, 15.9232], [75.6758, 15.9232], [75.6759, 15.9232]]]}, "properties": {"objectid": 155843, "statename": "Karnataka", "statecode": "29", "districtname": "", "districtcode": "556", "ulbname": "Badami", "ulbcode": "803046", "wardname": "Ward 3", "wardcode": "3", "id": null, "status": "APPROVED", "misglobalid": null, "approved_by": null, "createdate": 1644563842000, "updateddate": 1670304272000, "globalid": null, "gisglobalid": "oaBmKl5m-dKsB-PRQl-sdmQ-4mQdnRlKasc6", "remark": "Approved", "st_area(shape)": 9.308654527953461e-06, "st_perimeter(shape)": 0.019779132892059008}}, {"type": "Feature", "geometry": {"type": "Polygon", "coordinates": [[[75.6757, 15.92], [75.6756, 15.92], [75.6747, 15.92], [75.6746, 15.92], [75.6742, 15.9199], [75.6737, 15.9199], [75.6736, 15.9199], [75.6728, 15.9197], [75.6726, 15.9197], [75.6726, 15.9199], [75.6726, 15.9201], [75.6726, 15.9204], [75.6726, 15.9205], [75.6726, 15.9212], [75.6727, 15.9216], [75.6727, 15.9217], [75.6727, 15.9218], [75.6728, 15.9218], [75.6729, 15.9218], [75.6736, 15.9217], [75.6738, 15.9217], [75.6742, 15.9217], [75.6743, 15.9217], [75.6744, 15.9217], [75.6747, 15.9216], [75.6748, 15.9216], [75.6755, 15.9215], [75.6756, 15.9215], [75.6757, 15.9215], [75.6757, 15.9212], [75.6757, 15.921], [75.6757, 15.9208], [75.6757, 15.9205], [75.6757, 15.9201], [75.6757, 15.92]]]}, "properties": {"objectid": 154259, "statename": "Karnataka", "statecode": "29", "districtname": "", "districtcode": "556", "ulbname": "Badami", "ulbcode": "803046", "wardname": "Ward 4", "wardcode": "4", "id": null, "status": "APPROVED", "misglobalid": null, "approved_by": null, "createdate": 1644563842000, "updateddate": 1670304281000, "globalid": null, "gisglobalid": "4RscsBlc-ndQB-Ps5Q-QsQ4-s5c5BQsmQRa6", "remark": "Approved", "st_area(shape)": 5.340271632282398e-06, "st_perimeter(shape)": 0.009567203089903439}}, {"type": "Feature", "geometry": {"type": "Polygon", "coordinates": [[[75.6802, 15.9204], [75.6801, 15.9204], [75.68, 15.9204], [75.6797, 15.9203], [75.6797, 15.9202], [75.6795, 15.92], [75.6789, 15.9198], [75.6783, 15.9196], [75.6781, 15.9195], [75.6776, 15.9194], [75.6775, 15.9194], [75.6774, 15.9198], [75.6773, 15.9202], [75.6772, 15.9202], [75.6771, 15.9202], [75.677, 15.9201], [75.6769, 15.9201], [75.6768, 15.9206], [75.6768, 15.9208], [75.6768, 15.9209], [75.6765, 15.9209], [75.6764, 15.9209], [75.6763, 15.9209], [75.6763, 15.921], [75.6762, 15.9213], [75.6762, 15.9214], [75.6763, 15.9214], [75.6763, 15.9213], [75.6765, 15.9213], [75.6767, 15.9213], [75.6768, 15.9213], [75.6775, 15.9214], [75.6776, 15.9214], [75.6783, 15.9214], [75.6784, 15.9214], [75.6789, 15.9215], [75.6791, 15.9215], [75.6792, 15.9215], [75.6795, 15.9215], [75.6796, 15.9215], [75.6798, 15.9215], [75.6799, 15.9215], [75.68, 15.9211], [75.6801, 15.9207], [75.6802, 15.9204]]]}, "properties": {"objectid": 153849, "statename": "Karnataka", "statecode": "29", "districtname": "", "districtcode": "556", "ulbname": "Badami", "ulbcode": "803046", "wardname": "Ward 5", "wardcode": "5", "id": null, "status": "APPROVED", "misglobalid": null, "approved_by": null, "createdate": 1644563842000, "updateddate": 1670304292000, "globalid": null, "gisglobalid": "B6sBRdoo-5lld-PRQd-R46Q-6so4lscaRBca", "remark": "Approved", "st_area(shape)": 5.263268647204816e-06, "st_perimeter(shape)": 0.010697904598146834}}, {"type": "Feature", "geometry": {"type": "Polygon", "coordinates": [[[75.6803, 15.9201], [75.6803, 15.92], [75.6803, 15.9199], [75.6804, 15.9197], [75.6805, 15.9196], [75.6805, 15.9195], [75.6805, 15.9192], [75.6806, 15.9189], [75.6806, 15.9188], [75.6806, 15.9187], [75.6806, 15.9186], [75.6805, 15.9186], [75.6804, 15.9185], [75.6804, 15.9184], [75.6802, 15.9183], [75.68, 15.9182], [75.68, 15.9181], [75.6799, 15.9181], [75.6798, 15.9183], [75.6798, 15.9184], [75.6797, 15.9184], [75.6797, 15.9185], [75.6797, 15.9186], [75.6797, 15.9187], [75.6796, 15.9187], [75.6794, 15.9187], [75.679, 15.9186], [75.6788, 15.9185], [75.6784, 15.9184], [75.6782, 15.9184], [75.6781, 15.9183], [75.6778, 15.9182], [75.6776, 15.9182], [75.6774, 15.9181], [75.6772, 15.9181], [75.6771, 15.9181], [75.677, 15.9183], [75.6769, 15.9191], [75.6768, 15.9192], [75.6769, 15.9192], [75.6773, 15.9193], [75.6775, 15.9194], [75.6776, 15.9194], [75.6781, 15.9195], [75.6783, 15.9196], [75.6789, 15.9198], [75.6795, 15.92], [75.6797, 15.9202], [75.6797, 15.9203], [75.68, 15.9204], [75.6801, 15.9204], [75.6802, 15.9204], [75.6802, 15.9202], [75.6803, 15.9201]]]}, "properties": {"objectid": 155424, "statename": "Karnataka", "statecode": "29", "districtname": "", "districtcode": "556", "ulbname": "Badami", "ulbcode": "803046", "wardname": "Ward 6", "wardcode": "6", "id": null, "status": "APPROVED", "misglobalid": null, "approved_by": null, "createdate": 1644563842000, "updateddate": 1670304301000, "globalid": null, "gisglobalid": "PmRKPlPR-oo5P-Pdco-QQ65-occ6RlBomKoQ", "remark": "Approved", "st_area(shape)": 4.979215760600972e-06, "st_perimeter(shape)": 0.010942461352413974}}, {"type": "Feature", "geometry": {"type": "Polygon", "coordinates": [[[75.676, 15.919], [75.6758, 15.9189], [75.6756, 15.9189], [75.6755, 15.9188], [75.6754, 15.9188], [75.6752, 15.9188], [75.6751, 15.9187], [75.6749, 15.9187], [75.6746, 15.9186], [75.6745, 15.9185], [75.6744, 15.9185], [75.6742, 15.9184], [75.674, 15.9183], [75.6738, 15.9182], [75.6737, 15.9182], [75.6734, 15.9181], [75.6733, 15.9181], [75.6731, 15.918], [75.673, 15.9179], [75.6728, 15.9179], [75.6726, 15.9179], [75.6725, 15.9178], [75.6724, 15.9178], [75.6724, 15.918], [75.6724, 15.9181], [75.6725, 15.9187], [75.6725, 15.9189], [75.6726, 15.9193], [75.6726, 15.9194], [75.6726, 15.9196], [75.6726, 15.9197], [75.6728, 15.9197], [75.6736, 15.9199], [75.6737, 15.9199], [75.6742, 15.9199], [75.6746, 15.92], [75.6747, 15.92], [75.6756, 15.92], [75.6757, 15.92], [75.6757, 15.9199], [75.6757, 15.9197], [75.6758, 15.9197], [75.6759, 15.9197], [75.6759, 15.9195], [75.676, 15.919]]]}, "properties": {"objectid": 150695, "statename": "Karnataka", "statecode": "29", "districtname": "", "districtcode": "556", "ulbname": "Badami", "ulbcode": "803046", "wardname": "Ward 7", "wardcode": "7", "id": null, "status": "APPROVED", "misglobalid": null, "approved_by": null, "createdate": 1644563842000, "updateddate": 1670304311000, "globalid": null, "gisglobalid": "4scBsdmR-aanK-Pooc-QcBc-ncaconKn6s5R", "remark": "Approved", "st_area(shape)": 5.168078815507595e-06, "st_perimeter(shape)": 0.010138810027166765}}, {"type": "Feature", "geometry": {"type": "Polygon", "coordinates": [[[75.6771, 15.9181], [75.6767, 15.918], [75.676, 15.9179], [75.6757, 15.9178], [75.6752, 15.9177], [75.6744, 15.9175], [75.6725, 15.9171], [75.6725, 15.9168], [75.6724, 15.9168], [75.6717, 15.9166], [75.6714, 15.9164], [75.6711, 15.9163], [75.6708, 15.9163], [75.6708, 15.9162], [75.6704, 15.9161], [75.6702, 15.916], [75.6699, 15.916], [75.6698, 15.9159], [75.6697, 15.9159], [75.669, 15.9158], [75.6687, 15.9157], [75.6686, 15.9156], [75.6685, 15.9156], [75.6684, 15.9155], [75.6683, 15.9155], [75.6682, 15.9155], [75.6679, 15.9155], [75.6678, 15.9154], [75.6674, 15.9154], [75.6672, 15.9154], [75.6671, 15.9154], [75.667, 15.9154], [75.6669, 15.9154], [75.6667, 15.9154], [75.6666, 15.9154], [75.6665, 15.9154], [75.6664, 15.9154], [75.6662, 15.9154], [75.6659, 15.9153], [75.6659, 15.9152], [75.6659, 15.9148], [75.666, 15.9146], [75.666, 15.914], [75.6659, 15.914], [75.6654, 15.9139], [75.6653, 15.9139], [75.6651, 15.9138], [75.6652, 15.9135], [75.6652, 15.9134], [75.6652, 15.9133], [75.6652, 15.9132], [75.6652, 15.913], [75.6651, 15.9129], [75.665, 15.9129], [75.6629, 15.9122], [75.6623, 15.9121], [75.6623, 15.912], [75.6613, 15.9117], [75.66, 15.9114], [75.6588, 15.9111], [75.6583, 15.911], [75.6574, 15.9107], [75.6573, 15.9106], [75.6572, 15.9106], [75.656, 15.9101], [75.6548, 15.9097], [75.6548, 15.9098], [75.6548, 15.9112], [75.6549, 15.9134], [75.6549, 15.9139], [75.6563, 15.9138], [75.6566, 15.9138], [75.6578, 15.9135], [75.6578, 15.9141], [75.6579, 15.9147], [75.6583, 15.9147], [75.6605, 15.9147], [75.6606, 15.9152], [75.6606, 15.9154], [75.6606, 15.9167], [75.6615, 15.9167], [75.6628, 15.9168], [75.6632, 15.9168], [75.6633, 15.9168], [75.6639, 15.9169], [75.6646, 15.9169], [75.6658, 15.9168], [75.6659, 15.9168], [75.666, 15.9168], [75.6663, 15.9168], [75.6667, 15.9168], [75.6669, 15.9168], [75.667, 15.9168], [75.6676, 15.9168], [75.6678, 15.9168], [75.6682, 15.9168], [75.6685, 15.9168], [75.6688, 15.9168], [75.6688, 15.9167], [75.6692, 15.9167], [75.6696, 15.9166], [75.6697, 15.9166], [75.67, 15.9167], [75.6701, 15.9167], [75.6706, 15.9169], [75.6709, 15.9171], [75.6716, 15.9174], [75.6718, 15.9175], [75.6723, 15.9176], [75.6724, 15.9177], [75.6724, 15.9178], [75.6725, 15.9178], [75.6726, 15.9179], [75.6728, 15.9179], [75.673, 15.9179], [75.6731, 15.918], [75.6733, 15.9181], [75.6734, 15.9181], [75.6737, 15.9182], [75.6738, 15.9182], [75.674, 15.9183], [75.6742, 15.9184], [75.6744, 15.9185], [75.6745, 15.9185], [75.6746, 15.9186], [75.6749, 15.9187], [75.6751, 15.9187], [75.6752, 15.9188], [75.6754, 15.9188], [75.6755, 15.9188], [75.6756, 15.9189], [75.6758, 15.9189], [75.676, 15.919], [75.6761, 15.919], [75.6762, 15.919], [75.6768, 15.9192], [75.6769, 15.9191], [75.677, 15.9183], [75.6771, 15.9181]]]}, "properties": {"objectid": 152301, "statename": "Karnataka", "statecode": "29", "districtname": "", "districtcode": "556", "ulbname": "Badami", "ulbcode": "803046", "wardname": "Ward 8", "wardcode": "8", "id": null, "status": "APPROVED", "misglobalid": null, "approved_by": null, "createdate": 1644563842000, "updateddate": 1670304322000, "globalid": null, "gisglobalid": "RBQKQclo-sRms-Ps6s-annP-K546odK64mPR", "remark": "Approved", "st_area(shape)": 5.451855020498275e-05, "st_perimeter(shape)": 0.05661273398909653}}, {"type": "Feature", "geometry": {"type": "Polygon", "coordinates": [[[75.6799, 15.9181], [75.6799, 15.918], [75.6797, 15.9179], [75.6794, 15.9178], [75.6793, 15.9176], [75.6791, 15.9175], [75.6785, 15.9171], [75.6783, 15.9169], [75.6782, 15.9169], [75.6781, 15.9168], [75.6779, 15.9168], [75.6777, 15.9168], [75.677, 15.9166], [75.6764, 15.9166], [75.6757, 15.9164], [75.6756, 15.9164], [75.6749, 15.9163], [75.6745, 15.9162], [75.6741, 15.9161], [75.6738, 15.9161], [75.6736, 15.916], [75.6733, 15.9159], [75.6732, 15.9159], [75.673, 15.9159], [75.6727, 15.9157], [75.6725, 15.9157], [75.6725, 15.916], [75.6725, 15.9161], [75.6724, 15.9167], [75.6724, 15.9168], [75.6725, 15.9168], [75.6725, 15.9171], [75.6744, 15.9175], [75.6752, 15.9177], [75.6757, 15.9178], [75.676, 15.9179], [75.6767, 15.918], [75.6771, 15.9181], [75.6772, 15.9181], [75.6774, 15.9181], [75.6776, 15.9182], [75.6778, 15.9182], [75.6781, 15.9183], [75.6782, 15.9184], [75.6784, 15.9184], [75.6788, 15.9185], [75.679, 15.9186], [75.6794, 15.9187], [75.6796, 15.9187], [75.6797, 15.9187], [75.6797, 15.9186], [75.6797, 15.9185], [75.6797, 15.9184], [75.6798, 15.9184], [75.6798, 15.9183], [75.6799, 15.9181]]]}, "properties": {"objectid": 153847, "statename": "Karnataka", "statecode": "29", "districtname": "", "districtcode": "556", "ulbname": "Badami", "ulbcode": "803046", "wardname": "Ward 9", "wardcode": "9", "id": null, "status": "APPROVED", "misglobalid": null, "approved_by": null, "createdate": 1644563842000, "updateddate": 1670304332000, "globalid": null, "gisglobalid": "c6lB4cKB-nR4Q-P5lc-R6s6-4laamRBRQcnm", "remark": "Approved", "st_area(shape)": 9.651067908578049e-06, "st_perimeter(shape)": 0.017340762912581163}}, {"type": "Feature", "geometry": {"type": "Polygon", "coordinates": [[[75.6807, 15.9184], [75.6807, 15.9183], [75.6808, 15.9179], [75.681, 15.9175], [75.6811, 15.9173], [75.6812, 15.9172], [75.6812, 15.9171], [75.6813, 15.9169], [75.6814, 15.9169], [75.6813, 15.9169], [75.6812, 15.9168], [75.6811, 15.9167], [75.6811, 15.9165], [75.6811, 15.9164], [75.6811, 15.9163], [75.6811, 15.9162], [75.6812, 15.916], [75.6812, 15.9159], [75.6812, 15.9158], [75.6812, 15.9156], [75.6811, 15.9155], [75.6811, 15.9153], [75.681, 15.915], [75.681, 15.9149], [75.681, 15.9148], [75.681, 15.9147], [75.681, 15.9146], [75.681, 15.9143], [75.6809, 15.9142], [75.6809, 15.914], [75.6809, 15.9139], [75.6809, 15.9137], [75.6809, 15.9136], [75.6809, 15.9135], [75.6808, 15.9131], [75.6808, 15.9129], [75.6808, 15.9127], [75.6808, 15.9126], [75.6808, 15.9125], [75.6808, 15.9123], [75.6808, 15.9122], [75.6807, 15.9118], [75.6807, 15.9116], [75.6807, 15.9111], [75.6807, 15.911], [75.6807, 15.9109], [75.6807, 15.9104], [75.6806, 15.9101], [75.6806, 15.9097], [75.6806, 15.9096], [75.6806, 15.9093], [75.6806, 15.9089], [75.6814, 15.909], [75.6814, 15.9078], [75.6814, 15.9072], [75.6812, 15.906], [75.6811, 15.9038], [75.6812, 15.9036], [75.6812, 15.9031], [75.681, 15.9031], [75.6796, 15.9033], [75.6795, 15.9033], [75.6793, 15.9033], [75.6791, 15.9033], [75.6787, 15.9034], [75.6779, 15.9034], [75.678, 15.9038], [75.6786, 15.9043], [75.6787, 15.9047], [75.6787, 15.9051], [75.6787, 15.9054], [75.6787, 15.9056], [75.6787, 15.9057], [75.6785, 15.9057], [75.6783, 15.9057], [75.677, 15.9058], [75.6761, 15.9059], [75.6761, 15.906], [75.6762, 15.9062], [75.6764, 15.9066], [75.6764, 15.9068], [75.6766, 15.9071], [75.6769, 15.9075], [75.6771, 15.9077], [75.6774, 15.9081], [75.6775, 15.9083], [75.6777, 15.9087], [75.6773, 15.9089], [75.6772, 15.9088], [75.6771, 15.9088], [75.6767, 15.9089], [75.6766, 15.9089], [75.676, 15.909], [75.6757, 15.909], [75.6756, 15.909], [75.6749, 15.9092], [75.6742, 15.9094], [75.6738, 15.9095], [75.6734, 15.9095], [75.6731, 15.9096], [75.6721, 15.9099], [75.672, 15.9099], [75.6718, 15.9097], [75.6715, 15.9101], [75.6712, 15.9104], [75.6708, 15.9109], [75.6704, 15.9112], [75.6703, 15.9112], [75.6702, 15.911], [75.6695, 15.91], [75.669, 15.9094], [75.6687, 15.9091], [75.6685, 15.9088], [75.6683, 15.9086], [75.6677, 15.9079], [75.6677, 15.9085], [75.666, 15.9082], [75.6661, 15.9078], [75.6658, 15.9077], [75.6655, 15.9077], [75.6652, 15.9077], [75.6637, 15.9076], [75.6635, 15.9076], [75.6628, 15.9075], [75.6613, 15.9071], [75.6603, 15.9071], [75.6601, 15.907], [75.6591, 15.9071], [75.6577, 15.9072], [75.6576, 15.9072], [75.6574, 15.9072], [75.6556, 15.9072], [75.6549, 15.9072], [75.6548, 15.9086], [75.6548, 15.9087], [75.6548, 15.9089], [75.6548, 15.9095], [75.654, 15.9093], [75.653, 15.9089], [75.6528, 15.9089], [75.6527, 15.9088], [75.6518, 15.9086], [75.6511, 15.9084], [75.6503, 15.9081], [75.6502, 15.9081], [75.6499, 15.908], [75.6495, 15.9079], [75.6494, 15.9078], [75.6485, 15.9075], [75.648, 15.9073], [75.6469, 15.907], [75.6456, 15.9065], [75.6454, 15.9065], [75.6452, 15.9064], [75.6446, 15.9061], [75.6426, 15.9053], [75.6426, 15.9056], [75.6454, 15.9067], [75.6465, 15.907], [75.6467, 15.9071], [75.6467, 15.9072], [75.6458, 15.9069], [75.6448, 15.9067], [75.6437, 15.9065], [75.6435, 15.9062], [75.6428, 15.906], [75.6426, 15.9058], [75.6423, 15.9086], [75.6423, 15.9087], [75.6423, 15.9092], [75.6423, 15.9109], [75.6429, 15.9108], [75.6452, 15.9106], [75.6451, 15.91], [75.6466, 15.91], [75.6467, 15.9097], [75.6467, 15.9092], [75.6468, 15.9073], [75.6468, 15.9071], [75.6469, 15.9071], [75.6471, 15.9072], [75.6474, 15.9073], [75.6475, 15.9073], [75.648, 15.9075], [75.6497, 15.9081], [75.6499, 15.9082], [75.6501, 15.9083], [75.6512, 15.9086], [75.652, 15.9088], [75.653, 15.9091], [75.6535, 15.9092], [75.6548, 15.9097], [75.656, 15.9101], [75.6572, 15.9106], [75.6573, 15.9106], [75.6574, 15.9107], [75.6583, 15.911], [75.6588, 15.9111], [75.66, 15.9114], [75.6613, 15.9117], [75.6623, 15.912], [75.6623, 15.9121], [75.6629, 15.9122], [75.665, 15.9129], [75.6651, 15.9129], [75.6652, 15.913], [75.6652, 15.9132], [75.6652, 15.9133], [75.6652, 15.9134], [75.6652, 15.9135], [75.6651, 15.9138], [75.6653, 15.9139], [75.6654, 15.9139], [75.6659, 15.914], [75.666, 15.914], [75.666, 15.9146], [75.6659, 15.9148], [75.6659, 15.9152], [75.6659, 15.9153], [75.6662, 15.9154], [75.6664, 15.9154], [75.6665, 15.9154], [75.6666, 15.9154], [75.6667, 15.9154], [75.6669, 15.9154], [75.667, 15.9154], [75.6671, 15.9154], [75.6672, 15.9154], [75.6674, 15.9154], [75.6678, 15.9154], [75.6679, 15.9155], [75.6682, 15.9155], [75.6683, 15.9155], [75.6684, 15.9155], [75.6685, 15.9156], [75.6686, 15.9156], [75.6687, 15.9157], [75.669, 15.9158], [75.6697, 15.9159], [75.6698, 15.9159], [75.6699, 15.916], [75.6702, 15.916], [75.6704, 15.9161], [75.6708, 15.9162], [75.6708, 15.9163], [75.6711, 15.9163], [75.6714, 15.9164], [75.6717, 15.9166], [75.6724, 15.9168], [75.6724, 15.9167], [75.6725, 15.9161], [75.6725, 15.916], [75.6725, 15.9157], [75.6727, 15.9157], [75.673, 15.9159], [75.6732, 15.9159], [75.6733, 15.9159], [75.6736, 15.916], [75.6738, 15.9161], [75.6741, 15.9161], [75.6745, 15.9162], [75.6749, 15.9163], [75.6756, 15.9164], [75.6757, 15.9164], [75.6764, 15.9166], [75.677, 15.9166], [75.6777, 15.9168], [75.6779, 15.9168], [75.6781, 15.9168], [75.6782, 15.9169], [75.6783, 15.9169], [75.6785, 15.9171], [75.6791, 15.9175], [75.6793, 15.9176], [75.6794, 15.9178], [75.6797, 15.9179], [75.6799, 15.918], [75.6799, 15.9181], [75.68, 15.9181], [75.68, 15.9182], [75.6802, 15.9183], [75.6804, 15.9184], [75.6804, 15.9185], [75.6805, 15.9186], [75.6806, 15.9186], [75.6807, 15.9185], [75.6807, 15.9184]]]}, "properties": {"objectid": 153848, "statename": "Karnataka", "statecode": "29", "districtname": "", "districtcode": "556", "ulbname": "Badami", "ulbcode": "803046", "wardname": "Ward 10", "wardcode": "10", "id": null, "status": "APPROVED", "misglobalid": null, "approved_by": null, "createdate": 1644563842000, "updateddate": 1670304345000, "globalid": null, "gisglobalid": "Q4ca5oaK-4aQl-PBKd-sKm4-K5oBc466ds6c", "remark": "Approved", "st_area(shape)": 0.00019418958536322853, "st_perimeter(shape)": 0.13131014253974715}}, {"type": "Feature", "geometry": {"type": "Polygon", "coordinates": [[[75.6856, 15.914], [75.6857, 15.9136], [75.6858, 15.9136], [75.6858, 15.9134], [75.686, 15.9131], [75.6873, 15.912], [75.6884, 15.9119], [75.6885, 15.9119], [75.6888, 15.9116], [75.6889, 15.9115], [75.689, 15.9114], [75.6892, 15.9112], [75.6897, 15.9114], [75.6898, 15.9117], [75.6899, 15.9118], [75.6903, 15.9117], [75.6905, 15.9118], [75.691, 15.9118], [75.6912, 15.9116], [75.6913, 15.9114], [75.6914, 15.9114], [75.6918, 15.9113], [75.6919, 15.9111], [75.6919, 15.911], [75.6919, 15.9109], [75.6919, 15.9108], [75.6917, 15.9108], [75.6912, 15.9106], [75.6909, 15.9103], [75.6906, 15.9099], [75.6903, 15.9096], [75.69, 15.9093], [75.6896, 15.9091], [75.6888, 15.9087], [75.6885, 15.9085], [75.688, 15.9085], [75.6881, 15.9085], [75.6881, 15.9084], [75.6882, 15.9083], [75.6883, 15.9082], [75.6884, 15.908], [75.6886, 15.9079], [75.6886, 15.9078], [75.6887, 15.9077], [75.6888, 15.9075], [75.6889, 15.9074], [75.689, 15.9074], [75.6893, 15.907], [75.6894, 15.9069], [75.6897, 15.9066], [75.6898, 15.9065], [75.69, 15.9063], [75.6901, 15.9062], [75.6904, 15.9059], [75.6906, 15.9057], [75.6909, 15.9055], [75.6909, 15.9054], [75.6911, 15.9052], [75.6912, 15.9049], [75.6913, 15.9047], [75.6914, 15.9047], [75.6915, 15.9045], [75.6915, 15.9044], [75.6916, 15.9044], [75.6916, 15.9043], [75.6916, 15.9041], [75.6917, 15.904], [75.6917, 15.9039], [75.6924, 15.9032], [75.6926, 15.903], [75.6928, 15.9028], [75.6933, 15.9022], [75.6933, 15.9021], [75.6934, 15.9021], [75.6936, 15.9018], [75.6945, 15.9007], [75.6947, 15.9005], [75.6952, 15.8999], [75.6952, 15.8997], [75.6953, 15.8996], [75.6954, 15.8996], [75.6955, 15.8994], [75.6967, 15.898], [75.6975, 15.8972], [75.6972, 15.8971], [75.6973, 15.8966], [75.6973, 15.8962], [75.6974, 15.8953], [75.6958, 15.8953], [75.6956, 15.8953], [75.6952, 15.8966], [75.6949, 15.8974], [75.6941, 15.8977], [75.6941, 15.8975], [75.694, 15.8974], [75.6939, 15.8974], [75.6933, 15.8971], [75.6932, 15.8971], [75.6931, 15.897], [75.6928, 15.8968], [75.6924, 15.8965], [75.6924, 15.8964], [75.6923, 15.8964], [75.6922, 15.8964], [75.6918, 15.8963], [75.6917, 15.8963], [75.6916, 15.8963], [75.6913, 15.8964], [75.691, 15.8965], [75.6908, 15.8965], [75.6907, 15.8965], [75.6904, 15.8966], [75.6903, 15.8967], [75.6901, 15.897], [75.6898, 15.8972], [75.6895, 15.8975], [75.6895, 15.8976], [75.6895, 15.8978], [75.6893, 15.8983], [75.6893, 15.8984], [75.6892, 15.8986], [75.6891, 15.8991], [75.689, 15.9003], [75.6888, 15.9008], [75.6886, 15.9014], [75.6885, 15.9018], [75.6883, 15.9025], [75.6875, 15.9024], [75.6866, 15.9023], [75.6863, 15.9022], [75.6863, 15.9026], [75.6863, 15.9027], [75.6863, 15.9029], [75.6853, 15.9028], [75.6846, 15.9027], [75.6846, 15.9026], [75.6848, 15.9006], [75.6841, 15.9009], [75.6839, 15.901], [75.6835, 15.901], [75.6831, 15.9011], [75.683, 15.901], [75.6827, 15.902], [75.6827, 15.9021], [75.6825, 15.9022], [75.6824, 15.9022], [75.6819, 15.9023], [75.6813, 15.9025], [75.6811, 15.9026], [75.6812, 15.9031], [75.6812, 15.9036], [75.6811, 15.9038], [75.6812, 15.906], [75.6814, 15.9072], [75.6814, 15.9078], [75.6814, 15.909], [75.6806, 15.9089], [75.6806, 15.9093], [75.6806, 15.9096], [75.6806, 15.9097], [75.6806, 15.9101], [75.6807, 15.9104], [75.6807, 15.9109], [75.6807, 15.911], [75.6807, 15.9111], [75.6807, 15.9116], [75.6807, 15.9118], [75.6808, 15.9122], [75.6808, 15.9123], [75.6808, 15.9125], [75.6808, 15.9126], [75.6808, 15.9127], [75.6808, 15.9129], [75.6808, 15.9131], [75.6809, 15.9135], [75.6809, 15.9136], [75.6809, 15.9137], [75.6809, 15.9139], [75.6809, 15.914], [75.6809, 15.9142], [75.681, 15.9143], [75.681, 15.9146], [75.681, 15.9147], [75.681, 15.9148], [75.681, 15.9149], [75.681, 15.915], [75.6811, 15.9153], [75.6811, 15.9155], [75.6812, 15.9156], [75.6812, 15.9158], [75.6812, 15.9159], [75.6812, 15.916], [75.6811, 15.9162], [75.6811, 15.9163], [75.6811, 15.9164], [75.6811, 15.9165], [75.6811, 15.9167], [75.6812, 15.9168], [75.6813, 15.9169], [75.6814, 15.9169], [75.6814, 15.9168], [75.682, 15.916], [75.6822, 15.9157], [75.6827, 15.915], [75.6828, 15.9149], [75.683, 15.9147], [75.6833, 15.9143], [75.6835, 15.914], [75.6837, 15.9138], [75.6837, 15.9137], [75.6841, 15.9132], [75.6849, 15.9135], [75.6852, 15.9136], [75.6852, 15.9137], [75.6852, 15.9138], [75.6853, 15.9138], [75.6854, 15.9139], [75.6856, 15.914]]]}, "properties": {"objectid": 150697, "statename": "Karnataka", "statecode": "29", "districtname": "", "districtcode": "556", "ulbname": "Badami", "ulbcode": "803046", "wardname": "Ward 11", "wardcode": "11", "id": null, "status": "APPROVED", "misglobalid": null, "approved_by": null, "createdate": 1644563842000, "updateddate": 1670304359000, "globalid": null, "gisglobalid": "dRoQPcK6-cPmB-PmBo-sdcK-domBn5n4dnRB", "remark": "Approved", "st_area(shape)": 0.00014484631910394223, "st_perimeter(shape)": 0.07899545627941025}}, {"type": "Feature", "geometry": {"type": "Polygon", "coordinates": [[[75.6821, 15.9169], [75.6821, 15.9168], [75.6822, 15.9168], [75.6822, 15.9167], [75.6824, 15.9166], [75.6825, 15.9166], [75.6825, 15.9165], [75.6826, 15.9165], [75.6827, 15.9165], [75.683, 15.9165], [75.6831, 15.9166], [75.6832, 15.9166], [75.6834, 15.9167], [75.6835, 15.9167], [75.6836, 15.9167], [75.6837, 15.9167], [75.6841, 15.9168], [75.6842, 15.9168], [75.6843, 15.9166], [75.6844, 15.9165], [75.6847, 15.916], [75.6848, 15.9158], [75.6849, 15.9157], [75.6853, 15.9152], [75.6855, 15.9145], [75.6855, 15.9144], [75.6856, 15.914], [75.6854, 15.9139], [75.6853, 15.9138], [75.6852, 15.9138], [75.6852, 15.9137], [75.6852, 15.9136], [75.6849, 15.9135], [75.6841, 15.9132], [75.6837, 15.9137], [75.6837, 15.9138], [75.6835, 15.914], [75.6833, 15.9143], [75.683, 15.9147], [75.6828, 15.9149], [75.6827, 15.915], [75.6822, 15.9157], [75.682, 15.916], [75.6814, 15.9168], [75.6814, 15.9169], [75.6813, 15.9169], [75.6812, 15.9171], [75.6813, 15.9172], [75.6818, 15.9172], [75.6818, 15.9171], [75.6819, 15.917], [75.6821, 15.9169]]]}, "properties": {"objectid": 155425, "statename": "Karnataka", "statecode": "29", "districtname": "", "districtcode": "556", "ulbname": "Badami", "ulbcode": "803046", "wardname": "Ward 12", "wardcode": "12", "id": null, "status": "APPROVED", "misglobalid": null, "approved_by": null, "createdate": 1644563842000, "updateddate": 1670304368000, "globalid": null, "gisglobalid": "PoaRcac5-nlao-P5Qs-ss5d-5os6QRBa5aPs", "remark": "Approved", "st_area(shape)": 8.19592478507622e-06, "st_perimeter(shape)": 0.013374367877759722}}, {"type": "Feature", "geometry": {"type": "Polygon", "coordinates": [[[75.6838, 15.9182], [75.6838, 15.9177], [75.6838, 15.9174], [75.6839, 15.9173], [75.684, 15.9172], [75.6841, 15.917], [75.6842, 15.9169], [75.6842, 15.9168], [75.6841, 15.9168], [75.6837, 15.9167], [75.6836, 15.9167], [75.6835, 15.9167], [75.6834, 15.9167], [75.6832, 15.9166], [75.6831, 15.9166], [75.683, 15.9165], [75.6827, 15.9165], [75.6826, 15.9165], [75.6825, 15.9165], [75.6825, 15.9166], [75.6824, 15.9166], [75.6822, 15.9167], [75.6822, 15.9168], [75.6821, 15.9168], [75.6821, 15.9169], [75.6822, 15.9169], [75.6823, 15.9169], [75.6824, 15.9169], [75.6827, 15.9169], [75.6828, 15.9172], [75.6828, 15.9173], [75.6828, 15.9174], [75.6829, 15.9177], [75.6829, 15.9179], [75.683, 15.918], [75.683, 15.9182], [75.6831, 15.9184], [75.6831, 15.9186], [75.6833, 15.9186], [75.6836, 15.9186], [75.6837, 15.9186], [75.6838, 15.9186], [75.6839, 15.9186], [75.6839, 15.9185], [75.6839, 15.9184], [75.6838, 15.9183], [75.6838, 15.9182]]]}, "properties": {"objectid": 154640, "statename": "Karnataka", "statecode": "29", "districtname": "", "districtcode": "556", "ulbname": "Badami", "ulbcode": "803046", "wardname": "Ward 13", "wardcode": "13", "id": null, "status": "APPROVED", "misglobalid": null, "approved_by": null, "createdate": 1644563842000, "updateddate": 1670304378000, "globalid": null, "gisglobalid": "mlRBsR6B-4nsn-PK45-R4ll-d6oRBaoQ46lR", "remark": "Approved", "st_area(shape)": 2.1513366245749464e-06, "st_perimeter(shape)": 0.007448289471648635}}, {"type": "Feature", "geometry": {"type": "Polygon", "coordinates": [[[75.6821, 15.9169], [75.6819, 15.917], [75.6818, 15.9171], [75.6818, 15.9172], [75.6813, 15.9172], [75.6812, 15.9171], [75.6812, 15.9172], [75.6811, 15.9173], [75.681, 15.9175], [75.6808, 15.9179], [75.6807, 15.9183], [75.6807, 15.9184], [75.6808, 15.9184], [75.6809, 15.9184], [75.681, 15.9184], [75.6811, 15.9183], [75.6812, 15.9183], [75.6814, 15.9183], [75.6817, 15.9184], [75.6818, 15.9185], [75.6819, 15.9186], [75.6822, 15.9186], [75.6823, 15.9186], [75.6825, 15.9186], [75.6828, 15.9186], [75.6829, 15.9186], [75.683, 15.9186], [75.6831, 15.9186], [75.6831, 15.9184], [75.683, 15.9182], [75.683, 15.918], [75.6829, 15.9179], [75.6829, 15.9177], [75.6828, 15.9174], [75.6828, 15.9173], [75.6828, 15.9172], [75.6827, 15.9169], [75.6824, 15.9169], [75.6823, 15.9169], [75.6822, 15.9169], [75.6821, 15.9169]]]}, "properties": {"objectid": 155844, "statename": "Karnataka", "statecode": "29", "districtname": "", "districtcode": "556", "ulbname": "Badami", "ulbcode": "803046", "wardname": "Ward 14", "wardcode": "14", "id": null, "status": "APPROVED", "misglobalid": null, "approved_by": null, "createdate": 1644563842000, "updateddate": 1670304386000, "globalid": null, "gisglobalid": "Kaos5mdB-KllK-PPd4-Ql6K-P6aQsKB44Rco", "remark": "Approved", "st_area(shape)": 2.87313670659474e-06, "st_perimeter(shape)": 0.007329714422897375}}, {"type": "Feature", "geometry": {"type": "Polygon", "coordinates": [[[75.6815, 15.92], [75.6816, 15.92], [75.6817, 15.92], [75.6818, 15.92], [75.6819, 15.92], [75.682, 15.9199], [75.6821, 15.9199], [75.6821, 15.9198], [75.6822, 15.9198], [75.6823, 15.9198], [75.6824, 15.9198], [75.6825, 15.9198], [75.6826, 15.9198], [75.683, 15.9197], [75.6831, 15.9197], [75.6832, 15.9197], [75.6832, 15.9196], [75.6832, 15.9195], [75.6832, 15.9194], [75.6832, 15.9193], [75.6833, 15.9193], [75.6833, 15.9192], [75.683, 15.9192], [75.683, 15.9193], [75.6829, 15.9193], [75.6825, 15.9193], [75.6825, 15.9192], [75.6824, 15.9192], [75.6823, 15.9192], [75.6819, 15.9191], [75.6817, 15.9191], [75.6816, 15.9189], [75.6817, 15.9187], [75.6817, 15.9186], [75.6818, 15.9186], [75.6818, 15.9185], [75.6817, 15.9184], [75.6814, 15.9183], [75.6812, 15.9183], [75.6811, 15.9183], [75.681, 15.9184], [75.6809, 15.9184], [75.6808, 15.9184], [75.6807, 15.9184], [75.6807, 15.9185], [75.6806, 15.9186], [75.6806, 15.9187], [75.6806, 15.9188], [75.6806, 15.9189], [75.6805, 15.9192], [75.6805, 15.9195], [75.6805, 15.9196], [75.6804, 15.9197], [75.6803, 15.9199], [75.6803, 15.92], [75.6803, 15.9201], [75.6804, 15.9201], [75.6807, 15.9201], [75.6808, 15.9201], [75.6811, 15.9201], [75.6811, 15.92], [75.6813, 15.92], [75.6814, 15.92], [75.6815, 15.92]]]}, "properties": {"objectid": 154260, "statename": "Karnataka", "statecode": "29", "districtname": "", "districtcode": "556", "ulbname": "Badami", "ulbcode": "803046", "wardname": "Ward 15", "wardcode": "15", "id": null, "status": "APPROVED", "misglobalid": null, "approved_by": null, "createdate": 1644563842000, "updateddate": 1670304397000, "globalid": null, "gisglobalid": "nsB6l5KR-mlBB-PRol-Qnos-s6Qc55nQ45sQ", "remark": "Approved", "st_area(shape)": 2.942454891413804e-06, "st_perimeter(shape)": 0.009096022785410883}}, {"type": "Feature", "geometry": {"type": "Polygon", "coordinates": [[[75.6848, 15.9187], [75.6847, 15.9187], [75.684, 15.9183], [75.6839, 15.9182], [75.6838, 15.9182], [75.6838, 15.9183], [75.6839, 15.9184], [75.6839, 15.9185], [75.6839, 15.9186], [75.6838, 15.9186], [75.6837, 15.9186], [75.6836, 15.9186], [75.6833, 15.9186], [75.6831, 15.9186], [75.683, 15.9186], [75.6829, 15.9186], [75.6828, 15.9186], [75.6825, 15.9186], [75.6823, 15.9186], [75.6822, 15.9186], [75.6819, 15.9186], [75.6818, 15.9185], [75.6818, 15.9186], [75.6817, 15.9186], [75.6817, 15.9187], [75.6816, 15.9189], [75.6817, 15.9191], [75.6819, 15.9191], [75.6823, 15.9192], [75.6824, 15.9192], [75.6825, 15.9192], [75.6825, 15.9193], [75.6829, 15.9193], [75.683, 15.9193], [75.683, 15.9192], [75.6833, 15.9192], [75.6833, 15.9193], [75.6832, 15.9193], [75.6832, 15.9194], [75.6832, 15.9195], [75.6832, 15.9196], [75.6832, 15.9197], [75.6833, 15.9197], [75.6835, 15.9198], [75.6837, 15.9198], [75.684, 15.9198], [75.6841, 15.9198], [75.6844, 15.9198], [75.6844, 15.9196], [75.6845, 15.9193], [75.6846, 15.9191], [75.6847, 15.9189], [75.6847, 15.9188], [75.6848, 15.9187]]]}, "properties": {"objectid": 154262, "statename": "Karnataka", "statecode": "29", "districtname": "", "districtcode": "556", "ulbname": "Badami", "ulbcode": "803046", "wardname": "Ward 16", "wardcode": "16", "id": null, "status": "APPROVED", "misglobalid": null, "approved_by": null, "createdate": 1644563842000, "updateddate": 1670304406000, "globalid": null, "gisglobalid": "n6B4nQmK-asBm-P6oK-QRKK-nl4oP4mcBad5", "remark": "Approved", "st_area(shape)": 2.700674390814756e-06, "st_perimeter(shape)": 0.009105114840087355}}, {"type": "Feature", "geometry": {"type": "Polygon", "coordinates": [[[75.6879, 15.9213], [75.6886, 15.9209], [75.6888, 15.9208], [75.6889, 15.9204], [75.6889, 15.9203], [75.6887, 15.9201], [75.6887, 15.92], [75.6887, 15.9195], [75.6882, 15.9192], [75.688, 15.9192], [75.6876, 15.919], [75.6876, 15.9189], [75.6874, 15.9188], [75.6872, 15.9186], [75.6862, 15.9189], [75.6859, 15.9189], [75.6853, 15.9188], [75.6852, 15.9188], [75.685, 15.9188], [75.6849, 15.9188], [75.6848, 15.9188], [75.6848, 15.9187], [75.6847, 15.9188], [75.6847, 15.9189], [75.6846, 15.9191], [75.6845, 15.9193], [75.6844, 15.9196], [75.6844, 15.9198], [75.6841, 15.9198], [75.684, 15.9198], [75.6837, 15.9198], [75.6835, 15.9198], [75.6833, 15.9197], [75.6832, 15.9197], [75.6831, 15.9197], [75.683, 15.9197], [75.6826, 15.9198], [75.6825, 15.9198], [75.6824, 15.9198], [75.6823, 15.9198], [75.6822, 15.9198], [75.6821, 15.9198], [75.6821, 15.9199], [75.682, 15.9199], [75.6819, 15.92], [75.6818, 15.92], [75.6817, 15.92], [75.6816, 15.92], [75.6815, 15.92], [75.6815, 15.9201], [75.6815, 15.9202], [75.6815, 15.9203], [75.6815, 15.9205], [75.6814, 15.9207], [75.6814, 15.9208], [75.6814, 15.921], [75.6814, 15.9211], [75.6814, 15.9212], [75.6814, 15.9213], [75.6814, 15.9214], [75.6814, 15.9215], [75.6815, 15.9215], [75.6828, 15.9213], [75.6847, 15.9211], [75.686, 15.921], [75.6866, 15.921], [75.6871, 15.9209], [75.6872, 15.921], [75.6875, 15.9211], [75.6878, 15.9213], [75.6879, 15.9213]]]}, "properties": {"objectid": 150696, "statename": "Karnataka", "statecode": "29", "districtname": "", "districtcode": "556", "ulbname": "Badami", "ulbcode": "803046", "wardname": "Ward 17", "wardcode": "17", "id": null, "status": "APPROVED", "misglobalid": null, "approved_by": null, "createdate": 1644563842000, "updateddate": 1670304415000, "globalid": null, "gisglobalid": "ooPccRRa-R4n6-PRdm-aPR6-aBaomlQBoQdd", "remark": "Approved", "st_area(shape)": 1.3537517810256427e-05, "st_perimeter(shape)": 0.01889233046963287}}, {"type": "Feature", "geometry": {"type": "Polygon", "coordinates": [[[75.6812, 15.9215], [75.6814, 15.9215], [75.6814, 15.9214], [75.6814, 15.9213], [75.6814, 15.9212], [75.6814, 15.9211], [75.6814, 15.921], [75.6814, 15.9208], [75.6814, 15.9207], [75.6815, 15.9205], [75.6815, 15.9203], [75.6815, 15.9202], [75.6815, 15.9201], [75.6815, 15.92], [75.6814, 15.92], [75.6813, 15.92], [75.6811, 15.92], [75.6811, 15.9201], [75.6808, 15.9201], [75.6807, 15.9201], [75.6804, 15.9201], [75.6803, 15.9201], [75.6802, 15.9202], [75.6802, 15.9204], [75.6801, 15.9207], [75.68, 15.9211], [75.6799, 15.9215], [75.6798, 15.9215], [75.6798, 15.9216], [75.6798, 15.9217], [75.6798, 15.9218], [75.6801, 15.9219], [75.6803, 15.922], [75.6807, 15.922], [75.6808, 15.922], [75.6808, 15.9215], [75.6812, 15.9215]]]}, "properties": {"objectid": 154261, "statename": "Karnataka", "statecode": "29", "districtname": "", "districtcode": "556", "ulbname": "Badami", "ulbcode": "803046", "wardname": "Ward 18", "wardcode": "18", "id": null, "status": "APPROVED", "misglobalid": null, "approved_by": null, "createdate": 1644563842000, "updateddate": 1670304426000, "globalid": null, "gisglobalid": "mP6mno4a-dsaB-P45a-Q6da-BBKadRKnm5cd", "remark": "Approved", "st_area(shape)": 2.3760374614424346e-06, "st_perimeter(shape)": 0.006648103905369236}}, {"type": "Feature", "geometry": {"type": "Polygon", "coordinates": [[[75.6884, 15.9243], [75.6883, 15.9241], [75.6881, 15.9237], [75.6881, 15.9235], [75.688, 15.9233], [75.6879, 15.9231], [75.6878, 15.9231], [75.6877, 15.9228], [75.6873, 15.922], [75.6874, 15.9219], [75.6878, 15.9215], [75.6878, 15.9214], [75.6879, 15.9213], [75.6878, 15.9213], [75.6875, 15.9211], [75.6872, 15.921], [75.6871, 15.9209], [75.6866, 15.921], [75.686, 15.921], [75.6847, 15.9211], [75.6828, 15.9213], [75.6815, 15.9215], [75.6814, 15.9215], [75.6812, 15.9215], [75.6812, 15.9216], [75.6812, 15.9217], [75.6812, 15.9219], [75.6811, 15.9219], [75.6811, 15.922], [75.6812, 15.9222], [75.6812, 15.9224], [75.6812, 15.9225], [75.6813, 15.9226], [75.6813, 15.9227], [75.6813, 15.9228], [75.6813, 15.9229], [75.6815, 15.9233], [75.6815, 15.9234], [75.6814, 15.9234], [75.6813, 15.9235], [75.6812, 15.9235], [75.6811, 15.9235], [75.681, 15.9236], [75.6808, 15.9237], [75.6808, 15.9238], [75.6809, 15.924], [75.681, 15.9241], [75.6813, 15.9243], [75.6818, 15.9247], [75.6819, 15.9248], [75.682, 15.9248], [75.682, 15.925], [75.682, 15.9251], [75.682, 15.9252], [75.6818, 15.9255], [75.6818, 15.9257], [75.6819, 15.9257], [75.6819, 15.9258], [75.6821, 15.9258], [75.6824, 15.9259], [75.6825, 15.9259], [75.6826, 15.9259], [75.6827, 15.926], [75.6841, 15.9264], [75.6841, 15.9256], [75.6845, 15.9254], [75.6857, 15.9245], [75.6862, 15.9244], [75.6866, 15.925], [75.6877, 15.9245], [75.6877, 15.9244], [75.6881, 15.9245], [75.6885, 15.9245], [75.6885, 15.9244], [75.6884, 15.9243]]]}, "properties": {"objectid": 154641, "statename": "Karnataka", "statecode": "29", "districtname": "", "districtcode": "556", "ulbname": "Badami", "ulbcode": "803046", "wardname": "Ward 19", "wardcode": "19", "id": null, "status": "APPROVED", "misglobalid": null, "approved_by": null, "createdate": 1644563842000, "updateddate": 1670304440000, "globalid": null, "gisglobalid": "PBc5nacK-na4Q-PaPa-Qmos-KQ6dBaaRacmB", "remark": "Approved", "st_area(shape)": 2.6851132984541694e-05, "st_perimeter(shape)": 0.024348824192926333}}, {"type": "Feature", "geometry": {"type": "Polygon", "coordinates": [[[75.6812, 15.9215], [75.6808, 15.9215], [75.6808, 15.922], [75.6809, 15.922], [75.6809, 15.9221], [75.6808, 15.9221], [75.6808, 15.9224], [75.6808, 15.9225], [75.6808, 15.9226], [75.6809, 15.9229], [75.6809, 15.9231], [75.6809, 15.9232], [75.681, 15.9232], [75.6811, 15.9234], [75.6811, 15.9235], [75.6812, 15.9235], [75.6813, 15.9235], [75.6814, 15.9234], [75.6815, 15.9234], [75.6815, 15.9233], [75.6813, 15.9229], [75.6813, 15.9228], [75.6813, 15.9227], [75.6813, 15.9226], [75.6812, 15.9225], [75.6812, 15.9224], [75.6812, 15.9222], [75.6811, 15.922], [75.6811, 15.9219], [75.6812, 15.9219], [75.6812, 15.9217], [75.6812, 15.9216], [75.6812, 15.9215]]]}, "properties": {"objectid": 155845, "statename": "Karnataka", "statecode": "29", "districtname": "", "districtcode": "556", "ulbname": "Badami", "ulbcode": "803046", "wardname": "Ward 20", "wardcode": "20", "id": null, "status": "APPROVED", "misglobalid": null, "approved_by": null, "createdate": 1644563842000, "updateddate": 1670304452000, "globalid": null, "gisglobalid": "c54aRs4P-soKB-Pcoc-sPno-amnKPBcaKP5a", "remark": "Approved", "st_area(shape)": 7.799154368963428e-07, "st_perimeter(shape)": 0.0049017361115487774}}, {"type": "Feature", "geometry": {"type": "Polygon", "coordinates": [[[75.6812, 15.9235], [75.6811, 15.9235], [75.6811, 15.9234], [75.681, 15.9232], [75.6809, 15.9232], [75.6809, 15.9231], [75.6809, 15.9229], [75.6808, 15.9226], [75.6808, 15.9225], [75.6808, 15.9224], [75.6808, 15.9221], [75.6809, 15.9221], [75.6809, 15.922], [75.6808, 15.922], [75.6807, 15.922], [75.6803, 15.922], [75.6801, 15.9219], [75.6798, 15.9218], [75.6797, 15.9219], [75.6796, 15.9224], [75.6796, 15.9225], [75.6795, 15.9226], [75.6795, 15.9227], [75.6797, 15.9227], [75.68, 15.9227], [75.68, 15.9226], [75.6801, 15.9226], [75.6802, 15.9226], [75.6803, 15.9226], [75.6804, 15.9226], [75.6805, 15.9226], [75.6805, 15.9227], [75.6806, 15.9227], [75.6806, 15.923], [75.6805, 15.9231], [75.6805, 15.9232], [75.6804, 15.9232], [75.6806, 15.9234], [75.6807, 15.9236], [75.6807, 15.9237], [75.6808, 15.9238], [75.6808, 15.9237], [75.681, 15.9236], [75.6811, 15.9235], [75.6812, 15.9235]]]}, "properties": {"objectid": 155426, "statename": "Karnataka", "statecode": "29", "districtname": "", "districtcode": "556", "ulbname": "Badami", "ulbcode": "803046", "wardname": "Ward 21", "wardcode": "21", "id": null, "status": "APPROVED", "misglobalid": null, "approved_by": null, "createdate": 1644563842000, "updateddate": 1670304464000, "globalid": null, "gisglobalid": "Qa56o5s5-noa4-P5oa-R6ld-PamsanQRB46c", "remark": "Approved", "st_area(shape)": 1.3167380711051796e-06, "st_perimeter(shape)": 0.0066373980307805735}}, {"type": "Feature", "geometry": {"type": "Polygon", "coordinates": [[[75.6884, 15.9243], [75.6885, 15.9244], [75.6885, 15.9245], [75.6881, 15.9245], [75.6877, 15.9244], [75.6877, 15.9245], [75.6866, 15.925], [75.6862, 15.9244], [75.6857, 15.9245], [75.6845, 15.9254], [75.6841, 15.9256], [75.6841, 15.9264], [75.6827, 15.926], [75.6826, 15.9259], [75.6825, 15.9259], [75.6824, 15.9259], [75.6821, 15.9258], [75.6819, 15.9258], [75.6819, 15.9257], [75.6818, 15.9257], [75.6818, 15.9255], [75.682, 15.9252], [75.682, 15.9251], [75.682, 15.925], [75.682, 15.9248], [75.6819, 15.9248], [75.6818, 15.9247], [75.6813, 15.9243], [75.681, 15.9241], [75.6809, 15.924], [75.6808, 15.9238], [75.6807, 15.9237], [75.6807, 15.9236], [75.6806, 15.9234], [75.6804, 15.9232], [75.6805, 15.9232], [75.6805, 15.9231], [75.6806, 15.923], [75.6806, 15.9227], [75.6805, 15.9227], [75.6805, 15.9226], [75.6804, 15.9226], [75.6803, 15.9226], [75.6802, 15.9226], [75.6801, 15.9226], [75.68, 15.9226], [75.68, 15.9227], [75.6797, 15.9227], [75.6795, 15.9227], [75.6794, 15.9229], [75.6794, 15.9231], [75.6794, 15.9232], [75.6793, 15.9232], [75.6792, 15.9237], [75.6792, 15.9238], [75.6791, 15.924], [75.6791, 15.9242], [75.679, 15.9243], [75.679, 15.9245], [75.6789, 15.9246], [75.6788, 15.9251], [75.6787, 15.9253], [75.6785, 15.9257], [75.6785, 15.9258], [75.6783, 15.9261], [75.6783, 15.9262], [75.6783, 15.9263], [75.6782, 15.9265], [75.6783, 15.9265], [75.6784, 15.9265], [75.6786, 15.9266], [75.6787, 15.9266], [75.6788, 15.9266], [75.6789, 15.9265], [75.6792, 15.9265], [75.6795, 15.9265], [75.6796, 15.9265], [75.6797, 15.9265], [75.6798, 15.9265], [75.6799, 15.9265], [75.6803, 15.9265], [75.6804, 15.9265], [75.6806, 15.9265], [75.6807, 15.9265], [75.6815, 15.9265], [75.6815, 15.9268], [75.6814, 15.9272], [75.6814, 15.9273], [75.6814, 15.9274], [75.6813, 15.9276], [75.6814, 15.9276], [75.6815, 15.9277], [75.6816, 15.9277], [75.6817, 15.9277], [75.6819, 15.9278], [75.6821, 15.9278], [75.6835, 15.9282], [75.6839, 15.9283], [75.6842, 15.9284], [75.6847, 15.9286], [75.6852, 15.9287], [75.686, 15.9289], [75.6862, 15.929], [75.6863, 15.929], [75.6865, 15.9291], [75.6866, 15.9291], [75.6867, 15.9291], [75.6869, 15.9292], [75.688, 15.9288], [75.6883, 15.9287], [75.6886, 15.9286], [75.6892, 15.9281], [75.6897, 15.9278], [75.69, 15.9276], [75.6903, 15.9272], [75.6903, 15.9267], [75.6903, 15.9259], [75.6897, 15.9255], [75.6888, 15.9249], [75.6889, 15.9247], [75.689, 15.9246], [75.689, 15.9244], [75.6886, 15.9244], [75.6885, 15.9243], [75.6884, 15.9243]]]}, "properties": {"objectid": 147454, "statename": "Karnataka", "statecode": "29", "districtname": "", "districtcode": "556", "ulbname": "Badami", "ulbcode": "803046", "wardname": "Ward 22", "wardcode": "22", "id": null, "status": "APPROVED", "misglobalid": null, "approved_by": null, "createdate": 1644563842000, "updateddate": 1670304475000, "globalid": null, "gisglobalid": "oanK6ll4-PoP4-P6Bo-aa4Q-d4nP5cPmnsQQ", "remark": "Approved", "st_area(shape)": 3.739984198732897e-05, "st_perimeter(shape)": 0.03627974279886311}}, {"type": "Feature", "geometry": {"type": "Polygon", "coordinates": [[[75.6815, 15.9277], [75.6814, 15.9276], [75.6813, 15.9276], [75.6814, 15.9274], [75.6814, 15.9273], [75.6814, 15.9272], [75.6815, 15.9268], [75.6815, 15.9265], [75.6807, 15.9265], [75.6806, 15.9265], [75.6804, 15.9265], [75.6803, 15.9265], [75.6799, 15.9265], [75.6798, 15.9265], [75.6797, 15.9265], [75.6796, 15.9265], [75.6795, 15.9265], [75.6792, 15.9265], [75.6789, 15.9265], [75.6788, 15.9266], [75.6787, 15.9266], [75.6786, 15.9266], [75.6784, 15.9265], [75.6783, 15.9265], [75.6782, 15.9265], [75.6781, 15.9266], [75.678, 15.9268], [75.678, 15.927], [75.6779, 15.9271], [75.6778, 15.9276], [75.6777, 15.9276], [75.6776, 15.9279], [75.6776, 15.928], [75.6775, 15.9282], [75.6774, 15.9284], [75.6774, 15.9285], [75.6773, 15.9285], [75.6772, 15.9288], [75.6771, 15.9292], [75.6769, 15.9296], [75.6768, 15.9297], [75.6767, 15.9298], [75.6767, 15.9299], [75.6767, 15.93], [75.6766, 15.9301], [75.6766, 15.9302], [75.6766, 15.9303], [75.6765, 15.9307], [75.6765, 15.9309], [75.6764, 15.9311], [75.6763, 15.9313], [75.6763, 15.9314], [75.6762, 15.9318], [75.6761, 15.932], [75.6761, 15.9323], [75.676, 15.9324], [75.676, 15.9329], [75.6759, 15.9334], [75.6759, 15.9335], [75.6758, 15.9339], [75.6757, 15.9342], [75.6757, 15.9343], [75.6757, 15.9347], [75.6756, 15.9351], [75.6756, 15.9355], [75.6756, 15.936], [75.6755, 15.9365], [75.6755, 15.9371], [75.6755, 15.9372], [75.6755, 15.9377], [75.6755, 15.9378], [75.6754, 15.9386], [75.6755, 15.9386], [75.6757, 15.9386], [75.6762, 15.9386], [75.6763, 15.9382], [75.6764, 15.938], [75.6764, 15.9372], [75.6762, 15.9367], [75.6761, 15.9366], [75.676, 15.9364], [75.6766, 15.9358], [75.6772, 15.9357], [75.6778, 15.9355], [75.6783, 15.9354], [75.6783, 15.9353], [75.6782, 15.9347], [75.6782, 15.9346], [75.6785, 15.9342], [75.6789, 15.934], [75.6802, 15.9335], [75.6806, 15.9336], [75.6808, 15.9334], [75.6829, 15.9332], [75.6842, 15.9331], [75.6844, 15.9331], [75.684, 15.9326], [75.6836, 15.9322], [75.6836, 15.9321], [75.6833, 15.9317], [75.6819, 15.93], [75.6815, 15.9295], [75.6814, 15.9294], [75.681, 15.9288], [75.6809, 15.9284], [75.6815, 15.9277]]]}, "properties": {"objectid": 150698, "statename": "Karnataka", "statecode": "29", "districtname": "", "districtcode": "556", "ulbname": "Badami", "ulbcode": "803046", "wardname": "Ward 23", "wardcode": "23", "id": null, "status": "APPROVED", "misglobalid": null, "approved_by": null, "createdate": 1644563842000, "updateddate": 1670304486000, "globalid": null, "gisglobalid": "lsRn6KBa-cmQP-PQ6P-Q4Kl-PBmBPnKl4nPP", "remark": "Approved", "st_area(shape)": 4.58780464601974e-05, "st_perimeter(shape)": 0.037311305134646235}}]}
