{"type": "FeatureCollection", "features": [{"type": "Feature", "geometry": {"type": "Polygon", "coordinates": [[[73.8407, 18.1504], [73.8406, 18.1504], [73.8404, 18.1504], [73.8402, 18.1504], [73.84, 18.1504], [73.8399, 18.1504], [73.8398, 18.1504], [73.8398, 18.1505], [73.8399, 18.1509], [73.8397, 18.1509], [73.8394, 18.151], [73.8393, 18.151], [73.8393, 18.1507], [73.8392, 18.1504], [73.8391, 18.1501], [73.8391, 18.1497], [73.8391, 18.1488], [73.8392, 18.1479], [73.8393, 18.1479], [73.8394, 18.148], [73.8395, 18.148], [73.8395, 18.1479], [73.8395, 18.1478], [73.8394, 18.1464], [73.8394, 18.1452], [73.8397, 18.1449], [73.8403, 18.1438], [73.8396, 18.1435], [73.8392, 18.1435], [73.8388, 18.1435], [73.8386, 18.1436], [73.8382, 18.1435], [73.8364, 18.1429], [73.8344, 18.1423], [73.8332, 18.1419], [73.8323, 18.1416], [73.8321, 18.1418], [73.832, 18.1419], [73.832, 18.142], [73.8319, 18.1421], [73.8318, 18.1421], [73.8318, 18.1423], [73.8318, 18.1424], [73.8317, 18.1425], [73.8317, 18.1426], [73.8316, 18.1427], [73.8316, 18.1429], [73.8316, 18.1431], [73.8316, 18.1432], [73.8316, 18.1434], [73.8315, 18.1435], [73.8315, 18.1436], [73.8314, 18.1437], [73.8312, 18.1438], [73.8311, 18.1439], [73.831, 18.144], [73.831, 18.1441], [73.831, 18.1442], [73.8311, 18.1443], [73.831, 18.1444], [73.8312, 18.1444], [73.8312, 18.1445], [73.8312, 18.1446], [73.8313, 18.1447], [73.8313, 18.1449], [73.8312, 18.1449], [73.8311, 18.145], [73.831, 18.1451], [73.8309, 18.1452], [73.8308, 18.1453], [73.8306, 18.1454], [73.8305, 18.1454], [73.8304, 18.1455], [73.8303, 18.1456], [73.8303, 18.1457], [73.8304, 18.1458], [73.8305, 18.1459], [73.8306, 18.1459], [73.8308, 18.1459], [73.8309, 18.1459], [73.8309, 18.146], [73.831, 18.146], [73.831, 18.1461], [73.8311, 18.1462], [73.831, 18.1463], [73.831, 18.1464], [73.8309, 18.1464], [73.8308, 18.1465], [73.8307, 18.1466], [73.8307, 18.1467], [73.8306, 18.1467], [73.8305, 18.1468], [73.8304, 18.1468], [73.8302, 18.1468], [73.8302, 18.1466], [73.8302, 18.1465], [73.8301, 18.1464], [73.83, 18.1465], [73.83, 18.1466], [73.83, 18.1467], [73.83, 18.1468], [73.8301, 18.1469], [73.8302, 18.1469], [73.8302, 18.147], [73.8303, 18.1472], [73.8303, 18.1473], [73.8303, 18.1474], [73.8302, 18.1475], [73.8303, 18.1476], [73.8303, 18.1478], [73.8303, 18.1479], [73.8302, 18.1481], [73.8301, 18.1484], [73.83, 18.1485], [73.8299, 18.1488], [73.8299, 18.1489], [73.83, 18.149], [73.83, 18.1491], [73.83, 18.1493], [73.83, 18.1494], [73.83, 18.1496], [73.83, 18.1499], [73.8301, 18.1499], [73.8301, 18.15], [73.8301, 18.1501], [73.8302, 18.1502], [73.8303, 18.1503], [73.8304, 18.1503], [73.8305, 18.1503], [73.8306, 18.1503], [73.8307, 18.1504], [73.8308, 18.1505], [73.8308, 18.1506], [73.8307, 18.1507], [73.8307, 18.1509], [73.8307, 18.151], [73.8307, 18.1511], [73.8307, 18.1512], [73.8307, 18.1514], [73.8306, 18.1516], [73.8309, 18.1516], [73.8311, 18.1516], [73.8313, 18.1516], [73.8314, 18.1516], [73.8316, 18.1517], [73.8317, 18.1517], [73.8319, 18.1517], [73.832, 18.1518], [73.8322, 18.1518], [73.8324, 18.1519], [73.8325, 18.1519], [73.8326, 18.1519], [73.8327, 18.152], [73.8328, 18.152], [73.8333, 18.1525], [73.8334, 18.1527], [73.8335, 18.1529], [73.8336, 18.153], [73.8336, 18.1533], [73.8337, 18.1536], [73.8337, 18.1539], [73.8337, 18.154], [73.8338, 18.1542], [73.834, 18.1542], [73.8341, 18.1543], [73.8342, 18.1545], [73.8343, 18.1546], [73.8343, 18.1547], [73.8344, 18.1547], [73.8344, 18.1548], [73.8347, 18.1552], [73.8348, 18.1552], [73.8349, 18.1554], [73.835, 18.1555], [73.8351, 18.1556], [73.8353, 18.1558], [73.8355, 18.1559], [73.8359, 18.156], [73.8365, 18.1561], [73.8368, 18.1562], [73.8374, 18.1564], [73.8375, 18.1564], [73.8376, 18.1564], [73.8383, 18.1558], [73.8386, 18.1556], [73.8388, 18.1554], [73.8391, 18.1551], [73.8392, 18.155], [73.8394, 18.1542], [73.8396, 18.1538], [73.8402, 18.1536], [73.8405, 18.1534], [73.8407, 18.1534], [73.8408, 18.1534], [73.8408, 18.1531], [73.8407, 18.1528], [73.8407, 18.1527], [73.8407, 18.1524], [73.8407, 18.1522], [73.8408, 18.1518], [73.8408, 18.1517], [73.8408, 18.1514], [73.8408, 18.151], [73.8408, 18.1507], [73.8407, 18.1505], [73.8407, 18.1504]]]}, "properties": {"objectid": 37129, "statename": "Maharashtra", "statecode": "27", "districtname": null, "districtcode": "521", "ulbname": "Bhor", "ulbcode": "802819", "wardname": " Ward 1", "wardcode": "1", "id": null, "status": "APPROVED", "misglobalid": null, "approved_by": null, "createdate": 1637141311000, "updateddate": 1646726622000, "globalid": null, "gisglobalid": "0bdd54e8-af0c-47db-926f-1b7e6b9e20a0", "remark": "", "st_area(shape)": 0.0001067731118411347, "st_perimeter(shape)": 0.04889907089581968}}, {"type": "Feature", "geometry": {"type": "MultiPolygon", "coordinates": [[[[73.843, 18.1501], [73.8429, 18.1501], [73.8428, 18.1501], [73.8427, 18.1502], [73.8425, 18.1502], [73.8424, 18.1499], [73.8424, 18.1497], [73.8423, 18.1497], [73.8422, 18.1497], [73.8421, 18.1497], [73.842, 18.1497], [73.8419, 18.1498], [73.8419, 18.1495], [73.8418, 18.1493], [73.8417, 18.1492], [73.8416, 18.1492], [73.8416, 18.1491], [73.8415, 18.1492], [73.8414, 18.1492], [73.8412, 18.1493], [73.841, 18.1493], [73.8409, 18.1488], [73.8408, 18.1483], [73.8407, 18.1479], [73.8405, 18.1479], [73.8403, 18.1479], [73.8401, 18.1479], [73.8399, 18.1479], [73.8398, 18.148], [73.8396, 18.148], [73.8395, 18.148], [73.8394, 18.148], [73.8393, 18.1479], [73.8392, 18.1479], [73.8391, 18.1485], [73.8391, 18.1493], [73.8391, 18.1501], [73.8393, 18.151], [73.8394, 18.151], [73.8394, 18.1509], [73.8395, 18.1509], [73.8396, 18.1509], [73.8397, 18.1509], [73.8398, 18.1509], [73.8399, 18.1509], [73.8398, 18.1507], [73.8398, 18.1505], [73.8398, 18.1504], [73.8399, 18.1504], [73.8401, 18.1504], [73.8402, 18.1504], [73.8404, 18.1504], [73.8407, 18.1503], [73.8407, 18.1504], [73.8407, 18.1505], [73.8408, 18.1507], [73.8408, 18.1509], [73.8408, 18.1511], [73.8409, 18.1513], [73.8409, 18.1515], [73.8409, 18.1516], [73.8409, 18.1517], [73.8408, 18.1518], [73.8408, 18.152], [73.8408, 18.1521], [73.8407, 18.1522], [73.8407, 18.1525], [73.8407, 18.1527], [73.8407, 18.1528], [73.8408, 18.1529], [73.8408, 18.153], [73.8408, 18.1532], [73.8408, 18.1534], [73.8409, 18.1533], [73.8412, 18.1532], [73.8415, 18.1532], [73.8417, 18.1532], [73.842, 18.1531], [73.8424, 18.1531], [73.8425, 18.1531], [73.8426, 18.1531], [73.8427, 18.1531], [73.8428, 18.1531], [73.8429, 18.1531], [73.843, 18.1531], [73.8431, 18.1531], [73.8431, 18.1532], [73.8432, 18.1532], [73.8432, 18.1531], [73.8432, 18.153], [73.8432, 18.1529], [73.8431, 18.1529], [73.8432, 18.1529], [73.8432, 18.1528], [73.8431, 18.1528], [73.8431, 18.1527], [73.8431, 18.1526], [73.843, 18.1526], [73.843, 18.1524], [73.8433, 18.1523], [73.8437, 18.1523], [73.8438, 18.1521], [73.8438, 18.152], [73.8437, 18.152], [73.8435, 18.152], [73.8434, 18.152], [73.8433, 18.152], [73.8432, 18.152], [73.8431, 18.152], [73.8431, 18.1521], [73.843, 18.1522], [73.843, 18.1523], [73.8429, 18.1526], [73.8428, 18.1526], [73.8427, 18.1526], [73.8425, 18.1526], [73.8424, 18.1526], [73.8422, 18.1526], [73.8421, 18.1527], [73.842, 18.1527], [73.8419, 18.1527], [73.8418, 18.1527], [73.8417, 18.1527], [73.8417, 18.1525], [73.8416, 18.1521], [73.8416, 18.1518], [73.8416, 18.1515], [73.8416, 18.1512], [73.8416, 18.151], [73.842, 18.1509], [73.8424, 18.1507], [73.8427, 18.1506], [73.843, 18.1505], [73.843, 18.1502], [73.843, 18.1501]]], [[[73.843, 18.1501]]], [[[73.8432, 18.1532]]]]}, "properties": {"objectid": 37138, "statename": "Maharashtra", "statecode": "27", "districtname": null, "districtcode": "521", "ulbname": "Bhor", "ulbcode": "802819", "wardname": "Ward 2", "wardcode": "2", "id": null, "status": "APPROVED", "misglobalid": null, "approved_by": null, "createdate": 1637143039000, "updateddate": 1646726640000, "globalid": null, "gisglobalid": "05b5e4ae-7675-470f-9097-bbac5f6b9a23", "remark": "", "st_area(shape)": 1.0096931859751623e-05, "st_perimeter(shape)": 0.024451191358285145}}, {"type": "Feature", "geometry": {"type": "Polygon", "coordinates": [[[73.8432, 18.1532], [73.8432, 18.1531], [73.8434, 18.1532], [73.8436, 18.1532], [73.8438, 18.1532], [73.844, 18.1532], [73.844, 18.1533], [73.8441, 18.1536], [73.8443, 18.1542], [73.8445, 18.1546], [73.8449, 18.1551], [73.8451, 18.1552], [73.8452, 18.1546], [73.8453, 18.1545], [73.8454, 18.1542], [73.8453, 18.1538], [73.8446, 18.1537], [73.8443, 18.1537], [73.8442, 18.1537], [73.8449, 18.1532], [73.8446, 18.1527], [73.8446, 18.1526], [73.8445, 18.1526], [73.8445, 18.1525], [73.8445, 18.1524], [73.8445, 18.1525], [73.8445, 18.1524], [73.8445, 18.1523], [73.8446, 18.1523], [73.8446, 18.1522], [73.8445, 18.1522], [73.8445, 18.1521], [73.8445, 18.152], [73.8444, 18.152], [73.8444, 18.1519], [73.8445, 18.1518], [73.8445, 18.1517], [73.8445, 18.1516], [73.8446, 18.1516], [73.8446, 18.1515], [73.8446, 18.1514], [73.8446, 18.1513], [73.8446, 18.1512], [73.8447, 18.1512], [73.8447, 18.1511], [73.8448, 18.1511], [73.8448, 18.151], [73.8448, 18.1509], [73.8447, 18.1508], [73.8448, 18.1508], [73.8448, 18.1507], [73.8449, 18.1507], [73.8449, 18.1506], [73.8448, 18.1505], [73.8447, 18.1505], [73.8447, 18.1504], [73.8446, 18.1504], [73.8446, 18.1503], [73.8445, 18.1503], [73.8444, 18.1502], [73.8444, 18.1501], [73.8443, 18.1501], [73.8443, 18.15], [73.8442, 18.1499], [73.8442, 18.1498], [73.8443, 18.1498], [73.8444, 18.1497], [73.8444, 18.1496], [73.8444, 18.1495], [73.8444, 18.1496], [73.8445, 18.1496], [73.8446, 18.1495], [73.8447, 18.1496], [73.8448, 18.1496], [73.8449, 18.1496], [73.845, 18.1496], [73.8451, 18.1495], [73.8452, 18.1495], [73.8454, 18.1495], [73.8454, 18.1494], [73.8454, 18.1493], [73.8454, 18.1488], [73.8451, 18.1488], [73.8446, 18.1488], [73.8444, 18.1488], [73.8442, 18.1488], [73.844, 18.1488], [73.844, 18.1486], [73.844, 18.1484], [73.844, 18.1481], [73.8439, 18.1481], [73.8438, 18.1481], [73.8438, 18.1483], [73.8436, 18.1484], [73.8435, 18.1485], [73.8434, 18.1485], [73.8434, 18.1486], [73.8433, 18.1487], [73.8431, 18.1487], [73.8429, 18.1488], [73.8428, 18.1489], [73.8426, 18.149], [73.8426, 18.1491], [73.8426, 18.1494], [73.8426, 18.1496], [73.8425, 18.1497], [73.8424, 18.1497], [73.8424, 18.1498], [73.8425, 18.15], [73.8425, 18.1501], [73.8425, 18.1502], [73.8426, 18.1502], [73.8427, 18.1502], [73.8429, 18.1501], [73.843, 18.1501], [73.843, 18.1502], [73.843, 18.1503], [73.843, 18.1505], [73.8429, 18.1506], [73.8427, 18.1506], [73.8426, 18.1507], [73.8424, 18.1507], [73.8423, 18.1508], [73.8421, 18.1508], [73.8419, 18.1509], [73.8417, 18.1509], [73.8416, 18.151], [73.8416, 18.1513], [73.8416, 18.1516], [73.8416, 18.1518], [73.8416, 18.1519], [73.8417, 18.1522], [73.8417, 18.1525], [73.8417, 18.1527], [73.8421, 18.1527], [73.8422, 18.1526], [73.8425, 18.1526], [73.8427, 18.1526], [73.8428, 18.1526], [73.8429, 18.1526], [73.843, 18.1525], [73.843, 18.1523], [73.8431, 18.152], [73.8432, 18.152], [73.8433, 18.152], [73.8434, 18.152], [73.8435, 18.152], [73.8436, 18.152], [73.8437, 18.152], [73.8438, 18.152], [73.8438, 18.1521], [73.8437, 18.1522], [73.8437, 18.1523], [73.8436, 18.1523], [73.8435, 18.1523], [73.8434, 18.1523], [73.8433, 18.1523], [73.8432, 18.1523], [73.8431, 18.1524], [73.843, 18.1524], [73.843, 18.1525], [73.843, 18.1526], [73.8431, 18.1526], [73.8431, 18.1527], [73.8431, 18.1528], [73.8432, 18.1528], [73.8432, 18.1529], [73.8432, 18.1532]]]}, "properties": {"objectid": 37575, "statename": "Maharashtra", "statecode": "27", "districtname": "Pune", "districtcode": "521", "ulbname": "Bhor", "ulbcode": "802819", "wardname": "Ward 3", "wardcode": "3", "id": null, "status": "APPROVED", "misglobalid": null, "approved_by": null, "createdate": 1639639424000, "updateddate": 1646726648000, "globalid": null, "gisglobalid": "3ca115aa-efbd-4761-9781-36f5abd99a07", "remark": "", "st_area(shape)": 1.2107447527424594e-05, "st_perimeter(shape)": 0.027229138431291402}}, {"type": "Feature", "geometry": {"type": "Polygon", "coordinates": [[[73.8451, 18.1552], [73.8452, 18.1552], [73.8455, 18.1552], [73.8458, 18.1551], [73.8462, 18.155], [73.8465, 18.155], [73.8466, 18.1551], [73.8467, 18.1551], [73.8467, 18.155], [73.8468, 18.1549], [73.8468, 18.1548], [73.8469, 18.1548], [73.847, 18.1549], [73.8474, 18.1548], [73.8477, 18.1548], [73.848, 18.1547], [73.8483, 18.1548], [73.8485, 18.1549], [73.8486, 18.1549], [73.8488, 18.155], [73.8489, 18.1551], [73.8494, 18.1553], [73.8494, 18.1554], [73.8495, 18.1554], [73.8495, 18.1555], [73.8496, 18.1555], [73.8496, 18.1556], [73.8497, 18.1557], [73.8498, 18.1558], [73.8499, 18.1559], [73.8499, 18.156], [73.85, 18.156], [73.85, 18.1561], [73.8499, 18.1562], [73.8499, 18.1563], [73.8499, 18.1564], [73.8499, 18.1565], [73.8498, 18.1566], [73.8498, 18.1567], [73.8498, 18.1568], [73.8498, 18.1569], [73.8499, 18.157], [73.85, 18.157], [73.85, 18.1571], [73.8502, 18.1573], [73.8503, 18.1574], [73.8504, 18.1575], [73.8505, 18.1575], [73.8505, 18.1576], [73.8506, 18.1576], [73.8506, 18.1577], [73.8507, 18.1578], [73.8508, 18.1579], [73.8509, 18.158], [73.851, 18.158], [73.8511, 18.158], [73.8512, 18.1581], [73.8513, 18.1583], [73.8514, 18.1583], [73.8514, 18.1584], [73.8515, 18.1585], [73.8516, 18.1586], [73.8516, 18.1587], [73.8516, 18.1588], [73.8517, 18.1589], [73.8517, 18.159], [73.8518, 18.1591], [73.8518, 18.1592], [73.8519, 18.1592], [73.852, 18.1592], [73.852, 18.1593], [73.8521, 18.1594], [73.8522, 18.1594], [73.8523, 18.1595], [73.8523, 18.1596], [73.8524, 18.1597], [73.8524, 18.1598], [73.8525, 18.1598], [73.8525, 18.1599], [73.8525, 18.16], [73.8525, 18.1602], [73.8525, 18.1603], [73.8526, 18.1603], [73.8527, 18.1603], [73.8528, 18.1603], [73.8529, 18.1604], [73.8531, 18.1604], [73.8532, 18.1604], [73.8533, 18.1604], [73.8533, 18.1605], [73.8534, 18.1605], [73.8535, 18.1605], [73.8535, 18.1604], [73.8536, 18.1604], [73.8537, 18.1604], [73.8538, 18.1604], [73.8539, 18.1604], [73.8539, 18.1603], [73.8539, 18.1602], [73.8539, 18.1601], [73.8539, 18.16], [73.8539, 18.1599], [73.8539, 18.1598], [73.8539, 18.1597], [73.8539, 18.1596], [73.854, 18.1595], [73.8541, 18.1595], [73.8544, 18.1592], [73.8545, 18.159], [73.8546, 18.1589], [73.8547, 18.1588], [73.8548, 18.1587], [73.8549, 18.1586], [73.855, 18.1585], [73.8551, 18.1585], [73.8552, 18.1583], [73.8554, 18.1582], [73.8555, 18.1581], [73.8556, 18.158], [73.8557, 18.1579], [73.8557, 18.1578], [73.8558, 18.1577], [73.856, 18.1576], [73.8561, 18.1575], [73.8562, 18.1574], [73.8564, 18.1572], [73.8566, 18.1569], [73.8569, 18.1567], [73.8571, 18.1565], [73.8574, 18.1563], [73.8578, 18.1561], [73.858, 18.1561], [73.858, 18.156], [73.8581, 18.156], [73.8582, 18.156], [73.8582, 18.1559], [73.8582, 18.1558], [73.8581, 18.1558], [73.8581, 18.1557], [73.858, 18.1556], [73.858, 18.1555], [73.8579, 18.1555], [73.8579, 18.1554], [73.8579, 18.1553], [73.858, 18.1553], [73.858, 18.1554], [73.858, 18.1553], [73.858, 18.1552], [73.8579, 18.1547], [73.8579, 18.1546], [73.8579, 18.1545], [73.8578, 18.1545], [73.8578, 18.1544], [73.8578, 18.1543], [73.8577, 18.1543], [73.8577, 18.1542], [73.8577, 18.1541], [73.8576, 18.1541], [73.8576, 18.154], [73.8575, 18.154], [73.8575, 18.1539], [73.8574, 18.1538], [73.8574, 18.1537], [73.8573, 18.1536], [73.8573, 18.1535], [73.8573, 18.1534], [73.8572, 18.1534], [73.8572, 18.1533], [73.8572, 18.1532], [73.8571, 18.1532], [73.857, 18.1532], [73.857, 18.1531], [73.8569, 18.1531], [73.8569, 18.153], [73.857, 18.1529], [73.8569, 18.1528], [73.8568, 18.1527], [73.8568, 18.1526], [73.8567, 18.1525], [73.8566, 18.1521], [73.8565, 18.1518], [73.8565, 18.1517], [73.8564, 18.1516], [73.8564, 18.1515], [73.8564, 18.1514], [73.8564, 18.1513], [73.8564, 18.1512], [73.8564, 18.1511], [73.8564, 18.151], [73.8564, 18.1509], [73.8564, 18.1507], [73.8563, 18.1507], [73.8562, 18.1506], [73.856, 18.1506], [73.8558, 18.1506], [73.8555, 18.1506], [73.8549, 18.1505], [73.8543, 18.1504], [73.8535, 18.1503], [73.8521, 18.1502], [73.851, 18.1501], [73.8505, 18.15], [73.8501, 18.1499], [73.8499, 18.1499], [73.8493, 18.1497], [73.849, 18.1496], [73.8488, 18.1496], [73.8489, 18.1494], [73.8493, 18.149], [73.8496, 18.1485], [73.8499, 18.1475], [73.8476, 18.1476], [73.8472, 18.1478], [73.8472, 18.1476], [73.8471, 18.1476], [73.8469, 18.1476], [73.8468, 18.1476], [73.8466, 18.1476], [73.8465, 18.1476], [73.8463, 18.1476], [73.8463, 18.148], [73.8463, 18.1482], [73.8463, 18.1483], [73.8463, 18.1484], [73.8463, 18.1486], [73.8463, 18.1487], [73.8463, 18.1488], [73.8462, 18.1488], [73.8461, 18.1488], [73.846, 18.1488], [73.8459, 18.1488], [73.8456, 18.1488], [73.8454, 18.1488], [73.8454, 18.1489], [73.8454, 18.149], [73.8454, 18.1491], [73.8454, 18.1492], [73.8454, 18.1493], [73.8454, 18.1494], [73.8454, 18.1495], [73.8453, 18.1495], [73.8451, 18.1495], [73.845, 18.1496], [73.8448, 18.1496], [73.8447, 18.1495], [73.8446, 18.1495], [73.8445, 18.1495], [73.8444, 18.1496], [73.8444, 18.1495], [73.8444, 18.1496], [73.8444, 18.1497], [73.8443, 18.1497], [73.8443, 18.1498], [73.8442, 18.1498], [73.8442, 18.1499], [73.8442, 18.15], [73.8443, 18.15], [73.8443, 18.1501], [73.8444, 18.1501], [73.8444, 18.1502], [73.8445, 18.1502], [73.8445, 18.1503], [73.8446, 18.1503], [73.8446, 18.1504], [73.8447, 18.1504], [73.8447, 18.1505], [73.8448, 18.1505], [73.8449, 18.1506], [73.8448, 18.1508], [73.8447, 18.1508], [73.8448, 18.1509], [73.8448, 18.151], [73.8447, 18.1511], [73.8447, 18.1512], [73.8446, 18.1512], [73.8446, 18.1513], [73.8446, 18.1514], [73.8446, 18.1516], [73.8445, 18.1516], [73.8445, 18.1517], [73.8445, 18.1518], [73.8444, 18.1518], [73.8444, 18.1519], [73.8444, 18.152], [73.8445, 18.152], [73.8445, 18.1521], [73.8445, 18.1522], [73.8446, 18.1522], [73.8445, 18.1523], [73.8445, 18.1525], [73.8445, 18.1524], [73.8445, 18.1525], [73.8445, 18.1526], [73.8446, 18.1526], [73.8446, 18.1527], [73.8448, 18.1529], [73.8448, 18.1531], [73.8449, 18.1532], [73.8442, 18.1537], [73.8443, 18.1537], [73.8448, 18.1538], [73.8454, 18.1538], [73.8454, 18.1543], [73.8453, 18.1545], [73.8453, 18.1546], [73.8452, 18.1546], [73.8452, 18.1548], [73.8451, 18.155], [73.8451, 18.1551], [73.8451, 18.1552]]]}, "properties": {"objectid": 37198, "statename": "Maharashtra", "statecode": "27", "districtname": "Pune", "districtcode": "521", "ulbname": "Bhor", "ulbcode": "802819", "wardname": "Ward 4", "wardcode": "4", "id": null, "status": "APPROVED", "misglobalid": null, "approved_by": null, "createdate": 1639639437000, "updateddate": 1646726657000, "globalid": null, "gisglobalid": "699b2337-f2aa-4649-9971-65781a622cf6", "remark": "", "st_area(shape)": 9.541940732449136e-05, "st_perimeter(shape)": 0.051743176984582494}}, {"type": "Feature", "geometry": {"type": "Polygon", "coordinates": [[[73.8464, 18.1476], [73.8465, 18.1476], [73.8468, 18.1476], [73.8469, 18.1476], [73.8472, 18.1476], [73.8472, 18.1479], [73.8476, 18.1476], [73.8477, 18.1476], [73.848, 18.1476], [73.8483, 18.1476], [73.8486, 18.1476], [73.8489, 18.1475], [73.8491, 18.1475], [73.8493, 18.1475], [73.8494, 18.1475], [73.8496, 18.1475], [73.8499, 18.1475], [73.8498, 18.1478], [73.8497, 18.1482], [73.8496, 18.1485], [73.8495, 18.1486], [73.8494, 18.1488], [73.8492, 18.1491], [73.849, 18.1494], [73.8488, 18.1496], [73.849, 18.1497], [73.8492, 18.1497], [73.8494, 18.1498], [73.8498, 18.1499], [73.85, 18.1499], [73.8503, 18.15], [73.8509, 18.15], [73.8514, 18.1501], [73.852, 18.1502], [73.8527, 18.1503], [73.8535, 18.1503], [73.8539, 18.1504], [73.8546, 18.1505], [73.855, 18.1505], [73.8557, 18.1506], [73.8564, 18.1507], [73.8558, 18.15], [73.8557, 18.1496], [73.8555, 18.1493], [73.8554, 18.1491], [73.8553, 18.1488], [73.8551, 18.1482], [73.8551, 18.1481], [73.855, 18.1481], [73.855, 18.148], [73.8549, 18.148], [73.8549, 18.1479], [73.8548, 18.1479], [73.8548, 18.1478], [73.8548, 18.1477], [73.8548, 18.1476], [73.8549, 18.1476], [73.855, 18.1475], [73.855, 18.1474], [73.855, 18.1473], [73.855, 18.1472], [73.8551, 18.1471], [73.855, 18.1464], [73.8548, 18.146], [73.8548, 18.1459], [73.8547, 18.1457], [73.8547, 18.1456], [73.8547, 18.1455], [73.8547, 18.1454], [73.8546, 18.1454], [73.8545, 18.1452], [73.8544, 18.1451], [73.8544, 18.145], [73.8543, 18.145], [73.8543, 18.1449], [73.8542, 18.1449], [73.8541, 18.1448], [73.854, 18.1447], [73.8539, 18.1446], [73.8538, 18.1446], [73.8536, 18.1443], [73.8535, 18.1443], [73.8534, 18.1443], [73.8533, 18.1443], [73.8532, 18.1442], [73.8532, 18.1441], [73.8532, 18.144], [73.8532, 18.1439], [73.8532, 18.1435], [73.8527, 18.1429], [73.8526, 18.1426], [73.8525, 18.1425], [73.8521, 18.1425], [73.8516, 18.1425], [73.8512, 18.1425], [73.8512, 18.143], [73.8508, 18.143], [73.8504, 18.143], [73.8496, 18.1431], [73.8487, 18.1431], [73.8479, 18.1432], [73.8471, 18.1432], [73.8468, 18.1432], [73.8468, 18.1433], [73.8467, 18.1433], [73.8464, 18.1433], [73.8464, 18.1435], [73.8464, 18.1436], [73.8464, 18.1438], [73.8464, 18.144], [73.8464, 18.1444], [73.8464, 18.1448], [73.8464, 18.1451], [73.8468, 18.145], [73.8469, 18.1451], [73.8468, 18.1454], [73.8468, 18.1456], [73.8468, 18.1457], [73.8468, 18.1458], [73.8464, 18.1458], [73.8464, 18.1459], [73.8469, 18.146], [73.8469, 18.1461], [73.8469, 18.1463], [73.8469, 18.1465], [73.847, 18.147], [73.8471, 18.1471], [73.8471, 18.1472], [73.8471, 18.1473], [73.847, 18.1473], [73.8464, 18.1472], [73.8464, 18.1473], [73.8464, 18.1476]]]}, "properties": {"objectid": 38286, "statename": "Maharashtra", "statecode": "27", "districtname": null, "districtcode": "521", "ulbname": "Bhor", "ulbcode": "802819", "wardname": "Ward 5", "wardcode": "5", "id": null, "status": "APPROVED", "misglobalid": null, "approved_by": null, "createdate": 1637211121000, "updateddate": 1646726680000, "globalid": null, "gisglobalid": "3343be04-78e0-42c3-8d01-f07b12d4c324", "remark": "", "st_area(shape)": 5.076725239118066e-05, "st_perimeter(shape)": 0.03713084626554787}}, {"type": "Feature", "geometry": {"type": "Polygon", "coordinates": [[[73.8418, 18.1447], [73.8416, 18.1447], [73.8419, 18.1456], [73.8423, 18.147], [73.8423, 18.1471], [73.8424, 18.1473], [73.8424, 18.1474], [73.8424, 18.1476], [73.8425, 18.148], [73.8425, 18.1484], [73.8426, 18.1489], [73.8426, 18.149], [73.843, 18.1488], [73.8432, 18.1487], [73.8433, 18.1487], [73.8434, 18.1486], [73.8434, 18.1485], [73.8438, 18.1483], [73.8438, 18.1481], [73.844, 18.1481], [73.844, 18.1487], [73.8449, 18.1488], [73.8454, 18.1488], [73.8455, 18.1488], [73.8456, 18.1488], [73.8458, 18.1488], [73.8459, 18.1488], [73.846, 18.1488], [73.8461, 18.1488], [73.8462, 18.1488], [73.8463, 18.1488], [73.8463, 18.1486], [73.8463, 18.1485], [73.8463, 18.1483], [73.8463, 18.1482], [73.8463, 18.148], [73.8463, 18.1479], [73.8463, 18.1477], [73.8464, 18.1475], [73.8464, 18.1474], [73.8464, 18.1472], [73.8465, 18.1472], [73.8466, 18.1473], [73.8468, 18.1473], [73.8469, 18.1473], [73.847, 18.1473], [73.8471, 18.1473], [73.8471, 18.1471], [73.847, 18.147], [73.8469, 18.1468], [73.8469, 18.1467], [73.8469, 18.1465], [73.8469, 18.1464], [73.8469, 18.1462], [73.8469, 18.1461], [73.8469, 18.146], [73.8467, 18.146], [73.8466, 18.1459], [73.8464, 18.1459], [73.8464, 18.1451], [73.8463, 18.1451], [73.8461, 18.1451], [73.8461, 18.1447], [73.8453, 18.1447], [73.8446, 18.1447], [73.8445, 18.1442], [73.8439, 18.1443], [73.8433, 18.1445], [73.843, 18.1445], [73.8429, 18.1446], [73.8426, 18.1446], [73.8422, 18.1447], [73.8421, 18.1447], [73.842, 18.1447], [73.8419, 18.1448], [73.8418, 18.1447]]]}, "properties": {"objectid": 37130, "statename": "Maharashtra", "statecode": "27", "districtname": null, "districtcode": "521", "ulbname": "Bhor", "ulbcode": "802819", "wardname": "Ward 6", "wardcode": "6", "id": null, "status": "APPROVED", "misglobalid": null, "approved_by": null, "createdate": 1637141725000, "updateddate": 1646726694000, "globalid": null, "gisglobalid": "cb17d30d-7b97-44cc-adf2-4df290ecac50", "remark": "", "st_area(shape)": 1.8027607536549313e-05, "st_perimeter(shape)": 0.01990680935199587}}, {"type": "Feature", "geometry": {"type": "MultiPolygon", "coordinates": [[[[73.8395, 18.148], [73.8396, 18.148], [73.8398, 18.1479], [73.8402, 18.1479], [73.8407, 18.1479], [73.8407, 18.1481], [73.8408, 18.1486], [73.8409, 18.1489], [73.8409, 18.1492], [73.841, 18.1493], [73.8411, 18.1493], [73.8412, 18.1492], [73.8414, 18.1492], [73.8416, 18.1491], [73.8416, 18.1492], [73.8417, 18.1492], [73.8418, 18.1493], [73.8419, 18.1498], [73.8424, 18.1497], [73.8426, 18.1496], [73.8426, 18.1489], [73.8425, 18.1486], [73.8425, 18.1483], [73.8425, 18.148], [73.8425, 18.1478], [73.8425, 18.1477], [73.8424, 18.1476], [73.8424, 18.1475], [73.8424, 18.1474], [73.8424, 18.1473], [73.8424, 18.1472], [73.8423, 18.147], [73.8421, 18.1462], [73.8418, 18.1454], [73.8417, 18.1449], [73.8416, 18.1447], [73.8415, 18.1446], [73.8414, 18.1445], [73.8413, 18.1445], [73.8411, 18.1444], [73.8409, 18.1443], [73.8406, 18.144], [73.8404, 18.1439], [73.8403, 18.1438], [73.8402, 18.144], [73.8401, 18.1441], [73.84, 18.1443], [73.8399, 18.1445], [73.8397, 18.1448], [73.8395, 18.1451], [73.8394, 18.1452], [73.8394, 18.1455], [73.8394, 18.1456], [73.8394, 18.146], [73.8394, 18.1461], [73.8394, 18.1464], [73.8395, 18.1467], [73.8395, 18.147], [73.8395, 18.1471], [73.8395, 18.1474], [73.8395, 18.1476], [73.8395, 18.1477], [73.8396, 18.1479], [73.8395, 18.148]]], [[[73.8395, 18.148]]]]}, "properties": {"objectid": 35724, "statename": "Maharashtra", "statecode": "27", "districtname": null, "districtcode": "521", "ulbname": "Bhor", "ulbcode": "802819", "wardname": "Ward 7", "wardcode": "7", "id": null, "status": "APPROVED", "misglobalid": null, "approved_by": null, "createdate": 1637148645000, "updateddate": 1646726705000, "globalid": null, "gisglobalid": "dcc31449-787e-4e55-b4cb-6556cb6aaadc", "remark": "", "st_area(shape)": 1.1763104128410242e-05, "st_perimeter(shape)": 0.01570687507381945}}, {"type": "Feature", "geometry": {"type": "MultiPolygon", "coordinates": [[[[73.8468, 18.1457], [73.8468, 18.1456], [73.8469, 18.1451], [73.8468, 18.145], [73.8464, 18.1451], [73.8464, 18.1447], [73.8464, 18.1444], [73.8464, 18.1441], [73.8464, 18.1438], [73.8464, 18.1436], [73.8464, 18.1435], [73.8464, 18.1433], [73.8465, 18.1433], [73.8466, 18.1433], [73.8467, 18.1433], [73.8468, 18.1433], [73.8468, 18.1432], [73.8471, 18.1432], [73.8473, 18.1432], [73.8477, 18.1432], [73.8479, 18.1432], [73.8482, 18.1432], [73.8485, 18.1432], [73.849, 18.1431], [73.8493, 18.1431], [73.8497, 18.1431], [73.8501, 18.1431], [73.8504, 18.143], [73.8507, 18.143], [73.851, 18.143], [73.8512, 18.143], [73.8512, 18.1428], [73.8512, 18.1425], [73.8515, 18.1425], [73.8518, 18.1425], [73.8521, 18.1425], [73.8524, 18.1425], [73.8525, 18.1425], [73.8526, 18.1425], [73.8526, 18.1426], [73.8526, 18.1425], [73.8527, 18.1425], [73.8527, 18.1424], [73.8528, 18.1424], [73.8528, 18.1423], [73.8529, 18.1422], [73.853, 18.1422], [73.853, 18.1421], [73.853, 18.142], [73.853, 18.1419], [73.853, 18.1418], [73.853, 18.1417], [73.853, 18.1416], [73.853, 18.1414], [73.853, 18.1413], [73.853, 18.1412], [73.853, 18.1411], [73.8529, 18.141], [73.8529, 18.1409], [73.8529, 18.1407], [73.8529, 18.1406], [73.8528, 18.1406], [73.8528, 18.1405], [73.8527, 18.1406], [73.8527, 18.1403], [73.8527, 18.1402], [73.8526, 18.1402], [73.8526, 18.1401], [73.8527, 18.1401], [73.8527, 18.14], [73.8528, 18.1399], [73.8528, 18.1398], [73.8529, 18.1398], [73.853, 18.1398], [73.8529, 18.1398], [73.8529, 18.1397], [73.8529, 18.1394], [73.8528, 18.1391], [73.8527, 18.1388], [73.8527, 18.1387], [73.8527, 18.1386], [73.8526, 18.1385], [73.8526, 18.1384], [73.8526, 18.1383], [73.8526, 18.1382], [73.8525, 18.1381], [73.8525, 18.138], [73.8525, 18.1379], [73.8525, 18.1378], [73.8525, 18.1377], [73.8526, 18.1377], [73.8524, 18.1372], [73.8533, 18.1366], [73.8524, 18.1349], [73.8525, 18.1333], [73.8525, 18.1331], [73.8525, 18.1329], [73.8524, 18.1329], [73.8521, 18.1329], [73.8518, 18.1329], [73.8514, 18.1329], [73.8508, 18.1329], [73.8505, 18.1329], [73.8503, 18.1329], [73.8499, 18.1326], [73.8485, 18.1316], [73.8482, 18.1314], [73.848, 18.1312], [73.848, 18.1311], [73.848, 18.1307], [73.8478, 18.1293], [73.8477, 18.1278], [73.8476, 18.1272], [73.8461, 18.126], [73.8441, 18.1244], [73.8425, 18.1232], [73.8415, 18.1224], [73.84, 18.1212], [73.8385, 18.1204], [73.8372, 18.1198], [73.8364, 18.1193], [73.8353, 18.1187], [73.8343, 18.1182], [73.8336, 18.1179], [73.8334, 18.1178], [73.833, 18.1176], [73.8323, 18.1176], [73.8314, 18.1176], [73.8305, 18.1176], [73.8301, 18.1176], [73.8296, 18.1176], [73.829, 18.1176], [73.8287, 18.1176], [73.8284, 18.1176], [73.8282, 18.1175], [73.8281, 18.1175], [73.8281, 18.1176], [73.8277, 18.1176], [73.8274, 18.1175], [73.8268, 18.1175], [73.8266, 18.1175], [73.8265, 18.1176], [73.8264, 18.1176], [73.8263, 18.1177], [73.8261, 18.1179], [73.8256, 18.1184], [73.8249, 18.1191], [73.8243, 18.1198], [73.8236, 18.1204], [73.823, 18.1211], [73.8227, 18.1214], [73.8226, 18.1219], [73.8226, 18.1221], [73.8225, 18.1226], [73.8225, 18.1228], [73.8224, 18.1232], [73.8224, 18.1234], [73.8224, 18.1237], [73.8223, 18.1241], [73.8223, 18.1243], [73.8221, 18.1253], [73.8221, 18.1255], [73.822, 18.1257], [73.822, 18.1259], [73.8222, 18.1262], [73.8227, 18.1269], [73.8227, 18.127], [73.8228, 18.1271], [73.8229, 18.1273], [73.823, 18.1274], [73.823, 18.1275], [73.8231, 18.1276], [73.8231, 18.1277], [73.8232, 18.1277], [73.8232, 18.1278], [73.8233, 18.1279], [73.8233, 18.128], [73.8234, 18.1281], [73.8235, 18.1282], [73.8235, 18.1283], [73.8236, 18.1284], [73.8236, 18.1285], [73.8237, 18.1285], [73.8237, 18.1286], [73.8238, 18.1287], [73.8239, 18.1288], [73.8241, 18.1291], [73.8244, 18.1293], [73.8245, 18.1295], [73.8246, 18.1296], [73.8248, 18.1298], [73.8252, 18.1303], [73.8253, 18.1304], [73.8254, 18.1305], [73.8255, 18.1306], [73.8255, 18.1307], [73.8256, 18.1307], [73.8257, 18.1308], [73.8257, 18.1309], [73.8257, 18.131], [73.8258, 18.1311], [73.8259, 18.1312], [73.826, 18.1312], [73.826, 18.1313], [73.826, 18.1314], [73.826, 18.1315], [73.8261, 18.1316], [73.8262, 18.1316], [73.8263, 18.1316], [73.8263, 18.1317], [73.8264, 18.1317], [73.8265, 18.1318], [73.8266, 18.1319], [73.8267, 18.132], [73.8268, 18.1321], [73.8268, 18.1322], [73.8269, 18.1322], [73.8269, 18.1323], [73.8269, 18.1324], [73.827, 18.1324], [73.8271, 18.1324], [73.8272, 18.1325], [73.8273, 18.1326], [73.8274, 18.1326], [73.8274, 18.1327], [73.8275, 18.1328], [73.8275, 18.1329], [73.8275, 18.133], [73.8276, 18.1331], [73.8276, 18.1332], [73.8276, 18.1333], [73.8277, 18.1333], [73.8277, 18.1334], [73.8278, 18.1335], [73.8283, 18.1338], [73.8283, 18.134], [73.8284, 18.1341], [73.8284, 18.1342], [73.8284, 18.1343], [73.8284, 18.1344], [73.8284, 18.1346], [73.8285, 18.1347], [73.8286, 18.1348], [73.8287, 18.135], [73.829, 18.1355], [73.8291, 18.1356], [73.8298, 18.1363], [73.8299, 18.1364], [73.8301, 18.1365], [73.8302, 18.1367], [73.8301, 18.137], [73.8305, 18.1373], [73.8312, 18.1378], [73.8313, 18.1379], [73.8313, 18.138], [73.8314, 18.138], [73.8314, 18.1381], [73.8315, 18.1381], [73.8315, 18.1382], [73.8316, 18.1382], [73.8317, 18.1383], [73.8318, 18.1384], [73.8319, 18.1384], [73.8319, 18.1385], [73.832, 18.1385], [73.8321, 18.1386], [73.8322, 18.1387], [73.8323, 18.1387], [73.8324, 18.1388], [73.8325, 18.1389], [73.8326, 18.139], [73.8327, 18.139], [73.8327, 18.1391], [73.8327, 18.1393], [73.8327, 18.1394], [73.8328, 18.1395], [73.8328, 18.1396], [73.8328, 18.1397], [73.8328, 18.1398], [73.8327, 18.1398], [73.8327, 18.14], [73.8327, 18.1401], [73.8327, 18.1402], [73.8327, 18.1403], [73.8327, 18.1404], [73.8327, 18.1405], [73.8328, 18.1405], [73.8329, 18.1406], [73.833, 18.1406], [73.833, 18.1407], [73.8329, 18.1407], [73.8329, 18.1408], [73.8328, 18.1408], [73.8327, 18.1408], [73.8326, 18.1408], [73.8326, 18.1409], [73.8325, 18.1409], [73.8324, 18.141], [73.8323, 18.141], [73.8322, 18.141], [73.8322, 18.1411], [73.8322, 18.1412], [73.8322, 18.1413], [73.8322, 18.1414], [73.8323, 18.1414], [73.8323, 18.1415], [73.8323, 18.1416], [73.8324, 18.1416], [73.8324, 18.1417], [73.8325, 18.1417], [73.8326, 18.1417], [73.8328, 18.1418], [73.833, 18.1418], [73.833, 18.1419], [73.8332, 18.1419], [73.8334, 18.142], [73.8336, 18.142], [73.8337, 18.1421], [73.8339, 18.1421], [73.8342, 18.1422], [73.8344, 18.1423], [73.8347, 18.1424], [73.8349, 18.1424], [73.8349, 18.1425], [73.835, 18.1425], [73.8351, 18.1425], [73.8353, 18.1426], [73.8355, 18.1426], [73.8356, 18.1427], [73.8358, 18.1427], [73.8364, 18.1429], [73.8367, 18.143], [73.8369, 18.1431], [73.8372, 18.1432], [73.8376, 18.1433], [73.8378, 18.1434], [73.838, 18.1434], [73.8382, 18.1435], [73.8386, 18.1436], [73.8389, 18.1435], [73.839, 18.1435], [73.8392, 18.1435], [73.8393, 18.1435], [73.8394, 18.1435], [73.8395, 18.1435], [73.8396, 18.1435], [73.8397, 18.1435], [73.8397, 18.1436], [73.8398, 18.1436], [73.8399, 18.1437], [73.84, 18.1437], [73.8401, 18.1438], [73.8403, 18.1438], [73.8404, 18.1439], [73.8406, 18.144], [73.8407, 18.1441], [73.8408, 18.1442], [73.841, 18.1443], [73.8411, 18.1444], [73.8413, 18.1445], [73.8414, 18.1446], [73.8415, 18.1446], [73.8416, 18.1447], [73.8417, 18.1447], [73.8418, 18.1447], [73.8419, 18.1448], [73.8421, 18.1447], [73.8423, 18.1447], [73.8426, 18.1446], [73.8429, 18.1446], [73.8431, 18.1445], [73.8434, 18.1445], [73.8436, 18.1444], [73.8439, 18.1444], [73.844, 18.1443], [73.8442, 18.1443], [73.8444, 18.1443], [73.8445, 18.1442], [73.8446, 18.1444], [73.8446, 18.1446], [73.8446, 18.1447], [73.8447, 18.1447], [73.8448, 18.1447], [73.845, 18.1447], [73.8452, 18.1447], [73.8454, 18.1447], [73.8457, 18.1447], [73.8459, 18.1447], [73.846, 18.1447], [73.8461, 18.1447], [73.8461, 18.1449], [73.8461, 18.1451], [73.8463, 18.1451], [73.8464, 18.1451], [73.8464, 18.1453], [73.8464, 18.1456], [73.8464, 18.1458], [73.8468, 18.1458], [73.8468, 18.1457]]], [[[73.8468, 18.1457]]]]}, "properties": {"objectid": 38299, "statename": "Maharashtra", "statecode": "27", "districtname": null, "districtcode": "521", "ulbname": "Bhor", "ulbcode": "802819", "wardname": "Ward 8", "wardcode": "8", "id": null, "status": "APPROVED", "misglobalid": null, "approved_by": null, "createdate": 1637214180000, "updateddate": 1646726718000, "globalid": null, "gisglobalid": "358b9140-22f4-42b3-971e-98c08de8106e", "remark": "", "st_area(shape)": 0.0005335682896853595, "st_perimeter(shape)": 0.10178686081739073}}]}
