{"type": "FeatureCollection", "features": [{"type": "Feature", "geometry": {"type": "Polygon", "coordinates": [[[75.0431, 29.5528], [75.0431, 29.5506], [75.0401, 29.5514], [75.0387, 29.5517], [75.0376, 29.5518], [75.0355, 29.552], [75.0334, 29.5519], [75.0322, 29.5519], [75.0317, 29.5519], [75.0316, 29.5519], [75.0309, 29.5524], [75.0308, 29.5524], [75.0311, 29.5524], [75.0316, 29.5526], [75.0315, 29.5532], [75.0311, 29.5548], [75.0308, 29.5563], [75.0431, 29.5566], [75.0432, 29.5566], [75.0433, 29.5542], [75.0434, 29.5531], [75.0431, 29.5531], [75.0431, 29.5528]]]}, "properties": {"objectid": 163911, "statename": "Haryana", "statecode": "6", "districtname": "", "districtcode": "79", "ulbname": "Sirsa (M Cl)", "ulbcode": "800401", "wardname": "Ward 1", "wardcode": "1", "id": null, "status": "APPROVED", "misglobalid": null, "approved_by": null, "createdate": 1645089396000, "updateddate": 1723456636000, "globalid": null, "gisglobalid": "QmKlRKm5-KaRR-Pooc-aosQ-mQB5Rs6ln4ac", "remark": "", "st_area(shape)": 5.8226046309735426e-05, "st_perimeter(shape)": 0.03585452765967455}}, {"type": "Feature", "geometry": {"type": "Polygon", "coordinates": [[[75.0487, 29.5419], [75.0486, 29.5419], [75.0456, 29.5434], [75.0434, 29.5448], [75.0354, 29.5496], [75.0317, 29.5519], [75.0322, 29.5519], [75.0334, 29.5519], [75.0355, 29.552], [75.0376, 29.5518], [75.0387, 29.5517], [75.0401, 29.5514], [75.0431, 29.5506], [75.0431, 29.5528], [75.0431, 29.5531], [75.0434, 29.5531], [75.0433, 29.5542], [75.0434, 29.556], [75.0439, 29.5561], [75.0485, 29.5564], [75.0515, 29.5567], [75.0531, 29.5594], [75.0596, 29.5596], [75.0604, 29.5606], [75.0647, 29.5607], [75.0655, 29.5615], [75.0618, 29.5572], [75.0577, 29.5524], [75.0576, 29.5524], [75.0538, 29.5524], [75.0535, 29.5524], [75.0528, 29.5524], [75.0523, 29.5524], [75.0523, 29.5523], [75.0522, 29.5523], [75.0522, 29.552], [75.0522, 29.5497], [75.0553, 29.5497], [75.0488, 29.5419], [75.0487, 29.5419]]]}, "properties": {"objectid": 166690, "statename": "Haryana", "statecode": "6", "districtname": "", "districtcode": "79", "ulbname": "Sirsa (M Cl)", "ulbcode": "800401", "wardname": "Ward 2", "wardcode": "2", "id": null, "status": "APPROVED", "misglobalid": null, "approved_by": null, "createdate": 1645088919000, "updateddate": 1723456682000, "globalid": null, "gisglobalid": "nQomd4PR-lccs-PPdQ-RlBs-Q4sQoKc6mB4o", "remark": "", "st_area(shape)": 0.0002236670658219541, "st_perimeter(shape)": 0.09508356819575937}}, {"type": "Feature", "geometry": {"type": "Polygon", "coordinates": [[[75.0725, 29.5535], [75.0725, 29.5495], [75.0728, 29.5491], [75.0729, 29.5419], [75.0731, 29.5391], [75.0744, 29.5365], [75.0757, 29.535], [75.077, 29.5339], [75.0785, 29.5329], [75.0797, 29.5324], [75.0802, 29.5314], [75.0806, 29.5309], [75.0756, 29.531], [75.0751, 29.5306], [75.0749, 29.5306], [75.0747, 29.5307], [75.0735, 29.5313], [75.0727, 29.5316], [75.0726, 29.5317], [75.0726, 29.5325], [75.0726, 29.5326], [75.0726, 29.5327], [75.0726, 29.5332], [75.0724, 29.5385], [75.0724, 29.5395], [75.0724, 29.5423], [75.0697, 29.5424], [75.0679, 29.5424], [75.0627, 29.5425], [75.0569, 29.5426], [75.0569, 29.5421], [75.0569, 29.5408], [75.0569, 29.5384], [75.0565, 29.5386], [75.0561, 29.5387], [75.0557, 29.5389], [75.0514, 29.5408], [75.0488, 29.5419], [75.0553, 29.5497], [75.0522, 29.5497], [75.0522, 29.552], [75.0522, 29.5523], [75.0523, 29.5523], [75.0523, 29.5524], [75.0528, 29.5524], [75.0535, 29.5524], [75.0538, 29.5524], [75.0576, 29.5524], [75.0577, 29.5524], [75.0618, 29.5572], [75.0656, 29.5613], [75.0718, 29.5613], [75.0725, 29.5582], [75.0725, 29.5535]]]}, "properties": {"objectid": 167508, "statename": "Haryana", "statecode": "6", "districtname": "", "districtcode": "79", "ulbname": "Sirsa (M Cl)", "ulbcode": "800401", "wardname": "Ward 3", "wardcode": "3", "id": null, "status": "APPROVED", "misglobalid": null, "approved_by": null, "createdate": 1645089904000, "updateddate": 1723456694000, "globalid": null, "gisglobalid": "cm6dl5ld-4Ba4-P4Kc-smBs-BQcao4m6clda", "remark": "", "st_area(shape)": 0.0003508629663845906, "st_perimeter(shape)": 0.12094943077139725}}, {"type": "Feature", "geometry": {"type": "Polygon", "coordinates": [[[75.0724, 29.5385], [75.0726, 29.5332], [75.0726, 29.5327], [75.0726, 29.5326], [75.0726, 29.5325], [75.0726, 29.5317], [75.0727, 29.5316], [75.0735, 29.5313], [75.0747, 29.5307], [75.0749, 29.5306], [75.0751, 29.5306], [75.0748, 29.5305], [75.0727, 29.5295], [75.0703, 29.5285], [75.0664, 29.5263], [75.0652, 29.5259], [75.0617, 29.5244], [75.0601, 29.5247], [75.0569, 29.5262], [75.0564, 29.5266], [75.0563, 29.5268], [75.0563, 29.5271], [75.0563, 29.5263], [75.0562, 29.5284], [75.0563, 29.5287], [75.0563, 29.5293], [75.0566, 29.5317], [75.0567, 29.5328], [75.0568, 29.5337], [75.056, 29.5338], [75.0542, 29.5341], [75.0538, 29.5342], [75.0528, 29.5343], [75.0531, 29.535], [75.0543, 29.5349], [75.0543, 29.5354], [75.0544, 29.536], [75.054, 29.5361], [75.054, 29.5369], [75.0547, 29.5369], [75.0569, 29.5369], [75.0569, 29.5375], [75.0562, 29.5375], [75.0561, 29.5375], [75.0561, 29.5376], [75.0561, 29.5383], [75.0561, 29.5387], [75.0565, 29.5386], [75.0569, 29.5384], [75.0569, 29.5408], [75.0569, 29.5421], [75.0569, 29.5426], [75.0627, 29.5425], [75.0679, 29.5424], [75.0697, 29.5424], [75.0724, 29.5423], [75.0724, 29.5395], [75.0724, 29.5385]]]}, "properties": {"objectid": 167504, "statename": "Haryana", "statecode": "6", "districtname": "", "districtcode": "79", "ulbname": "Sirsa (M Cl)", "ulbcode": "800401", "wardname": "Ward 4", "wardcode": "4", "id": null, "status": "APPROVED", "misglobalid": null, "approved_by": null, "createdate": 1645089344000, "updateddate": 1723456714000, "globalid": null, "gisglobalid": "osc4B45s-B5no-Pscm-QQm6-s5RdBPKssRB5", "remark": "", "st_area(shape)": 0.0002678055890830266, "st_perimeter(shape)": 0.07674939412881106}}, {"type": "Feature", "geometry": {"type": "Polygon", "coordinates": [[[75.0488, 29.5419], [75.0514, 29.5408], [75.0557, 29.5389], [75.0561, 29.5387], [75.0561, 29.5383], [75.0561, 29.5376], [75.0561, 29.5375], [75.0562, 29.5375], [75.0569, 29.5375], [75.0569, 29.5369], [75.0547, 29.5369], [75.054, 29.5369], [75.054, 29.5361], [75.0544, 29.536], [75.0543, 29.5354], [75.0543, 29.5349], [75.0531, 29.535], [75.0528, 29.5343], [75.0497, 29.5346], [75.047, 29.5347], [75.0466, 29.5348], [75.0462, 29.5348], [75.0434, 29.5348], [75.0431, 29.5347], [75.0414, 29.5343], [75.0414, 29.5344], [75.0413, 29.5347], [75.041, 29.5354], [75.042, 29.5356], [75.0418, 29.5369], [75.0418, 29.5371], [75.0418, 29.5372], [75.043, 29.5373], [75.043, 29.5383], [75.0449, 29.5375], [75.0459, 29.5387], [75.0479, 29.5411], [75.0486, 29.5419], [75.0487, 29.5419], [75.0488, 29.5419]]]}, "properties": {"objectid": 163906, "statename": "Haryana", "statecode": "6", "districtname": "", "districtcode": "79", "ulbname": "Sirsa (M Cl)", "ulbcode": "800401", "wardname": "Ward 5", "wardcode": "5", "id": null, "status": "APPROVED", "misglobalid": null, "approved_by": null, "createdate": 1645088919000, "updateddate": 1723456730000, "globalid": null, "gisglobalid": "mB4PoRRn-K5R4-P6cl-Qmos-oPoKoRKmKoP6", "remark": "", "st_area(shape)": 6.738572789916704e-05, "st_perimeter(shape)": 0.04322363891642691}}, {"type": "Feature", "geometry": {"type": "Polygon", "coordinates": [[[75.0486, 29.5419], [75.0479, 29.5411], [75.0459, 29.5387], [75.0449, 29.5375], [75.043, 29.5383], [75.043, 29.5373], [75.0418, 29.5372], [75.0418, 29.5371], [75.0418, 29.5369], [75.042, 29.5356], [75.041, 29.5354], [75.0413, 29.5347], [75.0414, 29.5344], [75.0393, 29.5338], [75.0388, 29.5337], [75.0387, 29.5337], [75.0359, 29.5329], [75.0353, 29.5328], [75.0352, 29.5329], [75.0351, 29.533], [75.0348, 29.5332], [75.0344, 29.5335], [75.0343, 29.5336], [75.0342, 29.5338], [75.0339, 29.5341], [75.0334, 29.5351], [75.0323, 29.5373], [75.0322, 29.5374], [75.0327, 29.5374], [75.0333, 29.5375], [75.0334, 29.538], [75.033, 29.539], [75.0315, 29.5409], [75.028, 29.5458], [75.0266, 29.5477], [75.0265, 29.5485], [75.0259, 29.5511], [75.027, 29.5515], [75.0273, 29.5515], [75.0286, 29.5519], [75.029, 29.552], [75.0295, 29.5522], [75.0308, 29.5524], [75.0309, 29.5524], [75.0316, 29.5519], [75.0317, 29.5519], [75.0354, 29.5496], [75.0434, 29.5448], [75.0456, 29.5434], [75.0486, 29.5419]]]}, "properties": {"objectid": 167099, "statename": "Haryana", "statecode": "6", "districtname": "", "districtcode": "79", "ulbname": "Sirsa (M Cl)", "ulbcode": "800401", "wardname": "Ward 6", "wardcode": "6", "id": null, "status": "APPROVED", "misglobalid": null, "approved_by": null, "createdate": 1645089310000, "updateddate": 1723456744000, "globalid": null, "gisglobalid": "PoocQQmm-6lKR-Palc-Ranl-olnm6noaaK4l", "remark": "", "st_area(shape)": 0.00021840631995512813, "st_perimeter(shape)": 0.06837623147870295}}, {"type": "Feature", "geometry": {"type": "Polygon", "coordinates": [[[75.0359, 29.5329], [75.0387, 29.5337], [75.0388, 29.5337], [75.0393, 29.5338], [75.0414, 29.5344], [75.0414, 29.5343], [75.0431, 29.5347], [75.0434, 29.5348], [75.0462, 29.5348], [75.0466, 29.5348], [75.047, 29.5347], [75.047, 29.532], [75.047, 29.5319], [75.0471, 29.5319], [75.0471, 29.5301], [75.0471, 29.5298], [75.046, 29.5299], [75.046, 29.5298], [75.046, 29.5296], [75.0437, 29.5299], [75.0435, 29.53], [75.0428, 29.5303], [75.0422, 29.5303], [75.0413, 29.5303], [75.0406, 29.5302], [75.0401, 29.5304], [75.0398, 29.5306], [75.0397, 29.5306], [75.0396, 29.5308], [75.0393, 29.5313], [75.0385, 29.5311], [75.0372, 29.5308], [75.0371, 29.5308], [75.0366, 29.5307], [75.0359, 29.5329]]]}, "properties": {"objectid": 165899, "statename": "Haryana", "statecode": "6", "districtname": "", "districtcode": "79", "ulbname": "Sirsa (M Cl)", "ulbcode": "800401", "wardname": "Ward 7", "wardcode": "7", "id": null, "status": "APPROVED", "misglobalid": null, "approved_by": null, "createdate": 1645088773000, "updateddate": 1723456766000, "globalid": null, "gisglobalid": "RPdQ6ld5-566o-PPd4-aBPP-dn5lcoKnlsso", "remark": "", "st_area(shape)": 4.2216401158680287e-05, "st_perimeter(shape)": 0.030428967040831124}}, {"type": "Feature", "geometry": {"type": "Polygon", "coordinates": [[[75.0566, 29.5317], [75.0563, 29.5293], [75.0563, 29.5287], [75.0562, 29.5284], [75.0562, 29.5262], [75.0555, 29.5263], [75.0549, 29.5262], [75.0548, 29.526], [75.0548, 29.5255], [75.0552, 29.5255], [75.0553, 29.5245], [75.0554, 29.5238], [75.0553, 29.5238], [75.0547, 29.5237], [75.0546, 29.5236], [75.0544, 29.5235], [75.0538, 29.5235], [75.0539, 29.5236], [75.0527, 29.5263], [75.0506, 29.5263], [75.0506, 29.5262], [75.0506, 29.5279], [75.0506, 29.5294], [75.0475, 29.5297], [75.0471, 29.5298], [75.0471, 29.5301], [75.0471, 29.5319], [75.047, 29.5319], [75.047, 29.532], [75.047, 29.5347], [75.0497, 29.5346], [75.0528, 29.5343], [75.0538, 29.5342], [75.0542, 29.5341], [75.056, 29.5338], [75.0568, 29.5337], [75.0567, 29.5328], [75.0566, 29.5317]]]}, "properties": {"objectid": 167507, "statename": "Haryana", "statecode": "6", "districtname": "", "districtcode": "79", "ulbname": "Sirsa (M Cl)", "ulbcode": "800401", "wardname": "Ward 8", "wardcode": "8", "id": null, "status": "APPROVED", "misglobalid": null, "approved_by": null, "createdate": 1645089548000, "updateddate": 1723456782000, "globalid": null, "gisglobalid": "omR6PBln-n4sd-P6Pm-RldB-oPomnQdcQ4d5", "remark": "", "st_area(shape)": 6.902243551739038e-05, "st_perimeter(shape)": 0.040108830443661356}}, {"type": "Feature", "geometry": {"type": "Polygon", "coordinates": [[[75.0401, 29.5304], [75.0406, 29.5302], [75.0413, 29.5303], [75.0422, 29.5303], [75.0428, 29.5303], [75.0435, 29.53], [75.0437, 29.5299], [75.046, 29.5296], [75.046, 29.5298], [75.046, 29.5299], [75.0471, 29.5298], [75.0475, 29.5297], [75.0506, 29.5294], [75.0506, 29.5279], [75.0504, 29.5266], [75.0502, 29.5265], [75.0503, 29.5265], [75.0486, 29.5264], [75.0483, 29.5275], [75.0477, 29.5274], [75.0469, 29.5271], [75.0462, 29.5274], [75.0456, 29.5276], [75.0454, 29.5275], [75.0451, 29.5266], [75.0453, 29.5254], [75.0454, 29.5246], [75.0453, 29.5217], [75.0454, 29.521], [75.0452, 29.5186], [75.0443, 29.5186], [75.0442, 29.518], [75.0435, 29.5178], [75.0435, 29.5153], [75.043, 29.5153], [75.0413, 29.5152], [75.0407, 29.5152], [75.0404, 29.5179], [75.0402, 29.5196], [75.0381, 29.5196], [75.0381, 29.52], [75.0382, 29.5216], [75.0402, 29.5217], [75.0402, 29.5223], [75.0402, 29.5252], [75.0395, 29.5252], [75.0381, 29.5251], [75.0381, 29.5253], [75.0381, 29.5255], [75.038, 29.5282], [75.038, 29.5283], [75.0385, 29.5284], [75.0384, 29.5291], [75.0384, 29.5297], [75.0384, 29.5298], [75.0382, 29.5302], [75.0373, 29.53], [75.0373, 29.5302], [75.0372, 29.5305], [75.0371, 29.5308], [75.0372, 29.5308], [75.0385, 29.5311], [75.0393, 29.5313], [75.0396, 29.5308], [75.0397, 29.5306], [75.0398, 29.5306], [75.0401, 29.5304]]]}, "properties": {"objectid": 166688, "statename": "Haryana", "statecode": "6", "districtname": "", "districtcode": "79", "ulbname": "Sirsa (M Cl)", "ulbcode": "800401", "wardname": "Ward 9", "wardcode": "9", "id": null, "status": "APPROVED", "misglobalid": null, "approved_by": null, "createdate": 1645088773000, "updateddate": 1723456797000, "globalid": null, "gisglobalid": "BnBBn5ms-lldc-Pma6-ad4Q-c6o455Klcd6d", "remark": "", "st_area(shape)": 9.958012323120349e-05, "st_perimeter(shape)": 0.0634675573535041}}, {"type": "Feature", "geometry": {"type": "Polygon", "coordinates": [[[75.035, 29.5179], [75.0336, 29.5218], [75.0336, 29.5219], [75.0332, 29.5238], [75.0331, 29.5241], [75.0356, 29.5245], [75.0355, 29.5254], [75.0365, 29.5254], [75.0381, 29.5255], [75.0381, 29.5253], [75.0381, 29.5251], [75.0395, 29.5252], [75.0402, 29.5252], [75.0402, 29.5223], [75.0402, 29.5217], [75.0382, 29.5216], [75.0381, 29.52], [75.0381, 29.5196], [75.0402, 29.5196], [75.0404, 29.5179], [75.035, 29.5179]]]}, "properties": {"objectid": 166691, "statename": "Haryana", "statecode": "6", "districtname": "", "districtcode": "79", "ulbname": "Sirsa (M Cl)", "ulbcode": "800401", "wardname": "Ward 10", "wardcode": "10", "id": null, "status": "APPROVED", "misglobalid": null, "approved_by": null, "createdate": 1645089137000, "updateddate": 1723456811000, "globalid": null, "gisglobalid": "alcc6anQ-anKs-PKs6-sP6R-4alnP66Pm6Ps", "remark": "", "st_area(shape)": 4.061115833594999e-05, "st_perimeter(shape)": 0.03158605273222631}}, {"type": "Feature", "geometry": {"type": "Polygon", "coordinates": [[[75.0407, 29.5152], [75.0412, 29.5152], [75.0427, 29.5152], [75.0428, 29.515], [75.0426, 29.5111], [75.0424, 29.5104], [75.042, 29.5088], [75.0421, 29.5086], [75.0421, 29.5085], [75.0421, 29.5083], [75.0419, 29.5068], [75.0427, 29.5066], [75.0428, 29.5057], [75.0435, 29.5055], [75.0436, 29.5016], [75.0406, 29.4984], [75.0389, 29.4983], [75.0335, 29.4979], [75.0336, 29.5102], [75.0246, 29.5099], [75.0246, 29.5142], [75.0322, 29.5139], [75.0325, 29.5139], [75.0364, 29.5139], [75.035, 29.5179], [75.0404, 29.5179], [75.0407, 29.5152]]]}, "properties": {"objectid": 167503, "statename": "Haryana", "statecode": "6", "districtname": "", "districtcode": "79", "ulbname": "Sirsa (M Cl)", "ulbcode": "800401", "wardname": "Ward 11", "wardcode": "11", "id": null, "status": "APPROVED", "misglobalid": null, "approved_by": null, "createdate": 1645089267000, "updateddate": 1723456827000, "globalid": null, "gisglobalid": "ln6aamsl-dlBm-PnKK-QsPB-P44osBRR4do6", "remark": "", "st_area(shape)": 0.00020025245088865984, "st_perimeter(shape)": 0.07797373182277567}}, {"type": "Feature", "geometry": {"type": "Polygon", "coordinates": [[[75.0336, 29.5218], [75.035, 29.5179], [75.0364, 29.5139], [75.0325, 29.5139], [75.0322, 29.5139], [75.0247, 29.5143], [75.0247, 29.5144], [75.0245, 29.5207], [75.0246, 29.5213], [75.0248, 29.5218], [75.0246, 29.5219], [75.0271, 29.5219], [75.0332, 29.5218], [75.0335, 29.5218], [75.0336, 29.5218]]]}, "properties": {"objectid": 167502, "statename": "Haryana", "statecode": "6", "districtname": "", "districtcode": "79", "ulbname": "Sirsa (M Cl)", "ulbcode": "800401", "wardname": "Ward 12", "wardcode": "12", "id": null, "status": "APPROVED", "misglobalid": null, "approved_by": null, "createdate": 1645089267000, "updateddate": 1723456840000, "globalid": null, "gisglobalid": "RBBQsQ65-P5dd-PddP-Qdds-BQndc4R4P65m", "remark": "", "st_area(shape)": 8.106146706204594e-05, "st_perimeter(shape)": 0.03701338460763365}}, {"type": "Feature", "geometry": {"type": "Polygon", "coordinates": [[[75.0329, 29.5282], [75.0329, 29.5265], [75.0329, 29.5261], [75.0329, 29.5256], [75.0329, 29.5252], [75.0331, 29.5241], [75.0332, 29.5238], [75.0336, 29.5219], [75.0336, 29.5218], [75.0335, 29.5218], [75.0332, 29.5218], [75.0271, 29.5219], [75.0246, 29.5219], [75.0247, 29.5227], [75.0252, 29.5253], [75.0253, 29.5258], [75.0254, 29.526], [75.0255, 29.5262], [75.0259, 29.5267], [75.026, 29.5268], [75.0261, 29.5268], [75.0265, 29.527], [75.0273, 29.5273], [75.0276, 29.5277], [75.0277, 29.5275], [75.0277, 29.5274], [75.0279, 29.5273], [75.028, 29.5272], [75.0282, 29.5271], [75.0282, 29.527], [75.0282, 29.5271], [75.0283, 29.5272], [75.0284, 29.5272], [75.0284, 29.5273], [75.0284, 29.5274], [75.0285, 29.5274], [75.0285, 29.5275], [75.0284, 29.5276], [75.0284, 29.5278], [75.0282, 29.5277], [75.0281, 29.5278], [75.0281, 29.5287], [75.0287, 29.5287], [75.0287, 29.5288], [75.0287, 29.529], [75.0306, 29.5292], [75.0319, 29.5293], [75.0321, 29.5293], [75.0323, 29.5292], [75.0328, 29.5289], [75.0328, 29.5286], [75.0329, 29.5282]]]}, "properties": {"objectid": 167500, "statename": "Haryana", "statecode": "6", "districtname": "", "districtcode": "79", "ulbname": "Sirsa (M Cl)", "ulbcode": "800401", "wardname": "Ward 13", "wardcode": "13", "id": null, "status": "APPROVED", "misglobalid": null, "approved_by": null, "createdate": 1645088841000, "updateddate": 1723456860000, "globalid": null, "gisglobalid": "5B5nQmcB-Qn5P-Pdad-QdKP-clKQm5QdmaBK", "remark": "", "st_area(shape)": 5.147599140765108e-05, "st_perimeter(shape)": 0.03160052655258312}}, {"type": "Feature", "geometry": {"type": "Polygon", "coordinates": [[[75.0352, 29.5329], [75.0353, 29.5328], [75.0359, 29.5329], [75.0366, 29.5307], [75.0371, 29.5308], [75.0372, 29.5305], [75.0373, 29.5302], [75.0373, 29.53], [75.0382, 29.5302], [75.0384, 29.5298], [75.0384, 29.5297], [75.0384, 29.5291], [75.0385, 29.5284], [75.038, 29.5283], [75.038, 29.5282], [75.0381, 29.5255], [75.0365, 29.5254], [75.0355, 29.5254], [75.0356, 29.5245], [75.0331, 29.5241], [75.0329, 29.5252], [75.0329, 29.5256], [75.0329, 29.5261], [75.0329, 29.5265], [75.0329, 29.5282], [75.0328, 29.5286], [75.0328, 29.5289], [75.0323, 29.5292], [75.0321, 29.5293], [75.0319, 29.5295], [75.0329, 29.5295], [75.0329, 29.5296], [75.0329, 29.5299], [75.0328, 29.5304], [75.0345, 29.5306], [75.0346, 29.5299], [75.0352, 29.5299], [75.0352, 29.5304], [75.0348, 29.5314], [75.0347, 29.5316], [75.0345, 29.5327], [75.0349, 29.5329], [75.0351, 29.533], [75.0352, 29.5329]]]}, "properties": {"objectid": 167501, "statename": "Haryana", "statecode": "6", "districtname": "", "districtcode": "79", "ulbname": "Sirsa (M Cl)", "ulbcode": "800401", "wardname": "Ward 14", "wardcode": "14", "id": null, "status": "APPROVED", "misglobalid": null, "approved_by": null, "createdate": 1645088919000, "updateddate": 1723456876000, "globalid": null, "gisglobalid": "Pc4PmdBd-lPQ6-PdPm-adls-Rcal5scP4Qn6", "remark": "", "st_area(shape)": 3.33069880741958e-05, "st_perimeter(shape)": 0.031063655445152803}}, {"type": "Feature", "geometry": {"type": "Polygon", "coordinates": [[[75.0348, 29.5332], [75.0351, 29.533], [75.0349, 29.5329], [75.0345, 29.5327], [75.0347, 29.5316], [75.0348, 29.5314], [75.0352, 29.5304], [75.0352, 29.5299], [75.0346, 29.5299], [75.0345, 29.5306], [75.0328, 29.5304], [75.0329, 29.5299], [75.0329, 29.5296], [75.0329, 29.5295], [75.0319, 29.5295], [75.0321, 29.5293], [75.0319, 29.5293], [75.0306, 29.5292], [75.0287, 29.529], [75.0287, 29.5301], [75.0286, 29.5304], [75.0286, 29.5317], [75.0286, 29.5323], [75.0285, 29.5341], [75.0285, 29.5342], [75.0298, 29.5344], [75.0299, 29.5344], [75.0315, 29.5346], [75.0316, 29.5346], [75.0317, 29.5349], [75.0318, 29.5351], [75.032, 29.5351], [75.0334, 29.5351], [75.0339, 29.5341], [75.0342, 29.5338], [75.0343, 29.5336], [75.0344, 29.5335], [75.0348, 29.5332]]]}, "properties": {"objectid": 162375, "statename": "Haryana", "statecode": "6", "districtname": "", "districtcode": "79", "ulbname": "Sirsa (M Cl)", "ulbcode": "800401", "wardname": "Ward 15", "wardcode": "15", "id": null, "status": "APPROVED", "misglobalid": null, "approved_by": null, "createdate": 1645089432000, "updateddate": 1723456896000, "globalid": null, "gisglobalid": "BRPac65Q-cKRm-PnQn-ammn-o4n5KmlBmsla", "remark": "", "st_area(shape)": 3.057780803586715e-05, "st_perimeter(shape)": 0.025545393388484484}}, {"type": "Feature", "geometry": {"type": "Polygon", "coordinates": [[[75.0323, 29.5373], [75.0334, 29.5351], [75.032, 29.5351], [75.0318, 29.5351], [75.0317, 29.5349], [75.0316, 29.5346], [75.0315, 29.5346], [75.0299, 29.5344], [75.0298, 29.5344], [75.0285, 29.5342], [75.0272, 29.5341], [75.027, 29.534], [75.0256, 29.5339], [75.0256, 29.5341], [75.0255, 29.5345], [75.0255, 29.5347], [75.0255, 29.535], [75.0255, 29.5356], [75.0254, 29.5367], [75.0262, 29.5368], [75.0265, 29.5368], [75.0283, 29.537], [75.0285, 29.537], [75.0286, 29.537], [75.032, 29.5375], [75.0322, 29.5374], [75.0323, 29.5373]]]}, "properties": {"objectid": 167096, "statename": "Haryana", "statecode": "6", "districtname": "", "districtcode": "79", "ulbname": "Sirsa (M Cl)", "ulbcode": "800401", "wardname": "Ward 16", "wardcode": "16", "id": null, "status": "APPROVED", "misglobalid": null, "approved_by": null, "createdate": 1645088773000, "updateddate": 1723456926000, "globalid": null, "gisglobalid": "64KRaRss-KoaB-PmmB-Qmcl-6ocslK6RoBad", "remark": "", "st_area(shape)": 1.9967379022842412e-05, "st_perimeter(shape)": 0.02053424530429455}}, {"type": "Feature", "geometry": {"type": "Polygon", "coordinates": [[[75.028, 29.5458], [75.0315, 29.5409], [75.033, 29.539], [75.0334, 29.538], [75.0333, 29.5375], [75.0327, 29.5374], [75.0322, 29.5374], [75.032, 29.5375], [75.0286, 29.537], [75.0285, 29.537], [75.0283, 29.537], [75.0265, 29.5368], [75.0262, 29.5368], [75.0254, 29.5367], [75.0254, 29.5373], [75.0254, 29.5375], [75.0254, 29.5383], [75.0254, 29.539], [75.0254, 29.5391], [75.0253, 29.5395], [75.0253, 29.54], [75.025, 29.5417], [75.0248, 29.543], [75.0269, 29.5433], [75.0274, 29.5434], [75.0274, 29.5436], [75.0273, 29.5441], [75.0272, 29.5447], [75.0266, 29.5477], [75.028, 29.5458]]]}, "properties": {"objectid": 165900, "statename": "Haryana", "statecode": "6", "districtname": "", "districtcode": "79", "ulbname": "Sirsa (M Cl)", "ulbcode": "800401", "wardname": "Ward 17", "wardcode": "17", "id": null, "status": "APPROVED", "misglobalid": null, "approved_by": null, "createdate": 1645089137000, "updateddate": 1723456938000, "globalid": null, "gisglobalid": "5456smPd-Qcn5-PnKP-Qas6-54Q6lcad6na4", "remark": "", "st_area(shape)": 4.649665612991401e-05, "st_perimeter(shape)": 0.03386935660996171}}, {"type": "Feature", "geometry": {"type": "Polygon", "coordinates": [[[75.0224, 29.534], [75.022, 29.534], [75.022, 29.5341], [75.0222, 29.5344], [75.0221, 29.5348], [75.022, 29.5356], [75.0219, 29.5363], [75.0216, 29.5369], [75.0229, 29.5371], [75.0239, 29.5372], [75.0245, 29.5372], [75.0254, 29.5373], [75.0254, 29.5367], [75.0255, 29.5356], [75.0255, 29.535], [75.0255, 29.5347], [75.0245, 29.5346], [75.0241, 29.5346], [75.023, 29.5345], [75.023, 29.5344], [75.0232, 29.5341], [75.0226, 29.534], [75.0224, 29.534]]]}, "properties": {"objectid": 163910, "statename": "Haryana", "statecode": "6", "districtname": "", "districtcode": "79", "ulbname": "Sirsa (M Cl)", "ulbcode": "800401", "wardname": "Ward 18", "wardcode": "18", "id": null, "status": "APPROVED", "misglobalid": null, "approved_by": null, "createdate": 1645089396000, "updateddate": 1723456953000, "globalid": null, "gisglobalid": "cl555Pod-K5oo-PQ45-s6Pd-645KPPBalnaK", "remark": "", "st_area(shape)": 9.590889576126047e-06, "st_perimeter(shape)": 0.01378425279052204}}, {"type": "Feature", "geometry": {"type": "Polygon", "coordinates": [[[75.0256, 29.5282], [75.025, 29.5282], [75.025, 29.5285], [75.0247, 29.5285], [75.0246, 29.5287], [75.0245, 29.5287], [75.0243, 29.5287], [75.0242, 29.5288], [75.0241, 29.5288], [75.0239, 29.529], [75.0237, 29.529], [75.0233, 29.529], [75.0232, 29.5291], [75.0231, 29.5291], [75.0231, 29.5292], [75.023, 29.5294], [75.023, 29.5297], [75.0229, 29.5303], [75.0229, 29.5309], [75.0224, 29.5309], [75.0223, 29.5324], [75.0223, 29.5328], [75.022, 29.534], [75.0224, 29.534], [75.0226, 29.534], [75.0232, 29.5341], [75.023, 29.5344], [75.023, 29.5345], [75.0241, 29.5346], [75.0245, 29.5346], [75.0255, 29.5347], [75.0255, 29.5345], [75.0256, 29.5341], [75.0256, 29.5339], [75.0256, 29.5331], [75.0256, 29.5321], [75.0256, 29.5313], [75.0256, 29.5299], [75.0256, 29.5285], [75.0257, 29.5282], [75.0256, 29.5282]]]}, "properties": {"objectid": 166689, "statename": "Haryana", "statecode": "6", "districtname": "", "districtcode": "79", "ulbname": "Sirsa (M Cl)", "ulbcode": "800401", "wardname": "Ward 19", "wardcode": "19", "id": null, "status": "APPROVED", "misglobalid": null, "approved_by": null, "createdate": 1645088841000, "updateddate": 1723456967000, "globalid": null, "gisglobalid": "PRBRcncd-lanl-PPao-RK6P-QBnRKs4dalal", "remark": "", "st_area(shape)": 1.7638848252713817e-05, "st_perimeter(shape)": 0.01909936617810846}}, {"type": "Feature", "geometry": {"type": "Polygon", "coordinates": [[[75.0261, 29.5268], [75.026, 29.5268], [75.026, 29.5272], [75.0259, 29.5276], [75.0258, 29.5278], [75.0257, 29.5282], [75.0256, 29.5285], [75.0256, 29.5299], [75.0256, 29.5313], [75.0256, 29.5321], [75.0256, 29.5331], [75.0256, 29.5339], [75.027, 29.534], [75.0272, 29.5341], [75.0285, 29.5342], [75.0285, 29.5341], [75.0286, 29.5323], [75.0286, 29.5317], [75.0286, 29.5304], [75.0287, 29.5301], [75.0287, 29.529], [75.0287, 29.5288], [75.0287, 29.5287], [75.0281, 29.5287], [75.0281, 29.5278], [75.0282, 29.5277], [75.0284, 29.5278], [75.0284, 29.5276], [75.0285, 29.5275], [75.0285, 29.5274], [75.0284, 29.5274], [75.0284, 29.5273], [75.0284, 29.5272], [75.0283, 29.5272], [75.0282, 29.5271], [75.0282, 29.527], [75.0282, 29.5271], [75.028, 29.5272], [75.0279, 29.5273], [75.0277, 29.5274], [75.0277, 29.5275], [75.0276, 29.5277], [75.0273, 29.5273], [75.0265, 29.527], [75.0261, 29.5268]]]}, "properties": {"objectid": 167098, "statename": "Haryana", "statecode": "6", "districtname": "", "districtcode": "79", "ulbname": "Sirsa (M Cl)", "ulbcode": "800401", "wardname": "Ward 20", "wardcode": "20", "id": null, "status": "APPROVED", "misglobalid": null, "approved_by": null, "createdate": 1645089267000, "updateddate": 1723456980000, "globalid": null, "gisglobalid": "66moQPno-c4Pa-PK6n-QsPB-RsKK5aK4QsPa", "remark": "", "st_area(shape)": 1.9751791345287866e-05, "st_perimeter(shape)": 0.02135155531877052}}, {"type": "Feature", "geometry": {"type": "Polygon", "coordinates": [[[75.0247, 29.5227], [75.0246, 29.5221], [75.0245, 29.5221], [75.0245, 29.522], [75.0225, 29.5227], [75.0224, 29.5225], [75.0222, 29.5225], [75.0222, 29.5224], [75.0207, 29.5224], [75.0204, 29.5224], [75.0209, 29.5227], [75.0211, 29.5229], [75.0214, 29.5231], [75.0217, 29.5234], [75.0219, 29.5234], [75.0221, 29.5235], [75.0225, 29.524], [75.0228, 29.5242], [75.0229, 29.5243], [75.0236, 29.5249], [75.0245, 29.5256], [75.025, 29.5259], [75.0251, 29.526], [75.0249, 29.5264], [75.0248, 29.5265], [75.0247, 29.5268], [75.0243, 29.5271], [75.0245, 29.5274], [75.0247, 29.5276], [75.0248, 29.5279], [75.025, 29.5282], [75.0256, 29.5282], [75.0257, 29.5282], [75.0258, 29.5278], [75.0259, 29.5276], [75.026, 29.5272], [75.026, 29.5268], [75.0259, 29.5267], [75.0255, 29.5262], [75.0254, 29.526], [75.0253, 29.5258], [75.0252, 29.5253], [75.0247, 29.5227]]]}, "properties": {"objectid": 166693, "statename": "Haryana", "statecode": "6", "districtname": "", "districtcode": "79", "ulbname": "Sirsa (M Cl)", "ulbcode": "800401", "wardname": "Ward 21", "wardcode": "21", "id": null, "status": "APPROVED", "misglobalid": null, "approved_by": null, "createdate": 1645089396000, "updateddate": 1723456997000, "globalid": null, "gisglobalid": "4dssQ4cc-5lmc-P56a-Rllm-s5R5PQm4BlnP", "remark": "", "st_area(shape)": 1.0556980650953354e-05, "st_perimeter(shape)": 0.02047737240024868}}, {"type": "Feature", "geometry": {"type": "Polygon", "coordinates": [[[75.025, 29.5285], [75.025, 29.5282], [75.0248, 29.5279], [75.0247, 29.5276], [75.0245, 29.5274], [75.0243, 29.5271], [75.0247, 29.5268], [75.0248, 29.5265], [75.0249, 29.5264], [75.0251, 29.526], [75.025, 29.5259], [75.0245, 29.5256], [75.0236, 29.5249], [75.0229, 29.5243], [75.0228, 29.5242], [75.0225, 29.524], [75.0221, 29.5235], [75.0219, 29.5234], [75.0217, 29.5234], [75.0214, 29.5231], [75.0211, 29.5229], [75.0209, 29.5227], [75.0205, 29.5226], [75.0204, 29.5227], [75.0204, 29.5229], [75.0179, 29.5228], [75.0178, 29.5229], [75.0175, 29.5229], [75.0174, 29.5229], [75.0174, 29.523], [75.0174, 29.5258], [75.0174, 29.5261], [75.0176, 29.5262], [75.0186, 29.5263], [75.0187, 29.5264], [75.0187, 29.5265], [75.0192, 29.5269], [75.0197, 29.5272], [75.0198, 29.5272], [75.02, 29.5274], [75.0206, 29.5276], [75.0206, 29.5275], [75.0212, 29.5275], [75.0215, 29.5275], [75.0233, 29.5275], [75.0235, 29.5275], [75.0235, 29.5277], [75.0236, 29.5277], [75.0237, 29.5278], [75.0237, 29.5279], [75.0237, 29.528], [75.0237, 29.5281], [75.0236, 29.5282], [75.0237, 29.5284], [75.0238, 29.5284], [75.0239, 29.5284], [75.0239, 29.5285], [75.0238, 29.5285], [75.0239, 29.5286], [75.024, 29.5288], [75.0241, 29.5288], [75.0242, 29.5288], [75.0243, 29.5287], [75.0245, 29.5287], [75.0246, 29.5287], [75.0247, 29.5285], [75.025, 29.5285]]]}, "properties": {"objectid": 167498, "statename": "Haryana", "statecode": "6", "districtname": "", "districtcode": "79", "ulbname": "Sirsa (M Cl)", "ulbcode": "800401", "wardname": "Ward 22", "wardcode": "22", "id": null, "status": "APPROVED", "misglobalid": null, "approved_by": null, "createdate": 1645088773000, "updateddate": 1723457010000, "globalid": null, "gisglobalid": "KdQandPd-PPoo-PRBB-R6co-Bo6KQdPQ4ccn", "remark": "", "st_area(shape)": 2.7807569013274395e-05, "st_perimeter(shape)": 0.024950441235752255}}, {"type": "Feature", "geometry": {"type": "Polygon", "coordinates": [[[75.0241, 29.5288], [75.024, 29.5288], [75.0239, 29.5286], [75.0238, 29.5285], [75.0239, 29.5285], [75.0239, 29.5284], [75.0238, 29.5284], [75.0237, 29.5284], [75.0236, 29.5282], [75.0237, 29.5281], [75.0237, 29.528], [75.0237, 29.5279], [75.0237, 29.5278], [75.0236, 29.5277], [75.0235, 29.5277], [75.0235, 29.5275], [75.0233, 29.5275], [75.0215, 29.5275], [75.0212, 29.5275], [75.0206, 29.5275], [75.0206, 29.5276], [75.0205, 29.5278], [75.0205, 29.5285], [75.0204, 29.5286], [75.0202, 29.5287], [75.0199, 29.5287], [75.0198, 29.5287], [75.0196, 29.5287], [75.0189, 29.5286], [75.0189, 29.5288], [75.0188, 29.5289], [75.0187, 29.5293], [75.0189, 29.5293], [75.0193, 29.5293], [75.0192, 29.5295], [75.019, 29.5296], [75.0189, 29.5296], [75.0188, 29.5299], [75.019, 29.53], [75.0189, 29.5302], [75.0188, 29.5302], [75.0187, 29.5304], [75.0188, 29.5304], [75.0189, 29.5305], [75.0192, 29.5306], [75.0195, 29.5307], [75.0196, 29.5307], [75.0201, 29.5309], [75.0203, 29.5309], [75.0206, 29.5309], [75.0207, 29.5309], [75.0214, 29.5309], [75.0217, 29.5309], [75.0218, 29.5309], [75.0224, 29.5309], [75.0229, 29.5309], [75.0229, 29.5303], [75.023, 29.5297], [75.023, 29.5294], [75.0231, 29.5292], [75.0231, 29.5291], [75.0232, 29.5291], [75.0233, 29.529], [75.0237, 29.529], [75.0239, 29.529], [75.0241, 29.5288]]]}, "properties": {"objectid": 163909, "statename": "Haryana", "statecode": "6", "districtname": "", "districtcode": "79", "ulbname": "Sirsa (M Cl)", "ulbcode": "800401", "wardname": "Ward 23", "wardcode": "23", "id": null, "status": "APPROVED", "misglobalid": null, "approved_by": null, "createdate": 1645089310000, "updateddate": 1723457023000, "globalid": null, "gisglobalid": "5oK4lBlo-nn5R-PQlP-RlP5-BBm5d6o4cK64", "remark": "", "st_area(shape)": 1.2966303937787711e-05, "st_perimeter(shape)": 0.017457320057459605}}, {"type": "Feature", "geometry": {"type": "Polygon", "coordinates": [[[75.0189, 29.5288], [75.0189, 29.5286], [75.0196, 29.5287], [75.0198, 29.5287], [75.0199, 29.5287], [75.0202, 29.5287], [75.0204, 29.5286], [75.0205, 29.5285], [75.0205, 29.5278], [75.0206, 29.5276], [75.02, 29.5274], [75.0198, 29.5272], [75.0197, 29.5272], [75.0192, 29.5269], [75.0187, 29.5265], [75.0187, 29.5264], [75.0186, 29.5263], [75.0176, 29.5262], [75.0174, 29.5261], [75.0174, 29.5258], [75.0174, 29.5229], [75.0169, 29.5229], [75.0161, 29.523], [75.0148, 29.523], [75.0128, 29.5235], [75.0126, 29.5236], [75.0121, 29.5239], [75.0106, 29.5253], [75.0105, 29.5254], [75.0103, 29.5259], [75.0102, 29.5263], [75.0101, 29.5268], [75.0101, 29.527], [75.0116, 29.5278], [75.0123, 29.5281], [75.0128, 29.5283], [75.0141, 29.5287], [75.0153, 29.5291], [75.0154, 29.5291], [75.0167, 29.5296], [75.0187, 29.5304], [75.0188, 29.5304], [75.0187, 29.5304], [75.0188, 29.5302], [75.0189, 29.5302], [75.019, 29.53], [75.0188, 29.5299], [75.0189, 29.5296], [75.019, 29.5296], [75.0192, 29.5295], [75.0193, 29.5293], [75.0189, 29.5293], [75.0187, 29.5293], [75.0188, 29.5289], [75.0189, 29.5288]]]}, "properties": {"objectid": 167100, "statename": "Haryana", "statecode": "6", "districtname": "", "districtcode": "79", "ulbname": "Sirsa (M Cl)", "ulbcode": "800401", "wardname": "Ward 24", "wardcode": "24", "id": null, "status": "APPROVED", "misglobalid": null, "approved_by": null, "createdate": 1645089344000, "updateddate": 1723457039000, "globalid": null, "gisglobalid": "KBmlscsc-m6nR-PBnd-sBBs-nscRB4BsccRs", "remark": "", "st_area(shape)": 4.395985469942779e-05, "st_perimeter(shape)": 0.031093817502590694}}, {"type": "Feature", "geometry": {"type": "Polygon", "coordinates": [[[75.0192, 29.5345], [75.0219, 29.5363], [75.022, 29.5356], [75.0221, 29.5348], [75.0222, 29.5344], [75.022, 29.5341], [75.022, 29.534], [75.0223, 29.5328], [75.0223, 29.5324], [75.0224, 29.5309], [75.0218, 29.5309], [75.0217, 29.5309], [75.0214, 29.5309], [75.0207, 29.5309], [75.0206, 29.5309], [75.0203, 29.5309], [75.0201, 29.5309], [75.0196, 29.5307], [75.0195, 29.5307], [75.0192, 29.5306], [75.0189, 29.5305], [75.0188, 29.5304], [75.0187, 29.5304], [75.0167, 29.5296], [75.0154, 29.5291], [75.0153, 29.5291], [75.0141, 29.5287], [75.0128, 29.5283], [75.0123, 29.5281], [75.0116, 29.5278], [75.0101, 29.527], [75.0101, 29.5268], [75.0102, 29.5263], [75.0103, 29.5259], [75.0105, 29.5254], [75.0106, 29.5253], [75.0121, 29.5239], [75.0125, 29.5236], [75.0116, 29.5235], [75.0114, 29.5236], [75.0111, 29.5237], [75.0105, 29.5239], [75.01, 29.5241], [75.0097, 29.5241], [75.0086, 29.5245], [75.0092, 29.5277], [75.0094, 29.5285], [75.0095, 29.529], [75.0096, 29.529], [75.0102, 29.529], [75.0104, 29.5297], [75.0109, 29.5295], [75.0115, 29.5292], [75.0117, 29.5295], [75.0129, 29.529], [75.0132, 29.5288], [75.0133, 29.5289], [75.0146, 29.5307], [75.0151, 29.5314], [75.016, 29.5325], [75.0192, 29.5345]]]}, "properties": {"objectid": 163908, "statename": "Haryana", "statecode": "6", "districtname": "", "districtcode": "79", "ulbname": "Sirsa (M Cl)", "ulbcode": "800401", "wardname": "Ward 25", "wardcode": "25", "id": null, "status": "APPROVED", "misglobalid": null, "approved_by": null, "createdate": 1645089101000, "updateddate": 1723457054000, "globalid": null, "gisglobalid": "co54dBPm-Boon-PR6c-QsK4-mdl4dB66ma4s", "remark": "", "st_area(shape)": 4.2751741846869095e-05, "st_perimeter(shape)": 0.047944423112345966}}, {"type": "Feature", "geometry": {"type": "Polygon", "coordinates": [[[75.0169, 29.5361], [75.0192, 29.5345], [75.016, 29.5325], [75.0151, 29.5314], [75.0146, 29.5307], [75.0133, 29.5289], [75.0132, 29.5288], [75.0129, 29.529], [75.0117, 29.5295], [75.0115, 29.5292], [75.0109, 29.5295], [75.0104, 29.5297], [75.0102, 29.529], [75.0096, 29.529], [75.0095, 29.529], [75.0094, 29.5285], [75.0092, 29.5277], [75.0083, 29.5246], [75.0081, 29.5245], [75.0082, 29.5245], [75.0047, 29.519], [75.0043, 29.5176], [75.004, 29.5169], [75.0031, 29.5164], [75.0012, 29.5154], [74.9905, 29.5151], [74.9907, 29.5229], [74.9947, 29.5229], [74.9949, 29.5266], [74.9975, 29.5266], [74.9978, 29.5349], [75.002, 29.535], [75.0021, 29.5367], [75.0021, 29.5372], [75.0066, 29.5374], [75.007, 29.5374], [75.007, 29.5382], [75.0082, 29.5382], [75.0082, 29.5373], [75.0083, 29.5368], [75.0089, 29.5368], [75.0094, 29.5343], [75.0095, 29.5342], [75.0104, 29.5342], [75.0111, 29.5361], [75.0112, 29.5363], [75.0133, 29.5409], [75.0166, 29.5397], [75.0165, 29.5396], [75.0157, 29.5377], [75.0174, 29.5366], [75.017, 29.5362], [75.0169, 29.5361]]]}, "properties": {"objectid": 165901, "statename": "Haryana", "statecode": "6", "districtname": "", "districtcode": "79", "ulbname": "Sirsa (M Cl)", "ulbcode": "800401", "wardname": "Ward 26", "wardcode": "26", "id": null, "status": "APPROVED", "misglobalid": null, "approved_by": null, "createdate": 1645089216000, "updateddate": 1723457066000, "globalid": null, "gisglobalid": "K46cPBaQ-ndBl-Pl4m-aQQo-lcc6P5ddRR55", "remark": "", "st_area(shape)": 0.00033580766432362213, "st_perimeter(shape)": 0.1042538172953161}}, {"type": "Feature", "geometry": {"type": "Polygon", "coordinates": [[[75.009, 29.5434], [75.009, 29.5427], [75.0112, 29.5431], [75.0113, 29.5428], [75.0114, 29.5426], [75.0116, 29.5427], [75.0122, 29.5428], [75.0123, 29.5427], [75.0123, 29.5425], [75.0126, 29.5416], [75.0136, 29.5416], [75.0134, 29.5411], [75.0133, 29.5409], [75.0112, 29.5363], [75.0111, 29.5361], [75.0104, 29.5342], [75.0095, 29.5342], [75.0094, 29.5343], [75.0089, 29.5368], [75.0083, 29.5368], [75.0082, 29.5373], [75.0082, 29.5382], [75.007, 29.5382], [75.007, 29.5374], [75.0066, 29.5374], [75.0019, 29.5373], [75.0016, 29.5491], [75.0016, 29.5493], [75.0033, 29.5485], [75.0089, 29.5461], [75.009, 29.5434]]]}, "properties": {"objectid": 167505, "statename": "Haryana", "statecode": "6", "districtname": "", "districtcode": "79", "ulbname": "Sirsa (M Cl)", "ulbcode": "800401", "wardname": "Ward 27", "wardcode": "27", "id": null, "status": "APPROVED", "misglobalid": null, "approved_by": null, "createdate": 1645089396000, "updateddate": 1723457080000, "globalid": null, "gisglobalid": "d4P5PQnQ-RodK-PRsm-Q5oa-mc65sBPRc66d", "remark": "", "st_area(shape)": 9.964923246690348e-05, "st_perimeter(shape)": 0.050183384405966536}}, {"type": "Feature", "geometry": {"type": "Polygon", "coordinates": [[[75.02, 29.5443], [75.0207, 29.5429], [75.0215, 29.5432], [75.0216, 29.5432], [75.0223, 29.5434], [75.0224, 29.5428], [75.0224, 29.5427], [75.0225, 29.5421], [75.0225, 29.5416], [75.0225, 29.5414], [75.0225, 29.5405], [75.0225, 29.5402], [75.0224, 29.5398], [75.0221, 29.5392], [75.0219, 29.5388], [75.021, 29.5376], [75.0216, 29.5369], [75.0219, 29.5363], [75.0192, 29.5345], [75.0169, 29.5361], [75.017, 29.5362], [75.0174, 29.5366], [75.0157, 29.5377], [75.0165, 29.5396], [75.0166, 29.5397], [75.0133, 29.5409], [75.0134, 29.5411], [75.0136, 29.5416], [75.0144, 29.5435], [75.0146, 29.5434], [75.015, 29.5432], [75.016, 29.5459], [75.0168, 29.5473], [75.0189, 29.5456], [75.02, 29.5443]]]}, "properties": {"objectid": 167097, "statename": "Haryana", "statecode": "6", "districtname": "", "districtcode": "79", "ulbname": "Sirsa (M Cl)", "ulbcode": "800401", "wardname": "Ward 28", "wardcode": "28", "id": null, "status": "APPROVED", "misglobalid": null, "approved_by": null, "createdate": 1645088919000, "updateddate": 1723457100000, "globalid": null, "gisglobalid": "QlKKm5BQ-Bn4d-PsBc-RnaK-B6dPcQRms666", "remark": "", "st_area(shape)": 6.497723989561829e-05, "st_perimeter(shape)": 0.037989623410620545}}, {"type": "Feature", "geometry": {"type": "Polygon", "coordinates": [[[75.0216, 29.5369], [75.021, 29.5376], [75.0219, 29.5388], [75.0221, 29.5392], [75.0224, 29.5398], [75.0225, 29.5402], [75.0225, 29.5405], [75.0225, 29.5414], [75.0225, 29.5416], [75.0225, 29.5421], [75.0224, 29.5427], [75.0224, 29.5428], [75.0223, 29.5434], [75.0228, 29.5435], [75.0234, 29.5435], [75.0245, 29.5437], [75.0247, 29.5437], [75.027, 29.544], [75.0273, 29.5441], [75.0274, 29.5436], [75.0274, 29.5434], [75.0269, 29.5433], [75.0248, 29.543], [75.025, 29.5417], [75.0253, 29.54], [75.0253, 29.5395], [75.0254, 29.5391], [75.0254, 29.539], [75.0254, 29.5383], [75.0254, 29.5375], [75.0254, 29.5373], [75.0245, 29.5372], [75.0239, 29.5372], [75.0229, 29.5371], [75.0216, 29.5369]]]}, "properties": {"objectid": 166692, "statename": "Haryana", "statecode": "6", "districtname": "", "districtcode": "79", "ulbname": "Sirsa (M Cl)", "ulbcode": "800401", "wardname": "Ward 29", "wardcode": "29", "id": null, "status": "APPROVED", "misglobalid": null, "approved_by": null, "createdate": 1645089310000, "updateddate": 1723457118000, "globalid": null, "gisglobalid": "l5RR5cK5-l6cB-Psal-QKlR-KBBRQlKa455l", "remark": "", "st_area(shape)": 2.132650167950612e-05, "st_perimeter(shape)": 0.025243672352414735}}, {"type": "Feature", "geometry": {"type": "Polygon", "coordinates": [[[75.0265, 29.5485], [75.0266, 29.5477], [75.0272, 29.5447], [75.0273, 29.5441], [75.027, 29.544], [75.0247, 29.5437], [75.0245, 29.5437], [75.0234, 29.5435], [75.0228, 29.5435], [75.0223, 29.5434], [75.0216, 29.5432], [75.0215, 29.5432], [75.0207, 29.5429], [75.02, 29.5443], [75.0189, 29.5456], [75.0168, 29.5473], [75.0173, 29.5477], [75.0177, 29.5481], [75.0181, 29.5484], [75.0184, 29.5487], [75.0195, 29.5492], [75.0217, 29.55], [75.0241, 29.5508], [75.0255, 29.5511], [75.0259, 29.5511], [75.0265, 29.5485]]]}, "properties": {"objectid": 166694, "statename": "Haryana", "statecode": "6", "districtname": "", "districtcode": "79", "ulbname": "Sirsa (M Cl)", "ulbcode": "800401", "wardname": "Ward 30", "wardcode": "30", "id": null, "status": "APPROVED", "misglobalid": null, "approved_by": null, "createdate": 1645089432000, "updateddate": 1723457135000, "globalid": null, "gisglobalid": "macn4msm-saml-Pn6P-aPPm-6m4PBs56BBnB", "remark": "", "st_area(shape)": 5.397549390319449e-05, "st_perimeter(shape)": 0.029829374573622225}}, {"type": "Feature", "geometry": {"type": "Polygon", "coordinates": [[[75.0306, 29.5562], [75.0309, 29.5548], [75.0313, 29.5532], [75.0312, 29.5528], [75.031, 29.5526], [75.0308, 29.5524], [75.0295, 29.5522], [75.029, 29.552], [75.0286, 29.5519], [75.0273, 29.5515], [75.027, 29.5515], [75.0259, 29.5511], [75.0255, 29.5511], [75.0241, 29.5508], [75.0217, 29.55], [75.0195, 29.5492], [75.0184, 29.5487], [75.0181, 29.5484], [75.0177, 29.5481], [75.0173, 29.5477], [75.0168, 29.5473], [75.016, 29.5459], [75.015, 29.5432], [75.0146, 29.5434], [75.0144, 29.5435], [75.0136, 29.5416], [75.0126, 29.5416], [75.0123, 29.5425], [75.0123, 29.5427], [75.0122, 29.5428], [75.0116, 29.5427], [75.0114, 29.5426], [75.0113, 29.5428], [75.0112, 29.5431], [75.009, 29.5427], [75.009, 29.5434], [75.0089, 29.5461], [75.0033, 29.5485], [75.0017, 29.5494], [75.0019, 29.5515], [75.0042, 29.5517], [75.0051, 29.5512], [75.0075, 29.5512], [75.0076, 29.5512], [75.0121, 29.5512], [75.0124, 29.5547], [75.0138, 29.5547], [75.0144, 29.5549], [75.0164, 29.5549], [75.0166, 29.5597], [75.0219, 29.5599], [75.0222, 29.5607], [75.0246, 29.5611], [75.0245, 29.5627], [75.0232, 29.5693], [75.0242, 29.5692], [75.0247, 29.5689], [75.0256, 29.5692], [75.0259, 29.5695], [75.0264, 29.5695], [75.0305, 29.5697], [75.0309, 29.5606], [75.0303, 29.5571], [75.0305, 29.5564], [75.0306, 29.5562]]]}, "properties": {"objectid": 163907, "statename": "Haryana", "statecode": "6", "districtname": "", "districtcode": "79", "ulbname": "Sirsa (M Cl)", "ulbcode": "800401", "wardname": "Ward 31", "wardcode": "31", "id": null, "status": "APPROVED", "misglobalid": null, "approved_by": null, "createdate": 1645089101000, "updateddate": 1723457153000, "globalid": null, "gisglobalid": "4BRKRs6K-oddc-P5RB-RRan-cnclsP6BRBaB", "remark": "", "st_area(shape)": 0.00030377334563247747, "st_perimeter(shape)": 0.10655030471436032}}]}
