{"type":"Topology","arcs":[[[41035,7692],[-796,1282]],[[40239,8974],[0,6410]],[[40239,15384],[1593,-1282]],[[41832,14102],[399,1282]],[[42231,15384],[796,0]],[[43027,15384],[-398,3847]],[[42629,19231],[-398,2564]],[[42231,21795],[-1196,0]],[[41035,21795],[-398,2564]],[[40637,24359],[0,3846]],[[40637,28205],[797,1282]],[[41434,29487],[1195,1282]],[[42629,30769],[797,1282]],[[43426,32051],[-797,5128]],[[42629,37179],[-398,2564]],[[42231,39743],[4382,1282]],[[46613,41025],[1594,0]],[[48207,41025],[11155,6410]],[[59362,47435],[6773,-3846],[9163,10257],[5179,0],[9960,-10257]],[[90437,43589],[6375,-5128],[-1992,-12820],[-6375,-3846],[-27489,-3846],[-13945,-17949],[-5976,7692]],[[1992,55128],[797,-2564]],[[2789,52564],[398,1282]],[[3187,53846],[1195,0]],[[4382,53846],[399,1282]],[[4781,55128],[1593,-2564]],[[6374,52564],[0,1282]],[[6374,53846],[797,2564]],[[7171,56410],[399,-1282]],[[7570,55128],[796,-1282]],[[8366,53846],[-796,-3846]],[[7570,50000],[-399,0]],[[7171,50000],[-797,1282]],[[6374,51282],[-398,0]],[[5976,51282],[-398,-2565]],[[5578,48717],[-399,0]],[[5179,48717],[-398,-1282]],[[4781,47435],[-399,-1282]],[[4382,46153],[-398,-3846]],[[3984,42307],[-398,-2564]],[[3586,39743],[0,-1282]],[[3586,38461],[-399,-1282]],[[3187,37179],[-398,-1282]],[[2789,35897],[-399,1282]],[[2390,37179],[-398,0]],[[1992,37179],[-398,-1282]],[[1594,35897],[-797,2564]],[[797,38461],[-797,-1282]],[[0,37179],[1992,17949]],[[25099,43589],[3984,-6410]],[[29083,37179],[5180,-1282]],[[34263,35897],[796,0]],[[35059,35897],[3188,2564]],[[38247,38461],[398,0]],[[38645,38461],[0,-1282]],[[38645,37179],[0,-2564]],[[38645,34615],[398,-11538]],[[39043,23077],[399,-2564]],[[39442,20513],[-399,0]],[[39043,20513],[0,-2564]],[[39043,17949],[-398,1282]],[[38645,19231],[-398,0]],[[38247,19231],[-797,0]],[[37450,19231],[-1195,0]],[[36255,19231],[-13944,-19231],[-1594,14102],[5179,10257],[-797,19230]],[[42231,39743],[398,-2564]],[[43426,32051],[-797,-1282]],[[41434,29487],[-797,-1282]],[[40637,24359],[398,-2564]],[[42231,21795],[398,-2564]],[[42629,19231],[398,-3847]],[[43027,15384],[-796,0]],[[42231,15384],[-399,-1282]],[[40239,15384],[0,-6410]],[[41035,7692],[-4382,-5128],[-1195,3846],[3187,5128],[0,6411]],[[38645,17949],[-2390,1282]],[[37450,19231],[797,0]],[[38645,19231],[0,-1282]],[[38645,17949],[398,0]],[[39043,17949],[0,2564]],[[39442,20513],[-399,2564]],[[38645,34615],[0,2564]],[[38645,38461],[1195,1282]],[[39840,39743],[797,0]],[[40637,39743],[1594,0]],[[35059,35897],[-796,0]],[[34263,35897],[-5180,1282]],[[29083,37179],[-3984,6410]],[[25099,43589],[-3187,24359],[5578,7692],[-4383,16667],[4781,7692],[6375,-21795]],[[34263,78204],[2788,-6410]],[[37051,71794],[-1992,-14102]],[[35059,57692],[-1195,-1282]],[[33864,56410],[0,-3846]],[[33864,52564],[1195,0]],[[35059,52564],[0,-10257]],[[35059,42307],[0,-2564]],[[35059,39743],[797,-1282]],[[35856,38461],[-797,-2564]],[[90437,43589],[-9960,11539],[-2789,1282],[-11553,-11539],[-6773,2564]],[[59362,47435],[-11155,-6410]],[[46613,41025],[-3586,0]],[[43027,41025],[-398,0]],[[43027,41025],[0,2564]],[[43027,43589],[0,2564]],[[43027,46153],[-796,3847]],[[42231,50000],[-399,3846]],[[41832,53846],[0,1282]],[[41832,55128],[-398,1282]],[[41434,56410],[0,1282]],[[41434,57692],[0,2564]],[[41434,60256],[-399,5128]],[[41035,65384],[0,7692]],[[41035,73076],[15937,-2564],[10358,2564],[5976,8974],[18327,-5128],[8366,-21794],[-3187,-14103],[-6375,2564]],[[39840,39743],[-1195,-1282]],[[38645,38461],[-398,3846]],[[38247,42307],[0,5128]],[[38247,47435],[-399,1282]],[[37848,48717],[0,1283]],[[37848,50000],[0,2564]],[[37848,52564],[0,1282]],[[37848,53846],[797,5128]],[[38645,58974],[-1594,12820]],[[37051,71794],[-2788,6410]],[[34263,78204],[6772,-5128]],[[41035,65384],[399,-5128]],[[41434,60256],[0,-2564]],[[41434,56410],[398,-1282]],[[41832,53846],[399,-3846]],[[43027,46153],[0,-2564]],[[42629,41025],[-1992,-1282]],[[38247,38461],[-2391,0]],[[35059,39743],[0,2564]],[[35059,52564],[-1195,0]],[[33864,52564],[0,3846]],[[33864,56410],[1195,1282]],[[35059,57692],[3586,1282]],[[38645,58974],[-797,-5128]],[[37848,52564],[0,-2564]],[[37848,48717],[399,-1282]],[[38247,42307],[0,-3846]],[[14342,44871],[-5577,8975]],[[8765,53846],[-1195,1282]],[[7570,55128],[-399,1282]],[[7171,56410],[-797,-2564]],[[6374,53846],[0,-1282]],[[4781,55128],[-399,-1282]],[[3187,53846],[-398,-1282]],[[1992,55128],[7171,24358],[4383,-8974],[796,-25641]],[[0,37179],[797,1282]],[[1594,35897],[398,1282]],[[2390,37179],[399,-1282]],[[2789,35897],[398,1282]],[[3187,37179],[399,1282]],[[3586,39743],[398,2564]],[[4382,46153],[399,1282]],[[5578,48717],[398,2565]],[[6374,51282],[797,-1282]],[[7570,50000],[796,3846]],[[8366,53846],[399,0]],[[8765,53846],[5577,-8975]],[[14342,44871],[-5976,-26922],[-8366,19230]]],"transform":{"scale":[2.510025100250482e-7,7.800078000783145e-8],"translate":[77.8703,27.634799999999995]},"objects":{"wards":{"type":"GeometryCollection","geometries":[{"arcs":[[0,1,2,3,4,5,6,7,8,9,10,11,12,13,14,15,16,17,18,19]],"type":"Polygon","properties":{"objectid":145422,"statename":"Uttar Pradesh","statecode":"9","districtname":"","districtcode":"143","ulbname":"Beswan (Np)","ulbcode":"800774","wardname":"Poorvi Shekhan","wardcode":"1","id":null,"status":"APPROVED","misglobalid":null,"approved_by":null,"createdate":1644324738000,"updateddate":1647319422000,"globalid":null,"gisglobalid":"dQodB66m-mKR5-PaRd-QnBm-llPmBm5ldoKR","remark":"","st_area(shape)":0.00003242078449989423,"st_perimeter(shape)":0.035163910546411103}},{"arcs":[[20,21,22,23,24,25,26,27,28,29,30,31,32,33,34,35,36,37,38,39,40,41,42,43,44,45,46,47]],"type":"Polygon","properties":{"objectid":146662,"statename":"Uttar Pradesh","statecode":"9","districtname":"","districtcode":"143","ulbname":"Beswan (Np)","ulbcode":"800774","wardname":"Kila Third","wardcode":"2","id":null,"status":"APPROVED","misglobalid":null,"approved_by":null,"createdate":1644324763000,"updateddate":1647319528000,"globalid":null,"gisglobalid":"oRonQocm-cPno-PB5d-s4lK-nsQmsso5sPQl","remark":"","st_area(shape)":0.0000025858405000042697,"st_perimeter(shape)":0.010651225459225738}},{"arcs":[[48,49,50,51,52,53,54,55,56,57,58,59,60,61,62,63]],"type":"Polygon","properties":{"objectid":145423,"statename":"Uttar Pradesh","statecode":"9","districtname":"","districtcode":"143","ulbname":"Beswan (Np)","ulbcode":"800774","wardname":"Gali Maniharan","wardcode":"3","id":null,"status":"APPROVED","misglobalid":null,"approved_by":null,"createdate":1644324774000,"updateddate":1647319558000,"globalid":null,"gisglobalid":"5nBmddm4-cdcc-P64m-sdom-dKRKccscdmlQ","remark":"","st_area(shape)":0.000007729456999986293,"st_perimeter(shape)":0.01588209424023885}},{"arcs":[[64,-14,65,-12,66,-10,67,-8,68,69,70,71,-3,72,-1,73,74,-63,75,-61,76,77,78,-58,79,-56,80,-54,81,82,83]],"type":"Polygon","properties":{"objectid":145424,"statename":"Uttar Pradesh","statecode":"9","districtname":"","districtcode":"143","ulbname":"Beswan (Np)","ulbcode":"800774","wardname":"Mo. Kachhiyan","wardcode":"4","id":null,"status":"APPROVED","misglobalid":null,"approved_by":null,"createdate":1644324793000,"updateddate":1647396928000,"globalid":null,"gisglobalid":"cRsBaKln-KPas-PKn6-aQK4-amKKBdloPBP6","remark":"","st_area(shape)":0.000002228927499969613,"st_perimeter(shape)":0.012750304048084006}},{"arcs":[[84,85,86,87,88,89,90,91,92,93,94,95,96]],"type":"Polygon","properties":{"objectid":147020,"statename":"Uttar Pradesh","statecode":"9","districtname":"","districtcode":"143","ulbname":"Beswan (Np)","ulbcode":"800774","wardname":"Gali Taliyan","wardcode":"5","id":null,"status":"APPROVED","misglobalid":null,"approved_by":null,"createdate":1644324812000,"updateddate":1647396950000,"globalid":null,"gisglobalid":"sKBnPQcn-c4cc-PBo4-Q4aR-65QoBoPBcd5d","remark":"","st_area(shape)":0.000011261295000034286,"st_perimeter(shape)":0.018373059882220537}},{"arcs":[[97,98,-17,99,100,-101,101,102,103,104,105,106,107,108,109,110,111]],"type":"Polygon","properties":{"objectid":146663,"statename":"Uttar Pradesh","statecode":"9","districtname":"","districtcode":"143","ulbname":"Beswan (Np)","ulbcode":"800774","wardname":"Gali Brahmnan","wardcode":"6","id":null,"status":"APPROVED","misglobalid":null,"approved_by":null,"createdate":1644324823000,"updateddate":1647396975000,"globalid":null,"gisglobalid":"dlP4cPlB-KPmP-PBno-sKsa-m6solnoPo4Pc","remark":"","st_area(shape)":0.00003062535049998084,"st_perimeter(shape)":0.03489805128353242}},{"arcs":[[-83,112,113,114,115,116,117,118,119,120,121,122,-111,123,124,-108,125,-106,126,-104,127,-102,100,128]],"type":"Polygon","properties":{"objectid":145425,"statename":"Uttar Pradesh","statecode":"9","districtname":"","districtcode":"143","ulbname":"Beswan (Np)","ulbcode":"800774","wardname":"Pakki Gali","wardcode":"7","id":null,"status":"APPROVED","misglobalid":null,"approved_by":null,"createdate":1644324834000,"updateddate":1647397000000,"globalid":null,"gisglobalid":"mlPBdlmB-as4R-Po4R-ssaR-ol5R6ln4P56a","remark":"","st_area(shape)":0.0000035041350000336344,"st_perimeter(shape)":0.012253730544300404}},{"arcs":[[129,-96,130,-94,131,132,133,134,135,-119,136,-117,137,-115,138]],"type":"Polygon","properties":{"objectid":145426,"statename":"Uttar Pradesh","statecode":"9","districtname":"","districtcode":"143","ulbname":"Beswan (Np)","ulbcode":"800774","wardname":"Baniyapada","wardcode":"8","id":null,"status":"APPROVED","misglobalid":null,"approved_by":null,"createdate":1644324845000,"updateddate":1647397014000,"globalid":null,"gisglobalid":"cccPR5mQ-6BP4-PalB-slmo-ndPR5n45QoRQ","remark":"","st_area(shape)":0.0000013561074999865996,"st_perimeter(shape)":0.005700742775327987}},{"arcs":[[139,140,141,142,143,-25,144,-23,145,-21,146]],"type":"Polygon","properties":{"objectid":147021,"statename":"Uttar Pradesh","statecode":"9","districtname":"","districtcode":"143","ulbname":"Beswan (Np)","ulbcode":"800774","wardname":"Kila First","wardcode":"9","id":null,"status":"APPROVED","misglobalid":null,"approved_by":null,"createdate":1644324857000,"updateddate":1647397036000,"globalid":null,"gisglobalid":"sRo4Pmdn-5m4s-PcPs-a6mc-Q55dcPRsPBd6","remark":"","st_area(shape)":0.000005645350499962269,"st_perimeter(shape)":0.012071993229743816}},{"arcs":[[147,-46,148,-44,149,150,151,-40,152,-38,153,-36,-35,154,-33,155,-31,156,157,158,159]],"type":"Polygon","properties":{"objectid":147022,"statename":"Uttar Pradesh","statecode":"9","districtname":"","districtcode":"143","ulbname":"Beswan (Np)","ulbcode":"800774","wardname":"Kila Second","wardcode":"10","id":null,"status":"APPROVED","misglobalid":null,"approved_by":null,"createdate":1644324868000,"updateddate":1647397058000,"globalid":null,"gisglobalid":"RdmlQdQ5-csl5-PoQP-R5Q6-KlKK4R65mBcn","remark":"","st_area(shape)":0.000005235825500024591,"st_perimeter(shape)":0.010166429004725388}}]}}}