{"type":"Topology","arcs":[[[5164,31176],[0,147]],[[5164,31323],[-3912,8824],[-626,11323],[1252,9118],[-1878,8382],[18310,-1030],[6103,16030],[-6260,9558],[-469,4412]],[[17684,97940],[313,-147]],[[17997,97793],[8763,-7500]],[[26760,90293],[7042,-7353]],[[33802,82940],[12050,-12647]],[[45852,70293],[1722,-1911]],[[47574,68382],[626,-589]],[[48200,67793],[469,-588]],[[48669,67205],[1878,-2206]],[[50547,64999],[1096,-1323]],[[51643,63676],[2191,-2941]],[[53834,60735],[313,-1030]],[[54147,59705],[313,-588]],[[54460,59117],[-6260,-1912]],[[48200,57205],[-1252,-2058]],[[46948,55147],[-626,-1618]],[[46322,53529],[-783,-882]],[[45539,52647],[-5164,-1912]],[[40375,50735],[-3599,-2206]],[[36776,48529],[-12989,-4559],[-15493,-10588]],[[8294,33382],[-3130,-2206]],[[78090,60441],[-5634,-883]],[[72456,59558],[-7198,-1323]],[[65258,58235],[-8764,4411]],[[56494,62646],[-783,-1617]],[[55711,61029],[-1721,1323]],[[53990,62352],[157,589]],[[54147,62941],[-2661,5735]],[[51486,68676],[-1252,1176]],[[50234,69852],[-2504,1618]],[[47730,71470],[-1878,-1177]],[[33802,82940],[-7042,7353]],[[17997,97793],[-313,147]],[[17684,97940],[13928,2059],[25195,-1618],[7512,-2794],[18935,-11470],[8920,-2647],[-10798,-7353],[-4851,-6912],[1565,-6764]],[[50234,69852],[1252,-1176]],[[54147,62941],[-157,-589]],[[55711,61029],[783,1617]],[[65258,58235],[-5947,-1618]],[[59311,56617],[-4851,2500]],[[54147,59705],[-313,1030]],[[53834,60735],[-2191,2941]],[[51643,63676],[-1096,1323]],[[48669,67205],[-469,588]],[[47574,68382],[-1722,1911]],[[47730,71470],[2504,-1618]],[[57746,54411],[-11111,-147]],[[46635,54264],[313,883]],[[46948,55147],[1252,2058]],[[59311,56617],[469,-1765]],[[59780,54852],[-2034,-441]],[[57746,54411],[2347,-6029],[5634,-4412]],[[65727,43970],[-939,-294]],[[64788,43676],[-2504,-588],[8294,-14706]],[[70578,28382],[1878,-3235]],[[72456,25147],[-313,0]],[[72143,25147],[-20657,-4559],[157,-3971],[-5478,-1029],[-782,-10441],[-7668,-2353],[-20344,-2794],[-783,6323],[-5790,17206],[-5634,7647]],[[5164,31323],[3130,2059]],[[36776,48529],[3599,2206]],[[45539,52647],[783,882]],[[46322,53529],[313,735]],[[72143,25147],[-1565,3235]],[[64788,43676],[939,294]],[[57746,54411],[2034,441]],[[65258,58235],[7198,1323]],[[78090,60441],[3912,-2647],[939,-11618],[13146,-5000],[3912,-7941]],[[99999,33235],[-11893,-1765],[-15650,-6323]]],"transform":{"scale":[6.390063900639391e-7,6.800068000680146e-7],"translate":[70.0401,21.4499]},"objects":{"wards":{"type":"GeometryCollection","geometries":[{"arcs":[[0,1,2,3,4,5,6,7,8,9,10,11,12,13,14,15,16,17,18,19,20,21]],"type":"Polygon","properties":{"objectid":35634,"statename":"Gujarat","statecode":"24","districtname":null,"districtcode":"479","ulbname":"Bantva","ulbcode":"802526","wardname":"","wardcode":"1","id":null,"status":"APPROVED","misglobalid":null,"approved_by":"ULB Nodal Officer","createdate":1636969994000,"updateddate":1636974116000,"globalid":"Qoc5RmnK-64n5-PQnd-aco5-ololmRmoaBm4","gisglobalid":"40f0eaaa-8ce9-4fee-885c-b87d582efc1f","remark":"Ward No 1","st_area(shape)":0.0006965783484642774,"st_perimeter(shape)":0.14070755106816613}},{"arcs":[[22,23,24,25,26,27,28,29,30,31,-6,32,-4,33,34]],"type":"Polygon","properties":{"objectid":32688,"statename":"Gujarat","statecode":"24","districtname":null,"districtcode":"479","ulbname":"Bantva","ulbcode":"802526","wardname":"","wardcode":"2","id":null,"status":"APPROVED","misglobalid":null,"approved_by":"ULB Nodal Officer","createdate":1636376596000,"updateddate":1636626532000,"globalid":"6lR4ssml-4n4R-Pal6-aRmo-lscK6aRomPo5","gisglobalid":"33d79157-cb9c-4fdb-94ac-4479dfb1b87d","remark":"Ward No 2 Boundary Bantwa","st_area(shape)":0.0006926917808693481,"st_perimeter(shape)":0.12808914628635698}},{"arcs":[[35,-29,36,-27,37,-25,38,39,-14,40,41,42,-10,43,-8,44,-32,45]],"type":"Polygon","properties":{"objectid":33292,"statename":"Gujarat","statecode":"24","districtname":null,"districtcode":"479","ulbname":"Bantva","ulbcode":"802526","wardname":"","wardcode":"3","id":null,"status":"APPROVED","misglobalid":null,"approved_by":"ULB Nodal Officer","createdate":1636970903000,"updateddate":1636974158000,"globalid":"Pdaam6PR-cnm6-PRmc-Q5od-nPBmPPa5aRQl","gisglobalid":"02848596-33d2-4749-a56a-ac37d0c43f2d","remark":"Ward No 3","st_area(shape)":0.00002620625394427409,"st_perimeter(shape)":0.040203203542935495}},{"arcs":[[46,47,48,-15,-40,49,50]],"type":"Polygon","properties":{"objectid":36278,"statename":"Gujarat","statecode":"24","districtname":null,"districtcode":"479","ulbname":"Bantva","ulbcode":"802526","wardname":"","wardcode":"4","id":null,"status":"APPROVED","misglobalid":null,"approved_by":"ULB Nodal Officer","createdate":1636971022000,"updateddate":1636974214000,"globalid":"5BBQQBdo-cmdP-PKsl-QcQa-o6mKonQsBc5a","gisglobalid":"7b3a9324-7c21-46b8-a2f1-c57f677fb78e","remark":"Ward No 4","st_area(shape)":0.000020854105413676313,"st_perimeter(shape)":0.024492392844950143}},{"arcs":[[51,52,53,54,55,56,0,57,-21,58,-19,59,60,-47]],"type":"Polygon","properties":{"objectid":36280,"statename":"Gujarat","statecode":"24","districtname":null,"districtcode":"479","ulbname":"Bantva","ulbcode":"802526","wardname":"","wardcode":"5","id":null,"status":"APPROVED","misglobalid":null,"approved_by":"ULB Nodal Officer","createdate":1636971080000,"updateddate":1636974253000,"globalid":"Q4saQsRP-snQc-P66s-RBoa-QlcBKRsQ5a6d","gisglobalid":"c2878727-1c9c-4686-b51a-e33caac68a6d","remark":"Ward No 5","st_area(shape)":0.0009329246441107232,"st_perimeter(shape)":0.1511670772704343}},{"arcs":[[61,-54,62,-52,63,-50,-39,64,-23,65,66,55]],"type":"Polygon","properties":{"objectid":35647,"statename":"Gujarat","statecode":"24","districtname":null,"districtcode":"479","ulbname":"Bantva","ulbcode":"802526","wardname":"","wardcode":"6","id":null,"status":"APPROVED","misglobalid":null,"approved_by":"ULB Nodal Officer","createdate":1636971537000,"updateddate":1636974286000,"globalid":"5QRcKocB-Qoan-PPna-s6P4-sl4B5mnnPd6l","gisglobalid":"271762e5-890d-45da-bb70-597ccb08b9be","remark":"Ward No 6","st_area(shape)":0.00031642904992943777,"st_perimeter(shape)":0.10070058516425288}}]}}}