{"type":"Topology","arcs":[[[52993,11551],[-2694,-1939]],[[50299,9612],[-2295,4039],[-1847,1212]],[[46157,14863],[3094,403]],[[49251,15266],[2595,-727]],[[51846,14539],[2595,-807]],[[54441,13732],[-1448,-2181]],[[50000,5412],[-4591,7108],[-1747,1131]],[[43662,13651],[2495,1212]],[[50299,9612],[150,-4846]],[[50449,4766],[-449,646]],[[55688,21567],[-349,-808]],[[55339,20759],[-50,-323]],[[55289,20436],[-3443,-727]],[[51846,19709],[-499,3796]],[[51347,23505],[-649,4362]],[[50698,27867],[50,162]],[[50748,28029],[4940,-6462]],[[51846,19709],[-2545,-404]],[[49301,19305],[649,3958]],[[49950,23263],[1397,242]],[[7435,64700],[-2894,-4442]],[[4541,60258],[-250,7997],[2545,2746],[599,-6301]],[[45059,48142],[-449,-2666]],[[44610,45476],[-6586,2585]],[[38024,48061],[-949,2100],[3743,7674]],[[40818,57835],[948,-2262],[3693,-2423]],[[45459,53150],[-499,-3231]],[[44960,49919],[99,-1777]],[[52993,11551],[2346,-9370]],[[55339,2181],[-3344,81],[-1646,1615]],[[50349,3877],[100,889]],[[61177,39176],[-50,0],[-798,-727],[-1148,-970],[848,-727],[1996,-4119],[-3343,162]],[[58682,32795],[-1547,6138]],[[57135,38933],[-299,1535]],[[56836,40468],[3992,-565]],[[60828,39903],[349,-727]],[[54989,43941],[-2744,-1857],[-50,-2585],[-1048,161],[-150,-242],[-149,-888],[-100,-324],[-100,-403],[0,-162],[-50,0]],[[50598,37641],[-249,323]],[[50349,37964],[-3144,1939]],[[47205,39903],[5988,6785]],[[53193,46688],[2096,2827]],[[55289,49515],[299,404]],[[55588,49919],[2745,-4039],[-3344,-1939]],[[9830,59046],[-2145,-1938],[-1248,2181]],[[6437,59289],[1846,323]],[[8283,59612],[1547,-566]],[[49600,55008],[-3842,0],[-299,-1858]],[[45459,53150],[-50,-162]],[[40818,57835],[-1597,5008]],[[39221,62843],[4441,3231],[4192,2100]],[[47854,68174],[3094,-4362],[-400,-6462]],[[50548,57350],[-948,-2342]],[[58882,29402],[-2445,1939]],[[56437,31341],[-350,7350]],[[56087,38691],[1048,242]],[[58682,32795],[200,-3393]],[[53492,50969],[-648,-2585]],[[52844,48384],[-2894,969]],[[49950,49353],[99,243]],[[50049,49596],[1198,3069]],[[51247,52665],[2245,-1696]],[[55289,20436],[349,-5008]],[[55638,15428],[-3792,-889]],[[49251,15266],[50,4039]],[[43662,13651],[-2994,-1535]],[[40668,12116],[-199,-323]],[[40469,11793],[-3743,-1938],[-2495,8239],[1048,5815],[2794,4120]],[[38073,28029],[9282,-4039]],[[47355,23990],[499,-161]],[[47854,23829],[-1048,-3151],[2495,-1373]],[[83033,97576],[-3343,-7755],[-8134,-14458]],[[71556,75363],[-7036,-12197]],[[64520,63166],[-2894,2100],[-3293,4766],[-749,3554]],[[57584,73586],[1896,4362],[-199,5735],[3044,2907],[2694,5897],[4890,3312],[3094,-1858],[3144,5977],[3194,81],[3692,-2423]],[[52844,48384],[648,-1292]],[[53492,47092],[-299,-404]],[[47205,39903],[-5090,2181]],[[42115,42084],[2495,3392]],[[45059,48142],[3643,-1535],[1248,2746]],[[73552,33037],[-499,-1293],[-3992,2828]],[[69061,34572],[200,1373]],[[69261,35945],[0,2181]],[[69261,38126],[3642,1292],[499,-3150]],[[73402,36268],[150,-3231]],[[54989,43941],[1847,-3473]],[[56087,38691],[-2145,-727],[-1647,-2665]],[[52295,35299],[-399,726]],[[51896,36025],[-849,1051]],[[51047,37076],[-449,565]],[[7435,64700],[848,-5088]],[[6437,59289],[-1098,-1374]],[[5339,57915],[-798,2343]],[[0,14863],[4192,484],[2195,-5977]],[[6387,9370],[-2146,-242],[-4241,5735]],[[61626,22778],[1298,-1130],[3193,6785]],[[66117,28433],[349,-5412],[-1147,-4524]],[[65319,18497],[2744,-3231]],[[68063,15266],[1347,-2584],[-1846,-3635],[-449,646],[-249,323],[-2296,2827]],[[64570,12843],[-4092,5331]],[[60478,18174],[1148,4604]],[[51447,29644],[-849,-1454]],[[50598,28190],[-2844,2666],[-6237,2908]],[[41517,33764],[299,1696]],[[41816,35460],[7435,-3716]],[[49251,31744],[2196,-2100]],[[67015,16559],[3144,5573],[-1697,2100],[6088,7997]],[[74550,32229],[50,81],[1597,1858]],[[76197,34168],[6736,5573],[350,-3392],[7584,7592]],[[90867,43941],[3992,-11712],[4891,-7997],[249,-2100],[-3443,-5896],[-5240,5331],[-4241,-7431]],[[87075,14136],[-6786,5008]],[[80289,19144],[-2196,-2262],[-3892,-6624]],[[74201,10258],[-799,-1130]],[[73402,9128],[-5339,6138]],[[68063,15266],[-1048,1293]],[[55289,20436],[50,323]],[[55688,21567],[3792,-4039],[699,1050]],[[60179,18578],[299,-404]],[[64570,12843],[2795,-3392]],[[67365,9451],[-998,242],[-10928,3716]],[[55439,13409],[199,2019]],[[50748,28029],[-150,161]],[[51447,29644],[249,404]],[[51696,30048],[4391,-3877]],[[56087,26171],[-698,-1292],[4790,-6301]],[[67365,9451],[199,-243],[-349,-888],[-798,-1616],[-450,-646],[-4890,-5977],[-3094,-81],[-2644,2181]],[[54441,13732],[998,-323]],[[42115,42084],[-6736,2907]],[[35379,44991],[-2944,485]],[[32435,45476],[-1747,81]],[[30688,45557],[0,888]],[[30688,46445],[-2095,6624]],[[28593,53069],[4241,-808],[3243,-4119],[1947,-81]],[[10629,58723],[-799,323]],[[7435,64700],[-299,3878],[3842,242],[1697,-1454]],[[12675,67366],[698,-3473],[-2744,-5170]],[[86676,53311],[-499,3231],[-2745,-1292],[-1447,2827],[-698,6543],[-5689,-3151]],[[75598,61469],[-2794,2747]],[[72804,64216],[4091,7431],[2046,5170],[6238,6704],[5389,3312]],[[90568,86833],[-599,-8885],[-1397,-4362],[599,-2747],[3692,-4200],[1298,-3150],[-2695,-727],[-2794,-6947],[-1996,-2504]],[[51247,52665],[-1647,2343]],[[50548,57350],[4292,-1939]],[[54840,55411],[-1348,-4442]],[[54840,55411],[199,-80]],[[55039,55331],[3942,-727]],[[58981,54604],[-3393,-4685]],[[55289,49515],[-1797,-2423]],[[52794,33118],[3742,-4524]],[[56536,28594],[599,-727]],[[57135,27867],[-1048,-1696]],[[51696,30048],[1098,3070]],[[6287,41437],[-3093,-80]],[[3194,41357],[898,3311],[3044,2181]],[[7136,46849],[249,-323]],[[7385,46526],[2695,646]],[[10080,47172],[0,-161]],[[10080,47011],[-150,-3070]],[[9930,43941],[-599,-2423]],[[9331,41518],[-3044,-81]],[[50349,3877],[-1996,2181],[-2096,-242],[-4491,2585],[-1297,3392]],[[40469,11793],[199,323]],[[50000,5412],[449,-646]],[[13573,25606],[6586,6219]],[[20159,31825],[4591,4039]],[[24750,35864],[-100,-5977]],[[24650,29887],[-1896,-1535]],[[22754,28352],[-6786,-5331]],[[15968,23021],[-2395,2585]],[[11577,58319],[-50,0]],[[11527,58319],[-2545,-3392],[1148,-3474]],[[10130,51453],[-1048,-80]],[[9082,51373],[-2296,3150]],[[6786,54523],[-1447,3392]],[[10629,58723],[898,-404]],[[34032,38853],[-3843,1615]],[[30189,40468],[2246,5008]],[[35379,44991],[-1347,-6138]],[[61626,22778],[-1347,1616]],[[60279,24394],[399,1131]],[[60678,25525],[749,-727]],[[61427,24798],[798,-646],[3243,5735]],[[65468,29887],[649,-1454]],[[20159,31825],[-1746,3797],[-1547,-1454],[-698,1777],[199,242],[-249,565],[-200,485]],[[15918,37237],[2345,1454]],[[18263,38691],[5539,1131],[1198,1938]],[[25000,41760],[5189,-1292]],[[30189,40468],[-5439,-4604]],[[13573,25606],[-1647,-1616]],[[11926,23990],[-3144,-3150]],[[8782,20840],[-798,-727]],[[7984,20113],[-798,-889],[-6937,-565]],[[249,18659],[1098,7189]],[[1347,25848],[6886,8400]],[[8233,34248],[1248,-2100],[5439,4443]],[[14920,36591],[998,646]],[[87075,14136],[-2944,-2666],[-6238,-7431],[-4491,5089]],[[73402,9128],[799,1130]],[[80289,19144],[6786,-5008]],[[8233,34248],[150,162]],[[8383,34410],[200,242]],[[8583,34652],[4141,4928],[6936,2261]],[[19660,41841],[2246,0]],[[21906,41841],[3094,-81]],[[18263,38691],[-3343,-2100]],[[40918,36025],[-6886,2828]],[[42115,42084],[-698,-2989]],[[41417,39095],[-499,-3070]],[[28593,53069],[299,3150],[2395,2504],[6337,1131],[1597,2989]],[[72804,64216],[-3593,-2827]],[[69211,61389],[-2395,1292],[6387,10501],[-1647,2181]],[[83033,97576],[4591,-2585],[2744,-4443],[200,-3715]],[[69261,38126],[-449,3715]],[[68812,41841],[10129,2747]],[[78941,44588],[998,242]],[[79939,44830],[-1497,-3231],[-4141,-1212],[-899,-4119]],[[47854,23829],[2096,-566]],[[50049,49596],[-99,-243]],[[44960,49919],[449,3069]],[[55039,55331],[-199,80]],[[47854,68174],[2994,484],[6736,4928]],[[64520,63166],[-2195,-3554]],[[62325,59612],[-2445,-3635]],[[59880,55977],[-649,-969]],[[59231,55008],[-250,-404]],[[50698,27867],[-3343,-3877]],[[38073,28029],[3444,5735]],[[57135,27867],[3543,-2342]],[[60279,24394],[1347,-1616]],[[66217,56381],[2994,5008]],[[75598,61469],[2445,-5250],[-3343,-3635]],[[74700,52584],[-4641,646],[-1447,2343],[-2395,808]],[[24052,24313],[-1298,4039]],[[24650,29887],[8434,6704],[4291,-889],[1597,-1534]],[[38972,34168],[-14920,-9855]],[[76197,34168],[-1647,-1939]],[[74550,32229],[-998,808]],[[79939,44830],[4541,-727],[2096,2423]],[[86576,46526],[4291,-2585]],[[17165,8481],[-748,5331],[4790,-1777],[50,-3796],[-4092,242]],[[52794,33118],[-499,2181]],[[56437,31341],[99,-2747]],[[21906,41841],[-2246,0]],[[19660,41841],[-10329,-323]],[[9930,43941],[6986,647]],[[16916,44588],[1247,80]],[[18163,44668],[2945,243]],[[21108,44911],[4341,242]],[[25449,45153],[5239,404]],[[40918,36025],[-50,-161]],[[40868,35864],[-1896,-1696]],[[86676,53311],[-100,-6785]],[[79939,44830],[-998,-242]],[[78941,44588],[-549,4765],[-2994,-484],[-698,3715]],[[18712,54200],[100,484],[150,727],[0,81],[50,162],[-150,1131],[2445,2504]],[[21307,59289],[-100,-5008],[5140,-1131]],[[26347,53150],[-2096,161]],[[24251,53311],[-4740,646]],[[19511,53957],[-799,243]],[[14521,67285],[-300,-1615],[3643,-7755],[-1896,-1938]],[[15968,55977],[-499,404]],[[15469,56381],[-898,727],[-549,161],[-1547,646]],[[12475,57915],[-898,404]],[[12675,67366],[1846,-81]],[[64221,32471],[4840,2101]],[[67015,16559],[-1696,1938]],[[65468,29887],[-1247,2584]],[[18712,54200],[-748,242]],[[17964,54442],[-1647,1212]],[[16317,55654],[-349,323]],[[14521,67285],[1098,-3311],[5538,-3555],[150,-1130]],[[68812,41841],[-849,7028],[-1347,3311],[-2495,-969],[-2195,1858],[-50,81]],[[61876,53150],[2095,3796]],[[63971,56946],[2246,-565]],[[8583,34652],[-1697,3393]],[[6886,38045],[-599,3392]],[[59231,55008],[649,969]],[[62325,59612],[1646,-2666]],[[61876,53150],[-1897,-6705],[849,-6542]],[[17215,49838],[400,-81]],[[17615,49757],[-699,-5169]],[[10080,47011],[3842,3877]],[[13922,50888],[3293,-1050]],[[9032,14620],[249,-1292]],[[9281,13328],[150,-727]],[[9431,12601],[-3044,-3231]],[[0,14863],[249,3796]],[[7984,20113],[1048,-5493]],[[10080,47172],[449,4039]],[[10529,51211],[2146,2989]],[[12675,54200],[1247,-3312]],[[24052,24313],[-6388,-4442]],[[17664,19871],[-748,1696]],[[16916,21567],[-948,1454]],[[30688,46445],[-5289,3878]],[[25399,50323],[948,2827]],[[26347,53150],[2246,-81]],[[10778,17447],[2445,-3311]],[[13223,14136],[-3043,-5735],[-3793,969]],[[9431,12601],[-150,727]],[[9032,14620],[1746,2827]],[[7984,20113],[798,727]],[[8782,20840],[3144,3150]],[[11926,23990],[1198,-1615],[-2346,-4928]],[[13772,57431],[-50,-243],[-49,-323],[-350,-1211],[-648,-1454]],[[10529,51211],[-399,242]],[[11577,58319],[2195,-888]],[[13772,57431],[-1297,484]],[[15469,56381],[848,-727]],[[17964,54442],[1547,-485]],[[24251,53311],[-50,-2423],[-3892,323]],[[20309,51211],[-3094,-1373]],[[7435,50161],[-649,4362]],[[9082,51373],[-1647,-1212]],[[21108,44911],[-799,6300]],[[25399,50323],[50,-5170]],[[68812,41841],[-7984,-1938]],[[18163,44668],[-1247,-80]],[[17615,49757],[-400,81]],[[58882,29402],[1397,-565],[1148,-4039]],[[15968,23021],[948,-1454]],[[17664,19871],[-2544,-2262],[-1897,-3473]],[[13223,14136],[-2445,3311]],[[11926,23990],[1647,1616]],[[7385,46526],[-249,323]],[[7136,46849],[299,3312]],[[64221,32471],[-150,324]],[[64071,32795],[-3243,7108]],[[69261,35945],[-200,-1373]],[[51896,36025],[-599,-1777]],[[51297,34248],[-2495,1939],[-7385,2908]],[[50349,37964],[698,-888]],[[51297,34248],[-2046,-2504]],[[41816,35460],[-948,404]],[[3194,41357],[3093,80]],[[6886,38045],[-2744,-3554],[-1996,-646]],[[2146,33845],[998,3150],[50,4362]],[[61177,39176],[2894,-6381]],[[8583,34652],[-200,-242]],[[1347,25848],[799,7997]]],"transform":{"scale":[0.000002004020040200421,0.0000012380123801237937],"translate":[77.3175,28.6223]},"objects":{"wards":{"type":"GeometryCollection","geometries":[{"arcs":[[0,1,2,3,4,5]],"type":"Polygon","properties":{"objectid":52780,"statename":"Uttar Pradesh","statecode":"9","districtname":"Ghaziabad","districtcode":"140","ulbname":"Ghaziabad","ulbcode":"800734","wardname":"Bagu Christian Nagar 1","wardcode":"1","id":null,"status":"APPROVED","misglobalid":null,"approved_by":null,"createdate":1642423629000,"updateddate":1647158682000,"globalid":null,"gisglobalid":"c6oBdB4o-cnQs-PnB5-s5ld-6RaQKlBac4Ko","remark":"","st_area(shape)":0.0000584897154291756,"st_perimeter(shape)":0.03925055355589163}},{"arcs":[[6,7,-2,8,9]],"type":"Polygon","properties":{"objectid":73808,"statename":"Uttar Pradesh","statecode":"9","districtname":"Ghaziabad","districtcode":"140","ulbname":"Ghaziabad","ulbcode":"800734","wardname":"Rahul Vihar(Siddharth Vihar) 2","wardcode":"2","id":null,"status":"APPROVED","misglobalid":null,"approved_by":null,"createdate":1641893820000,"updateddate":1647158770000,"globalid":null,"gisglobalid":"naQollBd-PQnP-PlKQ-s4so-nlRs5Qao5Q5d","remark":"","st_area(shape)":0.00006124401844244309,"st_perimeter(shape)":0.042986645210174555}},{"arcs":[[10,11,12,13,14,15,16]],"type":"Polygon","properties":{"objectid":73806,"statename":"Uttar Pradesh","statecode":"9","districtname":"Ghaziabad","districtcode":"140","ulbname":"Ghaziabad","ulbcode":"800734","wardname":"Old Vijay Nagar 3","wardcode":"3","id":null,"status":"APPROVED","misglobalid":null,"approved_by":null,"createdate":1641893524000,"updateddate":1647159165000,"globalid":null,"gisglobalid":"BRRQ4QoK-6oQm-PmK5-Qaac-6dc6dQnmR4n6","remark":"","st_area(shape)":0.0000457657018887582,"st_perimeter(shape)":0.03545254414114189}},{"arcs":[[17,18,19,-14]],"type":"Polygon","properties":{"objectid":73810,"statename":"Uttar Pradesh","statecode":"9","districtname":"Ghaziabad","districtcode":"140","ulbname":"Ghaziabad","ulbcode":"800734","wardname":"Sector-12, Mata Colony 4","wardcode":"4","id":null,"status":"APPROVED","misglobalid":null,"approved_by":null,"createdate":1641894784000,"updateddate":1647160751000,"globalid":null,"gisglobalid":"nmsBs5dl-Pal4-PQBo-Qdna-lPRK6lc4laaK","remark":"","st_area(shape)":0.00002044538706684488,"st_perimeter(shape)":0.018880540756538305}},{"arcs":[[20,21]],"type":"Polygon","properties":{"objectid":68053,"statename":"Uttar Pradesh","statecode":"9","districtname":"Ghaziabad","districtcode":"140","ulbname":"Ghaziabad","ulbcode":"800734","wardname":"Gagan Vihar 5","wardcode":"5","id":null,"status":"APPROVED","misglobalid":null,"approved_by":null,"createdate":1642494039000,"updateddate":1647162325000,"globalid":null,"gisglobalid":"lsoPnQoQ-6mc5-P6l4-amcn-o4PPP4oBaaR5","remark":"","st_area(shape)":0.0000580382475571249,"st_perimeter(shape)":0.04189537119845811}},{"arcs":[[22,23,24,25,26,27]],"type":"Polygon","properties":{"objectid":71746,"statename":"Uttar Pradesh","statecode":"9","districtname":"Ghaziabad","districtcode":"140","ulbname":"Ghaziabad","ulbcode":"800734","wardname":"Dindyalpuri 6","wardcode":"6","id":null,"status":"APPROVED","misglobalid":null,"approved_by":null,"createdate":1641891745000,"updateddate":1647162346000,"globalid":null,"gisglobalid":"B5PRlRlK-cPsR-Pncd-aQ66-4saBsmB56ccn","remark":"","st_area(shape)":0.0001468906584318832,"st_perimeter(shape)":0.0517251709828048}},{"arcs":[[-1,28,29,30,-9]],"type":"Polygon","properties":{"objectid":72408,"statename":"Uttar Pradesh","statecode":"9","districtname":"Ghaziabad","districtcode":"140","ulbname":"Ghaziabad","ulbcode":"800734","wardname":"Biharipura (Sudamapuri)7","wardcode":"7","id":null,"status":"APPROVED","misglobalid":null,"approved_by":null,"createdate":1641556309000,"updateddate":1647162595000,"globalid":null,"gisglobalid":"sRQQooa6-Q5sK-PKda-Q4R5-BsRln4ollKas","remark":"","st_area(shape)":0.00007810369080094768,"st_perimeter(shape)":0.03805566126815661}},{"arcs":[[31,32,33,34,35]],"type":"Polygon","properties":{"objectid":73805,"statename":"Uttar Pradesh","statecode":"9","districtname":"Ghaziabad","districtcode":"140","ulbname":"Ghaziabad","ulbcode":"800734","wardname":"Nehru Nagar Ii 8","wardcode":"8","id":null,"status":"APPROVED","misglobalid":null,"approved_by":null,"createdate":1641893126000,"updateddate":1642659233000,"globalid":null,"gisglobalid":"4PPm5sKs-cB56-PcBd-aKlR-anBdaQPacKP6","remark":"Ok","st_area(shape)":0.000056079491156422367,"st_perimeter(shape)":0.04034026880310855}},{"arcs":[[36,37,38,39,40,41,42]],"type":"Polygon","properties":{"objectid":65278,"statename":"Uttar Pradesh","statecode":"9","districtname":"Ghaziabad","districtcode":"140","ulbname":"Ghaziabad","ulbcode":"800734","wardname":"Sibbanpura (Patel Marg)9","wardcode":"9","id":null,"status":"APPROVED","misglobalid":null,"approved_by":null,"createdate":1640948640000,"updateddate":1647162794000,"globalid":null,"gisglobalid":"anasdac5-4sac-PBnl-sooK-BsBmBmKK6QQ5","remark":"","st_area(shape)":0.00010074857960743005,"st_perimeter(shape)":0.05843567023977297}},{"arcs":[[43,44,45]],"type":"Polygon","properties":{"objectid":70297,"statename":"Uttar Pradesh","statecode":"9","districtname":"Ghaziabad","districtcode":"140","ulbname":"Ghaziabad","ulbcode":"800734","wardname":"Dlf Colony 10","wardcode":"10","id":null,"status":"APPROVED","misglobalid":null,"approved_by":null,"createdate":1641379723000,"updateddate":1647162924000,"globalid":null,"gisglobalid":"Q66ao6RR-s4sn-PQ5B-QPQl-Ps5PnKBcRnK5","remark":"","st_area(shape)":0.000019031704837526443,"st_perimeter(shape)":0.030626731476330077}},{"arcs":[[46,47,-48,-26,48,49,50,51]],"type":"Polygon","properties":{"objectid":64381,"statename":"Uttar Pradesh","statecode":"9","districtname":"Ghaziabad","districtcode":"140","ulbname":"Ghaziabad","ulbcode":"800734","wardname":"Nanadgram 11","wardcode":"11","id":null,"status":"APPROVED","misglobalid":null,"approved_by":null,"createdate":1640853314000,"updateddate":1647163075000,"globalid":null,"gisglobalid":"dlK4nBP5-ac6P-Po6a-QdmQ-s6nncnm6cKPQ","remark":"","st_area(shape)":0.0002723886504434073,"st_perimeter(shape)":0.07111847982362772}},{"arcs":[[52,53,54,-33,55]],"type":"Polygon","properties":{"objectid":64882,"statename":"Uttar Pradesh","statecode":"9","districtname":"Ghaziabad","districtcode":"140","ulbname":"Ghaziabad","ulbcode":"800734","wardname":"Kalkagarhi 12.Kml","wardcode":"12","id":null,"status":"APPROVED","misglobalid":null,"approved_by":null,"createdate":1640937406000,"updateddate":1647163223000,"globalid":null,"gisglobalid":"46BlKaQK-Qlo4-P5l4-QRcR-m5nK6n4Bm46o","remark":"","st_area(shape)":0.00004402108794728778,"st_perimeter(shape)":0.0368866542245913}},{"arcs":[[56,57,58,59,60]],"type":"Polygon","properties":{"objectid":65701,"statename":"Uttar Pradesh","statecode":"9","districtname":"Ghaziabad","districtcode":"140","ulbname":"Ghaziabad","ulbcode":"800734","wardname":"Ghukna 13","wardcode":"13","id":null,"status":"APPROVED","misglobalid":null,"approved_by":null,"createdate":1640851572000,"updateddate":1647163350000,"globalid":null,"gisglobalid":"KclscRQ4-6464-PBBs-Qam4-lPlBPRQ4RRnn","remark":"","st_area(shape)":0.00002411205404468522,"st_perimeter(shape)":0.019610820583522325}},{"arcs":[[61,62,-4,63,-18,-13]],"type":"Polygon","properties":{"objectid":84621,"statename":"Uttar Pradesh","statecode":"9","districtname":"Ghaziabad","districtcode":"140","ulbname":"Ghaziabad","ulbcode":"800734","wardname":"New Vijay Nagar 14","wardcode":"14","id":null,"status":"APPROVED","misglobalid":null,"approved_by":null,"createdate":1642421636000,"updateddate":1647163519000,"globalid":null,"gisglobalid":"Qm5c5lBo-adcR-PKcl-slPd-66RadadPcllP","remark":"","st_area(shape)":0.00004975950676080689,"st_perimeter(shape)":0.05250390539797353}},{"arcs":[[-3,-8,64,65,66,67,68,69,-64]],"type":"Polygon","properties":{"objectid":71583,"statename":"Uttar Pradesh","statecode":"9","districtname":"Ghaziabad","districtcode":"140","ulbname":"Ghaziabad","ulbcode":"800734","wardname":"Charan Colony 15","wardcode":"15","id":null,"status":"APPROVED","misglobalid":null,"approved_by":null,"createdate":1641551166000,"updateddate":1647163650000,"globalid":null,"gisglobalid":"sdBPmc4P-KsBm-P6PK-am4o-nBmKsmBRlc4K","remark":"","st_area(shape)":0.00043116765244846156,"st_perimeter(shape)":0.09414352985322055}},{"arcs":[[70,71,72,73]],"type":"Polygon","properties":{"objectid":66875,"statename":"Uttar Pradesh","statecode":"9","districtname":"Ghaziabad","districtcode":"140","ulbname":"Ghaziabad","ulbcode":"800734","wardname":"Morta 16","wardcode":"16","id":null,"status":"APPROVED","misglobalid":null,"approved_by":null,"createdate":1642754304000,"updateddate":1647163768000,"globalid":null,"gisglobalid":"oaPP45Kd-Pdco-PQnK-Q6Ra-dd44dRKmaQlR","remark":"","st_area(shape)":0.0010831480079123348,"st_perimeter(shape)":0.1637463589232905}},{"arcs":[[74,75,-40,76,77,-23,78,-58]],"type":"Polygon","properties":{"objectid":65275,"statename":"Uttar Pradesh","statecode":"9","districtname":"Ghaziabad","districtcode":"140","ulbname":"Ghaziabad","ulbcode":"800734","wardname":"Rajeev Colony(Mohan Colony)28","wardcode":"17","id":null,"status":"APPROVED","misglobalid":null,"approved_by":null,"createdate":1640946441000,"updateddate":1647164021000,"globalid":null,"gisglobalid":"K4c66Rco-PBPm-PsnQ-a4od-lcQddPRQlo6Q","remark":"","st_area(shape)":0.00013155898246999245,"st_perimeter(shape)":0.058161417203352425}},{"arcs":[[79,80,81,82,83]],"type":"Polygon","properties":{"objectid":64841,"statename":"Uttar Pradesh","statecode":"9","districtname":"Ghaziabad","districtcode":"140","ulbname":"Ghaziabad","ulbcode":"800734","wardname":"Shastri Nagar (Rajapur)18","wardcode":"18","id":null,"status":"APPROVED","misglobalid":null,"approved_by":null,"createdate":1640854480000,"updateddate":1647164048000,"globalid":null,"gisglobalid":"cll45nPl-KBn4-PnKl-QRKc-46ldnQB6m4s6","remark":"","st_area(shape)":0.00006127389941600648,"st_perimeter(shape)":0.03130209551963463}},{"arcs":[[84,-34,-55,85,86,87,88,-37]],"type":"Polygon","properties":{"objectid":84622,"statename":"Uttar Pradesh","statecode":"9","districtname":"Ghaziabad","districtcode":"140","ulbname":"Ghaziabad","ulbcode":"800734","wardname":"Patel Nagar(Mukund Nagar)19","wardcode":"19","id":null,"status":"APPROVED","misglobalid":null,"approved_by":null,"createdate":1642422024000,"updateddate":1647164149000,"globalid":null,"gisglobalid":"aPosRdna-olP5-PQBd-QPPa-QPlnaKm5Kc4l","remark":"","st_area(shape)":0.00006692528994036061,"st_perimeter(shape)":0.03888599278689555}},{"arcs":[[89,-45,90,91,-21]],"type":"Polygon","properties":{"objectid":81864,"statename":"Uttar Pradesh","statecode":"9","districtname":"Ghaziabad","districtcode":"140","ulbname":"Ghaziabad","ulbcode":"800734","wardname":"Bhopura 20","wardcode":"20","id":null,"status":"APPROVED","misglobalid":null,"approved_by":null,"createdate":1642422504000,"updateddate":1647164274000,"globalid":null,"gisglobalid":"n5PRlR6l-RBaR-PR55-smPB-ll6Qn6omasQn","remark":"","st_area(shape)":0.000035752684604176665,"st_perimeter(shape)":0.031908597712751625}},{"arcs":[[92,93]],"type":"Polygon","properties":{"objectid":71179,"statename":"Uttar Pradesh","statecode":"9","districtname":"Ghaziabad","districtcode":"140","ulbname":"Ghaziabad","ulbcode":"800734","wardname":"Bhuapur 21","wardcode":"21","id":null,"status":"APPROVED","misglobalid":null,"approved_by":null,"createdate":1641550293000,"updateddate":1647164374000,"globalid":null,"gisglobalid":"Kl6mBldQ-4alc-PmoQ-R54d-KsPKd5QmRcaR","remark":"","st_area(shape)":0.0000522997733506562,"st_perimeter(shape)":0.039121734280758165}},{"arcs":[[94,95,96,97,98,99]],"type":"Polygon","properties":{"objectid":64877,"statename":"Uttar Pradesh","statecode":"9","districtname":"Ghaziabad","districtcode":"140","ulbname":"Ghaziabad","ulbcode":"800734","wardname":"Daulatpura 22","wardcode":"22","id":null,"status":"APPROVED","misglobalid":null,"approved_by":null,"createdate":1642493480000,"updateddate":1647165678000,"globalid":null,"gisglobalid":"Bl4oP6Kd-s5aB-Pn6o-QQls-mQ5mBlQoBnPl","remark":"","st_area(shape)":0.0001621301754905261,"st_perimeter(shape)":0.0751938916811201}},{"arcs":[[100,101,102,103,104]],"type":"Polygon","properties":{"objectid":73801,"statename":"Uttar Pradesh","statecode":"9","districtname":"Ghaziabad","districtcode":"140","ulbname":"Ghaziabad","ulbcode":"800734","wardname":"Kailash Nagar 23","wardcode":"23","id":null,"status":"APPROVED","misglobalid":null,"approved_by":null,"createdate":1641891933000,"updateddate":1647165945000,"globalid":null,"gisglobalid":"ssRKPsQ5-oaPQ-PcdR-RBos-aB6anls6aPnd","remark":"","st_area(shape)":0.00004551956122087465,"st_perimeter(shape)":0.04548988819259392}},{"arcs":[[105,106,107,108,109,110,111,112,113]],"type":"Polygon","properties":{"objectid":64909,"statename":"Uttar Pradesh","statecode":"9","districtname":"Ghaziabad","districtcode":"140","ulbname":"Ghaziabad","ulbcode":"800734","wardname":"Mehrauli 24","wardcode":"24","id":null,"status":"APPROVED","misglobalid":null,"approved_by":null,"createdate":1641554484000,"updateddate":1647166074000,"globalid":null,"gisglobalid":"RQccQosn-oPBd-PB56-QB6n-Rosn5sKaKmQ6","remark":"","st_area(shape)":0.001433336992796633,"st_perimeter(shape)":0.19004977788545654}},{"arcs":[[-62,114,-11,115,116,-99,117,118,119]],"type":"Polygon","properties":{"objectid":72171,"statename":"Uttar Pradesh","statecode":"9","districtname":"Ghaziabad","districtcode":"140","ulbname":"Ghaziabad","ulbcode":"800734","wardname":"Ambedkar Nagar 25","wardcode":"25","id":null,"status":"APPROVED","misglobalid":null,"approved_by":null,"createdate":1641891388000,"updateddate":1647166244000,"globalid":null,"gisglobalid":"aacsollP-coB4-P4m6-QnPo-mKmlBsPKcQnP","remark":"","st_area(shape)":0.00014762609857740886,"st_perimeter(shape)":0.06938814798696995}},{"arcs":[[120,-101,121,122,123,-116,-17]],"type":"Polygon","properties":{"objectid":73802,"statename":"Uttar Pradesh","statecode":"9","districtname":"Ghaziabad","districtcode":"140","ulbname":"Ghaziabad","ulbcode":"800734","wardname":"Madhopura 26","wardcode":"26","id":null,"status":"APPROVED","misglobalid":null,"approved_by":null,"createdate":1641892371000,"updateddate":1647166395000,"globalid":null,"gisglobalid":"oBn6aPlQ-Q4ns-Pcsa-RKo5-macaQdK4RBnc","remark":"","st_area(shape)":0.00006917388754174859,"st_perimeter(shape)":0.05310729553045676}},{"arcs":[[124,-29,-6,125,-119]],"type":"Polygon","properties":{"objectid":71584,"statename":"Uttar Pradesh","statecode":"9","districtname":"Ghaziabad","districtcode":"140","ulbname":"Ghaziabad","ulbcode":"800734","wardname":"Dundahera 27","wardcode":"27","id":null,"status":"APPROVED","misglobalid":null,"approved_by":null,"createdate":1641552566000,"updateddate":1647166500000,"globalid":null,"gisglobalid":"mBss5PKn-Qm6s-Pa4o-RKP4-cK55mdQa456l","remark":"","st_area(shape)":0.00029513076919351726,"st_perimeter(shape)":0.07536908726146649}},{"arcs":[[126,127,128,129,130,131,-24,-78]],"type":"Polygon","properties":{"objectid":64911,"statename":"Uttar Pradesh","statecode":"9","districtname":"Ghaziabad","districtcode":"140","ulbname":"Ghaziabad","ulbcode":"800734","wardname":"Rajeev Colony(Mohan Colony)28","wardcode":"28","id":null,"status":"APPROVED","misglobalid":null,"approved_by":null,"createdate":1640946068000,"updateddate":1647166661000,"globalid":null,"gisglobalid":"ldoRcn6c-6Pnl-Pn6n-aK4K-cBKdQmPlmK6n","remark":"","st_area(shape)":0.0001832665567771938,"st_perimeter(shape)":0.0810536160904274}},{"arcs":[[132,-46,-90,133,134]],"type":"Polygon","properties":{"objectid":64921,"statename":"Uttar Pradesh","statecode":"9","districtname":"Ghaziabad","districtcode":"140","ulbname":"Ghaziabad","ulbcode":"800734","wardname":"Defence Colony(Kuti)29","wardcode":"29","id":null,"status":"APPROVED","misglobalid":null,"approved_by":null,"createdate":1640949891000,"updateddate":1647166781000,"globalid":null,"gisglobalid":"l5acQdc6-aRca-PnoP-Rsdn-sldRmRcP5o5n","remark":"","st_area(shape)":0.00011330054901093965,"st_perimeter(shape)":0.042159370097446365}},{"arcs":[[135,136,137,138]],"type":"Polygon","properties":{"objectid":67460,"statename":"Uttar Pradesh","statecode":"9","districtname":"Ghaziabad","districtcode":"140","ulbname":"Ghaziabad","ulbcode":"800734","wardname":"Sadarpur(Govindpuram)30","wardcode":"30","id":null,"status":"APPROVED","misglobalid":null,"approved_by":null,"createdate":1640860038000,"updateddate":1647166911000,"globalid":null,"gisglobalid":"saQ4Rd6P-o5a4-PoQR-QsBs-KnlsR6cBc4cc","remark":"","st_area(shape)":0.000818598202772378,"st_perimeter(shape)":0.14850627492008894}},{"arcs":[[139,-52,140,141,-61]],"type":"Polygon","properties":{"objectid":73803,"statename":"Uttar Pradesh","statecode":"9","districtname":"Ghaziabad","districtcode":"140","ulbname":"Ghaziabad","ulbcode":"800734","wardname":"Sihani(Nanadgram) 31","wardcode":"31","id":null,"status":"APPROVED","misglobalid":null,"approved_by":null,"createdate":1641892788000,"updateddate":1647167018000,"globalid":null,"gisglobalid":"QaosRK5n-oRda-P6a4-Qmss-QB4Q4ooRonPl","remark":"","st_area(shape)":0.00004791855215456426,"st_perimeter(shape)":0.02982545449558268}},{"arcs":[[-75,-57,-142,142,143,144,-42,145]],"type":"Polygon","properties":{"objectid":72982,"statename":"Uttar Pradesh","statecode":"9","districtname":"Ghaziabad","districtcode":"140","ulbname":"Ghaziabad","ulbcode":"800734","wardname":"Krishna Nagar 32","wardcode":"32","id":null,"status":"APPROVED","misglobalid":null,"approved_by":null,"createdate":1641892595000,"updateddate":1647167254000,"globalid":null,"gisglobalid":"K5Km5mBm-dnoR-PPoa-sKK5-sPc4oKaRcRBc","remark":"","st_area(shape)":0.000050751454494057484,"st_perimeter(shape)":0.03472711366352288}},{"arcs":[[146,147,148,-123,149]],"type":"Polygon","properties":{"objectid":73809,"statename":"Uttar Pradesh","statecode":"9","districtname":"Ghaziabad","districtcode":"140","ulbname":"Ghaziabad","ulbcode":"800734","wardname":"Sarai Nazar Ali 33","wardcode":"33","id":null,"status":"APPROVED","misglobalid":null,"approved_by":null,"createdate":1641894541000,"updateddate":1647167483000,"globalid":null,"gisglobalid":"4sQ4R4sB-oQ6P-PmPn-slmc-sd5nPPPBnP6K","remark":"","st_area(shape)":0.000040032119135624074,"st_perimeter(shape)":0.029294390415596765}},{"arcs":[[150,151,152,153,154,155,156,157]],"type":"Polygon","properties":{"objectid":73338,"statename":"Uttar Pradesh","statecode":"9","districtname":"Ghaziabad","districtcode":"140","ulbname":"Ghaziabad","ulbcode":"800734","wardname":"Saheed Nagar 1St 34","wardcode":"34","id":null,"status":"APPROVED","misglobalid":null,"approved_by":null,"createdate":1642494600000,"updateddate":1647167609000,"globalid":null,"gisglobalid":"lR5sP6oa-RdmB-Pads-a55B-5Q6dmmnol6Qd","remark":"","st_area(shape)":0.00006635917486164596,"st_perimeter(shape)":0.03890884466972282}},{"arcs":[[158,159,-65,-7,160,-31]],"type":"Polygon","properties":{"objectid":71178,"statename":"Uttar Pradesh","statecode":"9","districtname":"Ghaziabad","districtcode":"140","ulbname":"Ghaziabad","ulbcode":"800734","wardname":"Akbarpur Behrampur 35","wardcode":"35","id":null,"status":"APPROVED","misglobalid":null,"approved_by":null,"createdate":1641550013000,"updateddate":1647167727000,"globalid":null,"gisglobalid":"P4naQamm-caKQ-PQPm-anKd-QooaRdan5BPm","remark":"","st_area(shape)":0.00009683232309838112,"st_perimeter(shape)":0.051257173359615035}},{"arcs":[[161,162,163,164,165,166]],"type":"Polygon","properties":{"objectid":74059,"statename":"Uttar Pradesh","statecode":"9","districtname":"Ghaziabad","districtcode":"140","ulbname":"Ghaziabad","ulbcode":"800734","wardname":"Prahlad Garhi 36","wardcode":"36","id":null,"status":"APPROVED","misglobalid":null,"approved_by":null,"createdate":1641893299000,"updateddate":1647167737000,"globalid":null,"gisglobalid":"B4Bm4PnB-cRKm-Pscn-Qca4-as544m4Kdnm5","remark":"","st_area(shape)":0.0001340508523928453,"st_perimeter(shape)":0.06147630816421024}},{"arcs":[[167,168,169,170,171,-91,-44,-133,172,-168]],"type":"Polygon","properties":{"objectid":68408,"statename":"Uttar Pradesh","statecode":"9","districtname":"Ghaziabad","districtcode":"140","ulbname":"Ghaziabad","ulbcode":"800734","wardname":"Shalimar Garden Main 37","wardcode":"37","id":null,"status":"APPROVED","misglobalid":null,"approved_by":null,"createdate":1641539120000,"updateddate":1647167842000,"globalid":null,"gisglobalid":"lolK6ooa-snmP-PRmc-aKd6-sdndcP6KddRB","remark":"","st_area(shape)":0.00004119859791886301,"st_perimeter(shape)":0.057173244509543246}},{"arcs":[[173,174,-128,175]],"type":"Polygon","properties":{"objectid":71745,"statename":"Uttar Pradesh","statecode":"9","districtname":"Ghaziabad","districtcode":"140","ulbname":"Ghaziabad","ulbcode":"800734","wardname":"Arthala 38","wardcode":"38","id":null,"status":"APPROVED","misglobalid":null,"approved_by":null,"createdate":1641891582000,"updateddate":1647167966000,"globalid":null,"gisglobalid":"d6QanBnP-4Plo-P445-RP4c-n6ssaQdBaQ45","remark":"","st_area(shape)":0.00005325342835709106,"st_perimeter(shape)":0.029888716521573773}},{"arcs":[[-95,176,177,178,179,180]],"type":"Polygon","properties":{"objectid":73804,"statename":"Uttar Pradesh","statecode":"9","districtname":"Ghaziabad","districtcode":"140","ulbname":"Ghaziabad","ulbcode":"800734","wardname":"Nehru Nagar Iii(Nasirpur) 39","wardcode":"39","id":null,"status":"APPROVED","misglobalid":null,"approved_by":null,"createdate":1641892934000,"updateddate":1647168068000,"globalid":null,"gisglobalid":"sll5BonP-QcRP-PlaP-amQl-4Rm6mBR5RolP","remark":"","st_area(shape)":0.000041112621320316054,"st_perimeter(shape)":0.03705589359545549}},{"arcs":[[181,182,183,184,185,-163]],"type":"Polygon","properties":{"objectid":72585,"statename":"Uttar Pradesh","statecode":"9","districtname":"Ghaziabad","districtcode":"140","ulbname":"Ghaziabad","ulbcode":"800734","wardname":"Sahibabad 40","wardcode":"40","id":null,"status":"APPROVED","misglobalid":null,"approved_by":null,"createdate":1641894312000,"updateddate":1647168323000,"globalid":null,"gisglobalid":"5sd6lKnl-Kc4R-P4lP-aadB-Q64ddmKPm66s","remark":"","st_area(shape)":0.00014914676127969638,"st_perimeter(shape)":0.06887620396105856}},{"arcs":[[-162,186,187,188,189,190,191,192,193,-182]],"type":"Polygon","properties":{"objectid":72392,"statename":"Uttar Pradesh","statecode":"9","districtname":"Ghaziabad","districtcode":"140","ulbname":"Ghaziabad","ulbcode":"800734","wardname":"Maharajpur 41","wardcode":"41","id":null,"status":"APPROVED","misglobalid":null,"approved_by":null,"createdate":1641553513000,"updateddate":1647168521000,"globalid":null,"gisglobalid":"Q5d4onP6-oQcB-PKPB-soQa-QdP5maa54cn5","remark":"","st_area(shape)":0.0004428117472819204,"st_perimeter(shape)":0.10298906489306683}},{"arcs":[[194,195,-111,196]],"type":"Polygon","properties":{"objectid":66985,"statename":"Uttar Pradesh","statecode":"9","districtname":"Ghaziabad","districtcode":"140","ulbname":"Ghaziabad","ulbcode":"800734","wardname":"Shahpur (Bamheta)42","wardcode":"42","id":null,"status":"APPROVED","misglobalid":null,"approved_by":null,"createdate":1642492878000,"updateddate":1647168677000,"globalid":null,"gisglobalid":"aQalaQ5R-ndPl-PsQB-Rao4-55lBssasdPdP","remark":"","st_area(shape)":0.0002519786165430782,"st_perimeter(shape)":0.07130989048366385}},{"arcs":[[197,198,199,200,201,-184,202,-193]],"type":"Polygon","properties":{"objectid":72632,"statename":"Uttar Pradesh","statecode":"9","districtname":"Ghaziabad","districtcode":"140","ulbname":"Ghaziabad","ulbcode":"800734","wardname":"Kadkad Model 43","wardcode":"43","id":null,"status":"APPROVED","misglobalid":null,"approved_by":null,"createdate":1641973934000,"updateddate":1647168782000,"globalid":null,"gisglobalid":"KRcBc4Qo-cdKa-Pa5o-RnQB-o4aPBssd4sRn","remark":"","st_area(shape)":0.00012688909836670254,"st_perimeter(shape)":0.07553479923404484}},{"arcs":[[203,-176,-127,204,205]],"type":"Polygon","properties":{"objectid":73367,"statename":"Uttar Pradesh","statecode":"9","districtname":"Ghaziabad","districtcode":"140","ulbname":"Ghaziabad","ulbcode":"800734","wardname":"Sanjay Colony 44","wardcode":"44","id":null,"status":"APPROVED","misglobalid":null,"approved_by":null,"createdate":1641976278000,"updateddate":1647168914000,"globalid":null,"gisglobalid":"BPmK5PRB-m5aB-Pooa-RBPn-4s4ds5mKcccn","remark":"","st_area(shape)":0.00011061142401572198,"st_perimeter(shape)":0.04403146391940738}},{"arcs":[[-132,206,-49,-25]],"type":"Polygon","properties":{"objectid":64885,"statename":"Uttar Pradesh","statecode":"9","districtname":"Ghaziabad","districtcode":"140","ulbname":"Ghaziabad","ulbcode":"800734","wardname":"Karhera 45","wardcode":"45","id":null,"status":"APPROVED","misglobalid":null,"approved_by":null,"createdate":1640938139000,"updateddate":1647169080000,"globalid":null,"gisglobalid":"d5R5RPnQ-onK5-PRPl-Q5am-46aQlBnKsnPo","remark":"","st_area(shape)":0.00023597112123767045,"st_perimeter(shape)":0.08031522096469672}},{"arcs":[[-138,207,208,-71,209]],"type":"Polygon","properties":{"objectid":54326,"statename":"Uttar Pradesh","statecode":"9","districtname":"Ghaziabad","districtcode":"140","ulbname":"Ghaziabad","ulbcode":"800734","wardname":"Guldhar(Duhai) 46","wardcode":"46","id":null,"status":"APPROVED","misglobalid":null,"approved_by":null,"createdate":1640848504000,"updateddate":1647169192000,"globalid":null,"gisglobalid":"dRnQl6sn-sQsK-Pddn-alnd-s5KaBloQPRm4","remark":"","st_area(shape)":0.0006116984807090594,"st_perimeter(shape)":0.14145257456208343}},{"arcs":[[-83,210,211,212,213]],"type":"Polygon","properties":{"objectid":65244,"statename":"Uttar Pradesh","statecode":"9","districtname":"Ghaziabad","districtcode":"140","ulbname":"Ghaziabad","ulbcode":"800734","wardname":"Shastri Nagar (Mahindra Enclave)47","wardcode":"47","id":null,"status":"APPROVED","misglobalid":null,"approved_by":null,"createdate":1640861095000,"updateddate":1647169320000,"globalid":null,"gisglobalid":"Qs56RKsR-RasQ-Pc6o-Qan5-RKscRQKlomcl","remark":"","st_area(shape)":0.00009618284774317432,"st_perimeter(shape)":0.06511613623330578}},{"arcs":[[-70,214,-19]],"type":"Polygon","properties":{"objectid":71797,"statename":"Uttar Pradesh","statecode":"9","districtname":"Ghaziabad","districtcode":"140","ulbname":"Ghaziabad","ulbcode":"800734","wardname":"Mirzapur 48","wardcode":"48","id":null,"status":"APPROVED","misglobalid":null,"approved_by":null,"createdate":1641974792000,"updateddate":1647169438000,"globalid":null,"gisglobalid":"lKRK4dRB-Kcms-Pasm-RPs6-sdd6Kamdon5m","remark":"","st_area(shape)":0.000023146973548231694,"st_perimeter(shape)":0.019344572550235323}},{"arcs":[[-140,-60,215,-79,-28,216,-48,-47]],"type":"Polygon","properties":{"objectid":71798,"statename":"Uttar Pradesh","statecode":"9","districtname":"Ghaziabad","districtcode":"140","ulbname":"Ghaziabad","ulbcode":"800734","wardname":"Marium Nagar (Nandgram)49","wardcode":"49","id":null,"status":"APPROVED","misglobalid":null,"approved_by":null,"createdate":1641975455000,"updateddate":1647169582000,"globalid":null,"gisglobalid":"c6cccnsl-Ba4o-PPll-QBBd-nQaBnPQoPRR6","remark":"","st_area(shape)":0.00009014051060059527,"st_perimeter(shape)":0.041602013653244896}},{"arcs":[[-144,217,-141,-51,218,-73,219,220,221,222]],"type":"Polygon","properties":{"objectid":66908,"statename":"Uttar Pradesh","statecode":"9","districtname":"Ghaziabad","districtcode":"140","ulbname":"Ghaziabad","ulbcode":"800734","wardname":"Noor Nagar (Saddiki Nagar)50","wardcode":"50","id":null,"status":"APPROVED","misglobalid":null,"approved_by":null,"createdate":1640860621000,"updateddate":1647169680000,"globalid":null,"gisglobalid":"R5am66l5-54Kc-PQ6c-sla5-QmRBlQK4onnm","remark":"","st_area(shape)":0.00042633638407542926,"st_perimeter(shape)":0.09148100802744301}},{"arcs":[[-121,-16,223,-68,224,-102]],"type":"Polygon","properties":{"objectid":73365,"statename":"Uttar Pradesh","statecode":"9","districtname":"Ghaziabad","districtcode":"140","ulbname":"Ghaziabad","ulbcode":"800734","wardname":"Pratap Vihar Sector11 51","wardcode":"51","id":null,"status":"APPROVED","misglobalid":null,"approved_by":null,"createdate":1641976047000,"updateddate":1647169764000,"globalid":null,"gisglobalid":"Q6mnamla-adml-PPmc-s6Bo-anQsP4Q46aBc","remark":"","st_area(shape)":0.00017133810144354198,"st_perimeter(shape)":0.061984149643120684}},{"arcs":[[-124,-149,225,-178,226,-100,-117]],"type":"Polygon","properties":{"objectid":71795,"statename":"Uttar Pradesh","statecode":"9","districtname":"Ghaziabad","districtcode":"140","ulbname":"Ghaziabad","ulbcode":"800734","wardname":"Arya Nagar (Kotgaon)52","wardcode":"52","id":null,"status":"APPROVED","misglobalid":null,"approved_by":null,"createdate":1641973231000,"updateddate":1647169862000,"globalid":null,"gisglobalid":"lPa6nla5-666l-PPl4-s4ms-6mmRo6cB6oQK","remark":"","st_area(shape)":0.00007587338879210865,"st_perimeter(shape)":0.04139596652319285}},{"arcs":[[227,-208,-137,228,229]],"type":"Polygon","properties":{"objectid":66474,"statename":"Uttar Pradesh","statecode":"9","districtname":"Ghaziabad","districtcode":"140","ulbname":"Ghaziabad","ulbcode":"800734","wardname":"Raheespur 53","wardcode":"53","id":null,"status":"APPROVED","misglobalid":null,"approved_by":null,"createdate":1640853704000,"updateddate":1647169995000,"globalid":null,"gisglobalid":"QBmsQ6Po-d4lP-P4sn-RBnm-ldPo6cPPK4Bd","remark":"","st_area(shape)":0.00020300344643012314,"st_perimeter(shape)":0.06794125415170556}},{"arcs":[[230,-165,231,232]],"type":"Polygon","properties":{"objectid":72658,"statename":"Uttar Pradesh","statecode":"9","districtname":"Ghaziabad","districtcode":"140","ulbname":"Ghaziabad","ulbcode":"800734","wardname":"Vasundhara I 54","wardcode":"54","id":null,"status":"APPROVED","misglobalid":null,"approved_by":null,"createdate":1641988381000,"updateddate":1647170110000,"globalid":null,"gisglobalid":"BRmmmQRn-mPRd-Ps4K-RnaP-sPasBoQacKln","remark":"","st_area(shape)":0.00019042996135762633,"st_perimeter(shape)":0.07643941151760732}},{"arcs":[[-224,-15,-20,-215,-69]],"type":"Polygon","properties":{"objectid":71849,"statename":"Uttar Pradesh","statecode":"9","districtname":"Ghaziabad","districtcode":"140","ulbname":"Ghaziabad","ulbcode":"800734","wardname":"Vijay Nagar Sector 11 A-Block 55","wardcode":"55","id":null,"status":"APPROVED","misglobalid":null,"approved_by":null,"createdate":1641988802000,"updateddate":1647170202000,"globalid":null,"gisglobalid":"4aP6RQPQ-dssc-PsP5-QK5B-ldol5PacPPa5","remark":"","st_area(shape)":0.00002618177268174241,"st_perimeter(shape)":0.02475787195180404}},{"arcs":[[-108,233,234,-84,-214,235,236]],"type":"Polygon","properties":{"objectid":66543,"statename":"Uttar Pradesh","statecode":"9","districtname":"Ghaziabad","districtcode":"140","ulbname":"Ghaziabad","ulbcode":"800734","wardname":"Chiranjeev Vihar(Avantika)56","wardcode":"56","id":null,"status":"APPROVED","misglobalid":null,"approved_by":null,"createdate":1640934156000,"updateddate":1647170323000,"globalid":null,"gisglobalid":"Qn5Kamln-sKBB-PsBK-slKl-K646mPoQnncB","remark":"","st_area(shape)":0.0002365418834142607,"st_perimeter(shape)":0.10145864330860477}},{"arcs":[[237]],"type":"Polygon","properties":{"objectid":71988,"statename":"Uttar Pradesh","statecode":"9","districtname":"Ghaziabad","districtcode":"140","ulbname":"Ghaziabad","ulbcode":"800734","wardname":"Makanpur 57","wardcode":"57","id":null,"status":"APPROVED","misglobalid":null,"approved_by":null,"createdate":1641554842000,"updateddate":1647170409000,"globalid":null,"gisglobalid":"K55sda5R-sl6d-P5sn-Ro5n-6onPlo4aQmQB","remark":"","st_area(shape)":0.0000626495334979578,"st_perimeter(shape)":0.04497965522379614}},{"arcs":[[-126,-5,-63,-120]],"type":"Polygon","properties":{"objectid":73396,"statename":"Uttar Pradesh","statecode":"9","districtname":"Ghaziabad","districtcode":"140","ulbname":"Ghaziabad","ulbcode":"800734","wardname":"Shiv Puri 58","wardcode":"58","id":null,"status":"APPROVED","misglobalid":null,"approved_by":null,"createdate":1641986670000,"updateddate":1647170517000,"globalid":null,"gisglobalid":"nmcmQ6Q6-cQmm-PsK6-a5Km-alnlQ6aKa5nR","remark":"","st_area(shape)":0.00002450346504996285,"st_perimeter(shape)":0.02477070639113775}},{"arcs":[[-147,238,-86,-54,239]],"type":"Polygon","properties":{"objectid":64868,"statename":"Uttar Pradesh","statecode":"9","districtname":"Ghaziabad","districtcode":"140","ulbname":"Ghaziabad","ulbcode":"800734","wardname":"Chand Puri 59","wardcode":"59","id":null,"status":"APPROVED","misglobalid":null,"approved_by":null,"createdate":1640933725000,"updateddate":1647170592000,"globalid":null,"gisglobalid":"oocQBRRl-lsdQ-PQQQ-Q6od-oc5KQlsBQB4n","remark":"","st_area(shape)":0.00005750932041710678,"st_perimeter(shape)":0.040658402115775406}},{"arcs":[[-185,-202,240,241,-157,242,243,244,245,246,-129,-175]],"type":"Polygon","properties":{"objectid":73399,"statename":"Uttar Pradesh","statecode":"9","districtname":"Ghaziabad","districtcode":"140","ulbname":"Ghaziabad","ulbcode":"800734","wardname":"Shyam Park Main 60","wardcode":"60","id":null,"status":"APPROVED","misglobalid":null,"approved_by":null,"createdate":1641986747000,"updateddate":1647170693000,"globalid":null,"gisglobalid":"sln6K666-lsm4-PnK4-RKos-6PQ54odKQcmP","remark":"","st_area(shape)":0.00017320099224408983,"st_perimeter(shape)":0.09821852437433579}},{"arcs":[[-232,-164,-186,-174,-204,247,248]],"type":"Polygon","properties":{"objectid":73921,"statename":"Uttar Pradesh","statecode":"9","districtname":"Ghaziabad","districtcode":"140","ulbname":"Ghaziabad","ulbcode":"800734","wardname":"Vasundhara Ii 61","wardcode":"61","id":null,"status":"APPROVED","misglobalid":null,"approved_by":null,"createdate":1641988585000,"updateddate":1647170784000,"globalid":null,"gisglobalid":"o6aR5Roc-nmsa-PcQd-sa6R-onRmQQR4Pc5c","remark":"","st_area(shape)":0.0001508905823356327,"st_perimeter(shape)":0.0817033974713152}},{"arcs":[[249,-236,250,251,-229,-136]],"type":"Polygon","properties":{"objectid":73017,"statename":"Uttar Pradesh","statecode":"9","districtname":"Ghaziabad","districtcode":"140","ulbname":"Ghaziabad","ulbcode":"800734","wardname":"Harsaon (Govindpuram)62","wardcode":"62","id":null,"status":"APPROVED","misglobalid":null,"approved_by":null,"createdate":1641973714000,"updateddate":1647170906000,"globalid":null,"gisglobalid":"n6BPodsl-mncK-Plma-Qoa6-mlKnRPK4amQc","remark":"","st_area(shape)":0.0003801131687991662,"st_perimeter(shape)":0.10272086350087659}},{"arcs":[[252,253,254,255,256]],"type":"Polygon","properties":{"objectid":73018,"statename":"Uttar Pradesh","statecode":"9","districtname":"Ghaziabad","districtcode":"140","ulbname":"Ghaziabad","ulbcode":"800734","wardname":"Pasonda 63","wardcode":"63","id":null,"status":"APPROVED","misglobalid":null,"approved_by":null,"createdate":1641975743000,"updateddate":1647171034000,"globalid":null,"gisglobalid":"4Q4dPlnl-5dQ5-PR5m-scod-nd45mmnaKms5","remark":"","st_area(shape)":0.00003397051299139243,"st_perimeter(shape)":0.046804847555535475}},{"arcs":[[257,258,259,260,167,-173,-135,261]],"type":"Polygon","properties":{"objectid":72631,"statename":"Uttar Pradesh","statecode":"9","districtname":"Ghaziabad","districtcode":"140","ulbname":"Ghaziabad","ulbcode":"800734","wardname":"Garima Garden 64","wardcode":"64","id":null,"status":"APPROVED","misglobalid":null,"approved_by":null,"createdate":1641973490000,"updateddate":1647171134000,"globalid":null,"gisglobalid":"lKcc5c6s-m4Pn-P55B-a5cs-nsaPQP4a4nmQ","remark":"","st_area(shape)":0.00008941772219698792,"st_perimeter(shape)":0.04678917005802297}},{"arcs":[[262,-80,-235,106,-107,-106,263,-96,-181,264]],"type":"Polygon","properties":{"objectid":72659,"statename":"Uttar Pradesh","statecode":"9","districtname":"Ghaziabad","districtcode":"140","ulbname":"Ghaziabad","ulbcode":"800734","wardname":"Vivekanand Nagar (Jeevan Vihar) 65","wardcode":"65","id":null,"status":"APPROVED","misglobalid":null,"approved_by":null,"createdate":1641989009000,"updateddate":1647171236000,"globalid":null,"gisglobalid":"5nasQllP-alol-Pdod-aam4-nmKondsddB5m","remark":"","st_area(shape)":0.0001909245868720849,"st_perimeter(shape)":0.08025465544166278}},{"arcs":[[-253,265,266,267,-258,268]],"type":"Polygon","properties":{"objectid":71796,"statename":"Uttar Pradesh","statecode":"9","districtname":"Ghaziabad","districtcode":"140","ulbname":"Ghaziabad","ulbcode":"800734","wardname":"Mausam Vihar 66","wardcode":"66","id":null,"status":"APPROVED","misglobalid":null,"approved_by":null,"createdate":1641974173000,"updateddate":1647171316000,"globalid":null,"gisglobalid":"BPRPKRa4-4aB6-PcBK-a5oa-45RKaRRn5ood","remark":"","st_area(shape)":0.00007036209136628726,"st_perimeter(shape)":0.05217289710812908}},{"arcs":[[-212,269,270,271,-230,-252]],"type":"Polygon","properties":{"objectid":66453,"statename":"Uttar Pradesh","statecode":"9","districtname":"Ghaziabad","districtcode":"140","ulbname":"Ghaziabad","ulbcode":"800734","wardname":"Kamla Nehru Nagar(Sanjay Nagar-1)67","wardcode":"67","id":null,"status":"APPROVED","misglobalid":null,"approved_by":null,"createdate":1640850634000,"updateddate":1647171420000,"globalid":null,"gisglobalid":"aKlPBmsc-oac6-Paa6-QdPQ-BmBdlasQsBn6","remark":"","st_area(shape)":0.00029081590237969233,"st_perimeter(shape)":0.09510164685991923}},{"arcs":[[272,273,-158,-242,-200]],"type":"Polygon","properties":{"objectid":84612,"statename":"Uttar Pradesh","statecode":"9","districtname":"Ghaziabad","districtcode":"140","ulbname":"Ghaziabad","ulbcode":"800734","wardname":"Brij Vihar 68","wardcode":"68","id":null,"status":"APPROVED","misglobalid":null,"approved_by":null,"createdate":1642413896000,"updateddate":1647171511000,"globalid":null,"gisglobalid":"nnss5lKn-sncn-PPlQ-asl5-dKnQmPmdmQ6R","remark":"","st_area(shape)":0.0000897921626196141,"st_perimeter(shape)":0.061493513070323545}},{"arcs":[[-35,-85,-43,-145,-223,274,-221,275,-271,276]],"type":"Polygon","properties":{"objectid":67456,"statename":"Uttar Pradesh","statecode":"9","districtname":"Ghaziabad","districtcode":"140","ulbname":"Ghaziabad","ulbcode":"800734","wardname":"Lohia Nagar(Lal Quarter) 69","wardcode":"69","id":null,"status":"APPROVED","misglobalid":null,"approved_by":null,"createdate":1640852688000,"updateddate":1647171672000,"globalid":null,"gisglobalid":"6c54nQR5-544K-PdPK-aanR-ldscQ4acaRlR","remark":"","st_area(shape)":0.00017196445266425217,"st_perimeter(shape)":0.07578897428952117}},{"arcs":[[277,278,-243,-156,279,280]],"type":"Polygon","properties":{"objectid":84206,"statename":"Uttar Pradesh","statecode":"9","districtname":"Ghaziabad","districtcode":"140","ulbname":"Ghaziabad","ulbcode":"800734","wardname":"Janak Puri (Ram Nagar) 70","wardcode":"70","id":null,"status":"APPROVED","misglobalid":null,"approved_by":null,"createdate":1642414207000,"updateddate":1647171758000,"globalid":null,"gisglobalid":"ldlaR5PK-5PKa-PBQ6-Qd4P-QP56dQPsRdsB","remark":"","st_area(shape)":0.00008705546441807352,"st_perimeter(shape)":0.04224884283154072}},{"arcs":[[-228,-272,-276,-220,-72,-209]],"type":"Polygon","properties":{"objectid":84618,"statename":"Uttar Pradesh","statecode":"9","districtname":"Ghaziabad","districtcode":"140","ulbname":"Ghaziabad","ulbcode":"800734","wardname":"Sanjay Nagar Ii 71","wardcode":"71","id":null,"status":"APPROVED","misglobalid":null,"approved_by":null,"createdate":1642417535000,"updateddate":1647171846000,"globalid":null,"gisglobalid":"dns46RQs-4all-PQsB-R6Pc-o5Pc6nQona6o","remark":"","st_area(shape)":0.00014846448203209282,"st_perimeter(shape)":0.07588408326879312}},{"arcs":[[281,282,283,-93,284,-190,285]],"type":"Polygon","properties":{"objectid":71588,"statename":"Uttar Pradesh","statecode":"9","districtname":"Ghaziabad","districtcode":"140","ulbname":"Ghaziabad","ulbcode":"800734","wardname":"Kaushambi 72","wardcode":"72","id":null,"status":"APPROVED","misglobalid":null,"approved_by":null,"createdate":1641552995000,"updateddate":1647171950000,"globalid":null,"gisglobalid":"4co6lKsP-5cnd-PRsn-QBoP-BQcs6K64dPQa","remark":"","st_area(shape)":0.00013312929448890026,"st_perimeter(shape)":0.06053754958433639}},{"arcs":[[286,287,288,-280,-155]],"type":"Polygon","properties":{"objectid":68160,"statename":"Uttar Pradesh","statecode":"9","districtname":"Ghaziabad","districtcode":"140","ulbname":"Ghaziabad","ulbcode":"800734","wardname":"Shalimar Garden Extension Ii 73","wardcode":"73","id":null,"status":"APPROVED","misglobalid":null,"approved_by":null,"createdate":1641537584000,"updateddate":1647172023000,"globalid":null,"gisglobalid":"msmKolQB-om45-PQK6-a6m4-caamKlm4cdsm","remark":"","st_area(shape)":0.00003980154398717547,"st_perimeter(shape)":0.027811527154181833}},{"arcs":[[289,290,291,-166,-231]],"type":"Polygon","properties":{"objectid":84619,"statename":"Uttar Pradesh","statecode":"9","districtname":"Ghaziabad","districtcode":"140","ulbname":"Ghaziabad","ulbcode":"800734","wardname":"Vasundhara Iii 74 ","wardcode":"74","id":null,"status":"APPROVED","misglobalid":null,"approved_by":null,"createdate":1642418806000,"updateddate":1647172117000,"globalid":null,"gisglobalid":"as5mR6aP-QccB-Pc5Q-sBl5-Kdlaon4c5acc","remark":"","st_area(shape)":0.0000776958286669464,"st_perimeter(shape)":0.0411250634083135}},{"arcs":[[292,293,294,-131]],"type":"Polygon","properties":{"objectid":84617,"statename":"Uttar Pradesh","statecode":"9","districtname":"Ghaziabad","districtcode":"140","ulbname":"Ghaziabad","ulbcode":"800734","wardname":"Lajpat Nagar I 75","wardcode":"75","id":null,"status":"APPROVED","misglobalid":null,"approved_by":null,"createdate":1642415449000,"updateddate":1647172213000,"globalid":null,"gisglobalid":"5BmsR6Bd-am4c-PdlP-sd4n-5QaQRdm6nccQ","remark":"","st_area(shape)":0.00004029026251426686,"st_perimeter(shape)":0.03572983644596937}},{"arcs":[[295,296,-284,297,-282,298]],"type":"Polygon","properties":{"objectid":71597,"statename":"Uttar Pradesh","statecode":"9","districtname":"Ghaziabad","districtcode":"140","ulbname":"Ghaziabad","ulbcode":"800734","wardname":"Vaishali I 76","wardcode":"76","id":null,"status":"APPROVED","misglobalid":null,"approved_by":null,"createdate":1641555591000,"updateddate":1647172284000,"globalid":null,"gisglobalid":"RalomoQ6-RKQl-PoQ6-asoQ-Qan4lsd4PKcK","remark":"","st_area(shape)":0.00006715442009126729,"st_perimeter(shape)":0.04316245007476556}},{"arcs":[[-299,-286,299,300,301]],"type":"Polygon","properties":{"objectid":84209,"statename":"Uttar Pradesh","statecode":"9","districtname":"Ghaziabad","districtcode":"140","ulbname":"Ghaziabad","ulbcode":"800734","wardname":"Vaishali II 77","wardcode":"77","id":null,"status":"APPROVED","misglobalid":null,"approved_by":null,"createdate":1642418401000,"updateddate":1647172372000,"globalid":null,"gisglobalid":"oRccsQdP-B4lB-PlRn-RdmQ-d4mdQQc64sPd","remark":"","st_area(shape)":0.00005057018939771965,"st_perimeter(shape)":0.035100190191317944}},{"arcs":[[302,-288,303,-169,-168,304]],"type":"Polygon","properties":{"objectid":69952,"statename":"Uttar Pradesh","statecode":"9","districtname":"Ghaziabad","districtcode":"140","ulbname":"Ghaziabad","ulbcode":"800734","wardname":"Shalimar Garden Extension Ii 73","wardcode":"78","id":null,"status":"APPROVED","misglobalid":null,"approved_by":null,"createdate":1641537808000,"updateddate":1647172448000,"globalid":null,"gisglobalid":"oQaQlBQm-BKcd-PdQ4-aomc-mdssP5somQd4","remark":"","st_area(shape)":0.000044648815157723796,"st_perimeter(shape)":0.027763467959759664}},{"arcs":[[-281,-289,-303,305,-260,306,-267,307,-256,308,309]],"type":"Polygon","properties":{"objectid":81860,"statename":"Uttar Pradesh","statecode":"9","districtname":"Ghaziabad","districtcode":"140","ulbname":"Ghaziabad","ulbcode":"800734","wardname":"Rajender Nagar (Sector 3) 80","wardcode":"80","id":null,"status":"APPROVED","misglobalid":null,"approved_by":null,"createdate":1642417076000,"updateddate":1647172598000,"globalid":null,"gisglobalid":"PPmsdalK-lKcc-P54o-QBll-dscmamcaKmc6","remark":"","st_area(shape)":0.00009999987353206736,"st_perimeter(shape)":0.0638831799985748}},{"arcs":[[310,-171,311]],"type":"Polygon","properties":{"objectid":69902,"statename":"Uttar Pradesh","statecode":"9","districtname":"Ghaziabad","districtcode":"140","ulbname":"Ghaziabad","ulbcode":"800734","wardname":"Jawahar Park 82","wardcode":"82","id":null,"status":"APPROVED","misglobalid":null,"approved_by":null,"createdate":1641552778000,"updateddate":1647172735000,"globalid":null,"gisglobalid":"5mBmP5K6-5so5-P456-Q4ll-oPnRRKslRaBc","remark":"","st_area(shape)":0.000016563836990130223,"st_perimeter(shape)":0.017407074464564902}},{"arcs":[[-246,312,-309,-255,-294,313]],"type":"Polygon","properties":{"objectid":65731,"statename":"Uttar Pradesh","statecode":"9","districtname":"Ghaziabad","districtcode":"140","ulbname":"Ghaziabad","ulbcode":"800734","wardname":"Shyam Park Extension 83","wardcode":"83","id":null,"status":"APPROVED","misglobalid":null,"approved_by":null,"createdate":1640950236000,"updateddate":1647172819000,"globalid":null,"gisglobalid":"nQlaQnPo-4B4P-Pasc-QR4Q-a6dnn6llK6sl","remark":"","st_area(shape)":0.00007836940243232224,"st_perimeter(shape)":0.04376406080452644}},{"arcs":[[-270,314,-277]],"type":"Polygon","properties":{"objectid":66899,"statename":"Uttar Pradesh","statecode":"9","districtname":"Ghaziabad","districtcode":"140","ulbname":"Ghaziabad","ulbcode":"800734","wardname":"Raj Nagar 84","wardcode":"84","id":null,"status":"APPROVED","misglobalid":null,"approved_by":null,"createdate":1640853949000,"updateddate":1647173056000,"globalid":null,"gisglobalid":"mdQlPRnQ-RaBn-PcPQ-amBc-sdQl6BR65sn6","remark":"","st_area(shape)":0.000215282744176584,"st_perimeter(shape)":0.05796948974139577}},{"arcs":[[-130,-247,-314,-293]],"type":"Polygon","properties":{"objectid":66960,"statename":"Uttar Pradesh","statecode":"9","districtname":"Ghaziabad","districtcode":"140","ulbname":"Ghaziabad","ulbcode":"800734","wardname":"Lajpat Nagar Ii 85","wardcode":"85","id":null,"status":"APPROVED","misglobalid":null,"approved_by":null,"createdate":1640938400000,"updateddate":1647173218000,"globalid":null,"gisglobalid":"dnc44cdc-Qln4-PBcs-R6on-nl5alKoR4mcs","remark":"","st_area(shape)":0.000041917450686559096,"st_perimeter(shape)":0.03384550375075942}},{"arcs":[[-313,-245,315,-279,316,-310]],"type":"Polygon","properties":{"objectid":83809,"statename":"Uttar Pradesh","statecode":"9","districtname":"Ghaziabad","districtcode":"140","ulbname":"Ghaziabad","ulbcode":"800734","wardname":"Rajender Nagar Sector5 86 ","wardcode":"86","id":null,"status":"APPROVED","misglobalid":null,"approved_by":null,"createdate":1642417282000,"updateddate":1647173309000,"globalid":null,"gisglobalid":"KmBsQB6o-BdPa-PPQ6-adQR-5sPBPBQBcQn4","remark":"","st_area(shape)":0.00005792324481383662,"st_perimeter(shape)":0.031678717811713775}},{"arcs":[[-226,-148,-240,-53,317,-179]],"type":"Polygon","properties":{"objectid":64414,"statename":"Uttar Pradesh","statecode":"9","districtname":"Ghaziabad","districtcode":"140","ulbname":"Ghaziabad","ulbcode":"800734","wardname":"Shyam Park Extension 83","wardcode":"88","id":null,"status":"APPROVED","misglobalid":null,"approved_by":null,"createdate":1640950601000,"updateddate":1647173424000,"globalid":null,"gisglobalid":"dmdo6odo-BdaR-Pa56-sd45-6mcB4lKQdsBs","remark":"","st_area(shape)":0.0000375822017337528,"st_perimeter(shape)":0.03428028570951203}},{"arcs":[[318,-291,319,320,-302,321,-167]],"type":"Polygon","properties":{"objectid":81862,"statename":"Uttar Pradesh","statecode":"9","districtname":"Ghaziabad","districtcode":"140","ulbname":"Ghaziabad","ulbcode":"800734","wardname":"Vaishali III 89","wardcode":"89","id":null,"status":"APPROVED","misglobalid":null,"approved_by":null,"createdate":1642418590000,"updateddate":1647173524000,"globalid":null,"gisglobalid":"6s6PnPoc-4l54-PPQm-RmB4-dnPcnBPR54l5","remark":"","st_area(shape)":0.00009968293563691098,"st_perimeter(shape)":0.04596724127082382}},{"arcs":[[-287,-154,322,323,-312,-170,-304]],"type":"Polygon","properties":{"objectid":70379,"statename":"Uttar Pradesh","statecode":"9","districtname":"Ghaziabad","districtcode":"140","ulbname":"Ghaziabad","ulbcode":"800734","wardname":"Shaheed Nagar Ii 90","wardcode":"90","id":null,"status":"APPROVED","misglobalid":null,"approved_by":null,"createdate":1641555327000,"updateddate":1647173609000,"globalid":null,"gisglobalid":"BKcsBoaR-6mP6-P6PB-Qmsm-5dmadclndc4B","remark":"","st_area(shape)":0.00003232726215683259,"st_perimeter(shape)":0.024448226354790784}},{"arcs":[[-263,324,325,-315,-211,-82,326]],"type":"Polygon","properties":{"objectid":84616,"statename":"Uttar Pradesh","statecode":"9","districtname":"Ghaziabad","districtcode":"140","ulbname":"Ghaziabad","ulbcode":"800734","wardname":"Kavi Nagar 91","wardcode":"91","id":null,"status":"APPROVED","misglobalid":null,"approved_by":null,"createdate":1642415217000,"updateddate":1647173707000,"globalid":null,"gisglobalid":"nanaB5n6-Kd45-PsmP-RoB6-46QcsB66R6mK","remark":"","st_area(shape)":0.0001294040235959259,"st_perimeter(shape)":0.049355825887510744}},{"arcs":[[327,328,-205,-77,-39,329,-88]],"type":"Polygon","properties":{"objectid":81857,"statename":"Uttar Pradesh","statecode":"9","districtname":"Ghaziabad","districtcode":"140","ulbname":"Ghaziabad","ulbcode":"800734","wardname":"Kaila (Islamnagar)92","wardcode":"92","id":null,"status":"APPROVED","misglobalid":null,"approved_by":null,"createdate":1642414696000,"updateddate":1647173792000,"globalid":null,"gisglobalid":"dscB5osc-PBPd-PomK-sRKn-oa6BR5da56d6","remark":"","st_area(shape)":0.00007396497936876387,"st_perimeter(shape)":0.04921350042633114}},{"arcs":[[330,-104,331,-248,-206,-329]],"type":"Polygon","properties":{"objectid":84613,"statename":"Uttar Pradesh","statecode":"9","districtname":"Ghaziabad","districtcode":"140","ulbname":"Ghaziabad","ulbcode":"800734","wardname":"Kaila Bhatta 93","wardcode":"93","id":null,"status":"APPROVED","misglobalid":null,"approved_by":null,"createdate":1642414443000,"updateddate":1647173900000,"globalid":null,"gisglobalid":"nnK6sKKP-oPa5-PKlP-Q4n6-d66BdRBPa5sl","remark":"","st_area(shape)":0.000085783307290346,"st_perimeter(shape)":0.048295769570262895}},{"arcs":[[332,-274,333,334]],"type":"Polygon","properties":{"objectid":84208,"statename":"Uttar Pradesh","statecode":"9","districtname":"Ghaziabad","districtcode":"140","ulbname":"Ghaziabad","ulbcode":"800734","wardname":"Surya Nagar 94","wardcode":"94","id":null,"status":"APPROVED","misglobalid":null,"approved_by":null,"createdate":1642418212000,"updateddate":1647174539000,"globalid":null,"gisglobalid":"c6QR4a6s-cKaQ-PQ5n-Rl45-6cmKdR4QRRma","remark":"","st_area(shape)":0.00005432406605348737,"st_perimeter(shape)":0.03266679163045362}},{"arcs":[[-331,-328,-87,-239,-150,-122,-105]],"type":"Polygon","properties":{"objectid":85007,"statename":"Uttar Pradesh","statecode":"9","districtname":"Ghaziabad","districtcode":"140","ulbname":"Ghaziabad","ulbcode":"800734","wardname":"Kaila (Prem Nagar) (Jassipura) 95","wardcode":"95","id":null,"status":"APPROVED","misglobalid":null,"approved_by":null,"createdate":1642416392000,"updateddate":1647174387000,"globalid":null,"gisglobalid":"mPs4Padc-Knac-Pam5-anmR-lc4Ka4RdmlKa","remark":"","st_area(shape)":0.00002453302251059725,"st_perimeter(shape)":0.022775318154474478}},{"arcs":[[-32,335,-325,-265,-180,-318,-56]],"type":"Polygon","properties":{"objectid":64910,"statename":"Uttar Pradesh","statecode":"9","districtname":"Ghaziabad","districtcode":"140","ulbname":"Ghaziabad","ulbcode":"800734","wardname":"Nehru Nagar Iii 96","wardcode":"96","id":null,"status":"APPROVED","misglobalid":null,"approved_by":null,"createdate":1640945838000,"updateddate":1647174787000,"globalid":null,"gisglobalid":"ldKa4lcs-nocl-PmBd-s6s4-o566mPdKa4Rd","remark":"","st_area(shape)":0.00010535693527746951,"st_perimeter(shape)":0.066203039133951}},{"arcs":[[-334,-273,336,-198,-192,337]],"type":"Polygon","properties":{"objectid":72406,"statename":"Uttar Pradesh","statecode":"9","districtname":"Ghaziabad","districtcode":"140","ulbname":"Ghaziabad","ulbcode":"800734","wardname":"Ramprastha 97","wardcode":"97","id":null,"status":"APPROVED","misglobalid":null,"approved_by":null,"createdate":1641555101000,"updateddate":1647174941000,"globalid":null,"gisglobalid":"nclKanB5-PQ6o-PmK5-Qmln-anQsBal6mc6s","remark":"","st_area(shape)":0.0000854244918212738,"st_perimeter(shape)":0.045605389148255356}}]}}}