{"type":"Topology","arcs":[[[42449,83909],[-817,-2256]],[[41632,81653],[-3877,-2857]],[[37755,78796],[-408,-1804]],[[37347,76992],[3061,-3158]],[[40408,73834],[612,-1203]],[[41020,72631],[-816,-151]],[[40204,72480],[-204,-300]],[[40000,72180],[204,-2857],[-3470,-1203],[-1224,-1053],[-204,-301]],[[35306,66766],[-5102,3760],[-7959,5112],[10612,10075],[9592,-1804]],[[65510,88871],[-6123,-13233]],[[59387,75638],[-2653,-2255]],[[56734,73383],[-6530,150]],[[50204,73533],[-817,-6165]],[[49387,67368],[-4285,-151]],[[45102,67217],[-409,1053]],[[44693,68270],[-2040,-301]],[[42653,67969],[612,-2556]],[[43265,65413],[-1021,-150]],[[42244,65263],[205,-1805],[-3470,1805],[-3673,1503]],[[35306,66766],[1428,1203],[3674,1354],[-408,2857]],[[40000,72180],[204,300]],[[41020,72631],[-612,1203]],[[40408,73834],[-3061,3158]],[[37347,76992],[408,1804]],[[37755,78796],[3877,2857]],[[42449,83909],[23061,4962]],[[74081,65864],[-4286,-3158]],[[69795,62706],[-3265,-902]],[[66530,61804],[-1225,0]],[[65305,61804],[-1836,-150]],[[63469,61654],[-408,-151]],[[63061,61503],[612,902]],[[63673,62405],[408,2256]],[[64081,64661],[0,451]],[[64081,65112],[-2449,2256]],[[61632,67368],[204,300]],[[61836,67668],[-2857,3158]],[[58979,70826],[-816,151]],[[58163,70977],[-817,601]],[[57346,71578],[2041,4060]],[[65510,88871],[2653,6166],[10204,4962],[10612,-451],[10816,-5865],[204,-13533],[-20000,-7369],[-5918,-6917]],[[61632,67368],[2449,-2256]],[[64081,64661],[-408,-2256]],[[63061,61503],[-12041,-3759]],[[51020,57744],[-3469,2707]],[[47551,60451],[-5102,2706]],[[42449,63157],[0,151],[0,1654],[-205,301]],[[43265,65413],[-612,2556]],[[44693,68270],[409,-1053]],[[49387,67368],[817,6165]],[[56734,73383],[612,-1805]],[[57346,71578],[817,-601]],[[58979,70826],[2857,-3158]],[[41020,58496],[204,1052]],[[41224,59548],[1225,3609]],[[47551,60451],[-6531,-1955]],[[41224,59548],[-12041,903]],[[29183,60451],[1225,1954]],[[30408,62405],[3061,-751],[204,3308],[816,-151],[409,452],[612,601],[612,602]],[[36122,66466],[204,0],[0,-151],[6123,-3158]],[[30408,62405],[-816,4361]],[[29592,66766],[612,3158]],[[30204,69924],[408,150]],[[30612,70074],[2041,-1654],[1836,-1052],[613,-451],[1020,-451]],[[30204,69924],[-612,-3158]],[[29183,60451],[-6938,601]],[[22245,61052],[-11837,-150],[-1224,-9324]],[[9184,51578],[-3470,-150]],[[5714,51428],[-2245,0]],[[3469,51428],[-3469,12632],[13877,2706],[8368,8722],[8367,-5414]],[[41020,58496],[-1633,-7369]],[[39387,51127],[-3877,-1203]],[[35510,49924],[-33265,-9473]],[[2245,40451],[1224,10977]],[[3469,51428],[2245,0]],[[5714,51428],[3470,150]],[[9184,51578],[1428,9474],[11633,0]],[[51020,57744],[3265,-5414]],[[54285,52330],[-14898,-1203]],[[63265,51578],[-8980,752]],[[63469,61654],[1836,0]],[[65305,61654],[-2040,-10076]],[[65305,61654],[0,150]],[[65305,61804],[1225,0]],[[69795,62706],[4286,3158]],[[74081,65864],[5306,5865]],[[79387,71729],[-3469,-15038],[-12653,-5113]],[[68979,47518],[-2449,0]],[[66530,47518],[-1020,-1203]],[[65510,46315],[-1429,0]],[[64081,46315],[-2041,-150]],[[62040,46165],[-5714,1654]],[[56326,47819],[-2041,4511]],[[79387,71729],[1837,-17143],[4694,-9774],[-16939,2706]],[[56326,47819],[408,-3609]],[[56734,44210],[-9592,4962]],[[47142,49172],[-11632,752]],[[47142,49172],[2858,-12330]],[[50000,36842],[-2041,-8271]],[[47959,28571],[6530,-2105]],[[54489,26466],[-4489,-13985]],[[50000,12481],[-5919,-10526]],[[44081,1955],[-10000,451],[-4285,7669],[-2857,25263],[-21225,-4511],[-3469,9624]],[[56734,44210],[816,-6616]],[[57550,37594],[-7550,-752]],[[62040,46165],[2041,150]],[[65510,46315],[1632,-8120]],[[67142,38195],[-1837,-1053]],[[65305,37142],[-7755,452]],[[50000,36842],[15305,300]],[[65305,37142],[1837,1053]],[[67142,38195],[-612,9323]],[[66530,47518],[2449,0]],[[68979,47518],[4694,-15939],[-5919,-3609],[2041,-12782],[-1224,-15188],[-24490,1955]],[[44081,1955],[5919,10526]],[[50000,12481],[4489,13985]],[[54489,26466],[-6530,2105]],[[47959,28571],[2041,8271]]],"transform":{"scale":[4.900049000490665e-7,6.650066500664963e-7],"translate":[77.5359,10.9669]},"objects":{"wards":{"type":"GeometryCollection","geometries":[{"arcs":[[0,1,2,3,4,5,6,7,8]],"type":"Polygon","properties":{"objectid":222495,"statename":"Tamil Nadu","statecode":"33","districtname":"Tiruppur","districtcode":"633","ulbname":"Kangeyam","ulbcode":"804012","wardname":"Ward 1","wardcode":"1","id":null,"status":"APPROVED","misglobalid":null,"approved_by":null,"createdate":1647351936000,"updateddate":1647354447000,"globalid":null,"gisglobalid":"mRnmKdl5-5lmc-PKln-Rsn6-446aRKs5lcm6","remark":"","st_area(shape)":0.00006549205413643183,"st_perimeter(shape)":0.04001634772210423}},{"arcs":[[9,10,11,12,13,14,15,16,17,18,19,20,-6,21,22,23,24,-1,25]],"type":"Polygon","properties":{"objectid":224093,"statename":"Tamil Nadu","statecode":"33","districtname":"Tiruppur","districtcode":"633","ulbname":"Kangeyam","ulbcode":"804012","wardname":"Ward 2","wardcode":"2","id":null,"status":"APPROVED","misglobalid":null,"approved_by":null,"createdate":1647357273000,"updateddate":1647358062000,"globalid":null,"gisglobalid":"sdl5QaRc-45l6-P4om-s646-BdcBQKBa4QQQ","remark":"","st_area(shape)":0.00012407335078075757,"st_perimeter(shape)":0.06747777236893977}},{"arcs":[[26,27,28,29,30,31,32,33,34,35,36,37,38,39,-10,40]],"type":"Polygon","properties":{"objectid":224509,"statename":"Tamil Nadu","statecode":"33","districtname":"Tiruppur","districtcode":"633","ulbname":"Kangeyam","ulbcode":"804012","wardname":"Ward 3","wardcode":"3","id":null,"status":"APPROVED","misglobalid":null,"approved_by":null,"createdate":1647356766000,"updateddate":1647357391000,"globalid":null,"gisglobalid":"sKlRB65a-Q6aK-Pla4-adnR-n5BaRBd5Bdd6","remark":"","st_area(shape)":0.00031545031594066143,"st_perimeter(shape)":0.0766219727739013}},{"arcs":[[41,-34,42,-32,43,44,45,46,-18,47,-16,48,-14,49,-12,50,51,-38,52,-36]],"type":"Polygon","properties":{"objectid":222915,"statename":"Tamil Nadu","statecode":"33","districtname":"Tiruppur","districtcode":"633","ulbname":"Kangeyam","ulbcode":"804012","wardname":"Ward 4","wardcode":"4","id":null,"status":"APPROVED","misglobalid":null,"approved_by":null,"createdate":1647354790000,"updateddate":1647357433000,"globalid":null,"gisglobalid":"Pss4cPna-R4cB-Pm46-Q6lR-Plcs5mBRd4Pm","remark":"","st_area(shape)":0.00007045930799991539,"st_perimeter(shape)":0.038024355091238866}},{"arcs":[[53,54,-46,55]],"type":"Polygon","properties":{"objectid":222926,"statename":"Tamil Nadu","statecode":"33","districtname":"Tiruppur","districtcode":"633","ulbname":"Kangeyam","ulbcode":"804012","wardname":"Ward 5","wardcode":"5","id":null,"status":"APPROVED","misglobalid":null,"approved_by":null,"createdate":1647348251000,"updateddate":1647357459000,"globalid":null,"gisglobalid":"la6nlKdB-5BRP-P5co-sooQ-QmRsQaBPBdas","remark":"","st_area(shape)":0.000006420412000045928,"st_perimeter(shape)":0.011336225236873249}},{"arcs":[[-55,56,57,58,59]],"type":"Polygon","properties":{"objectid":221662,"statename":"Tamil Nadu","statecode":"33","districtname":"Tiruppur","districtcode":"633","ulbname":"Kangeyam","ulbcode":"804012","wardname":"Ward 6","wardcode":"6","id":null,"status":"APPROVED","misglobalid":null,"approved_by":null,"createdate":1647348274000,"updateddate":1647357485000,"globalid":null,"gisglobalid":"BRnKmoKo-n4a5-Ps4n-QQ4o-QoooRc4Raol6","remark":"","st_area(shape)":0.00001794939700006205,"st_perimeter(shape)":0.02076871098766054}},{"arcs":[[60,61,62,63,-59]],"type":"Polygon","properties":{"objectid":224521,"statename":"Tamil Nadu","statecode":"33","districtname":"Tiruppur","districtcode":"633","ulbname":"Kangeyam","ulbcode":"804012","wardname":"Ward 7","wardcode":"7","id":null,"status":"APPROVED","misglobalid":null,"approved_by":null,"createdate":1647348302000,"updateddate":1647357504000,"globalid":null,"gisglobalid":"nn4d6RPm-m5ds-PacB-QQsQ-nR6K5PsBn44B","remark":"","st_area(shape)":0.000010012633999996006,"st_perimeter(shape)":0.01469836857438426}},{"arcs":[[-63,64,-61,-58,65,66,67,68,69]],"type":"Polygon","properties":{"objectid":221663,"statename":"Tamil Nadu","statecode":"33","districtname":"Tiruppur","districtcode":"633","ulbname":"Kangeyam","ulbcode":"804012","wardname":"Ward 8","wardcode":"8","id":null,"status":"APPROVED","misglobalid":null,"approved_by":null,"createdate":1647349745000,"updateddate":1647357528000,"globalid":null,"gisglobalid":"oBcndQal-dKKs-P5dQ-Ranl-Bssd5o6alo4P","remark":"","st_area(shape)":0.00009999855241713116,"st_perimeter(shape)":0.06085300092725471}},{"arcs":[[-54,70,71,72,73,74,75,76,-66,-57]],"type":"Polygon","properties":{"objectid":221664,"statename":"Tamil Nadu","statecode":"33","districtname":"Tiruppur","districtcode":"633","ulbname":"Kangeyam","ulbcode":"804012","wardname":"Ward 9","wardcode":"9","id":null,"status":"APPROVED","misglobalid":null,"approved_by":null,"createdate":1647349905000,"updateddate":1647357549000,"globalid":null,"gisglobalid":"m554Q5K5-PKBl-Pos4-a5Bs-4QsoocQBdQ5B","remark":"","st_area(shape)":0.00016069960554157065,"st_perimeter(shape)":0.06564431067372468}},{"arcs":[[77,78,-71,-56,-45]],"type":"Polygon","properties":{"objectid":224522,"statename":"Tamil Nadu","statecode":"33","districtname":"Tiruppur","districtcode":"633","ulbname":"Kangeyam","ulbcode":"804012","wardname":"Ward 10","wardcode":"10","id":null,"status":"APPROVED","misglobalid":null,"approved_by":null,"createdate":1647348371000,"updateddate":1647357575000,"globalid":null,"gisglobalid":"BlQmdlRP-aBlB-PnRa-QRmK-msnP56BKsPn5","remark":"","st_area(shape)":0.000027638993999773328,"st_perimeter(shape)":0.02411945802756486}},{"arcs":[[79,-78,-44,-31,80,81]],"type":"Polygon","properties":{"objectid":222501,"statename":"Tamil Nadu","statecode":"33","districtname":"Tiruppur","districtcode":"633","ulbname":"Kangeyam","ulbcode":"804012","wardname":"Ward 11","wardcode":"11","id":null,"status":"APPROVED","misglobalid":null,"approved_by":null,"createdate":1647348750000,"updateddate":1647357599000,"globalid":null,"gisglobalid":"o55somKB-comK-PKdn-QP54-4BRQco5aoR6m","remark":"","st_area(shape)":0.000029276346499886345,"st_perimeter(shape)":0.023087583698045717}},{"arcs":[[-82,82,83,-28,84,85,86]],"type":"Polygon","properties":{"objectid":224523,"statename":"Tamil Nadu","statecode":"33","districtname":"Tiruppur","districtcode":"633","ulbname":"Kangeyam","ulbcode":"804012","wardname":"Ward 12","wardcode":"12","id":null,"status":"APPROVED","misglobalid":null,"approved_by":null,"createdate":1647348399000,"updateddate":1647357633000,"globalid":null,"gisglobalid":"5oanPRRP-lRo4-PlcP-aKRc-564dcnnm4c4a","remark":"","st_area(shape)":0.00004199431799994894,"st_perimeter(shape)":0.03784697059456602}},{"arcs":[[87,88,89,90,91,92,-80,-87,93]],"type":"Polygon","properties":{"objectid":221668,"statename":"Tamil Nadu","statecode":"33","districtname":"Tiruppur","districtcode":"633","ulbname":"Kangeyam","ulbcode":"804012","wardname":"Ward 13","wardcode":"13","id":null,"status":"APPROVED","misglobalid":null,"approved_by":null,"createdate":1647350350000,"updateddate":1647357655000,"globalid":null,"gisglobalid":"4l5RsK6m-KssR-Ponn-aRac-KBP4PlK6dl5Q","remark":"","st_area(shape)":0.00009211287764279296,"st_perimeter(shape)":0.06546102847188479}},{"arcs":[[-93,94,95,96,-72,-79]],"type":"Polygon","properties":{"objectid":222927,"statename":"Tamil Nadu","statecode":"33","districtname":"Tiruppur","districtcode":"633","ulbname":"Kangeyam","ulbcode":"804012","wardname":"Ward 14","wardcode":"14","id":null,"status":"APPROVED","misglobalid":null,"approved_by":null,"createdate":1647348465000,"updateddate":1647357695000,"globalid":null,"gisglobalid":"Rama4aoa-nsKl-Pnn5-RlRo-lRBBRB4msnKn","remark":"","st_area(shape)":0.000020344582500053326,"st_perimeter(shape)":0.027983283905511656}},{"arcs":[[97,98,99,100,101,102,-73,-97]],"type":"Polygon","properties":{"objectid":221669,"statename":"Tamil Nadu","statecode":"33","districtname":"Tiruppur","districtcode":"633","ulbname":"Kangeyam","ulbcode":"804012","wardname":"Ward 15","wardcode":"15","id":null,"status":"APPROVED","misglobalid":null,"approved_by":null,"createdate":1647350579000,"updateddate":1647357715000,"globalid":null,"gisglobalid":"dscQ4KQs-aoB6-P4PK-adQo-msn4Bo4cP4PQ","remark":"","st_area(shape)":0.0003965509313744482,"st_perimeter(shape)":0.10523309402657165}},{"arcs":[[103,104,-98,-96]],"type":"Polygon","properties":{"objectid":224524,"statename":"Tamil Nadu","statecode":"33","districtname":"Tiruppur","districtcode":"633","ulbname":"Kangeyam","ulbcode":"804012","wardname":"Ward 16","wardcode":"16","id":null,"status":"APPROVED","misglobalid":null,"approved_by":null,"createdate":1647348536000,"updateddate":1647357774000,"globalid":null,"gisglobalid":"RsmQsn6o-5ao5-PPQ4-R4Qc-KdamPQaBPK4R","remark":"","st_area(shape)":0.00003691525250000005,"st_perimeter(shape)":0.025415314874583646}},{"arcs":[[105,-90,106,107,108,-104,-95,-92]],"type":"Polygon","properties":{"objectid":222928,"statename":"Tamil Nadu","statecode":"33","districtname":"Tiruppur","districtcode":"633","ulbname":"Kangeyam","ulbcode":"804012","wardname":"Ward 17","wardcode":"17","id":null,"status":"APPROVED","misglobalid":null,"approved_by":null,"createdate":1647348562000,"updateddate":1647357807000,"globalid":null,"gisglobalid":"aQQncB4d-n4la-PQs5-QBBm-QP5msdmls55a","remark":"","st_area(shape)":0.000027987246499991275,"st_perimeter(shape)":0.023636148263445997}},{"arcs":[[109,110,111,112,113,114,115,116,117]],"type":"Polygon","properties":{"objectid":224532,"statename":"Tamil Nadu","statecode":"33","districtname":"Tiruppur","districtcode":"633","ulbname":"Kangeyam","ulbcode":"804012","wardname":"Ward 18","wardcode":"18","id":null,"status":"APPROVED","misglobalid":null,"approved_by":null,"createdate":1647354269000,"updateddate":1647357840000,"globalid":null,"gisglobalid":"KKo464Kn-RnK6-P4a5-QKls-PdPRc4aPco5B","remark":"","st_area(shape)":0.00025462862524364024,"st_perimeter(shape)":0.11090613223817734}}]}}}