{"type": "FeatureCollection", "features": [{"type": "Feature", "geometry": {"type": "Polygon", "coordinates": [[[79.5728, 25.5933], [79.5734, 25.5932], [79.574, 25.5932], [79.5743, 25.5932], [79.5746, 25.5932], [79.5748, 25.5932], [79.5751, 25.5931], [79.5753, 25.5931], [79.5756, 25.593], [79.5758, 25.593], [79.576, 25.5929], [79.5763, 25.5929], [79.5766, 25.5928], [79.5768, 25.5927], [79.577, 25.5926], [79.5773, 25.5925], [79.5775, 25.5925], [79.5778, 25.5924], [79.5781, 25.5924], [79.5783, 25.5923], [79.5787, 25.5921], [79.5792, 25.5919], [79.5795, 25.5917], [79.5797, 25.5916], [79.5801, 25.5914], [79.5803, 25.5913], [79.5804, 25.5913], [79.5807, 25.5912], [79.5809, 25.5912], [79.5815, 25.5909], [79.582, 25.5908], [79.5823, 25.5907], [79.5827, 25.5906], [79.5828, 25.5905], [79.5829, 25.5905], [79.583, 25.5905], [79.5834, 25.5904], [79.5835, 25.5904], [79.5836, 25.5904], [79.5838, 25.5904], [79.5839, 25.5903], [79.584, 25.5901], [79.584, 25.5899], [79.5841, 25.5898], [79.5841, 25.5895], [79.5841, 25.5894], [79.5841, 25.5892], [79.584, 25.589], [79.584, 25.5888], [79.584, 25.5886], [79.5839, 25.5884], [79.5837, 25.5879], [79.5837, 25.5878], [79.5836, 25.5877], [79.5835, 25.5875], [79.5835, 25.5874], [79.5834, 25.5873], [79.5833, 25.5872], [79.5832, 25.5871], [79.5831, 25.5869], [79.583, 25.5869], [79.583, 25.5868], [79.5829, 25.5867], [79.5827, 25.5866], [79.5826, 25.5865], [79.5824, 25.5864], [79.5823, 25.5863], [79.5822, 25.5862], [79.5821, 25.5862], [79.582, 25.5862], [79.5819, 25.5862], [79.5818, 25.5861], [79.5817, 25.5862], [79.5815, 25.5862], [79.5814, 25.5862], [79.5814, 25.5863], [79.5813, 25.5863], [79.581, 25.5864], [79.5808, 25.5865], [79.5805, 25.5867], [79.5803, 25.5868], [79.5802, 25.5868], [79.5799, 25.587], [79.5798, 25.587], [79.5797, 25.5871], [79.5796, 25.5871], [79.5795, 25.5872], [79.5794, 25.5872], [79.5794, 25.5873], [79.5793, 25.5873], [79.5792, 25.5873], [79.5792, 25.5874], [79.5791, 25.5874], [79.5789, 25.5876], [79.5789, 25.5877], [79.5788, 25.5877], [79.5787, 25.5877], [79.5786, 25.5878], [79.5785, 25.5878], [79.5784, 25.5878], [79.5784, 25.5879], [79.5783, 25.5879], [79.5782, 25.5879], [79.5781, 25.588], [79.578, 25.588], [79.578, 25.5881], [79.5779, 25.5881], [79.5778, 25.5881], [79.5777, 25.5882], [79.5776, 25.5882], [79.5775, 25.5882], [79.5775, 25.5883], [79.5774, 25.5883], [79.5773, 25.5884], [79.5772, 25.5884], [79.5771, 25.5885], [79.577, 25.5885], [79.5769, 25.5885], [79.5769, 25.5886], [79.5768, 25.5886], [79.5767, 25.5887], [79.5766, 25.5887], [79.5765, 25.5887], [79.5764, 25.5888], [79.5763, 25.5888], [79.5762, 25.5888], [79.5762, 25.5889], [79.5761, 25.5889], [79.576, 25.5889], [79.5759, 25.589], [79.5758, 25.589], [79.5757, 25.5891], [79.5756, 25.5891], [79.5755, 25.5892], [79.5754, 25.5892], [79.5752, 25.5892], [79.5751, 25.5893], [79.575, 25.5893], [79.5748, 25.5893], [79.5747, 25.5894], [79.5746, 25.5894], [79.5745, 25.5894], [79.5745, 25.5893], [79.5744, 25.5893], [79.5743, 25.5892], [79.5742, 25.5892], [79.5741, 25.5892], [79.574, 25.5891], [79.574, 25.5892], [79.5739, 25.5891], [79.5738, 25.589], [79.5737, 25.589], [79.5736, 25.5889], [79.5736, 25.5888], [79.5735, 25.5888], [79.5735, 25.5887], [79.5734, 25.5887], [79.5734, 25.5886], [79.5733, 25.5886], [79.5732, 25.5886], [79.5731, 25.5886], [79.573, 25.5886], [79.5728, 25.5887], [79.5726, 25.5887], [79.5724, 25.5888], [79.572, 25.5889], [79.5717, 25.589], [79.5715, 25.589], [79.5713, 25.589], [79.5712, 25.5891], [79.5711, 25.5891], [79.571, 25.5891], [79.5708, 25.5891], [79.5706, 25.5892], [79.5705, 25.5892], [79.5704, 25.5892], [79.5702, 25.5892], [79.5701, 25.5892], [79.57, 25.5893], [79.5699, 25.5893], [79.5698, 25.5893], [79.5697, 25.5893], [79.5696, 25.5893], [79.5693, 25.5894], [79.5691, 25.5896], [79.5688, 25.5897], [79.5687, 25.5899], [79.5686, 25.59], [79.5686, 25.5901], [79.5684, 25.5903], [79.5683, 25.5903], [79.5682, 25.5905], [79.5683, 25.5906], [79.5684, 25.5906], [79.5685, 25.5907], [79.5687, 25.5909], [79.5687, 25.591], [79.5688, 25.5911], [79.5689, 25.5913], [79.569, 25.5913], [79.5691, 25.5915], [79.5691, 25.5916], [79.5693, 25.5917], [79.5694, 25.5917], [79.5694, 25.5918], [79.5695, 25.5918], [79.5696, 25.5919], [79.5697, 25.5919], [79.5698, 25.5919], [79.5698, 25.592], [79.5699, 25.592], [79.57, 25.5921], [79.5701, 25.5921], [79.5701, 25.5922], [79.5703, 25.5922], [79.5703, 25.5921], [79.5703, 25.592], [79.5704, 25.5919], [79.5704, 25.5918], [79.5703, 25.5918], [79.5703, 25.5917], [79.5703, 25.5916], [79.5704, 25.5916], [79.5705, 25.5916], [79.5706, 25.5916], [79.5707, 25.5915], [79.5708, 25.5915], [79.5709, 25.5915], [79.571, 25.5915], [79.5711, 25.5915], [79.5712, 25.5915], [79.5713, 25.5915], [79.5714, 25.5915], [79.5714, 25.5916], [79.5713, 25.5918], [79.5714, 25.592], [79.5714, 25.5922], [79.5715, 25.5922], [79.5715, 25.5923], [79.5715, 25.5924], [79.5717, 25.5925], [79.5718, 25.5925], [79.572, 25.5925], [79.5722, 25.5926], [79.5724, 25.5927], [79.5724, 25.5928], [79.5724, 25.5929], [79.5724, 25.5931], [79.5725, 25.5931], [79.5727, 25.5931], [79.5728, 25.5933]]]}, "properties": {"objectid": 309150, "statename": "UTTAR PRADESH", "statecode": "9", "districtname": "HAMIRPUR", "districtcode": "168", "ulbname": "NAGAR PALIKA PARISHAD RATH", "ulbcode": "801042", "wardname": "SIKANDARPURA", "wardcode": "1", "id": null, "status": "APPROVED", "misglobalid": null, "approved_by": null, "createdate": 1726730308000, "updateddate": 1728668428000, "globalid": null, "gisglobalid": "56ddlmQ5-QRln-P6sn-RQ6a-KslP6RQRRKKR", "remark": "OK", "st_area(shape)": 5.877567045835978e-05, "st_perimeter(shape)": 0.03940897316130525}}, {"type": "Feature", "geometry": {"type": "Polygon", "coordinates": [[[79.5747, 25.6086], [79.575, 25.6087], [79.5752, 25.6087], [79.5755, 25.6088], [79.5773, 25.6091], [79.5797, 25.6094], [79.5808, 25.6093], [79.5819, 25.6079], [79.5825, 25.6065], [79.5831, 25.6044], [79.5835, 25.603], [79.5831, 25.6019], [79.5823, 25.6021], [79.5814, 25.6025], [79.581, 25.6017], [79.5807, 25.6007], [79.5806, 25.6006], [79.5803, 25.6005], [79.5788, 25.6002], [79.5783, 25.6001], [79.5752, 25.5995], [79.5726, 25.5989], [79.5721, 25.599], [79.5714, 25.5996], [79.5702, 25.6005], [79.5698, 25.6008], [79.5708, 25.6024], [79.5709, 25.6024], [79.5711, 25.6024], [79.5713, 25.6026], [79.5716, 25.6031], [79.5716, 25.6034], [79.5715, 25.6035], [79.5712, 25.6035], [79.571, 25.6036], [79.5704, 25.6027], [79.5702, 25.6028], [79.5704, 25.6033], [79.5706, 25.6037], [79.571, 25.6046], [79.571, 25.6047], [79.5712, 25.6049], [79.5724, 25.6052], [79.5725, 25.6052], [79.5725, 25.6055], [79.5726, 25.6059], [79.5728, 25.6063], [79.5732, 25.607], [79.5733, 25.6072], [79.5737, 25.6082], [79.5738, 25.6083], [79.5747, 25.6086]]]}, "properties": {"objectid": 307339, "statename": "UTTAR PRADESH", "statecode": "9", "districtname": "HAMIRPUR", "districtcode": "168", "ulbname": "NAGAR PALIKA PARISHAD RATH", "ulbcode": "801042", "wardname": "PATHANPURA", "wardcode": "2", "id": null, "status": "APPROVED", "misglobalid": null, "approved_by": null, "createdate": 1726730938000, "updateddate": 1728668438000, "globalid": null, "gisglobalid": "aaPQQBsc-n6nn-P4on-aoBl-QK6no5n6nRRK", "remark": "OK", "st_area(shape)": 9.709850216373067e-05, "st_perimeter(shape)": 0.04327556251846836}}, {"type": "Feature", "geometry": {"type": "Polygon", "coordinates": [[[79.5664, 25.6002], [79.5665, 25.6003], [79.5664, 25.6002], [79.5669, 25.6006], [79.5668, 25.6007], [79.5669, 25.6009], [79.5669, 25.6015], [79.5669, 25.6019], [79.5668, 25.6025], [79.5668, 25.603], [79.5668, 25.6032], [79.5668, 25.6034], [79.5667, 25.6037], [79.5667, 25.6039], [79.5666, 25.604], [79.5664, 25.6041], [79.5663, 25.6043], [79.5663, 25.6044], [79.5662, 25.6047], [79.5662, 25.605], [79.5661, 25.6054], [79.566, 25.6055], [79.5659, 25.6056], [79.5658, 25.6057], [79.5658, 25.6061], [79.566, 25.6069], [79.5664, 25.608], [79.5667, 25.6088], [79.5671, 25.6091], [79.5685, 25.6092], [79.569, 25.6091], [79.5704, 25.6088], [79.5698, 25.6071], [79.5694, 25.6062], [79.569, 25.6056], [79.5688, 25.6051], [79.5687, 25.6049], [79.5686, 25.6043], [79.5682, 25.6033], [79.568, 25.6028], [79.568, 25.6025], [79.5679, 25.6024], [79.5678, 25.602], [79.5675, 25.6016], [79.5674, 25.6012], [79.5672, 25.6008], [79.5664, 25.599], [79.5659, 25.5978], [79.5658, 25.5975], [79.5657, 25.5972], [79.5655, 25.5968], [79.5654, 25.5969], [79.5651, 25.5969], [79.5651, 25.597], [79.565, 25.597], [79.5649, 25.5972], [79.5648, 25.5973], [79.5647, 25.5974], [79.5646, 25.5975], [79.5644, 25.5975], [79.5644, 25.5976], [79.5645, 25.5976], [79.5647, 25.5978], [79.5648, 25.5979], [79.5649, 25.5982], [79.5649, 25.5985], [79.565, 25.5987], [79.565, 25.5988], [79.5651, 25.599], [79.5654, 25.5993], [79.5658, 25.5996], [79.566, 25.5998], [79.5664, 25.6002]], [[79.5665, 25.6003], [79.5667, 25.6005], [79.5666, 25.6003], [79.5665, 25.6003]]]}, "properties": {"objectid": 309151, "statename": "UTTAR PRADESH", "statecode": "9", "districtname": "HAMIRPUR", "districtcode": "168", "ulbname": "NAGAR PALIKA PARISHAD RATH", "ulbcode": "801042", "wardname": "DIWANPURA", "wardcode": "3", "id": null, "status": "APPROVED", "misglobalid": null, "approved_by": null, "createdate": 1726732468000, "updateddate": 1728668445000, "globalid": null, "gisglobalid": "Qdoo4Ka6-cPcd-Ps6K-sR56-PKoK5anK6mao", "remark": "OK", "st_area(shape)": 2.3400790310408323e-05, "st_perimeter(shape)": 0.031928479211493825}}, {"type": "Feature", "geometry": {"type": "Polygon", "coordinates": [[[79.5681, 25.5905], [79.5682, 25.5905], [79.5683, 25.5903], [79.5684, 25.5902], [79.5685, 25.5902], [79.5685, 25.5901], [79.5686, 25.59], [79.5687, 25.5898], [79.5688, 25.5897], [79.5689, 25.5897], [79.569, 25.5896], [79.5691, 25.5895], [79.5692, 25.5895], [79.5693, 25.5894], [79.5696, 25.5893], [79.5697, 25.5893], [79.57, 25.5893], [79.5701, 25.5892], [79.5705, 25.5892], [79.5706, 25.5892], [79.5707, 25.5892], [79.5708, 25.5891], [79.5709, 25.5891], [79.5711, 25.5891], [79.5712, 25.5891], [79.5715, 25.589], [79.5716, 25.589], [79.5717, 25.589], [79.5719, 25.5889], [79.572, 25.5889], [79.5721, 25.5889], [79.5724, 25.5888], [79.5726, 25.5887], [79.573, 25.5886], [79.5732, 25.5886], [79.5733, 25.5886], [79.5735, 25.5887], [79.5735, 25.5888], [79.5736, 25.5888], [79.5737, 25.5889], [79.5737, 25.589], [79.5738, 25.589], [79.5739, 25.5891], [79.574, 25.5891], [79.5741, 25.5892], [79.5743, 25.5892], [79.5744, 25.5893], [79.5745, 25.5894], [79.5746, 25.5894], [79.5749, 25.5893], [79.5752, 25.5892], [79.5754, 25.5892], [79.5756, 25.5891], [79.5757, 25.5891], [79.5759, 25.589], [79.5761, 25.5889], [79.5763, 25.5888], [79.5764, 25.5888], [79.5765, 25.5887], [79.5766, 25.5887], [79.5768, 25.5886], [79.577, 25.5885], [79.5772, 25.5884], [79.5773, 25.5883], [79.5776, 25.5882], [79.578, 25.5881], [79.5783, 25.5879], [79.5785, 25.5878], [79.5787, 25.5877], [79.5788, 25.5877], [79.5789, 25.5876], [79.579, 25.5876], [79.5791, 25.5874], [79.5793, 25.5873], [79.5795, 25.5872], [79.5797, 25.5871], [79.5798, 25.587], [79.5799, 25.5869], [79.5802, 25.5868], [79.5803, 25.5868], [79.5804, 25.5867], [79.5807, 25.5866], [79.5809, 25.5865], [79.5811, 25.5864], [79.5813, 25.5863], [79.5814, 25.5862], [79.5815, 25.5862], [79.5817, 25.5862], [79.5818, 25.5861], [79.5829, 25.5857], [79.5837, 25.5851], [79.5846, 25.5848], [79.5849, 25.5846], [79.5855, 25.5845], [79.5858, 25.5844], [79.5861, 25.5843], [79.5864, 25.5842], [79.5867, 25.5841], [79.5868, 25.584], [79.5869, 25.5839], [79.5872, 25.5838], [79.5874, 25.5837], [79.5878, 25.5836], [79.5879, 25.5836], [79.5881, 25.5835], [79.5884, 25.5834], [79.5885, 25.5834], [79.5887, 25.5832], [79.5883, 25.5828], [79.588, 25.5826], [79.5876, 25.5823], [79.5874, 25.5821], [79.5872, 25.582], [79.5869, 25.5818], [79.5868, 25.5817], [79.5866, 25.5816], [79.5864, 25.5814], [79.586, 25.5812], [79.5857, 25.5809], [79.5854, 25.5807], [79.5851, 25.5804], [79.5849, 25.5803], [79.5848, 25.5803], [79.5846, 25.5802], [79.5844, 25.58], [79.5842, 25.5798], [79.5841, 25.5798], [79.584, 25.5796], [79.5837, 25.5793], [79.5836, 25.5794], [79.5833, 25.5797], [79.5829, 25.58], [79.5827, 25.5801], [79.5825, 25.5803], [79.5823, 25.5804], [79.5822, 25.5804], [79.582, 25.5805], [79.582, 25.5806], [79.5819, 25.5806], [79.5816, 25.5808], [79.5811, 25.581], [79.5806, 25.5812], [79.5803, 25.5813], [79.5802, 25.5814], [79.5801, 25.5814], [79.58, 25.5815], [79.5799, 25.5815], [79.5797, 25.5816], [79.5795, 25.5817], [79.5792, 25.5818], [79.5791, 25.5818], [79.5788, 25.582], [79.5784, 25.5822], [79.5781, 25.5823], [79.5779, 25.5824], [79.5775, 25.5825], [79.5774, 25.5826], [79.5771, 25.5827], [79.577, 25.5828], [79.5767, 25.5829], [79.5764, 25.583], [79.5761, 25.5832], [79.5757, 25.5833], [79.5754, 25.5834], [79.5751, 25.5836], [79.5747, 25.5838], [79.5744, 25.584], [79.574, 25.5841], [79.5737, 25.5844], [79.5734, 25.5845], [79.5732, 25.5848], [79.5728, 25.5851], [79.5726, 25.5852], [79.5725, 25.5853], [79.5724, 25.5854], [79.5723, 25.5855], [79.5721, 25.5857], [79.5719, 25.5858], [79.5718, 25.5859], [79.5716, 25.5861], [79.5714, 25.5863], [79.5713, 25.5865], [79.5711, 25.5868], [79.571, 25.5868], [79.5708, 25.587], [79.5708, 25.5871], [79.5706, 25.5872], [79.5703, 25.5875], [79.5701, 25.5877], [79.57, 25.5878], [79.5699, 25.588], [79.5698, 25.5881], [79.5695, 25.5884], [79.5692, 25.5887], [79.569, 25.5889], [79.5689, 25.589], [79.5687, 25.5892], [79.5685, 25.5895], [79.5683, 25.5896], [79.5681, 25.5898], [79.5679, 25.5903], [79.568, 25.5904], [79.5681, 25.5905]]]}, "properties": {"objectid": 307340, "statename": "UTTAR PRADESH", "statecode": "9", "districtname": "HAMIRPUR", "districtcode": "168", "ulbname": "NAGAR PALIKA PARISHAD RATH", "ulbcode": "801042", "wardname": "SIKANDARPURA2", "wardcode": "4", "id": null, "status": "APPROVED", "misglobalid": null, "approved_by": null, "createdate": 1726737785000, "updateddate": 1728668452000, "globalid": null, "gisglobalid": "PdlQmRQQ-dPld-PdBl-sPsd-nmo66dKRnPdB", "remark": "OK", "st_area(shape)": 8.269085977946168e-05, "st_perimeter(shape)": 0.0490577498856081}}, {"type": "Feature", "geometry": {"type": "Polygon", "coordinates": [[[79.5695, 25.5883], [79.5699, 25.5879], [79.5705, 25.5872], [79.5711, 25.5866], [79.572, 25.5857], [79.5721, 25.5856], [79.5722, 25.5855], [79.5725, 25.5853], [79.5727, 25.585], [79.5729, 25.5849], [79.573, 25.5848], [79.5732, 25.5847], [79.5735, 25.5844], [79.5736, 25.5843], [79.5737, 25.5843], [79.5738, 25.5842], [79.5739, 25.5841], [79.574, 25.5841], [79.5741, 25.584], [79.5742, 25.584], [79.5743, 25.5839], [79.5744, 25.5839], [79.5745, 25.5838], [79.5746, 25.5838], [79.5748, 25.5837], [79.575, 25.5836], [79.5752, 25.5835], [79.5754, 25.5834], [79.5757, 25.5832], [79.576, 25.5831], [79.5762, 25.583], [79.5765, 25.5829], [79.577, 25.5827], [79.5775, 25.5825], [79.5779, 25.5823], [79.5782, 25.5822], [79.5787, 25.582], [79.5793, 25.5817], [79.5799, 25.5814], [79.5806, 25.5811], [79.5814, 25.5807], [79.582, 25.5805], [79.5825, 25.5802], [79.5829, 25.5798], [79.5833, 25.5796], [79.5835, 25.5794], [79.5837, 25.5792], [79.5838, 25.5787], [79.5839, 25.5784], [79.5837, 25.5777], [79.5835, 25.5769], [79.5834, 25.5767], [79.5831, 25.576], [79.5831, 25.5759], [79.5826, 25.5753], [79.5821, 25.575], [79.5811, 25.5744], [79.581, 25.5744], [79.5798, 25.5739], [79.5786, 25.5734], [79.5773, 25.5729], [79.5771, 25.5729], [79.5767, 25.5728], [79.5759, 25.5727], [79.575, 25.5728], [79.5746, 25.5728], [79.5738, 25.5729], [79.5732, 25.573], [79.5722, 25.5731], [79.5717, 25.5732], [79.5713, 25.5732], [79.5707, 25.5732], [79.57, 25.5733], [79.5692, 25.5733], [79.5689, 25.5734], [79.5683, 25.5735], [79.5681, 25.5735], [79.5674, 25.5737], [79.5667, 25.5738], [79.5667, 25.574], [79.5667, 25.5747], [79.5668, 25.5752], [79.5669, 25.576], [79.5669, 25.5763], [79.5669, 25.5767], [79.5669, 25.5771], [79.5669, 25.5778], [79.5671, 25.5784], [79.5671, 25.5786], [79.5671, 25.579], [79.5671, 25.5794], [79.5671, 25.58], [79.5672, 25.5807], [79.5673, 25.581], [79.5673, 25.5813], [79.5674, 25.5819], [79.5675, 25.5826], [79.5676, 25.583], [79.5677, 25.5837], [79.5677, 25.5838], [79.5677, 25.5843], [79.5678, 25.5846], [79.568, 25.5849], [79.5682, 25.5851], [79.5688, 25.5852], [79.5688, 25.5856], [79.5688, 25.5862], [79.5688, 25.5864], [79.5688, 25.5866], [79.5689, 25.587], [79.569, 25.5872], [79.569, 25.5875], [79.5691, 25.5877], [79.5692, 25.588], [79.5694, 25.5883], [79.5695, 25.5883]]]}, "properties": {"objectid": 308767, "statename": "UTTAR PRADESH", "statecode": "9", "districtname": "HAMIRPUR", "districtcode": "168", "ulbname": "NAGAR PALIKA PARISHAD RATH", "ulbcode": "801042", "wardname": "SIKANDARPURA-3", "wardcode": "5", "id": null, "status": "APPROVED", "misglobalid": null, "approved_by": null, "createdate": 1728483149000, "updateddate": 1728668460000, "globalid": null, "gisglobalid": "Ks6c4R4a-66mc-PBcQ-sBP4-aRmnBclKmRma", "remark": "OK", "st_area(shape)": 0.00016453380916567657, "st_perimeter(shape)": 0.05325375875222583}}, {"type": "Feature", "geometry": {"type": "Polygon", "coordinates": [[[79.5604, 25.5888], [79.5605, 25.5887], [79.5604, 25.5886], [79.5604, 25.5885], [79.5602, 25.5882], [79.5601, 25.588], [79.56, 25.5877], [79.5597, 25.5874], [79.5596, 25.5872], [79.5594, 25.587], [79.5591, 25.5867], [79.5587, 25.5861], [79.5584, 25.5858], [79.5581, 25.5853], [79.5578, 25.5848], [79.5576, 25.5845], [79.5574, 25.5842], [79.5572, 25.584], [79.5571, 25.5838], [79.5568, 25.5833], [79.5567, 25.5832], [79.5564, 25.5828], [79.5561, 25.5824], [79.5558, 25.582], [79.5556, 25.5816], [79.5554, 25.5814], [79.5553, 25.5812], [79.5551, 25.581], [79.5549, 25.5806], [79.5546, 25.5802], [79.5544, 25.5799], [79.5542, 25.5796], [79.554, 25.5793], [79.5538, 25.5791], [79.5536, 25.5788], [79.5534, 25.5785], [79.5533, 25.5783], [79.5531, 25.5781], [79.5531, 25.578], [79.5529, 25.5777], [79.5527, 25.5775], [79.5526, 25.5773], [79.5524, 25.577], [79.5521, 25.5767], [79.5519, 25.5764], [79.5517, 25.5761], [79.5516, 25.5758], [79.5514, 25.5756], [79.5512, 25.5754], [79.5511, 25.5752], [79.5509, 25.5754], [79.5507, 25.5757], [79.5505, 25.5761], [79.5502, 25.5765], [79.5501, 25.5769], [79.5498, 25.5776], [79.5497, 25.5778], [79.5495, 25.5782], [79.5492, 25.5787], [79.549, 25.5793], [79.5487, 25.5797], [79.5484, 25.5803], [79.5482, 25.5807], [79.548, 25.5809], [79.5479, 25.5813], [79.5476, 25.5821], [79.5474, 25.5827], [79.5472, 25.5833], [79.547, 25.5841], [79.5468, 25.5847], [79.5466, 25.5852], [79.546, 25.5868], [79.5455, 25.5882], [79.5453, 25.5894], [79.5457, 25.5904], [79.5466, 25.5904], [79.5479, 25.5905], [79.5493, 25.5906], [79.5501, 25.5906], [79.5512, 25.5908], [79.5521, 25.5909], [79.5541, 25.5911], [79.5556, 25.5914], [79.5568, 25.5917], [79.5575, 25.5918], [79.5574, 25.5911], [79.5586, 25.5907], [79.5585, 25.5903], [79.5591, 25.5902], [79.5589, 25.5898], [79.5588, 25.5895], [79.5588, 25.5894], [79.5589, 25.5893], [79.5587, 25.5886], [79.5587, 25.5885], [79.5594, 25.5886], [79.5602, 25.5888], [79.5604, 25.5888]]]}, "properties": {"objectid": 301174, "statename": "UTTAR PRADESH", "statecode": "9", "districtname": "HAMIRPUR", "districtcode": "168", "ulbname": "NAGAR PALIKA PARISHAD RATH", "ulbcode": "801042", "wardname": "LUDHIYATPURA-1", "wardcode": "6", "id": null, "status": "APPROVED", "misglobalid": null, "approved_by": null, "createdate": 1728483806000, "updateddate": 1728668468000, "globalid": null, "gisglobalid": "sdQKK5do-KsnK-PPdQ-assa-coanQo6ac6ol", "remark": "OK", "st_area(shape)": 0.0001359976026746509, "st_perimeter(shape)": 0.051313760920131846}}, {"type": "Feature", "geometry": {"type": "Polygon", "coordinates": [[[79.5724, 25.5989], [79.5724, 25.5988], [79.5723, 25.5987], [79.5721, 25.5983], [79.5718, 25.5979], [79.5712, 25.5968], [79.5709, 25.5961], [79.5709, 25.596], [79.5707, 25.596], [79.5705, 25.596], [79.5703, 25.5959], [79.5702, 25.5959], [79.5701, 25.5959], [79.57, 25.5958], [79.5699, 25.5959], [79.5698, 25.5959], [79.5696, 25.596], [79.5694, 25.596], [79.5693, 25.596], [79.5692, 25.596], [79.5691, 25.596], [79.5688, 25.596], [79.5686, 25.596], [79.5684, 25.596], [79.5683, 25.5961], [79.5681, 25.5962], [79.568, 25.5963], [79.5679, 25.5963], [79.568, 25.5963], [79.568, 25.5965], [79.568, 25.5968], [79.5681, 25.597], [79.5682, 25.5971], [79.5683, 25.5974], [79.5683, 25.5976], [79.5684, 25.5979], [79.5685, 25.598], [79.5686, 25.5981], [79.5686, 25.5984], [79.5686, 25.5985], [79.5686, 25.5986], [79.5687, 25.5986], [79.5688, 25.5988], [79.5689, 25.599], [79.569, 25.5991], [79.5691, 25.5991], [79.5692, 25.5993], [79.5695, 25.5998], [79.5697, 25.6], [79.5697, 25.6002], [79.5698, 25.6004], [79.5698, 25.6005], [79.5699, 25.6006], [79.5699, 25.6007], [79.5704, 25.6004], [79.5707, 25.6002], [79.571, 25.5999], [79.5713, 25.5996], [79.5716, 25.5994], [79.5719, 25.5991], [79.5722, 25.599], [79.5724, 25.5989]]]}, "properties": {"objectid": 307923, "statename": "UTTAR PRADESH", "statecode": "9", "districtname": "HAMIRPUR", "districtcode": "168", "ulbname": "NAGAR PALIKA PARISHAD RATH", "ulbcode": "801042", "wardname": "PATHANPURA-03", "wardcode": "7", "id": null, "status": "APPROVED", "misglobalid": null, "approved_by": null, "createdate": 1728484162000, "updateddate": 1728668476000, "globalid": null, "gisglobalid": "saKlKmlo-mdds-P5sn-a5ml-sQa56QmaKQKR", "remark": "OK", "st_area(shape)": 1.2482513709985817e-05, "st_perimeter(shape)": 0.0144221496054302}}, {"type": "Feature", "geometry": {"type": "Polygon", "coordinates": [[[79.5841, 25.5985], [79.5843, 25.5982], [79.5846, 25.5977], [79.5849, 25.5972], [79.5852, 25.5966], [79.5853, 25.5962], [79.5834, 25.595], [79.5819, 25.5943], [79.5801, 25.5932], [79.5793, 25.5927], [79.5786, 25.5922], [79.5781, 25.5924], [79.5772, 25.5926], [79.5761, 25.5929], [79.5749, 25.5932], [79.5746, 25.5932], [79.5734, 25.5933], [79.5728, 25.5934], [79.5728, 25.5933], [79.5728, 25.5931], [79.5726, 25.5931], [79.5724, 25.5931], [79.5724, 25.5927], [79.5722, 25.5926], [79.572, 25.5925], [79.5718, 25.5925], [79.5717, 25.5925], [79.5715, 25.5925], [79.5715, 25.5922], [79.5714, 25.592], [79.5713, 25.5918], [79.5714, 25.5915], [79.5713, 25.5915], [79.5712, 25.5915], [79.5709, 25.5915], [79.5704, 25.5916], [79.5703, 25.5921], [79.5703, 25.5922], [79.5705, 25.5925], [79.5706, 25.5927], [79.5706, 25.5929], [79.5706, 25.593], [79.5706, 25.5932], [79.5706, 25.5935], [79.5706, 25.5938], [79.5707, 25.5942], [79.5706, 25.5947], [79.5706, 25.5949], [79.5707, 25.5953], [79.5708, 25.5956], [79.5709, 25.5959], [79.5709, 25.596], [79.5714, 25.5961], [79.5715, 25.5961], [79.5717, 25.5961], [79.5718, 25.5961], [79.5719, 25.5961], [79.572, 25.5962], [79.5722, 25.5964], [79.5724, 25.5966], [79.5726, 25.5966], [79.5729, 25.5967], [79.5734, 25.5967], [79.5737, 25.5967], [79.574, 25.5967], [79.5742, 25.5967], [79.5747, 25.5969], [79.5753, 25.597], [79.5754, 25.5971], [79.5756, 25.5971], [79.5759, 25.5971], [79.576, 25.5971], [79.5761, 25.5969], [79.5761, 25.5968], [79.5762, 25.5966], [79.5768, 25.5965], [79.5769, 25.5964], [79.5772, 25.5965], [79.5775, 25.5964], [79.5779, 25.5964], [79.5786, 25.5962], [79.5789, 25.5961], [79.5788, 25.5959], [79.5792, 25.5957], [79.5794, 25.5957], [79.5796, 25.5955], [79.5801, 25.5959], [79.5804, 25.596], [79.5807, 25.5963], [79.5811, 25.5965], [79.5819, 25.597], [79.5826, 25.5975], [79.5833, 25.598], [79.5841, 25.5985]]]}, "properties": {"objectid": 309291, "statename": "UTTAR PRADESH", "statecode": "9", "districtname": "HAMIRPUR", "districtcode": "168", "ulbname": "NAGAR PALIKA PARISHAD RATH", "ulbcode": "801042", "wardname": "MUGALPURA-01", "wardcode": "8", "id": null, "status": "APPROVED", "misglobalid": null, "approved_by": null, "createdate": 1728484544000, "updateddate": 1728668484000, "globalid": null, "gisglobalid": "annR5Rad-nRd5-Poc4-QsRR-5caoPoQPo5ad", "remark": "OK", "st_area(shape)": 4.811859629171727e-05, "st_perimeter(shape)": 0.0401631074579634}}, {"type": "Feature", "geometry": {"type": "Polygon", "coordinates": [[[79.5514, 25.5748], [79.5511, 25.5752], [79.5512, 25.5753], [79.5512, 25.5754], [79.5513, 25.5754], [79.5513, 25.5755], [79.5514, 25.5756], [79.5515, 25.5757], [79.5515, 25.5758], [79.5516, 25.5759], [79.5517, 25.576], [79.5517, 25.5761], [79.5518, 25.5762], [79.5519, 25.5763], [79.552, 25.5765], [79.5521, 25.5766], [79.5521, 25.5767], [79.5522, 25.5768], [79.5523, 25.5769], [79.5524, 25.577], [79.5525, 25.5772], [79.5525, 25.5773], [79.5526, 25.5773], [79.5526, 25.5774], [79.5527, 25.5774], [79.5527, 25.5775], [79.5528, 25.5776], [79.5529, 25.5777], [79.553, 25.5779], [79.5531, 25.578], [79.5532, 25.5782], [79.5533, 25.5783], [79.5533, 25.5784], [79.5534, 25.5784], [79.5534, 25.5785], [79.5534, 25.5786], [79.5535, 25.5786], [79.5536, 25.5787], [79.5536, 25.5788], [79.5537, 25.5789], [79.5537, 25.579], [79.5538, 25.5791], [79.5539, 25.5792], [79.554, 25.5793], [79.554, 25.5794], [79.5541, 25.5795], [79.5542, 25.5797], [79.5543, 25.5798], [79.5544, 25.5799], [79.5545, 25.5801], [79.5546, 25.5802], [79.5546, 25.5803], [79.5547, 25.5804], [79.5548, 25.5805], [79.5549, 25.5806], [79.5549, 25.5807], [79.555, 25.5808], [79.5552, 25.581], [79.5553, 25.5812], [79.5554, 25.5813], [79.5554, 25.5814], [79.5556, 25.5817], [79.5557, 25.5818], [79.5559, 25.582], [79.556, 25.5823], [79.5562, 25.5825], [79.5564, 25.5828], [79.5567, 25.5832], [79.5569, 25.5835], [79.5572, 25.5839], [79.5574, 25.5841], [79.5575, 25.5844], [79.5576, 25.5845], [79.5578, 25.5848], [79.558, 25.5851], [79.5583, 25.5855], [79.5586, 25.586], [79.5587, 25.5861], [79.5589, 25.5863], [79.5591, 25.5867], [79.5594, 25.5871], [79.5598, 25.5875], [79.56, 25.5877], [79.5601, 25.588], [79.5603, 25.5883], [79.5603, 25.5884], [79.5604, 25.5886], [79.5605, 25.5887], [79.5605, 25.5888], [79.5608, 25.5892], [79.561, 25.5895], [79.5615, 25.59], [79.5619, 25.5903], [79.5621, 25.5905], [79.5623, 25.5906], [79.5625, 25.5906], [79.5628, 25.5906], [79.5632, 25.5906], [79.564, 25.5905], [79.5645, 25.5905], [79.5645, 25.5904], [79.5646, 25.5903], [79.5646, 25.5902], [79.5646, 25.5901], [79.5645, 25.59], [79.5645, 25.5898], [79.5644, 25.5896], [79.5644, 25.5895], [79.5643, 25.5892], [79.5643, 25.589], [79.5644, 25.5887], [79.5644, 25.5881], [79.5644, 25.5879], [79.5646, 25.5878], [79.5647, 25.5876], [79.5649, 25.5874], [79.5649, 25.5873], [79.5649, 25.5871], [79.565, 25.5869], [79.565, 25.5868], [79.565, 25.5864], [79.565, 25.5858], [79.5649, 25.5854], [79.5647, 25.5849], [79.5645, 25.5846], [79.5642, 25.5843], [79.5639, 25.5841], [79.5637, 25.5839], [79.5634, 25.5836], [79.5633, 25.5834], [79.563, 25.5829], [79.5629, 25.5827], [79.5626, 25.5821], [79.5624, 25.5816], [79.5622, 25.5811], [79.5619, 25.5796], [79.5616, 25.5785], [79.5612, 25.5772], [79.5606, 25.5751], [79.5605, 25.5747], [79.5605, 25.5746], [79.5597, 25.5737], [79.5588, 25.5733], [79.5561, 25.573], [79.5553, 25.5728], [79.5537, 25.5733], [79.5526, 25.5737], [79.5519, 25.5741], [79.5514, 25.5748]]]}, "properties": {"objectid": 305605, "statename": "UTTAR PRADESH", "statecode": "9", "districtname": "HAMIRPUR", "districtcode": "168", "ulbname": "NAGAR PALIKA PARISHAD RATH", "ulbcode": "801042", "wardname": "MIYANPURA ATRAULI (RATH)", "wardcode": "9", "id": null, "status": "APPROVED", "misglobalid": null, "approved_by": null, "createdate": 1728485211000, "updateddate": 1728668494000, "globalid": null, "gisglobalid": "d5PcPRBm-aomR-PPnc-ad4m-KPP64dPnRRPK", "remark": "OK", "st_area(shape)": 0.00011787185015144136, "st_perimeter(shape)": 0.04922553794761395}}, {"type": "Feature", "geometry": {"type": "Polygon", "coordinates": [[[79.5695, 25.5884], [79.5695, 25.5883], [79.5694, 25.5883], [79.5692, 25.5881], [79.5692, 25.588], [79.5692, 25.5879], [79.5691, 25.5877], [79.569, 25.5876], [79.569, 25.5874], [79.5689, 25.5872], [79.5689, 25.587], [79.5689, 25.5868], [79.5689, 25.5867], [79.5688, 25.5866], [79.5688, 25.5864], [79.5688, 25.5862], [79.5688, 25.586], [79.5688, 25.5858], [79.5688, 25.5857], [79.5688, 25.5855], [79.5688, 25.5852], [79.5685, 25.5851], [79.5682, 25.5851], [79.568, 25.5849], [79.5678, 25.5846], [79.5677, 25.5844], [79.5677, 25.5843], [79.5677, 25.5839], [79.5676, 25.5832], [79.5675, 25.5825], [79.5674, 25.5819], [79.5673, 25.5814], [79.5672, 25.5808], [79.5671, 25.5802], [79.5671, 25.5796], [79.567, 25.5791], [79.567, 25.5784], [79.5669, 25.5778], [79.5669, 25.5771], [79.5669, 25.5767], [79.5668, 25.5763], [79.5668, 25.5755], [79.5668, 25.5752], [79.5667, 25.5747], [79.5667, 25.5739], [79.5654, 25.5741], [79.5647, 25.5743], [79.5644, 25.5744], [79.5641, 25.5744], [79.5617, 25.5747], [79.5606, 25.5749], [79.5608, 25.5755], [79.5611, 25.5766], [79.5614, 25.5778], [79.5618, 25.5793], [79.562, 25.5802], [79.5622, 25.5809], [79.5624, 25.5816], [79.563, 25.5827], [79.5634, 25.5835], [79.5637, 25.5839], [79.5645, 25.5846], [79.5648, 25.5851], [79.5649, 25.5854], [79.565, 25.5859], [79.565, 25.5866], [79.565, 25.5869], [79.5649, 25.5871], [79.5649, 25.5873], [79.5647, 25.5876], [79.5645, 25.5879], [79.5645, 25.588], [79.5644, 25.5886], [79.5644, 25.589], [79.5644, 25.5893], [79.5646, 25.59], [79.5646, 25.5902], [79.5646, 25.5904], [79.5645, 25.5905], [79.5649, 25.5905], [79.5657, 25.5907], [79.5664, 25.5906], [79.567, 25.5904], [79.5675, 25.5903], [79.5679, 25.5903], [79.568, 25.5899], [79.5684, 25.5895], [79.5695, 25.5884]]]}, "properties": {"objectid": 309292, "statename": "UTTAR PRADESH", "statecode": "9", "districtname": "HAMIRPUR", "districtcode": "168", "ulbname": "NAGAR PALIKA PARISHAD RATH", "ulbcode": "801042", "wardname": "JUGYANA", "wardcode": "10", "id": null, "status": "APPROVED", "misglobalid": null, "approved_by": null, "createdate": 1728485984000, "updateddate": 1728668502000, "globalid": null, "gisglobalid": "PnaKamlK-cadc-Pm5l-sBBs-Pn6dBmllma4n", "remark": "OK", "st_area(shape)": 7.619407784496631e-05, "st_perimeter(shape)": 0.044261343395263955}}, {"type": "Feature", "geometry": {"type": "Polygon", "coordinates": [[[79.5619, 25.5953], [79.5479, 25.5959], [79.5475, 25.5969], [79.5477, 25.5977], [79.548, 25.5986], [79.5481, 25.5989], [79.548, 25.6001], [79.5485, 25.6012], [79.5485, 25.6028], [79.5498, 25.6046], [79.5502, 25.6053], [79.5513, 25.6062], [79.5543, 25.6073], [79.5556, 25.608], [79.5582, 25.6046], [79.5586, 25.6041], [79.5594, 25.6036], [79.5605, 25.603], [79.561, 25.6026], [79.5614, 25.6024], [79.5616, 25.6022], [79.5618, 25.6019], [79.562, 25.6017], [79.5622, 25.6013], [79.5624, 25.601], [79.5625, 25.6008], [79.5626, 25.6007], [79.5627, 25.6003], [79.5628, 25.6001], [79.5629, 25.5998], [79.5629, 25.5994], [79.5631, 25.5989], [79.5631, 25.5984], [79.5632, 25.5981], [79.5632, 25.598], [79.5633, 25.5979], [79.5633, 25.5978], [79.5636, 25.5976], [79.5638, 25.5976], [79.5638, 25.5971], [79.5637, 25.5971], [79.5636, 25.5971], [79.5636, 25.597], [79.5635, 25.5967], [79.5634, 25.5965], [79.5634, 25.5963], [79.5634, 25.5961], [79.5635, 25.5959], [79.5635, 25.5957], [79.5635, 25.5954], [79.5635, 25.5953], [79.5635, 25.5952], [79.5635, 25.595], [79.5635, 25.5947], [79.5634, 25.5947], [79.5631, 25.5948], [79.563, 25.5949], [79.5626, 25.595], [79.5623, 25.5951], [79.562, 25.5952], [79.5619, 25.5952], [79.5619, 25.5953]]]}, "properties": {"objectid": 308768, "statename": "UTTAR PRADESH", "statecode": "9", "districtname": "HAMIRPUR", "districtcode": "168", "ulbname": "NAGAR PALIKA PARISHAD RATH", "ulbcode": "801042", "wardname": "FARSAULIYANA-2", "wardcode": "11", "id": null, "status": "APPROVED", "misglobalid": null, "approved_by": null, "createdate": 1728489293000, "updateddate": 1728668512000, "globalid": null, "gisglobalid": "Ksm45nKK-mclR-PRlP-alBB-KK4lR54aRRna", "remark": "OK", "st_area(shape)": 0.0001415187653402243, "st_perimeter(shape)": 0.048831854811838424}}, {"type": "Feature", "geometry": {"type": "Polygon", "coordinates": [[[79.5713, 25.5961], [79.571, 25.5961], [79.5711, 25.5964], [79.5713, 25.5967], [79.5716, 25.5972], [79.5718, 25.5977], [79.5722, 25.5985], [79.5725, 25.5989], [79.5729, 25.599], [79.5737, 25.5992], [79.5746, 25.5993], [79.5752, 25.5995], [79.576, 25.5996], [79.5769, 25.5998], [79.5779, 25.6], [79.5791, 25.6002], [79.5799, 25.6004], [79.5804, 25.6005], [79.5807, 25.6006], [79.5809, 25.6015], [79.581, 25.6017], [79.581, 25.6018], [79.5811, 25.6019], [79.5811, 25.602], [79.5812, 25.6021], [79.5813, 25.6022], [79.5813, 25.6024], [79.5814, 25.6025], [79.5819, 25.6023], [79.582, 25.6023], [79.5823, 25.6021], [79.5827, 25.6019], [79.5831, 25.6018], [79.5831, 25.6019], [79.5836, 25.6018], [79.5834, 25.6012], [79.5834, 25.601], [79.5836, 25.6003], [79.5837, 25.5997], [79.584, 25.5986], [79.584, 25.5985], [79.5839, 25.5984], [79.5838, 25.5983], [79.5832, 25.598], [79.5828, 25.5977], [79.5824, 25.5974], [79.5823, 25.5974], [79.5818, 25.5971], [79.5813, 25.5967], [79.5807, 25.5963], [79.5804, 25.5961], [79.5798, 25.5956], [79.5796, 25.5955], [79.5795, 25.5956], [79.5789, 25.5959], [79.5789, 25.5962], [79.5784, 25.5963], [79.5779, 25.5964], [79.5775, 25.5964], [79.5774, 25.5965], [79.5772, 25.5965], [79.577, 25.5965], [79.5769, 25.5965], [79.5767, 25.5965], [79.5762, 25.5966], [79.5761, 25.5968], [79.576, 25.597], [79.576, 25.5972], [79.5757, 25.5972], [79.5753, 25.5971], [79.5749, 25.597], [79.5743, 25.5968], [79.5737, 25.5968], [79.573, 25.5967], [79.5727, 25.5967], [79.5725, 25.5967], [79.5723, 25.5965], [79.5719, 25.5962], [79.5717, 25.5961], [79.5713, 25.5961]]]}, "properties": {"objectid": 309293, "statename": "UTTAR PRADESH", "statecode": "9", "districtname": "HAMIRPUR", "districtcode": "168", "ulbname": "NAGAR PALIKA PARISHAD RATH", "ulbcode": "801042", "wardname": "PATHANPURA-2", "wardcode": "12", "id": null, "status": "APPROVED", "misglobalid": null, "approved_by": null, "createdate": 1728489908000, "updateddate": 1728668521000, "globalid": null, "gisglobalid": "4Bd5mKRs-Q6Bc-P4lK-sBdR-544nacanosmK", "remark": "OK", "st_area(shape)": 4.254340572576639e-05, "st_perimeter(shape)": 0.03442292830069691}}, {"type": "Feature", "geometry": {"type": "Polygon", "coordinates": [[[79.5558, 25.608], [79.556, 25.6085], [79.5564, 25.6092], [79.5568, 25.6097], [79.5575, 25.6105], [79.5582, 25.6108], [79.5589, 25.6112], [79.5594, 25.6114], [79.5598, 25.6116], [79.5605, 25.6116], [79.562, 25.6117], [79.5622, 25.6116], [79.5632, 25.6113], [79.564, 25.6106], [79.5646, 25.6098], [79.5652, 25.6094], [79.5658, 25.609], [79.5659, 25.6089], [79.566, 25.6088], [79.5664, 25.6087], [79.5666, 25.6087], [79.5666, 25.6084], [79.5664, 25.608], [79.5663, 25.6077], [79.5662, 25.6073], [79.5661, 25.607], [79.5659, 25.6064], [79.5658, 25.6063], [79.5658, 25.606], [79.5658, 25.6058], [79.5658, 25.6057], [79.5659, 25.6056], [79.566, 25.6056], [79.566, 25.6055], [79.5661, 25.6055], [79.5662, 25.6051], [79.5662, 25.6049], [79.5662, 25.6047], [79.5662, 25.6044], [79.5663, 25.6043], [79.5666, 25.604], [79.5667, 25.6037], [79.5668, 25.6034], [79.5668, 25.6025], [79.5668, 25.6021], [79.5669, 25.6015], [79.5668, 25.6007], [79.5668, 25.6006], [79.5667, 25.6005], [79.566, 25.5997], [79.5651, 25.599], [79.565, 25.5988], [79.5649, 25.5985], [79.5648, 25.5981], [79.5647, 25.5979], [79.5645, 25.5976], [79.5644, 25.5976], [79.5638, 25.5976], [79.5636, 25.5977], [79.5634, 25.5978], [79.5633, 25.5979], [79.5632, 25.598], [79.5632, 25.5984], [79.5631, 25.5987], [79.5631, 25.5989], [79.563, 25.5991], [79.563, 25.5995], [79.5629, 25.5998], [79.5628, 25.6002], [79.5626, 25.6005], [79.5625, 25.6007], [79.5624, 25.6011], [79.5621, 25.6016], [79.5619, 25.6019], [79.5616, 25.6023], [79.5607, 25.6028], [79.5595, 25.6036], [79.5589, 25.604], [79.5585, 25.6043], [79.5575, 25.6056], [79.5564, 25.6071], [79.5558, 25.608]]]}, "properties": {"objectid": 309294, "statename": "UTTAR PRADESH", "statecode": "9", "districtname": "HAMIRPUR", "districtcode": "168", "ulbname": "NAGAR PALIKA PARISHAD RATH", "ulbcode": "801042", "wardname": "DIWANPURA-01", "wardcode": "13", "id": null, "status": "APPROVED", "misglobalid": null, "approved_by": null, "createdate": 1728490197000, "updateddate": 1728668529000, "globalid": null, "gisglobalid": "BKPcaQ4n-ao4d-PPsc-QK64-cmoKc65ca4Bs", "remark": "OK", "st_area(shape)": 8.947089232437182e-05, "st_perimeter(shape)": 0.0403912567749492}}, {"type": "Feature", "geometry": {"type": "Polygon", "coordinates": [[[79.5656, 25.5968], [79.5656, 25.597], [79.5657, 25.5972], [79.5658, 25.5976], [79.566, 25.5979], [79.566, 25.598], [79.5661, 25.5983], [79.5664, 25.5989], [79.5665, 25.5993], [79.5666, 25.5993], [79.5667, 25.5992], [79.5667, 25.5991], [79.5669, 25.599], [79.567, 25.5989], [79.5673, 25.5987], [79.5673, 25.5986], [79.5674, 25.5986], [79.5674, 25.5985], [79.5675, 25.5984], [79.5677, 25.5984], [79.5677, 25.5983], [79.5679, 25.5983], [79.5681, 25.5982], [79.5683, 25.5981], [79.5684, 25.598], [79.5685, 25.598], [79.5684, 25.5978], [79.5684, 25.5977], [79.5683, 25.5976], [79.5683, 25.5975], [79.5683, 25.5974], [79.5682, 25.5972], [79.5682, 25.5971], [79.5681, 25.597], [79.5681, 25.5969], [79.568, 25.5969], [79.568, 25.5968], [79.568, 25.5966], [79.568, 25.5965], [79.568, 25.5963], [79.5679, 25.5963], [79.5678, 25.5963], [79.5677, 25.5963], [79.5676, 25.5964], [79.5673, 25.5965], [79.5669, 25.5965], [79.5666, 25.5966], [79.5661, 25.5967], [79.566, 25.5967], [79.5659, 25.5967], [79.5658, 25.5967], [79.5656, 25.5968]]]}, "properties": {"objectid": 305606, "statename": "UTTAR PRADESH", "statecode": "9", "districtname": "HAMIRPUR", "districtcode": "168", "ulbname": "NAGAR PALIKA PARISHAD RATH", "ulbcode": "801042", "wardname": "BUDHAULIYANA-02", "wardcode": "14", "id": null, "status": "APPROVED", "misglobalid": null, "approved_by": null, "createdate": 1728490459000, "updateddate": 1728668538000, "globalid": null, "gisglobalid": "BlBallod-4acc-PlcQ-Q6R5-RnmsR5dBs6oR", "remark": "OK", "st_area(shape)": 4.997667979944981e-06, "st_perimeter(shape)": 0.009380694727246598}}, {"type": "Feature", "geometry": {"type": "Polygon", "coordinates": [[[79.5458, 25.5906], [79.546, 25.5918], [79.5464, 25.593], [79.5466, 25.5939], [79.5468, 25.5945], [79.5474, 25.5953], [79.5479, 25.5959], [79.5484, 25.5958], [79.5486, 25.5958], [79.5489, 25.5958], [79.5492, 25.5958], [79.5493, 25.5958], [79.5496, 25.5957], [79.5499, 25.5956], [79.5501, 25.5956], [79.5502, 25.5956], [79.5507, 25.5956], [79.5509, 25.5956], [79.5511, 25.5956], [79.5514, 25.5956], [79.5516, 25.5956], [79.5519, 25.5956], [79.5522, 25.5956], [79.5524, 25.5956], [79.5525, 25.5956], [79.5529, 25.5958], [79.5532, 25.5958], [79.5534, 25.5958], [79.5537, 25.5957], [79.554, 25.5957], [79.5543, 25.5957], [79.5545, 25.5957], [79.5547, 25.5957], [79.5549, 25.5957], [79.555, 25.5956], [79.5552, 25.5956], [79.5555, 25.5955], [79.5557, 25.5954], [79.556, 25.5954], [79.5563, 25.5953], [79.5568, 25.5954], [79.557, 25.5954], [79.5574, 25.5954], [79.5577, 25.5954], [79.558, 25.5954], [79.5583, 25.5953], [79.5587, 25.5954], [79.559, 25.5955], [79.5595, 25.5955], [79.5597, 25.5954], [79.56, 25.5954], [79.5603, 25.5954], [79.5606, 25.5954], [79.5609, 25.5953], [79.5612, 25.5953], [79.5614, 25.5953], [79.5616, 25.5953], [79.5619, 25.5953], [79.5619, 25.5952], [79.5618, 25.5949], [79.5617, 25.5946], [79.5615, 25.5942], [79.5614, 25.5939], [79.5613, 25.5936], [79.5612, 25.5934], [79.561, 25.593], [79.561, 25.5929], [79.5605, 25.5929], [79.5602, 25.5928], [79.5596, 25.5927], [79.5592, 25.5926], [79.559, 25.5925], [79.5588, 25.5924], [79.5587, 25.5923], [79.5584, 25.5922], [79.5582, 25.592], [79.558, 25.592], [79.5578, 25.5919], [79.5575, 25.5919], [79.5571, 25.5918], [79.5567, 25.5917], [79.5563, 25.5916], [79.556, 25.5915], [79.5555, 25.5915], [79.5553, 25.5915], [79.555, 25.5914], [79.5546, 25.5913], [79.5543, 25.5912], [79.5541, 25.5912], [79.5534, 25.5911], [79.553, 25.591], [79.5524, 25.591], [79.5522, 25.5909], [79.5521, 25.5909], [79.5518, 25.5909], [79.5512, 25.5909], [79.5507, 25.5908], [79.5503, 25.5908], [79.5498, 25.5907], [79.5492, 25.5907], [79.5488, 25.5907], [79.5485, 25.5906], [79.5482, 25.5906], [79.5481, 25.5906], [79.5477, 25.5906], [79.5474, 25.5905], [79.547, 25.5905], [79.5469, 25.5905], [79.5466, 25.5905], [79.5465, 25.5905], [79.5464, 25.5905], [79.546, 25.5905], [79.5458, 25.5906]]]}, "properties": {"objectid": 309303, "statename": "UTTAR PRADESH", "statecode": "9", "districtname": "HAMIRPUR", "districtcode": "168", "ulbname": "NAGAR PALIKA PARISHAD RATH", "ulbcode": "801042", "wardname": "JULEHTI-01", "wardcode": "15", "id": null, "status": "APPROVED", "misglobalid": null, "approved_by": null, "createdate": 1728665341000, "updateddate": 1728668549000, "globalid": null, "gisglobalid": "mRnRmc4c-4Bdd-Psms-soRm-nolRQn6sdnl4", "remark": "OK", "st_area(shape)": 6.235976430247056e-05, "st_perimeter(shape)": 0.03801629149386215}}, {"type": "Feature", "geometry": {"type": "Polygon", "coordinates": [[[79.5705, 25.6087], [79.5707, 25.6087], [79.5709, 25.6087], [79.5711, 25.6087], [79.5712, 25.6087], [79.5714, 25.6086], [79.5717, 25.6086], [79.5719, 25.6086], [79.5721, 25.6086], [79.5723, 25.6085], [79.5725, 25.6085], [79.5727, 25.6085], [79.5729, 25.6084], [79.5732, 25.6084], [79.5734, 25.6083], [79.5737, 25.6082], [79.5732, 25.6071], [79.5729, 25.6066], [79.5728, 25.6062], [79.5727, 25.606], [79.5726, 25.6058], [79.5726, 25.6057], [79.5725, 25.6053], [79.5724, 25.6052], [79.5712, 25.6049], [79.571, 25.6047], [79.5706, 25.6036], [79.5704, 25.6033], [79.5701, 25.6028], [79.5705, 25.6027], [79.571, 25.6036], [79.5716, 25.6034], [79.5716, 25.6032], [79.5715, 25.6029], [79.5712, 25.6025], [79.5711, 25.6024], [79.5709, 25.6024], [79.5708, 25.6025], [79.5705, 25.602], [79.5702, 25.6016], [79.5699, 25.6011], [79.5697, 25.6008], [79.5699, 25.6007], [79.5698, 25.6006], [79.5697, 25.6004], [79.5697, 25.6002], [79.5696, 25.6], [79.5695, 25.5998], [79.5693, 25.5994], [79.5691, 25.5992], [79.569, 25.5991], [79.5689, 25.599], [79.5687, 25.5988], [79.5687, 25.5987], [79.5686, 25.5987], [79.5686, 25.5986], [79.5686, 25.5985], [79.5686, 25.5984], [79.5686, 25.5983], [79.5686, 25.5982], [79.5686, 25.5981], [79.5685, 25.598], [79.5682, 25.5981], [79.5678, 25.5983], [79.5676, 25.5984], [79.5673, 25.5986], [79.5671, 25.5988], [79.5668, 25.5991], [79.5666, 25.5993], [79.5669, 25.6], [79.5672, 25.6007], [79.5675, 25.6014], [79.5677, 25.6019], [79.5678, 25.6022], [79.568, 25.6024], [79.5681, 25.6025], [79.568, 25.6027], [79.5681, 25.6029], [79.5682, 25.6032], [79.5684, 25.6038], [79.5686, 25.6046], [79.5688, 25.605], [79.5692, 25.606], [79.5694, 25.6063], [79.5699, 25.6074], [79.5705, 25.6087]]]}, "properties": {"objectid": 308784, "statename": "UTTAR PRADESH", "statecode": "9", "districtname": "HAMIRPUR", "districtcode": "168", "ulbname": "NAGAR PALIKA PARISHAD RATH", "ulbcode": "801042", "wardname": "BUDHAULIYANA-01", "wardcode": "16", "id": null, "status": "APPROVED", "misglobalid": null, "approved_by": null, "createdate": 1728665736000, "updateddate": 1728668559000, "globalid": null, "gisglobalid": "m6Rl5K4a-QmPa-P6Rc-aaPc-lPoK5lmo6nBB", "remark": "OK", "st_area(shape)": 2.886022971236528e-05, "st_perimeter(shape)": 0.03170409468142942}}, {"type": "Feature", "geometry": {"type": "Polygon", "coordinates": [[[79.5685, 25.5938], [79.5686, 25.5938], [79.569, 25.5936], [79.5694, 25.5933], [79.5696, 25.5932], [79.5699, 25.5931], [79.5702, 25.5931], [79.5704, 25.5931], [79.5706, 25.5931], [79.5706, 25.593], [79.5706, 25.5928], [79.5704, 25.5926], [79.5703, 25.5923], [79.5702, 25.5922], [79.5699, 25.5921], [79.5695, 25.5919], [79.5693, 25.5917], [79.5691, 25.5916], [79.5689, 25.5913], [79.5687, 25.5911], [79.5685, 25.5908], [79.5683, 25.5906], [79.5681, 25.5905], [79.5681, 25.5906], [79.568, 25.5906], [79.5679, 25.5908], [79.5678, 25.5909], [79.5676, 25.5908], [79.5674, 25.5909], [79.5672, 25.5909], [79.5671, 25.591], [79.5669, 25.5912], [79.5668, 25.5913], [79.5666, 25.5914], [79.5667, 25.5914], [79.5668, 25.5917], [79.5669, 25.5917], [79.567, 25.5916], [79.5672, 25.5919], [79.5673, 25.5918], [79.5676, 25.5917], [79.5678, 25.5917], [79.568, 25.5919], [79.5681, 25.5921], [79.5681, 25.5923], [79.5682, 25.5925], [79.5683, 25.5927], [79.5683, 25.5929], [79.5683, 25.593], [79.5683, 25.5931], [79.5684, 25.5933], [79.5685, 25.5935], [79.5685, 25.5938]]]}, "properties": {"objectid": 308721, "statename": "UTTAR PRADESH", "statecode": "9", "districtname": "HAMIRPUR", "districtcode": "168", "ulbname": "Rath NPP", "ulbcode": "801042", "wardname": "................", "wardcode": "17", "id": null, "status": "APPROVED", "misglobalid": null, "approved_by": null, "createdate": 1725777282000, "updateddate": 1728668568000, "globalid": null, "gisglobalid": "l6cQcsQK-4cQ6-PPBK-QB66-RPs6ss4ldmnm", "remark": "OK", "st_area(shape)": 5.225089604752356e-06, "st_perimeter(shape)": 0.011771169922794976}}, {"type": "Feature", "geometry": {"type": "Polygon", "coordinates": [[[79.5605, 25.5888], [79.5604, 25.5888], [79.5602, 25.5888], [79.5594, 25.5887], [79.5587, 25.5885], [79.5587, 25.5886], [79.5589, 25.5893], [79.5588, 25.5894], [79.5588, 25.5895], [79.559, 25.5898], [79.5591, 25.5901], [79.5591, 25.5902], [79.5585, 25.5904], [79.5586, 25.5907], [79.5579, 25.591], [79.5575, 25.5911], [79.5575, 25.5915], [79.5575, 25.5918], [79.5578, 25.5919], [79.5581, 25.592], [79.5584, 25.5921], [79.5586, 25.5923], [79.5589, 25.5924], [79.5592, 25.5926], [79.5595, 25.5926], [79.56, 25.5927], [79.5605, 25.5928], [79.5607, 25.5929], [79.5609, 25.5929], [79.5611, 25.5929], [79.5613, 25.5928], [79.5614, 25.5928], [79.5616, 25.5927], [79.5619, 25.5927], [79.562, 25.5927], [79.5621, 25.5926], [79.5623, 25.5926], [79.5625, 25.5925], [79.5626, 25.5924], [79.5629, 25.5925], [79.5631, 25.5925], [79.5631, 25.5926], [79.5632, 25.5925], [79.5635, 25.5924], [79.5638, 25.5923], [79.5638, 25.5922], [79.5636, 25.5919], [79.5634, 25.5915], [79.563, 25.5912], [79.5627, 25.591], [79.5624, 25.5907], [79.5623, 25.5906], [79.5621, 25.5905], [79.5618, 25.5902], [79.5614, 25.5899], [79.561, 25.5895], [79.5607, 25.5891], [79.5605, 25.5888]]]}, "properties": {"objectid": 308785, "statename": "UTTAR PRADESH", "statecode": "9", "districtname": "HAMIRPUR", "districtcode": "168", "ulbname": "NAGAR PALIKA PARISHAD RATH", "ulbcode": "801042", "wardname": "LUDHIYATPURA-02", "wardcode": "18", "id": null, "status": "APPROVED", "misglobalid": null, "approved_by": null, "createdate": 1728667883000, "updateddate": 1728668577000, "globalid": null, "gisglobalid": "RolBRadR-ocsR-PdKR-sll6-mdsl4cPds5d6", "remark": "OK", "st_area(shape)": 1.5170731889867043e-05, "st_perimeter(shape)": 0.0180967005752117}}, {"type": "Feature", "geometry": {"type": "Polygon", "coordinates": [[[79.5638, 25.5974], [79.5638, 25.5976], [79.5643, 25.5975], [79.5645, 25.5975], [79.5647, 25.5974], [79.5648, 25.5973], [79.5648, 25.5972], [79.565, 25.5971], [79.5651, 25.597], [79.5652, 25.597], [79.5654, 25.5969], [79.5655, 25.5968], [79.5655, 25.5967], [79.5655, 25.5966], [79.5654, 25.5963], [79.5653, 25.5959], [79.5653, 25.5958], [79.5652, 25.5955], [79.5652, 25.5952], [79.5652, 25.5951], [79.5652, 25.595], [79.5652, 25.5948], [79.5652, 25.5946], [79.5651, 25.5945], [79.5651, 25.5946], [79.565, 25.5946], [79.5649, 25.5946], [79.5648, 25.5947], [79.5647, 25.5947], [79.5646, 25.5947], [79.5644, 25.5946], [79.5643, 25.5946], [79.5642, 25.5946], [79.564, 25.5946], [79.5638, 25.5946], [79.5635, 25.5947], [79.5635, 25.595], [79.5636, 25.5953], [79.5635, 25.5953], [79.5635, 25.5954], [79.5635, 25.5957], [79.5635, 25.5958], [79.5635, 25.5959], [79.5635, 25.5961], [79.5634, 25.5963], [79.5634, 25.5965], [79.5636, 25.5968], [79.5636, 25.597], [79.5637, 25.5971], [79.5638, 25.5971], [79.5638, 25.5974]]]}, "properties": {"objectid": 301179, "statename": "UTTAR PRADESH", "statecode": "9", "districtname": "HAMIRPUR", "districtcode": "168", "ulbname": "NAGAR PALIKA PARISHAD RATH", "ulbcode": "801042", "wardname": "FARSAULIYANA-01", "wardcode": "19", "id": null, "status": "APPROVED", "misglobalid": null, "approved_by": null, "createdate": 1728667958000, "updateddate": 1728668585000, "globalid": null, "gisglobalid": "BKn54Ql6-KoBa-P5Rl-scRa-aBlnmBKnBnBl", "remark": "OK", "st_area(shape)": 4.880123456999463e-06, "st_perimeter(shape)": 0.009220233904495362}}, {"type": "Feature", "geometry": {"type": "Polygon", "coordinates": [[[79.5631, 25.5926], [79.5631, 25.5927], [79.5632, 25.5928], [79.5633, 25.593], [79.5633, 25.5931], [79.5633, 25.5933], [79.5633, 25.5935], [79.5634, 25.5937], [79.5635, 25.594], [79.5636, 25.5941], [79.5637, 25.5942], [79.5637, 25.5943], [79.5638, 25.5944], [79.5638, 25.5946], [79.5639, 25.5946], [79.564, 25.5946], [79.5642, 25.5946], [79.5643, 25.5946], [79.5644, 25.5946], [79.5645, 25.5946], [79.5646, 25.5947], [79.5647, 25.5947], [79.5648, 25.5947], [79.565, 25.5946], [79.5651, 25.5945], [79.5652, 25.5945], [79.5653, 25.5945], [79.5655, 25.5944], [79.5656, 25.5944], [79.5657, 25.5943], [79.5658, 25.5942], [79.566, 25.5941], [79.5661, 25.594], [79.5662, 25.594], [79.5661, 25.5939], [79.5659, 25.5938], [79.5659, 25.5936], [79.566, 25.5935], [79.5664, 25.5936], [79.5664, 25.5935], [79.5665, 25.5935], [79.5664, 25.5933], [79.5664, 25.5931], [79.5663, 25.5928], [79.5661, 25.5924], [79.566, 25.5922], [79.566, 25.5921], [79.5659, 25.5921], [79.5658, 25.5921], [79.5657, 25.5921], [79.5656, 25.592], [79.5656, 25.5919], [79.5656, 25.5917], [79.5655, 25.5914], [79.5654, 25.5913], [79.5654, 25.5912], [79.5653, 25.5911], [79.5651, 25.591], [79.5651, 25.5907], [79.565, 25.5906], [79.5647, 25.5906], [79.5643, 25.5906], [79.5636, 25.5906], [79.5626, 25.5906], [79.5624, 25.5906], [79.5623, 25.5906], [79.5629, 25.5911], [79.5632, 25.5914], [79.5634, 25.5916], [79.5637, 25.592], [79.5638, 25.5922], [79.5638, 25.5923], [79.5636, 25.5923], [79.5633, 25.5925], [79.5631, 25.5926]]]}, "properties": {"objectid": 308786, "statename": "UTTAR PRADESH", "statecode": "9", "districtname": "HAMIRPUR", "districtcode": "168", "ulbname": "NAGAR PALIKA PARISHAD RATH", "ulbcode": "801042", "wardname": "KOT BAZAR", "wardcode": "20", "id": null, "status": "APPROVED", "misglobalid": null, "approved_by": null, "createdate": 1728667976000, "updateddate": 1728668595000, "globalid": null, "gisglobalid": "Q6K5dRco-lRdn-Pcs4-QaB4-5K4BdaRlPoKn", "remark": "OK", "st_area(shape)": 9.982311628096812e-06, "st_perimeter(shape)": 0.015170133587617195}}, {"type": "Feature", "geometry": {"type": "Polygon", "coordinates": [[[79.5659, 25.5921], [79.566, 25.5921], [79.566, 25.5922], [79.5661, 25.5924], [79.5661, 25.5925], [79.5663, 25.5928], [79.5664, 25.5931], [79.5665, 25.5935], [79.5666, 25.5935], [79.5667, 25.5934], [79.5667, 25.5933], [79.5667, 25.5931], [79.5669, 25.593], [79.567, 25.5929], [79.5672, 25.5927], [79.5679, 25.5925], [79.5681, 25.5923], [79.5681, 25.5921], [79.568, 25.5919], [79.5679, 25.5918], [79.5678, 25.5917], [79.5678, 25.5916], [79.5676, 25.5917], [79.5675, 25.5918], [79.5673, 25.5919], [79.5672, 25.5919], [79.5671, 25.5919], [79.5671, 25.5918], [79.567, 25.5917], [79.5669, 25.5917], [79.5668, 25.5917], [79.5668, 25.5916], [79.5667, 25.5914], [79.5666, 25.5914], [79.5667, 25.5914], [79.5668, 25.5913], [79.5669, 25.5913], [79.5669, 25.5912], [79.567, 25.5912], [79.567, 25.5911], [79.5671, 25.5911], [79.5674, 25.5909], [79.5675, 25.5909], [79.5676, 25.5909], [79.5677, 25.5909], [79.5678, 25.5909], [79.5678, 25.5908], [79.5679, 25.5908], [79.568, 25.5906], [79.5681, 25.5905], [79.5679, 25.5904], [79.5678, 25.5903], [79.5677, 25.5903], [79.5675, 25.5903], [79.5674, 25.5903], [79.5673, 25.5903], [79.5672, 25.5904], [79.567, 25.5904], [79.5666, 25.5906], [79.5663, 25.5906], [79.566, 25.5907], [79.5658, 25.5907], [79.5657, 25.5907], [79.5653, 25.5907], [79.5651, 25.5906], [79.5651, 25.5909], [79.5652, 25.591], [79.5654, 25.5912], [79.5655, 25.5912], [79.5655, 25.5914], [79.5656, 25.5916], [79.5656, 25.5917], [79.5656, 25.5918], [79.5656, 25.5919], [79.5657, 25.592], [79.5657, 25.5921], [79.5659, 25.5921]]]}, "properties": {"objectid": 309304, "statename": "UTTAR PRADESH", "statecode": "9", "districtname": "HAMIRPUR", "districtcode": "168", "ulbname": "NAGAR PALIKA PARISHAD RATH", "ulbcode": "801042", "wardname": "KHUSHIPURA", "wardcode": "21", "id": null, "status": "APPROVED", "misglobalid": null, "approved_by": null, "createdate": 1728667991000, "updateddate": 1728668603000, "globalid": null, "gisglobalid": "s4RQRn5s-ssmK-Pod4-a5ln-aoncBm45ns5l", "remark": "OK", "st_area(shape)": 4.523076998659523e-06, "st_perimeter(shape)": 0.012854503675058356}}, {"type": "Feature", "geometry": {"type": "Polygon", "coordinates": [[[79.5686, 25.596], [79.5687, 25.596], [79.5689, 25.596], [79.5691, 25.596], [79.5693, 25.596], [79.5694, 25.596], [79.5696, 25.5959], [79.5698, 25.5959], [79.57, 25.5958], [79.5702, 25.5959], [79.5703, 25.5959], [79.5705, 25.596], [79.5706, 25.596], [79.5708, 25.596], [79.5709, 25.5959], [79.5708, 25.5958], [79.5708, 25.5956], [79.5707, 25.5954], [79.5707, 25.5951], [79.5706, 25.595], [79.5706, 25.5949], [79.5706, 25.5948], [79.5706, 25.5947], [79.5706, 25.5944], [79.5707, 25.5942], [79.5706, 25.5938], [79.5706, 25.5935], [79.5706, 25.5932], [79.5704, 25.5932], [79.5702, 25.5931], [79.5701, 25.5932], [79.5699, 25.5931], [79.5698, 25.5932], [79.5696, 25.5933], [79.5694, 25.5934], [79.5693, 25.5935], [79.5689, 25.5937], [79.5687, 25.5938], [79.5686, 25.5939], [79.5686, 25.594], [79.5685, 25.594], [79.5684, 25.5941], [79.5682, 25.5942], [79.5683, 25.5943], [79.5683, 25.5944], [79.5685, 25.5946], [79.5686, 25.5947], [79.5687, 25.5948], [79.5687, 25.5949], [79.5688, 25.5949], [79.5688, 25.595], [79.5688, 25.5951], [79.5689, 25.5952], [79.5688, 25.5954], [79.5688, 25.5956], [79.5687, 25.5957], [79.5686, 25.596]]]}, "properties": {"objectid": 301180, "statename": "UTTAR PRADESH", "statecode": "9", "districtname": "HAMIRPUR", "districtcode": "168", "ulbname": "NAGAR PALIKA PARISHAD RATH", "ulbcode": "801042", "wardname": "KHUSHIPURA", "wardcode": "22", "id": null, "status": "APPROVED", "misglobalid": null, "approved_by": null, "createdate": 1728667131000, "updateddate": 1728668621000, "globalid": null, "gisglobalid": "6csRl5P4-lPPd-PQRR-soc5-osPsdRm5dR6B", "remark": "OK", "st_area(shape)": 5.297296230989556e-06, "st_perimeter(shape)": 0.009938221241126201}}, {"type": "Feature", "geometry": {"type": "Polygon", "coordinates": [[[79.5686, 25.596], [79.5687, 25.596], [79.5689, 25.596], [79.5691, 25.596], [79.5693, 25.596], [79.5694, 25.596], [79.5696, 25.5959], [79.5698, 25.5959], [79.57, 25.5958], [79.5702, 25.5959], [79.5703, 25.5959], [79.5705, 25.596], [79.5706, 25.596], [79.5708, 25.596], [79.5709, 25.5959], [79.5708, 25.5958], [79.5708, 25.5956], [79.5707, 25.5954], [79.5707, 25.5951], [79.5706, 25.595], [79.5706, 25.5949], [79.5706, 25.5948], [79.5706, 25.5947], [79.5706, 25.5944], [79.5707, 25.5942], [79.5706, 25.5938], [79.5706, 25.5935], [79.5706, 25.5932], [79.5704, 25.5932], [79.5702, 25.5931], [79.5701, 25.5932], [79.5699, 25.5931], [79.5698, 25.5932], [79.5696, 25.5933], [79.5694, 25.5934], [79.5693, 25.5935], [79.5689, 25.5937], [79.5687, 25.5938], [79.5686, 25.5939], [79.5686, 25.594], [79.5685, 25.594], [79.5684, 25.5941], [79.5682, 25.5942], [79.5683, 25.5943], [79.5683, 25.5944], [79.5685, 25.5946], [79.5686, 25.5947], [79.5687, 25.5948], [79.5687, 25.5949], [79.5688, 25.5949], [79.5688, 25.595], [79.5688, 25.5951], [79.5689, 25.5952], [79.5688, 25.5954], [79.5688, 25.5956], [79.5687, 25.5957], [79.5686, 25.596]]]}, "properties": {"objectid": 300407, "statename": "UTTAR PRADESH", "statecode": "9", "districtname": "HAMIRPUR", "districtcode": "168", "ulbname": "NAGAR PALIKA PARISHAD RATH", "ulbcode": "801042", "wardname": "MUGALPURA-02", "wardcode": "22", "id": null, "status": "REJECTED", "misglobalid": null, "approved_by": null, "createdate": 1728668009000, "updateddate": 1728668416000, "globalid": null, "gisglobalid": "46cc665B-a6cl-Pnsn-anQ4-ndsdPs4RPKPB", "remark": "DUAL ENTRY", "st_area(shape)": 5.297296230989556e-06, "st_perimeter(shape)": 0.009938221241126201}}, {"type": "Feature", "geometry": {"type": "Polygon", "coordinates": [[[79.5655, 25.5968], [79.5656, 25.5968], [79.5656, 25.5967], [79.5657, 25.5967], [79.5658, 25.5967], [79.566, 25.5967], [79.5661, 25.5967], [79.5663, 25.5967], [79.5665, 25.5966], [79.5667, 25.5966], [79.5671, 25.5965], [79.5674, 25.5964], [79.5676, 25.5964], [79.5678, 25.5963], [79.5679, 25.5963], [79.5681, 25.5962], [79.5683, 25.5961], [79.5685, 25.596], [79.5686, 25.5959], [79.5686, 25.5958], [79.5687, 25.5956], [79.5688, 25.5955], [79.5688, 25.5953], [79.5688, 25.5952], [79.5688, 25.5951], [79.5688, 25.595], [79.5688, 25.5949], [79.5686, 25.5948], [79.5684, 25.5946], [79.5683, 25.5945], [79.5683, 25.5943], [79.5682, 25.5942], [79.568, 25.5943], [79.5678, 25.5943], [79.5677, 25.5944], [79.5675, 25.5944], [79.5674, 25.5945], [79.5673, 25.5945], [79.5672, 25.5946], [79.5671, 25.5947], [79.567, 25.5947], [79.5668, 25.5947], [79.5666, 25.5947], [79.5665, 25.5947], [79.5666, 25.5949], [79.5667, 25.5952], [79.5667, 25.5953], [79.5666, 25.5953], [79.5665, 25.5953], [79.5663, 25.5954], [79.5662, 25.5954], [79.5662, 25.5952], [79.5662, 25.5951], [79.566, 25.5951], [79.5659, 25.5951], [79.5658, 25.5951], [79.5657, 25.5951], [79.5656, 25.5951], [79.5655, 25.5951], [79.5655, 25.595], [79.5655, 25.5949], [79.5654, 25.5948], [79.5654, 25.5947], [79.5653, 25.5945], [79.5652, 25.5945], [79.5652, 25.5948], [79.5652, 25.5949], [79.5652, 25.595], [79.5652, 25.5951], [79.5652, 25.5952], [79.5652, 25.5955], [79.5653, 25.5958], [79.5655, 25.5966], [79.5655, 25.5967], [79.5655, 25.5968]]]}, "properties": {"objectid": 308787, "statename": "UTTAR PRADESH", "statecode": "9", "districtname": "HAMIRPUR", "districtcode": "168", "ulbname": "NAGAR PALIKA PARISHAD RATH", "ulbcode": "801042", "wardname": "PATHNAU", "wardcode": "23", "id": null, "status": "APPROVED", "misglobalid": null, "approved_by": null, "createdate": 1728668032000, "updateddate": 1728668630000, "globalid": null, "gisglobalid": "4n64oBsl-KKKK-PQ5Q-RaRR-4KPP5KoBmcoc", "remark": "OK", "st_area(shape)": 5.841257664034672e-06, "st_perimeter(shape)": 0.01205936750436488}}, {"type": "Feature", "geometry": {"type": "Polygon", "coordinates": [[[79.5618, 25.595], [79.5619, 25.5952], [79.5622, 25.5951], [79.5624, 25.595], [79.5627, 25.5949], [79.563, 25.5948], [79.5632, 25.5948], [79.5635, 25.5947], [79.5638, 25.5946], [79.5638, 25.5944], [79.5637, 25.5943], [79.5636, 25.5942], [79.5635, 25.594], [79.5634, 25.5938], [79.5633, 25.5937], [79.5633, 25.5936], [79.5633, 25.5934], [79.5633, 25.5931], [79.5633, 25.593], [79.5633, 25.5929], [79.5632, 25.5928], [79.5631, 25.5927], [79.5631, 25.5926], [79.563, 25.5925], [79.5629, 25.5925], [79.5627, 25.5925], [79.5626, 25.5925], [79.5624, 25.5926], [79.5621, 25.5926], [79.5621, 25.5927], [79.562, 25.5927], [79.5619, 25.5927], [79.5618, 25.5928], [79.5616, 25.5928], [79.5614, 25.5928], [79.5613, 25.5928], [79.5612, 25.5929], [79.561, 25.5929], [79.5612, 25.5933], [79.5613, 25.5935], [79.5614, 25.5938], [79.5616, 25.5943], [79.5617, 25.5946], [79.5618, 25.595]]]}, "properties": {"objectid": 308788, "statename": "UTTAR PRADESH", "statecode": "9", "districtname": "HAMIRPUR", "districtcode": "168", "ulbname": "NAGAR PALIKA PARISHAD RATH", "ulbcode": "801042", "wardname": "JULEHTI-02", "wardcode": "24", "id": null, "status": "APPROVED", "misglobalid": null, "approved_by": null, "createdate": 1728668170000, "updateddate": 1728668649000, "globalid": null, "gisglobalid": "sdoRmmm4-RRd6-PQc6-allQ-BKn5dPQKQKBs", "remark": "OK", "st_area(shape)": 4.674638738622991e-06, "st_perimeter(shape)": 0.008891481025024116}}, {"type": "Feature", "geometry": {"type": "Polygon", "coordinates": [[[79.5663, 25.5954], [79.5666, 25.5953], [79.5667, 25.5952], [79.5665, 25.5947], [79.5667, 25.5947], [79.567, 25.5947], [79.5672, 25.5946], [79.5673, 25.5945], [79.5674, 25.5944], [79.5676, 25.5943], [79.5679, 25.5943], [79.5682, 25.5942], [79.5683, 25.5941], [79.5685, 25.594], [79.5685, 25.5938], [79.5685, 25.5936], [79.5685, 25.5934], [79.5684, 25.5932], [79.5683, 25.593], [79.5683, 25.5929], [79.5683, 25.5928], [79.5681, 25.5924], [79.5675, 25.5927], [79.567, 25.5929], [79.5669, 25.593], [79.5668, 25.5931], [79.5668, 25.5933], [79.5667, 25.5934], [79.5666, 25.5935], [79.5665, 25.5935], [79.5664, 25.5936], [79.5662, 25.5936], [79.566, 25.5936], [79.5659, 25.5936], [79.566, 25.5938], [79.5662, 25.5939], [79.5662, 25.594], [79.5661, 25.594], [79.566, 25.5941], [79.5659, 25.5942], [79.5658, 25.5943], [79.5656, 25.5944], [79.5655, 25.5944], [79.5654, 25.5945], [79.5654, 25.5947], [79.5655, 25.5948], [79.5655, 25.595], [79.5655, 25.5951], [79.5656, 25.5951], [79.5657, 25.5951], [79.5659, 25.5951], [79.5661, 25.5951], [79.5662, 25.5951], [79.5662, 25.5952], [79.5663, 25.5954]]]}, "properties": {"objectid": 301181, "statename": "UTTAR PRADESH", "statecode": "9", "districtname": "HAMIRPUR", "districtcode": "168", "ulbname": "NAGAR PALIKA PARISHAD RATH", "ulbcode": "801042", "wardname": "CHAUBATTA", "wardcode": "25", "id": null, "status": "APPROVED", "misglobalid": null, "approved_by": null, "createdate": 1728668349000, "updateddate": 1728668660000, "globalid": null, "gisglobalid": "sPsaoQQl-ad44-PoKP-allB-sRQRnoKRB5Bn", "remark": "OK", "st_area(shape)": 4.483664750683327e-06, "st_perimeter(shape)": 0.010677682080454364}}]}
