{"type": "FeatureCollection", "features": [{"type": "Feature", "geometry": {"type": "Polygon", "coordinates": [[[77.3641, 18.7103], [77.3644, 18.7104], [77.3649, 18.7108], [77.3651, 18.7109], [77.3654, 18.711], [77.3656, 18.7113], [77.366, 18.7117], [77.3667, 18.712], [77.3674, 18.7122], [77.3678, 18.7123], [77.3681, 18.7124], [77.3684, 18.7124], [77.3687, 18.7126], [77.3693, 18.7131], [77.3699, 18.7136], [77.3703, 18.7133], [77.3698, 18.7126], [77.3694, 18.7121], [77.3692, 18.7117], [77.3686, 18.7111], [77.368, 18.7104], [77.3678, 18.7101], [77.3676, 18.7097], [77.3673, 18.7092], [77.3672, 18.7091], [77.3671, 18.7088], [77.3669, 18.7087], [77.3668, 18.7084], [77.3666, 18.7081], [77.3665, 18.708], [77.3659, 18.7082], [77.3655, 18.7083], [77.365, 18.7083], [77.3644, 18.7083], [77.3644, 18.7086], [77.3643, 18.7093], [77.3642, 18.7098], [77.3641, 18.7103]]]}, "properties": {"objectid": 46129, "statename": "Maharashtra", "statecode": "27", "districtname": "Nanded Waghala", "districtcode": "511", "ulbname": "Mukhed", "ulbcode": "802746", "wardname": " Ward 1", "wardcode": "1", "id": null, "status": "APPROVED", "misglobalid": null, "approved_by": null, "createdate": 1639634268000, "updateddate": 1643623979000, "globalid": null, "gisglobalid": "61736440-9e6e-4ab0-8352-d738dd40c960", "remark": "", "st_area(shape)": 1.3837585753742387e-05, "st_perimeter(shape)": 0.018060340782207824}}, {"type": "Feature", "geometry": {"type": "Polygon", "coordinates": [[[77.3665, 18.708], [77.3668, 18.7085], [77.3674, 18.7092], [77.3678, 18.71], [77.3686, 18.711], [77.3692, 18.7117], [77.3701, 18.713], [77.3703, 18.7132], [77.3712, 18.7127], [77.3718, 18.712], [77.3724, 18.711], [77.3731, 18.7095], [77.3734, 18.7095], [77.374, 18.7097], [77.3748, 18.709], [77.3754, 18.7085], [77.3759, 18.708], [77.3762, 18.7078], [77.3761, 18.7076], [77.3757, 18.7074], [77.375, 18.7071], [77.3746, 18.707], [77.3741, 18.7069], [77.3736, 18.7068], [77.3733, 18.7068], [77.3727, 18.7068], [77.3723, 18.7068], [77.3716, 18.7069], [77.3709, 18.7069], [77.3704, 18.7069], [77.3698, 18.7069], [77.3694, 18.707], [77.3689, 18.707], [77.3685, 18.707], [77.3684, 18.707], [77.368, 18.707], [77.3678, 18.707], [77.3676, 18.7071], [77.3673, 18.7074], [77.3668, 18.7077], [77.3665, 18.708]]]}, "properties": {"objectid": 48671, "statename": "Maharashtra", "statecode": "27", "districtname": "Nanded Waghala", "districtcode": "511", "ulbname": "Mukhed", "ulbcode": "802746", "wardname": "Ward 2", "wardcode": "2", "id": null, "status": "APPROVED", "misglobalid": null, "approved_by": null, "createdate": 1639634499000, "updateddate": 1643624019000, "globalid": null, "gisglobalid": "60ff512c-8428-4d19-a8c2-42742997aa10", "remark": "", "st_area(shape)": 3.342711206053841e-05, "st_perimeter(shape)": 0.025453328370580713}}, {"type": "Feature", "geometry": {"type": "Polygon", "coordinates": [[[77.3685, 18.707], [77.3688, 18.707], [77.3731, 18.7068], [77.3738, 18.7068], [77.3745, 18.707], [77.375, 18.7071], [77.3757, 18.7074], [77.376, 18.7067], [77.3762, 18.7057], [77.3758, 18.7057], [77.3755, 18.7057], [77.375, 18.7056], [77.3744, 18.7055], [77.3739, 18.7054], [77.3733, 18.7052], [77.3734, 18.7038], [77.373, 18.7028], [77.3727, 18.7022], [77.3721, 18.7014], [77.3713, 18.7003], [77.3712, 18.6998], [77.371, 18.6987], [77.3705, 18.6976], [77.3698, 18.6962], [77.3697, 18.6959], [77.3692, 18.696], [77.3683, 18.6959], [77.3682, 18.6964], [77.3682, 18.6983], [77.3681, 18.6995], [77.3682, 18.7], [77.3683, 18.7006], [77.3683, 18.7014], [77.3683, 18.7018], [77.3682, 18.7021], [77.3682, 18.7024], [77.3682, 18.7027], [77.3682, 18.7029], [77.3683, 18.7032], [77.3683, 18.7037], [77.3683, 18.7043], [77.3683, 18.7045], [77.3684, 18.705], [77.3684, 18.7057], [77.3684, 18.7061], [77.3684, 18.7064], [77.3685, 18.7067], [77.3685, 18.707]]]}, "properties": {"objectid": 46134, "statename": "Maharashtra", "statecode": "27", "districtname": "Nanded Waghala", "districtcode": "511", "ulbname": "Mukhed", "ulbcode": "802746", "wardname": "Ward 3", "wardcode": "3", "id": null, "status": "APPROVED", "misglobalid": null, "approved_by": null, "createdate": 1639634978000, "updateddate": 1643624028000, "globalid": null, "gisglobalid": "9b8ed985-bdfc-40f9-96bb-f1127f4df16b", "remark": "", "st_area(shape)": 4.493356400903014e-05, "st_perimeter(shape)": 0.034761678713248347}}, {"type": "Feature", "geometry": {"type": "Polygon", "coordinates": [[[77.3664, 18.7076], [77.3665, 18.708], [77.3669, 18.7077], [77.3675, 18.7072], [77.3679, 18.707], [77.3682, 18.707], [77.3685, 18.707], [77.3684, 18.7066], [77.3684, 18.7061], [77.3684, 18.7055], [77.3683, 18.7049], [77.3683, 18.7046], [77.3683, 18.7041], [77.3683, 18.7033], [77.3682, 18.7029], [77.3681, 18.7029], [77.3678, 18.703], [77.3676, 18.7031], [77.3673, 18.7033], [77.367, 18.7034], [77.3667, 18.7036], [77.3665, 18.7036], [77.3663, 18.7037], [77.3663, 18.7039], [77.3661, 18.7042], [77.3659, 18.7043], [77.3658, 18.7044], [77.3658, 18.7048], [77.3659, 18.7051], [77.366, 18.7056], [77.3662, 18.7066], [77.3664, 18.7076]]]}, "properties": {"objectid": 46144, "statename": "Maharashtra", "statecode": "27", "districtname": "Nanded Waghala", "districtcode": "511", "ulbname": "Mukhed", "ulbcode": "802746", "wardname": "Ward 4", "wardcode": "4", "id": null, "status": "APPROVED", "misglobalid": null, "approved_by": null, "createdate": 1639639095000, "updateddate": 1643624043000, "globalid": null, "gisglobalid": "dcda1b79-4064-4e51-828e-0c6d55b97700", "remark": "", "st_area(shape)": 9.236640815736945e-06, "st_perimeter(shape)": 0.012967306839836004}}, {"type": "Feature", "geometry": {"type": "Polygon", "coordinates": [[[77.3571, 18.7076], [77.3569, 18.7091], [77.3571, 18.7102], [77.3583, 18.7098], [77.3594, 18.7096], [77.3599, 18.7097], [77.3608, 18.7099], [77.3615, 18.7099], [77.3622, 18.7101], [77.363, 18.7101], [77.3636, 18.7103], [77.364, 18.7107], [77.3641, 18.7103], [77.3642, 18.7097], [77.3643, 18.7088], [77.3644, 18.7083], [77.3655, 18.7083], [77.3659, 18.7082], [77.3665, 18.708], [77.3664, 18.7075], [77.3662, 18.7068], [77.3661, 18.7062], [77.366, 18.7056], [77.3653, 18.7057], [77.3649, 18.7057], [77.3648, 18.7053], [77.3647, 18.7046], [77.3646, 18.7048], [77.3643, 18.705], [77.3638, 18.7052], [77.3637, 18.7051], [77.3637, 18.705], [77.3637, 18.7049], [77.3637, 18.7046], [77.3637, 18.7044], [77.3635, 18.7043], [77.3632, 18.7044], [77.3634, 18.7048], [77.3635, 18.705], [77.3636, 18.7053], [77.3634, 18.7055], [77.3623, 18.7058], [77.3607, 18.7063], [77.3572, 18.7072], [77.3571, 18.7076]]]}, "properties": {"objectid": 48681, "statename": "Maharashtra", "statecode": "27", "districtname": "Nanded Waghala", "districtcode": "511", "ulbname": "Mukhed", "ulbcode": "802746", "wardname": "Ward 5", "wardcode": "5", "id": null, "status": "APPROVED", "misglobalid": null, "approved_by": null, "createdate": 1639639134000, "updateddate": 1643624050000, "globalid": null, "gisglobalid": "c01f60bb-1013-44c6-8768-a6a6c7aa303b", "remark": "", "st_area(shape)": 3.2876555998246014e-05, "st_perimeter(shape)": 0.02970671102953711}}, {"type": "Feature", "geometry": {"type": "Polygon", "coordinates": [[[77.3648, 18.7052], [77.3648, 18.7057], [77.3653, 18.7057], [77.3656, 18.7056], [77.3659, 18.7056], [77.3659, 18.7051], [77.3658, 18.7045], [77.3658, 18.7044], [77.3659, 18.7034], [77.366, 18.7026], [77.3661, 18.7019], [77.3661, 18.7018], [77.3654, 18.7014], [77.3654, 18.7017], [77.3654, 18.702], [77.3655, 18.7025], [77.365, 18.7026], [77.3646, 18.7026], [77.3641, 18.7026], [77.3636, 18.7028], [77.3634, 18.7032], [77.3632, 18.7038], [77.3629, 18.704], [77.363, 18.7042], [77.3632, 18.7044], [77.3635, 18.7043], [77.3636, 18.7043], [77.3637, 18.7044], [77.3637, 18.7045], [77.3637, 18.7049], [77.3637, 18.705], [77.3638, 18.7052], [77.3642, 18.705], [77.3645, 18.7049], [77.3646, 18.7047], [77.3647, 18.7046], [77.3648, 18.7052]]]}, "properties": {"objectid": 49419, "statename": "Maharashtra", "statecode": "27", "districtname": "Nanded Waghala", "districtcode": "511", "ulbname": "Mukhed", "ulbcode": "802746", "wardname": "Ward 6", "wardcode": "6", "id": null, "status": "APPROVED", "misglobalid": null, "approved_by": null, "createdate": 1639639172000, "updateddate": 1643624057000, "globalid": null, "gisglobalid": "8641e133-7590-4f5d-8252-533cdfd41915", "remark": "", "st_area(shape)": 7.2827111311988965e-06, "st_perimeter(shape)": 0.014535400526304658}}, {"type": "Feature", "geometry": {"type": "Polygon", "coordinates": [[[77.3639, 18.6997], [77.364, 18.6994], [77.3634, 18.6993], [77.3627, 18.6995], [77.3628, 18.6999], [77.3627, 18.7], [77.3624, 18.7], [77.3619, 18.7], [77.3617, 18.6996], [77.3617, 18.6997], [77.3617, 18.7], [77.3616, 18.7001], [77.3615, 18.7001], [77.3614, 18.7001], [77.3614, 18.7005], [77.361, 18.7006], [77.3609, 18.7006], [77.3614, 18.7009], [77.3614, 18.7015], [77.3615, 18.7021], [77.362, 18.7024], [77.3622, 18.7029], [77.3623, 18.7031], [77.3629, 18.704], [77.3632, 18.7038], [77.3633, 18.7033], [77.3634, 18.703], [77.3636, 18.7028], [77.364, 18.7026], [77.3641, 18.7026], [77.3646, 18.7026], [77.365, 18.7026], [77.3655, 18.7025], [77.3654, 18.7019], [77.3654, 18.7017], [77.3654, 18.7013], [77.3659, 18.7016], [77.3661, 18.7018], [77.3665, 18.7005], [77.3657, 18.7004], [77.3651, 18.7004], [77.3649, 18.7005], [77.3647, 18.7004], [77.3644, 18.7003], [77.3643, 18.7002], [77.3639, 18.7], [77.3639, 18.6997]]]}, "properties": {"objectid": 49420, "statename": "Maharashtra", "statecode": "27", "districtname": "Nanded Waghala", "districtcode": "511", "ulbname": "Mukhed", "ulbcode": "802746", "wardname": "Ward 7", "wardcode": "7", "id": null, "status": "APPROVED", "misglobalid": null, "approved_by": null, "createdate": 1639639276000, "updateddate": 1643624171000, "globalid": null, "gisglobalid": "9322262e-2b88-4f48-9059-e54aa6fe20e3", "remark": "", "st_area(shape)": 1.2735473569202844e-05, "st_perimeter(shape)": 0.019008055069216608}}, {"type": "Feature", "geometry": {"type": "Polygon", "coordinates": [[[77.3658, 18.7044], [77.3661, 18.7042], [77.3663, 18.7037], [77.3668, 18.7035], [77.367, 18.7034], [77.3675, 18.7032], [77.3682, 18.7029], [77.3683, 18.701], [77.3682, 18.6997], [77.3682, 18.6984], [77.3682, 18.6959], [77.3681, 18.6951], [77.3673, 18.695], [77.3663, 18.695], [77.366, 18.6953], [77.3656, 18.6959], [77.3653, 18.6962], [77.365, 18.6968], [77.3649, 18.6972], [77.3649, 18.6975], [77.3648, 18.6976], [77.3647, 18.6978], [77.3645, 18.6982], [77.3644, 18.6987], [77.3641, 18.6992], [77.364, 18.6994], [77.3639, 18.6998], [77.3639, 18.7], [77.3639, 18.7001], [77.364, 18.7001], [77.3644, 18.7002], [77.3644, 18.7003], [77.3647, 18.7004], [77.3649, 18.7005], [77.3651, 18.7004], [77.3656, 18.7004], [77.3657, 18.7004], [77.366, 18.7005], [77.3664, 18.7005], [77.3665, 18.7005], [77.3664, 18.7008], [77.3663, 18.7012], [77.3661, 18.7018], [77.3661, 18.7021], [77.366, 18.7024], [77.366, 18.7026], [77.366, 18.7028], [77.366, 18.7029], [77.3659, 18.7032], [77.3659, 18.7033], [77.3659, 18.7034], [77.3659, 18.7037], [77.3659, 18.7039], [77.3658, 18.7042], [77.3658, 18.7044]]]}, "properties": {"objectid": 49421, "statename": "Maharashtra", "statecode": "27", "districtname": "Nanded Waghala", "districtcode": "511", "ulbname": "Mukhed", "ulbcode": "802746", "wardname": "Ward 8", "wardcode": "8", "id": null, "status": "APPROVED", "misglobalid": null, "approved_by": null, "createdate": 1639639347000, "updateddate": 1643624097000, "globalid": null, "gisglobalid": "e83f0794-c76b-482f-8115-8093b08eab44", "remark": "", "st_area(shape)": 2.4835684564865296e-05, "st_perimeter(shape)": 0.025047514780322806}}]}
