{"type": "FeatureCollection", "features": [{"type": "Feature", "geometry": {"type": "Polygon", "coordinates": [[[78.8732, 27.9389], [78.8736, 27.9395], [78.8742, 27.9394], [78.875, 27.94], [78.8754, 27.9396], [78.8756, 27.9395], [78.8764, 27.9392], [78.8755, 27.938], [78.8744, 27.9367], [78.8732, 27.9389]]]}, "properties": {"objectid": 298120, "statename": "Uttar Pradesh", "statecode": "9", "districtname": "Budaun", "districtcode": "149", "ulbname": "Kachhla", "ulbcode": "800842", "wardname": "Jatwan", "wardcode": "1", "id": null, "status": "OPEN", "misglobalid": null, "approved_by": null, "createdate": 1672319706000, "updateddate": null, "globalid": null, "gisglobalid": "o5RcPmcd-5P5m-Pc4R-Rscc-lQcnm6RsBmnn", "remark": "--", "st_area(shape)": 5.187683010622486e-06, "st_perimeter(shape)": 0.009627046520378116}}, {"type": "Feature", "geometry": {"type": "Polygon", "coordinates": [[[78.8545, 27.9251], [78.8562, 27.9276], [78.857, 27.9274], [78.8575, 27.9274], [78.8579, 27.9271], [78.8584, 27.9272], [78.8587, 27.9268], [78.8587, 27.9243], [78.8585, 27.9235], [78.8578, 27.923], [78.8569, 27.9233], [78.8545, 27.9251]]]}, "properties": {"objectid": 298121, "statename": "Uttar Pradesh", "statecode": "9", "districtname": "Budaun", "districtcode": "149", "ulbname": "Kachhla", "ulbcode": "800842", "wardname": "Lakmi Nagla", "wardcode": "2", "id": null, "status": "OPEN", "misglobalid": null, "approved_by": null, "createdate": 1672319832000, "updateddate": null, "globalid": null, "gisglobalid": "n5Pnnm5R-Bomd-PKcm-Q6mR-dond65QKdm5Q", "remark": "--", "st_area(shape)": 1.2967935551678909e-05, "st_perimeter(shape)": 0.013953591676482725}}, {"type": "Feature", "geometry": {"type": "Polygon", "coordinates": [[[78.8554, 27.9266], [78.8549, 27.9295], [78.8554, 27.9305], [78.8571, 27.9298], [78.8592, 27.9281], [78.8585, 27.9273], [78.858, 27.9271], [78.8574, 27.9274], [78.857, 27.9274], [78.8562, 27.9277], [78.8554, 27.9266]]]}, "properties": {"objectid": 298122, "statename": "Uttar Pradesh", "statecode": "9", "districtname": "Budaun", "districtcode": "149", "ulbname": "Kachhla", "ulbcode": "800842", "wardname": "Pankhiya Nagla", "wardcode": "3", "id": null, "status": "OPEN", "misglobalid": null, "approved_by": null, "createdate": 1672319933000, "updateddate": null, "globalid": null, "gisglobalid": "o5s6ccn5-Bldn-PsP4-QB66-KBRslcosK46d", "remark": "--", "st_area(shape)": 8.953001179741249e-06, "st_perimeter(shape)": 0.013542614561716374}}, {"type": "Feature", "geometry": {"type": "Polygon", "coordinates": [[[78.8785, 27.9439], [78.8761, 27.9428], [78.8747, 27.9437], [78.8738, 27.9447], [78.8716, 27.9469], [78.8683, 27.9489], [78.8683, 27.9492], [78.8754, 27.9459], [78.8763, 27.9451], [78.877, 27.9445], [78.8777, 27.9442], [78.8785, 27.9439]]]}, "properties": {"objectid": 296979, "statename": "Uttar Pradesh", "statecode": "9", "districtname": "Budaun", "districtcode": "149", "ulbname": "Kachhla", "ulbcode": "800842", "wardname": "Bhatta Nagla", "wardcode": "4", "id": null, "status": "OPEN", "misglobalid": null, "approved_by": null, "createdate": 1672319976000, "updateddate": null, "globalid": null, "gisglobalid": "QQ5BalQd-BmBo-P4Ro-QcaK-R5RmllRBaaPP", "remark": "--", "st_area(shape)": 1.3129183560636603e-05, "st_perimeter(shape)": 0.024599694837662497}}, {"type": "Feature", "geometry": {"type": "Polygon", "coordinates": [[[78.8781, 27.9437], [78.8786, 27.9431], [78.8781, 27.9425], [78.8777, 27.9421], [78.877, 27.9425], [78.8747, 27.941], [78.8743, 27.9405], [78.874, 27.94], [78.8736, 27.9396], [78.8732, 27.9389], [78.8716, 27.94], [78.8723, 27.9405], [78.8725, 27.9406], [78.8727, 27.9408], [78.8731, 27.9411], [78.8732, 27.9409], [78.8735, 27.9409], [78.8739, 27.941], [78.8743, 27.9414], [78.8741, 27.9418], [78.8763, 27.9429], [78.8781, 27.9437]]]}, "properties": {"objectid": 298123, "statename": "Uttar Pradesh", "statecode": "9", "districtname": "Budaun", "districtcode": "149", "ulbname": "Kachhla", "ulbcode": "800842", "wardname": "Ashok Nagar", "wardcode": "5", "id": null, "status": "OPEN", "misglobalid": null, "approved_by": null, "createdate": 1672320061000, "updateddate": null, "globalid": null, "gisglobalid": "aams6llK-PsdR-PmR6-sRR4-Rm4QlQsmsPdB", "remark": "--", "st_area(shape)": 7.3151286396205455e-06, "st_perimeter(shape)": 0.018387088618710797}}, {"type": "Feature", "geometry": {"type": "Polygon", "coordinates": [[[78.8808, 27.9451], [78.8853, 27.9381], [78.882, 27.9356], [78.8745, 27.9367], [78.8755, 27.9378], [78.8784, 27.9417], [78.8787, 27.9421], [78.8781, 27.9425], [78.8784, 27.9429], [78.8786, 27.9431], [78.8782, 27.9436], [78.8784, 27.9438], [78.8793, 27.9443], [78.8808, 27.9451]]]}, "properties": {"objectid": 298124, "statename": "Uttar Pradesh", "statecode": "9", "districtname": "Budaun", "districtcode": "149", "ulbname": "Kachhla", "ulbcode": "800842", "wardname": "Bahara Nagla", "wardcode": "6", "id": null, "status": "OPEN", "misglobalid": null, "approved_by": null, "createdate": 1672320234000, "updateddate": null, "globalid": null, "gisglobalid": "nB4o45o4-oRBd-PRQ4-Qlcl-54nBKPPsacdK", "remark": "--", "st_area(shape)": 5.3840994787977565e-05, "st_perimeter(shape)": 0.032265091059897125}}, {"type": "Feature", "geometry": {"type": "Polygon", "coordinates": [[[78.8759, 27.9428], [78.863, 27.937], [78.8633, 27.9347], [78.8625, 27.9341], [78.8617, 27.9343], [78.8598, 27.935], [78.8588, 27.9356], [78.8682, 27.9489], [78.8718, 27.9467], [78.8731, 27.9453], [78.8746, 27.9437], [78.8759, 27.9428]]]}, "properties": {"objectid": 296980, "statename": "Uttar Pradesh", "statecode": "9", "districtname": "Budaun", "districtcode": "149", "ulbname": "Kachhla", "ulbcode": "800842", "wardname": "Ganga Ghat Utrri Bhag", "wardcode": "7", "id": null, "status": "OPEN", "misglobalid": null, "approved_by": null, "createdate": 1672320318000, "updateddate": null, "globalid": null, "gisglobalid": "55QBaKlP-6QnQ-Pol4-QP6c-ldnQnlPQ4BBR", "remark": "--", "st_area(shape)": 9.210346022800222e-05, "st_perimeter(shape)": 0.047722727701977434}}, {"type": "Feature", "geometry": {"type": "Polygon", "coordinates": [[[78.8809, 27.9452], [78.8785, 27.9441], [78.8776, 27.9443], [78.8769, 27.9447], [78.8764, 27.9451], [78.8753, 27.946], [78.8762, 27.9468], [78.8773, 27.9473], [78.8809, 27.9452]]]}, "properties": {"objectid": 296981, "statename": "Uttar Pradesh", "statecode": "9", "districtname": "Budaun", "districtcode": "149", "ulbname": "Kachhla", "ulbcode": "800842", "wardname": "Murawan Nagla", "wardcode": "8", "id": null, "status": "OPEN", "misglobalid": null, "approved_by": null, "createdate": 1672320369000, "updateddate": null, "globalid": null, "gisglobalid": "64B6sodQ-RBBQ-P5ss-Q66c-6BncRa5Bd4Pn", "remark": "--", "st_area(shape)": 9.22129146696191e-06, "st_perimeter(shape)": 0.01291329640326574}}, {"type": "Feature", "geometry": {"type": "Polygon", "coordinates": [[[78.8787, 27.942], [78.8765, 27.9392], [78.8758, 27.9395], [78.8754, 27.9396], [78.875, 27.94], [78.8742, 27.9395], [78.8736, 27.9395], [78.8748, 27.9411], [78.877, 27.9425], [78.8777, 27.9421], [78.8781, 27.9424], [78.8787, 27.942]]]}, "properties": {"objectid": 297778, "statename": "Uttar Pradesh", "statecode": "9", "districtname": "Budaun", "districtcode": "149", "ulbname": "Kachhla", "ulbcode": "800842", "wardname": "Thaukran", "wardcode": "9", "id": null, "status": "OPEN", "misglobalid": null, "approved_by": null, "createdate": 1672320506000, "updateddate": null, "globalid": null, "gisglobalid": "s6Ps46Km-5ldc-PPmK-RBa6-5mBKBs45oc6s", "remark": "--", "st_area(shape)": 7.798784578471729e-06, "st_perimeter(shape)": 0.013407724676308781}}, {"type": "Feature", "geometry": {"type": "Polygon", "coordinates": [[[78.8731, 27.9414], [78.8741, 27.9418], [78.8743, 27.9414], [78.8738, 27.941], [78.8735, 27.9409], [78.8732, 27.9409], [78.8731, 27.9411], [78.8728, 27.9409], [78.8727, 27.9408], [78.8725, 27.9406], [78.8723, 27.9406], [78.8724, 27.9405], [78.8722, 27.9404], [78.8715, 27.94], [78.8711, 27.9405], [78.8731, 27.9414]]]}, "properties": {"objectid": 296982, "statename": "Uttar Pradesh", "statecode": "9", "districtname": "Budaun", "districtcode": "149", "ulbname": "Kachhla", "ulbcode": "800842", "wardname": "Mallha Nagar", "wardcode": "10", "id": null, "status": "OPEN", "misglobalid": null, "approved_by": null, "createdate": 1672320596000, "updateddate": null, "globalid": null, "gisglobalid": "nBBnlQK6-mmB5-P5mc-Q6Bs-PcQoRRd5nR4R", "remark": "--", "st_area(shape)": 1.631379083991078e-06, "st_perimeter(shape)": 0.007790895627337169}}]}
