{"type":"Topology","arcs":[[[55913,46616],[6452,9023]],[[62365,55639],[5376,-1504]],[[67741,54135],[6452,-3008]],[[74193,51127],[13978,-6015]],[[88171,45112],[-1075,-1503]],[[87096,43609],[-24731,-1504]],[[62365,42105],[-6452,4511]],[[22580,16541],[7527,-9022]],[[30107,7519],[3226,-3008]],[[33333,4511],[-33333,-4511]],[[0,0],[22580,16541]],[[62365,68420],[3226,0]],[[65591,68420],[-3226,-12781]],[[62365,55639],[-17204,-1504],[-26882,12030]],[[18279,66165],[19355,27819],[17204,6015],[19355,-2256]],[[74193,97743],[-39785,-21052],[27957,-8271]],[[54838,35338],[7527,6767]],[[87096,43609],[-16129,-19549]],[[70967,24060],[-12903,9022]],[[58064,33082],[-3226,2256]],[[44086,29323],[2150,752]],[[46236,30075],[8602,5263]],[[58064,33082],[12903,-9022]],[[70967,24060],[-6452,-14286]],[[64515,9774],[-12903,12782]],[[51612,22556],[-3225,3008]],[[48387,25564],[-4301,3759]],[[74193,97743],[8602,-2255]],[[82795,95488],[-6452,-15038]],[[76343,80450],[-10752,-12030]],[[65591,68420],[-3226,0]],[[5376,30075],[7527,-752]],[[12903,29323],[7527,-752]],[[20430,28571],[12903,0]],[[33333,28571],[-1075,-2255]],[[32258,26316],[-3226,-5264]],[[29032,21052],[-1075,-1503]],[[27957,19549],[-5377,-3008]],[[22580,16541],[-21505,4511]],[[1075,21052],[4301,9023]],[[12903,54887],[31183,-14286]],[[44086,40601],[-10753,-12030]],[[33333,28571],[-12903,0]],[[20430,28571],[-7527,752]],[[5376,30075],[7527,24812]],[[0,0],[1075,21052]],[[54838,35338],[-1075,752]],[[53763,36090],[-5376,3007]],[[48387,39097],[-4301,1504]],[[44086,40601],[11827,6015]],[[30107,7519],[-7527,9022]],[[27957,19549],[1075,752]],[[29032,20301],[4301,1503]],[[33333,21804],[9677,6015]],[[43010,27819],[1076,1504]],[[48387,25564],[3225,-3008]],[[64515,9774],[-31182,-5263]],[[12903,54887],[5376,11278]],[[87096,62405],[1075,-17293]],[[74193,51127],[-6452,3008]],[[65591,68420],[21505,-6015]],[[29032,21052],[3226,5264]],[[32258,26316],[1075,2255]],[[48387,39097],[5376,-3007]],[[46236,30075],[-3226,-2256]],[[33333,21804],[-4301,-1503]],[[76343,80450],[6452,15038]],[[82795,95488],[15053,-6767],[2151,-19549],[-12903,-6767]]],"transform":{"scale":[9.30009300094031e-8,1.3300133001327438e-7],"translate":[78.5264,29.5193]},"objects":{"wards":{"type":"GeometryCollection","geometries":[{"arcs":[[0,1,2,3,4,5,6]],"type":"Polygon","properties":{"objectid":205581,"statename":"Uttar Pradesh","statecode":"9","districtname":"Bijnor","districtcode":"134","ulbname":"Warhapur (Np)","ulbcode":"800669","wardname":"Naumi South","wardcode":"1","id":null,"status":"APPROVED","misglobalid":null,"approved_by":null,"createdate":1647889688000,"updateddate":1648092927000,"globalid":null,"gisglobalid":"RQonQ5Kc-mRon-PBPK-QmlB-a55lK5Qln5ac","remark":"","st_area(shape)":0.000002995249515531191,"st_perimeter(shape)":0.007713300116081619}},{"arcs":[[7,8,9,10]],"type":"Polygon","properties":{"objectid":203557,"statename":"Uttar Pradesh","statecode":"9","districtname":"Bijnor","districtcode":"134","ulbname":"Warhapur (Np)","ulbcode":"800669","wardname":"Harijan Basti","wardcode":"2","id":null,"status":"APPROVED","misglobalid":null,"approved_by":null,"createdate":1647889756000,"updateddate":1648092935000,"globalid":null,"gisglobalid":"lKPlsdP4-nm5d-Pnlc-aldm-BKdlRB4cms5a","remark":"","st_area(shape)":0.0000031392318334358477,"st_perimeter(shape)":0.008209056572524373}},{"arcs":[[11,12,13,14,15]],"type":"Polygon","properties":{"objectid":201602,"statename":"Uttar Pradesh","statecode":"9","districtname":"Bijnor","districtcode":"134","ulbname":"Warhapur (Np)","ulbcode":"800669","wardname":"Naumi West","wardcode":"3","id":null,"status":"APPROVED","misglobalid":null,"approved_by":null,"createdate":1647890175000,"updateddate":1648092942000,"globalid":null,"gisglobalid":"Bas4a6aR-5c6s-P654-QR4Q-KRKsnnQPo5no","remark":"","st_area(shape)":0.000014863308636477156,"st_perimeter(shape)":0.022087691801552754}},{"arcs":[[16,-6,17,18,19]],"type":"Polygon","properties":{"objectid":205977,"statename":"Uttar Pradesh","statecode":"9","districtname":"Bijnor","districtcode":"134","ulbname":"Warhapur (Np)","ulbcode":"800669","wardname":"Gadriyaan","wardcode":"4","id":null,"status":"APPROVED","misglobalid":null,"approved_by":null,"createdate":1646971558000,"updateddate":1648092949000,"globalid":null,"gisglobalid":"cdPd444R-dBlK-Pcoc-QP5P-aPKlaRBaBRsl","remark":"","st_area(shape)":0.000003873853931907467,"st_perimeter(shape)":0.008876759643797331}},{"arcs":[[20,21,-20,22,23,24,25,26]],"type":"Polygon","properties":{"objectid":205587,"statename":"Uttar Pradesh","statecode":"9","districtname":"Bijnor","districtcode":"134","ulbname":"Warhapur (Np)","ulbcode":"800669","wardname":"Pakkabag","wardcode":"5","id":null,"status":"APPROVED","misglobalid":null,"approved_by":null,"createdate":1647890332000,"updateddate":1648092956000,"globalid":null,"gisglobalid":"P4saRPaK-lcRm-P6n4-aoRm-dmBd5BK4cQRQ","remark":"","st_area(shape)":0.000004041962959996051,"st_perimeter(shape)":0.008890274312115264}},{"arcs":[[27,28,29,30,-16]],"type":"Polygon","properties":{"objectid":202327,"statename":"Uttar Pradesh","statecode":"9","districtname":"Bijnor","districtcode":"134","ulbname":"Warhapur (Np)","ulbcode":"800669","wardname":"Naumi Uttari","wardcode":"6","id":null,"status":"APPROVED","misglobalid":null,"approved_by":null,"createdate":1647890426000,"updateddate":1648092963000,"globalid":null,"gisglobalid":"asaR6PQ5-QPlc-Pd4R-RlR5-5c45nK4lR4ns","remark":"","st_area(shape)":0.000008759298152352408,"st_perimeter(shape)":0.01281283794318466}},{"arcs":[[31,32,33,34,35,36,37,38,39]],"type":"Polygon","properties":{"objectid":205978,"statename":"Uttar Pradesh","statecode":"9","districtname":"Bijnor","districtcode":"134","ulbname":"Warhapur (Np)","ulbcode":"800669","wardname":"Lalsaray","wardcode":"7","id":null,"status":"APPROVED","misglobalid":null,"approved_by":null,"createdate":1646971823000,"updateddate":1648092970000,"globalid":null,"gisglobalid":"BPnKdQ5a-sam5-Po5n-aRcl-cnKo4sQ4aPc6","remark":"","st_area(shape)":0.000003857188512419436,"st_perimeter(shape)":0.00805068765349315}},{"arcs":[[40,41,42,43,-32,44]],"type":"Polygon","properties":{"objectid":205979,"statename":"Uttar Pradesh","statecode":"9","districtname":"Bijnor","districtcode":"134","ulbname":"Warhapur (Np)","ulbcode":"800669","wardname":"Jhojhiyaan","wardcode":"8","id":null,"status":"APPROVED","misglobalid":null,"approved_by":null,"createdate":1646971851000,"updateddate":1648092978000,"globalid":null,"gisglobalid":"dRQ6cKd5-Kans-PQQ6-snc6-RBcdcdolQRna","remark":"","st_area(shape)":0.000007470078916903619,"st_perimeter(shape)":0.011575108665747543}},{"arcs":[[-39,-11,45]],"type":"Polygon","properties":{"objectid":205588,"statename":"Uttar Pradesh","statecode":"9","districtname":"Bijnor","districtcode":"134","ulbname":"Warhapur (Np)","ulbcode":"800669","wardname":"Bhajdawala","wardcode":"9","id":null,"status":"APPROVED","misglobalid":null,"approved_by":null,"createdate":1646971837000,"updateddate":1648092986000,"globalid":null,"gisglobalid":"nKomKcos-acPl-Plsd-Q6Pm-cKlldmQcs66l","remark":"","st_area(shape)":0.0000039846575281042785,"st_perimeter(shape)":0.008645615601807474}},{"arcs":[[-7,-17,46,47,48,49]],"type":"Polygon","properties":{"objectid":202328,"statename":"Uttar Pradesh","statecode":"9","districtname":"Bijnor","districtcode":"134","ulbname":"Warhapur (Np)","ulbcode":"800669","wardname":"Bazar","wardcode":"10","id":null,"status":"APPROVED","misglobalid":null,"approved_by":null,"createdate":1646971617000,"updateddate":1648092997000,"globalid":null,"gisglobalid":"QB4PPnQK-aKoK-PdR5-RdRc-R5KsQKnsnQs6","remark":"","st_area(shape)":0.0000012300673481957906,"st_perimeter(shape)":0.004555386053867964}},{"arcs":[[-9,50,-38,51,52,53,54,-27,55,-25,56]],"type":"Polygon","properties":{"objectid":205980,"statename":"Uttar Pradesh","statecode":"9","districtname":"Bijnor","districtcode":"134","ulbname":"Warhapur (Np)","ulbcode":"800669","wardname":"Sattiyaan","wardcode":"11","id":null,"status":"APPROVED","misglobalid":null,"approved_by":null,"createdate":1647923012000,"updateddate":1648093006000,"globalid":null,"gisglobalid":"aPP6ad4s-n5d5-Pa6B-QQnn-6sdPmcssalo4","remark":"","st_area(shape)":0.000006444907681542664,"st_perimeter(shape)":0.010970463148533019}},{"arcs":[[-14,-1,-50,-41,57]],"type":"Polygon","properties":{"objectid":205981,"statename":"Uttar Pradesh","statecode":"9","districtname":"Bijnor","districtcode":"134","ulbname":"Warhapur (Np)","ulbcode":"800669","wardname":"Pathanaan","wardcode":"12","id":null,"status":"APPROVED","misglobalid":null,"approved_by":null,"createdate":1646971714000,"updateddate":1648093014000,"globalid":null,"gisglobalid":"R65msa4Q-cPBn-Pol5-Q4BR-l6cPs6caRsPs","remark":"","st_area(shape)":0.000007402247462063773,"st_perimeter(shape)":0.012455520714937784}},{"arcs":[[58,-4,59,-2,-13,60]],"type":"Polygon","properties":{"objectid":205982,"statename":"Uttar Pradesh","statecode":"9","districtname":"Bijnor","districtcode":"134","ulbname":"Warhapur (Np)","ulbcode":"800669","wardname":"Naumi Dakshni","wardcode":"13","id":null,"status":"APPROVED","misglobalid":null,"approved_by":null,"createdate":1647922900000,"updateddate":1648093021000,"globalid":null,"gisglobalid":"6QPQQsmm-Qdcd-PB44-R6dn-KlaodK6oKl5d","remark":"","st_area(shape)":0.000005203629002340187,"st_perimeter(shape)":0.009372438586097775}},{"arcs":[[-37,61,62,-42,-49,63,-47,-22,64,-54,65,-52]],"type":"Polygon","properties":{"objectid":203558,"statename":"Uttar Pradesh","statecode":"9","districtname":"Bijnor","districtcode":"134","ulbname":"Warhapur (Np)","ulbcode":"800669","wardname":"Bazar Kothi","wardcode":"14","id":null,"status":"APPROVED","misglobalid":null,"approved_by":null,"createdate":1646971897000,"updateddate":1648093029000,"globalid":null,"gisglobalid":"aBQocK5K-4aBa-Pcdn-al4d-lm5PcPl4cKl6","remark":"","st_area(shape)":0.000002541660552936432,"st_perimeter(shape)":0.007931163503462903}},{"arcs":[[-30,66,67,-61]],"type":"Polygon","properties":{"objectid":202329,"statename":"Uttar Pradesh","statecode":"9","districtname":"Bijnor","districtcode":"134","ulbname":"Warhapur (Np)","ulbcode":"800669","wardname":"Chamaraan","wardcode":"15","id":null,"status":"APPROVED","misglobalid":null,"approved_by":null,"createdate":1646971914000,"updateddate":1648093037000,"globalid":null,"gisglobalid":"dPKB565s-d5lR-PQoR-QdcP-PmolKldBPRQc","remark":"","st_area(shape)":0.000008448823008106748,"st_perimeter(shape)":0.011966860252450327}}]}}}