{"type":"Topology","arcs":[[[78571,32432],[6122,29730]],[[84693,62162],[12755,10810]],[[97448,72972],[2551,-13513],[-510,-37838]],[[99489,21621],[-11735,2703]],[[87754,24324],[-9183,8108]],[[68877,27027],[-2041,0]],[[66836,27027],[2551,22973]],[[69387,50000],[3571,1351]],[[72958,51351],[-4081,-24324]],[[66836,27027],[-3571,1351]],[[63265,28378],[-1531,10811]],[[61734,39189],[7653,10811]],[[64285,18919],[-13775,6756]],[[50510,25675],[-3061,6757],[-13776,1351]],[[33673,33783],[-5102,2703]],[[28571,36486],[18367,22973]],[[46938,59459],[4592,-17568],[10204,-2702]],[[63265,28378],[1020,-9459]],[[68877,27027],[6632,-5406]],[[75509,21621],[0,-12162]],[[75509,9459],[-9693,0]],[[65816,9459],[-1531,9460]],[[87754,24324],[-10204,1351]],[[77550,25675],[1021,6757]],[[84693,62162],[-10204,-9460]],[[74489,52702],[3571,41892]],[[78060,94594],[9694,-6757],[9694,-14865]],[[46938,59459],[10204,13513],[-3061,25676],[7653,1351]],[[61734,99999],[0,-24324],[-4082,-4054],[4082,-32432]],[[99489,21621],[-1021,-21621],[-22959,9459]],[[75509,21621],[2041,4054]],[[72958,51351],[1531,1351]],[[33673,33783],[1021,-28378]],[[34694,5405],[-20408,0],[-14286,10811],[2551,25675],[26020,-5405]],[[61734,99999],[16326,-5405]],[[50510,25675],[-1021,-18918]],[[49489,6757],[-5612,-6757],[-9183,5405]],[[65816,9459],[-7653,-5405],[-8674,2703]]],"transform":{"scale":[1.9600196001956974e-7,7.400074000740525e-8],"translate":[83.4945,26.2797]},"objects":{"wards":{"type":"GeometryCollection","geometries":[{"arcs":[[0,1,2,3,4]],"type":"Polygon","properties":{"objectid":147458,"statename":"Uttar Pradesh","statecode":"9","districtname":"","districtcode":"188","ulbname":"Np Barhalganj","ulbcode":"801165","wardname":"01-Khatik Tola Poorvi","wardcode":"1","id":null,"status":"APPROVED","misglobalid":null,"approved_by":null,"createdate":1644580995000,"updateddate":1644582682000,"globalid":null,"gisglobalid":"amlsP55l-QnRd-PsBP-sQ55-nQQdnBdPBaso","remark":"","st_area(shape)":0.000010366773546439789,"st_perimeter(shape)":0.015194490308272983}},{"arcs":[[5,6,7,8]],"type":"Polygon","properties":{"objectid":155871,"statename":"Uttar Pradesh","statecode":"9","districtname":"","districtcode":"188","ulbname":"Np Barhalganj","ulbcode":"801165","wardname":"02-Miyan Ka Hata","wardcode":"2","id":null,"status":"APPROVED","misglobalid":null,"approved_by":null,"createdate":1644580995000,"updateddate":1644582687000,"globalid":null,"gisglobalid":"KsodmRQc-dsaa-Pm46-R6sa-c65PacQlB4Qm","remark":"","st_area(shape)":0.000001073254440741402,"st_perimeter(shape)":0.0050633573300029495}},{"arcs":[[9,10,11,-7]],"type":"Polygon","properties":{"objectid":147457,"statename":"Uttar Pradesh","statecode":"9","districtname":"","districtcode":"188","ulbname":"Np Barhalganj","ulbcode":"801165","wardname":"03-Pillupaar","wardcode":"3","id":null,"status":"APPROVED","misglobalid":null,"approved_by":null,"createdate":1644580995000,"updateddate":1644582692000,"globalid":null,"gisglobalid":"QRKBQPad-BdsB-PnBP-a545-K4dcdKKo56Bs","remark":"","st_area(shape)":0.0000015873353189139147,"st_perimeter(shape)":0.00526560674105412}},{"arcs":[[12,13,14,15,16,-11,17]],"type":"Polygon","properties":{"objectid":154643,"statename":"Uttar Pradesh","statecode":"9","districtname":"","districtcode":"188","ulbname":"Np Barhalganj","ulbcode":"801165","wardname":"04-Khatik Tola Paschimi","wardcode":"4","id":null,"status":"APPROVED","misglobalid":null,"approved_by":null,"createdate":1644580995000,"updateddate":1644582703000,"globalid":null,"gisglobalid":"Qa5ld4Ko-BPcR-PQR5-a4oo-KBPlPR4mBm5s","remark":"","st_area(shape)":0.000007848551367522474,"st_perimeter(shape)":0.016950476664874356}},{"arcs":[[-6,18,19,20,21,-18,-10]],"type":"Polygon","properties":{"objectid":153859,"statename":"Uttar Pradesh","statecode":"9","districtname":"","districtcode":"188","ulbname":"Np Barhalganj","ulbcode":"801165","wardname":"05-Pandit Pura Mohalla","wardcode":"5","id":null,"status":"APPROVED","misglobalid":null,"approved_by":null,"createdate":1644580995000,"updateddate":1644582696000,"globalid":null,"gisglobalid":"6lcQKa4B-aQPR-PcsP-Qsa4-RcasQdomPKRa","remark":"","st_area(shape)":0.000002564332468261333,"st_perimeter(shape)":0.006851212404631498}},{"arcs":[[22,23,-5]],"type":"Polygon","properties":{"objectid":153860,"statename":"Uttar Pradesh","statecode":"9","districtname":"","districtcode":"188","ulbname":"Np Barhalganj","ulbcode":"801165","wardname":"06-Lalganj","wardcode":"6","id":null,"status":"APPROVED","misglobalid":null,"approved_by":null,"createdate":1644580995000,"updateddate":1644582707000,"globalid":null,"gisglobalid":"6csRaKcn-c54R-P6nP-saQB-QBRsmQ56coQB","remark":"","st_area(shape)":0.0000015492151778607164,"st_perimeter(shape)":0.006260021384403044}},{"arcs":[[-2,24,25,26]],"type":"Polygon","properties":{"objectid":152335,"statename":"Uttar Pradesh","statecode":"9","districtname":"","districtcode":"188","ulbname":"Np Barhalganj","ulbcode":"801165","wardname":"07-Naush Hara","wardcode":"7","id":null,"status":"APPROVED","misglobalid":null,"approved_by":null,"createdate":1644580995000,"updateddate":1644582712000,"globalid":null,"gisglobalid":"KcalPacn-R4dP-PRnm-a4Ko-s5dKoRlsloln","remark":"","st_area(shape)":0.000006875581095436969,"st_perimeter(shape)":0.012196956090500564}},{"arcs":[[-17,27,28]],"type":"Polygon","properties":{"objectid":153858,"statename":"Uttar Pradesh","statecode":"9","districtname":"","districtcode":"188","ulbname":"Np Barhalganj","ulbcode":"801165","wardname":"08-Purana Gola","wardcode":"8","id":null,"status":"APPROVED","misglobalid":null,"approved_by":null,"createdate":1644580995000,"updateddate":1644582716000,"globalid":null,"gisglobalid":"6llQd5RK-lBPQ-PRKK-sB65-B65olnQBo6la","remark":"","st_area(shape)":0.000006594656943219624,"st_perimeter(shape)":0.01548746618397853}},{"arcs":[[-4,29,-20,30,-23]],"type":"Polygon","properties":{"objectid":153861,"statename":"Uttar Pradesh","statecode":"9","districtname":"","districtcode":"188","ulbname":"Np Barhalganj","ulbcode":"801165","wardname":"09-Dhaniya Tola","wardcode":"9","id":null,"status":"APPROVED","misglobalid":null,"approved_by":null,"createdate":1644580995000,"updateddate":1644582720000,"globalid":null,"gisglobalid":"RsPdasdl-slnm-P565-RRn5-56PsR4alB55s","remark":"","st_area(shape)":0.00000617040181917175,"st_perimeter(shape)":0.012875121379808133}},{"arcs":[[-19,-9,31,-25,-1,-24,-31]],"type":"Polygon","properties":{"objectid":152334,"statename":"Uttar Pradesh","statecode":"9","districtname":"","districtcode":"188","ulbname":"Np Barhalganj","ulbcode":"801165","wardname":"10-Kasab Tola","wardcode":"10","id":null,"status":"APPROVED","misglobalid":null,"approved_by":null,"createdate":1644580995000,"updateddate":1644582729000,"globalid":null,"gisglobalid":"Pd66aRK6-BaKn-Pcoo-a4PK-d5KllQlmoccn","remark":"","st_area(shape)":0.000004223089646681164,"st_perimeter(shape)":0.010183722649997841}},{"arcs":[[-15,32,33]],"type":"Polygon","properties":{"objectid":155438,"statename":"Uttar Pradesh","statecode":"9","districtname":"","districtcode":"188","ulbname":"Np Barhalganj","ulbcode":"801165","wardname":"11-Tiwaripur","wardcode":"11","id":null,"status":"APPROVED","misglobalid":null,"approved_by":null,"createdate":1644580995000,"updateddate":1644582733000,"globalid":null,"gisglobalid":"6sBQamBa-ldR4-Pc56-Qs6n-n5aP4QPQ5lK5","remark":"","st_area(shape)":0.000014427134673493888,"st_perimeter(shape)":0.017458393724594252}},{"arcs":[[-32,-8,-12,-29,34,-26]],"type":"Polygon","properties":{"objectid":155872,"statename":"Uttar Pradesh","statecode":"9","districtname":"","districtcode":"188","ulbname":"Np Barhalganj","ulbcode":"801165","wardname":"12-Mahadeva Mohalla","wardcode":"12","id":null,"status":"APPROVED","misglobalid":null,"approved_by":null,"createdate":1644580995000,"updateddate":1644582738000,"globalid":null,"gisglobalid":"BBRK4QK6-aRB4-PRPP-Qn6R-sKm4l6aRl5Ka","remark":"","st_area(shape)":0.000011972599082832724,"st_perimeter(shape)":0.014942129208370958}},{"arcs":[[35,36,-33,-14]],"type":"Polygon","properties":{"objectid":152332,"statename":"Uttar Pradesh","statecode":"9","districtname":"","districtcode":"188","ulbname":"Np Barhalganj","ulbcode":"801165","wardname":"13-Purani Hanuman Garhi","wardcode":"13","id":null,"status":"APPROVED","misglobalid":null,"approved_by":null,"createdate":1644580995000,"updateddate":1644582741000,"globalid":null,"gisglobalid":"6RaQ654K-5BaR-PQBc-sll6-P4RK5an5s5o5","remark":"","st_area(shape)":0.000007026071034389147,"st_perimeter(shape)":0.01060361524006931}},{"arcs":[[-22,37,-36,-13]],"type":"Polygon","properties":{"objectid":152333,"statename":"Uttar Pradesh","statecode":"9","districtname":"","districtcode":"188","ulbname":"Np Barhalganj","ulbcode":"801165","wardname":"14-Nai Hanuman Garhi","wardcode":"14","id":null,"status":"APPROVED","misglobalid":null,"approved_by":null,"createdate":1644580995000,"updateddate":1644582746000,"globalid":null,"gisglobalid":"mPcQsRcc-as5l-P6sK-QmQQ-BsQmocsnQ5lB","remark":"","st_area(shape)":0.00000502204670676527,"st_perimeter(shape)":0.010116056832067066}}]}}}