{"type":"Topology","arcs":[[[43980,36169],[-2024,161],[-781,753],[-3871,-1116]],[[37304,35967],[-479,995]],[[36825,36962],[2042,1102],[2468,0],[3427,618],[603,807]],[[45365,39489],[799,-1102],[1847,-1358],[-1953,-80],[-2078,-780]],[[43980,36169],[1758,-1734]],[[45738,34435],[-3444,336],[-2646,-470],[-817,-847]],[[38831,33454],[-1527,2513]],[[45738,34435],[-1598,-3306],[1545,-847]],[[45685,30282],[-373,-2097],[-2734,-1855]],[[42578,26330],[-1403,2917],[-2344,4207]],[[45738,34435],[3019,-2782],[1260,67]],[[50017,31720],[-799,-148],[-2272,-1895]],[[46946,29677],[-1261,605]],[[46946,29677],[2929,-2930],[391,-887]],[[50266,25860],[-2166,-699],[-2113,67],[-959,-766],[320,-1707]],[[45348,22755],[-764,-417]],[[44584,22338],[-2006,3992]],[[55237,30551],[-834,-229],[-1971,-4032]],[[52432,26290],[-2166,-430]],[[50017,31720],[551,-564],[2681,685]],[[53249,31841],[1988,-1290]],[[27894,62002],[-1474,-390]],[[26420,61612],[-2415,-121]],[[24005,61491],[-1527,-470],[-461,-1022],[-1261,-725]],[[20756,59274],[-1598,2486]],[[19158,61760],[2646,1371]],[[21804,63131],[4421,1344]],[[26225,64475],[1917,-1263],[-248,-1210]],[[18235,63494],[1722,215],[1847,-578]],[[19158,61760],[-923,1734]],[[31374,56747],[-2006,470],[-515,1196]],[[28853,58413],[-2007,1385],[-426,1814]],[[27894,62002],[1207,54],[817,-1452],[1385,-322]],[[31303,60282],[124,-1385],[1882,-954],[-1935,-1196]],[[24005,61491],[-390,-914],[1065,-2190],[-1101,-1358],[-1101,-215]],[[22478,56814],[-1722,2460]],[[23579,95416],[-1882,591],[-1616,1143],[-1509,-135],[-1633,1734]],[[16939,98749],[1491,-336],[2397,430],[1811,1156],[1936,-511],[568,-1828],[-213,-1250],[-1350,-994]],[[10209,84757],[-230,1035]],[[9979,85792],[2024,1707],[1900,605],[1118,-161],[-497,-1519],[1758,-81],[373,-1088]],[[16655,85255],[-2184,188],[-1154,-471],[-2397,444],[-711,-659]],[[7954,86182],[2025,-390]],[[10209,84757],[-834,-739],[-1509,1142],[88,1022]],[[39861,46693],[1030,-712],[337,-2393],[-1118,-1559],[1331,-820],[3392,-215]],[[44833,40994],[1172,-752],[-640,-753]],[[36825,36962],[-2468,4368],[-1048,1452]],[[33309,42782],[1634,1115],[-657,713],[3764,2002],[1811,81]],[[89168,49502],[994,-1572],[1297,-914],[2556,-753],[799,-941],[2575,-148],[1562,-1021],[-248,-1774],[-1705,-1815]],[[96998,40564],[-3711,-13]],[[93287,40551],[-3302,2822],[-1332,-443],[-3799,322],[-6499,-564],[-4119,-1895],[1562,-1842],[-461,-793]],[[75337,38158],[-1368,-537],[-390,-1022],[-1492,-40],[-621,793],[-1722,-914],[-764,497],[-604,2729],[-1757,-551]],[[66619,39113],[1882,1142],[-2202,3481],[-2344,-1344],[-408,1452],[266,2553],[-408,1062]],[[63405,47459],[4172,-175],[1048,-591],[1154,901],[3107,1169],[2309,161],[994,-820],[1456,189],[-639,1653],[1100,631]],[[78106,50577],[3125,-927],[2557,-121],[2273,645],[3107,-672]],[[72513,55698],[1563,-443],[1509,-1250],[781,-1815],[1740,-1613]],[[63405,47459],[710,1250],[-1616,2151],[551,1680]],[[63050,52540],[728,605],[-338,2849]],[[63440,55994],[1474,1371],[4013,-1801],[994,1021],[1154,-1075],[1438,188]],[[66619,39113],[-3267,-793],[515,-1062],[-2415,-1062],[-551,-766],[-1793,726]],[[59108,36156],[-1012,1061],[-53,2137],[-3480,-67],[-1740,471],[-3924,2607],[-1510,-228]],[[47389,42137],[640,2164],[1669,1895],[2556,779],[1989,-430],[266,1358],[-1047,967],[746,901],[266,1680]],[[54474,51451],[763,524],[2966,269],[887,-914],[2184,1116],[1776,94]],[[59108,36156],[-1456,-1936],[-2290,-403],[-89,-1331],[-2024,-645]],[[44833,40994],[799,981],[1757,162]],[[40305,53991],[-835,-1693],[-1367,-1519],[764,-2688],[994,-1398]],[[33309,42782],[-2272,3683],[-1066,13],[-1118,1250]],[[28853,47728],[2361,1949],[1101,1331],[-124,860],[1296,1344],[1704,927],[-355,1022]],[[34836,55161],[1456,376],[2912,2016]],[[39204,57553],[817,-1290],[-1509,-444],[852,-2016],[941,188]],[[72513,55698],[1137,1654],[2326,-283],[675,1842],[2095,1787],[1225,175]],[[79971,60873],[3071,269],[906,-1425],[-249,-1425],[1545,-2002],[2450,134],[2504,1747],[-728,1990],[2415,1182],[1704,-161],[1101,578],[906,-806],[2308,322],[1527,-3400],[-231,-1075],[-1349,-108],[-427,-995],[-1651,-497],[-2006,-40],[-3143,672],[-1669,-390],[835,-1048],[177,-1344],[-799,-3549]],[[40305,53991],[337,-900],[1829,296],[1971,-336],[160,-619],[2415,-309],[106,-914],[3001,-806],[2237,188],[959,900],[1154,-40]],[[31374,56747],[3462,-1586]],[[28853,47728],[-1474,2285],[-781,94],[-2060,3535]],[[24538,53642],[1918,578],[2077,-229],[888,1277],[-2095,1613],[1527,1532]],[[55806,62150],[1562,-1962],[-302,-861],[1083,-1209],[-390,-1022],[2770,-1008],[2911,-94]],[[39204,57553],[-1101,242],[-142,1129]],[[37961,58924],[2788,161],[1172,1224],[1562,-1103],[1456,-1612],[994,779],[4546,188],[2202,3266],[1970,363]],[[54651,62190],[1155,-40]],[[31303,60282],[4563,363]],[[35866,60645],[1527,-417],[568,-1304]],[[24538,53642],[-2060,3172]],[[40323,70550],[1580,-1666],[2646,-81],[-941,1398],[1509,349],[1207,-1250]],[[46324,69300],[18,-1129],[-1172,-2217]],[[45170,65954],[-994,430],[-1865,-1035],[-2539,94],[-1367,-2070],[-2699,887],[-88,-1035],[1384,-1559],[-1136,-1021]],[[26225,64475],[319,1008],[1439,1707],[1047,484],[3889,67]],[[32919,67741],[2734,27],[1261,1156],[355,1465],[976,807],[2078,-646]],[[63156,70550],[-1118,-1854],[-906,13],[-976,-1237],[-1847,471],[-1793,-1358],[-622,1801],[-2006,-322],[408,-1264]],[[54296,66800],[-1101,498]],[[53195,67298],[-745,1290]],[[52450,68588],[1012,954],[-977,3172]],[[52485,72714],[4013,-1451],[1651,1613],[1598,174]],[[59747,73050],[1492,457],[550,-1734],[1367,-1223]],[[72975,70685],[-3906,80],[-2805,404]],[[66264,71169],[2201,1545],[2806,2957],[-160,538],[1988,981],[4049,-1693],[2681,-2003],[2450,0],[-355,-1358],[-2539,-578],[-3764,807],[-1030,-1747],[-1616,67]],[[53195,67298],[-834,-2366],[-2397,363],[-2219,-995],[-2575,1654]],[[46324,69300],[3267,525],[2220,-283],[639,-954]],[[72975,70685],[-976,-1559],[692,-3078],[1119,-1385]],[[73810,64663],[195,-967],[-2060,-713],[-1829,726],[-4865,-1465],[-2734,336],[-3072,0],[-3639,-430]],[[54651,62190],[-266,1291],[586,1854],[-675,1465]],[[63156,70550],[3054,94],[54,525]],[[73810,64663],[1953,202],[2272,-470],[-159,-1210],[674,-1479],[1421,-833]],[[18235,63494],[-1580,2997]],[[16655,66491],[4829,229],[-1420,2016],[550,1089]],[[20614,69825],[3320,2217]],[[23934,72042],[2238,-672],[1509,-927],[1101,-1385],[3142,-336],[995,-981]],[[16655,66491],[-1243,2326]],[[15412,68817],[1758,1384],[2255,564]],[[19425,70765],[1189,-940]],[[43732,76706],[-36,-672],[-2379,-1653],[1438,-860],[-2432,-2971]],[[23934,72042],[693,1385],[1953,1855],[2361,1236],[2344,-591],[1048,1774]],[[32333,77701],[1775,511],[231,-982],[4155,1439],[2095,-444],[2060,376],[1047,-873],[36,-1022]],[[52485,72714],[-2308,807],[-1012,1411]],[[49165,74932],[1793,645],[515,1653],[-1793,1586],[675,471]],[[50355,79287],[1012,-1223],[1207,-390],[1953,175],[1492,1048],[1438,255],[2592,-739],[-710,-1774],[1385,-847],[604,-1062],[-1474,-914],[-107,-766]],[[49165,74932],[-1527,161],[-1030,1748],[-2876,-135]],[[32333,77701],[-1545,376],[-1438,1385],[959,1276],[3622,1371],[1544,1492]],[[35475,83601],[3907,1331],[-231,2594],[1278,591],[2397,-363],[1261,-2096],[2131,0],[621,-619],[2770,242],[1047,-725],[2149,-175],[-2060,-2997],[-2113,-847],[1723,-1250]],[[23721,79112],[-657,-1505],[-1189,-135],[18,-1223],[-1332,-1357],[1278,-430],[142,-941],[-2628,-1344],[72,-1412]],[[15412,68817],[-4315,7594]],[[11097,76411],[1066,295],[1970,2782],[5345,-430],[1402,1734]],[[20880,80792],[1971,121],[-426,-1183],[1296,-618]],[[7457,87324],[497,-1142]],[[16655,85255],[426,-538]],[[17081,84717],[-1243,-538],[-266,-1720],[1065,-713],[3107,417],[1367,484]],[[21111,82647],[-231,-1855]],[[11097,76411],[-2006,3978],[-1865,3011],[-2823,5080],[-692,632]],[[3711,89112],[1118,-81],[1226,-1330],[1402,-377]],[[6570,96840],[639,-2271],[-728,-699],[1651,-941],[2752,-766]],[[10884,92163],[-2947,-2903],[-480,-1936]],[[3711,89112],[-2557,4489],[-1154,2635],[3143,-834],[1935,1129],[1492,309]],[[28196,83776],[-1492,-1048],[-319,-1116],[728,-833],[-1918,-632],[-1474,-1035]],[[21111,82647],[-35,1747],[6037,484],[1083,-1102]],[[18199,92311],[107,-2016],[2486,739],[-107,-1021],[-1917,-1922],[124,-1613],[-515,-1143],[-1296,-618]],[[10884,92163],[1367,753],[693,1680],[2681,255],[444,1237],[1473,-672],[604,-955],[53,-2150]],[[32315,83789],[-3604,-403],[-515,390]],[[18199,92311],[3001,1196]],[[21200,93507],[1509,0],[1332,-1048],[2379,-551],[-2184,-1559],[2468,-296],[639,927],[1421,-242],[1243,565],[1900,-54],[1704,-1613],[-621,-1035],[923,-1330],[-2166,-175],[-515,-914],[373,-1694],[710,-699]],[[32315,83789],[2077,363],[1083,-551]],[[23579,95416],[-2379,-1909]],[[6570,96840],[4598,1882],[2521,175],[2930,632],[320,-780]],[[53533,22661],[-2628,-632],[-870,-927]],[[50035,21102],[-1864,-484],[-1474,1452],[-1349,685]],[[52432,26290],[586,-941],[1900,27],[408,-1102],[-1793,-1613]],[[81125,30820],[-266,1209],[1580,1008],[941,1976],[-1864,699],[213,1223]],[[81729,36935],[3533,1264],[1012,-14],[2344,1317],[4652,430],[17,619]],[[96998,40564],[799,-793],[870,-2836],[1332,-2003],[-2504,-1572],[-3089,175],[-3533,-1398],[-1368,134],[-1438,-1048],[-2681,-1250],[-2592,-121],[-1669,968]],[[75230,29301],[-195,-820],[763,-1694],[-763,-1397],[-2379,-336],[-2770,-1143],[-3747,-538],[-976,525]],[[65163,23898],[-1296,-162],[-1226,874],[-2414,-417],[-657,498],[-2735,-498],[-3302,-1532]],[[55237,30551],[3942,551],[1190,685],[2290,-725],[1474,80],[195,-1169],[2078,67],[852,565],[1651,-216],[852,1076],[1350,497],[1367,-228],[568,-1076],[2184,-1357]],[[75337,38158],[586,-591],[3515,242],[2291,-874]],[[81125,30820],[-4226,-592],[-1669,-927]],[[50035,21102],[142,-1223],[2876,-2178],[1954,-497]],[[55007,17204],[674,-2110],[-4137,-766],[1669,-1922],[-515,-3011],[-1154,-148]],[[51544,9247],[-2397,4825],[-4563,8266]],[[65163,23898],[-1936,-1896],[-2201,-1236],[-782,-981],[-1740,255],[-2432,-228],[-1083,-565],[1900,-2231]],[[56889,17016],[-1882,188]],[[56889,17016],[1100,-3172],[942,-914],[-1474,-1398],[959,-1384],[-89,-2110],[-639,-1022],[-2646,538],[-1207,-1223],[1367,-1748],[35,-806],[1811,-3602],[-355,-175],[-2130,4046],[-3019,5201]]],"transform":{"scale":[0.000005632056320563295,0.0000074400744007440045],"translate":[74.8646,12.0442]},"objects":{"panchayats":{"type":"GeometryCollection","geometries":[{"arcs":[[0,1,2,3]],"type":"Polygon","properties":{"OBJECTID":280330,"gpcode":"","gpname":"","stname":"KERALA","dtname":"Kasaragod","sdtname":"Hosdurg","stcode11":"32","dtcode11":"588","sdtcode11":"05631","blklgdcode":"5993","blkname":"KANHANGAD","dt_lgd":558,"sdt_lgd":5631,"st_lgd":32,"vilcode11":803256,"vilname11":"Kanhangad (M)","pan_local":"കാഞ്ഞങ്ങാട്","b_pan_code":6303,"b_pan_name":"KANHANGAD","d_pan_code":513,"d_pan_name":"KASARAGOD","gp_code":"","gp_name":"","st_2011":"32","dt_2011":"588","sdt_2011":"05631","subdtname":"Hosdurg","block_name":"KANHANGAD","blk_lgdcod":"5993","dtcode14":"588","SHAPE_Length":19058.53927944764,"SHAPE_Area":8984848.936604043}},{"arcs":[[4,5,6,-1]],"type":"Polygon","properties":{"OBJECTID":280331,"gpcode":"","gpname":"","stname":"KERALA","dtname":"Kasaragod","sdtname":"Hosdurg","stcode11":"32","dtcode11":"588","sdtcode11":"05631","blklgdcode":"5993","blkname":"KANHANGAD","dt_lgd":558,"sdt_lgd":5631,"st_lgd":32,"vilcode11":803256,"vilname11":"Kanhangad (M)","pan_local":"കാഞ്ഞങ്ങാട്","b_pan_code":6303,"b_pan_name":"KANHANGAD","d_pan_code":513,"d_pan_name":"KASARAGOD","gp_code":"","gp_name":"","st_2011":"32","dt_2011":"588","sdt_2011":"05631","subdtname":"Hosdurg","block_name":"KANHANGAD","blk_lgdcod":"5993","dtcode14":"588","SHAPE_Length":18352.24553919628,"SHAPE_Area":7733077.9022534}},{"arcs":[[7,8,9,-6]],"type":"Polygon","properties":{"OBJECTID":280332,"gpcode":"","gpname":"","stname":"KERALA","dtname":"Kasaragod","sdtname":"Hosdurg","stcode11":"32","dtcode11":"588","sdtcode11":"05631","blklgdcode":"5993","blkname":"KANHANGAD","dt_lgd":558,"sdt_lgd":5631,"st_lgd":32,"vilcode11":803256,"vilname11":"Kanhangad (M)","pan_local":"കാഞ്ഞങ്ങാട്","b_pan_code":6303,"b_pan_name":"KANHANGAD","d_pan_code":513,"d_pan_name":"KASARAGOD","gp_code":"","gp_name":"","st_2011":"32","dt_2011":"588","sdt_2011":"05631","subdtname":"Hosdurg","block_name":"KANHANGAD","blk_lgdcod":"5993","dtcode14":"588","SHAPE_Length":23554.32664046434,"SHAPE_Area":17912763.54788572}},{"arcs":[[10,11,12,-8]],"type":"Polygon","properties":{"OBJECTID":280333,"gpcode":"","gpname":"","stname":"KERALA","dtname":"Kasaragod","sdtname":"Hosdurg","stcode11":"32","dtcode11":"588","sdtcode11":"05631","blklgdcode":"5996","blkname":"NILESHWAR","dt_lgd":558,"sdt_lgd":5631,"st_lgd":32,"vilcode11":803256,"vilname11":"Kanhangad (M)","pan_local":"നീലേശ്വര്&zwj;","b_pan_code":6306,"b_pan_name":"NILESHWAR","d_pan_code":513,"d_pan_name":"KASARAGOD","gp_code":"","gp_name":"","st_2011":"32","dt_2011":"588","sdt_2011":"05631","subdtname":"Hosdurg","block_name":"NILESHWAR","blk_lgdcod":"5996","dtcode14":"588","SHAPE_Length":13091.901883737904,"SHAPE_Area":6941993.040657417}},{"arcs":[[13,14,15,16,-9,-13]],"type":"Polygon","properties":{"OBJECTID":280334,"gpcode":"","gpname":"","stname":"KERALA","dtname":"Kasaragod","sdtname":"Hosdurg","stcode11":"32","dtcode11":"588","sdtcode11":"05631","blklgdcode":"5996","blkname":"NILESHWAR","dt_lgd":558,"sdt_lgd":5631,"st_lgd":32,"vilcode11":627175,"vilname11":"Nileshwar (OG)","pan_local":"നീലേശ്വര്&zwj;","b_pan_code":6306,"b_pan_name":"NILESHWAR","d_pan_code":513,"d_pan_name":"KASARAGOD","gp_code":"","gp_name":"","st_2011":"32","dt_2011":"588","sdt_2011":"05631","subdtname":"Hosdurg","block_name":"NILESHWAR","blk_lgdcod":"5996","dtcode14":"588","SHAPE_Length":18922.128371518207,"SHAPE_Area":13814335.969752738}},{"arcs":[[17,18,-14,-12,19,20]],"type":"Polygon","properties":{"OBJECTID":280335,"gpcode":"","gpname":"","stname":"KERALA","dtname":"Kasaragod","sdtname":"Hosdurg","stcode11":"32","dtcode11":"588","sdtcode11":"05631","blklgdcode":"5996","blkname":"NILESHWAR","dt_lgd":558,"sdt_lgd":5631,"st_lgd":32,"vilcode11":627170,"vilname11":"Perole (CT)","pan_local":"നീലേശ്വര്&zwj;","b_pan_code":6306,"b_pan_name":"NILESHWAR","d_pan_code":513,"d_pan_name":"KASARAGOD","gp_code":"","gp_name":"","st_2011":"32","dt_2011":"588","sdt_2011":"05631","subdtname":"Hosdurg","block_name":"NILESHWAR","blk_lgdcod":"5996","dtcode14":"588","SHAPE_Length":16880.940606134307,"SHAPE_Area":14681307.716461008}},{"arcs":[[21,22,23,24,25,26,27]],"type":"Polygon","properties":{"OBJECTID":280349,"gpcode":"","gpname":"","stname":"KERALA","dtname":"Kasaragod","sdtname":"Kasaragod","stcode11":"32","dtcode11":"588","sdtcode11":"05630","blklgdcode":"5994","blkname":"KASARGOD","dt_lgd":558,"sdt_lgd":5630,"st_lgd":32,"vilcode11":803255,"vilname11":"Kasaragod (M)","pan_local":"കാസര്&zwj;ഗോഡ്","b_pan_code":6304,"b_pan_name":"KASARGOD","d_pan_code":513,"d_pan_name":"KASARAGOD","gp_code":"","gp_name":"","st_2011":"32","dt_2011":"588","sdt_2011":"05630","subdtname":"Kasaragod","block_name":"KASARGOD","blk_lgdcod":"5994","dtcode14":"588","SHAPE_Length":16759.944714654262,"SHAPE_Area":10509422.741715342}},{"arcs":[[28,-26,29]],"type":"Polygon","properties":{"OBJECTID":280350,"gpcode":"","gpname":"","stname":"KERALA","dtname":"Kasaragod","sdtname":"Kasaragod","stcode11":"32","dtcode11":"588","sdtcode11":"05630","blklgdcode":"5994","blkname":"KASARGOD","dt_lgd":558,"sdt_lgd":5630,"st_lgd":32,"vilcode11":913022,"vilname11":"Adkath Bail","pan_local":"കാസര്&zwj;ഗോഡ്","b_pan_code":6304,"b_pan_name":"KASARGOD","d_pan_code":513,"d_pan_name":"KASARAGOD","gp_code":"","gp_name":"","st_2011":"32","dt_2011":"588","sdt_2011":"05630","subdtname":"Kasaragod","block_name":"KASARGOD","blk_lgdcod":"5994","dtcode14":"588","SHAPE_Length":7205.527785248779,"SHAPE_Area":1987898.912622904}},{"arcs":[[30,31,-22,32,33]],"type":"Polygon","properties":{"OBJECTID":280351,"gpcode":"","gpname":"","stname":"KERALA","dtname":"Kasaragod","sdtname":"Kasaragod","stcode11":"32","dtcode11":"588","sdtcode11":"05630","blklgdcode":"5994","blkname":"KASARGOD","dt_lgd":558,"sdt_lgd":5630,"st_lgd":32,"vilcode11":0,"vilname11":"PERAMBEL","pan_local":"കാസര്&zwj;ഗോഡ്","b_pan_code":6304,"b_pan_name":"KASARGOD","d_pan_code":513,"d_pan_name":"KASARAGOD","gp_code":"","gp_name":"","st_2011":"32","dt_2011":"588","sdt_2011":"05630","subdtname":"Kasaragod","block_name":"KASARGOD","blk_lgdcod":"5994","dtcode14":"588","SHAPE_Length":15054.332416067686,"SHAPE_Area":9974368.220285626}},{"arcs":[[34,35,-24]],"type":"Polygon","properties":{"OBJECTID":280352,"gpcode":"","gpname":"","stname":"KERALA","dtname":"Kasaragod","sdtname":"Kasaragod","stcode11":"32","dtcode11":"588","sdtcode11":"05630","blklgdcode":"5994","blkname":"KASARGOD","dt_lgd":558,"sdt_lgd":5630,"st_lgd":32,"vilcode11":913025,"vilname11":"Thalangara","pan_local":"കാസര്&zwj;ഗോഡ്","b_pan_code":6304,"b_pan_name":"KASARGOD","d_pan_code":513,"d_pan_name":"KASARAGOD","gp_code":"","gp_name":"","st_2011":"32","dt_2011":"588","sdt_2011":"05630","subdtname":"Kasaragod","block_name":"KASARGOD","blk_lgdcod":"5994","dtcode14":"588","SHAPE_Length":10600.78630059579,"SHAPE_Area":5379883.158692263}},{"arcs":[[36,37]],"type":"Polygon","properties":{"OBJECTID":280362,"gpcode":"","gpname":"","stname":"KERALA","dtname":"Kasaragod","sdtname":"Manjeswaram","stcode11":"32","dtcode11":"588","sdtcode11":"","blklgdcode":"5995","blkname":"MANJESHWAR","dt_lgd":558,"sdt_lgd":5932,"st_lgd":32,"vilcode11":0,"vilname11":"PADORU","pan_local":"മഞ്ചേശ്വര്&zwj;","b_pan_code":6305,"b_pan_name":"MANJESHWAR","d_pan_code":513,"d_pan_name":"KASARAGOD","gp_code":"","gp_name":"","st_2011":"32","dt_2011":"588","sdt_2011":"","subdtname":"Manjeswaram","block_name":"MANJESHWAR","blk_lgdcod":"5995","dtcode14":"588","SHAPE_Length":20142.15997735485,"SHAPE_Area":11746790.401761962}},{"arcs":[[38,39,40]],"type":"Polygon","properties":{"OBJECTID":280363,"gpcode":"","gpname":"","stname":"KERALA","dtname":"Kasaragod","sdtname":"Manjeswaram","stcode11":"32","dtcode11":"588","sdtcode11":"","blklgdcode":"5995","blkname":"MANJESHWAR","dt_lgd":558,"sdt_lgd":5932,"st_lgd":32,"vilcode11":0,"vilname11":"KOLORU","pan_local":"മഞ്ചേശ്വര്&zwj;","b_pan_code":6305,"b_pan_name":"MANJESHWAR","d_pan_code":513,"d_pan_name":"KASARAGOD","gp_code":"","gp_name":"","st_2011":"32","dt_2011":"588","sdt_2011":"","subdtname":"Manjeswaram","block_name":"MANJESHWAR","blk_lgdcod":"5995","dtcode14":"588","SHAPE_Length":14655.03376891963,"SHAPE_Area":6560294.3641575035}},{"arcs":[[41,-39,42]],"type":"Polygon","properties":{"OBJECTID":280364,"gpcode":"","gpname":"","stname":"KERALA","dtname":"Kasaragod","sdtname":"Manjeswaram","stcode11":"32","dtcode11":"588","sdtcode11":"","blklgdcode":"5995","blkname":"MANJESHWAR","dt_lgd":558,"sdt_lgd":5932,"st_lgd":32,"vilcode11":627122,"vilname11":"Manjeshwar (CT)","pan_local":"മഞ്ചേശ്വര്&zwj;","b_pan_code":6305,"b_pan_name":"MANJESHWAR","d_pan_code":513,"d_pan_name":"KASARAGOD","gp_code":"","gp_name":"","st_2011":"32","dt_2011":"588","sdt_2011":"","subdtname":"Manjeswaram","block_name":"MANJESHWAR","blk_lgdcod":"5995","dtcode14":"588","SHAPE_Length":8260.982515468932,"SHAPE_Area":2060352.3330377752}},{"arcs":[[43,44,-3,45,46]],"type":"Polygon","properties":{"OBJECTID":233591,"gpcode":"221257","gpname":"AJANOOR","stname":"KERALA","dtname":"Kasaragod","sdtname":"Hosdurg","stcode11":"32","dtcode11":"588","sdtcode11":"05631","blklgdcode":"5993","blkname":"KANHANGAD","dt_lgd":558,"sdt_lgd":5631,"st_lgd":32,"vilcode11":0,"vilname11":"","pan_local":"കാഞ്ഞങ്ങാട്","b_pan_code":6303,"b_pan_name":"KANHANGAD","d_pan_code":513,"d_pan_name":"KASARAGOD","gp_code":"221257","gp_name":"AJANOOR","st_2011":"32","dt_2011":"588","sdt_2011":"05631","subdtname":"Hosdurg","block_name":"KANHANGAD","blk_lgdcod":"5993","dtcode14":"588","SHAPE_Length":31926.567859515202,"SHAPE_Area":32903647.44898932}},{"arcs":[[47,48,49,50,51,52,53]],"type":"Polygon","properties":{"OBJECTID":233592,"gpcode":"221258","gpname":"BALAL","stname":"KERALA","dtname":"Kasaragod","sdtname":"Vellarikkundu","stcode11":"32","dtcode11":"588","sdtcode11":"","blklgdcode":"6696","blkname":"PARAPPA","dt_lgd":558,"sdt_lgd":5933,"st_lgd":32,"vilcode11":0,"vilname11":"","pan_local":" ","b_pan_code":6885,"b_pan_name":"PARAPPA","d_pan_code":513,"d_pan_name":"KASARAGOD","gp_code":"221258","gp_name":"BALAL","st_2011":"32","dt_2011":"588","sdt_2011":"","subdtname":"Vellarikkundu","block_name":"PARAPPA","blk_lgdcod":"6696","dtcode14":"588","SHAPE_Length":84505.91165412174,"SHAPE_Area":128500740.82750472}},{"arcs":[[54,-53,55,56,57]],"type":"Polygon","properties":{"OBJECTID":233593,"gpcode":"221259","gpname":"KALLAR","stname":"KERALA","dtname":"Kasaragod","sdtname":"Vellarikkundu","stcode11":"32","dtcode11":"588","sdtcode11":"","blklgdcode":"6696","blkname":"PARAPPA","dt_lgd":558,"sdt_lgd":5933,"st_lgd":32,"vilcode11":0,"vilname11":"","pan_local":" ","b_pan_code":6885,"b_pan_name":"PARAPPA","d_pan_code":513,"d_pan_name":"KASARAGOD","gp_code":"221259","gp_name":"KALLAR","st_2011":"32","dt_2011":"588","sdt_2011":"","subdtname":"Vellarikkundu","block_name":"PARAPPA","blk_lgdcod":"6696","dtcode14":"588","SHAPE_Length":46101.54090598343,"SHAPE_Area":56650922.08725515}},{"arcs":[[-52,58,59,60,61,-56]],"type":"Polygon","properties":{"OBJECTID":233594,"gpcode":"221260","gpname":"KODOMBELLUR","stname":"KERALA","dtname":"Kasaragod","sdtname":"Vellarikkundu","stcode11":"32","dtcode11":"588","sdtcode11":"","blklgdcode":"6696","blkname":"PARAPPA","dt_lgd":558,"sdt_lgd":5933,"st_lgd":32,"vilcode11":0,"vilname11":"","pan_local":" ","b_pan_code":6885,"b_pan_name":"PARAPPA","d_pan_code":513,"d_pan_name":"KASARAGOD","gp_code":"221260","gp_name":"KODOMBELLUR","st_2011":"32","dt_2011":"588","sdt_2011":"","subdtname":"Vellarikkundu","block_name":"PARAPPA","blk_lgdcod":"6696","dtcode14":"588","SHAPE_Length":70547.23832630338,"SHAPE_Area":97570278.39093304}},{"arcs":[[62,-20,-11,-5,-4,-45,63,-60]],"type":"Polygon","properties":{"OBJECTID":233595,"gpcode":"221261","gpname":"MADIKKAI","stname":"KERALA","dtname":"Kasaragod","sdtname":"Hosdurg","stcode11":"32","dtcode11":"588","sdtcode11":"05631","blklgdcode":"5993","blkname":"KANHANGAD","dt_lgd":558,"sdt_lgd":5631,"st_lgd":32,"vilcode11":0,"vilname11":"","pan_local":"കാഞ്ഞങ്ങാട്","b_pan_code":6303,"b_pan_name":"KANHANGAD","d_pan_code":513,"d_pan_name":"KASARAGOD","gp_code":"221261","gp_name":"MADIKKAI","st_2011":"32","dt_2011":"588","sdt_2011":"05631","subdtname":"Hosdurg","block_name":"KANHANGAD","blk_lgdcod":"5993","dtcode14":"588","SHAPE_Length":41732.880913872,"SHAPE_Area":54704476.37213954}},{"arcs":[[64,-47,65,66,67,68]],"type":"Polygon","properties":{"OBJECTID":233596,"gpcode":"221262","gpname":"PALLIKKARA","stname":"KERALA","dtname":"Kasaragod","sdtname":"Hosdurg","stcode11":"32","dtcode11":"588","sdtcode11":"05631","blklgdcode":"5993","blkname":"KANHANGAD","dt_lgd":558,"sdt_lgd":5631,"st_lgd":32,"vilcode11":0,"vilname11":"","pan_local":"കാഞ്ഞങ്ങാട്","b_pan_code":6303,"b_pan_name":"KANHANGAD","d_pan_code":513,"d_pan_name":"KASARAGOD","gp_code":"221262","gp_name":"PALLIKKARA","st_2011":"32","dt_2011":"588","sdt_2011":"05631","subdtname":"Hosdurg","block_name":"KANHANGAD","blk_lgdcod":"5993","dtcode14":"588","SHAPE_Length":36660.07970720544,"SHAPE_Area":41186095.30913552}},{"arcs":[[-54,-55,69,70]],"type":"Polygon","properties":{"OBJECTID":233597,"gpcode":"221263","gpname":"PANATHADY","stname":"KERALA","dtname":"Kasaragod","sdtname":"Vellarikkundu","stcode11":"32","dtcode11":"588","sdtcode11":"","blklgdcode":"6696","blkname":"PARAPPA","dt_lgd":558,"sdt_lgd":5933,"st_lgd":32,"vilcode11":0,"vilname11":"","pan_local":" ","b_pan_code":6885,"b_pan_name":"PARAPPA","d_pan_code":513,"d_pan_name":"KASARAGOD","gp_code":"221263","gp_name":"PANATHADY","st_2011":"32","dt_2011":"588","sdt_2011":"","subdtname":"Vellarikkundu","block_name":"PARAPPA","blk_lgdcod":"6696","dtcode14":"588","SHAPE_Length":61419.21639084799,"SHAPE_Area":93812176.05444108}},{"arcs":[[-61,-64,-44,-65,71]],"type":"Polygon","properties":{"OBJECTID":233598,"gpcode":"221264","gpname":"PULLURPERIYA","stname":"KERALA","dtname":"Kasaragod","sdtname":"Hosdurg","stcode11":"32","dtcode11":"588","sdtcode11":"05631","blklgdcode":"5993","blkname":"KANHANGAD","dt_lgd":558,"sdt_lgd":5631,"st_lgd":32,"vilcode11":0,"vilname11":"","pan_local":"കാഞ്ഞങ്ങാട്","b_pan_code":6303,"b_pan_name":"KANHANGAD","d_pan_code":513,"d_pan_name":"KASARAGOD","gp_code":"221264","gp_name":"PULLURPERIYA","st_2011":"32","dt_2011":"588","sdt_2011":"05631","subdtname":"Hosdurg","block_name":"KANHANGAD","blk_lgdcod":"5993","dtcode14":"588","SHAPE_Length":48134.838526481864,"SHAPE_Area":65653489.65799755}},{"arcs":[[72,-67,73,74,-31]],"type":"Polygon","properties":{"OBJECTID":233599,"gpcode":"221265","gpname":"UDMA","stname":"KERALA","dtname":"Kasaragod","sdtname":"Hosdurg","stcode11":"32","dtcode11":"588","sdtcode11":"05631","blklgdcode":"5993","blkname":"KANHANGAD","dt_lgd":558,"sdt_lgd":5631,"st_lgd":32,"vilcode11":0,"vilname11":"","pan_local":"കാഞ്ഞങ്ങാട്","b_pan_code":6303,"b_pan_name":"KANHANGAD","d_pan_code":513,"d_pan_name":"KASARAGOD","gp_code":"221265","gp_name":"UDMA","st_2011":"32","dt_2011":"588","sdt_2011":"05631","subdtname":"Hosdurg","block_name":"KANHANGAD","blk_lgdcod":"5993","dtcode14":"588","SHAPE_Length":28432.077205425623,"SHAPE_Area":26207662.266924776}},{"arcs":[[75,-57,-62,-72,-69,76,77,78]],"type":"Polygon","properties":{"OBJECTID":233600,"gpcode":"221266","gpname":"BEDADUKA","stname":"KERALA","dtname":"Kasaragod","sdtname":"Kasaragod","stcode11":"32","dtcode11":"588","sdtcode11":"05630","blklgdcode":"6697","blkname":"KARADKA","dt_lgd":558,"sdt_lgd":5630,"st_lgd":32,"vilcode11":0,"vilname11":"","pan_local":" ","b_pan_code":6886,"b_pan_name":"KARADKA","d_pan_code":513,"d_pan_name":"KASARAGOD","gp_code":"221266","gp_name":"BEDADUKA","st_2011":"32","dt_2011":"588","sdt_2011":"05630","subdtname":"Kasaragod","block_name":"KARADKA","blk_lgdcod":"6697","dtcode14":"588","SHAPE_Length":57568.57034688063,"SHAPE_Area":89355198.04718821}},{"arcs":[[-77,-68,-73,-34,79,80]],"type":"Polygon","properties":{"OBJECTID":233601,"gpcode":"221267","gpname":"CHEMNAD","stname":"KERALA","dtname":"Kasaragod","sdtname":"Kasaragod","stcode11":"32","dtcode11":"588","sdtcode11":"05630","blklgdcode":"5994","blkname":"KASARGOD","dt_lgd":558,"sdt_lgd":5630,"st_lgd":32,"vilcode11":0,"vilname11":"","pan_local":"കാസര്&zwj;ഗോഡ്","b_pan_code":6304,"b_pan_name":"KASARGOD","d_pan_code":513,"d_pan_name":"KASARAGOD","gp_code":"221267","gp_name":"CHEMNAD","st_2011":"32","dt_2011":"588","sdt_2011":"05630","subdtname":"Kasaragod","block_name":"KASARGOD","blk_lgdcod":"5994","dtcode14":"588","SHAPE_Length":18238.23140901554,"SHAPE_Area":15071727.485548344}},{"arcs":[[-32,-75,81,-35,-23]],"type":"Polygon","properties":{"OBJECTID":233602,"gpcode":"221267","gpname":"CHEMNAD","stname":"KERALA","dtname":"Kasaragod","sdtname":"Kasaragod","stcode11":"32","dtcode11":"588","sdtcode11":"05630","blklgdcode":"5994","blkname":"KASARGOD","dt_lgd":558,"sdt_lgd":5630,"st_lgd":32,"vilcode11":0,"vilname11":"","pan_local":"കാസര്&zwj;ഗോഡ്","b_pan_code":6304,"b_pan_name":"KASARGOD","d_pan_code":513,"d_pan_name":"KASARAGOD","gp_code":"221267","gp_name":"CHEMNAD","st_2011":"32","dt_2011":"588","sdt_2011":"05630","subdtname":"Kasaragod","block_name":"KASARGOD","blk_lgdcod":"5994","dtcode14":"588","SHAPE_Length":22275.08219442112,"SHAPE_Area":17081176.742468327}},{"arcs":[[82,83,84,-80,-33,-28,85,86]],"type":"Polygon","properties":{"OBJECTID":233603,"gpcode":"221268","gpname":"CHENGALA","stname":"KERALA","dtname":"Kasaragod","sdtname":"Kasaragod","stcode11":"32","dtcode11":"588","sdtcode11":"05630","blklgdcode":"5994","blkname":"KASARGOD","dt_lgd":558,"sdt_lgd":5630,"st_lgd":32,"vilcode11":0,"vilname11":"","pan_local":"കാസര്&zwj;ഗോഡ്","b_pan_code":6304,"b_pan_name":"KASARGOD","d_pan_code":513,"d_pan_name":"KASARAGOD","gp_code":"221268","gp_name":"CHENGALA","st_2011":"32","dt_2011":"588","sdt_2011":"05630","subdtname":"Kasaragod","block_name":"KASARGOD","blk_lgdcod":"5994","dtcode14":"588","SHAPE_Length":50527.73153329356,"SHAPE_Area":56967625.30181214}},{"arcs":[[87,88,89,90,91,92]],"type":"Polygon","properties":{"OBJECTID":233604,"gpcode":"221269","gpname":"DELAMPADY","stname":"KERALA","dtname":"Kasaragod","sdtname":"Kasaragod","stcode11":"32","dtcode11":"588","sdtcode11":"05630","blklgdcode":"6697","blkname":"KARADKA","dt_lgd":558,"sdt_lgd":5630,"st_lgd":32,"vilcode11":0,"vilname11":"","pan_local":" ","b_pan_code":6886,"b_pan_name":"KARADKA","d_pan_code":513,"d_pan_name":"KASARAGOD","gp_code":"221269","gp_name":"DELAMPADY","st_2011":"32","dt_2011":"588","sdt_2011":"05630","subdtname":"Kasaragod","block_name":"KARADKA","blk_lgdcod":"6697","dtcode14":"588","SHAPE_Length":31055.64307255972,"SHAPE_Area":24167742.32471239}},{"arcs":[[93,94]],"type":"Polygon","properties":{"OBJECTID":233605,"gpcode":"221269","gpname":"DELAMPADY","stname":"KERALA","dtname":"Kasaragod","sdtname":"Kasaragod","stcode11":"32","dtcode11":"588","sdtcode11":"05630","blklgdcode":"6697","blkname":"KARADKA","dt_lgd":558,"sdt_lgd":5630,"st_lgd":32,"vilcode11":0,"vilname11":"","pan_local":" ","b_pan_code":6886,"b_pan_name":"KARADKA","d_pan_code":513,"d_pan_name":"KASARAGOD","gp_code":"221269","gp_name":"DELAMPADY","st_2011":"32","dt_2011":"588","sdt_2011":"05630","subdtname":"Kasaragod","block_name":"KARADKA","blk_lgdcod":"6697","dtcode14":"588","SHAPE_Length":30064.757405779914,"SHAPE_Area":27968313.15245656}},{"arcs":[[-90,95,-84,96]],"type":"Polygon","properties":{"OBJECTID":233606,"gpcode":"221270","gpname":"KARADKA","stname":"KERALA","dtname":"Kasaragod","sdtname":"Kasaragod","stcode11":"32","dtcode11":"588","sdtcode11":"05630","blklgdcode":"6697","blkname":"KARADKA","dt_lgd":558,"sdt_lgd":5630,"st_lgd":32,"vilcode11":0,"vilname11":"","pan_local":" ","b_pan_code":6886,"b_pan_name":"KARADKA","d_pan_code":513,"d_pan_name":"KASARAGOD","gp_code":"221270","gp_name":"KARADKA","st_2011":"32","dt_2011":"588","sdt_2011":"05630","subdtname":"Kasaragod","block_name":"KARADKA","blk_lgdcod":"6697","dtcode14":"588","SHAPE_Length":23280.65188518955,"SHAPE_Area":16788716.34223531}},{"arcs":[[97,98,-79,99,-88,100,-94]],"type":"Polygon","properties":{"OBJECTID":233607,"gpcode":"221270","gpname":"KARADKA","stname":"KERALA","dtname":"Kasaragod","sdtname":"Kasaragod","stcode11":"32","dtcode11":"588","sdtcode11":"05630","blklgdcode":"6697","blkname":"KARADKA","dt_lgd":558,"sdt_lgd":5630,"st_lgd":32,"vilcode11":0,"vilname11":"","pan_local":" ","b_pan_code":6886,"b_pan_name":"KARADKA","d_pan_code":513,"d_pan_name":"KASARAGOD","gp_code":"221270","gp_name":"KARADKA","st_2011":"32","dt_2011":"588","sdt_2011":"05630","subdtname":"Kasaragod","block_name":"KARADKA","blk_lgdcod":"6697","dtcode14":"588","SHAPE_Length":45568.51664737638,"SHAPE_Area":66945176.553435646}},{"arcs":[[-70,-58,-76,-99,101]],"type":"Polygon","properties":{"OBJECTID":233608,"gpcode":"221271","gpname":"KUTIKKOL","stname":"KERALA","dtname":"Kasaragod","sdtname":"Kasaragod","stcode11":"32","dtcode11":"588","sdtcode11":"05630","blklgdcode":"6697","blkname":"KARADKA","dt_lgd":558,"sdt_lgd":5630,"st_lgd":32,"vilcode11":0,"vilname11":"","pan_local":" ","b_pan_code":6886,"b_pan_name":"KARADKA","d_pan_code":513,"d_pan_name":"KASARAGOD","gp_code":"221271","gp_name":"KUTIKKOL","st_2011":"32","dt_2011":"588","sdt_2011":"05630","subdtname":"Kasaragod","block_name":"KARADKA","blk_lgdcod":"6697","dtcode14":"588","SHAPE_Length":51337.32456226395,"SHAPE_Area":72382612.50171614}},{"arcs":[[-86,-27,-29,102,103,104,105]],"type":"Polygon","properties":{"OBJECTID":233609,"gpcode":"221272","gpname":"MADHUR","stname":"KERALA","dtname":"Kasaragod","sdtname":"Kasaragod","stcode11":"32","dtcode11":"588","sdtcode11":"05630","blklgdcode":"5994","blkname":"KASARGOD","dt_lgd":558,"sdt_lgd":5630,"st_lgd":32,"vilcode11":0,"vilname11":"","pan_local":"കാസര്&zwj;ഗോഡ്","b_pan_code":6304,"b_pan_name":"KASARGOD","d_pan_code":513,"d_pan_name":"KASARAGOD","gp_code":"221272","gp_name":"MADHUR","st_2011":"32","dt_2011":"588","sdt_2011":"05630","subdtname":"Kasaragod","block_name":"KASARGOD","blk_lgdcod":"5994","dtcode14":"588","SHAPE_Length":34135.44077391419,"SHAPE_Area":35156572.01503374}},{"arcs":[[-104,106,107,108]],"type":"Polygon","properties":{"OBJECTID":233610,"gpcode":"221273","gpname":"MOGRAL PUTHUR","stname":"KERALA","dtname":"Kasaragod","sdtname":"Kasaragod","stcode11":"32","dtcode11":"588","sdtcode11":"05630","blklgdcode":"5994","blkname":"KASARGOD","dt_lgd":558,"sdt_lgd":5630,"st_lgd":32,"vilcode11":0,"vilname11":"","pan_local":"കാസര്&zwj;ഗോഡ്","b_pan_code":6304,"b_pan_name":"KASARGOD","d_pan_code":513,"d_pan_name":"KASARAGOD","gp_code":"221273","gp_name":"MOGRAL PUTHUR","st_2011":"32","dt_2011":"588","sdt_2011":"05630","subdtname":"Kasaragod","block_name":"KASARGOD","blk_lgdcod":"5994","dtcode14":"588","SHAPE_Length":12732.467602506014,"SHAPE_Area":9191561.147461103}},{"arcs":[[-89,-100,-78,-81,-85,-96]],"type":"Polygon","properties":{"OBJECTID":233611,"gpcode":"221274","gpname":"MULIYAR","stname":"KERALA","dtname":"Kasaragod","sdtname":"Kasaragod","stcode11":"32","dtcode11":"588","sdtcode11":"05630","blklgdcode":"6697","blkname":"KARADKA","dt_lgd":558,"sdt_lgd":5630,"st_lgd":32,"vilcode11":0,"vilname11":"","pan_local":" ","b_pan_code":6886,"b_pan_name":"KARADKA","d_pan_code":513,"d_pan_name":"KASARAGOD","gp_code":"221274","gp_name":"MULIYAR","st_2011":"32","dt_2011":"588","sdt_2011":"05630","subdtname":"Kasaragod","block_name":"KARADKA","blk_lgdcod":"6697","dtcode14":"588","SHAPE_Length":49659.53314763199,"SHAPE_Area":56741094.123347566}},{"arcs":[[109,-87,-106,110,111]],"type":"Polygon","properties":{"OBJECTID":233612,"gpcode":"221275","gpname":"BADIYADKA","stname":"KERALA","dtname":"Kasaragod","sdtname":"Kasaragod","stcode11":"32","dtcode11":"588","sdtcode11":"05630","blklgdcode":"5995","blkname":"MANJESHWAR","dt_lgd":558,"sdt_lgd":5630,"st_lgd":32,"vilcode11":0,"vilname11":"","pan_local":"മഞ്ചേശ്വര്&zwj;","b_pan_code":6305,"b_pan_name":"MANJESHWAR","d_pan_code":513,"d_pan_name":"KASARAGOD","gp_code":"221275","gp_name":"BADIYADKA","st_2011":"32","dt_2011":"588","sdt_2011":"05630","subdtname":"Kasaragod","block_name":"MANJESHWAR","blk_lgdcod":"5995","dtcode14":"588","SHAPE_Length":44657.73007792378,"SHAPE_Area":70621990.10608318}},{"arcs":[[-92,112,113,114]],"type":"Polygon","properties":{"OBJECTID":233613,"gpcode":"221276","gpname":"BELLOOR","stname":"KERALA","dtname":"Kasaragod","sdtname":"Kasaragod","stcode11":"32","dtcode11":"588","sdtcode11":"05630","blklgdcode":"6697","blkname":"KARADKA","dt_lgd":558,"sdt_lgd":5630,"st_lgd":32,"vilcode11":0,"vilname11":"","pan_local":" ","b_pan_code":6886,"b_pan_name":"KARADKA","d_pan_code":513,"d_pan_name":"KASARAGOD","gp_code":"221276","gp_name":"BELLOOR","st_2011":"32","dt_2011":"588","sdt_2011":"05630","subdtname":"Kasaragod","block_name":"KARADKA","blk_lgdcod":"6697","dtcode14":"588","SHAPE_Length":30995.420490028944,"SHAPE_Area":31397918.460530166}},{"arcs":[[-114,115,-112,116,117]],"type":"Polygon","properties":{"OBJECTID":233614,"gpcode":"221277","gpname":"ENMAKAJE","stname":"KERALA","dtname":"Kasaragod","sdtname":"Manjeswaram","stcode11":"32","dtcode11":"588","sdtcode11":"","blklgdcode":"5995","blkname":"MANJESHWAR","dt_lgd":558,"sdt_lgd":5932,"st_lgd":32,"vilcode11":0,"vilname11":"","pan_local":"മഞ്ചേശ്വര്&zwj;","b_pan_code":6305,"b_pan_name":"MANJESHWAR","d_pan_code":513,"d_pan_name":"KASARAGOD","gp_code":"221277","gp_name":"ENMAKAJE","st_2011":"32","dt_2011":"588","sdt_2011":"","subdtname":"Manjeswaram","block_name":"MANJESHWAR","blk_lgdcod":"5995","dtcode14":"588","SHAPE_Length":58859.96351884074,"SHAPE_Area":82988710.82811138}},{"arcs":[[-113,-91,-97,-83,-110,-116]],"type":"Polygon","properties":{"OBJECTID":233615,"gpcode":"221278","gpname":"KUMBADAJE","stname":"KERALA","dtname":"Kasaragod","sdtname":"Kasaragod","stcode11":"32","dtcode11":"588","sdtcode11":"05630","blklgdcode":"6697","blkname":"KARADKA","dt_lgd":558,"sdt_lgd":5630,"st_lgd":32,"vilcode11":0,"vilname11":"","pan_local":" ","b_pan_code":6886,"b_pan_name":"KARADKA","d_pan_code":513,"d_pan_name":"KASARAGOD","gp_code":"221278","gp_name":"KUMBADAJE","st_2011":"32","dt_2011":"588","sdt_2011":"05630","subdtname":"Kasaragod","block_name":"KARADKA","blk_lgdcod":"6697","dtcode14":"588","SHAPE_Length":34172.87978429845,"SHAPE_Area":33493914.92300528}},{"arcs":[[118,-108,119,120,121]],"type":"Polygon","properties":{"OBJECTID":233616,"gpcode":"221279","gpname":"KUMBALA","stname":"KERALA","dtname":"Kasaragod","sdtname":"Manjeswaram","stcode11":"32","dtcode11":"588","sdtcode11":"","blklgdcode":"5995","blkname":"MANJESHWAR","dt_lgd":558,"sdt_lgd":5932,"st_lgd":32,"vilcode11":0,"vilname11":"","pan_local":"മഞ്ചേശ്വര്&zwj;","b_pan_code":6305,"b_pan_name":"MANJESHWAR","d_pan_code":513,"d_pan_name":"KASARAGOD","gp_code":"221279","gp_name":"KUMBALA","st_2011":"32","dt_2011":"588","sdt_2011":"","subdtname":"Manjeswaram","block_name":"MANJESHWAR","blk_lgdcod":"5995","dtcode14":"588","SHAPE_Length":35640.90178152369,"SHAPE_Area":43833500.525418915}},{"arcs":[[122,-43,-41,123,124,125,-121,126,127]],"type":"Polygon","properties":{"OBJECTID":233617,"gpcode":"221280","gpname":"MANGALPADY","stname":"KERALA","dtname":"Kasaragod","sdtname":"Manjeswaram","stcode11":"32","dtcode11":"588","sdtcode11":"","blklgdcode":"5995","blkname":"MANJESHWAR","dt_lgd":558,"sdt_lgd":5932,"st_lgd":32,"vilcode11":0,"vilname11":"","pan_local":"മഞ്ചേശ്വര്&zwj;","b_pan_code":6305,"b_pan_name":"MANJESHWAR","d_pan_code":513,"d_pan_name":"KASARAGOD","gp_code":"221280","gp_name":"MANGALPADY","st_2011":"32","dt_2011":"588","sdt_2011":"","subdtname":"Manjeswaram","block_name":"MANJESHWAR","blk_lgdcod":"5995","dtcode14":"588","SHAPE_Length":46072.48582076041,"SHAPE_Area":37755192.07800907}},{"arcs":[[128,129,-128,130]],"type":"Polygon","properties":{"OBJECTID":233618,"gpcode":"221281","gpname":"MANJEWSWARAM","stname":"KERALA","dtname":"Kasaragod","sdtname":"Manjeswaram","stcode11":"32","dtcode11":"588","sdtcode11":"","blklgdcode":"5995","blkname":"MANJESHWAR","dt_lgd":558,"sdt_lgd":5932,"st_lgd":32,"vilcode11":0,"vilname11":"","pan_local":"മഞ്ചേശ്വര്&zwj;","b_pan_code":6305,"b_pan_name":"MANJESHWAR","d_pan_code":513,"d_pan_name":"KASARAGOD","gp_code":"221281","gp_name":"MANJEWSWARAM","st_2011":"32","dt_2011":"588","sdt_2011":"","subdtname":"Manjeswaram","block_name":"MANJESHWAR","blk_lgdcod":"5995","dtcode14":"588","SHAPE_Length":28417.81344148773,"SHAPE_Area":26524466.69053592}},{"arcs":[[131,-122,-126,132]],"type":"Polygon","properties":{"OBJECTID":233619,"gpcode":"221282","gpname":"MEENJA","stname":"KERALA","dtname":"Kasaragod","sdtname":"Manjeswaram","stcode11":"32","dtcode11":"588","sdtcode11":"","blklgdcode":"5995","blkname":"MANJESHWAR","dt_lgd":558,"sdt_lgd":5932,"st_lgd":32,"vilcode11":0,"vilname11":"","pan_local":"മഞ്ചേശ്വര്&zwj;","b_pan_code":6305,"b_pan_name":"MANJESHWAR","d_pan_code":513,"d_pan_name":"KASARAGOD","gp_code":"221282","gp_name":"MEENJA","st_2011":"32","dt_2011":"588","sdt_2011":"","subdtname":"Manjeswaram","block_name":"MANJESHWAR","blk_lgdcod":"5995","dtcode14":"588","SHAPE_Length":19549.619816632843,"SHAPE_Area":15746065.323730515}},{"arcs":[[133,-124,-40,-42,-123,-130,134]],"type":"Polygon","properties":{"OBJECTID":233620,"gpcode":"221282","gpname":"MEENJA","stname":"KERALA","dtname":"Kasaragod","sdtname":"Manjeswaram","stcode11":"32","dtcode11":"588","sdtcode11":"","blklgdcode":"5995","blkname":"MANJESHWAR","dt_lgd":558,"sdt_lgd":5932,"st_lgd":32,"vilcode11":0,"vilname11":"","pan_local":"മഞ്ചേശ്വര്&zwj;","b_pan_code":6305,"b_pan_name":"MANJESHWAR","d_pan_code":513,"d_pan_name":"KASARAGOD","gp_code":"221282","gp_name":"MEENJA","st_2011":"32","dt_2011":"588","sdt_2011":"","subdtname":"Manjeswaram","block_name":"MANJESHWAR","blk_lgdcod":"5995","dtcode14":"588","SHAPE_Length":46245.259408652804,"SHAPE_Area":41473480.26445489}},{"arcs":[[135,-133,-125,-134,136,137]],"type":"Polygon","properties":{"OBJECTID":233621,"gpcode":"221283","gpname":"PAIVALIKE","stname":"KERALA","dtname":"Kasaragod","sdtname":"Manjeswaram","stcode11":"32","dtcode11":"588","sdtcode11":"","blklgdcode":"5995","blkname":"MANJESHWAR","dt_lgd":558,"sdt_lgd":5932,"st_lgd":32,"vilcode11":0,"vilname11":"","pan_local":"മഞ്ചേശ്വര്&zwj;","b_pan_code":6305,"b_pan_name":"MANJESHWAR","d_pan_code":513,"d_pan_name":"KASARAGOD","gp_code":"221283","gp_name":"PAIVALIKE","st_2011":"32","dt_2011":"588","sdt_2011":"","subdtname":"Manjeswaram","block_name":"MANJESHWAR","blk_lgdcod":"5995","dtcode14":"588","SHAPE_Length":59002.056074100736,"SHAPE_Area":60119655.72159389}},{"arcs":[[-111,-105,-109,-119,-132,-136,138,-117]],"type":"Polygon","properties":{"OBJECTID":233622,"gpcode":"221284","gpname":"PUTHIGE","stname":"KERALA","dtname":"Kasaragod","sdtname":"Manjeswaram","stcode11":"32","dtcode11":"588","sdtcode11":"","blklgdcode":"5995","blkname":"MANJESHWAR","dt_lgd":558,"sdt_lgd":5932,"st_lgd":32,"vilcode11":0,"vilname11":"","pan_local":"മഞ്ചേശ്വര്&zwj;","b_pan_code":6305,"b_pan_name":"MANJESHWAR","d_pan_code":513,"d_pan_name":"KASARAGOD","gp_code":"221284","gp_name":"PUTHIGE","st_2011":"32","dt_2011":"588","sdt_2011":"","subdtname":"Manjeswaram","block_name":"MANJESHWAR","blk_lgdcod":"5995","dtcode14":"588","SHAPE_Length":47223.9013478708,"SHAPE_Area":41170785.785368726}},{"arcs":[[-37,139,-137,-135,-129,140]],"type":"Polygon","properties":{"OBJECTID":233623,"gpcode":"221285","gpname":"VORKADY","stname":"KERALA","dtname":"Kasaragod","sdtname":"Manjeswaram","stcode11":"32","dtcode11":"588","sdtcode11":"","blklgdcode":"5995","blkname":"MANJESHWAR","dt_lgd":558,"sdt_lgd":5932,"st_lgd":32,"vilcode11":0,"vilname11":"","pan_local":"മഞ്ചേശ്വര്&zwj;","b_pan_code":6305,"b_pan_name":"MANJESHWAR","d_pan_code":513,"d_pan_name":"KASARAGOD","gp_code":"221285","gp_name":"VORKADY","st_2011":"32","dt_2011":"588","sdt_2011":"","subdtname":"Manjeswaram","block_name":"MANJESHWAR","blk_lgdcod":"5995","dtcode14":"588","SHAPE_Length":36288.21281611292,"SHAPE_Area":36247643.25276379}},{"arcs":[[141,142,-15,-19,143]],"type":"Polygon","properties":{"OBJECTID":233624,"gpcode":"221286","gpname":"CHERUVATHUR","stname":"KERALA","dtname":"Kasaragod","sdtname":"Hosdurg","stcode11":"32","dtcode11":"588","sdtcode11":"05631","blklgdcode":"5996","blkname":"NILESHWAR","dt_lgd":558,"sdt_lgd":5631,"st_lgd":32,"vilcode11":0,"vilname11":"","pan_local":"നീലേശ്വര്&zwj;","b_pan_code":6306,"b_pan_name":"NILESHWAR","d_pan_code":513,"d_pan_name":"KASARAGOD","gp_code":"221286","gp_name":"CHERUVATHUR","st_2011":"32","dt_2011":"588","sdt_2011":"05631","subdtname":"Hosdurg","block_name":"NILESHWAR","blk_lgdcod":"5996","dtcode14":"588","SHAPE_Length":19826.88367775196,"SHAPE_Area":18383469.606523994}},{"arcs":[[144,145,-49,146]],"type":"Polygon","properties":{"OBJECTID":233625,"gpcode":"221287","gpname":"EAST ELERI","stname":"KERALA","dtname":"Kasaragod","sdtname":"Vellarikkundu","stcode11":"32","dtcode11":"588","sdtcode11":"","blklgdcode":"6696","blkname":"PARAPPA","dt_lgd":558,"sdt_lgd":5933,"st_lgd":32,"vilcode11":0,"vilname11":"","pan_local":" ","b_pan_code":6885,"b_pan_name":"PARAPPA","d_pan_code":513,"d_pan_name":"KASARAGOD","gp_code":"221287","gp_name":"EAST ELERI","st_2011":"32","dt_2011":"588","sdt_2011":"","subdtname":"Vellarikkundu","block_name":"PARAPPA","blk_lgdcod":"6696","dtcode14":"588","SHAPE_Length":43233.57095524001,"SHAPE_Area":64739402.427442305}},{"arcs":[[147,148,-144,-18,149]],"type":"Polygon","properties":{"OBJECTID":233626,"gpcode":"221288","gpname":"KAYYUR CHEEMENI","stname":"KERALA","dtname":"Kasaragod","sdtname":"Hosdurg","stcode11":"32","dtcode11":"588","sdtcode11":"05631","blklgdcode":"5996","blkname":"NILESHWAR","dt_lgd":558,"sdt_lgd":5631,"st_lgd":32,"vilcode11":0,"vilname11":"","pan_local":"നീലേശ്വര്&zwj;","b_pan_code":6306,"b_pan_name":"NILESHWAR","d_pan_code":513,"d_pan_name":"KASARAGOD","gp_code":"221288","gp_name":"KAYYUR CHEEMENI","st_2011":"32","dt_2011":"588","sdt_2011":"05631","subdtname":"Hosdurg","block_name":"NILESHWAR","blk_lgdcod":"5996","dtcode14":"588","SHAPE_Length":47870.7331671357,"SHAPE_Area":76483195.71441813}},{"arcs":[[150,-145,151,-150,-21,-63,-59,-51]],"type":"Polygon","properties":{"OBJECTID":233627,"gpcode":"221289","gpname":"KINANOOR KARINDALAM","stname":"KERALA","dtname":"Kasaragod","sdtname":"Vellarikkundu","stcode11":"32","dtcode11":"588","sdtcode11":"","blklgdcode":"6696","blkname":"PARAPPA","dt_lgd":558,"sdt_lgd":5933,"st_lgd":32,"vilcode11":0,"vilname11":"","pan_local":" ","b_pan_code":6885,"b_pan_name":"PARAPPA","d_pan_code":513,"d_pan_name":"KASARAGOD","gp_code":"221289","gp_name":"KINANOOR KARINDALAM","st_2011":"32","dt_2011":"588","sdt_2011":"","subdtname":"Vellarikkundu","block_name":"PARAPPA","blk_lgdcod":"6696","dtcode14":"588","SHAPE_Length":62445.40999535434,"SHAPE_Area":89622607.90222155}},{"arcs":[[152,153,154,-16,-143]],"type":"Polygon","properties":{"OBJECTID":233628,"gpcode":"221290","gpname":"PADNE","stname":"KERALA","dtname":"Kasaragod","sdtname":"Hosdurg","stcode11":"32","dtcode11":"588","sdtcode11":"05631","blklgdcode":"5996","blkname":"NILESHWAR","dt_lgd":558,"sdt_lgd":5631,"st_lgd":32,"vilcode11":0,"vilname11":"","pan_local":"നീലേശ്വര്&zwj;","b_pan_code":6306,"b_pan_name":"NILESHWAR","d_pan_code":513,"d_pan_name":"KASARAGOD","gp_code":"221290","gp_name":"PADNE","st_2011":"32","dt_2011":"588","sdt_2011":"05631","subdtname":"Hosdurg","block_name":"NILESHWAR","blk_lgdcod":"5996","dtcode14":"588","SHAPE_Length":35197.13735480385,"SHAPE_Area":28258602.91819124}},{"arcs":[[155,156,-153,-142,-149]],"type":"Polygon","properties":{"OBJECTID":233629,"gpcode":"221291","gpname":"PILICODE","stname":"KERALA","dtname":"Kasaragod","sdtname":"Hosdurg","stcode11":"32","dtcode11":"588","sdtcode11":"05631","blklgdcode":"5996","blkname":"NILESHWAR","dt_lgd":558,"sdt_lgd":5631,"st_lgd":32,"vilcode11":0,"vilname11":"","pan_local":"നീലേശ്വര്&zwj;","b_pan_code":6306,"b_pan_name":"NILESHWAR","d_pan_code":513,"d_pan_name":"KASARAGOD","gp_code":"221291","gp_name":"PILICODE","st_2011":"32","dt_2011":"588","sdt_2011":"05631","subdtname":"Hosdurg","block_name":"NILESHWAR","blk_lgdcod":"5996","dtcode14":"588","SHAPE_Length":32172.167834241693,"SHAPE_Area":30569408.556873895}},{"arcs":[[157,-154,-157]],"type":"Polygon","properties":{"OBJECTID":233630,"gpcode":"221292","gpname":"THRIKKARIPUR","stname":"KERALA","dtname":"Kasaragod","sdtname":"Hosdurg","stcode11":"32","dtcode11":"588","sdtcode11":"05631","blklgdcode":"5996","blkname":"NILESHWAR","dt_lgd":558,"sdt_lgd":5631,"st_lgd":32,"vilcode11":0,"vilname11":"","pan_local":"നീലേശ്വര്&zwj;","b_pan_code":6306,"b_pan_name":"NILESHWAR","d_pan_code":513,"d_pan_name":"KASARAGOD","gp_code":"221292","gp_name":"THRIKKARIPUR","st_2011":"32","dt_2011":"588","sdt_2011":"05631","subdtname":"Hosdurg","block_name":"NILESHWAR","blk_lgdcod":"5996","dtcode14":"588","SHAPE_Length":39328.011605534455,"SHAPE_Area":27494624.16482897}},{"arcs":[[-146,-151,-50]],"type":"Polygon","properties":{"OBJECTID":233631,"gpcode":"221294","gpname":"WEST ELERI","stname":"KERALA","dtname":"Kasaragod","sdtname":"Vellarikkundu","stcode11":"32","dtcode11":"588","sdtcode11":"","blklgdcode":"6696","blkname":"PARAPPA","dt_lgd":558,"sdt_lgd":5933,"st_lgd":32,"vilcode11":0,"vilname11":"","pan_local":" ","b_pan_code":6885,"b_pan_name":"PARAPPA","d_pan_code":513,"d_pan_name":"KASARAGOD","gp_code":"221294","gp_name":"WEST ELERI","st_2011":"32","dt_2011":"588","sdt_2011":"","subdtname":"Vellarikkundu","block_name":"PARAPPA","blk_lgdcod":"6696","dtcode14":"588","SHAPE_Length":35921.30158658564,"SHAPE_Area":42749591.200647004}}]}}}