{"type":"Topology","arcs":[[[19047,18877],[-7268,-1020],[-11027,5612],[-752,23980],[3759,8673],[14286,9183],[6266,-6632],[-5264,-39796]],[[42606,33673],[501,510]],[[43107,34183],[-501,-1020]],[[42606,33163],[-752,-510],[-752,0],[-501,0],[-501,0]],[[40100,32653],[-4010,12245],[5514,26530],[8771,11734],[6517,16837],[4260,-4082],[-4762,-25510],[-8521,-18367]],[[47869,52040],[-1253,-4591],[-752,-1531],[0,-510],[-501,-510],[-501,-1021],[-752,-2551],[-1003,-1020],[-250,-6123]],[[42857,34183],[-251,-510]],[[42606,33673],[251,510]],[[42857,34183],[250,0]],[[43107,34183],[-501,-510]],[[45112,23979],[0,-510]],[[45112,23469],[-250,510]],[[44862,23979],[-4512,7653],[752,3062],[752,4081],[2757,6633],[1003,-1021],[1253,-1020],[501,-2041],[1253,0],[501,-4081],[-4010,-13266]],[[81703,81632],[251,0]],[[81954,81632],[251,2551]],[[82205,84183],[0,-510]],[[82205,83673],[250,510]],[[82455,84183],[3008,4081],[14536,-9693],[-501,-7653],[-12281,-5613],[-8521,5613],[3007,10714]],[[82455,84183],[-250,-510]],[[82205,84183],[250,0]],[[81703,81632],[251,0]],[[81954,81632],[-251,0]],[[68170,31632],[-1755,-17346],[-13533,-8674],[-4010,7143],[-1253,10204],[5764,9184],[14787,-511]],[[43107,17857],[1755,6122]],[[44862,23979],[250,0]],[[45112,23469],[2256,-2551]],[[47368,20918],[0,1021]],[[47368,21939],[251,2551],[1253,4081],[752,510]],[[49624,29081],[-1755,-4081],[-501,-3061]],[[47368,21939],[0,-1021]],[[47368,20918],[-3008,-4081]],[[44360,16837],[-751,510]],[[43609,17347],[-502,510]],[[43107,17857],[502,-510]],[[43609,17347],[501,-510]],[[44110,16837],[250,0]],[[44360,16837],[-250,0]],[[44110,16837],[-1003,1020]],[[31328,9184],[0,1020],[-1002,510],[1002,510],[0,9694],[251,4082],[1253,5102]],[[32832,30102],[5764,2551]],[[38596,32653],[1504,0]],[[40100,32653],[-1755,-20408],[-3007,-11225],[-3759,-1020],[-251,9184]],[[32832,30102],[2757,-11735]],[[35589,18367],[-1003,-510]],[[34586,17857],[-251,-1020]],[[34335,16837],[-250,-7653],[-2757,1530],[-501,0],[-1504,510],[-1253,0],[1002,-3061],[-2255,3061],[-251,-3571]],[[26566,7653],[-2255,-5102]],[[24311,2551],[-6266,1531],[1002,14795]],[[19047,18877],[2256,14286],[11529,-3061]],[[35839,17857],[0,-2041]],[[35839,15816],[0,2041]],[[34837,17347],[752,1020]],[[35589,18367],[250,-510]],[[35839,17857],[-752,-1531]],[[35087,16326],[-250,1021]],[[34335,16837],[251,1020]],[[34586,17857],[251,-510]],[[34837,17347],[-502,-510]]],"transform":{"scale":[3.990039900399297e-7,1.9600196001956974e-7],"translate":[86.7015,22.478]},"objects":{"wards":{"type":"GeometryCollection","geometries":[{"arcs":[[0]],"type":"Polygon","properties":{"objectid":3620,"statename":"Jharkhand","statecode":"20","districtname":"East Singhbhum","districtcode":"357","ulbname":"Chakulia Nagar Panchayat","ulbcode":"801783","wardname":"Ward 1","wardcode":"1","id":null,"status":"APPROVED","misglobalid":null,"approved_by":null,"createdate":1643010601000,"updateddate":1732004611000,"globalid":null,"gisglobalid":"sndP4mcK-Q6Qo-P6cs-Rac6-aKBaP5l65s4B","remark":"ok","st_area(shape)":0.00007125954419408459,"st_perimeter(shape)":0.0430663365348061}},{"arcs":[[[1,2,3,4,5,6]],[[7,8,9]]],"type":"MultiPolygon","properties":{"objectid":3618,"statename":"Jharkhand","statecode":"20","districtname":"East Singhbhum","districtcode":"357","ulbname":"Chakulia Nagar Panchayat","ulbcode":"801783","wardname":"Ward 2","wardcode":"2","id":null,"status":"APPROVED","misglobalid":null,"approved_by":null,"createdate":1643010601000,"updateddate":1732005317000,"globalid":null,"gisglobalid":"c5mcdaQ6-Bm5c-Pn5a-ssd5-Rm4cdKs4coQo","remark":"ok","st_area(shape)":0.000050702510348417745,"st_perimeter(shape)":0.041637173041526324}},{"arcs":[[10,11,12]],"type":"Polygon","properties":{"objectid":3616,"statename":"Jharkhand","statecode":"20","districtname":"East Singhbhum","districtcode":"357","ulbname":"Chakulia Nagar Panchayat","ulbcode":"801783","wardname":"Ward 3","wardcode":"3","id":null,"status":"APPROVED","misglobalid":null,"approved_by":null,"createdate":1643010601000,"updateddate":1732005805000,"globalid":null,"gisglobalid":"a56K5PQm-cRds-PBKB-QP66-nsBoQn5QldPo","remark":"ok","st_area(shape)":0.00000881439158335105,"st_perimeter(shape)":0.011998450400175876}},{"arcs":[[[13,14,15,16,17]],[[18,-16,19]]],"type":"MultiPolygon","properties":{"objectid":3615,"statename":"Jharkhand","statecode":"20","districtname":"East Singhbhum","districtcode":"357","ulbname":"Chakulia Nagar Panchayat","ulbcode":"801783","wardname":"Ward 4","wardcode":"4","id":null,"status":"APPROVED","misglobalid":null,"approved_by":null,"createdate":1643010601000,"updateddate":1732006781000,"globalid":null,"gisglobalid":"Blc54dlm-Q56l-PnKK-aPPQ-6aml6R4Rosns","remark":"ok","st_area(shape)":0.000026019519077436076,"st_perimeter(shape)":0.02773372512242423}},{"arcs":[[22]],"type":"Polygon","properties":{"objectid":3619,"statename":"Jharkhand","statecode":"20","districtname":"East Singhbhum","districtcode":"357","ulbname":"Chakulia Nagar Panchayat","ulbcode":"801783","wardname":"Ward 5","wardcode":"5","id":null,"status":"APPROVED","misglobalid":null,"approved_by":null,"createdate":1643010601000,"updateddate":1732007032000,"globalid":null,"gisglobalid":"BQQdamam-BPds-Psso-QQRs-64K4K5RnBoQ4","remark":"ok","st_area(shape)":0.00003304097096328145,"st_perimeter(shape)":0.02593847622020574}},{"arcs":[[[23,24,10,25,26,27,28,29,30,31,32]],[[33,34,35,36,37]]],"type":"MultiPolygon","properties":{"objectid":3617,"statename":"Jharkhand","statecode":"20","districtname":"East Singhbhum","districtcode":"357","ulbname":"Chakulia Nagar Panchayat","ulbcode":"801783","wardname":"Ward 6","wardcode":"6","id":null,"status":"APPROVED","misglobalid":null,"approved_by":null,"createdate":1643010601000,"updateddate":1732008270000,"globalid":null,"gisglobalid":"ccRnnRKl-5dRa-PaRB-amBa-Blmd6m4ndQKK","remark":"ok","st_area(shape)":0.0000035905020174739397,"st_perimeter(shape)":0.017310093171542508}},{"arcs":[[38,39,40,41]],"type":"Polygon","properties":{"objectid":3613,"statename":"Jharkhand","statecode":"20","districtname":"East Singhbhum","districtcode":"357","ulbname":"Chakulia Nagar Panchayat","ulbcode":"801783","wardname":"Ward 8","wardcode":"8","id":null,"status":"APPROVED","misglobalid":null,"approved_by":null,"createdate":1643010601000,"updateddate":1732008485000,"globalid":null,"gisglobalid":"6no5Pdcs-4dBo-Pm5R-RKsm-BKlPnmm6P6ns","remark":"ok","st_area(shape)":0.000016050475885651805,"st_perimeter(shape)":0.023286590858270034}},{"arcs":[[[42,43,44,45,46,47,48]],[[51,52,53,54]],[[55,56,57]]],"type":"MultiPolygon","properties":{"objectid":3614,"statename":"Jharkhand","statecode":"20","districtname":"East Singhbhum","districtcode":"357","ulbname":"Chakulia Nagar Panchayat","ulbcode":"801783","wardname":"Ward 9","wardcode":"9","id":null,"status":"APPROVED","misglobalid":null,"approved_by":null,"createdate":1643010601000,"updateddate":1732008646000,"globalid":null,"gisglobalid":"lsKnKdRl-RnmR-Pa4m-sd6m-Q45slKamcQnc","remark":"ok","st_area(shape)":0.000031925664062170504,"st_perimeter(shape)":0.04403088867140962}}]}}}