{"type": "FeatureCollection", "features": [{"type": "Feature", "geometry": {"type": "Polygon", "coordinates": [[[83.2776, 27.0977], [83.2782, 27.0997], [83.2786, 27.1007], [83.278, 27.1008], [83.2782, 27.1014], [83.2817, 27.1019], [83.2862, 27.1023], [83.2862, 27.1019], [83.2861, 27.1013], [83.2852, 27.0993], [83.2849, 27.0987], [83.2837, 27.0979], [83.283, 27.0976], [83.2812, 27.0975], [83.2776, 27.0977]]]}, "properties": {"objectid": 108007, "statename": "Uttar Pradesh", "statecode": "9", "districtname": "Mahrajganj", "districtcode": "187", "ulbname": "Np Anand Nagar", "ulbcode": "801155", "wardname": "01 Ambedkar Nagar", "wardcode": "1", "id": null, "status": "APPROVED", "misglobalid": null, "approved_by": null, "createdate": 1643363973000, "updateddate": 1643364170000, "globalid": null, "gisglobalid": "4mmQK5aB-osRc-PcBl-ann5-csccdRd4odRl", "remark": "", "st_area(shape)": 3.1109156164217506e-05, "st_perimeter(shape)": 0.024048523358311476}}, {"type": "Feature", "geometry": {"type": "Polygon", "coordinates": [[[83.2767, 27.1023], [83.2772, 27.1021], [83.2773, 27.1022], [83.2791, 27.1016], [83.279, 27.1015], [83.2782, 27.1014], [83.2777, 27.1014], [83.2762, 27.1013], [83.2754, 27.1012], [83.2754, 27.1013], [83.2751, 27.1015], [83.275, 27.1015], [83.2746, 27.1016], [83.2748, 27.1019], [83.275, 27.1024], [83.2753, 27.103], [83.2757, 27.1027], [83.276, 27.1026], [83.2767, 27.1023]]]}, "properties": {"objectid": 107225, "statename": "Uttar Pradesh", "statecode": "9", "districtname": "Mahrajganj", "districtcode": "187", "ulbname": "Np Anand Nagar", "ulbcode": "801155", "wardname": "02-Lala Tola", "wardcode": "2", "id": null, "status": "APPROVED", "misglobalid": null, "approved_by": null, "createdate": 1643363973000, "updateddate": 1643364179000, "globalid": null, "gisglobalid": "RQclnlsP-am64-PacB-RKdl-6dBmaBa6sanQ", "remark": "", "st_area(shape)": 3.765268024735352e-06, "st_perimeter(shape)": 0.010257603929929852}}, {"type": "Feature", "geometry": {"type": "Polygon", "coordinates": [[[83.2823, 27.1095], [83.2816, 27.1079], [83.281, 27.1065], [83.2802, 27.1044], [83.2795, 27.1046], [83.2792, 27.1035], [83.279, 27.1029], [83.279, 27.1026], [83.2792, 27.1024], [83.2791, 27.1016], [83.2773, 27.1022], [83.2772, 27.1021], [83.2767, 27.1023], [83.276, 27.1026], [83.2757, 27.1027], [83.2756, 27.1028], [83.2757, 27.1029], [83.2758, 27.1032], [83.2759, 27.1034], [83.2761, 27.104], [83.2765, 27.1051], [83.2767, 27.1051], [83.2767, 27.1052], [83.2771, 27.1059], [83.2771, 27.106], [83.2774, 27.1059], [83.2778, 27.1061], [83.2776, 27.1066], [83.2774, 27.107], [83.2799, 27.1087], [83.2816, 27.1102], [83.2823, 27.1095]]]}, "properties": {"objectid": 108009, "statename": "Uttar Pradesh", "statecode": "9", "districtname": "Mahrajganj", "districtcode": "187", "ulbname": "Np Anand Nagar", "ulbcode": "801155", "wardname": "03-Vikas Nagar", "wardcode": "3", "id": null, "status": "APPROVED", "misglobalid": null, "approved_by": null, "createdate": 1643363973000, "updateddate": 1643364186000, "globalid": null, "gisglobalid": "o6ll4o5m-B4BB-Pa5m-anBR-PmPnQ6Rs4ncl", "remark": "", "st_area(shape)": 2.3838252466347505e-05, "st_perimeter(shape)": 0.024596764815623656}}, {"type": "Feature", "geometry": {"type": "Polygon", "coordinates": [[[83.2753, 27.103], [83.275, 27.1024], [83.2748, 27.1019], [83.2746, 27.1016], [83.275, 27.1015], [83.2751, 27.1015], [83.2754, 27.1013], [83.2754, 27.1012], [83.2742, 27.1011], [83.2724, 27.1008], [83.2724, 27.1011], [83.2726, 27.1016], [83.2728, 27.1023], [83.2729, 27.103], [83.2729, 27.1035], [83.2735, 27.1035], [83.274, 27.1034], [83.2747, 27.1032], [83.2753, 27.103]]]}, "properties": {"objectid": 108008, "statename": "Uttar Pradesh", "statecode": "9", "districtname": "Mahrajganj", "districtcode": "187", "ulbname": "Np Anand Nagar", "ulbcode": "801155", "wardname": "04-Chaurahiya Tola", "wardcode": "4", "id": null, "status": "APPROVED", "misglobalid": null, "approved_by": null, "createdate": 1643363973000, "updateddate": 1643364190000, "globalid": null, "gisglobalid": "aQcQoP5m-BPo5-P64P-slmR-dP5KnnaBamPR", "remark": "", "st_area(shape)": 5.4476422770803945e-06, "st_perimeter(shape)": 0.01081192846922105}}, {"type": "Feature", "geometry": {"type": "Polygon", "coordinates": [[[83.2717, 27.1012], [83.2711, 27.0996], [83.2709, 27.0996], [83.2708, 27.098], [83.2707, 27.0972], [83.2706, 27.0972], [83.2705, 27.0959], [83.2694, 27.0959], [83.2694, 27.0953], [83.2689, 27.0953], [83.2679, 27.0954], [83.2674, 27.0955], [83.2664, 27.0957], [83.2665, 27.0958], [83.2649, 27.0964], [83.2649, 27.0965], [83.2656, 27.0979], [83.2657, 27.0979], [83.2662, 27.0994], [83.2667, 27.0997], [83.2671, 27.1004], [83.2673, 27.1007], [83.2678, 27.101], [83.2686, 27.1014], [83.2689, 27.1016], [83.2691, 27.1031], [83.2692, 27.1033], [83.2693, 27.1033], [83.2709, 27.1031], [83.2709, 27.1013], [83.2717, 27.1012]]]}, "properties": {"objectid": 108006, "statename": "Uttar Pradesh", "statecode": "9", "districtname": "Mahrajganj", "districtcode": "187", "ulbname": "Np Anand Nagar", "ulbcode": "801155", "wardname": "05-Subhash Nagar", "wardcode": "5", "id": null, "status": "APPROVED", "misglobalid": null, "approved_by": null, "createdate": 1643363973000, "updateddate": 1643364198000, "globalid": null, "gisglobalid": "565PR55l-saPs-P466-sBP5-lnsmcRKmsRQQ", "remark": "", "st_area(shape)": 3.067783163248468e-05, "st_perimeter(shape)": 0.02542507320164194}}, {"type": "Feature", "geometry": {"type": "Polygon", "coordinates": [[[83.2813, 27.1105], [83.2816, 27.1102], [83.2799, 27.1087], [83.2774, 27.107], [83.2763, 27.1062], [83.2748, 27.1052], [83.2736, 27.1044], [83.273, 27.1039], [83.2729, 27.103], [83.2728, 27.1023], [83.2726, 27.1016], [83.2724, 27.1011], [83.2719, 27.1011], [83.2717, 27.1012], [83.2709, 27.1013], [83.2709, 27.1031], [83.2702, 27.1032], [83.2702, 27.1038], [83.2703, 27.1055], [83.2706, 27.1066], [83.2712, 27.108], [83.2717, 27.1088], [83.2723, 27.1096], [83.2732, 27.1106], [83.275, 27.1126], [83.2768, 27.1122], [83.2794, 27.1114], [83.2813, 27.1105]]]}, "properties": {"objectid": 108369, "statename": "Uttar Pradesh", "statecode": "9", "districtname": "Mahrajganj", "districtcode": "187", "ulbname": "Np Anand Nagar", "ulbcode": "801155", "wardname": "06-Civil Line", "wardcode": "6", "id": null, "status": "APPROVED", "misglobalid": null, "approved_by": null, "createdate": 1643363973000, "updateddate": 1643364210000, "globalid": null, "gisglobalid": "Klsl4lnB-5oc6-Pd56-RdcB-KQRKBKc5RRdQ", "remark": "", "st_area(shape)": 5.818770766262242e-05, "st_perimeter(shape)": 0.03577265967635365}}, {"type": "Feature", "geometry": {"type": "Polygon", "coordinates": [[[83.2697, 27.0959], [83.2705, 27.0959], [83.2706, 27.0972], [83.2707, 27.0972], [83.2708, 27.098], [83.2708, 27.0993], [83.2719, 27.0991], [83.2713, 27.0967], [83.2706, 27.0941], [83.2699, 27.0916], [83.2697, 27.0907], [83.2694, 27.0907], [83.2696, 27.0938], [83.2697, 27.0959]]]}, "properties": {"objectid": 107227, "statename": "Uttar Pradesh", "statecode": "9", "districtname": "Mahrajganj", "districtcode": "187", "ulbname": "Np Anand Nagar", "ulbcode": "801155", "wardname": "07-Lohiya Market", "wardcode": "7", "id": null, "status": "APPROVED", "misglobalid": null, "approved_by": null, "createdate": 1643363973000, "updateddate": 1643364218000, "globalid": null, "gisglobalid": "oaB6PKss-al4s-Ploa-RQds-nRKQmKQn6QaR", "remark": "", "st_area(shape)": 6.73104301211578e-06, "st_perimeter(shape)": 0.01953395423598304}}, {"type": "Feature", "geometry": {"type": "Polygon", "coordinates": [[[83.2724, 27.1011], [83.272, 27.0993], [83.2719, 27.0991], [83.2708, 27.0993], [83.2709, 27.0996], [83.2711, 27.0996], [83.2717, 27.1012], [83.2719, 27.1011], [83.2724, 27.1011]]]}, "properties": {"objectid": 107226, "statename": "Uttar Pradesh", "statecode": "9", "districtname": "Mahrajganj", "districtcode": "187", "ulbname": "Np Anand Nagar", "ulbcode": "801155", "wardname": "08-Rahman Market", "wardcode": "8", "id": null, "status": "APPROVED", "misglobalid": null, "approved_by": null, "createdate": 1643363973000, "updateddate": 1643364223000, "globalid": null, "gisglobalid": "mmmRRQ4l-6cPB-P5sl-sK6n-PBooBP5dlPKc", "remark": "", "st_area(shape)": 1.756368273154387e-06, "st_perimeter(shape)": 0.006108859205703191}}, {"type": "Feature", "geometry": {"type": "Polygon", "coordinates": [[[83.2862, 27.1045], [83.2863, 27.1032], [83.2862, 27.1023], [83.2817, 27.1019], [83.279, 27.1015], [83.2792, 27.1024], [83.279, 27.1026], [83.279, 27.1029], [83.2792, 27.1035], [83.2795, 27.1046], [83.2802, 27.1044], [83.281, 27.1065], [83.2816, 27.1079], [83.2823, 27.1095], [83.2849, 27.1073], [83.2853, 27.1062], [83.2862, 27.1045]]]}, "properties": {"objectid": 107224, "statename": "Uttar Pradesh", "statecode": "9", "districtname": "Mahrajganj", "districtcode": "187", "ulbname": "Np Anand Nagar", "ulbcode": "801155", "wardname": "09-Shastri Nagar", "wardcode": "9", "id": null, "status": "APPROVED", "misglobalid": null, "approved_by": null, "createdate": 1643363973000, "updateddate": 1643364238000, "globalid": null, "gisglobalid": "ccs6lcBR-coPl-PanP-aQP4-QosocnRRaKaR", "remark": "", "st_area(shape)": 3.512911394947148e-05, "st_perimeter(shape)": 0.025443278528477296}}, {"type": "Feature", "geometry": {"type": "Polygon", "coordinates": [[[83.2706, 27.0943], [83.2713, 27.0967], [83.2719, 27.0991], [83.272, 27.0993], [83.2724, 27.1008], [83.2742, 27.1011], [83.2754, 27.1012], [83.2777, 27.1014], [83.2782, 27.1014], [83.278, 27.1008], [83.2786, 27.1007], [83.2782, 27.0997], [83.2776, 27.0977], [83.2772, 27.0977], [83.2759, 27.0981], [83.2751, 27.0961], [83.2744, 27.0942], [83.2739, 27.0936], [83.2724, 27.0939], [83.2706, 27.0943]]]}, "properties": {"objectid": 107223, "statename": "Uttar Pradesh", "statecode": "9", "districtname": "Mahrajganj", "districtcode": "187", "ulbname": "Np Anand Nagar", "ulbcode": "801155", "wardname": "10-Mill Colony", "wardcode": "10", "id": null, "status": "APPROVED", "misglobalid": null, "approved_by": null, "createdate": 1643363973000, "updateddate": 1643364228000, "globalid": null, "gisglobalid": "ndonmnmm-5a5n-PKnK-QPs4-lPm56nKalaa6", "remark": "", "st_area(shape)": 3.582299262915817e-05, "st_perimeter(shape)": 0.027140686011344315}}, {"type": "Feature", "geometry": {"type": "Polygon", "coordinates": [[[83.2756, 27.1028], [83.2753, 27.103], [83.2747, 27.1032], [83.274, 27.1034], [83.2735, 27.1035], [83.2729, 27.1035], [83.273, 27.1039], [83.2736, 27.1044], [83.2748, 27.1052], [83.2763, 27.1062], [83.2774, 27.107], [83.2776, 27.1066], [83.2778, 27.1061], [83.2774, 27.1059], [83.2771, 27.106], [83.2771, 27.1059], [83.2767, 27.1052], [83.2767, 27.1051], [83.2765, 27.1051], [83.2761, 27.104], [83.2759, 27.1034], [83.2758, 27.1032], [83.2757, 27.1029], [83.2756, 27.1028]]]}, "properties": {"objectid": 108010, "statename": "Uttar Pradesh", "statecode": "9", "districtname": "Mahrajganj", "districtcode": "187", "ulbname": "Np Anand Nagar", "ulbcode": "801155", "wardname": "11-Fattumall Tola", "wardcode": "11", "id": null, "status": "APPROVED", "misglobalid": null, "approved_by": null, "createdate": 1643363973000, "updateddate": 1643364232000, "globalid": null, "gisglobalid": "6P54BldK-B5Pa-PcPK-sslK-o5PoPPKKo55a", "remark": "", "st_area(shape)": 7.324530242766589e-06, "st_perimeter(shape)": 0.013950147390014753}}]}
