{"type": "FeatureCollection", "features": [{"type": "Feature", "geometry": {"type": "Polygon", "coordinates": [[[82.2022, 25.6676], [82.2017, 25.6674], [82.1999, 25.6666], [82.1991, 25.666], [82.1989, 25.6659], [82.1991, 25.6678], [82.1991, 25.669], [82.1994, 25.6697], [82.2002, 25.6702], [82.2011, 25.6705], [82.2019, 25.6707], [82.2026, 25.6707], [82.2022, 25.6687], [82.2023, 25.6682], [82.2022, 25.6676]]]}, "properties": {"objectid": 250763, "statename": "Uttar Pradesh", "statecode": "9", "districtname": "Jaunpur", "districtcode": "194", "ulbname": "Mogra Badshahpur (Npp)", "ulbcode": "801213", "wardname": "Pakri (I)", "wardcode": "1", "id": null, "status": "APPROVED", "misglobalid": null, "approved_by": null, "createdate": 1648220592000, "updateddate": 1673074836000, "globalid": null, "gisglobalid": "l44Kl6lm-c456-Pn4B-R6d6-doQdmPmQ4BBa", "remark": "", "st_area(shape)": 1.1028701383114838e-05, "st_perimeter(shape)": 0.0141859737563298}}, {"type": "Feature", "geometry": {"type": "Polygon", "coordinates": [[[82.2074, 25.6657], [82.2095, 25.6652], [82.2104, 25.6652], [82.2117, 25.6653], [82.2104, 25.662], [82.2084, 25.6625], [82.207, 25.6629], [82.2056, 25.6632], [82.2026, 25.6639], [82.2033, 25.6661], [82.2036, 25.6668], [82.2074, 25.6657]]]}, "properties": {"objectid": 250764, "statename": "Uttar Pradesh", "statecode": "9", "districtname": "Jaunpur", "districtcode": "194", "ulbname": "Mogra Badshahpur (Npp)", "ulbcode": "801213", "wardname": "Sahabganj (Iv)", "wardcode": "2", "id": null, "status": "APPROVED", "misglobalid": null, "approved_by": null, "createdate": 1648220607000, "updateddate": 1673425003000, "globalid": null, "gisglobalid": "5RPomlKm-oBmP-PKnP-RlPn-Bd45dls5Badn", "remark": "", "st_area(shape)": 2.404632841269671e-05, "st_perimeter(shape)": 0.023012336467110178}}, {"type": "Feature", "geometry": {"type": "Polygon", "coordinates": [[[82.2104, 25.662], [82.2076, 25.6487], [82.201, 25.6495], [82.2025, 25.6499], [82.2045, 25.6506], [82.2056, 25.6519], [82.2049, 25.6549], [82.2039, 25.6562], [82.2027, 25.6572], [82.2036, 25.6578], [82.2051, 25.6581], [82.2067, 25.6583], [82.2084, 25.6625], [82.2104, 25.662]]]}, "properties": {"objectid": 248791, "statename": "Uttar Pradesh", "statecode": "9", "districtname": "Jaunpur", "districtcode": "194", "ulbname": "Mogra Badshahpur (Npp)", "ulbcode": "801213", "wardname": "Gajrajganj", "wardcode": "3", "id": null, "status": "APPROVED", "misglobalid": null, "approved_by": null, "createdate": 1648220817000, "updateddate": 1674107214000, "globalid": null, "gisglobalid": "lBd6nBBa-6nPd-PBcQ-sdnR-RmP5soc4daPn", "remark": "", "st_area(shape)": 4.998493516902127e-05, "st_perimeter(shape)": 0.042710517117349175}}, {"type": "Feature", "geometry": {"type": "Polygon", "coordinates": [[[82.1983, 25.6731], [82.1973, 25.6711], [82.197, 25.6701], [82.1902, 25.6721], [82.19, 25.6754], [82.1921, 25.6742], [82.1959, 25.6738], [82.1987, 25.6738], [82.1983, 25.6731]]]}, "properties": {"objectid": 250765, "statename": "Uttar Pradesh", "statecode": "9", "districtname": "Jaunpur", "districtcode": "194", "ulbname": "Mogra Badshahpur (Npp)", "ulbcode": "801213", "wardname": "Sahabganj (Iii)", "wardcode": "4", "id": null, "status": "APPROVED", "misglobalid": null, "approved_by": null, "createdate": 1648220929000, "updateddate": 1674107242000, "globalid": null, "gisglobalid": "nQnm4Bca-onsm-PKnQ-scsc-lKnQ5sPPs6nn", "remark": "", "st_area(shape)": 2.4336941635518618e-05, "st_perimeter(shape)": 0.02365578091666523}}, {"type": "Feature", "geometry": {"type": "Polygon", "coordinates": [[[82.2028, 25.6716], [82.2003, 25.6722], [82.1983, 25.6731], [82.1987, 25.6738], [82.1959, 25.6738], [82.1921, 25.6742], [82.19, 25.6754], [82.19, 25.6758], [82.1912, 25.6761], [82.1941, 25.677], [82.1992, 25.677], [82.2027, 25.6782], [82.2029, 25.6767], [82.2031, 25.6735], [82.2029, 25.6726], [82.2028, 25.6716]]]}, "properties": {"objectid": 248388, "statename": "Uttar Pradesh", "statecode": "9", "districtname": "Jaunpur", "districtcode": "194", "ulbname": "Mogra Badshahpur (Npp)", "ulbcode": "801213", "wardname": "Pakari (Iii)", "wardcode": "5", "id": null, "status": "APPROVED", "misglobalid": null, "approved_by": null, "createdate": 1648220938000, "updateddate": 1674107267000, "globalid": null, "gisglobalid": "sBlPsnQs-lna6-PnK5-aaca-54noodB4sRaP", "remark": "", "st_area(shape)": 4.5333870106324306e-05, "st_perimeter(shape)": 0.034653257829511216}}, {"type": "Feature", "geometry": {"type": "Polygon", "coordinates": [[[82.2117, 25.6653], [82.2104, 25.6652], [82.2095, 25.6652], [82.2074, 25.6657], [82.2084, 25.668], [82.2097, 25.6695], [82.2135, 25.6715], [82.2135, 25.6699], [82.2117, 25.6653]]]}, "properties": {"objectid": 248792, "statename": "Uttar Pradesh", "statecode": "9", "districtname": "Jaunpur", "districtcode": "194", "ulbname": "Mogra Badshahpur (Npp)", "ulbcode": "801213", "wardname": "Sahabganj (V)", "wardcode": "6", "id": null, "status": "APPROVED", "misglobalid": null, "approved_by": null, "createdate": 1648220946000, "updateddate": 1674107278000, "globalid": null, "gisglobalid": "nP4nBmsB-RmlB-P5nn-scP6-sQaQasocoKsP", "remark": "", "st_area(shape)": 2.1469789439949074e-05, "st_perimeter(shape)": 0.019685784490082573}}, {"type": "Feature", "geometry": {"type": "Polygon", "coordinates": [[[82.1983, 25.664], [82.1966, 25.6645], [82.1966, 25.6646], [82.1968, 25.665], [82.197, 25.6653], [82.1979, 25.6653], [82.1981, 25.6654], [82.1989, 25.6659], [82.1991, 25.666], [82.1991, 25.6653], [82.1988, 25.6647], [82.1983, 25.664]]]}, "properties": {"objectid": 250766, "statename": "Uttar Pradesh", "statecode": "9", "districtname": "Jaunpur", "districtcode": "194", "ulbname": "Mogra Badshahpur (Npp)", "ulbcode": "801213", "wardname": "Nai Bazar", "wardcode": "7", "id": null, "status": "APPROVED", "misglobalid": null, "approved_by": null, "createdate": 1648220971000, "updateddate": 1674107287000, "globalid": null, "gisglobalid": "cnKmQcss-PQRB-Pc46-ss6m-sBmasKRnBsdc", "remark": "", "st_area(shape)": 2.605119879910621e-06, "st_perimeter(shape)": 0.007178884378633299}}, {"type": "Feature", "geometry": {"type": "Polygon", "coordinates": [[[82.2138, 25.6729], [82.2127, 25.6722], [82.2102, 25.6706], [82.2067, 25.6694], [82.2043, 25.6684], [82.2022, 25.6676], [82.2023, 25.6682], [82.2022, 25.6687], [82.2026, 25.6707], [82.2027, 25.6709], [82.2028, 25.6716], [82.2029, 25.6726], [82.2031, 25.6735], [82.2029, 25.6767], [82.2027, 25.6782], [82.2026, 25.6788], [82.2024, 25.6797], [82.2066, 25.6785], [82.2086, 25.6778], [82.2097, 25.6773], [82.2113, 25.6764], [82.2134, 25.6747], [82.2138, 25.6729]]]}, "properties": {"objectid": 250767, "statename": "Uttar Pradesh", "statecode": "9", "districtname": "Jaunpur", "districtcode": "194", "ulbname": "Mogra Badshahpur (Npp)", "ulbcode": "801213", "wardname": "Gurhai (Ii)", "wardcode": "8", "id": null, "status": "APPROVED", "misglobalid": null, "approved_by": null, "createdate": 1648220981000, "updateddate": 1674107314000, "globalid": null, "gisglobalid": "mK5PnKac-oPns-Pssc-Raln-d5KBBPamal5d", "remark": "", "st_area(shape)": 8.313790214834691e-05, "st_perimeter(shape)": 0.03929229786149402}}, {"type": "Feature", "geometry": {"type": "Polygon", "coordinates": [[[82.2135, 25.6715], [82.2097, 25.6695], [82.2084, 25.668], [82.2074, 25.6657], [82.2036, 25.6668], [82.2043, 25.6684], [82.2067, 25.6694], [82.2102, 25.6706], [82.2127, 25.6722], [82.2138, 25.6729], [82.2135, 25.6721], [82.2135, 25.6715]]]}, "properties": {"objectid": 247987, "statename": "Uttar Pradesh", "statecode": "9", "districtname": "Jaunpur", "districtcode": "194", "ulbname": "Mogra Badshahpur (Npp)", "ulbcode": "801213", "wardname": "Sahabganj (I)", "wardcode": "9", "id": null, "status": "APPROVED", "misglobalid": null, "approved_by": null, "createdate": 1648220994000, "updateddate": 1674107327000, "globalid": null, "gisglobalid": "Q5cdc6dl-RcPQ-Pnas-RQBK-naBldoKca5Ba", "remark": "", "st_area(shape)": 1.8453370025131742e-05, "st_perimeter(shape)": 0.026434178048069953}}, {"type": "Feature", "geometry": {"type": "Polygon", "coordinates": [[[82.2028, 25.6716], [82.2027, 25.6709], [82.2026, 25.6707], [82.2019, 25.6707], [82.2011, 25.6705], [82.2002, 25.6702], [82.1994, 25.6697], [82.1991, 25.669], [82.1991, 25.6678], [82.1989, 25.6659], [82.1981, 25.6654], [82.1979, 25.6659], [82.1976, 25.6664], [82.1974, 25.6667], [82.1972, 25.6671], [82.1971, 25.6673], [82.1966, 25.6679], [82.1964, 25.6681], [82.1965, 25.6689], [82.197, 25.6701], [82.1973, 25.6711], [82.1983, 25.6731], [82.2003, 25.6722], [82.2028, 25.6716]]]}, "properties": {"objectid": 247988, "statename": "Uttar Pradesh", "statecode": "9", "districtname": "Jaunpur", "districtcode": "194", "ulbname": "Mogra Badshahpur (Npp)", "ulbcode": "801213", "wardname": "Sahabganj (Ii)", "wardcode": "10", "id": null, "status": "APPROVED", "misglobalid": null, "approved_by": null, "createdate": 1648221010000, "updateddate": 1674107343000, "globalid": null, "gisglobalid": "Bnm5RP6R-nPKa-Psds-aKcs-4KmBddQldm4R", "remark": "", "st_area(shape)": 1.9808720288847048e-05, "st_perimeter(shape)": 0.02250023131987124}}, {"type": "Feature", "geometry": {"type": "Polygon", "coordinates": [[[82.2036, 25.6668], [82.2033, 25.6661], [82.2026, 25.6639], [82.2026, 25.6637], [82.2021, 25.6621], [82.2009, 25.6622], [82.2, 25.6622], [82.199, 25.6621], [82.197, 25.6626], [82.196, 25.6626], [82.1953, 25.6625], [82.1944, 25.6626], [82.1949, 25.6629], [82.195, 25.663], [82.1955, 25.6632], [82.1957, 25.6633], [82.1958, 25.6635], [82.1958, 25.6636], [82.1962, 25.6639], [82.1964, 25.6643], [82.1966, 25.6645], [82.1983, 25.664], [82.2002, 25.6642], [82.2009, 25.6648], [82.2016, 25.6659], [82.2018, 25.6666], [82.2022, 25.6676], [82.2043, 25.6684], [82.2036, 25.6668]]]}, "properties": {"objectid": 250768, "statename": "Uttar Pradesh", "statecode": "9", "districtname": "Jaunpur", "districtcode": "194", "ulbname": "Mogra Badshahpur (Npp)", "ulbcode": "801213", "wardname": "Dafliyan", "wardcode": "11", "id": null, "status": "APPROVED", "misglobalid": null, "approved_by": null, "createdate": 1648221024000, "updateddate": 1674107351000, "globalid": null, "gisglobalid": "nB5danKn-6BRn-P46a-sPmm-PadoBs4PPBnm", "remark": "", "st_area(shape)": 1.9929070391772074e-05, "st_perimeter(shape)": 0.027358771802443654}}, {"type": "Feature", "geometry": {"type": "Polygon", "coordinates": [[[82.197, 25.6701], [82.1965, 25.6689], [82.1964, 25.6681], [82.1962, 25.6667], [82.197, 25.6653], [82.1968, 25.665], [82.1966, 25.6646], [82.1966, 25.6645], [82.1964, 25.6643], [82.1962, 25.6639], [82.1958, 25.6636], [82.1941, 25.665], [82.1908, 25.6672], [82.1902, 25.6721], [82.197, 25.6701]]]}, "properties": {"objectid": 250769, "statename": "Uttar Pradesh", "statecode": "9", "districtname": "Jaunpur", "districtcode": "194", "ulbname": "Mogra Badshahpur (Npp)", "ulbcode": "801213", "wardname": "Suthatti", "wardcode": "12", "id": null, "status": "APPROVED", "misglobalid": null, "approved_by": null, "createdate": 1648221037000, "updateddate": 1674107359000, "globalid": null, "gisglobalid": "5l4m5PaK-6d5P-PQmP-soRn-4dl5cm4n5Rd6", "remark": "", "st_area(shape)": 3.5016400748754444e-05, "st_perimeter(shape)": 0.025629706097955538}}, {"type": "Feature", "geometry": {"type": "Polygon", "coordinates": [[[82.1981, 25.6654], [82.1979, 25.6653], [82.197, 25.6653], [82.1962, 25.6667], [82.1964, 25.6681], [82.1966, 25.6679], [82.1971, 25.6673], [82.1972, 25.6671], [82.1974, 25.6667], [82.1976, 25.6664], [82.1979, 25.6659], [82.1981, 25.6654]]]}, "properties": {"objectid": 248389, "statename": "Uttar Pradesh", "statecode": "9", "districtname": "Jaunpur", "districtcode": "194", "ulbname": "Mogra Badshahpur (Npp)", "ulbcode": "801213", "wardname": "Ambedakar Nagar", "wardcode": "13", "id": null, "status": "APPROVED", "misglobalid": null, "approved_by": null, "createdate": 1648221061000, "updateddate": 1674107372000, "globalid": null, "gisglobalid": "s4aKcad5-45oc-P6cl-R5nd-65RBnB4P5sPQ", "remark": "", "st_area(shape)": 2.6080837508434942e-06, "st_perimeter(shape)": 0.007362138989428215}}, {"type": "Feature", "geometry": {"type": "Polygon", "coordinates": [[[82.2056, 25.6632], [82.2048, 25.6615], [82.204, 25.6602], [82.2025, 25.6586], [82.2015, 25.6582], [82.1999, 25.658], [82.1999, 25.6588], [82.2006, 25.6599], [82.2013, 25.6609], [82.2021, 25.6621], [82.2026, 25.6637], [82.2026, 25.6639], [82.2056, 25.6632]]]}, "properties": {"objectid": 250770, "statename": "Uttar Pradesh", "statecode": "9", "districtname": "Jaunpur", "districtcode": "194", "ulbname": "Mogra Badshahpur (Npp)", "ulbcode": "801213", "wardname": "Kamalpur", "wardcode": "14", "id": null, "status": "APPROVED", "misglobalid": null, "approved_by": null, "createdate": 1648221078000, "updateddate": 1674107388000, "globalid": null, "gisglobalid": "Randass4-nn5m-P6dR-adco-scd5cQPB456l", "remark": "", "st_area(shape)": 1.6098620332053697e-05, "st_perimeter(shape)": 0.017878278036921894}}, {"type": "Feature", "geometry": {"type": "Polygon", "coordinates": [[[82.2084, 25.6625], [82.2067, 25.6583], [82.2051, 25.6581], [82.2036, 25.6578], [82.2027, 25.6572], [82.2024, 25.6561], [82.2021, 25.6547], [82.2019, 25.6538], [82.2014, 25.6532], [82.1973, 25.6534], [82.1949, 25.654], [82.1928, 25.6551], [82.1914, 25.6561], [82.1895, 25.6574], [82.1898, 25.6576], [82.1926, 25.6576], [82.1943, 25.6575], [82.1959, 25.6577], [82.1967, 25.6578], [82.1967, 25.6579], [82.1969, 25.6579], [82.1973, 25.6579], [82.1977, 25.6579], [82.199, 25.658], [82.1995, 25.658], [82.1999, 25.658], [82.2015, 25.6582], [82.2025, 25.6586], [82.204, 25.6602], [82.2048, 25.6615], [82.2056, 25.6632], [82.207, 25.6629], [82.2084, 25.6625]]]}, "properties": {"objectid": 248390, "statename": "Uttar Pradesh", "statecode": "9", "districtname": "Jaunpur", "districtcode": "194", "ulbname": "Mogra Badshahpur (Npp)", "ulbcode": "801213", "wardname": "Adarsh Nagar", "wardcode": "15", "id": null, "status": "APPROVED", "misglobalid": null, "approved_by": null, "createdate": 1648221089000, "updateddate": 1674107398000, "globalid": null, "gisglobalid": "lm6as6o4-mdK4-PP5n-RR6c-K5a4sP4KK4Ra", "remark": "", "st_area(shape)": 6.217450938798773e-05, "st_perimeter(shape)": 0.047738671809730245}}, {"type": "Feature", "geometry": {"type": "Polygon", "coordinates": [[[82.1895, 25.6574], [82.1914, 25.6561], [82.1928, 25.6551], [82.1949, 25.654], [82.1973, 25.6534], [82.2014, 25.6532], [82.2019, 25.6538], [82.2021, 25.6547], [82.2024, 25.6561], [82.2027, 25.6572], [82.2039, 25.6562], [82.2049, 25.6549], [82.2056, 25.6519], [82.2045, 25.6506], [82.2025, 25.6499], [82.201, 25.6495], [82.1989, 25.649], [82.1954, 25.6493], [82.193, 25.6502], [82.1918, 25.6517], [82.19, 25.6539], [82.1882, 25.656], [82.1881, 25.6564], [82.1883, 25.6581], [82.1891, 25.6572], [82.1895, 25.6574]]]}, "properties": {"objectid": 250771, "statename": "Uttar Pradesh", "statecode": "9", "districtname": "Jaunpur", "districtcode": "194", "ulbname": "Mogra Badshahpur (Npp)", "ulbcode": "801213", "wardname": "Pakari (Ii)", "wardcode": "16", "id": null, "status": "APPROVED", "misglobalid": null, "approved_by": null, "createdate": 1648221102000, "updateddate": 1674107407000, "globalid": null, "gisglobalid": "mnQdBQQl-addK-PRa4-a655-KcosmBQlaRRQ", "remark": "", "st_area(shape)": 7.323829763088807e-05, "st_perimeter(shape)": 0.048496833939716585}}, {"type": "Feature", "geometry": {"type": "Polygon", "coordinates": [[[82.2021, 25.6621], [82.2013, 25.6609], [82.2006, 25.6599], [82.1999, 25.6588], [82.1999, 25.658], [82.1995, 25.658], [82.199, 25.658], [82.1977, 25.6579], [82.1979, 25.6584], [82.1979, 25.6588], [82.1979, 25.6592], [82.1973, 25.6602], [82.1972, 25.6604], [82.1968, 25.6609], [82.1963, 25.6616], [82.196, 25.6621], [82.196, 25.6626], [82.197, 25.6626], [82.199, 25.6621], [82.2, 25.6622], [82.2009, 25.6622], [82.2021, 25.6621]]]}, "properties": {"objectid": 249526, "statename": "Uttar Pradesh", "statecode": "9", "districtname": "Jaunpur", "districtcode": "194", "ulbname": "Mogra Badshahpur (Npp)", "ulbcode": "801213", "wardname": "Naiganj", "wardcode": "17", "id": null, "status": "APPROVED", "misglobalid": null, "approved_by": null, "createdate": 1648221119000, "updateddate": 1674107416000, "globalid": null, "gisglobalid": "P55aRRm4-aKad-PmQR-RRlo-6lPcdod6BcKK", "remark": "", "st_area(shape)": 1.582618505322089e-05, "st_perimeter(shape)": 0.018370188974166757}}, {"type": "Feature", "geometry": {"type": "Polygon", "coordinates": [[[82.2024, 25.6797], [82.2026, 25.6788], [82.2027, 25.6782], [82.1992, 25.677], [82.1941, 25.677], [82.1912, 25.6761], [82.19, 25.6758], [82.1897, 25.6775], [82.1916, 25.6791], [82.1942, 25.68], [82.1996, 25.6803], [82.2024, 25.6797]]]}, "properties": {"objectid": 247989, "statename": "Uttar Pradesh", "statecode": "9", "districtname": "Jaunpur", "districtcode": "194", "ulbname": "Mogra Badshahpur (Npp)", "ulbcode": "801213", "wardname": "Gurhai (I)", "wardcode": "18", "id": null, "status": "APPROVED", "misglobalid": null, "approved_by": null, "createdate": 1648221130000, "updateddate": 1674107424000, "globalid": null, "gisglobalid": "oKmP4Pn6-PPoB-PnQP-sQoB-oaolQnR6sKdl", "remark": "", "st_area(shape)": 3.5527583385107394e-05, "st_perimeter(shape)": 0.029847160574116738}}, {"type": "Feature", "geometry": {"type": "Polygon", "coordinates": [[[82.1938, 25.662], [82.1934, 25.6618], [82.193, 25.6615], [82.1926, 25.6612], [82.1925, 25.661], [82.1923, 25.6606], [82.1922, 25.6604], [82.1921, 25.6602], [82.1918, 25.6599], [82.1915, 25.6596], [82.1912, 25.6592], [82.1908, 25.6594], [82.1899, 25.6599], [82.1884, 25.6605], [82.1885, 25.6611], [82.1895, 25.6631], [82.1925, 25.6624], [82.1938, 25.662]]]}, "properties": {"objectid": 247990, "statename": "Uttar Pradesh", "statecode": "9", "districtname": "Jaunpur", "districtcode": "194", "ulbname": "Mogra Badshahpur (Npp)", "ulbcode": "801213", "wardname": "Anjahi", "wardcode": "19", "id": null, "status": "APPROVED", "misglobalid": null, "approved_by": null, "createdate": 1648221141000, "updateddate": 1674107435000, "globalid": null, "gisglobalid": "slKBRcQc-cK6d-PQBR-snoa-aaocQmodc6nc", "remark": "", "st_area(shape)": 1.1548759661674269e-05, "st_perimeter(shape)": 0.014333272550369364}}, {"type": "Feature", "geometry": {"type": "Polygon", "coordinates": [[[82.1912, 25.6592], [82.1908, 25.6588], [82.1904, 25.6583], [82.1903, 25.6581], [82.1898, 25.6576], [82.1895, 25.6574], [82.1891, 25.6572], [82.1883, 25.6581], [82.1883, 25.6586], [82.1884, 25.6605], [82.1899, 25.6599], [82.1908, 25.6594], [82.1912, 25.6592]]]}, "properties": {"objectid": 247991, "statename": "Uttar Pradesh", "statecode": "9", "districtname": "Jaunpur", "districtcode": "194", "ulbname": "Mogra Badshahpur (Npp)", "ulbcode": "801213", "wardname": "Katra", "wardcode": "20", "id": null, "status": "APPROVED", "misglobalid": null, "approved_by": null, "createdate": 1648221154000, "updateddate": 1674107443000, "globalid": null, "gisglobalid": "5cmma4d5-omnP-PaRP-Q6Rc-PmQadKaod4QQ", "remark": "", "st_area(shape)": 5.618294469762726e-06, "st_perimeter(shape)": 0.009582442891803657}}, {"type": "Feature", "geometry": {"type": "Polygon", "coordinates": [[[82.1958, 25.6636], [82.1958, 25.6635], [82.1957, 25.6633], [82.1955, 25.6632], [82.195, 25.663], [82.1949, 25.6629], [82.1937, 25.6636], [82.193, 25.6639], [82.1923, 25.6643], [82.191, 25.6648], [82.1903, 25.6651], [82.1908, 25.6672], [82.1941, 25.665], [82.1958, 25.6636]]]}, "properties": {"objectid": 247992, "statename": "Uttar Pradesh", "statecode": "9", "districtname": "Jaunpur", "districtcode": "194", "ulbname": "Mogra Badshahpur (Npp)", "ulbcode": "801213", "wardname": "Darziyan", "wardcode": "21", "id": null, "status": "APPROVED", "misglobalid": null, "approved_by": null, "createdate": 1648221166000, "updateddate": 1674107451000, "globalid": null, "gisglobalid": "5R6al56a-amod-Psd5-Rsnm-B5Bm6nossB65", "remark": "", "st_area(shape)": 8.882633376006364e-06, "st_perimeter(shape)": 0.014741868962879429}}, {"type": "Feature", "geometry": {"type": "Polygon", "coordinates": [[[82.1949, 25.6629], [82.1944, 25.6626], [82.1942, 25.6623], [82.1938, 25.662], [82.1925, 25.6624], [82.1895, 25.6631], [82.1896, 25.6634], [82.1903, 25.6651], [82.191, 25.6648], [82.1923, 25.6643], [82.193, 25.6639], [82.1937, 25.6636], [82.1949, 25.6629]]]}, "properties": {"objectid": 250772, "statename": "Uttar Pradesh", "statecode": "9", "districtname": "Jaunpur", "districtcode": "194", "ulbname": "Mogra Badshahpur (Npp)", "ulbcode": "801213", "wardname": "Azad Nagar", "wardcode": "22", "id": null, "status": "APPROVED", "misglobalid": null, "approved_by": null, "createdate": 1648221180000, "updateddate": 1674107461000, "globalid": null, "gisglobalid": "mKsnQ45l-QodK-Pll5-aan6-R6clclPd5oPn", "remark": "", "st_area(shape)": 8.244598929126073e-06, "st_perimeter(shape)": 0.01316552690912402}}, {"type": "Feature", "geometry": {"type": "Polygon", "coordinates": [[[82.1983, 25.664], [82.1988, 25.6647], [82.1991, 25.6653], [82.1991, 25.666], [82.1999, 25.6666], [82.2017, 25.6674], [82.2022, 25.6676], [82.2018, 25.6666], [82.2016, 25.6659], [82.2009, 25.6648], [82.2002, 25.6642], [82.1983, 25.664]]]}, "properties": {"objectid": 248793, "statename": "Uttar Pradesh", "statecode": "9", "districtname": "Jaunpur", "districtcode": "194", "ulbname": "Mogra Badshahpur (Npp)", "ulbcode": "801213", "wardname": "Sabji Mandi", "wardcode": "23", "id": null, "status": "APPROVED", "misglobalid": null, "approved_by": null, "createdate": 1648221191000, "updateddate": 1674107469000, "globalid": null, "gisglobalid": "4RddQ4lP-odc6-PdBR-sRnm-cBRmP6acBosQ", "remark": "", "st_area(shape)": 6.2817359638301825e-06, "st_perimeter(shape)": 0.011633316597157911}}, {"type": "Feature", "geometry": {"type": "Polygon", "coordinates": [[[82.1972, 25.6604], [82.1966, 25.6599], [82.1949, 25.6601], [82.194, 25.6606], [82.1934, 25.6607], [82.1929, 25.6604], [82.1922, 25.6604], [82.1923, 25.6606], [82.1925, 25.661], [82.1926, 25.6612], [82.193, 25.6615], [82.1934, 25.6618], [82.1938, 25.662], [82.1942, 25.6623], [82.1944, 25.6626], [82.1953, 25.6625], [82.196, 25.6626], [82.196, 25.6621], [82.1963, 25.6616], [82.1968, 25.6609], [82.1972, 25.6604]]]}, "properties": {"objectid": 248794, "statename": "Uttar Pradesh", "statecode": "9", "districtname": "Jaunpur", "districtcode": "194", "ulbname": "Mogra Badshahpur (Npp)", "ulbcode": "801213", "wardname": "Gola Mandi", "wardcode": "24", "id": null, "status": "APPROVED", "misglobalid": null, "approved_by": null, "createdate": 1648221202000, "updateddate": 1674107476000, "globalid": null, "gisglobalid": "aPooBK56-s6RR-PRmP-sKc4-PQ5nBomKcK55", "remark": "", "st_area(shape)": 7.87863051842398e-06, "st_perimeter(shape)": 0.012839403447940127}}, {"type": "Feature", "geometry": {"type": "Polygon", "coordinates": [[[82.1972, 25.6604], [82.1973, 25.6602], [82.1979, 25.6592], [82.1979, 25.6588], [82.1979, 25.6584], [82.1977, 25.6579], [82.1973, 25.6579], [82.1969, 25.6579], [82.1967, 25.6579], [82.1967, 25.6578], [82.1959, 25.6577], [82.1943, 25.6575], [82.1926, 25.6576], [82.1898, 25.6576], [82.1903, 25.6581], [82.1904, 25.6583], [82.1908, 25.6588], [82.1912, 25.6592], [82.1915, 25.6596], [82.1918, 25.6599], [82.1921, 25.6602], [82.1922, 25.6604], [82.1929, 25.6604], [82.1934, 25.6607], [82.194, 25.6606], [82.1949, 25.6601], [82.1966, 25.6599], [82.1972, 25.6604]]]}, "properties": {"objectid": 248795, "statename": "Uttar Pradesh", "statecode": "9", "districtname": "Jaunpur", "districtcode": "194", "ulbname": "Mogra Badshahpur (Npp)", "ulbcode": "801213", "wardname": "Latahariya", "wardcode": "25", "id": null, "status": "APPROVED", "misglobalid": null, "approved_by": null, "createdate": 1648221217000, "updateddate": 1674107484000, "globalid": null, "gisglobalid": "BcooQ6nd-mRKo-Pano-RRQP-omacooPnacKs", "remark": "", "st_area(shape)": 1.787309949667852e-05, "st_perimeter(shape)": 0.01979457807079886}}]}
