{"type":"Topology","arcs":[[[45196,19805],[0,1299]],[[45196,21104],[1092,4870]],[[46288,25974],[1965,2597]],[[48253,28571],[8515,7792],[5895,9091],[2184,2273],[2401,1623],[3494,1948],[4585,974],[2620,-324],[2838,0],[4804,649],[3493,974],[10917,-12662],[-4148,-13961],[-20306,324],[-6550,-12012],[-23799,-1299],[0,5844]],[[79039,93830],[655,1624]],[[79694,95454],[218,649]],[[79912,96103],[11790,-15584],[-2620,-26623],[-3275,-974],[-5240,-974],[-7860,-325],[-1965,-649],[-2402,-974],[-3930,-2273],[-1965,-2273],[-4367,-6493],[-2838,-3572],[-1310,5195]],[[53930,40584],[-2184,12662],[18559,23377],[2838,3896],[5896,13311]],[[46069,45454],[-218,974]],[[45851,46428],[-1747,1299]],[[44104,47727],[-5895,-2273]],[[38209,45454],[-7205,5520],[-655,19155],[14629,-14610],[1091,-10065]],[[38209,45454],[5895,2273]],[[44104,47727],[1747,-1299]],[[46069,45454],[655,-2597]],[[46724,42857],[1529,-6169]],[[48253,36688],[655,-1948]],[[48908,34740],[-655,325]],[[48253,35065],[-3494,2272]],[[44759,37337],[-1310,1299]],[[43449,38636],[437,3247]],[[43886,41883],[-1747,649]],[[42139,42532],[-873,649]],[[41266,43181],[-1092,325]],[[40174,43506],[-218,-649]],[[39956,42857],[-873,-1624]],[[39083,41233],[-874,974]],[[38209,42207],[-218,325]],[[37991,42532],[-218,974],[655,1299],[-219,649]],[[79912,96103],[-218,-649]],[[79694,95454],[-655,-1624]],[[79039,93830],[-6332,-13311],[-3057,-4546],[-12445,13636],[1528,10390],[21179,-3896]],[[53930,40584],[-5022,-5844]],[[48908,34740],[-655,1948]],[[48253,36688],[-1529,6169]],[[46724,42857],[7206,-2273]],[[25327,41233],[2184,-3246]],[[27511,37987],[218,-650]],[[27729,37337],[-12882,-6168]],[[14847,31169],[10480,10064]],[[24236,18506],[-6332,-2272]],[[17904,16234],[-1310,-1624]],[[16594,14610],[-1747,16559]],[[14847,31169],[12227,5194]],[[27074,36363],[-2838,-17857]],[[38209,42207],[874,-974]],[[39083,41233],[873,1624]],[[40174,43506],[1092,-325]],[[42139,42532],[1747,-649]],[[43886,41883],[-437,-3247]],[[44759,37337],[-436,-2597]],[[44323,34740],[-437,-2273]],[[43886,32467],[-437,-2597]],[[43449,29870],[-2401,-974]],[[41048,28896],[-1747,1948]],[[39301,30844],[-655,974]],[[38646,31818],[-873,1299]],[[37773,33117],[-437,2272]],[[37336,35389],[-1747,6169]],[[35589,41558],[-873,974]],[[34716,42532],[-2620,1299]],[[32096,43831],[-3930,324]],[[28166,44155],[-11136,-1623],[-17030,13636],[7860,15585],[15721,-11689],[7423,-9415],[4367,-3896],[2838,-1624],[-655,-1623],[437,-974]],[[25327,41233],[2839,2922]],[[28166,44155],[3930,-324]],[[32096,43831],[2620,-1299]],[[34716,42532],[873,-974]],[[35589,41558],[1747,-6169]],[[37336,35389],[437,-2272]],[[37773,33117],[873,-1299]],[[39301,30844],[-12227,5519]],[[27074,36363],[655,974]],[[27511,37987],[-2184,3246]],[[48908,34740],[-655,-6169]],[[48253,28571],[-4367,-649]],[[43886,27922],[3057,4545]],[[46943,32467],[-655,1299]],[[46288,33766],[2620,974]],[[17904,16234],[6332,2272]],[[24236,18506],[13318,10065]],[[37554,28571],[7642,-7467]],[[45196,21104],[0,-1299]],[[45196,19805],[-13100,-18831],[-16812,-974],[1310,14610]],[[43886,27922],[2402,-1948]],[[46288,25974],[-2402,1948]],[[43886,32467],[437,2273]],[[44323,34740],[436,2597]],[[44759,37337],[3494,-2272]],[[48253,35065],[-1965,-1299]],[[46288,33766],[655,-1299]],[[46943,32467],[-3057,-4545]],[[43886,27922],[-6332,649]],[[37554,28571],[3494,325]],[[41048,28896],[2401,974]]],"transform":{"scale":[4.5800458004579885e-7,3.0800308003079304e-7],"translate":[78.3772,28.658]},"objects":{"wards":{"type":"GeometryCollection","geometries":[{"arcs":[[0,1,2,3]],"type":"Polygon","properties":{"objectid":307207,"statename":"UTTAR PRADESH","statecode":"9","districtname":"AMROHA","districtcode":"137","ulbname":"SAID NAGLI","ulbcode":"900739","wardname":"MEHNDIPUR","wardcode":"1","id":null,"status":"APPROVED","misglobalid":null,"approved_by":null,"createdate":1723958887000,"updateddate":1728491069000,"globalid":null,"gisglobalid":"c6lBcBas-cK5B-PcsK-RsPd-K6QlQ64ssoKa","remark":"","st_area(shape)":0.0001728696739509755,"st_perimeter(shape)":0.06991587443133931}},{"arcs":[[4,5,6,7]],"type":"Polygon","properties":{"objectid":309371,"statename":"UTTAR PRADESH","statecode":"9","districtname":"AMROHA","districtcode":"137","ulbname":"SAID NAGLI","ulbcode":"900739","wardname":"SHABDALPUR SHARQUI","wardcode":"2","id":null,"status":"APPROVED","misglobalid":null,"approved_by":null,"createdate":1723958731000,"updateddate":1728491074000,"globalid":null,"gisglobalid":"mslolKao-ldKR-PKQs-aPRa-Bsc554mQP4nR","remark":"","st_area(shape)":0.0001541541182260479,"st_perimeter(shape)":0.05768360960528252}},{"arcs":[[8,9,10,11]],"type":"Polygon","properties":{"objectid":308683,"statename":"UTTAR PRADESH","statecode":"9","districtname":"AMROHA","districtcode":"137","ulbname":"SAID NAGLI","ulbcode":"900739","wardname":"AMBEDKAR NAGAR","wardcode":"3","id":null,"status":"APPROVED","misglobalid":null,"approved_by":null,"createdate":1723957636000,"updateddate":1728491080000,"globalid":null,"gisglobalid":"lRlQnBQl-K5as-PBnP-sa4m-dBmRalRaac4B","remark":"","st_area(shape)":0.000042199645464706423,"st_perimeter(shape)":0.032541669525199636}},{"arcs":[[12,13,-9,14,15,16,17,18,19,20,21,22,23,24,25,26,27,28]],"type":"Polygon","properties":{"objectid":309053,"statename":"UTTAR PRADESH","statecode":"9","districtname":"AMROHA","districtcode":"137","ulbname":"SAID NAGLI","ulbcode":"900739","wardname":"BAGHEECHI","wardcode":"4","id":null,"status":"APPROVED","misglobalid":null,"approved_by":null,"createdate":1723957692000,"updateddate":1728491086000,"globalid":null,"gisglobalid":"om6mPcBo-sdR4-Pc5o-R4R6-dcPlonlQcsa5","remark":"","st_area(shape)":0.00000789487909415514,"st_perimeter(shape)":0.015824614440598316}},{"arcs":[[29,30,31]],"type":"Polygon","properties":{"objectid":307206,"statename":"UTTAR PRADESH","statecode":"9","districtname":"AMROHA","districtcode":"137","ulbname":"SAID NAGLI","ulbcode":"900739","wardname":"CHANDPUR SABDALPUR KI MADAIYYA","wardcode":"5","id":null,"status":"APPROVED","misglobalid":null,"approved_by":null,"createdate":1723958521000,"updateddate":1728491092000,"globalid":null,"gisglobalid":"dKmQdnBa-o6RP-PdBm-s5PQ-a4KQ66lQammm","remark":"","st_area(shape)":0.00004107340931544497,"st_perimeter(shape)":0.028737324056035685}},{"arcs":[[32,33,34,35]],"type":"Polygon","properties":{"objectid":307200,"statename":"UTTAR PRADESH","statecode":"9","districtname":"AMROHA","districtcode":"137","ulbname":"SAID NAGLI","ulbcode":"900739","wardname":"SHANIDEV MANDIR","wardcode":"6","id":null,"status":"APPROVED","misglobalid":null,"approved_by":null,"createdate":1723957743000,"updateddate":1728491097000,"globalid":null,"gisglobalid":"ad5dRPcm-KoQc-Pcl5-R5Bo-c5lBlRs6oPcR","remark":"","st_area(shape)":0.000014715404174002506,"st_perimeter(shape)":0.016393464715699482}},{"arcs":[[36,37,38,39]],"type":"Polygon","properties":{"objectid":307201,"statename":"UTTAR PRADESH","statecode":"9","districtname":"AMROHA","districtcode":"137","ulbname":"SAID NAGLI","ulbcode":"900739","wardname":"EKONDA WEST","wardcode":"7","id":null,"status":"APPROVED","misglobalid":null,"approved_by":null,"createdate":1723957780000,"updateddate":1728491105000,"globalid":null,"gisglobalid":"BP5dcaad-Q4RB-PQ5d-RmnB-QRs66QPs4446","remark":"","st_area(shape)":0.00004255326803232727,"st_perimeter(shape)":0.035251228733547746}},{"arcs":[[40,41,42,43,44]],"type":"Polygon","properties":{"objectid":309054,"statename":"UTTAR PRADESH","statecode":"9","districtname":"AMROHA","districtcode":"137","ulbname":"SAID NAGLI","ulbcode":"900739","wardname":"EKONDA EAST OUT","wardcode":"8","id":null,"status":"APPROVED","misglobalid":null,"approved_by":null,"createdate":1723959091000,"updateddate":1728491118000,"globalid":null,"gisglobalid":"saKB44B4-4QR5-Pd4d-QsQo-4caRQ5oQao64","remark":"","st_area(shape)":0.000054940695533759404,"st_perimeter(shape)":0.047173745471854975}},{"arcs":[[-28,45,46,-25,47,-23,48,49,-20,50,51,52,53,54,55,56,57,58,59,60,61,62]],"type":"Polygon","properties":{"objectid":307202,"statename":"UTTAR PRADESH","statecode":"9","districtname":"AMROHA","districtcode":"137","ulbname":"SAID NAGLI","ulbcode":"900739","wardname":"DHARMSHALA","wardcode":"9","id":null,"status":"APPROVED","misglobalid":null,"approved_by":null,"createdate":1723957828000,"updateddate":1728491124000,"globalid":null,"gisglobalid":"BQP4l4ld-lsaB-PBdQ-sB4m-QdsBBKQ65Koo","remark":"","st_area(shape)":0.00008866250604469183,"st_perimeter(shape)":0.05831676793558742}},{"arcs":[[63,64,65,66,67,68,69,-56,70,71,-38,72]],"type":"Polygon","properties":{"objectid":307203,"statename":"UTTAR PRADESH","statecode":"9","districtname":"AMROHA","districtcode":"137","ulbname":"SAID NAGLI","ulbcode":"900739","wardname":"SADAT","wardcode":"10","id":null,"status":"APPROVED","misglobalid":null,"approved_by":null,"createdate":1723957865000,"updateddate":1728491131000,"globalid":null,"gisglobalid":"R5sQRd4l-scsQ-P4nR-Rad4-sQRl6d6m6RlQ","remark":"","st_area(shape)":0.000016874999110637987,"st_perimeter(shape)":0.01964658473815633}},{"arcs":[[73,74,75,76,77]],"type":"Polygon","properties":{"objectid":307892,"statename":"UTTAR PRADESH","statecode":"9","districtname":"AMROHA","districtcode":"137","ulbname":"SAID NAGLI","ulbcode":"900739","wardname":"MANIHARAN","wardcode":"11","id":null,"status":"APPROVED","misglobalid":null,"approved_by":null,"createdate":1723957905000,"updateddate":1728491139000,"globalid":null,"gisglobalid":"BRBP5Q5s-csla-Pclo-QBPs-PPmPQ6QQaQsd","remark":"","st_area(shape)":0.0000038381708025074,"st_perimeter(shape)":0.009635276993833868}},{"arcs":[[-42,78,79,80,81,82]],"type":"Polygon","properties":{"objectid":307893,"statename":"UTTAR PRADESH","statecode":"9","districtname":"AMROHA","districtcode":"137","ulbname":"SAID NAGLI","ulbcode":"900739","wardname":"REHMAN NAGAR","wardcode":"12","id":null,"status":"APPROVED","misglobalid":null,"approved_by":null,"createdate":1723957933000,"updateddate":1728491149000,"globalid":null,"gisglobalid":"Rs6cBnRP-RQ6o-Polo-sRmn-KcPmnQPsKP5K","remark":"","st_area(shape)":0.00009466245270078485,"st_perimeter(shape)":0.04960292866820926}},{"arcs":[[83,84]],"type":"Polygon","properties":{"objectid":307204,"statename":"UTTAR PRADESH","statecode":"9","districtname":"AMROHA","districtcode":"137","ulbname":"SAID NAGLI","ulbcode":"900739","wardname":"QURESHIYAN","wardcode":"13","id":null,"status":"APPROVED","misglobalid":null,"approved_by":null,"createdate":1723957975000,"updateddate":1728491157000,"globalid":null,"gisglobalid":"n6Blo5Pd-n6oR-PQlP-aQn4-lRsB6naosBQQ","remark":"","st_area(shape)":0.0000016282008124756684,"st_perimeter(shape)":0.0056827793614303065}},{"arcs":[[85,86,87,88,89,90,91,92,93,-53]],"type":"Polygon","properties":{"objectid":307205,"statename":"UTTAR PRADESH","statecode":"9","districtname":"AMROHA","districtcode":"137","ulbname":"SAID NAGLI","ulbcode":"900739","wardname":"ANSARIYAN","wardcode":"14","id":null,"status":"APPROVED","misglobalid":null,"approved_by":null,"createdate":1723958061000,"updateddate":1728491166000,"globalid":null,"gisglobalid":"dncdmmco-mmaa-P6BQ-R4sP-mPoo4lB5c4Q6","remark":"","st_area(shape)":0.000004978468748599414,"st_perimeter(shape)":0.017294373773771115}}]}}}