{"type":"Topology","arcs":[[[12500,14286],[1250,0]],[[13750,14286],[3750,892]],[[17500,15178],[2143,298]],[[19643,15476],[2857,595]],[[22500,16071],[0,-1488]],[[22500,14583],[178,-3869]],[[22678,10714],[0,-893]],[[22678,9821],[-357,-297]],[[22321,9524],[-357,-1488]],[[21964,8036],[-893,-3274]],[[21071,4762],[-1785,-4167]],[[19286,595],[-6786,13691]],[[16428,44345],[-892,-5357]],[[15536,38988],[-536,-3572]],[[15000,35416],[1071,-297]],[[16071,35119],[357,-596]],[[16428,34523],[-892,-3273]],[[15536,31250],[-536,-4167]],[[15000,27083],[536,-4762]],[[15536,22321],[-3036,-5952]],[[12500,16369],[-179,-2083]],[[12321,14286],[-7142,-893],[-3929,13690],[-1250,23809],[16428,-6547]],[[12321,14286],[179,2083]],[[12500,16369],[3036,5952]],[[15536,22321],[-536,4762]],[[15000,27083],[536,4167]],[[15536,31250],[892,3273]],[[16428,34523],[-357,596]],[[16071,35119],[-1071,297]],[[15000,35416],[536,3572]],[[15536,38988],[892,5357]],[[16428,44345],[1965,-893]],[[18393,43452],[6071,-4762],[2321,-5357]],[[26785,33333],[-892,-595]],[[25893,32738],[-358,-595]],[[25535,32143],[-535,-4465]],[[25000,27678],[-893,-6547]],[[24107,21131],[-179,-1488]],[[23928,19643],[-1428,-3572]],[[22500,16071],[-2857,-595]],[[19643,15476],[-2143,-298]],[[17500,15178],[-3750,-892]],[[13750,14286],[-1250,0]],[[12500,14286],[-179,0]],[[21607,71725],[-1607,-17856]],[[20000,53869],[-3572,-9524]],[[16428,44345],[-16428,6845],[179,22619],[4821,1488],[16607,297],[0,-3869]],[[16428,44345],[3572,9524]],[[20000,53869],[1607,17856]],[[21607,71725],[3750,3869],[11607,2977]],[[36964,78571],[0,-1191]],[[36964,77380],[-2143,-11012],[0,-12202]],[[34821,54166],[-1607,-7738]],[[33214,46428],[179,-6547]],[[33393,39881],[-179,-893]],[[33214,38988],[0,-596]],[[33214,38392],[-357,-3571]],[[32857,34821],[-5893,-1786]],[[26964,33035],[-2321,5655],[-6250,4762]],[[35178,61607],[1786,15773]],[[36964,77380],[0,1191]],[[36964,78571],[8036,2976],[2500,3869]],[[47500,85416],[535,-14286]],[[48035,71130],[-357,-8333],[-536,-9226]],[[47142,53571],[-2857,1488]],[[44285,55059],[-9107,6548]],[[32857,34821],[357,3571]],[[33214,38392],[0,596]],[[33214,38988],[179,893]],[[33393,39881],[-179,6547]],[[33214,46428],[1607,7738]],[[34821,54166],[357,7441]],[[35178,61607],[9107,-6548]],[[47142,53571],[-357,-3274],[-357,-3571]],[[46428,46726],[-1250,-9822]],[[45178,36904],[-7321,-1785],[-5000,-298]],[[45178,36904],[1250,9822]],[[46428,46726],[357,2976],[179,2678],[178,2084],[179,595],[0,595],[0,893],[0,595],[0,893],[179,2083],[178,2977],[179,2678],[178,2679],[0,2678]],[[48035,71130],[-535,14286]],[[47500,85416],[2142,2678],[5357,-11011],[4286,-8036],[2500,-5060],[1072,-2083],[1964,-3869],[893,-2976]],[[65714,55059],[178,-1786]],[[65892,53273],[-714,-2381]],[[65178,50892],[-20000,-13988]],[[65356,50000],[-357,297]],[[64999,50297],[179,595]],[[65178,50892],[714,2381]],[[65714,55059],[-1965,5059],[-714,1489],[-714,1488],[-2143,4166],[-1071,2381],[-7858,15476],[-1428,3274],[8750,2679],[1428,4166],[18215,-893],[15356,2976],[6072,2679],[357,-16071],[-3036,-11310],[-6428,-11309],[-9464,-9524],[-9822,-7440],[-5893,5655]],[[57142,30952],[1072,8929]],[[58214,39881],[178,2678],[0,1488],[0,2083],[6607,4167]],[[64999,50297],[357,-297]],[[65356,50000],[5893,-5953],[-3035,-4464],[-11072,-8631]],[[35892,31547],[-1071,298]],[[34821,31845],[179,2976]],[[35000,34821],[3750,298],[6250,1488],[1250,595],[8928,6548],[3214,2083],[-178,-5952]],[[58214,39881],[-1072,-8929]],[[57142,30952],[-7142,-5655],[-4822,6846],[-7500,-893]],[[37678,31250],[-1786,297]],[[25178,28869],[357,3274]],[[25535,32143],[358,595]],[[25893,32738],[892,595]],[[26785,33333],[179,-298]],[[26964,33035],[5893,1786]],[[32857,34821],[2143,0]],[[35000,34821],[-179,-2976]],[[34821,31845],[1071,-298]],[[35892,31547],[1786,-297]],[[37678,31250],[-1786,-2976]],[[35892,28274],[-178,297]],[[35714,28571],[-179,0]],[[35535,28571],[-535,298]],[[35000,28869],[-179,0]],[[34821,28869],[-357,0]],[[34464,28869],[-179,0]],[[34285,28869],[-2857,-595]],[[31428,28274],[-357,297]],[[31071,28571],[-1964,0]],[[29107,28571],[-1786,298]],[[27321,28869],[-2143,0]],[[25000,27678],[178,1191]],[[25178,28869],[2143,0]],[[27321,28869],[1786,-298]],[[29107,28571],[1964,0]],[[31071,28571],[357,-297]],[[31428,28274],[2857,595]],[[34464,28869],[357,0]],[[35000,28869],[535,-298]],[[35714,28571],[178,-297]],[[35892,28274],[-3928,-6250]],[[31964,22024],[-536,297]],[[31428,22321],[-535,298]],[[30893,22619],[-1250,595]],[[29643,23214],[-1250,595]],[[28393,23809],[-1072,1191]],[[27321,25000],[-536,893]],[[26785,25893],[-535,892]],[[26250,26785],[-1250,893]],[[18928,0],[358,595]],[[19286,595],[1785,4167]],[[21071,4762],[893,3274]],[[21964,8036],[357,1488]],[[22321,9524],[357,297]],[[22678,9821],[0,893]],[[22678,10714],[-178,3869]],[[22500,14583],[0,1488]],[[22500,16071],[1428,3572]],[[24107,21131],[893,6547]],[[25000,27678],[1250,-893]],[[26785,25893],[536,-893]],[[27321,25000],[1072,-1191]],[[28393,23809],[1250,-595]],[[29643,23214],[1250,-595]],[[30893,22619],[535,-298]],[[31428,22321],[536,-297]],[[31964,22024],[-6607,-17560],[-6429,-4464]]],"transform":{"scale":[5.600056000559744e-7,3.3600336003359884e-7],"translate":[90.2166,26.219]},"objects":{"wards":{"type":"GeometryCollection","geometries":[{"arcs":[[0,1,2,3,4,5,6,7,8,9,10,11]],"type":"Polygon","properties":{"objectid":33475,"statename":"Assam","statecode":"18","districtname":"Dhubri","districtcode":"301","ulbname":"Bilasipara","ulbcode":"801551","wardname":"","wardcode":"1","id":null,"status":"OPEN","misglobalid":null,"approved_by":null,"createdate":1636442257000,"updateddate":null,"globalid":"4md4sB6Q-snQn-PmmB-aKKl-mmldRQ5a6mBn","gisglobalid":"1be718da-faa0-436b-afa8-9516f26d9ecc","remark":"--","st_area(shape)":0.000017369566533664107,"st_perimeter(shape)":0.018252967802312076}},{"arcs":[[12,13,14,15,16,17,18,19,20,21]],"type":"Polygon","properties":{"objectid":32306,"statename":"Assam","statecode":"18","districtname":"Dhubri","districtcode":"301","ulbname":"Bilasipara","ulbcode":"801551","wardname":"","wardcode":"2","id":null,"status":"OPEN","misglobalid":null,"approved_by":null,"createdate":1636443303000,"updateddate":null,"globalid":"BmcBmPBK-dPaR-Pdd5-sR5d-ndcddc4aQKm6","gisglobalid":"d73e4797-fd6a-48cc-8ef0-86de713cf65c","remark":"--","st_area(shape)":0.00008256710460403013,"st_perimeter(shape)":0.03832484559819469}},{"arcs":[[22,23,24,25,26,27,28,29,30,31,32,33,34,35,36,37,38,39,40,41,42,43]],"type":"Polygon","properties":{"objectid":33485,"statename":"Assam","statecode":"18","districtname":"Dhubri","districtcode":"301","ulbname":"Bilasipara","ulbcode":"801551","wardname":"","wardcode":"3","id":null,"status":"OPEN","misglobalid":null,"approved_by":null,"createdate":1636444376000,"updateddate":null,"globalid":"dl5QRdon-PsPB-P6oc-smKP-oR664ccPsPcl","gisglobalid":"75e0f37e-baeb-40db-bd74-dc8b0fe35690","remark":"--","st_area(shape)":0.00004812282651436855,"st_perimeter(shape)":0.03141686580045932}},{"arcs":[[44,45,46]],"type":"Polygon","properties":{"objectid":33052,"statename":"Assam","statecode":"18","districtname":"Dhubri","districtcode":"301","ulbname":"Bilasipara","ulbcode":"801551","wardname":"","wardcode":"4","id":null,"status":"OPEN","misglobalid":null,"approved_by":null,"createdate":1636613389000,"updateddate":null,"globalid":"KoQK645R-QmRm-PPKl-sPcB-cloomal4nmo4","gisglobalid":"9092e764-d10f-49ba-a271-d47c7fd509d3","remark":"--","st_area(shape)":0.00010872326418280146,"st_perimeter(shape)":0.04052784347405611}},{"arcs":[[-32,47,48,49,50,51,52,53,54,55,56,57,58]],"type":"Polygon","properties":{"objectid":33060,"statename":"Assam","statecode":"18","districtname":"Dhubri","districtcode":"301","ulbname":"Bilasipara","ulbcode":"801551","wardname":"","wardcode":"5","id":null,"status":"OPEN","misglobalid":null,"approved_by":null,"createdate":1636614932000,"updateddate":null,"globalid":"66asc4mc-5ma5-Pd4s-Rd6o-PQmmdcmBlBsQ","gisglobalid":"02e81e52-5d56-44a6-992b-7dd630eb28e8","remark":"--","st_area(shape)":0.00010805653076095997,"st_perimeter(shape)":0.04560123200208927}},{"arcs":[[59,60,61,62,63,64,65]],"type":"Polygon","properties":{"objectid":33496,"statename":"Assam","statecode":"18","districtname":"Dhubri","districtcode":"301","ulbname":"Bilasipara","ulbcode":"801551","wardname":"","wardcode":"6","id":null,"status":"OPEN","misglobalid":null,"approved_by":null,"createdate":1636614725000,"updateddate":null,"globalid":"dQmllddK-asso-PBP5-Rloa-loPmcccmBK56","gisglobalid":"fc74f7a5-b50b-4cc1-96db-930f9a6fbcd7","remark":"--","st_area(shape)":0.00005311643760746589,"st_perimeter(shape)":0.030276046639806316}},{"arcs":[[66,67,68,69,70,71,72,-65,73,74,75]],"type":"Polygon","properties":{"objectid":33497,"statename":"Assam","statecode":"18","districtname":"Dhubri","districtcode":"301","ulbname":"Bilasipara","ulbcode":"801551","wardname":"","wardcode":"7","id":null,"status":"OPEN","misglobalid":null,"approved_by":null,"createdate":1636448091000,"updateddate":null,"globalid":"KBPRm4sQ-PQR6-PdcR-QsBo-on4o46R56QaR","gisglobalid":"bed6877b-ec43-4f6d-879a-0e48c79cc1a3","remark":"--","st_area(shape)":0.00005101392246246771,"st_perimeter(shape)":0.029057060625536108}},{"arcs":[[76,77,78,79,80,81,82]],"type":"Polygon","properties":{"objectid":33502,"statename":"Assam","statecode":"18","districtname":"Dhubri","districtcode":"301","ulbname":"Bilasipara","ulbcode":"801551","wardname":"","wardcode":"8","id":null,"status":"OPEN","misglobalid":null,"approved_by":null,"createdate":1636614462000,"updateddate":null,"globalid":"nan6coan-ls5d-PK6n-adcd-KB4Rcl5cdssP","gisglobalid":"f746225d-b6cc-4bf2-84b9-f8c05abaa998","remark":"--","st_area(shape)":0.00010156404947806554,"st_perimeter(shape)":0.0458650937630382}},{"arcs":[[83,84,85,-81,86]],"type":"Polygon","properties":{"objectid":33066,"statename":"Assam","statecode":"18","districtname":"Dhubri","districtcode":"301","ulbname":"Bilasipara","ulbcode":"801551","wardname":"","wardcode":"9","id":null,"status":"OPEN","misglobalid":null,"approved_by":null,"createdate":1636614218000,"updateddate":null,"globalid":"PBnanKQs-Kl4n-PsKQ-sPnP-PsoQBa56a5cB","gisglobalid":"b1d4171b-0bbc-404d-a137-3077827891dc","remark":"--","st_area(shape)":0.00031615333465676395,"st_perimeter(shape)":0.07662378101876621}},{"arcs":[[87,88,89,90]],"type":"Polygon","properties":{"objectid":33506,"statename":"Assam","statecode":"18","districtname":"Dhubri","districtcode":"301","ulbname":"Bilasipara","ulbcode":"801551","wardname":"","wardcode":"10","id":null,"status":"OPEN","misglobalid":null,"approved_by":null,"createdate":1636452676000,"updateddate":null,"globalid":"PKRBnnKm-sPBl-Pm5c-Qcms-cdBml4dnRKsR","gisglobalid":"60abddd8-41c3-492e-85ef-c6fdaad8db6d","remark":"--","st_area(shape)":0.000027097130288569574,"st_perimeter(shape)":0.022361519923832847}},{"arcs":[[91,92,93,94,95,96]],"type":"Polygon","properties":{"objectid":33508,"statename":"Assam","statecode":"18","districtname":"Dhubri","districtcode":"301","ulbname":"Bilasipara","ulbcode":"801551","wardname":"","wardcode":"11","id":null,"status":"OPEN","misglobalid":null,"approved_by":null,"createdate":1636954246000,"updateddate":null,"globalid":"mm6dmo4l-P4R6-PBoR-RdRo-6RQ6nmadl6dl","gisglobalid":"69a3389d-21db-4819-a24b-fafd682037d6","remark":"--","st_area(shape)":0.00003662196603847539,"st_perimeter(shape)":0.03362304054476912}},{"arcs":[[97,98,99,100,101,102,103,104,105,106,107,108,109,110,111,112,113,114,115,116,117]],"type":"Polygon","properties":{"objectid":33513,"statename":"Assam","statecode":"18","districtname":"Dhubri","districtcode":"301","ulbname":"Bilasipara","ulbcode":"801551","wardname":"Ward 12","wardcode":"12","id":null,"status":"OPEN","misglobalid":null,"approved_by":null,"createdate":1637652969000,"updateddate":null,"globalid":"doBQa6a5-ocBm-PoBm-aKQR-R6QaKa4Radl5","gisglobalid":"514207bd-9169-4aa7-bc4f-c1931cdb2551","remark":"--","st_area(shape)":0.0000107479939180981,"st_perimeter(shape)":0.01703768450369601}},{"arcs":[[118,119,120,121,122,123,-113,124,-111,125,-109,126,127,128,129,130,131,132,133,134,135]],"type":"Polygon","properties":{"objectid":33515,"statename":"Assam","statecode":"18","districtname":"Dhubri","districtcode":"301","ulbname":"Bilasipara","ulbcode":"801551","wardname":"Ward 13","wardcode":"13","id":null,"status":"OPEN","misglobalid":null,"approved_by":null,"createdate":1637653047000,"updateddate":null,"globalid":"KPsl5nKo-BooK-PKQ4-QKBR-RPQldKlBR4cB","gisglobalid":"112550f2-db75-4e4a-b2f4-a99372765666","remark":"--","st_area(shape)":0.00000787414947347913,"st_perimeter(shape)":0.014067106675994683}},{"arcs":[[136,137,138,139,140,141,142,143,144,-38,145,146,-135,147,148,149,150,151,152,153]],"type":"Polygon","properties":{"objectid":32312,"statename":"Assam","statecode":"18","districtname":"Dhubri","districtcode":"301","ulbname":"Bilasipara","ulbcode":"801551","wardname":"","wardcode":"14","id":null,"status":"OPEN","misglobalid":null,"approved_by":null,"createdate":1636455443000,"updateddate":null,"globalid":"n6RmQsco-sQB5-PoB6-aKaR-s6mnBmRKRsa5","gisglobalid":"18e7aea5-d25b-476c-85d8-e8ee82d97bec","remark":"--","st_area(shape)":0.000025638731513621518,"st_perimeter(shape)":0.026454380696901446}}]}}}