{"type": "FeatureCollection", "features": [{"type": "Feature", "geometry": {"type": "Polygon", "coordinates": [[[76.1124, 15.9605], [76.1122, 15.9624], [76.1134, 15.9624], [76.1133, 15.9629], [76.1139, 15.9628], [76.1142, 15.9628], [76.1142, 15.9622], [76.1142, 15.9617], [76.1142, 15.9612], [76.1142, 15.961], [76.1143, 15.961], [76.1142, 15.9609], [76.1142, 15.9607], [76.1141, 15.9607], [76.1139, 15.9612], [76.1138, 15.9612], [76.1137, 15.9607], [76.1135, 15.9607], [76.1132, 15.9607], [76.1132, 15.9605], [76.1124, 15.9605]]]}, "properties": {"objectid": 118853, "statename": "Karnataka", "statecode": "29", "districtname": "Bagalkote", "districtcode": "556", "ulbname": "Ilkal", "ulbcode": "803050", "wardname": "Ward 1", "wardcode": "1", "id": null, "status": "APPROVED", "misglobalid": null, "approved_by": null, "createdate": 1643627993000, "updateddate": 1643631445000, "globalid": null, "gisglobalid": "nPBKaQ4m-Q4Bm-Pl4K-Qaas-RRn4adlo6Psn", "remark": "Approved", "st_area(shape)": 3.637770966536346e-06, "st_perimeter(shape)": 0.009677278528623628}}, {"type": "Feature", "geometry": {"type": "Polygon", "coordinates": [[[76.1133, 15.9624], [76.1122, 15.9624], [76.1124, 15.9595], [76.112, 15.9595], [76.1119, 15.96], [76.1114, 15.96], [76.1113, 15.9599], [76.1101, 15.96], [76.1089, 15.9601], [76.1089, 15.9606], [76.1083, 15.9606], [76.1076, 15.9606], [76.1067, 15.9607], [76.1058, 15.9608], [76.1047, 15.9609], [76.1039, 15.9609], [76.1037, 15.9609], [76.1031, 15.9609], [76.1018, 15.961], [76.1019, 15.9618], [76.102, 15.9626], [76.1022, 15.9639], [76.1024, 15.9652], [76.1031, 15.9651], [76.1039, 15.965], [76.1043, 15.965], [76.1051, 15.9645], [76.105, 15.9637], [76.1059, 15.9636], [76.1068, 15.9635], [76.1079, 15.9633], [76.1091, 15.9632], [76.1102, 15.9631], [76.1111, 15.9631], [76.1123, 15.9631], [76.1133, 15.9632], [76.1133, 15.9628], [76.1133, 15.9624]]]}, "properties": {"objectid": 119255, "statename": "Karnataka", "statecode": "29", "districtname": "Bagalkote", "districtcode": "556", "ulbname": "Ilkal", "ulbcode": "803050", "wardname": "Ward 2", "wardcode": "2", "id": null, "status": "APPROVED", "misglobalid": null, "approved_by": null, "createdate": 1643628290000, "updateddate": 1643631467000, "globalid": null, "gisglobalid": "BomddmRK-l6mc-PsPc-Qdln-Bc54dRs64amB", "remark": "Approved", "st_area(shape)": 3.420560336415336e-05, "st_perimeter(shape)": 0.03264441098993548}}, {"type": "Feature", "geometry": {"type": "Polygon", "coordinates": [[[76.0974, 15.9668], [76.0982, 15.9665], [76.0986, 15.9663], [76.0991, 15.9661], [76.0995, 15.9661], [76.0997, 15.966], [76.0999, 15.9662], [76.1004, 15.9659], [76.1008, 15.9658], [76.1011, 15.9656], [76.1013, 15.9657], [76.1015, 15.9657], [76.1017, 15.9657], [76.102, 15.9657], [76.1022, 15.9655], [76.1023, 15.9652], [76.102, 15.9627], [76.1018, 15.9609], [76.1026, 15.9609], [76.1039, 15.9609], [76.1046, 15.9609], [76.1055, 15.9608], [76.107, 15.9607], [76.1088, 15.9605], [76.1088, 15.96], [76.1108, 15.9599], [76.1119, 15.9599], [76.1119, 15.9595], [76.112, 15.9594], [76.1119, 15.9583], [76.1115, 15.9584], [76.1116, 15.9587], [76.1106, 15.9588], [76.1105, 15.9593], [76.1088, 15.9594], [76.1088, 15.9587], [76.1081, 15.9588], [76.108, 15.9589], [76.1072, 15.959], [76.1066, 15.9591], [76.1046, 15.9591], [76.1044, 15.9579], [76.1036, 15.9578], [76.1029, 15.9577], [76.102, 15.9578], [76.1008, 15.9577], [76.1002, 15.9578], [76.0998, 15.9581], [76.0997, 15.9591], [76.0999, 15.9602], [76.1001, 15.9611], [76.0988, 15.9615], [76.0994, 15.9618], [76.0996, 15.9634], [76.0997, 15.9643], [76.0998, 15.9648], [76.0984, 15.9651], [76.0982, 15.9647], [76.0972, 15.965], [76.0974, 15.9668]]]}, "properties": {"objectid": 119258, "statename": "Karnataka", "statecode": "29", "districtname": "Bagalkote", "districtcode": "556", "ulbname": "Ilkal", "ulbcode": "803050", "wardname": "Ward 3", "wardcode": "3", "id": null, "status": "APPROVED", "misglobalid": null, "approved_by": null, "createdate": 1643628449000, "updateddate": 1643631681000, "globalid": null, "gisglobalid": "dRmsnnPR-nndB-PRdK-a66a-K5nPnl4Kc4nl", "remark": "Approved", "st_area(shape)": 4.026127896978656e-05, "st_perimeter(shape)": 0.049745750849239635}}, {"type": "Feature", "geometry": {"type": "Polygon", "coordinates": [[[76.1046, 15.9591], [76.1062, 15.959], [76.1068, 15.959], [76.108, 15.9589], [76.108, 15.9588], [76.1081, 15.9588], [76.1088, 15.9587], [76.1088, 15.9588], [76.1089, 15.9593], [76.1105, 15.9592], [76.1106, 15.9589], [76.1105, 15.9589], [76.1102, 15.9575], [76.1093, 15.9576], [76.1081, 15.9577], [76.1066, 15.9578], [76.1053, 15.9579], [76.1047, 15.9579], [76.1045, 15.9579], [76.1046, 15.9591]]]}, "properties": {"objectid": 118068, "statename": "Karnataka", "statecode": "29", "districtname": "Bagalkote", "districtcode": "556", "ulbname": "Ilkal", "ulbcode": "803050", "wardname": "Ward 4", "wardcode": "4", "id": null, "status": "APPROVED", "misglobalid": null, "approved_by": null, "createdate": 1643628503000, "updateddate": 1643631748000, "globalid": null, "gisglobalid": "5ncQQ66K-ol6n-Pcnl-sllR-KnKRo54dlono", "remark": "Approved", "st_area(shape)": 7.668826480944787e-06, "st_perimeter(shape)": 0.015354153009837319}}, {"type": "Feature", "geometry": {"type": "Polygon", "coordinates": [[[76.0998, 15.958], [76.1001, 15.9577], [76.1005, 15.9576], [76.1014, 15.9577], [76.1029, 15.9577], [76.1035, 15.9577], [76.1039, 15.9578], [76.1047, 15.9579], [76.108, 15.9577], [76.1092, 15.9576], [76.1102, 15.9574], [76.1112, 15.9572], [76.1108, 15.9559], [76.1092, 15.9563], [76.1088, 15.9551], [76.1078, 15.9554], [76.1041, 15.9559], [76.1032, 15.956], [76.1017, 15.9561], [76.0999, 15.9562], [76.0999, 15.9566], [76.0999, 15.9576], [76.0998, 15.958]]]}, "properties": {"objectid": 119656, "statename": "Karnataka", "statecode": "29", "districtname": "Bagalkote", "districtcode": "556", "ulbname": "Ilkal", "ulbcode": "803050", "wardname": "Ward 5", "wardcode": "5", "id": null, "status": "APPROVED", "misglobalid": null, "approved_by": null, "createdate": 1643628617000, "updateddate": 1643631769000, "globalid": null, "gisglobalid": "5R5PmcmR-PRQK-PsaR-QsKR-65dQsBP4m6Ba", "remark": "Approved", "st_area(shape)": 2.029083250639325e-05, "st_perimeter(shape)": 0.026683004308631512}}, {"type": "Feature", "geometry": {"type": "Polygon", "coordinates": [[[76.0999, 15.9562], [76.1013, 15.9561], [76.1034, 15.9559], [76.1053, 15.9557], [76.1079, 15.9554], [76.1089, 15.9551], [76.1092, 15.9562], [76.1108, 15.9558], [76.1104, 15.9545], [76.1094, 15.9548], [76.1089, 15.9549], [76.1088, 15.9526], [76.1079, 15.9526], [76.1078, 15.9529], [76.1045, 15.9532], [76.1042, 15.9533], [76.1027, 15.9535], [76.101, 15.9536], [76.0999, 15.9538], [76.0999, 15.9554], [76.0999, 15.9562]]]}, "properties": {"objectid": 113302, "statename": "Karnataka", "statecode": "29", "districtname": "Bagalkote", "districtcode": "556", "ulbname": "Ilkal", "ulbcode": "803050", "wardname": "Ward 6", "wardcode": "6", "id": null, "status": "APPROVED", "misglobalid": null, "approved_by": null, "createdate": 1643628636000, "updateddate": 1643631783000, "globalid": null, "gisglobalid": "PsmadBla-dn5s-PmKm-s44R-5QaKaQ4ncQ56", "remark": "Approved", "st_area(shape)": 2.4601582329157e-05, "st_perimeter(shape)": 0.028602783995865567}}, {"type": "Feature", "geometry": {"type": "Polygon", "coordinates": [[[76.0999, 15.9537], [76.1025, 15.9534], [76.1033, 15.9533], [76.1043, 15.9532], [76.1045, 15.9531], [76.1077, 15.9528], [76.1079, 15.9525], [76.108, 15.9525], [76.1089, 15.9526], [76.109, 15.9547], [76.1096, 15.9547], [76.1105, 15.9545], [76.1114, 15.9577], [76.1118, 15.9575], [76.1118, 15.9566], [76.1115, 15.9556], [76.1116, 15.9554], [76.1112, 15.9541], [76.111, 15.9541], [76.1103, 15.9524], [76.1104, 15.9522], [76.11, 15.9518], [76.1098, 15.9518], [76.1087, 15.9513], [76.1077, 15.95], [76.1062, 15.9499], [76.1039, 15.9491], [76.1023, 15.9491], [76.1012, 15.9493], [76.1005, 15.9493], [76.0999, 15.9493], [76.0997, 15.9492], [76.0997, 15.9497], [76.0998, 15.9514], [76.0999, 15.9537]]]}, "properties": {"objectid": 118072, "statename": "Karnataka", "statecode": "29", "districtname": "Bagalkote", "districtcode": "556", "ulbname": "Ilkal", "ulbcode": "803050", "wardname": "Ward 7", "wardcode": "7", "id": null, "status": "APPROVED", "misglobalid": null, "approved_by": null, "createdate": 1643628742000, "updateddate": 1643631984000, "globalid": null, "gisglobalid": "KaB4Bn5a-sQK4-Pn4d-s4mn-BmRPQsKom4nc", "remark": "Approved", "st_area(shape)": 3.98534967658413e-05, "st_perimeter(shape)": 0.038891992208146264}}, {"type": "Feature", "geometry": {"type": "Polygon", "coordinates": [[[76.0996, 15.949], [76.1003, 15.9492], [76.1011, 15.9492], [76.1023, 15.949], [76.1041, 15.949], [76.1051, 15.9493], [76.1062, 15.9497], [76.1078, 15.9499], [76.1088, 15.9511], [76.109, 15.9512], [76.1098, 15.9516], [76.11, 15.9516], [76.1109, 15.9514], [76.1109, 15.9507], [76.111, 15.9498], [76.111, 15.9485], [76.1088, 15.9483], [76.108, 15.948], [76.1069, 15.9471], [76.1056, 15.9471], [76.1053, 15.9461], [76.1041, 15.9461], [76.1037, 15.9452], [76.1031, 15.9441], [76.102, 15.9423], [76.1014, 15.9418], [76.1006, 15.9413], [76.1002, 15.9409], [76.0996, 15.9412], [76.0987, 15.9413], [76.0987, 15.9417], [76.0983, 15.9419], [76.0984, 15.9439], [76.0989, 15.9457], [76.0993, 15.9474], [76.0996, 15.949]]]}, "properties": {"objectid": 119657, "statename": "Karnataka", "statecode": "29", "districtname": "Bagalkote", "districtcode": "556", "ulbname": "Ilkal", "ulbcode": "803050", "wardname": "Ward 8", "wardcode": "8", "id": null, "status": "APPROVED", "misglobalid": null, "approved_by": null, "createdate": 1643628878000, "updateddate": 1643632169000, "globalid": null, "gisglobalid": "6B6lcoQc-lPo6-PoQs-s4mK-5oKoKsQn6asl", "remark": "Approved", "st_area(shape)": 5.39984139053702e-05, "st_perimeter(shape)": 0.03941491258190222}}, {"type": "Feature", "geometry": {"type": "Polygon", "coordinates": [[[76.1117, 15.9554], [76.1115, 15.9556], [76.1117, 15.9561], [76.1119, 15.9565], [76.1119, 15.9581], [76.112, 15.9583], [76.1122, 15.9583], [76.1123, 15.9583], [76.1127, 15.9583], [76.1127, 15.9582], [76.1129, 15.9582], [76.113, 15.958], [76.1135, 15.958], [76.1134, 15.9574], [76.1132, 15.9567], [76.1129, 15.956], [76.1127, 15.9552], [76.113, 15.9551], [76.1132, 15.9554], [76.1136, 15.9553], [76.1136, 15.9554], [76.1138, 15.9554], [76.1139, 15.9553], [76.1141, 15.9552], [76.1141, 15.9549], [76.1141, 15.9548], [76.1144, 15.9546], [76.114, 15.9544], [76.1135, 15.9542], [76.1132, 15.9541], [76.113, 15.954], [76.1126, 15.9535], [76.112, 15.9528], [76.1119, 15.9525], [76.1117, 15.9523], [76.1116, 15.9522], [76.1114, 15.9522], [76.1112, 15.952], [76.111, 15.9518], [76.1109, 15.9515], [76.1105, 15.9516], [76.1101, 15.9517], [76.1103, 15.952], [76.1105, 15.9522], [76.1104, 15.9524], [76.1108, 15.9536], [76.111, 15.9541], [76.1112, 15.9541], [76.1117, 15.9554]]]}, "properties": {"objectid": 118075, "statename": "Karnataka", "statecode": "29", "districtname": "Bagalkote", "districtcode": "556", "ulbname": "Ilkal", "ulbcode": "803050", "wardname": "Ward 9", "wardcode": "9", "id": null, "status": "APPROVED", "misglobalid": null, "approved_by": null, "createdate": 1643628893000, "updateddate": 1643632253000, "globalid": null, "gisglobalid": "masKmPnm-QlBd-Pd55-ssQn-nc6R5nllKnK4", "remark": "Approved", "st_area(shape)": 1.064326040509758e-05, "st_perimeter(shape)": 0.02000012691092034}}, {"type": "Feature", "geometry": {"type": "Polygon", "coordinates": [[[76.1105, 15.9588], [76.1115, 15.9587], [76.1115, 15.9584], [76.1115, 15.9583], [76.1119, 15.9583], [76.1119, 15.9581], [76.1118, 15.9576], [76.1117, 15.9576], [76.1116, 15.9577], [76.1113, 15.9577], [76.1112, 15.9572], [76.1109, 15.9573], [76.1105, 15.9574], [76.1102, 15.9575], [76.1103, 15.9579], [76.1104, 15.9584], [76.1105, 15.9588]]]}, "properties": {"objectid": 118863, "statename": "Karnataka", "statecode": "29", "districtname": "Bagalkote", "districtcode": "556", "ulbname": "Ilkal", "ulbcode": "803050", "wardname": "Ward 10", "wardcode": "10", "id": null, "status": "APPROVED", "misglobalid": null, "approved_by": null, "createdate": 1643628910000, "updateddate": 1643632263000, "globalid": null, "gisglobalid": "BKd4PnRK-4o6P-Pm6c-QBcd-omolPBo4KPca", "remark": "Approved", "st_area(shape)": 1.8562123392448288e-06, "st_perimeter(shape)": 0.006053743902522087}}, {"type": "Feature", "geometry": {"type": "Polygon", "coordinates": [[[76.112, 15.9595], [76.1124, 15.9595], [76.1124, 15.9605], [76.1132, 15.9605], [76.1132, 15.9607], [76.1135, 15.9606], [76.1138, 15.9607], [76.1138, 15.9612], [76.1139, 15.9611], [76.114, 15.9609], [76.114, 15.9606], [76.1141, 15.9606], [76.1142, 15.9606], [76.1142, 15.9605], [76.1143, 15.9604], [76.1142, 15.9603], [76.1142, 15.9601], [76.1143, 15.9601], [76.1143, 15.96], [76.1143, 15.9599], [76.1143, 15.9597], [76.1141, 15.9596], [76.1131, 15.9595], [76.1131, 15.9588], [76.1131, 15.9586], [76.1127, 15.9586], [76.112, 15.9586], [76.112, 15.9588], [76.112, 15.9589], [76.112, 15.9592], [76.112, 15.9595]]]}, "properties": {"objectid": 111847, "statename": "Karnataka", "statecode": "29", "districtname": "Bagalkote", "districtcode": "556", "ulbname": "Ilkal", "ulbcode": "803050", "wardname": "Ward 11", "wardcode": "11", "id": null, "status": "APPROVED", "misglobalid": null, "approved_by": null, "createdate": 1643628938000, "updateddate": 1643632324000, "globalid": null, "gisglobalid": "P6Q5mP4s-no4n-PndP-sdds-aKaRm6RP6BlB", "remark": "Approved", "st_area(shape)": 3.007195736484762e-06, "st_perimeter(shape)": 0.009431072683056521}}, {"type": "Feature", "geometry": {"type": "Polygon", "coordinates": [[[76.1133, 15.9632], [76.1142, 15.9632], [76.1144, 15.9633], [76.1144, 15.9637], [76.1144, 15.9641], [76.1143, 15.9641], [76.1143, 15.9647], [76.1151, 15.965], [76.1152, 15.9643], [76.1151, 15.9642], [76.115, 15.9637], [76.115, 15.9635], [76.116, 15.9633], [76.1166, 15.9628], [76.1164, 15.9617], [76.1163, 15.9618], [76.1161, 15.9618], [76.116, 15.9619], [76.1157, 15.9619], [76.1156, 15.9619], [76.1153, 15.9619], [76.115, 15.9618], [76.1142, 15.9618], [76.1142, 15.9624], [76.1142, 15.9629], [76.1139, 15.9629], [76.1133, 15.963], [76.1133, 15.9632]]]}, "properties": {"objectid": 111849, "statename": "Karnataka", "statecode": "29", "districtname": "Bagalkote", "districtcode": "556", "ulbname": "Ilkal", "ulbcode": "803050", "wardname": "Ward 12", "wardcode": "12", "id": null, "status": "APPROVED", "misglobalid": null, "approved_by": null, "createdate": 1643628951000, "updateddate": 1643632287000, "globalid": null, "gisglobalid": "nmR6BmoK-PPa4-Pmda-aB6R-6RdlaP4lnnPa", "remark": "Approved", "st_area(shape)": 4.8107993878132916e-06, "st_perimeter(shape)": 0.01228691520880239}}, {"type": "Feature", "geometry": {"type": "Polygon", "coordinates": [[[76.1142, 15.9618], [76.1151, 15.9618], [76.1153, 15.9618], [76.1157, 15.9619], [76.116, 15.9619], [76.1161, 15.9618], [76.1163, 15.9618], [76.1164, 15.9617], [76.1164, 15.9614], [76.1163, 15.9611], [76.1162, 15.961], [76.1162, 15.96], [76.1159, 15.96], [76.1155, 15.96], [76.1155, 15.9607], [76.1153, 15.9607], [76.1151, 15.9607], [76.1149, 15.9607], [76.1147, 15.9607], [76.1144, 15.9606], [76.1143, 15.9607], [76.1142, 15.9609], [76.1143, 15.9609], [76.1143, 15.961], [76.1142, 15.9611], [76.1142, 15.9612], [76.1142, 15.9614], [76.1142, 15.9618]]]}, "properties": {"objectid": 117259, "statename": "Karnataka", "statecode": "29", "districtname": "Bagalkote", "districtcode": "556", "ulbname": "Ilkal", "ulbcode": "803050", "wardname": "Ward 13", "wardcode": "13", "id": null, "status": "APPROVED", "misglobalid": null, "approved_by": null, "createdate": 1643628963000, "updateddate": 1643632416000, "globalid": null, "gisglobalid": "on445s64-KsnB-P4Bl-QPls-nR4lKnn4KPdP", "remark": "Approved", "st_area(shape)": 2.85409759414826e-06, "st_perimeter(shape)": 0.007920099780613489}}, {"type": "Feature", "geometry": {"type": "Polygon", "coordinates": [[[76.1132, 15.9584], [76.1131, 15.9584], [76.1131, 15.9588], [76.1131, 15.9595], [76.1141, 15.9595], [76.1142, 15.9596], [76.1143, 15.9596], [76.1143, 15.9598], [76.1143, 15.9601], [76.1143, 15.9603], [76.1143, 15.9604], [76.1142, 15.9605], [76.1142, 15.9606], [76.1146, 15.9606], [76.115, 15.9606], [76.1155, 15.9607], [76.1155, 15.9599], [76.1162, 15.96], [76.1163, 15.9608], [76.1172, 15.9607], [76.1178, 15.9606], [76.118, 15.9595], [76.1183, 15.9583], [76.1181, 15.9582], [76.118, 15.9582], [76.1169, 15.9585], [76.1166, 15.9586], [76.1163, 15.9586], [76.1158, 15.9588], [76.1156, 15.9588], [76.1156, 15.9587], [76.1153, 15.9587], [76.1153, 15.9588], [76.1138, 15.9589], [76.1135, 15.9584], [76.1133, 15.9584], [76.1132, 15.9584]]]}, "properties": {"objectid": 113306, "statename": "Karnataka", "statecode": "29", "districtname": "Bagalkote", "districtcode": "556", "ulbname": "Ilkal", "ulbcode": "803050", "wardname": "Ward 14", "wardcode": "14", "id": null, "status": "APPROVED", "misglobalid": null, "approved_by": null, "createdate": 1643628977000, "updateddate": 1643632458000, "globalid": null, "gisglobalid": "nnQ6lm6c-Qlos-P6lP-sdKB-som6lo4ncQRl", "remark": "Approved", "st_area(shape)": 8.179135364800871e-06, "st_perimeter(shape)": 0.016582372053775708}}, {"type": "Feature", "geometry": {"type": "Polygon", "coordinates": [[[76.112, 15.9586], [76.1131, 15.9586], [76.113, 15.9584], [76.1131, 15.9584], [76.1132, 15.9584], [76.1133, 15.9584], [76.1135, 15.9584], [76.1138, 15.9588], [76.1141, 15.9588], [76.1145, 15.9588], [76.1148, 15.9588], [76.1153, 15.9588], [76.1153, 15.9587], [76.1156, 15.9587], [76.1157, 15.9588], [76.1158, 15.9588], [76.1158, 15.9587], [76.1163, 15.9586], [76.1162, 15.9586], [76.1161, 15.9585], [76.1161, 15.9584], [76.116, 15.9584], [76.1159, 15.9581], [76.1158, 15.9581], [76.1158, 15.958], [76.1146, 15.9582], [76.1145, 15.9579], [76.1142, 15.9579], [76.1135, 15.958], [76.113, 15.958], [76.113, 15.9582], [76.1127, 15.9582], [76.1127, 15.9583], [76.1125, 15.9583], [76.1121, 15.9583], [76.112, 15.9583], [76.112, 15.9586]]]}, "properties": {"objectid": 118864, "statename": "Karnataka", "statecode": "29", "districtname": "Bagalkote", "districtcode": "556", "ulbname": "Ilkal", "ulbcode": "803050", "wardname": "Ward 15", "wardcode": "15", "id": null, "status": "APPROVED", "misglobalid": null, "approved_by": null, "createdate": 1643628989000, "updateddate": 1643632499000, "globalid": null, "gisglobalid": "4sBnRmcs-Q6R4-Pm5c-Racd-Qnm4cocsPPPc", "remark": "Approved", "st_area(shape)": 2.3953984874847316e-06, "st_perimeter(shape)": 0.01049187821277805}}, {"type": "Feature", "geometry": {"type": "Polygon", "coordinates": [[[76.1135, 15.958], [76.1151, 15.9579], [76.1151, 15.9577], [76.1154, 15.9577], [76.1153, 15.9573], [76.1162, 15.9572], [76.1158, 15.9566], [76.1152, 15.956], [76.1147, 15.9561], [76.1149, 15.9566], [76.1146, 15.9568], [76.1147, 15.9573], [76.1141, 15.9574], [76.1141, 15.9575], [76.1137, 15.9575], [76.1137, 15.9576], [76.1134, 15.9576], [76.1135, 15.958]]]}, "properties": {"objectid": 118866, "statename": "Karnataka", "statecode": "29", "districtname": "Bagalkote", "districtcode": "556", "ulbname": "Ilkal", "ulbcode": "803050", "wardname": "Ward 16", "wardcode": "16", "id": null, "status": "APPROVED", "misglobalid": null, "approved_by": null, "createdate": 1643629020000, "updateddate": 1643632565000, "globalid": null, "gisglobalid": "dBmc5Qc6-do5R-PnBR-QRlR-565K5PR5dlBs", "remark": "Approved", "st_area(shape)": 2.266834763781364e-06, "st_perimeter(shape)": 0.0085262693428878}}, {"type": "Feature", "geometry": {"type": "Polygon", "coordinates": [[[76.1135, 15.9576], [76.1136, 15.9575], [76.1137, 15.9575], [76.114, 15.9574], [76.1141, 15.9573], [76.1146, 15.9572], [76.1145, 15.9568], [76.1149, 15.9566], [76.1147, 15.9561], [76.1144, 15.9562], [76.1143, 15.956], [76.1141, 15.956], [76.1141, 15.9558], [76.1139, 15.9558], [76.1139, 15.9554], [76.1136, 15.9555], [76.1136, 15.9554], [76.1132, 15.9554], [76.113, 15.9552], [76.1127, 15.9553], [76.1129, 15.9556], [76.113, 15.9561], [76.1133, 15.9569], [76.1135, 15.9576]]]}, "properties": {"objectid": 111850, "statename": "Karnataka", "statecode": "29", "districtname": "Bagalkote", "districtcode": "556", "ulbname": "Ilkal", "ulbcode": "803050", "wardname": "Ward 17", "wardcode": "17", "id": null, "status": "APPROVED", "misglobalid": null, "approved_by": null, "createdate": 1643629042000, "updateddate": 1643632796000, "globalid": null, "gisglobalid": "66ccm5RR-old5-PlK5-RK55-P5aP5lsRcllc", "remark": "Approved", "st_area(shape)": 2.6606142670192003e-06, "st_perimeter(shape)": 0.007957093951811602}}, {"type": "Feature", "geometry": {"type": "Polygon", "coordinates": [[[76.1146, 15.9581], [76.1158, 15.9579], [76.1158, 15.9581], [76.1159, 15.9581], [76.116, 15.9583], [76.1162, 15.9583], [76.1162, 15.9584], [76.1162, 15.9585], [76.1163, 15.9585], [76.1163, 15.9586], [76.1165, 15.9586], [76.1166, 15.9586], [76.1168, 15.9585], [76.117, 15.9585], [76.1179, 15.9582], [76.118, 15.9582], [76.1182, 15.9582], [76.1183, 15.9583], [76.1183, 15.9581], [76.1183, 15.9579], [76.1182, 15.9576], [76.118, 15.9573], [76.1177, 15.9566], [76.1175, 15.9567], [76.1169, 15.957], [76.1164, 15.9571], [76.1162, 15.9572], [76.1154, 15.9574], [76.1154, 15.9577], [76.1152, 15.9578], [76.1152, 15.9579], [76.1145, 15.9579], [76.1146, 15.9581]]]}, "properties": {"objectid": 119259, "statename": "Karnataka", "statecode": "29", "districtname": "Bagalkote", "districtcode": "556", "ulbname": "Ilkal", "ulbcode": "803050", "wardname": "Ward 18", "wardcode": "18", "id": null, "status": "APPROVED", "misglobalid": null, "approved_by": null, "createdate": 1643629055000, "updateddate": 1643632869000, "globalid": null, "gisglobalid": "RQKlda5l-lRsa-P4Rl-Ra6n-nmcldRmKRBom", "remark": "Approved", "st_area(shape)": 3.6461948768495135e-06, "st_perimeter(shape)": 0.010283206365795909}}, {"type": "Feature", "geometry": {"type": "Polygon", "coordinates": [[[76.1144, 15.9561], [76.1144, 15.9562], [76.1152, 15.9559], [76.1158, 15.9565], [76.1163, 15.9571], [76.1174, 15.9567], [76.1183, 15.9557], [76.119, 15.9551], [76.1193, 15.9547], [76.1197, 15.9539], [76.1193, 15.9537], [76.1188, 15.9535], [76.1186, 15.9527], [76.1189, 15.952], [76.1191, 15.9514], [76.1193, 15.9512], [76.1195, 15.9511], [76.1197, 15.9511], [76.12, 15.9512], [76.1203, 15.9513], [76.1204, 15.9513], [76.1205, 15.9511], [76.1205, 15.9509], [76.1206, 15.9507], [76.1206, 15.9504], [76.1208, 15.9501], [76.121, 15.9495], [76.1212, 15.949], [76.1212, 15.9485], [76.1211, 15.9482], [76.1209, 15.9479], [76.1204, 15.948], [76.1202, 15.948], [76.1197, 15.948], [76.119, 15.9478], [76.1188, 15.9478], [76.118, 15.9478], [76.1172, 15.9481], [76.1155, 15.9482], [76.1142, 15.9483], [76.1139, 15.9455], [76.1137, 15.9449], [76.1136, 15.9447], [76.1133, 15.9445], [76.1131, 15.9458], [76.1125, 15.9466], [76.1122, 15.9472], [76.1116, 15.9484], [76.1115, 15.9484], [76.1112, 15.9484], [76.1111, 15.9498], [76.111, 15.9508], [76.111, 15.9516], [76.1114, 15.9522], [76.1116, 15.9522], [76.1117, 15.9522], [76.1119, 15.9524], [76.1121, 15.9528], [76.1126, 15.9535], [76.113, 15.9539], [76.1137, 15.9542], [76.1145, 15.9545], [76.1144, 15.9546], [76.1141, 15.9549], [76.1142, 15.9552], [76.1139, 15.9553], [76.114, 15.9558], [76.1142, 15.9558], [76.1142, 15.956], [76.1143, 15.956], [76.1144, 15.9561]]]}, "properties": {"objectid": 111854, "statename": "Karnataka", "statecode": "29", "districtname": "Bagalkote", "districtcode": "556", "ulbname": "Ilkal", "ulbcode": "803050", "wardname": "Ward 19", "wardcode": "19", "id": null, "status": "APPROVED", "misglobalid": null, "approved_by": null, "createdate": 1643629069000, "updateddate": 1643633782000, "globalid": null, "gisglobalid": "anaBadsl-4a4K-PmR6-aa44-doKBRQc4sBoc", "remark": "Approved", "st_area(shape)": 6.651741480039522e-05, "st_perimeter(shape)": 0.04152598694866762}}, {"type": "Feature", "geometry": {"type": "Polygon", "coordinates": [[[76.1182, 15.9559], [76.1177, 15.9566], [76.1184, 15.958], [76.1184, 15.9583], [76.1181, 15.9595], [76.1191, 15.9595], [76.1207, 15.9596], [76.1214, 15.9597], [76.1217, 15.9597], [76.1217, 15.9593], [76.1213, 15.9591], [76.1199, 15.9587], [76.12, 15.9576], [76.1204, 15.9576], [76.1204, 15.9567], [76.1209, 15.9564], [76.1219, 15.9563], [76.122, 15.9562], [76.122, 15.9557], [76.1219, 15.9553], [76.122, 15.9549], [76.1219, 15.9547], [76.1218, 15.9542], [76.12, 15.9539], [76.1198, 15.9539], [76.1196, 15.9544], [76.1194, 15.9548], [76.119, 15.9552], [76.1186, 15.9555], [76.1182, 15.9559]]]}, "properties": {"objectid": 118078, "statename": "Karnataka", "statecode": "29", "districtname": "Bagalkote", "districtcode": "556", "ulbname": "Ilkal", "ulbcode": "803050", "wardname": "Ward 20", "wardcode": "20", "id": null, "status": "APPROVED", "misglobalid": null, "approved_by": null, "createdate": 1643629088000, "updateddate": 1643632944000, "globalid": null, "gisglobalid": "am6QBKRs-dKsB-PsPP-Qc5c-6K6oQBaPaBRa", "remark": "Approved", "st_area(shape)": 1.452705779684717e-05, "st_perimeter(shape)": 0.02073764998316197}}, {"type": "Feature", "geometry": {"type": "Polygon", "coordinates": [[[76.1202, 15.9577], [76.1201, 15.9587], [76.1218, 15.9591], [76.1239, 15.9596], [76.127, 15.9591], [76.129, 15.9591], [76.1317, 15.9593], [76.1355, 15.9597], [76.1352, 15.9554], [76.1357, 15.9552], [76.1354, 15.9525], [76.1355, 15.9506], [76.136, 15.9505], [76.1359, 15.9489], [76.136, 15.9487], [76.1362, 15.9488], [76.1363, 15.9466], [76.1361, 15.9457], [76.1353, 15.9453], [76.131, 15.9447], [76.128, 15.9444], [76.1258, 15.9446], [76.1234, 15.9444], [76.1226, 15.9445], [76.122, 15.9447], [76.1219, 15.9447], [76.1208, 15.9445], [76.1199, 15.9444], [76.1196, 15.945], [76.1194, 15.9454], [76.1198, 15.9455], [76.1198, 15.9456], [76.1197, 15.9458], [76.1199, 15.9464], [76.1205, 15.9479], [76.1208, 15.9478], [76.1211, 15.948], [76.1213, 15.9484], [76.1213, 15.949], [76.1211, 15.9495], [76.1208, 15.9505], [76.1206, 15.9511], [76.1205, 15.9515], [76.1203, 15.9515], [76.12, 15.9513], [76.1196, 15.9512], [76.1194, 15.9512], [76.1192, 15.9514], [76.1191, 15.9519], [76.1189, 15.9524], [76.1187, 15.9527], [76.1188, 15.9531], [76.1189, 15.9534], [76.1194, 15.9536], [76.1196, 15.9537], [76.1218, 15.9541], [76.1219, 15.9542], [76.1221, 15.9549], [76.1221, 15.9553], [76.1221, 15.9559], [76.1221, 15.9563], [76.1219, 15.9564], [76.1213, 15.9565], [76.121, 15.9565], [76.1205, 15.9568], [76.1205, 15.9577], [76.1202, 15.9577]]]}, "properties": {"objectid": 113310, "statename": "Karnataka", "statecode": "29", "districtname": "Bagalkote", "districtcode": "556", "ulbname": "Ilkal", "ulbcode": "803050", "wardname": "Ward 21", "wardcode": "21", "id": null, "status": "APPROVED", "misglobalid": null, "approved_by": null, "createdate": 1643629111000, "updateddate": 1643632979000, "globalid": null, "gisglobalid": "B55sPcB4-smcc-PR4s-somo-o6K6osKa4cdR", "remark": "Approved", "st_area(shape)": 0.00022254246858202968, "st_perimeter(shape)": 0.06858079569706411}}, {"type": "Feature", "geometry": {"type": "Polygon", "coordinates": [[[76.1181, 15.9595], [76.1181, 15.9596], [76.1178, 15.9608], [76.1188, 15.9608], [76.1198, 15.9607], [76.1206, 15.9607], [76.1214, 15.9608], [76.1214, 15.9606], [76.1219, 15.9604], [76.1225, 15.9602], [76.1233, 15.9599], [76.1236, 15.9597], [76.1238, 15.9597], [76.1233, 15.9595], [76.1225, 15.9593], [76.1218, 15.9592], [76.1218, 15.9598], [76.1217, 15.9598], [76.1203, 15.9597], [76.1181, 15.9595]]]}, "properties": {"objectid": 118455, "statename": "Karnataka", "statecode": "29", "districtname": "Bagalkote", "districtcode": "556", "ulbname": "Ilkal", "ulbcode": "803050", "wardname": "Ward 22", "wardcode": "22", "id": null, "status": "APPROVED", "misglobalid": null, "approved_by": null, "createdate": 1643629130000, "updateddate": 1643632994000, "globalid": null, "gisglobalid": "d5aRl5d6-QRal-P5aB-aml6-n65ms4dBPB5s", "remark": "Approved", "st_area(shape)": 5.464503345572698e-06, "st_perimeter(shape)": 0.014096330692003637}}, {"type": "Feature", "geometry": {"type": "Polygon", "coordinates": [[[76.1178, 15.9609], [76.1179, 15.9617], [76.1185, 15.9618], [76.1198, 15.9616], [76.121, 15.9615], [76.1214, 15.9614], [76.1214, 15.9608], [76.121, 15.9608], [76.1204, 15.9608], [76.1193, 15.9608], [76.1183, 15.9608], [76.1178, 15.9609]]]}, "properties": {"objectid": 113311, "statename": "Karnataka", "statecode": "29", "districtname": "Bagalkote", "districtcode": "556", "ulbname": "Ilkal", "ulbcode": "803050", "wardname": "Ward 23", "wardcode": "23", "id": null, "status": "APPROVED", "misglobalid": null, "approved_by": null, "createdate": 1643629147000, "updateddate": 1643633066000, "globalid": null, "gisglobalid": "56nPa5PQ-Kool-P6aP-aBn6-moKBocdsQo6Q", "remark": "Approved", "st_area(shape)": 2.9586288156935908e-06, "st_perimeter(shape)": 0.008581246787372663}}, {"type": "Feature", "geometry": {"type": "Polygon", "coordinates": [[[76.1174, 15.9628], [76.1194, 15.9627], [76.1208, 15.9625], [76.122, 15.9624], [76.1236, 15.9622], [76.1238, 15.9621], [76.1238, 15.9619], [76.1237, 15.9597], [76.1229, 15.9601], [76.1219, 15.9605], [76.1215, 15.9606], [76.1215, 15.9608], [76.1215, 15.9615], [76.1206, 15.9616], [76.1196, 15.9617], [76.1185, 15.9618], [76.1179, 15.9617], [76.1174, 15.9628]]]}, "properties": {"objectid": 117267, "statename": "Karnataka", "statecode": "29", "districtname": "Bagalkote", "districtcode": "556", "ulbname": "Ilkal", "ulbcode": "803050", "wardname": "Ward 24", "wardcode": "24", "id": null, "status": "APPROVED", "misglobalid": null, "approved_by": null, "createdate": 1643629177000, "updateddate": 1643633119000, "globalid": null, "gisglobalid": "R4lQBPPo-5moR-PBnP-saas-nQnsdmcncQns", "remark": "Approved", "st_area(shape)": 8.513952721518228e-06, "st_perimeter(shape)": 0.016700709087383584}}, {"type": "Feature", "geometry": {"type": "Polygon", "coordinates": [[[76.1185, 15.9653], [76.1194, 15.9653], [76.1195, 15.9655], [76.1216, 15.9654], [76.1226, 15.9653], [76.1236, 15.9652], [76.1238, 15.9654], [76.1237, 15.9657], [76.1225, 15.9669], [76.1209, 15.9688], [76.12, 15.9699], [76.1212, 15.9719], [76.1219, 15.9715], [76.1233, 15.9709], [76.1252, 15.9701], [76.1282, 15.9687], [76.1278, 15.9674], [76.1276, 15.9658], [76.1276, 15.9657], [76.1302, 15.9644], [76.1328, 15.9634], [76.1356, 15.9626], [76.1355, 15.9598], [76.1344, 15.9597], [76.1319, 15.9595], [76.1287, 15.9592], [76.1276, 15.9592], [76.1264, 15.9594], [76.1257, 15.9594], [76.1252, 15.9595], [76.1245, 15.9596], [76.1239, 15.9598], [76.1239, 15.9608], [76.1238, 15.9622], [76.1237, 15.9622], [76.1228, 15.9624], [76.1214, 15.9626], [76.1195, 15.9628], [76.1186, 15.9629], [76.1185, 15.9653]]]}, "properties": {"objectid": 118457, "statename": "Karnataka", "statecode": "29", "districtname": "Bagalkote", "districtcode": "556", "ulbname": "Ilkal", "ulbcode": "803050", "wardname": "Ward 25", "wardcode": "25", "id": null, "status": "APPROVED", "misglobalid": null, "approved_by": null, "createdate": 1643629272000, "updateddate": 1643633153000, "globalid": null, "gisglobalid": "oaQm6K55-ncQm-PK55-aBsl-scdRRPmo6lQ5", "remark": "Approved", "st_area(shape)": 0.00010375364825672028, "st_perimeter(shape)": 0.05783732667682395}}, {"type": "Feature", "geometry": {"type": "Polygon", "coordinates": [[[76.1166, 15.9627], [76.1167, 15.9641], [76.1163, 15.9646], [76.1163, 15.9652], [76.1164, 15.9654], [76.1164, 15.9658], [76.1163, 15.9662], [76.1162, 15.9665], [76.1162, 15.9668], [76.116, 15.9673], [76.116, 15.9678], [76.1156, 15.9685], [76.1157, 15.9691], [76.1157, 15.9697], [76.116, 15.9706], [76.1177, 15.9705], [76.1187, 15.9704], [76.1194, 15.9701], [76.1199, 15.9698], [76.1205, 15.9691], [76.1235, 15.9656], [76.1237, 15.9654], [76.1236, 15.9652], [76.1215, 15.9655], [76.1195, 15.9656], [76.1194, 15.9654], [76.1184, 15.9654], [76.1185, 15.9628], [76.1174, 15.9629], [76.1174, 15.9628], [76.1179, 15.9617], [76.1177, 15.9607], [76.1173, 15.9608], [76.1168, 15.9608], [76.1163, 15.9608], [76.1163, 15.961], [76.1164, 15.9611], [76.1164, 15.9613], [76.1165, 15.9617], [76.1166, 15.9627]]]}, "properties": {"objectid": 113314, "statename": "Karnataka", "statecode": "29", "districtname": "Bagalkote", "districtcode": "556", "ulbname": "Ilkal", "ulbcode": "803050", "wardname": "Ward 26", "wardcode": "26", "id": null, "status": "APPROVED", "misglobalid": null, "approved_by": null, "createdate": 1643629502000, "updateddate": 1643633188000, "globalid": null, "gisglobalid": "al4cQKo4-RlP6-P46d-asRK-5665lKQ6R6lc", "remark": "Approved", "st_area(shape)": 3.5418786415847724e-05, "st_perimeter(shape)": 0.03271836173664106}}, {"type": "Feature", "geometry": {"type": "Polygon", "coordinates": [[[76.1117, 15.9669], [76.1109, 15.9686], [76.1117, 15.9686], [76.1118, 15.9684], [76.1122, 15.9683], [76.1122, 15.9688], [76.1126, 15.9688], [76.1126, 15.9687], [76.113, 15.9686], [76.1134, 15.9686], [76.1156, 15.9684], [76.1159, 15.9677], [76.116, 15.9673], [76.1162, 15.9663], [76.1163, 15.9657], [76.1163, 15.9653], [76.1163, 15.9646], [76.1166, 15.9641], [76.1166, 15.963], [76.1166, 15.9629], [76.116, 15.9633], [76.1151, 15.9635], [76.1151, 15.9642], [76.1152, 15.9643], [76.1152, 15.9651], [76.1151, 15.9651], [76.1142, 15.9647], [76.1142, 15.9641], [76.1143, 15.9641], [76.1143, 15.9634], [76.1142, 15.9633], [76.114, 15.9633], [76.1133, 15.9633], [76.1124, 15.9653], [76.1119, 15.9662], [76.1118, 15.9665], [76.1117, 15.9669]]]}, "properties": {"objectid": 111859, "statename": "Karnataka", "statecode": "29", "districtname": "Bagalkote", "districtcode": "556", "ulbname": "Ilkal", "ulbcode": "803050", "wardname": "Ward 27", "wardcode": "27", "id": null, "status": "APPROVED", "misglobalid": null, "approved_by": null, "createdate": 1643629529000, "updateddate": 1643633206000, "globalid": null, "gisglobalid": "sQQRlKcl-KQPP-PRda-Qc4R-RssmBdadRcR4", "remark": "Approved", "st_area(shape)": 2.0221794609054762e-05, "st_perimeter(shape)": 0.023896700144256745}}, {"type": "Feature", "geometry": {"type": "Polygon", "coordinates": [[[76.1092, 15.9728], [76.1111, 15.9716], [76.1123, 15.971], [76.1132, 15.9708], [76.1144, 15.9707], [76.116, 15.9706], [76.1157, 15.9698], [76.1156, 15.9692], [76.1156, 15.9685], [76.1134, 15.9687], [76.113, 15.9687], [76.1127, 15.9687], [76.1127, 15.9688], [76.1126, 15.9689], [76.1121, 15.9688], [76.1121, 15.9684], [76.1119, 15.9684], [76.1118, 15.9686], [76.1109, 15.9686], [76.1104, 15.9698], [76.1093, 15.9723], [76.1092, 15.9728]]]}, "properties": {"objectid": 111860, "statename": "Karnataka", "statecode": "29", "districtname": "Bagalkote", "districtcode": "556", "ulbname": "Ilkal", "ulbcode": "803050", "wardname": "Ward 28", "wardcode": "28", "id": null, "status": "APPROVED", "misglobalid": null, "approved_by": null, "createdate": 1643629584000, "updateddate": 1643633236000, "globalid": null, "gisglobalid": "sd6andss-PdK4-PQsP-QPms-dB5anB5dKmRd", "remark": "Approved", "st_area(shape)": 1.4143718445949856e-05, "st_perimeter(shape)": 0.019396389873357168}}, {"type": "Feature", "geometry": {"type": "Polygon", "coordinates": [[[76.1092, 15.973], [76.1062, 15.9775], [76.1046, 15.98], [76.102, 15.9841], [76.1, 15.9872], [76.0976, 15.9909], [76.0981, 15.9908], [76.0994, 15.9906], [76.1006, 15.9903], [76.1015, 15.9901], [76.1025, 15.9899], [76.1017, 15.9871], [76.1025, 15.9867], [76.1032, 15.9864], [76.1046, 15.9859], [76.1051, 15.9856], [76.1061, 15.985], [76.1059, 15.9844], [76.1092, 15.9835], [76.1102, 15.9832], [76.111, 15.9829], [76.1123, 15.9825], [76.1142, 15.9818], [76.1154, 15.9816], [76.1165, 15.9815], [76.1173, 15.9812], [76.1184, 15.981], [76.1176, 15.9794], [76.1155, 15.9803], [76.1153, 15.98], [76.1151, 15.9789], [76.115, 15.9782], [76.1147, 15.9772], [76.1143, 15.9749], [76.1144, 15.9748], [76.1164, 15.9743], [76.1174, 15.974], [76.1168, 15.9733], [76.1175, 15.9729], [76.1172, 15.9726], [76.1174, 15.9726], [76.1179, 15.9725], [76.1192, 15.9724], [76.1201, 15.9723], [76.1211, 15.9719], [76.1199, 15.97], [76.1191, 15.9703], [76.1184, 15.9705], [76.116, 15.9707], [76.114, 15.9708], [76.1127, 15.971], [76.111, 15.9718], [76.1092, 15.973]]]}, "properties": {"objectid": 118875, "statename": "Karnataka", "statecode": "29", "districtname": "Bagalkote", "districtcode": "556", "ulbname": "Ilkal", "ulbcode": "803050", "wardname": "Ward 29", "wardcode": "29", "id": null, "status": "APPROVED", "misglobalid": null, "approved_by": null, "createdate": 1643629833000, "updateddate": 1643633281000, "globalid": null, "gisglobalid": "mn55lnlQ-6KmR-PmRs-s5BQ-omcdomKaomP6", "remark": "Approved", "st_area(shape)": 0.00014413617731558157, "st_perimeter(shape)": 0.08025224251075837}}, {"type": "Feature", "geometry": {"type": "Polygon", "coordinates": [[[76.1003, 15.9664], [76.0999, 15.967], [76.1007, 15.9691], [76.1005, 15.9696], [76.1022, 15.9753], [76.0958, 15.9835], [76.0942, 15.9857], [76.095, 15.9861], [76.0961, 15.9873], [76.0963, 15.9875], [76.0967, 15.9895], [76.0968, 15.9911], [76.0974, 15.991], [76.0996, 15.9876], [76.1014, 15.9848], [76.1031, 15.982], [76.104, 15.9807], [76.1052, 15.9787], [76.1064, 15.9769], [76.1076, 15.9751], [76.1085, 15.9738], [76.109, 15.9729], [76.1091, 15.9722], [76.1096, 15.9712], [76.1101, 15.9701], [76.1105, 15.9694], [76.1108, 15.9686], [76.1104, 15.9686], [76.1087, 15.9686], [76.1067, 15.9687], [76.1067, 15.9685], [76.106, 15.9686], [76.1058, 15.9686], [76.1057, 15.9685], [76.1056, 15.9678], [76.1055, 15.9667], [76.1069, 15.9664], [76.1071, 15.9659], [76.1098, 15.966], [76.1096, 15.9657], [76.1097, 15.9654], [76.1096, 15.9648], [76.1102, 15.9645], [76.1103, 15.9643], [76.108, 15.9643], [76.1063, 15.9643], [76.1058, 15.9644], [76.1056, 15.9645], [76.1054, 15.9645], [76.1052, 15.9646], [76.1043, 15.965], [76.104, 15.9651], [76.1036, 15.9652], [76.1031, 15.9652], [76.1024, 15.9653], [76.102, 15.9658], [76.1015, 15.9658], [76.1011, 15.9657], [76.1006, 15.9659], [76.1, 15.9662], [76.1003, 15.9664]]]}, "properties": {"objectid": 113317, "statename": "Karnataka", "statecode": "29", "districtname": "Bagalkote", "districtcode": "556", "ulbname": "Ilkal", "ulbcode": "803050", "wardname": "Ward 30", "wardcode": "30", "id": null, "status": "APPROVED", "misglobalid": null, "approved_by": null, "createdate": 1643629846000, "updateddate": 1643633330000, "globalid": null, "gisglobalid": "dQmQRPlR-Pc4d-PnBR-QK5a-mBc6mKc45oPl", "remark": "Approved", "st_area(shape)": 0.00015610018552069966, "st_perimeter(shape)": 0.08085433150036088}}, {"type": "Feature", "geometry": {"type": "Polygon", "coordinates": [[[76.1059, 15.9685], [76.1062, 15.9684], [76.1068, 15.9684], [76.1068, 15.9686], [76.1108, 15.9685], [76.1116, 15.9669], [76.1117, 15.9665], [76.1119, 15.9662], [76.1125, 15.9649], [76.1132, 15.9632], [76.1114, 15.9632], [76.1101, 15.9632], [76.1089, 15.9633], [76.1079, 15.9634], [76.1068, 15.9636], [76.1051, 15.9637], [76.1054, 15.9645], [76.1057, 15.9644], [76.1063, 15.9642], [76.108, 15.9643], [76.1103, 15.9642], [76.1103, 15.9643], [76.1103, 15.9645], [76.1097, 15.9648], [76.1098, 15.9654], [76.1097, 15.9657], [76.1099, 15.966], [76.1071, 15.966], [76.107, 15.9665], [76.1056, 15.9668], [76.1059, 15.9685]]]}, "properties": {"objectid": 119661, "statename": "Karnataka", "statecode": "29", "districtname": "Bagalkote", "districtcode": "556", "ulbname": "Ilkal", "ulbcode": "803050", "wardname": "Ward 31", "wardcode": "31", "id": null, "status": "APPROVED", "misglobalid": null, "approved_by": null, "createdate": 1643629920000, "updateddate": 1643633380000, "globalid": null, "gisglobalid": "QRK5sm6m-5lsP-PcK6-RRRK-nodPadammnlo", "remark": "Approved", "st_area(shape)": 2.510496732173175e-05, "st_perimeter(shape)": 0.0335230715767531}}]}
