{"type":"Topology","arcs":[[[66666,81196],[163,-5342]],[[66829,75854],[654,-1923]],[[67483,73931],[-6536,-8761]],[[60947,65170],[-163,641]],[[60784,65811],[-817,855]],[[59967,66666],[-981,1709]],[[58986,68375],[-163,428]],[[58823,68803],[-327,427]],[[58496,69230],[3105,11111],[653,17521],[14379,2137],[-817,-19872],[-9150,1069]],[[80065,62179],[-327,-3205]],[[79738,58974],[-2124,-3633]],[[77614,55341],[-2942,-1282]],[[74672,54059],[-1960,-213]],[[72712,53846],[-4412,-3847]],[[68300,49999],[-817,-3418]],[[67483,46581],[-1307,-1069]],[[66176,45512],[-327,855]],[[65849,46367],[-654,427]],[[65195,46794],[-1960,-3846]],[[63235,42948],[-491,0]],[[62744,42948],[-1143,855]],[[61601,43803],[-327,0]],[[61274,43803],[-327,0]],[[60947,43803],[-327,0]],[[60620,43803],[-490,1282]],[[60130,45085],[-653,214]],[[59477,45299],[-491,2564]],[[58986,47863],[491,3419]],[[59477,51282],[-654,213]],[[58823,51495],[0,3205]],[[58823,54700],[-163,428]],[[58660,55128],[-817,427]],[[57843,55555],[-164,427]],[[57679,55982],[981,2137]],[[58660,58119],[2287,7051]],[[60947,65170],[6536,8761]],[[67483,73931],[-654,1923]],[[66829,75854],[-163,5342]],[[66666,81196],[12908,-3846],[6700,-7693],[-6209,-7478]],[[83496,30983],[2451,427]],[[85947,31410],[1144,214]],[[87091,31624],[2941,641]],[[90032,32265],[-3595,4914]],[[86437,37179],[-2124,6410]],[[84313,43589],[-490,641]],[[83823,44230],[-3432,2992]],[[80391,47222],[-1143,1282]],[[79248,48504],[-2615,2564]],[[76633,51068],[164,1282]],[[76797,52350],[2941,6624]],[[79738,58974],[327,3205]],[[80065,62179],[6699,5128],[8333,3419],[3595,-4915],[1307,-12179],[-1307,-17308],[-9150,-4700],[-20098,-5770]],[[69444,25854],[-2941,-213]],[[66503,25641],[-1961,0]],[[64542,25641],[-3105,-214]],[[61437,25427],[-1143,-641]],[[60294,24786],[326,8120]],[[60620,32906],[6209,3418]],[[66829,36324],[327,-427]],[[67156,35897],[2288,-4487]],[[69444,31410],[3431,-2137]],[[72875,29273],[4739,-641]],[[77614,28632],[1634,214]],[[79248,28846],[3104,1496]],[[82352,30342],[1144,641]],[[64378,43162],[-1143,-214]],[[65195,46794],[654,-427]],[[65849,46367],[327,-855]],[[67483,46581],[817,3418]],[[68300,49999],[4412,3847]],[[72712,53846],[1960,213]],[[77614,55341],[-817,-2991]],[[76633,51068],[2615,-2564]],[[80391,47222],[3432,-2992]],[[83823,44230],[490,-641]],[[84313,43589],[2124,-6410]],[[86437,37179],[3595,-4914]],[[90032,32265],[-2941,-641]],[[85947,31410],[-2451,-427]],[[82352,30342],[-3104,-1496]],[[77614,28632],[-4739,641]],[[72875,29273],[-3431,2137]],[[67156,35897],[-327,427]],[[66829,36324],[-326,641]],[[66503,36965],[163,4274]],[[66666,41239],[-163,1923]],[[66503,43162],[-2125,0]],[[56699,43162],[-654,0]],[[56045,43162],[327,5128]],[[56372,48290],[-163,1496]],[[56209,49786],[0,427]],[[56209,50213],[1143,1282]],[[57352,51495],[2125,-213]],[[59477,51282],[-491,-3419]],[[59477,45299],[653,-214]],[[60130,45085],[490,-1282]],[[60620,43803],[327,0]],[[61274,43803],[327,0]],[[61601,43803],[1143,-855]],[[63235,42948],[1143,214]],[[66503,43162],[163,-1923]],[[66666,41239],[-163,-4274]],[[66503,36965],[326,-641]],[[66829,36324],[-7679,-3632]],[[59150,32692],[-3268,0]],[[55882,32692],[1961,5555]],[[57843,38247],[-1144,4915]],[[40359,43376],[3268,11324]],[[43627,54700],[-2778,3846]],[[40849,58546],[1144,1710]],[[41993,60256],[12745,1923],[3758,7051]],[[58496,69230],[327,-427]],[[58823,68803],[163,-428]],[[59967,66666],[817,-855]],[[60784,65811],[-2124,-7692]],[[58660,58119],[-981,-2137]],[[57843,55555],[817,-427]],[[58660,55128],[163,-428]],[[58823,54700],[0,-3205]],[[58823,51495],[-1471,0]],[[56209,50213],[0,-427]],[[56209,49786],[163,-1496]],[[56372,48290],[-327,-5128]],[[56045,43162],[-15686,214]],[[31862,46794],[2288,1710]],[[34150,48504],[654,427]],[[34804,48931],[1143,641]],[[35947,49572],[1471,855]],[[37418,50427],[327,855]],[[37745,51282],[653,1068]],[[38398,52350],[3432,2350]],[[41830,54700],[-654,214]],[[41176,54914],[-2614,855]],[[38562,55769],[-1634,-1496]],[[36928,54273],[-1798,-2350]],[[35130,51923],[-1634,-641]],[[33496,51282],[-163,-428]],[[33333,50854],[-2451,-855]],[[30882,49999],[-980,-1709]],[[29902,48290],[-1634,641]],[[28268,48931],[-1634,2564]],[[26634,51495],[-1144,1069]],[[25490,52564],[-490,427]],[[25000,52991],[-164,1282]],[[24836,54273],[-817,1282]],[[24019,55555],[1308,1496]],[[25327,57051],[653,5128],[5882,7692],[10131,-9615]],[[41993,60256],[-1144,-1710]],[[40849,58546],[2778,-3846]],[[43627,54700],[-3268,-11324]],[[40359,43376],[-3104,0]],[[37255,43376],[0,2564]],[[37255,45940],[-1634,1709]],[[35621,47649],[-3105,-1709]],[[32516,45940],[-654,854]],[[26634,47008],[-2778,-2564]],[[23856,44444],[490,2564]],[[24346,47008],[-1144,-214]],[[23202,46794],[-1307,-213]],[[21895,46581],[-327,-428]],[[21568,46153],[-326,-213]],[[21242,45940],[-1961,-855]],[[19281,45085],[-654,427]],[[18627,45512],[1798,4274]],[[20425,49786],[1797,2137]],[[22222,51923],[-327,854]],[[21895,52777],[-327,214]],[[21568,52991],[-490,214]],[[21078,53205],[4249,3846]],[[25327,57051],[-1308,-1496]],[[24019,55555],[817,-1282]],[[24836,54273],[164,-1282]],[[25490,52564],[1144,-1069]],[[28268,48931],[1634,-641]],[[30882,49999],[2451,855]],[[33496,51282],[1634,641]],[[36928,54273],[1634,1496]],[[41176,54914],[654,-214]],[[38398,52350],[-653,-1068]],[[37418,50427],[-1471,-855]],[[35947,49572],[-1143,-641]],[[34804,48931],[-654,-427]],[[31862,46794],[-653,428]],[[31209,47222],[-327,213]],[[30882,47435],[0,214]],[[30882,47435],[-163,0]],[[30719,47435],[-2451,-1068]],[[28268,46367],[-1634,641]],[[10948,39102],[10130,14103]],[[21568,52991],[327,-214]],[[21895,52777],[327,-854]],[[22222,51923],[-1797,-2137]],[[20425,49786],[-1798,-4274]],[[18627,45512],[-653,-2564]],[[17974,42948],[-1634,-1068]],[[16340,41880],[-3758,-6197]],[[12582,35683],[-1634,1282]],[[10948,36965],[0,2137]],[[10131,37820],[326,1069]],[[10457,38889],[491,213]],[[10948,39102],[-817,-1282]],[[10131,37820],[326,1069]],[[10948,36965],[1797,-1495]],[[12745,35470],[817,-5983]],[[13562,29487],[3268,-855]],[[16830,28632],[817,0]],[[17647,28632],[1634,-1068]],[[19281,27564],[-164,-855]],[[19117,26709],[981,-6837]],[[20098,19872],[-3758,-10470],[-4249,1923],[-2941,-5556],[-5719,1923],[-3431,4274],[7189,17735],[-980,7051],[3922,1068]],[[16340,41880],[3268,-427]],[[19608,41453],[3104,-2137]],[[22712,39316],[1798,641]],[[24510,39957],[817,214]],[[25327,40171],[-654,-4060]],[[24673,36111],[-4575,-10470]],[[20098,25641],[-981,1068]],[[19117,26709],[164,855]],[[19281,27564],[-1634,1068]],[[17647,28632],[-817,0]],[[16830,28632],[-3268,855]],[[12745,35470],[-163,213]],[[19608,41453],[-1634,1495]],[[19281,45085],[1961,855]],[[21568,46153],[327,428]],[[23202,46794],[1144,214]],[[24346,47008],[-490,-2564]],[[26634,47008],[1634,-641]],[[28268,46367],[2451,1068]],[[30719,47435],[163,214]],[[30882,47649],[327,-427]],[[31209,47222],[1307,-1282]],[[32516,45940],[3105,1709]],[[35621,47649],[1634,-1709]],[[37255,43376],[3431,-2137]],[[40686,41239],[-2451,-3633]],[[38235,37606],[-654,-1709],[-1634,-2137],[-1470,-1495],[-164,-428],[491,-3418]],[[34804,28419],[-2288,-214]],[[32516,28205],[-2941,1068]],[[29575,29273],[-817,-1068]],[[28758,28205],[-327,5342]],[[28431,33547],[0,427]],[[28431,33974],[-490,1709]],[[27941,35683],[-2288,214]],[[25653,35897],[-980,214]],[[24673,36111],[654,4060]],[[24510,39957],[-1798,-641]],[[37745,15384],[-1471,5770]],[[36274,21154],[817,3205]],[[37091,24359],[-1961,2350]],[[35130,26709],[-326,1496],[-491,3846],[3922,5555]],[[40686,41239],[8170,-214]],[[48856,41025],[0,-427]],[[48856,40598],[-981,-1068]],[[47875,39530],[-653,-855]],[[47222,38675],[-490,-2564]],[[46732,36111],[326,-428]],[[47058,35683],[164,-427]],[[47222,35256],[1307,-214]],[[48529,35042],[327,-641]],[[48856,34401],[3758,0]],[[52614,34401],[2124,1282]],[[54738,35683],[-1307,-2564]],[[53431,33119],[1307,-641]],[[54738,32478],[4412,214]],[[59150,32692],[1470,214]],[[60620,32906],[-980,-9829]],[[59640,23077],[-1471,-1710]],[[58169,21367],[-2941,-1709]],[[55228,19658],[-2614,-2350]],[[52614,17308],[-1307,641]],[[51307,17949],[-3432,8119]],[[47875,26068],[-5719,-6410]],[[42156,19658],[-326,-1496]],[[41830,18162],[-4085,-2778]],[[47222,35256],[-164,427]],[[46732,36111],[490,2564]],[[47875,39530],[981,1068]],[[48856,41025],[7843,2137]],[[56699,43162],[1144,-4915]],[[55882,32692],[-1144,-214]],[[53431,33119],[1307,2564]],[[54738,35683],[-2124,-1282]],[[52614,34401],[-3758,0]],[[48529,35042],[-1307,214]],[[37745,15384],[4085,2778]],[[42156,19658],[5719,6410]],[[47875,26068],[3432,-8119]],[[51307,17949],[1307,-641]],[[55228,19658],[2941,1709]],[[58169,21367],[1471,1710]],[[59640,23077],[654,1709]],[[60294,24786],[1143,641]],[[61437,25427],[3105,214]],[[64542,25641],[1961,0]],[[66503,25641],[2941,213]],[[69444,25854],[2614,-2350],[-6699,-13675],[-6536,-9829],[-1961,6197],[-8496,1282],[-7190,-1069],[-3431,8974]],[[20098,19872],[0,5769]],[[25653,35897],[2288,-214]],[[27941,35683],[490,-1709]],[[28431,33547],[327,-5342]],[[29575,29273],[2941,-1068]],[[32516,28205],[1307,0],[654,214],[327,0]],[[34804,28419],[326,-1710]],[[35130,26709],[1961,-2350]],[[36274,21154],[-12745,-14103],[-5065,4060],[1634,8761]]],"transform":{"scale":[6.120061200611954e-7,4.680046800468111e-7],"translate":[73.3696,16.3584]},"objects":{"wards":{"type":"GeometryCollection","geometries":[{"arcs":[[0,1,2,3,4,5,6,7,8]],"type":"Polygon","properties":{"objectid":215240,"statename":"Maharashtra","statecode":"27","districtname":"Sindhudurga","districtcode":"529","ulbname":"Devgad","ulbcode":"900287","wardname":"Ward 1","wardcode":"1","id":null,"status":"APPROVED","misglobalid":null,"approved_by":null,"createdate":1646898982000,"updateddate":1648195022000,"globalid":null,"gisglobalid":"dRmsomaB-lc6K-PlQn-aRnR-4oRPB4aaRcoB","remark":"Ok","st_area(shape)":0.00010576338973069071,"st_perimeter(shape)":0.050551985698133475}},{"arcs":[[9,10,11,12,13,14,15,16,17,18,19,20,21,22,23,24,25,26,27,28,29,30,31,32,33,34,35,36,37,38]],"type":"Polygon","properties":{"objectid":215241,"statename":"Maharashtra","statecode":"27","districtname":"Sindhudurga","districtcode":"529","ulbname":"Devgad","ulbcode":"900287","wardname":"Ward 2","wardcode":"2","id":null,"status":"APPROVED","misglobalid":null,"approved_by":null,"createdate":1646899805000,"updateddate":1648195051000,"globalid":null,"gisglobalid":"BQmlR4QK-msd4-PK45-sQcn-mn5R5mBalsBd","remark":"","st_area(shape)":0.0001607880965451911,"st_perimeter(shape)":0.06073267503993429}},{"arcs":[[39,40,41,42,43,44,45,46,47,48,49,50,51,52,53,54,55,56,57,58,59,60,61,62,63,64]],"type":"Polygon","properties":{"objectid":215242,"statename":"Maharashtra","statecode":"27","districtname":"Sindhudurga","districtcode":"529","ulbname":"Devgad","ulbcode":"900287","wardname":"Ward 3","wardcode":"3","id":null,"status":"APPROVED","misglobalid":null,"approved_by":null,"createdate":1646899955000,"updateddate":1648195077000,"globalid":null,"gisglobalid":"KnPdldaQ-4Kc4-Pso4-saRR-6B5PdaKcPcQo","remark":"Ok","st_area(shape)":0.00019985569473971425,"st_perimeter(shape)":0.09447310102242015}},{"arcs":[[65,-19,66,67,-16,68,69,70,-12,71,-49,72,-47,73,74,75,76,77,-41,78,-65,79,-63,80,81,-60,82,83,84,85,86]],"type":"Polygon","properties":{"objectid":215981,"statename":"Maharashtra","statecode":"27","districtname":"Sindhudurga","districtcode":"529","ulbname":"Devgad","ulbcode":"900287","wardname":"Ward 4","wardcode":"4","id":null,"status":"APPROVED","misglobalid":null,"approved_by":null,"createdate":1646890235000,"updateddate":1648195090000,"globalid":null,"gisglobalid":"Q56mmsdQ-Blls-PaP5-aKQK-KoQml6ooQBPl","remark":"Ok","st_area(shape)":0.00011240541071636388,"st_perimeter(shape)":0.050578176491715705}},{"arcs":[[87,88,89,90,91,92,93,-27,94,95,96,-23,97,98,-20,99,-87,100,101,102,103,104,105,106]],"type":"Polygon","properties":{"objectid":217571,"statename":"Maharashtra","statecode":"27","districtname":"Sindhudurga","districtcode":"529","ulbname":"Devgad","ulbcode":"900287","wardname":"Ward 5","wardcode":"5","id":null,"status":"APPROVED","misglobalid":null,"approved_by":null,"createdate":1646890261000,"updateddate":1648195103000,"globalid":null,"gisglobalid":"Kc6cacK4-ccm4-Pl6n-s4R5-65sRKanddP4l","remark":"Ok","st_area(shape)":0.00003275384849053474,"st_perimeter(shape)":0.03029593084528419}},{"arcs":[[107,108,109,110,111,112,-6,113,114,115,-33,116,117,118,119,-92,120,121,122,123]],"type":"Polygon","properties":{"objectid":215986,"statename":"Maharashtra","statecode":"27","districtname":"Sindhudurga","districtcode":"529","ulbname":"Devgad","ulbcode":"900287","wardname":"Ward 6","wardcode":"6","id":null,"status":"APPROVED","misglobalid":null,"approved_by":null,"createdate":1646890289000,"updateddate":1648195124000,"globalid":null,"gisglobalid":"nR4d4655-R6sn-PRn5-adsB-4QmlQs6RnmKm","remark":"Ok","st_area(shape)":0.0000907007817274836,"st_perimeter(shape)":0.04684473594961913}},{"arcs":[[124,125,126,127,128,129,130,131,132,133,134,135,136,137,138,139,140,141,142,143,144,145,146,147,148,149,150,151,152,153,154]],"type":"Polygon","properties":{"objectid":214800,"statename":"Maharashtra","statecode":"27","districtname":"Sindhudurga","districtcode":"529","ulbname":"Devgad","ulbcode":"900287","wardname":"Ward 7","wardcode":"7","id":null,"status":"APPROVED","misglobalid":null,"approved_by":null,"createdate":1646890311000,"updateddate":1648195138000,"globalid":null,"gisglobalid":"Ro4QmBRB-moKP-P5ao-RQKm-o6Qln645PRs4","remark":"Ok","st_area(shape)":0.00007545929485213047,"st_perimeter(shape)":0.05564200390358101}},{"arcs":[[155,156,157,158,159,160,161,162,163,164,165,166,167,168,169,170,171,-143,172,-141,173,-139,174,-137,175,-135,176,-133,177,-131,178,-129,179,180,181,-125,182,183,184,-185,185,186,187]],"type":"Polygon","properties":{"objectid":215605,"statename":"Maharashtra","statecode":"27","districtname":"Sindhudurga","districtcode":"529","ulbname":"Devgad","ulbcode":"900287","wardname":"Ward 8","wardcode":"8","id":null,"status":"APPROVED","misglobalid":null,"approved_by":null,"createdate":1646892151000,"updateddate":1648195160000,"globalid":null,"gisglobalid":"5aQc5oPd-asnd-P5l5-Q5lP-oo456odmn5ln","remark":"Ok","st_area(shape)":0.0000313404136727284,"st_perimeter(shape)":0.04659956647822079}},{"arcs":[[[188,-168,189,190,191,192,193,194,195,196,197]],[[198,199,200]]],"type":"MultiPolygon","properties":{"objectid":215987,"statename":"Maharashtra","statecode":"27","districtname":"Sindhudurga","districtcode":"529","ulbname":"Devgad","ulbcode":"900287","wardname":"Ward 9","wardcode":"9","id":null,"status":"APPROVED","misglobalid":null,"approved_by":null,"createdate":1646890337000,"updateddate":1648195185000,"globalid":null,"gisglobalid":"RsRR5aKl-s5Ba-PQcl-aBQB-c45nKKnlnncd","remark":"Ok","st_area(shape)":0.000013621663939274094,"st_perimeter(shape)":0.026382764171279948}},{"type":null,"properties":{"objectid":214801,"statename":"Maharashtra","statecode":"27","districtname":"Sindhudurga","districtcode":"529","ulbname":"Devgad","ulbcode":"900287","wardname":"Ward 10","wardcode":"10","id":null,"status":"APPROVED","misglobalid":null,"approved_by":null,"createdate":1646890355000,"updateddate":1648195214000,"globalid":null,"gisglobalid":"PRl54ooo-saao-Psdl-saKK-aB6sP6mllK5n","remark":"Ok","st_area(shape)":0.00002117047160306791,"st_perimeter(shape)":0.028920604086321185}},{"arcs":[[201,199,-198,202,203,204,205,206,207,208,209]],"type":"Polygon","properties":{"objectid":216377,"statename":"Maharashtra","statecode":"27","districtname":"Sindhudurga","districtcode":"529","ulbname":"Devgad","ulbcode":"900287","wardname":"Ward 11","wardcode":"11","id":null,"status":"APPROVED","misglobalid":null,"approved_by":null,"createdate":1646890966000,"updateddate":1648195242000,"globalid":null,"gisglobalid":"BclKBcd4-54KK-PK6l-a4n4-aRBcns5a6RlB","remark":"Ok","st_area(shape)":0.0001169332609655868,"st_perimeter(shape)":0.05375852578186056}},{"arcs":[[210,211,212,213,214,215,216,217,218,219,220,-204,221,-196]],"type":"Polygon","properties":{"objectid":216378,"statename":"Maharashtra","statecode":"27","districtname":"Sindhudurga","districtcode":"529","ulbname":"Devgad","ulbcode":"900287","wardname":"Ward 12","wardcode":"12","id":null,"status":"APPROVED","misglobalid":null,"approved_by":null,"createdate":1646891208000,"updateddate":1648195273000,"globalid":null,"gisglobalid":"BaB66nQP-aoBa-PR56-s4oK-Rsl5ndPmo5mo","remark":"Ok","st_area(shape)":0.00003935946549660955,"st_perimeter(shape)":0.030175591747433332}},{"arcs":[[-212,222,-194,-163,223,-161,224,-159,225,226,-156,227,228,229,230,231,232,233,-152,234,235,236,237,238,239,240,241,242,243,244,245,-214,246]],"type":"Polygon","properties":{"objectid":215195,"statename":"Maharashtra","statecode":"27","districtname":"Sindhudurga","districtcode":"529","ulbname":"Devgad","ulbcode":"900287","wardname":"Ward 13","wardcode":"13","id":null,"status":"APPROVED","misglobalid":null,"approved_by":null,"createdate":1646891285000,"updateddate":1648195471000,"globalid":null,"gisglobalid":"Kl65odan-ll4s-PoB5-sKso-lBnQBKQcmcd4","remark":"Ok","st_area(shape)":0.00006613495907468848,"st_perimeter(shape)":0.04826284430633205}},{"arcs":[[247,248,249,250,-236,251,252,253,254,255,256,257,258,259,260,261,262,263,264,265,266,267,268,269,270,271,272,273,274]],"type":"Polygon","properties":{"objectid":215196,"statename":"Maharashtra","statecode":"27","districtname":"Sindhudurga","districtcode":"529","ulbname":"Devgad","ulbcode":"900287","wardname":"Ward 14","wardcode":"14","id":null,"status":"APPROVED","misglobalid":null,"approved_by":null,"createdate":1646891380000,"updateddate":1648195292000,"globalid":null,"gisglobalid":"o5Qs6Bmd-oBoB-Pncl-Qdd6-RBc45aam5Qa5","remark":"Ok","st_area(shape)":0.00011990465549625803,"st_perimeter(shape)":0.0588682527944345}},{"arcs":[[275,-257,276,-255,277,-253,278,279,-106,280,-264,281,282,283,-260,284]],"type":"Polygon","properties":{"objectid":215197,"statename":"Maharashtra","statecode":"27","districtname":"Sindhudurga","districtcode":"529","ulbname":"Devgad","ulbcode":"900287","wardname":"Ward 15","wardcode":"15","id":null,"status":"APPROVED","misglobalid":null,"approved_by":null,"createdate":1646891469000,"updateddate":1648195306000,"globalid":null,"gisglobalid":"RoBnQlK4-B4Kd-P6Bl-anmQ-osRlomKalQR4","remark":"Ok","st_area(shape)":0.000024634559791010067,"st_perimeter(shape)":0.022704804273523303}},{"arcs":[[285,-274,286,287,288,-270,289,290,291,292,293,294,295,296]],"type":"Polygon","properties":{"objectid":216395,"statename":"Maharashtra","statecode":"27","districtname":"Sindhudurga","districtcode":"529","ulbname":"Devgad","ulbcode":"900287","wardname":"Ward 16","wardcode":"16","id":null,"status":"APPROVED","misglobalid":null,"approved_by":null,"createdate":1646892020000,"updateddate":1648195348000,"globalid":null,"gisglobalid":"cnldBQcd-KcP5-Pn4Q-Qmod-5BccRa66mdsa","remark":"Ok","st_area(shape)":0.00014071293210392825,"st_perimeter(shape)":0.06462124393625245}},{"arcs":[[297,-216,-245,298,299,-242,300,-240,301,302,303,304,-249,305]],"type":"Polygon","properties":{"objectid":217576,"statename":"Maharashtra","statecode":"27","districtname":"Sindhudurga","districtcode":"529","ulbname":"Devgad","ulbcode":"900287","wardname":"Ward 17","wardcode":"17","id":null,"status":"APPROVED","misglobalid":null,"approved_by":null,"createdate":1646891750000,"updateddate":1648195327000,"globalid":null,"gisglobalid":"o645sn5l-asmd-PPaa-sm6l-dsl5s4Q6KsQR","remark":"Ok","st_area(shape)":0.00008699909994191265,"st_perimeter(shape)":0.042575527660930874}}]}}}