{"type": "FeatureCollection", "features": [{"type": "Feature", "geometry": {"type": "Polygon", "coordinates": [[[77.1721, 27.0231], [77.1724, 27.0226], [77.1726, 27.0222], [77.1726, 27.0219], [77.1726, 27.0215], [77.1724, 27.0212], [77.1721, 27.021], [77.1719, 27.0209], [77.1718, 27.0208], [77.1717, 27.0206], [77.1715, 27.0203], [77.1713, 27.0202], [77.1712, 27.0202], [77.1703, 27.0206], [77.1698, 27.0208], [77.1694, 27.021], [77.1696, 27.0214], [77.1705, 27.0224], [77.1711, 27.0229], [77.1718, 27.0233], [77.1721, 27.0231]]]}, "properties": {"objectid": 175996, "statename": "Rajasthan", "statecode": "8", "districtname": "", "districtcode": "105", "ulbname": "Weir", "ulbcode": "800500", "wardname": "Ward 1", "wardcode": "1", "id": null, "status": "APPROVED", "misglobalid": null, "approved_by": null, "createdate": 1645721711000, "updateddate": 1645721776000, "globalid": null, "gisglobalid": "44aQsBlQ-maKa-Pn4d-QRms-6n5ssQ4BcRoc", "remark": "", "st_area(shape)": 5.750494192033135e-06, "st_perimeter(shape)": 0.009363947467184299}}, {"type": "Feature", "geometry": {"type": "Polygon", "coordinates": [[[77.1718, 27.0233], [77.1716, 27.0231], [77.171, 27.0228], [77.1707, 27.0225], [77.1703, 27.0221], [77.1699, 27.0217], [77.1695, 27.0213], [77.1694, 27.0209], [77.17, 27.0206], [77.1707, 27.0204], [77.1711, 27.0202], [77.1706, 27.0199], [77.1706, 27.0198], [77.1706, 27.0194], [77.1703, 27.0191], [77.17, 27.0189], [77.1696, 27.0184], [77.1692, 27.0178], [77.1687, 27.0174], [77.1685, 27.0173], [77.1678, 27.0172], [77.1674, 27.0173], [77.1671, 27.0173], [77.1669, 27.0173], [77.1665, 27.0175], [77.1661, 27.0178], [77.1658, 27.0181], [77.1657, 27.0187], [77.1655, 27.0192], [77.1659, 27.0197], [77.1665, 27.0208], [77.1666, 27.021], [77.1671, 27.0214], [77.1673, 27.0215], [77.1677, 27.0217], [77.168, 27.022], [77.1683, 27.0224], [77.1685, 27.0226], [77.1687, 27.0229], [77.1689, 27.0231], [77.1694, 27.0234], [77.1697, 27.0236], [77.1699, 27.0237], [77.1703, 27.0238], [77.1705, 27.0238], [77.1708, 27.0237], [77.1711, 27.0237], [77.1715, 27.0236], [77.1718, 27.0233]]]}, "properties": {"objectid": 172548, "statename": "Rajasthan", "statecode": "8", "districtname": "", "districtcode": "105", "ulbname": "Weir", "ulbcode": "800500", "wardname": "Ward 2", "wardcode": "2", "id": null, "status": "APPROVED", "misglobalid": null, "approved_by": null, "createdate": 1645721735000, "updateddate": 1645721792000, "globalid": null, "gisglobalid": "oRs5dlnd-4R66-PQRc-sol5-cKR65allmcsR", "remark": "", "st_area(shape)": 2.1178084958770765e-05, "st_perimeter(shape)": 0.02222364646751336}}, {"type": "Feature", "geometry": {"type": "Polygon", "coordinates": [[[77.1655, 27.0192], [77.1657, 27.0186], [77.1657, 27.0183], [77.166, 27.0179], [77.1665, 27.0175], [77.1668, 27.0174], [77.1671, 27.0173], [77.1674, 27.0172], [77.1679, 27.0172], [77.1683, 27.0172], [77.1687, 27.0173], [77.1689, 27.0175], [77.1692, 27.0178], [77.1694, 27.0181], [77.1697, 27.0185], [77.1699, 27.0188], [77.1701, 27.019], [77.1704, 27.0192], [77.1706, 27.0194], [77.1706, 27.0196], [77.1706, 27.0199], [77.172, 27.0194], [77.1718, 27.019], [77.1711, 27.018], [77.1708, 27.0175], [77.1703, 27.0169], [77.1701, 27.0165], [77.1697, 27.016], [77.1694, 27.0157], [77.1691, 27.0155], [77.1686, 27.0152], [77.1683, 27.0151], [77.1681, 27.0151], [77.1677, 27.0151], [77.1672, 27.0151], [77.1661, 27.0159], [77.1658, 27.0161], [77.1656, 27.0166], [77.1654, 27.0168], [77.1652, 27.0171], [77.1652, 27.0174], [77.1652, 27.0177], [77.1652, 27.0182], [77.1652, 27.0184], [77.1653, 27.0185], [77.1654, 27.0188], [77.1655, 27.0192]]]}, "properties": {"objectid": 173058, "statename": "Rajasthan", "statecode": "8", "districtname": "", "districtcode": "105", "ulbname": "Weir", "ulbcode": "800500", "wardname": "Ward 3", "wardcode": "3", "id": null, "status": "APPROVED", "misglobalid": null, "approved_by": null, "createdate": 1645722621000, "updateddate": 1645722662000, "globalid": null, "gisglobalid": "Pdcdo5nd-m4Qc-Ps6K-aBdo-RRaPBKRmdnBn", "remark": "", "st_area(shape)": 1.3400918536550696e-05, "st_perimeter(shape)": 0.02093498459570163}}, {"type": "Feature", "geometry": {"type": "Polygon", "coordinates": [[[77.1701, 27.0166], [77.1703, 27.0169], [77.1706, 27.0173], [77.1711, 27.018], [77.1718, 27.019], [77.172, 27.0193], [77.1722, 27.0198], [77.1725, 27.0197], [77.1731, 27.0194], [77.1738, 27.0191], [77.1737, 27.0187], [77.1737, 27.0185], [77.1736, 27.018], [77.1734, 27.0177], [77.1733, 27.0174], [77.173, 27.0174], [77.1729, 27.0174], [77.1727, 27.0173], [77.1725, 27.017], [77.1724, 27.0166], [77.1723, 27.0162], [77.1722, 27.016], [77.172, 27.0157], [77.1718, 27.0156], [77.1715, 27.0153], [77.1713, 27.0154], [77.1709, 27.0158], [77.1706, 27.016], [77.1701, 27.0166]]]}, "properties": {"objectid": 173102, "statename": "Rajasthan", "statecode": "8", "districtname": "", "districtcode": "105", "ulbname": "Weir", "ulbcode": "800500", "wardname": "Ward 4", "wardcode": "4", "id": null, "status": "APPROVED", "misglobalid": null, "approved_by": null, "createdate": 1645747096000, "updateddate": 1645747564000, "globalid": null, "gisglobalid": "Knc5Rdsl-soQP-Polm-s5a5-onlsl6aQ4cQQ", "remark": "", "st_area(shape)": 8.244796959235555e-06, "st_perimeter(shape)": 0.012427280441822623}}, {"type": "Feature", "geometry": {"type": "Polygon", "coordinates": [[[77.1738, 27.019], [77.1738, 27.0191], [77.1759, 27.0182], [77.1757, 27.0178], [77.1754, 27.0175], [77.1753, 27.0173], [77.1752, 27.0171], [77.1751, 27.0169], [77.175, 27.0168], [77.1748, 27.0166], [77.1747, 27.0164], [77.1746, 27.0162], [77.1745, 27.016], [77.1744, 27.0157], [77.1744, 27.0156], [77.1743, 27.0154], [77.1742, 27.0152], [77.1741, 27.015], [77.174, 27.0149], [77.1739, 27.0147], [77.1738, 27.0146], [77.1738, 27.0144], [77.1739, 27.0143], [77.1739, 27.0142], [77.174, 27.0138], [77.1738, 27.0139], [77.1735, 27.014], [77.1732, 27.0141], [77.173, 27.0143], [77.1727, 27.0144], [77.1723, 27.0147], [77.172, 27.0149], [77.1715, 27.0153], [77.1718, 27.0156], [77.172, 27.0156], [77.1722, 27.0158], [77.1723, 27.0161], [77.1724, 27.0164], [77.1725, 27.0168], [77.1726, 27.0171], [77.1727, 27.0173], [77.1729, 27.0174], [77.1731, 27.0174], [77.1733, 27.0175], [77.1734, 27.0178], [77.1736, 27.0181], [77.1737, 27.0186], [77.1738, 27.019]]]}, "properties": {"objectid": 175213, "statename": "Rajasthan", "statecode": "8", "districtname": "", "districtcode": "105", "ulbname": "Weir", "ulbcode": "800500", "wardname": "Ward 5", "wardcode": "5", "id": null, "status": "APPROVED", "misglobalid": null, "approved_by": null, "createdate": 1645747520000, "updateddate": 1645747578000, "globalid": null, "gisglobalid": "sPK6nnQR-amnd-Ps54-sQs4-PdPlaPod5adQ", "remark": "", "st_area(shape)": 1.0125969451623874e-05, "st_perimeter(shape)": 0.015099845918361948}}, {"type": "Feature", "geometry": {"type": "Polygon", "coordinates": [[[77.174, 27.0138], [77.1739, 27.0142], [77.1738, 27.0146], [77.1739, 27.0147], [77.174, 27.0149], [77.1741, 27.015], [77.1742, 27.0152], [77.1744, 27.0154], [77.1744, 27.0157], [77.1745, 27.016], [77.1746, 27.0162], [77.1747, 27.0165], [77.175, 27.0168], [77.1751, 27.017], [77.1752, 27.0171], [77.1753, 27.0173], [77.1754, 27.0176], [77.1757, 27.0178], [77.1759, 27.0182], [77.1762, 27.0181], [77.1764, 27.0182], [77.1766, 27.0182], [77.1771, 27.0183], [77.1774, 27.0183], [77.1778, 27.0182], [77.1787, 27.0177], [77.1787, 27.0175], [77.1787, 27.0171], [77.1786, 27.0166], [77.1797, 27.0161], [77.1796, 27.016], [77.1795, 27.0158], [77.1793, 27.0158], [77.1791, 27.0156], [77.1788, 27.0154], [77.1785, 27.015], [77.1783, 27.0147], [77.1781, 27.0143], [77.178, 27.0141], [77.178, 27.0139], [77.1778, 27.014], [77.1775, 27.0141], [77.177, 27.0142], [77.1766, 27.0143], [77.1755, 27.0147], [77.1753, 27.0141], [77.1752, 27.014], [77.1751, 27.0135], [77.1748, 27.0136], [77.1746, 27.0137], [77.1742, 27.0137], [77.174, 27.0138]]]}, "properties": {"objectid": 175214, "statename": "Rajasthan", "statecode": "8", "districtname": "", "districtcode": "105", "ulbname": "Weir", "ulbcode": "800500", "wardname": "Ward 6", "wardcode": "6", "id": null, "status": "APPROVED", "misglobalid": null, "approved_by": null, "createdate": 1645748153000, "updateddate": 1645748189000, "globalid": null, "gisglobalid": "44m5cdBK-cPdK-PcnR-sK5s-4lcPddlQ4RdP", "remark": "", "st_area(shape)": 1.645386115722016e-05, "st_perimeter(shape)": 0.018308901777021064}}, {"type": "Feature", "geometry": {"type": "Polygon", "coordinates": [[[77.1698, 27.013], [77.1672, 27.0151], [77.1676, 27.0151], [77.1678, 27.0151], [77.1684, 27.0152], [77.1688, 27.0153], [77.1691, 27.0155], [77.1693, 27.0157], [77.1697, 27.016], [77.1701, 27.0166], [77.1705, 27.0162], [77.1709, 27.0157], [77.1715, 27.0153], [77.1723, 27.0147], [77.1725, 27.0146], [77.1734, 27.014], [77.1738, 27.0139], [77.1741, 27.0138], [77.1748, 27.0136], [77.1751, 27.0135], [77.1743, 27.0119], [77.1741, 27.0115], [77.1738, 27.0112], [77.1737, 27.011], [77.1736, 27.0109], [77.1734, 27.011], [77.1721, 27.0113], [77.1706, 27.0123], [77.1698, 27.013]]]}, "properties": {"objectid": 175634, "statename": "Rajasthan", "statecode": "8", "districtname": "", "districtcode": "105", "ulbname": "Weir", "ulbcode": "800500", "wardname": "Ward 7", "wardcode": "7", "id": null, "status": "APPROVED", "misglobalid": null, "approved_by": null, "createdate": 1645748587000, "updateddate": 1645748641000, "globalid": null, "gisglobalid": "l5BnQPna-5R6R-PPBo-aslo-nla4aoPl4QsP", "remark": "", "st_area(shape)": 1.9171861606264518e-05, "st_perimeter(shape)": 0.02030452832270811}}, {"type": "Feature", "geometry": {"type": "Polygon", "coordinates": [[[77.1736, 27.0109], [77.1738, 27.0112], [77.1741, 27.0115], [77.1745, 27.0123], [77.1746, 27.0126], [77.1752, 27.0124], [77.1755, 27.0123], [77.176, 27.0122], [77.1764, 27.0121], [77.1769, 27.0121], [77.1772, 27.0121], [77.1775, 27.0122], [77.1777, 27.0123], [77.1779, 27.0124], [77.178, 27.0127], [77.1784, 27.0126], [77.179, 27.0125], [77.1796, 27.0124], [77.1796, 27.0118], [77.1794, 27.0105], [77.1793, 27.0095], [77.1792, 27.0093], [77.1792, 27.0091], [77.1791, 27.0089], [77.1788, 27.0088], [77.1784, 27.0088], [77.1779, 27.009], [77.1773, 27.0092], [77.1768, 27.0095], [77.1764, 27.0096], [77.1761, 27.0097], [77.1754, 27.01], [77.1748, 27.0102], [77.1743, 27.0105], [77.1736, 27.0109]]]}, "properties": {"objectid": 173708, "statename": "Rajasthan", "statecode": "8", "districtname": "", "districtcode": "105", "ulbname": "Weir", "ulbcode": "800500", "wardname": "Ward 8", "wardcode": "8", "id": null, "status": "APPROVED", "misglobalid": null, "approved_by": null, "createdate": 1645749285000, "updateddate": 1645749310000, "globalid": null, "gisglobalid": "nPmQBm65-o64P-PacR-RslB-mKQm5cQnnP44", "remark": "", "st_area(shape)": 1.5199730520604146e-05, "st_perimeter(shape)": 0.016975179168060954}}, {"type": "Feature", "geometry": {"type": "Polygon", "coordinates": [[[77.175, 27.0125], [77.1747, 27.0127], [77.1751, 27.0136], [77.1752, 27.014], [77.1753, 27.0143], [77.1755, 27.0147], [77.1759, 27.0145], [77.1766, 27.0143], [77.1771, 27.0142], [77.1775, 27.0141], [77.1779, 27.014], [77.178, 27.0139], [77.1782, 27.0136], [77.1783, 27.0134], [77.1783, 27.0132], [77.178, 27.0127], [77.1778, 27.0124], [77.1776, 27.0122], [77.1774, 27.0121], [77.177, 27.0121], [77.1764, 27.0122], [77.1755, 27.0123], [77.175, 27.0125]]]}, "properties": {"objectid": 175635, "statename": "Rajasthan", "statecode": "8", "districtname": "", "districtcode": "105", "ulbname": "Weir", "ulbcode": "800500", "wardname": "Ward 9", "wardcode": "9", "id": null, "status": "APPROVED", "misglobalid": null, "approved_by": null, "createdate": 1645749572000, "updateddate": 1645749610000, "globalid": null, "gisglobalid": "asaKsn64-4Kom-PaB4-aKco-oKd6PoKlnPaP", "remark": "", "st_area(shape)": 6.3878835389969405e-06, "st_perimeter(shape)": 0.009940722590770504}}, {"type": "Feature", "geometry": {"type": "Polygon", "coordinates": [[[77.1782, 27.0126], [77.178, 27.0127], [77.1783, 27.0132], [77.1783, 27.0134], [77.1782, 27.0136], [77.178, 27.0139], [77.178, 27.0142], [77.1781, 27.0144], [77.1783, 27.0147], [77.1785, 27.0149], [77.1787, 27.0152], [77.1789, 27.0154], [77.1791, 27.0157], [77.1794, 27.0158], [77.1795, 27.0159], [77.1797, 27.0161], [77.1799, 27.0165], [77.1804, 27.0163], [77.1807, 27.0161], [77.1809, 27.0161], [77.181, 27.016], [77.1811, 27.016], [77.1809, 27.0156], [77.1807, 27.0155], [77.1805, 27.0154], [77.1804, 27.0154], [77.1802, 27.0152], [77.1801, 27.0149], [77.1798, 27.0148], [77.1797, 27.0145], [77.1795, 27.0144], [77.1795, 27.0142], [77.1794, 27.0139], [77.1795, 27.0135], [77.1795, 27.0133], [77.1794, 27.0132], [77.1794, 27.013], [77.1795, 27.0125], [77.1792, 27.0125], [77.1787, 27.0126], [77.1782, 27.0126]]]}, "properties": {"objectid": 175636, "statename": "Rajasthan", "statecode": "8", "districtname": "", "districtcode": "105", "ulbname": "Weir", "ulbcode": "800500", "wardname": "Ward 10", "wardcode": "10", "id": null, "status": "APPROVED", "misglobalid": null, "approved_by": null, "createdate": 1645750278000, "updateddate": 1645750352000, "globalid": null, "gisglobalid": "cdBPKd6n-55m6-PdsK-Rlod-llK5sQo5c4Qs", "remark": "", "st_area(shape)": 5.32129871271354e-06, "st_perimeter(shape)": 0.01188567086665505}}, {"type": "Feature", "geometry": {"type": "Polygon", "coordinates": [[[77.1835, 27.015], [77.1835, 27.0152], [77.1835, 27.0155], [77.1837, 27.0157], [77.1838, 27.0159], [77.1839, 27.0162], [77.1842, 27.0166], [77.1844, 27.0168], [77.1848, 27.0169], [77.1852, 27.0169], [77.1856, 27.0168], [77.1861, 27.017], [77.1864, 27.017], [77.1867, 27.017], [77.187, 27.0168], [77.1867, 27.0163], [77.1864, 27.0157], [77.1861, 27.0153], [77.186, 27.015], [77.1859, 27.0146], [77.1858, 27.0144], [77.1856, 27.0142], [77.1856, 27.014], [77.1855, 27.0137], [77.1836, 27.0145], [77.1835, 27.015]]]}, "properties": {"objectid": 173709, "statename": "Rajasthan", "statecode": "8", "districtname": "", "districtcode": "105", "ulbname": "Weir", "ulbcode": "800500", "wardname": "Ward 11", "wardcode": "11", "id": null, "status": "APPROVED", "misglobalid": null, "approved_by": null, "createdate": 1645750835000, "updateddate": 1645751200000, "globalid": null, "gisglobalid": "4RQmdKss-aQP4-PdsK-aoBR-dRdPa6aaP6ds", "remark": "", "st_area(shape)": 7.255669511387442e-06, "st_perimeter(shape)": 0.010896007077736056}}, {"type": "Feature", "geometry": {"type": "Polygon", "coordinates": [[[77.187, 27.0168], [77.1869, 27.0169], [77.1868, 27.017], [77.1866, 27.017], [77.1864, 27.017], [77.1862, 27.017], [77.186, 27.0169], [77.1858, 27.0168], [77.1854, 27.0169], [77.1852, 27.0169], [77.185, 27.0169], [77.1848, 27.0169], [77.1846, 27.0169], [77.1844, 27.0168], [77.1842, 27.0167], [77.184, 27.0165], [77.184, 27.0164], [77.1838, 27.016], [77.1838, 27.0158], [77.1837, 27.0156], [77.1835, 27.0154], [77.1835, 27.0152], [77.1835, 27.0151], [77.1835, 27.015], [77.1831, 27.0151], [77.1827, 27.0153], [77.1822, 27.0155], [77.1823, 27.0158], [77.1824, 27.016], [77.1825, 27.0162], [77.1827, 27.0165], [77.1831, 27.017], [77.1833, 27.0173], [77.1834, 27.0174], [77.1836, 27.0176], [77.1838, 27.0177], [77.184, 27.0179], [77.1841, 27.018], [77.1845, 27.0183], [77.1848, 27.0185], [77.1851, 27.0186], [77.1852, 27.0187], [77.1858, 27.0186], [77.1863, 27.0187], [77.1866, 27.0187], [77.187, 27.0186], [77.1873, 27.0184], [77.1873, 27.0179], [77.1873, 27.0177], [77.1872, 27.0172], [77.187, 27.0168]]]}, "properties": {"objectid": 175215, "statename": "Rajasthan", "statecode": "8", "districtname": "", "districtcode": "105", "ulbname": "Weir", "ulbcode": "800500", "wardname": "Ward 12", "wardcode": "12", "id": null, "status": "APPROVED", "misglobalid": null, "approved_by": null, "createdate": 1645751187000, "updateddate": 1645751284000, "globalid": null, "gisglobalid": "PcnQ4nmn-Q4RR-PP66-ssPQ-RK5PQlPdK5Pn", "remark": "", "st_area(shape)": 8.094942398353226e-06, "st_perimeter(shape)": 0.014537567089616975}}, {"type": "Feature", "geometry": {"type": "Polygon", "coordinates": [[[77.1829, 27.0147], [77.1854, 27.0137], [77.1853, 27.013], [77.1851, 27.0123], [77.185, 27.0118], [77.1849, 27.0117], [77.1846, 27.0112], [77.1844, 27.011], [77.1843, 27.0108], [77.1841, 27.0107], [77.1839, 27.0107], [77.1837, 27.0108], [77.1835, 27.0111], [77.1831, 27.0117], [77.1827, 27.0122], [77.1822, 27.0128], [77.1819, 27.013], [77.1821, 27.0131], [77.1826, 27.0136], [77.1827, 27.0139], [77.1829, 27.0143], [77.1829, 27.0147]]]}, "properties": {"objectid": 174137, "statename": "Rajasthan", "statecode": "8", "districtname": "", "districtcode": "105", "ulbname": "Weir", "ulbcode": "800500", "wardname": "Ward 13", "wardcode": "13", "id": null, "status": "APPROVED", "misglobalid": null, "approved_by": null, "createdate": 1645751916000, "updateddate": 1645751944000, "globalid": null, "gisglobalid": "c6cn6B5o-m5sn-PnsQ-sndc-l6slQPmcKKcK", "remark": "", "st_area(shape)": 8.026415270443433e-06, "st_perimeter(shape)": 0.011516828775475892}}, {"type": "Feature", "geometry": {"type": "Polygon", "coordinates": [[[77.1795, 27.0125], [77.1794, 27.013], [77.1795, 27.0135], [77.1794, 27.0139], [77.1794, 27.0142], [77.1796, 27.0144], [77.1798, 27.0147], [77.18, 27.0149], [77.1802, 27.0152], [77.1803, 27.0154], [77.1808, 27.0155], [77.1811, 27.016], [77.1835, 27.015], [77.1835, 27.0146], [77.1829, 27.0148], [77.1829, 27.0145], [77.1829, 27.0142], [77.1827, 27.0138], [77.1823, 27.0132], [77.1819, 27.013], [77.1814, 27.0126], [77.1811, 27.0127], [77.1811, 27.0125], [77.1811, 27.0124], [77.1812, 27.0119], [77.1811, 27.0113], [77.181, 27.0109], [77.181, 27.0104], [77.1809, 27.01], [77.1809, 27.0095], [77.1809, 27.0093], [77.1808, 27.009], [77.1807, 27.0088], [77.1805, 27.0086], [77.1804, 27.0085], [77.1803, 27.0085], [77.1801, 27.0084], [77.1799, 27.0085], [77.1798, 27.0085], [77.1797, 27.0085], [77.1796, 27.0084], [77.1795, 27.0086], [77.1793, 27.0087], [77.1792, 27.0088], [77.1791, 27.009], [77.1792, 27.0091], [77.1792, 27.0094], [77.1793, 27.0098], [77.1793, 27.0102], [77.1794, 27.0104], [77.1794, 27.011], [77.1796, 27.0118], [77.1796, 27.0122], [77.1795, 27.0125]]]}, "properties": {"objectid": 174138, "statename": "Rajasthan", "statecode": "8", "districtname": "", "districtcode": "105", "ulbname": "Weir", "ulbcode": "800500", "wardname": "Ward 14", "wardcode": "14", "id": null, "status": "APPROVED", "misglobalid": null, "approved_by": null, "createdate": 1645757104000, "updateddate": 1645757390000, "globalid": null, "gisglobalid": "oaPRdcQB-Roc6-P64Q-RRBa-44KQncloQRc5", "remark": "", "st_area(shape)": 1.543804743415429e-05, "st_perimeter(shape)": 0.02045925671706248}}, {"type": "Feature", "geometry": {"type": "Polygon", "coordinates": [[[77.1805, 27.0163], [77.1807, 27.0166], [77.1813, 27.0174], [77.1817, 27.0181], [77.1821, 27.0185], [77.1828, 27.0191], [77.1832, 27.0194], [77.184, 27.0198], [77.1844, 27.02], [77.1847, 27.0202], [77.1848, 27.0198], [77.1849, 27.0192], [77.1847, 27.0191], [77.1847, 27.0187], [77.1847, 27.0184], [77.1842, 27.0181], [77.1837, 27.0177], [77.1834, 27.0174], [77.1831, 27.017], [77.1827, 27.0167], [77.1825, 27.0161], [77.1822, 27.0155], [77.1805, 27.0163]]]}, "properties": {"objectid": 175637, "statename": "Rajasthan", "statecode": "8", "districtname": "", "districtcode": "105", "ulbname": "Weir", "ulbcode": "800500", "wardname": "Ward 15", "wardcode": "15", "id": null, "status": "APPROVED", "misglobalid": null, "approved_by": null, "createdate": 1645753315000, "updateddate": 1645757316000, "globalid": null, "gisglobalid": "KdnlmQKd-dPKR-PKn5-QsQ4-6nKlP4sBR4a5", "remark": "", "st_area(shape)": 8.285972304358337e-06, "st_perimeter(shape)": 0.013562502698675889}}, {"type": "Feature", "geometry": {"type": "Polygon", "coordinates": [[[77.183, 27.0209], [77.1837, 27.0211], [77.184, 27.0208], [77.1846, 27.0203], [77.1847, 27.0202], [77.184, 27.0199], [77.1837, 27.0197], [77.1832, 27.0194], [77.1829, 27.0192], [77.1826, 27.0189], [77.1823, 27.0187], [77.182, 27.0185], [77.1816, 27.018], [77.1814, 27.0175], [77.1812, 27.0173], [77.1808, 27.0168], [77.1805, 27.0164], [77.1805, 27.0163], [77.1799, 27.0165], [77.1796, 27.0162], [77.1787, 27.0165], [77.1786, 27.017], [77.1787, 27.0175], [77.1789, 27.0182], [77.1791, 27.0186], [77.1795, 27.0189], [77.18, 27.019], [77.1804, 27.019], [77.1808, 27.0187], [77.1809, 27.0185], [77.181, 27.0188], [77.1811, 27.019], [77.1814, 27.0194], [77.1817, 27.0197], [77.1819, 27.02], [77.1825, 27.0206], [77.183, 27.0209]]]}, "properties": {"objectid": 175216, "statename": "Rajasthan", "statecode": "8", "districtname": "", "districtcode": "105", "ulbname": "Weir", "ulbcode": "800500", "wardname": "Ward 16", "wardcode": "16", "id": null, "status": "APPROVED", "misglobalid": null, "approved_by": null, "createdate": 1645753584000, "updateddate": 1645757291000, "globalid": null, "gisglobalid": "sQlnlmmd-Qldn-P5KP-aPsR-soallBlnQonP", "remark": "", "st_area(shape)": 1.0582873731653127e-05, "st_perimeter(shape)": 0.01758869957097559}}, {"type": "Feature", "geometry": {"type": "Polygon", "coordinates": [[[77.1829, 27.0213], [77.1837, 27.0212], [77.1833, 27.021], [77.183, 27.0208], [77.1825, 27.0205], [77.1821, 27.0201], [77.1817, 27.0197], [77.1814, 27.0195], [77.1812, 27.0197], [77.1811, 27.0203], [77.1812, 27.0205], [77.1813, 27.0207], [77.1817, 27.0209], [77.1818, 27.0212], [77.1822, 27.0213], [77.1825, 27.0215], [77.1829, 27.0213]]]}, "properties": {"objectid": 174139, "statename": "Rajasthan", "statecode": "8", "districtname": "", "districtcode": "105", "ulbname": "Weir", "ulbcode": "800500", "wardname": "Ward 17", "wardcode": "17", "id": null, "status": "APPROVED", "misglobalid": null, "approved_by": null, "createdate": 1645753862000, "updateddate": 1645757339000, "globalid": null, "gisglobalid": "nc4mmmaK-cnRK-PQn6-R5nR-QncKQlPs4l6m", "remark": "", "st_area(shape)": 1.993325059452216e-06, "st_perimeter(shape)": 0.00680888701563325}}, {"type": "Feature", "geometry": {"type": "Polygon", "coordinates": [[[77.181, 27.0187], [77.1809, 27.0186], [77.1806, 27.0188], [77.1804, 27.019], [77.1801, 27.019], [77.1799, 27.019], [77.1795, 27.0189], [77.1794, 27.019], [77.1792, 27.0193], [77.1792, 27.0195], [77.1792, 27.0198], [77.1793, 27.0199], [77.1796, 27.02], [77.1798, 27.0202], [77.1799, 27.0203], [77.18, 27.0203], [77.1803, 27.0203], [77.1805, 27.0203], [77.1807, 27.0203], [77.1809, 27.0202], [77.1811, 27.0202], [77.1811, 27.0201], [77.1812, 27.0199], [77.1813, 27.0197], [77.1814, 27.0195], [77.1813, 27.0194], [77.1813, 27.0192], [77.1812, 27.0191], [77.1811, 27.019], [77.181, 27.0187]]]}, "properties": {"objectid": 175217, "statename": "Rajasthan", "statecode": "8", "districtname": "", "districtcode": "105", "ulbname": "Weir", "ulbcode": "800500", "wardname": "Ward 18", "wardcode": "18", "id": null, "status": "APPROVED", "misglobalid": null, "approved_by": null, "createdate": 1645754005000, "updateddate": 1645757415000, "globalid": null, "gisglobalid": "6n56BdKa-no4o-Pacl-Ql6m-s4nanPncBssa", "remark": "", "st_area(shape)": 2.599914075346962e-06, "st_perimeter(shape)": 0.006472221043315052}}, {"type": "Feature", "geometry": {"type": "Polygon", "coordinates": [[[77.1825, 27.0214], [77.1824, 27.0214], [77.182, 27.0212], [77.1819, 27.0211], [77.1818, 27.021], [77.1815, 27.0208], [77.1813, 27.0207], [77.1812, 27.0205], [77.1811, 27.0203], [77.181, 27.0202], [77.1808, 27.0202], [77.1805, 27.0203], [77.1804, 27.0203], [77.1801, 27.0203], [77.18, 27.0203], [77.1799, 27.0202], [77.1797, 27.0203], [77.1795, 27.0204], [77.1794, 27.0206], [77.1795, 27.0208], [77.1795, 27.021], [77.1797, 27.0211], [77.1801, 27.0214], [77.1803, 27.0215], [77.1804, 27.0215], [77.1806, 27.0215], [77.1809, 27.0215], [77.1811, 27.0215], [77.1815, 27.0215], [77.1817, 27.0214], [77.1819, 27.0215], [77.182, 27.0215], [77.1823, 27.0215], [77.1825, 27.0214]]]}, "properties": {"objectid": 173710, "statename": "Rajasthan", "statecode": "8", "districtname": "", "districtcode": "105", "ulbname": "Weir", "ulbcode": "800500", "wardname": "Ward 19", "wardcode": "19", "id": null, "status": "APPROVED", "misglobalid": null, "approved_by": null, "createdate": 1645754185000, "updateddate": 1645757279000, "globalid": null, "gisglobalid": "PBdc4aoP-6aBR-PBn4-RRdn-lcRs5oKmcaac", "remark": "", "st_area(shape)": 2.4685998228404036e-06, "st_perimeter(shape)": 0.007346098940230389}}, {"type": "Feature", "geometry": {"type": "Polygon", "coordinates": [[[77.1803, 27.0215], [77.1802, 27.0215], [77.18, 27.0214], [77.1799, 27.0212], [77.1796, 27.0211], [77.1794, 27.0208], [77.1794, 27.0206], [77.1795, 27.0204], [77.1797, 27.0203], [77.1798, 27.0202], [77.1796, 27.0201], [77.1794, 27.0199], [77.1793, 27.0199], [77.1792, 27.0197], [77.1792, 27.0195], [77.1792, 27.0193], [77.1794, 27.0191], [77.1795, 27.0189], [77.1794, 27.0189], [77.1793, 27.0189], [77.179, 27.019], [77.1787, 27.0191], [77.1785, 27.0192], [77.1784, 27.0192], [77.1783, 27.0193], [77.1781, 27.0196], [77.178, 27.0199], [77.178, 27.0202], [77.1781, 27.0204], [77.1782, 27.0207], [77.1783, 27.0209], [77.1785, 27.0212], [77.1786, 27.0213], [77.1789, 27.0215], [77.1791, 27.0217], [77.1793, 27.0218], [77.1794, 27.022], [77.1795, 27.022], [77.1796, 27.0219], [77.1797, 27.0218], [77.1799, 27.0217], [77.18, 27.0216], [77.1801, 27.0215], [77.1803, 27.0215]]]}, "properties": {"objectid": 175638, "statename": "Rajasthan", "statecode": "8", "districtname": "", "districtcode": "105", "ulbname": "Weir", "ulbcode": "800500", "wardname": "Ward 20", "wardcode": "20", "id": null, "status": "APPROVED", "misglobalid": null, "approved_by": null, "createdate": 1645754408000, "updateddate": 1645757253000, "globalid": null, "gisglobalid": "aBanP6RP-BPPa-Ps5R-aBRa-6ml46Bo4lKKP", "remark": "", "st_area(shape)": 3.4165837088843158e-06, "st_perimeter(shape)": 0.009266790503054198}}, {"type": "Feature", "geometry": {"type": "Polygon", "coordinates": [[[77.1795, 27.022], [77.1793, 27.0218], [77.179, 27.0216], [77.1788, 27.0214], [77.1785, 27.0212], [77.1784, 27.021], [77.1782, 27.0207], [77.1781, 27.0204], [77.178, 27.0201], [77.178, 27.0198], [77.1781, 27.0196], [77.1782, 27.0194], [77.1784, 27.0192], [77.1787, 27.0191], [77.1789, 27.019], [77.1792, 27.0189], [77.1794, 27.0189], [77.1791, 27.0185], [77.179, 27.0183], [77.1788, 27.0178], [77.1787, 27.0177], [77.1784, 27.0179], [77.1783, 27.018], [77.1781, 27.0181], [77.178, 27.0182], [77.1778, 27.0183], [77.1778, 27.0184], [77.1776, 27.0186], [77.1775, 27.0189], [77.1774, 27.0192], [77.1773, 27.0194], [77.1773, 27.0198], [77.1772, 27.0201], [77.1772, 27.0204], [77.1772, 27.0206], [77.1773, 27.0209], [77.1773, 27.0212], [77.1774, 27.0214], [77.1775, 27.0216], [77.1777, 27.0218], [77.1778, 27.022], [77.1779, 27.0222], [77.1781, 27.0223], [77.1783, 27.0225], [77.1784, 27.0226], [77.1786, 27.0227], [77.179, 27.0223], [77.1795, 27.022]]]}, "properties": {"objectid": 174140, "statename": "Rajasthan", "statecode": "8", "districtname": "", "districtcode": "105", "ulbname": "Weir", "ulbcode": "800500", "wardname": "Ward 21", "wardcode": "21", "id": null, "status": "APPROVED", "misglobalid": null, "approved_by": null, "createdate": 1645754613000, "updateddate": 1645757236000, "globalid": null, "gisglobalid": "BssdnQaa-45Ka-Padm-Qm6Q-6BBQnldRolKP", "remark": "", "st_area(shape)": 5.288807196574593e-06, "st_perimeter(shape)": 0.01315000262757117}}, {"type": "Feature", "geometry": {"type": "Polygon", "coordinates": [[[77.1764, 27.0182], [77.1762, 27.0187], [77.1761, 27.0191], [77.1761, 27.0194], [77.1761, 27.0197], [77.1761, 27.0203], [77.1762, 27.0206], [77.1764, 27.0208], [77.1766, 27.0209], [77.1768, 27.0209], [77.177, 27.0209], [77.1773, 27.0209], [77.1772, 27.0205], [77.1772, 27.0202], [77.1773, 27.0196], [77.1774, 27.0192], [77.1775, 27.0188], [77.1778, 27.0184], [77.1778, 27.0183], [77.1775, 27.0183], [77.177, 27.0183], [77.1766, 27.0182], [77.1764, 27.0182]]]}, "properties": {"objectid": 175218, "statename": "Rajasthan", "statecode": "8", "districtname": "", "districtcode": "105", "ulbname": "Weir", "ulbcode": "800500", "wardname": "Ward 22", "wardcode": "22", "id": null, "status": "APPROVED", "misglobalid": null, "approved_by": null, "createdate": 1645754821000, "updateddate": 1645757216000, "globalid": null, "gisglobalid": "BsPm4oQm-m6QQ-PnmR-Rcm5-Kssllc5QnKBB", "remark": "", "st_area(shape)": 3.2354317730561743e-06, "st_perimeter(shape)": 0.007884910655303015}}, {"type": "Feature", "geometry": {"type": "Polygon", "coordinates": [[[77.1775, 27.0216], [77.1774, 27.0212], [77.1773, 27.0209], [77.177, 27.0209], [77.1766, 27.0209], [77.1763, 27.0208], [77.1762, 27.0206], [77.1761, 27.0204], [77.1761, 27.0199], [77.1761, 27.0194], [77.1761, 27.019], [77.1762, 27.0186], [77.1763, 27.0184], [77.1764, 27.0182], [77.1763, 27.0182], [77.1762, 27.0181], [77.1755, 27.0184], [77.1748, 27.0187], [77.1744, 27.0189], [77.1744, 27.0193], [77.1744, 27.0196], [77.1744, 27.0201], [77.1744, 27.0203], [77.1745, 27.0207], [77.1747, 27.021], [77.1749, 27.0213], [77.1751, 27.0213], [77.1755, 27.0215], [77.1759, 27.0217], [77.1762, 27.0218], [77.1764, 27.0217], [77.1768, 27.0217], [77.1773, 27.0217], [77.1775, 27.0216]]]}, "properties": {"objectid": 173711, "statename": "Rajasthan", "statecode": "8", "districtname": "", "districtcode": "105", "ulbname": "Weir", "ulbcode": "800500", "wardname": "Ward 23", "wardcode": "23", "id": null, "status": "APPROVED", "misglobalid": null, "approved_by": null, "createdate": 1645755031000, "updateddate": 1645757200000, "globalid": null, "gisglobalid": "PsQPdsld-PnmR-PBdB-Ql56-assBsao6QlKc", "remark": "", "st_area(shape)": 6.127033748514064e-06, "st_perimeter(shape)": 0.01192838586749275}}, {"type": "Feature", "geometry": {"type": "Polygon", "coordinates": [[[77.1711, 27.0201], [77.1715, 27.0203], [77.1718, 27.0207], [77.1724, 27.0211], [77.1736, 27.0221], [77.1742, 27.0224], [77.1751, 27.023], [77.1758, 27.0234], [77.1763, 27.0234], [77.1767, 27.0234], [77.1772, 27.0234], [77.1775, 27.0232], [77.1779, 27.0229], [77.1782, 27.0226], [77.1786, 27.0227], [77.1782, 27.0224], [77.1779, 27.022], [77.1775, 27.0216], [77.1773, 27.0216], [77.1761, 27.0218], [77.1756, 27.0216], [77.1752, 27.0214], [77.1747, 27.0211], [77.1745, 27.0207], [77.1744, 27.0201], [77.1744, 27.0196], [77.1744, 27.0192], [77.1744, 27.0189], [77.1721, 27.0198], [77.172, 27.0194], [77.1707, 27.0199], [77.1711, 27.0201]]]}, "properties": {"objectid": 173712, "statename": "Rajasthan", "statecode": "8", "districtname": "", "districtcode": "105", "ulbname": "Weir", "ulbcode": "800500", "wardname": "Ward 24", "wardcode": "24", "id": null, "status": "APPROVED", "misglobalid": null, "approved_by": null, "createdate": 1645755832000, "updateddate": 1645757187000, "globalid": null, "gisglobalid": "dos6aQlK-add6-P6nR-Romd-QQoscdBsPcPc", "remark": "", "st_area(shape)": 1.2460471021320783e-05, "st_perimeter(shape)": 0.020407149178552624}}, {"type": "Feature", "geometry": {"type": "Polygon", "coordinates": [[[77.1725, 27.0213], [77.1724, 27.0212], [77.1725, 27.0214], [77.1726, 27.0216], [77.1726, 27.0219], [77.1726, 27.022], [77.1725, 27.0225], [77.1723, 27.0228], [77.1722, 27.0229], [77.1721, 27.023], [77.1719, 27.0232], [77.1718, 27.0233], [77.1717, 27.0234], [77.1716, 27.0236], [77.1714, 27.0237], [77.1712, 27.0237], [77.1709, 27.0238], [77.1707, 27.0238], [77.1706, 27.0238], [77.1707, 27.0239], [77.1704, 27.0242], [77.17, 27.0246], [77.17, 27.0249], [77.17, 27.0252], [77.1701, 27.0252], [77.1703, 27.0253], [77.1706, 27.0253], [77.1708, 27.0252], [77.1712, 27.0248], [77.1715, 27.0247], [77.1716, 27.0247], [77.1716, 27.025], [77.1715, 27.0253], [77.1717, 27.0253], [77.1718, 27.0254], [77.172, 27.0253], [77.1722, 27.0253], [77.1724, 27.0251], [77.1728, 27.0247], [77.1732, 27.0245], [77.1734, 27.0243], [77.1736, 27.0243], [77.1737, 27.0241], [77.174, 27.024], [77.1743, 27.0239], [77.1746, 27.0237], [77.1749, 27.0236], [77.1753, 27.0235], [77.1756, 27.0234], [77.1758, 27.0234], [77.1754, 27.0232], [77.1751, 27.023], [77.1748, 27.0228], [77.1747, 27.0227], [77.1744, 27.0225], [77.1741, 27.0224], [77.1739, 27.0223], [77.1736, 27.022], [77.1734, 27.0219], [77.1731, 27.0216], [77.1729, 27.0215], [77.1725, 27.0212], [77.1724, 27.0211], [77.1724, 27.0212], [77.1725, 27.0213]]]}, "properties": {"objectid": 175219, "statename": "Rajasthan", "statecode": "8", "districtname": "", "districtcode": "105", "ulbname": "Weir", "ulbcode": "800500", "wardname": "Ward 25", "wardcode": "25", "id": null, "status": "APPROVED", "misglobalid": null, "approved_by": null, "createdate": 1645756294000, "updateddate": 1645757159000, "globalid": null, "gisglobalid": "44Bdc4md-6n5s-PPKn-aBBc-KRsaP4R4aBnK", "remark": "", "st_area(shape)": 9.132393344419619e-06, "st_perimeter(shape)": 0.01698518388219788}}]}
