{"type": "FeatureCollection", "features": [{"type": "Feature", "geometry": {"type": "Polygon", "coordinates": [[[82.9116, 20.4754], [82.9124, 20.4765], [82.9127, 20.4764], [82.9131, 20.4765], [82.9134, 20.4766], [82.9138, 20.4766], [82.9143, 20.4767], [82.9147, 20.4768], [82.9152, 20.4769], [82.9156, 20.4771], [82.9163, 20.4773], [82.9163, 20.4775], [82.917, 20.4775], [82.9174, 20.4774], [82.9184, 20.477], [82.9189, 20.477], [82.92, 20.4766], [82.9166, 20.476], [82.9117, 20.4708], [82.9106, 20.4716], [82.9102, 20.4719], [82.9097, 20.4724], [82.9101, 20.4728], [82.9105, 20.4732], [82.9107, 20.4738], [82.9109, 20.4745], [82.9116, 20.4754]]]}, "properties": {"objectid": 103500, "statename": "Odisha", "statecode": "21", "districtname": "Balangir", "districtcode": "393", "ulbname": "Kantabanji Nac", "ulbcode": "801892", "wardname": "Ward 1", "wardcode": "1", "id": null, "status": "APPROVED", "misglobalid": null, "approved_by": null, "createdate": 1643342475000, "updateddate": 1643343926000, "globalid": null, "gisglobalid": "PKPBla5d-46so-Pm6o-R4m6-Rm6mPs5BKldm", "remark": "", "st_area(shape)": 2.359650097161292e-05, "st_perimeter(shape)": 0.026244379551716292}}, {"type": "Feature", "geometry": {"type": "Polygon", "coordinates": [[[82.9135, 20.4694], [82.9118, 20.4708], [82.913, 20.472], [82.9145, 20.4736], [82.9155, 20.4747], [82.9166, 20.4757], [82.9174, 20.4752], [82.9169, 20.4745], [82.9162, 20.4737], [82.9164, 20.4727], [82.9155, 20.4718], [82.9148, 20.471], [82.9141, 20.4701], [82.9135, 20.4694]]]}, "properties": {"objectid": 103895, "statename": "Odisha", "statecode": "21", "districtname": "Balangir", "districtcode": "393", "ulbname": "Kantabanji Nac", "ulbcode": "801892", "wardname": "Ward 2", "wardcode": "2", "id": null, "status": "APPROVED", "misglobalid": null, "approved_by": null, "createdate": 1643344484000, "updateddate": 1643344537000, "globalid": null, "gisglobalid": "olodmQPn-4lcc-PRlR-aod4-Baa4no4Balll", "remark": "", "st_area(shape)": 1.2148331413437417e-05, "st_perimeter(shape)": 0.017400308686817165}}, {"type": "Feature", "geometry": {"type": "Polygon", "coordinates": [[[82.9135, 20.4694], [82.9118, 20.4708], [82.913, 20.472], [82.9145, 20.4736], [82.9155, 20.4747], [82.9166, 20.4757], [82.9174, 20.4752], [82.9169, 20.4745], [82.9162, 20.4737], [82.9164, 20.4727], [82.9155, 20.4718], [82.9148, 20.471], [82.9141, 20.4701], [82.9135, 20.4694]]]}, "properties": {"objectid": 103501, "statename": "Odisha", "statecode": "21", "districtname": "Balangir", "districtcode": "393", "ulbname": "Kantabanji Nac", "ulbcode": "801892", "wardname": "Ward 3", "wardcode": "3", "id": null, "status": "APPROVED", "misglobalid": null, "approved_by": null, "createdate": 1643344246000, "updateddate": 1643344269000, "globalid": null, "gisglobalid": "cdPaKBnn-5aBs-PPRo-R45Q-nlmc5mKdK6dP", "remark": "", "st_area(shape)": 1.2148331413437417e-05, "st_perimeter(shape)": 0.017400308686817165}}, {"type": "Feature", "geometry": {"type": "Polygon", "coordinates": [[[82.9175, 20.4752], [82.9167, 20.4759], [82.9175, 20.4761], [82.9182, 20.4762], [82.9192, 20.4764], [82.9201, 20.4765], [82.9203, 20.4766], [82.9209, 20.4767], [82.9218, 20.4768], [82.922, 20.4759], [82.9221, 20.4753], [82.9216, 20.4748], [82.9214, 20.4735], [82.9213, 20.4723], [82.9212, 20.4708], [82.9204, 20.4695], [82.92, 20.4685], [82.9196, 20.4676], [82.9179, 20.4682], [82.9168, 20.4687], [82.9159, 20.4691], [82.9164, 20.4705], [82.9175, 20.4724], [82.9165, 20.4727], [82.9163, 20.4736], [82.9165, 20.4741], [82.9171, 20.4746], [82.9175, 20.4752]]]}, "properties": {"objectid": 103097, "statename": "Odisha", "statecode": "21", "districtname": "Balangir", "districtcode": "393", "ulbname": "Kantabanji Nac", "ulbcode": "801892", "wardname": "Ward 4", "wardcode": "4", "id": null, "status": "APPROVED", "misglobalid": null, "approved_by": null, "createdate": 1643462439000, "updateddate": 1643462454000, "globalid": null, "gisglobalid": "lBaRa5Ra-KlB4-Plas-sdc4-sPo6m5sRalmn", "remark": "", "st_area(shape)": 3.677327895310903e-05, "st_perimeter(shape)": 0.02773745727191042}}, {"type": "Feature", "geometry": {"type": "Polygon", "coordinates": [[[82.9222, 20.4753], [82.922, 20.4767], [82.9234, 20.4769], [82.925, 20.4773], [82.926, 20.4766], [82.927, 20.4763], [82.9267, 20.4749], [82.9263, 20.4733], [82.9263, 20.4718], [82.926, 20.4709], [82.9256, 20.4699], [82.9253, 20.4692], [82.9248, 20.468], [82.9238, 20.468], [82.9222, 20.4685], [82.9208, 20.4689], [82.9203, 20.4691], [82.9209, 20.4703], [82.9214, 20.4708], [82.9214, 20.4721], [82.9215, 20.4735], [82.9217, 20.4746], [82.9222, 20.4753]]]}, "properties": {"objectid": 105888, "statename": "Odisha", "statecode": "21", "districtname": "Balangir", "districtcode": "393", "ulbname": "Kantabanji Nac", "ulbcode": "801892", "wardname": "Ward 5", "wardcode": "5", "id": null, "status": "APPROVED", "misglobalid": null, "approved_by": null, "createdate": 1643342998000, "updateddate": 1643343948000, "globalid": null, "gisglobalid": "lomdldBn-olB5-Pldm-QadK-lm4BK5nmKc5s", "remark": "", "st_area(shape)": 4.0660106652246876e-05, "st_perimeter(shape)": 0.026701897431062913}}, {"type": "Feature", "geometry": {"type": "Polygon", "coordinates": [[[82.9268, 20.475], [82.927, 20.4762], [82.9274, 20.476], [82.9278, 20.4756], [82.9283, 20.475], [82.9287, 20.4746], [82.9287, 20.4744], [82.9288, 20.4742], [82.9289, 20.4738], [82.9291, 20.4735], [82.9293, 20.4727], [82.9294, 20.4724], [82.9297, 20.4721], [82.9297, 20.4709], [82.9297, 20.4699], [82.9298, 20.4691], [82.9297, 20.4683], [82.9296, 20.4671], [82.9286, 20.4671], [82.9275, 20.4672], [82.9267, 20.4673], [82.9257, 20.4673], [82.9242, 20.4667], [82.9248, 20.4676], [82.925, 20.4683], [82.9253, 20.4689], [82.9257, 20.47], [82.9261, 20.4711], [82.9264, 20.4718], [82.9265, 20.4731], [82.9268, 20.475]]]}, "properties": {"objectid": 106288, "statename": "Odisha", "statecode": "21", "districtname": "Balangir", "districtcode": "393", "ulbname": "Kantabanji Nac", "ulbcode": "801892", "wardname": "Ward 6", "wardcode": "6", "id": null, "status": "APPROVED", "misglobalid": null, "approved_by": null, "createdate": 1643343052000, "updateddate": 1643343959000, "globalid": null, "gisglobalid": "Bcmnanla-QKol-PnlQ-QcmR-ooBP6QRnlodc", "remark": "", "st_area(shape)": 2.8516464456263027e-05, "st_perimeter(shape)": 0.025701508334449147}}, {"type": "Feature", "geometry": {"type": "Polygon", "coordinates": [[[82.9208, 20.464], [82.9202, 20.4643], [82.9205, 20.4646], [82.9209, 20.4646], [82.9214, 20.4646], [82.9217, 20.4646], [82.9219, 20.4646], [82.9226, 20.4645], [82.923, 20.4647], [82.9231, 20.465], [82.9233, 20.4652], [82.924, 20.4651], [82.9245, 20.4652], [82.9241, 20.4666], [82.9242, 20.4667], [82.9248, 20.4669], [82.9254, 20.4671], [82.9256, 20.4672], [82.9263, 20.4673], [82.9267, 20.4673], [82.9276, 20.4672], [82.9285, 20.4671], [82.9291, 20.467], [82.9295, 20.467], [82.9298, 20.467], [82.9298, 20.4665], [82.9298, 20.4659], [82.9298, 20.4652], [82.9296, 20.4648], [82.9296, 20.4646], [82.9292, 20.464], [82.9289, 20.4633], [82.9281, 20.4624], [82.9277, 20.4621], [82.9274, 20.4618], [82.9269, 20.4616], [82.9267, 20.4613], [82.9264, 20.4614], [82.9261, 20.4616], [82.9256, 20.4617], [82.9251, 20.4614], [82.9249, 20.4614], [82.9246, 20.4614], [82.9244, 20.4618], [82.9218, 20.4634], [82.9208, 20.464]]]}, "properties": {"objectid": 106688, "statename": "Odisha", "statecode": "21", "districtname": "Balangir", "districtcode": "393", "ulbname": "Kantabanji Nac", "ulbcode": "801892", "wardname": "Ward 7", "wardcode": "7", "id": null, "status": "APPROVED", "misglobalid": null, "approved_by": null, "createdate": 1643343114000, "updateddate": 1643343970000, "globalid": null, "gisglobalid": "6PPam5dl-clm5-Pdn4-an5Q-BPsm4csd6PB4", "remark": "", "st_area(shape)": 3.350720246294563e-05, "st_perimeter(shape)": 0.02640616923627806}}, {"type": "Feature", "geometry": {"type": "Polygon", "coordinates": [[[82.9192, 20.4674], [82.9193, 20.4676], [82.9195, 20.4676], [82.9196, 20.4675], [82.9197, 20.4677], [82.9199, 20.4681], [82.9203, 20.4691], [82.9207, 20.4689], [82.9213, 20.4687], [82.9218, 20.4685], [82.9222, 20.4685], [82.9233, 20.4681], [82.9238, 20.4679], [82.9244, 20.4679], [82.9248, 20.4679], [82.9241, 20.4667], [82.9235, 20.4668], [82.923, 20.4669], [82.9227, 20.4665], [82.9226, 20.4663], [82.9221, 20.4663], [82.9214, 20.4663], [82.921, 20.4664], [82.9204, 20.4667], [82.92, 20.4669], [82.9196, 20.4671], [82.9191, 20.4672], [82.9192, 20.4674]]]}, "properties": {"objectid": 107088, "statename": "Odisha", "statecode": "21", "districtname": "Balangir", "districtcode": "393", "ulbname": "Kantabanji Nac", "ulbcode": "801892", "wardname": "Ward 8", "wardcode": "8", "id": null, "status": "APPROVED", "misglobalid": null, "approved_by": null, "createdate": 1643343197000, "updateddate": 1643343980000, "globalid": null, "gisglobalid": "n66nB6Rn-al4o-PmoR-Radl-PKlKmKosK6RQ", "remark": "", "st_area(shape)": 8.736399771397308e-06, "st_perimeter(shape)": 0.014016460045159674}}, {"type": "Feature", "geometry": {"type": "Polygon", "coordinates": [[[82.9189, 20.4668], [82.9191, 20.4672], [82.92, 20.4669], [82.9205, 20.4666], [82.921, 20.4664], [82.9217, 20.4662], [82.9226, 20.4662], [82.923, 20.4666], [82.923, 20.4668], [82.924, 20.4666], [82.9242, 20.4661], [82.9244, 20.4652], [82.924, 20.4651], [82.9233, 20.4652], [82.9231, 20.465], [82.9229, 20.4647], [82.9225, 20.4645], [82.922, 20.4646], [82.9214, 20.4646], [82.921, 20.4646], [82.9205, 20.4646], [82.9203, 20.4645], [82.9202, 20.4643], [82.9199, 20.4646], [82.92, 20.465], [82.9201, 20.4654], [82.9201, 20.4656], [82.9199, 20.4657], [82.9195, 20.4657], [82.9192, 20.4658], [82.9191, 20.4658], [82.9188, 20.4659], [82.9186, 20.4661], [82.9187, 20.4663], [82.9189, 20.4668]]]}, "properties": {"objectid": 107488, "statename": "Odisha", "statecode": "21", "districtname": "Balangir", "districtcode": "393", "ulbname": "Kantabanji Nac", "ulbcode": "801892", "wardname": "Ward 9", "wardcode": "9", "id": null, "status": "APPROVED", "misglobalid": null, "approved_by": null, "createdate": 1643343239000, "updateddate": 1643343990000, "globalid": null, "gisglobalid": "csoKcnoK-65ls-P645-ss5s-mRKoamlnmoQn", "remark": "", "st_area(shape)": 8.924477817606624e-06, "st_perimeter(shape)": 0.015878253568594864}}, {"type": "Feature", "geometry": {"type": "Polygon", "coordinates": [[[82.9139, 20.4697], [82.9158, 20.469], [82.9168, 20.4687], [82.9175, 20.4683], [82.9193, 20.4676], [82.919, 20.4672], [82.9187, 20.4663], [82.9186, 20.4661], [82.9188, 20.4658], [82.919, 20.4658], [82.9193, 20.4657], [82.9196, 20.4656], [82.9201, 20.4656], [82.9198, 20.4647], [82.9186, 20.4654], [82.918, 20.4658], [82.9171, 20.4663], [82.916, 20.4672], [82.9148, 20.4681], [82.9141, 20.4687], [82.9136, 20.4692], [82.9139, 20.4697]]]}, "properties": {"objectid": 105488, "statename": "Odisha", "statecode": "21", "districtname": "Balangir", "districtcode": "393", "ulbname": "Kantabanji Nac", "ulbcode": "801892", "wardname": "Ward 10", "wardcode": "10", "id": null, "status": "APPROVED", "misglobalid": null, "approved_by": null, "createdate": 1643342940000, "updateddate": 1643344002000, "globalid": null, "gisglobalid": "o6moo6c5-dlcQ-Po5d-alns-sR55KRsKa5B6", "remark": "", "st_area(shape)": 9.964690467977454e-06, "st_perimeter(shape)": 0.018361099132863802}}, {"type": "Feature", "geometry": {"type": "Polygon", "coordinates": [[[82.9236, 20.4622], [82.9242, 20.4617], [82.924, 20.4616], [82.9236, 20.4614], [82.923, 20.4614], [82.9225, 20.4616], [82.922, 20.4618], [82.9212, 20.4619], [82.9204, 20.4619], [82.919, 20.4623], [82.919, 20.4628], [82.9192, 20.4634], [82.9196, 20.4643], [82.9198, 20.4645], [82.9206, 20.464], [82.922, 20.4631], [82.9236, 20.4622]]]}, "properties": {"objectid": 107089, "statename": "Odisha", "statecode": "21", "districtname": "Balangir", "districtcode": "393", "ulbname": "Kantabanji Nac", "ulbcode": "801892", "wardname": "Ward 11", "wardcode": "11", "id": null, "status": "APPROVED", "misglobalid": null, "approved_by": null, "createdate": 1643343283000, "updateddate": 1643344012000, "globalid": null, "gisglobalid": "4QnBQPRl-loBQ-P6nP-ac6a-Qooc6aacm5oo", "remark": "", "st_area(shape)": 7.567579164639825e-06, "st_perimeter(shape)": 0.013101027841117935}}, {"type": "Feature", "geometry": {"type": "Polygon", "coordinates": [[[82.9183, 20.4655], [82.9197, 20.4646], [82.9194, 20.4642], [82.9191, 20.4635], [82.9189, 20.4629], [82.9189, 20.4623], [82.9186, 20.4624], [82.9182, 20.4624], [82.9176, 20.4625], [82.9169, 20.4627], [82.9159, 20.4627], [82.9154, 20.4627], [82.9152, 20.4631], [82.9152, 20.4635], [82.9156, 20.4637], [82.9161, 20.4643], [82.9162, 20.4644], [82.9166, 20.465], [82.9168, 20.4656], [82.9171, 20.4662], [82.9183, 20.4655]]]}, "properties": {"objectid": 107090, "statename": "Odisha", "statecode": "21", "districtname": "Balangir", "districtcode": "393", "ulbname": "Kantabanji Nac", "ulbcode": "801892", "wardname": "Ward 12", "wardcode": "12", "id": null, "status": "APPROVED", "misglobalid": null, "approved_by": null, "createdate": 1643343325000, "updateddate": 1643344024000, "globalid": null, "gisglobalid": "lQm55R6l-RcQP-PQ6K-Rolc-KmBd6Qm4BPd4", "remark": "", "st_area(shape)": 9.926830736935855e-06, "st_perimeter(shape)": 0.013354502341107811}}, {"type": "Feature", "geometry": {"type": "Polygon", "coordinates": [[[82.916, 20.4671], [82.917, 20.4663], [82.9167, 20.4656], [82.9164, 20.4647], [82.9162, 20.4645], [82.9161, 20.4644], [82.9161, 20.4646], [82.9158, 20.4647], [82.9156, 20.4647], [82.9154, 20.4648], [82.9152, 20.4649], [82.915, 20.4651], [82.9149, 20.4653], [82.9148, 20.4655], [82.9144, 20.4658], [82.9139, 20.466], [82.9137, 20.4665], [82.9136, 20.4669], [82.9138, 20.4674], [82.914, 20.468], [82.9142, 20.4682], [82.9143, 20.4684], [82.9149, 20.468], [82.916, 20.4671]]]}, "properties": {"objectid": 107091, "statename": "Odisha", "statecode": "21", "districtname": "Balangir", "districtcode": "393", "ulbname": "Kantabanji Nac", "ulbcode": "801892", "wardname": "Ward 13", "wardcode": "13", "id": null, "status": "APPROVED", "misglobalid": null, "approved_by": null, "createdate": 1643343370000, "updateddate": 1643344035000, "globalid": null, "gisglobalid": "oP66sQld-R6dB-PddR-s6aK-sBQQomsQnnlm", "remark": "", "st_area(shape)": 7.33099987649165e-06, "st_perimeter(shape)": 0.011102613334451034}}, {"type": "Feature", "geometry": {"type": "Polygon", "coordinates": [[[82.9031, 20.4758], [82.9029, 20.4764], [82.9042, 20.4753], [82.9065, 20.4732], [82.9086, 20.4713], [82.9131, 20.4674], [82.9133, 20.4673], [82.9136, 20.4672], [82.9136, 20.467], [82.9135, 20.4668], [82.9133, 20.467], [82.9132, 20.4671], [82.913, 20.4671], [82.9126, 20.4671], [82.9124, 20.467], [82.9123, 20.4669], [82.9122, 20.4668], [82.9121, 20.4667], [82.9121, 20.4666], [82.9119, 20.4664], [82.9116, 20.4665], [82.9109, 20.4666], [82.9105, 20.4669], [82.9103, 20.4673], [82.9101, 20.4674], [82.9099, 20.4675], [82.9096, 20.4675], [82.9081, 20.4676], [82.9076, 20.4677], [82.9074, 20.4678], [82.9068, 20.4679], [82.9066, 20.4682], [82.9062, 20.4685], [82.906, 20.4686], [82.9057, 20.4687], [82.9055, 20.4687], [82.9054, 20.4687], [82.9053, 20.4691], [82.9051, 20.4692], [82.9049, 20.4693], [82.9048, 20.4698], [82.9048, 20.4703], [82.9048, 20.4709], [82.9048, 20.4714], [82.905, 20.4721], [82.9049, 20.4723], [82.9049, 20.4724], [82.9047, 20.4729], [82.9045, 20.4731], [82.9041, 20.4738], [82.9038, 20.4742], [82.9034, 20.4751], [82.9032, 20.4755], [82.9031, 20.4758]]]}, "properties": {"objectid": 107489, "statename": "Odisha", "statecode": "21", "districtname": "Balangir", "districtcode": "393", "ulbname": "Kantabanji Nac", "ulbcode": "801892", "wardname": "Ward 14", "wardcode": "14", "id": null, "status": "APPROVED", "misglobalid": null, "approved_by": null, "createdate": 1643343454000, "updateddate": 1643344046000, "globalid": null, "gisglobalid": "ca4KPQQR-B4dB-Pamo-aBPs-sdodBoRn446m", "remark": "", "st_area(shape)": 3.106490602538109e-05, "st_perimeter(shape)": 0.0322006528279384}}, {"type": "Feature", "geometry": {"type": "Polygon", "coordinates": [[[82.9132, 20.4695], [82.9143, 20.4685], [82.9141, 20.4681], [82.9139, 20.4678], [82.9138, 20.4676], [82.9138, 20.4674], [82.9137, 20.4673], [82.9136, 20.4672], [82.9135, 20.4673], [82.9133, 20.4673], [82.9029, 20.4765], [82.9029, 20.4767], [82.903, 20.4771], [82.9031, 20.4772], [82.9032, 20.4773], [82.9033, 20.4774], [82.9035, 20.4775], [82.9037, 20.4772], [82.9036, 20.4771], [82.9041, 20.4767], [82.9047, 20.4763], [82.9055, 20.4756], [82.906, 20.4753], [82.9074, 20.4742], [82.9092, 20.4728], [82.9103, 20.4717], [82.9116, 20.4708], [82.9132, 20.4695]]]}, "properties": {"objectid": 107092, "statename": "Odisha", "statecode": "21", "districtname": "Balangir", "districtcode": "393", "ulbname": "Kantabanji Nac", "ulbcode": "801892", "wardname": "Ward 15", "wardcode": "15", "id": null, "status": "APPROVED", "misglobalid": null, "approved_by": null, "createdate": 1643343412000, "updateddate": 1643344058000, "globalid": null, "gisglobalid": "RRKsn4dc-oK6R-PoQl-aK5o-RnlBddaBPnPa", "remark": "", "st_area(shape)": 1.8586007971298837e-05, "st_perimeter(shape)": 0.031155564660021135}}, {"type": "Feature", "geometry": {"type": "Polygon", "coordinates": [[[82.905, 20.4761], [82.9037, 20.4771], [82.9042, 20.4771], [82.9044, 20.4771], [82.9046, 20.4771], [82.9047, 20.4771], [82.9052, 20.4773], [82.9053, 20.4774], [82.906, 20.4775], [82.9065, 20.4774], [82.9068, 20.4774], [82.9071, 20.4774], [82.9072, 20.4776], [82.9081, 20.4776], [82.9085, 20.4774], [82.9088, 20.4771], [82.9092, 20.477], [82.9095, 20.477], [82.9098, 20.4773], [82.9103, 20.4773], [82.9108, 20.4775], [82.9111, 20.4775], [82.9119, 20.4775], [82.9123, 20.4775], [82.9124, 20.4766], [82.9111, 20.4751], [82.9108, 20.4745], [82.9105, 20.4735], [82.9096, 20.4726], [82.9069, 20.4746], [82.905, 20.4761]]]}, "properties": {"objectid": 103499, "statename": "Odisha", "statecode": "21", "districtname": "Balangir", "districtcode": "393", "ulbname": "Kantabanji Nac", "ulbcode": "801892", "wardname": "Ward 16", "wardcode": "16", "id": null, "status": "APPROVED", "misglobalid": null, "approved_by": null, "createdate": 1643338265000, "updateddate": 1643342247000, "globalid": null, "gisglobalid": "nKPoQmKm-m4d4-Pdo5-Rsdo-doPBaa4KKnBl", "remark": "", "st_area(shape)": 2.2317069240322358e-05, "st_perimeter(shape)": 0.022376196608147932}}]}
