{"type":"Topology","arcs":[[[39886,64053],[-29345,-2432],[-10541,15405],[10256,20541],[16809,2432],[22792,-22702],[-9971,-13244]],[[67236,54594],[22792,24054],[6267,-19730],[-9971,-12973],[-19088,8649]],[[30199,44324],[-24786,-270]],[[5413,44054],[24786,270]],[[5413,44054],[33048,-10000]],[[38461,34054],[19658,-7568]],[[58119,26486],[-26495,-12162],[-26211,29730]],[[77492,27027],[-13390,2432]],[[64102,29459],[13390,-2432]],[[77492,27027],[-855,-6757],[285,-8108],[3134,-5405],[570,-4325],[-2849,-1621],[-9117,-811],[-25640,2973],[15099,23513]],[[58119,26486],[5983,2973]],[[64102,29459],[13390,-2432]],[[80056,1622],[570,4324],[-3419,5405],[0,3514],[0,6216],[1994,12162],[1995,3243],[13105,-2973],[5698,-30000],[-19943,-1891]]],"transform":{"scale":[3.5100351003509944e-7,3.7000370003699076e-7],"translate":[78.1652,25.159500000000005]},"objects":{"wards":{"type":"GeometryCollection","geometries":[{"arcs":[[0]],"type":"Polygon","properties":{"objectid":34543,"statename":"Madhya Pradesh","statecode":"23","districtname":null,"districtcode":"423","ulbname":"Pichhor","ulbcode":"802117","wardname":"","wardcode":"1","id":null,"status":"APPROVED","misglobalid":null,"approved_by":"ULB Nodal Officer","createdate":1636357087000,"updateddate":1636357194000,"globalid":"5cmKsRsd-5dQa-Pl44-aa6Q-BQPoslKKcmoP","gisglobalid":"0c9fc325-4198-4fb4-842a-81d65b8a1025","remark":"","st_area(shape)":0.00017199123431944772,"st_perimeter(shape)":0.05166010956028748}},{"type":null,"properties":{"objectid":34340,"statename":"Madhya Pradesh","statecode":"23","districtname":null,"districtcode":"423","ulbname":"Pichhor","ulbcode":"802117","wardname":"","wardcode":"2","id":null,"status":"APPROVED","misglobalid":null,"approved_by":"ULB Nodal Officer","createdate":1636357087000,"updateddate":1636357203000,"globalid":"BRQllRma-dQKB-PodK-a4RQ-4KKKolcsnRBB","gisglobalid":"13f2e261-52ef-4600-b894-3ea6511fbe54","remark":"","st_area(shape)":0.00006420254490646054,"st_perimeter(shape)":0.038117372205106186}},{"type":null,"properties":{"objectid":32664,"statename":"Madhya Pradesh","statecode":"23","districtname":null,"districtcode":"423","ulbname":"Pichhor","ulbcode":"802117","wardname":"","wardcode":"3","id":null,"status":"APPROVED","misglobalid":null,"approved_by":"ULB Nodal Officer","createdate":1636357087000,"updateddate":1636357280000,"globalid":"P6P6m5l4-sn44-PmcQ-R4ao-K5am4RnRKRRa","gisglobalid":"88282fcf-6407-47e0-86a6-89485ef276fd","remark":"","st_area(shape)":0.00005887083405268169,"st_perimeter(shape)":0.03535214740139411}},{"type":null,"properties":{"objectid":33001,"statename":"Madhya Pradesh","statecode":"23","districtname":null,"districtcode":"423","ulbname":"Pichhor","ulbcode":"802117","wardname":"","wardcode":"4","id":null,"status":"APPROVED","misglobalid":null,"approved_by":"ULB Nodal Officer","createdate":1636357087000,"updateddate":1636357226000,"globalid":"amamcRsB-4P5P-Psa4-slKP-R4oPo4Blm6Qm","gisglobalid":"36e91992-d5b3-4df3-973c-279678bbdbed","remark":"","st_area(shape)":0.00006177226618300946,"st_perimeter(shape)":0.036578610347668676}},{"arcs":[[1]],"type":"Polygon","properties":{"objectid":32662,"statename":"Madhya Pradesh","statecode":"23","districtname":null,"districtcode":"423","ulbname":"Pichhor","ulbcode":"802117","wardname":"","wardcode":"5","id":null,"status":"APPROVED","misglobalid":null,"approved_by":"ULB Nodal Officer","createdate":1636357087000,"updateddate":1636357270000,"globalid":"mKlocnQ6-asBo-P5QR-Qoon-l4cl4aR4R4K6","gisglobalid":"e1dbdfc6-03ea-4cc0-9095-c04976f93ce8","remark":"","st_area(shape)":0.000070892584614031,"st_perimeter(shape)":0.03629727420601463}},{"type":null,"properties":{"objectid":34545,"statename":"Madhya Pradesh","statecode":"23","districtname":null,"districtcode":"423","ulbname":"Pichhor","ulbcode":"802117","wardname":"","wardcode":"6","id":null,"status":"APPROVED","misglobalid":null,"approved_by":"ULB Nodal Officer","createdate":1636357087000,"updateddate":1636357198000,"globalid":"lP5RQoBo-osmP-Pa44-R5dd-Kco5RmRacamK","gisglobalid":"8f31efa4-b64f-42ca-b7a4-1177de400aa2","remark":"","st_area(shape)":0.00003321185662023265,"st_perimeter(shape)":0.022233301675524834}},{"type":null,"properties":{"objectid":32302,"statename":"Madhya Pradesh","statecode":"23","districtname":null,"districtcode":"423","ulbname":"Pichhor","ulbcode":"802117","wardname":"","wardcode":"7","id":null,"status":"APPROVED","misglobalid":null,"approved_by":"ULB Nodal Officer","createdate":1636357087000,"updateddate":1636357154000,"globalid":"nR5KKdBc-Bdoo-Pa45-Q6Kd-llKPBmKlB6Rs","gisglobalid":"723d87c0-c1e7-48cb-bfad-b6adac0a79e2","remark":"","st_area(shape)":0.00003842441557249797,"st_perimeter(shape)":0.029044116224180388}},{"type":null,"properties":{"objectid":34546,"statename":"Madhya Pradesh","statecode":"23","districtname":null,"districtcode":"423","ulbname":"Pichhor","ulbcode":"802117","wardname":"","wardcode":"8","id":null,"status":"APPROVED","misglobalid":null,"approved_by":"ULB Nodal Officer","createdate":1636357087000,"updateddate":1636357212000,"globalid":"a4osdaK6-cald-Pasl-RQQc-sQB55dRlPa5Q","gisglobalid":"63b9815a-e25c-4446-b09b-42d737145d45","remark":"","st_area(shape)":0.00005162182427176767,"st_perimeter(shape)":0.02974454919964078}},{"type":null,"properties":{"objectid":34544,"statename":"Madhya Pradesh","statecode":"23","districtname":null,"districtcode":"423","ulbname":"Pichhor","ulbcode":"802117","wardname":"","wardcode":"9","id":null,"status":"APPROVED","misglobalid":null,"approved_by":"ULB Nodal Officer","createdate":1636357087000,"updateddate":1636357185000,"globalid":"R44RnBm6-oll4-Pcnd-sd56-KcoB4mcQsd6Q","gisglobalid":"439ec6fb-efe1-4b1d-ae5d-5e10a5915547","remark":"","st_area(shape)":0.00006487859311448248,"st_perimeter(shape)":0.04341134571366924}},{"type":null,"properties":{"objectid":32661,"statename":"Madhya Pradesh","statecode":"23","districtname":null,"districtcode":"423","ulbname":"Pichhor","ulbcode":"802117","wardname":"","wardcode":"10","id":null,"status":"APPROVED","misglobalid":null,"approved_by":"ULB Nodal Officer","createdate":1636357087000,"updateddate":1636357232000,"globalid":"6BocP44a-KlcK-Pc4Q-sdns-oQKd5BPKcaQP","gisglobalid":"d7e14f5b-e68b-459e-91a2-854ff7fd7d5b","remark":"","st_area(shape)":0.000024822533860160276,"st_perimeter(shape)":0.021217566467366996}},{"arcs":[[2,3]],"type":"Polygon","properties":{"objectid":34342,"statename":"Madhya Pradesh","statecode":"23","districtname":null,"districtcode":"423","ulbname":"Pichhor","ulbcode":"802117","wardname":"","wardcode":"11","id":null,"status":"APPROVED","misglobalid":null,"approved_by":"ULB Nodal Officer","createdate":1636357087000,"updateddate":1636357217000,"globalid":"ds65RRca-oQsB-Pmdc-Ramd-cllPdlas5Bsm","gisglobalid":"faef8b31-a588-459d-9f97-896846018d52","remark":"","st_area(shape)":0.00005243727676563078,"st_perimeter(shape)":0.031761099975758746}},{"arcs":[[4,5,6]],"type":"Polygon","properties":{"objectid":33000,"statename":"Madhya Pradesh","statecode":"23","districtname":null,"districtcode":"423","ulbname":"Pichhor","ulbcode":"802117","wardname":"","wardcode":"12","id":null,"status":"APPROVED","misglobalid":null,"approved_by":"ULB Nodal Officer","createdate":1636357087000,"updateddate":1636357221000,"globalid":"mdQQKs4a-KK6n-PanQ-R45n-BdlsR5mdQBnP","gisglobalid":"5f973783-bc01-4a65-9dc3-cff7768bbccb","remark":"","st_area(shape)":0.00011360051329962806,"st_perimeter(shape)":0.05071040939333132}},{"arcs":[[7,8]],"type":"Polygon","properties":{"objectid":33002,"statename":"Madhya Pradesh","statecode":"23","districtname":null,"districtcode":"423","ulbname":"Pichhor","ulbcode":"802117","wardname":"","wardcode":"13","id":null,"status":"APPROVED","misglobalid":null,"approved_by":"ULB Nodal Officer","createdate":1636357087000,"updateddate":1636357249000,"globalid":"6BaR5cKQ-6445-Plo4-RsKm-lcmcRQRnasal","gisglobalid":"1ba6f0b6-c0d3-45c4-961d-93026b5e44f8","remark":"","st_area(shape)":0.000024845632549098106,"st_perimeter(shape)":0.022149310970542523}},{"arcs":[[9,10,11]],"type":"Polygon","properties":{"objectid":34341,"statename":"Madhya Pradesh","statecode":"23","districtname":null,"districtcode":"423","ulbname":"Pichhor","ulbcode":"802117","wardname":"","wardcode":"14","id":null,"status":"APPROVED","misglobalid":null,"approved_by":"ULB Nodal Officer","createdate":1636357087000,"updateddate":1636357207000,"globalid":"Q5Rsds6s-lmRn-P5dm-QcRK-onQPBdccansR","gisglobalid":"1a004485-5751-436c-a132-60356b52733f","remark":"","st_area(shape)":0.00011577545065510524,"st_perimeter(shape)":0.052511765833742674}},{"arcs":[[12]],"type":"Polygon","properties":{"objectid":32663,"statename":"Madhya Pradesh","statecode":"23","districtname":null,"districtcode":"423","ulbname":"Pichhor","ulbcode":"802117","wardname":"","wardcode":"15","id":null,"status":"APPROVED","misglobalid":null,"approved_by":"ULB Nodal Officer","createdate":1636357087000,"updateddate":1636357275000,"globalid":"4KsP4aln-QKBd-PnQc-Rc4n-Kcc4R6c55ln5","gisglobalid":"0a71bcc0-0fda-4251-8558-fe2449804af9","remark":"","st_area(shape)":0.00009006514810474799,"st_perimeter(shape)":0.038748495182013815}}]}}}