{"type":"Topology","arcs":[[[2881,75120],[2373,3531],[-1356,3050],[509,5297],[10508,3210],[1356,2407],[3390,-1284],[4068,5137],[2542,-1124],[2712,4494],[4406,161],[4746,-4013],[-4068,-3852]],[[34067,92134],[-3050,-5297],[-509,-5136],[-2881,-8186]],[[27627,73515],[-3390,-964],[-1864,-3049]],[[22373,69502],[-2204,-2568]],[[20169,66934],[-15932,7865]],[[4237,74799],[-1017,481]],[[3220,75280],[-339,-160]],[[32542,73836],[-4915,-321]],[[34067,92134],[3221,-803],[508,-5297],[-5254,-12198]],[[20000,56019],[-848,-10755],[3560,-3531]],[[22712,41733],[169,-160]],[[22881,41573],[-3390,-7865],[0,-4334]],[[19491,29374],[-1356,-2247],[-3559,3049],[-7966,4174],[509,1123]],[[7119,35473],[3898,963],[2034,2408],[-10848,5939],[2204,3371]],[[4407,48154],[4237,1284]],[[8644,49438],[-339,321]],[[8305,49759],[-3729,3852]],[[4576,53611],[-1356,2087],[-1695,7383],[509,3050],[-2034,4815],[2881,4174]],[[3220,75280],[1017,-481]],[[20169,66934],[-1695,-3211],[-4745,-5297],[6271,-2407]],[[8305,49759],[339,-321]],[[4407,48154],[169,5457]],[[47966,47833],[-6610,-3853],[-7458,-7383]],[[33898,36597],[-4237,2247],[-2543,0],[-4237,2729]],[[22712,41733],[3389,6581],[4916,-1284],[6271,482],[10847,3691],[-169,-3370]],[[19491,29374],[2712,-963],[-3390,-5618]],[[18813,22793],[-2372,-3050]],[[16441,19743],[-1865,-803]],[[14576,18940],[-1864,2408],[-11865,6581],[3221,4976],[3051,2568]],[[46101,29534],[-2373,-4173]],[[43728,25361],[4238,-1605],[-1695,-3050]],[[46271,20706],[-15254,0],[-2034,-4494],[-1865,-161],[-6610,2889]],[[20508,18940],[-1695,3853]],[[33898,36597],[12881,-4976],[-678,-2087]],[[20508,18940],[-4067,803]],[[46271,20706],[1186,-160]],[[47457,20546],[339,0]],[[47796,20546],[2881,0],[848,-5137],[7457,-3531]],[[58982,11878],[-1016,-4013],[-3221,-2247],[-339,-4494],[-14067,4975],[-7458,-963],[-7458,-4333],[-1525,2086],[-11525,5618],[2373,8507],[-170,1926]],[[74745,38041],[8136,-4976],[3220,2248],[5932,-642]],[[92033,34671],[3051,-4334],[847,-4655],[-2881,-5939],[-678,-3692],[-11356,-15088],[-4746,963],[-2033,-1926],[-4746,3692],[-4237,6099],[-6272,2087]],[[47796,20546],[-339,0]],[[43728,25361],[2373,4173]],[[47966,47833],[5762,-2408],[1865,4815]],[[55593,50240],[3389,-2247],[-5593,-7704],[7119,-3853],[2373,-3371],[3051,-1926],[5084,2248],[3729,4654]],[[52542,52808],[2373,161]],[[54915,52969],[678,-2729]],[[20000,56019],[7118,-1124],[14068,-3050],[1864,4013],[7966,-4013],[1526,963]],[[70677,43499],[4068,-5458]],[[54915,52969],[4576,1124]],[[59491,54093],[1695,0]],[[61186,54093],[4576,-7063],[4915,-3531]],[[47627,59550],[5762,-2889],[-847,-3853]],[[22373,69502],[14067,-5939],[11187,-4013]],[[48305,74638],[-1187,-5136],[1356,-4013]],[[48474,65489],[-847,-5939]],[[32542,73836],[7288,-321],[848,1123],[7627,0]],[[48474,65489],[2203,3531],[6102,-3531],[2203,-5136],[339,-3371]],[[59321,56982],[170,-2889]],[[60169,69020],[-1526,-4815],[4407,-2568]],[[63050,61637],[-508,-2890],[-3221,-1765]],[[48305,74638],[7796,161],[-508,-4655],[4576,-1124]],[[65593,59389],[339,-642]],[[65932,58747],[-3729,-802],[678,-2889]],[[62881,55056],[-678,-321]],[[62203,54735],[-509,0]],[[61694,54735],[-339,160]],[[61355,54895],[0,-481]],[[61355,54414],[-169,-321]],[[63050,61637],[2543,-2248]],[[65254,53611],[-2204,1445]],[[63050,55056],[2543,1284]],[[65593,56340],[-339,-2729]],[[63050,55056],[-169,0]],[[65932,58747],[169,-642]],[[66101,58105],[-508,-1765]],[[61186,54093],[169,321]],[[61355,54895],[339,-160]],[[61694,54735],[509,0]],[[65254,53611],[508,-321]],[[65762,53290],[509,-482]],[[66271,52808],[169,0]],[[66440,52808],[3559,-5778],[678,-3531]],[[66440,52808],[1695,3853]],[[68135,56661],[8983,160]],[[77118,56821],[339,0]],[[77457,56821],[16610,-4173]],[[94067,52648],[1695,-4334],[2542,-2408],[-2881,-1926],[-3729,-5939],[339,-3370]],[[66271,52808],[-509,482]],[[66101,58105],[2034,-1444]],[[77457,56821],[-339,0]],[[65593,59389],[4576,1445],[3220,3531]],[[73389,64365],[0,161]],[[73389,64526],[170,0]],[[73559,64526],[5254,963],[6101,-482],[4407,642],[10678,-1765]],[[99999,63884],[-1356,-2247],[-2373,-8186],[-2203,-803]],[[60169,69020],[339,-321]],[[60508,68699],[508,-160]],[[61016,68539],[170,-161]],[[61186,68378],[5254,-2408]],[[66440,65970],[170,-160]],[[66610,65810],[6779,-1284]],[[73559,64526],[-170,-161]],[[66610,65810],[-170,160]],[[61186,68378],[-170,161]],[[60508,68699],[1356,6260],[3898,3692],[7966,-1926],[3220,0],[6780,-1766],[15932,-2247],[339,-8828]]],"transform":{"scale":[5.900059000589756e-7,6.230062300623053e-7],"translate":[76.2792,27.365400000000005]},"objects":{"wards":{"type":"GeometryCollection","geometries":[{"arcs":[[0,1,2,3,4,5,6]],"type":"Polygon","properties":{"objectid":205942,"statename":"Rajasthan","statecode":"8","districtname":"","districtcode":"104","ulbname":"Thanagazi","ulbcode":"900597","wardname":"Ward 1","wardcode":"1","id":null,"status":"APPROVED","misglobalid":null,"approved_by":null,"createdate":1646722023000,"updateddate":1650528009000,"globalid":null,"gisglobalid":"4as4RmKc-RlcR-PnKs-RPKo-mddl55sRlal4","remark":"","st_area(shape)":0.00021878179272392375,"st_perimeter(shape)":0.07488442155077096}},{"arcs":[[7,-2,8]],"type":"Polygon","properties":{"objectid":205551,"statename":"Rajasthan","statecode":"8","districtname":"","districtcode":"104","ulbname":"Thanagazi","ulbcode":"900597","wardname":"Ward 2","wardcode":"2","id":null,"status":"APPROVED","misglobalid":null,"approved_by":null,"createdate":1646722706000,"updateddate":1650528874000,"globalid":null,"gisglobalid":"oQ5aonBB-4n5o-PlPR-aadP-lQlnBPs4ma6l","remark":"","st_area(shape)":0.0000348153980311243,"st_perimeter(shape)":0.03026373571480471}},{"arcs":[[9,10,11,12,13,14,15,16,17,-7,18,-5,19]],"type":"Polygon","properties":{"objectid":205556,"statename":"Rajasthan","statecode":"8","districtname":"","districtcode":"104","ulbname":"Thanagazi","ulbcode":"900597","wardname":"Ward 3","wardcode":"3","id":null,"status":"APPROVED","misglobalid":null,"approved_by":null,"createdate":1646723270000,"updateddate":1650529080000,"globalid":null,"gisglobalid":"PR54Pn5K-sK5K-PalK-aRnB-B6o45Kc4aKdm","remark":"","st_area(shape)":0.00021417980434932878,"st_perimeter(shape)":0.10523131866692335}},{"arcs":[[-17,20,-15,21]],"type":"Polygon","properties":{"objectid":205557,"statename":"Rajasthan","statecode":"8","districtname":"","districtcode":"104","ulbname":"Thanagazi","ulbcode":"900597","wardname":"Ward 4","wardcode":"4","id":null,"status":"APPROVED","misglobalid":null,"approved_by":null,"createdate":1646723298000,"updateddate":1650528702000,"globalid":null,"gisglobalid":"ssasBaan-55Qn-PdmQ-sR44-R5o4RQPPPRdo","remark":"","st_area(shape)":0.000010999416736066922,"st_perimeter(shape)":0.019464864539253526}},{"arcs":[[22,23,-11,24]],"type":"Polygon","properties":{"objectid":205558,"statename":"Rajasthan","statecode":"8","districtname":"","districtcode":"104","ulbname":"Thanagazi","ulbcode":"900597","wardname":"Ward 5","wardcode":"5","id":null,"status":"APPROVED","misglobalid":null,"approved_by":null,"createdate":1646723324000,"updateddate":1650528729000,"globalid":null,"gisglobalid":"nPld4dcn-asca-P5no-Q4Po-Plc5K5cnod6c","remark":"","st_area(shape)":0.00006203615139906284,"st_perimeter(shape)":0.044108652285274656}},{"arcs":[[-13,25,26,27,28]],"type":"Polygon","properties":{"objectid":202309,"statename":"Rajasthan","statecode":"8","districtname":"","districtcode":"104","ulbname":"Thanagazi","ulbcode":"900597","wardname":"Ward 6","wardcode":"6","id":null,"status":"APPROVED","misglobalid":null,"approved_by":null,"createdate":1646723459000,"updateddate":1650529072000,"globalid":null,"gisglobalid":"6BccPocB-oQQa-Pssa-QoP5-4QlPcRodK6da","remark":"","st_area(shape)":0.00005846797441852111,"st_perimeter(shape)":0.043942133542500164}},{"arcs":[[29,30,31,32,-26,-12,-24,33]],"type":"Polygon","properties":{"objectid":205975,"statename":"Rajasthan","statecode":"8","districtname":"Alwar","districtcode":"104","ulbname":"Thanagazi","ulbcode":"900597","wardname":"Ward 7","wardcode":"7","id":null,"status":"APPROVED","misglobalid":null,"approved_by":null,"createdate":1646738210000,"updateddate":1650528829000,"globalid":null,"gisglobalid":"5R5dasBB-PKml-PoKK-Ro44-RmRoQ6nnQ6ll","remark":"","st_area(shape)":0.00016442965961022707,"st_perimeter(shape)":0.06480501946216279}},{"arcs":[[34,-27,-33]],"type":"Polygon","properties":{"objectid":202326,"statename":"Rajasthan","statecode":"8","districtname":"Alwar","districtcode":"104","ulbname":"Thanagazi","ulbcode":"900597","wardname":"Ward 8","wardcode":"8","id":null,"status":"APPROVED","misglobalid":null,"approved_by":null,"createdate":1646738226000,"updateddate":1650528679000,"globalid":null,"gisglobalid":"4nmlRB45-PKQ5-Pc5s-adKc-Pa5RsdKmnsQm","remark":"","st_area(shape)":0.00000414710153176221,"st_perimeter(shape)":0.011645623050042367}},{"arcs":[[35,36,37,38,-28,-35,-32]],"type":"Polygon","properties":{"objectid":205586,"statename":"Rajasthan","statecode":"8","districtname":"Alwar","districtcode":"104","ulbname":"Thanagazi","ulbcode":"900597","wardname":"Ward 9","wardcode":"9","id":null,"status":"APPROVED","misglobalid":null,"approved_by":null,"createdate":1646738246000,"updateddate":1650528670000,"globalid":null,"gisglobalid":"odocdRnl-PPca-PlKn-QaPd-l4aKPBQ4lRn4","remark":"","st_area(shape)":0.00023478176042718442,"st_perimeter(shape)":0.08503786562609411}},{"arcs":[[39,40,-38,41,-36,-31,42,-34,-23,43,44]],"type":"Polygon","properties":{"objectid":205944,"statename":"Rajasthan","statecode":"8","districtname":"","districtcode":"104","ulbname":"Thanagazi","ulbcode":"900597","wardname":"Ward 10","wardcode":"10","id":null,"status":"APPROVED","misglobalid":null,"approved_by":null,"createdate":1646722123000,"updateddate":1650527936000,"globalid":null,"gisglobalid":"Qllsn5R5-Kd5a-PsBQ-Rdo6-Q6Pl45dPc5Ra","remark":"","st_area(shape)":0.0005260190482186873,"st_perimeter(shape)":0.1328092627152707}},{"arcs":[[45,46,-44,-25,-10,47]],"type":"Polygon","properties":{"objectid":205546,"statename":"Rajasthan","statecode":"8","districtname":"","districtcode":"104","ulbname":"Thanagazi","ulbcode":"900597","wardname":"Ward 11","wardcode":"11","id":null,"status":"APPROVED","misglobalid":null,"approved_by":null,"createdate":1646722159000,"updateddate":1650528105000,"globalid":null,"gisglobalid":"RP4QRnoR-Bdno-P6Kn-RQQc-mldlasPnKn45","remark":"","st_area(shape)":0.00008512183846903945,"st_perimeter(shape)":0.0699354885838738}},{"arcs":[[48,-45,-47,49,50,51]],"type":"Polygon","properties":{"objectid":206324,"statename":"Rajasthan","statecode":"8","districtname":"","districtcode":"104","ulbname":"Thanagazi","ulbcode":"900597","wardname":"Ward 12","wardcode":"12","id":null,"status":"APPROVED","misglobalid":null,"approved_by":null,"createdate":1646722289000,"updateddate":1650528941000,"globalid":null,"gisglobalid":"dln4Q6QK-aooQ-Pm5s-RdP5-B6lndPQdmPP5","remark":"","st_area(shape)":0.0000937307995662973,"st_perimeter(shape)":0.044546257193067026}},{"arcs":[[52,-48,-20,-4,53]],"type":"Polygon","properties":{"objectid":205548,"statename":"Rajasthan","statecode":"8","districtname":"","districtcode":"104","ulbname":"Thanagazi","ulbcode":"900597","wardname":"Ward 13","wardcode":"13","id":null,"status":"APPROVED","misglobalid":null,"approved_by":null,"createdate":1646722355000,"updateddate":1650527957000,"globalid":null,"gisglobalid":"6lcln4oa-B6cB-PsBK-aQ6l-BPPmmoPmBQKK","remark":"","st_area(shape)":0.00013110850081015973,"st_perimeter(shape)":0.059339485662836075}},{"arcs":[[54,55,-54,-3,-8,56]],"type":"Polygon","properties":{"objectid":205549,"statename":"Rajasthan","statecode":"8","districtname":"","districtcode":"104","ulbname":"Thanagazi","ulbcode":"900597","wardname":"Ward 14","wardcode":"14","id":null,"status":"APPROVED","misglobalid":null,"approved_by":null,"createdate":1646722421000,"updateddate":1650528060000,"globalid":null,"gisglobalid":"aoRQ66m6-sQlQ-P6Po-Q6d6-cccPm4QPBK46","remark":"","st_area(shape)":0.0000864734433988953,"st_perimeter(shape)":0.044940348387923906}},{"arcs":[[-56,57,58,-50,-46,-53]],"type":"Polygon","properties":{"objectid":205550,"statename":"Rajasthan","statecode":"8","districtname":"","districtcode":"104","ulbname":"Thanagazi","ulbcode":"900597","wardname":"Ward 15","wardcode":"15","id":null,"status":"APPROVED","misglobalid":null,"approved_by":null,"createdate":1646722478000,"updateddate":1650528610000,"globalid":null,"gisglobalid":"ma6sQRKl-cBKc-PQ4Q-QlP5-PPnocKc45Koo","remark":"","st_area(shape)":0.00004478631223288094,"st_perimeter(shape)":0.03024303618521951}},{"arcs":[[59,60,-58,-55,61]],"type":"Polygon","properties":{"objectid":206726,"statename":"Rajasthan","statecode":"8","districtname":"","districtcode":"104","ulbname":"Thanagazi","ulbcode":"900597","wardname":"Ward 16","wardcode":"16","id":null,"status":"APPROVED","misglobalid":null,"approved_by":null,"createdate":1646722563000,"updateddate":1650528894000,"globalid":null,"gisglobalid":"c65K4K5d-d4cn-Plas-QKPa-6ocndnoRPBss","remark":"","st_area(shape)":0.00003836458215565817,"st_perimeter(shape)":0.04142200586567315}},{"arcs":[[62,63,64,65,66,67,68,-51,-59,-61,69]],"type":"Polygon","properties":{"objectid":205949,"statename":"Rajasthan","statecode":"8","districtname":"","districtcode":"104","ulbname":"Thanagazi","ulbcode":"900597","wardname":"Ward 17","wardcode":"17","id":null,"status":"APPROVED","misglobalid":null,"approved_by":null,"createdate":1646722584000,"updateddate":1650528774000,"globalid":null,"gisglobalid":"mdBncB5Q-namn-P5Kn-scRo-RB6csRao5slP","remark":"","st_area(shape)":0.000006287682951141627,"st_perimeter(shape)":0.01684094673666429}},{"arcs":[[70,71,72]],"type":"Polygon","properties":{"objectid":203539,"statename":"Rajasthan","statecode":"8","districtname":"","districtcode":"104","ulbname":"Thanagazi","ulbcode":"900597","wardname":"Ward 18","wardcode":"18","id":null,"status":"APPROVED","misglobalid":null,"approved_by":null,"createdate":1646722728000,"updateddate":1650528794000,"globalid":null,"gisglobalid":"clPPBRd4-dnPn-Pdcc-adQm-nd5cmns6daaP","remark":"","st_area(shape)":0.0000024395814940448465,"st_perimeter(shape)":0.006410934872070087}},{"arcs":[[-72,73,-64,74,75]],"type":"Polygon","properties":{"objectid":203540,"statename":"Rajasthan","statecode":"8","districtname":"","districtcode":"104","ulbname":"Thanagazi","ulbcode":"900597","wardname":"Ward 19","wardcode":"19","id":null,"status":"APPROVED","misglobalid":null,"approved_by":null,"createdate":1646722760000,"updateddate":1650528588000,"globalid":null,"gisglobalid":"dsPlosRQ-QlP6-PcB4-anl4-B4d5lBa4mcRQ","remark":"","st_area(shape)":0.000003053704933853915,"st_perimeter(shape)":0.009500036024567674}},{"arcs":[[-52,76,-68,77,78,-65,-74,-71,79,80,81,82]],"type":"Polygon","properties":{"objectid":205552,"statename":"Rajasthan","statecode":"8","districtname":"","districtcode":"104","ulbname":"Thanagazi","ulbcode":"900597","wardname":"Ward 20","wardcode":"20","id":null,"status":"APPROVED","misglobalid":null,"approved_by":null,"createdate":1646722785000,"updateddate":1650528986000,"globalid":null,"gisglobalid":"6an4sn5B-noBc-Pcan-sd4n-PsPRmKol5Kdm","remark":"","st_area(shape)":0.000013898206786002541,"st_perimeter(shape)":0.020344073297575458}},{"arcs":[[-40,-49,-83,83,84,85,86,87]],"type":"Polygon","properties":{"objectid":205553,"statename":"Rajasthan","statecode":"8","districtname":"","districtcode":"104","ulbname":"Thanagazi","ulbcode":"900597","wardname":"Ward 21","wardcode":"21","id":null,"status":"APPROVED","misglobalid":null,"approved_by":null,"createdate":1646723029000,"updateddate":1650528762000,"globalid":null,"gisglobalid":"6mdls4aK-BmPR-Pd4o-aBKd-nslmaod5o5dl","remark":"","st_area(shape)":0.00017770804076048223,"st_perimeter(shape)":0.057320350068018264}},{"arcs":[[-84,-82,88,-80,-73,-76,89]],"type":"Polygon","properties":{"objectid":203541,"statename":"Rajasthan","statecode":"8","districtname":"","districtcode":"104","ulbname":"Thanagazi","ulbcode":"900597","wardname":"Ward 22","wardcode":"22","id":null,"status":"APPROVED","misglobalid":null,"approved_by":null,"createdate":1646723059000,"updateddate":1650529282000,"globalid":null,"gisglobalid":"mRKaQsdP-Rl5d-PoPc-acRQ-R5KnsRncPsss","remark":"","st_area(shape)":0.0000039462207060114645,"st_perimeter(shape)":0.009430050608524941}},{"arcs":[[90,-85,-90,-75,-63,91,92,93,94,95,-87]],"type":"Polygon","properties":{"objectid":205950,"statename":"Rajasthan","statecode":"8","districtname":"","districtcode":"104","ulbname":"Thanagazi","ulbcode":"900597","wardname":"Ward 23","wardcode":"23","id":null,"status":"APPROVED","misglobalid":null,"approved_by":null,"createdate":1646723087000,"updateddate":1650529347000,"globalid":null,"gisglobalid":"o5oQoa4K-BRnP-PQaB-RsdR-QK54KPs5a44d","remark":"","st_area(shape)":0.00010416230992138299,"st_perimeter(shape)":0.05336659790257063}},{"arcs":[[-93,-92,-70,-60,96,97,98,99,100,101]],"type":"Polygon","properties":{"objectid":205554,"statename":"Rajasthan","statecode":"8","districtname":"","districtcode":"104","ulbname":"Thanagazi","ulbcode":"900597","wardname":"Ward 24","wardcode":"24","id":null,"status":"APPROVED","misglobalid":null,"approved_by":null,"createdate":1646723115000,"updateddate":1650528967000,"globalid":null,"gisglobalid":"madaB5an-6Kas-Pl6R-s54Q-cKsKBsm5K5KR","remark":"","st_area(shape)":0.000024166171386433534,"st_perimeter(shape)":0.024702825049142164}},{"arcs":[[102,92,-102,103,-100,104,-98,105,-95]],"type":"Polygon","properties":{"objectid":205555,"statename":"Rajasthan","statecode":"8","districtname":"","districtcode":"104","ulbname":"Thanagazi","ulbcode":"900597","wardname":"Ward 25","wardcode":"25","id":null,"status":"APPROVED","misglobalid":null,"approved_by":null,"createdate":1646723132000,"updateddate":1650528535000,"globalid":null,"gisglobalid":"soPcd5oa-QKss-PcPB-s5mQ-mRnlBsas4sRo","remark":"","st_area(shape)":0.00014610546978329066,"st_perimeter(shape)":0.060164316096081125}}]}}}