{"type": "FeatureCollection", "features": [{"type": "Feature", "geometry": {"type": "MultiPolygon", "coordinates": [[[[77.6159, 21.6429], [77.6163, 21.6431], [77.6176, 21.6435], [77.6172, 21.6431], [77.6169, 21.6425], [77.6164, 21.6422], [77.6154, 21.6417], [77.6145, 21.6416], [77.6126, 21.641], [77.6117, 21.6426], [77.6111, 21.646], [77.6053, 21.6493], [77.6008, 21.6497], [77.599, 21.6509], [77.5991, 21.6514], [77.6002, 21.652], [77.6009, 21.6523], [77.6012, 21.6528], [77.6025, 21.6525], [77.6032, 21.6518], [77.6032, 21.6515], [77.606, 21.6495], [77.6116, 21.6463], [77.6129, 21.6413], [77.6159, 21.6429]]], [[[77.6159, 21.6429], [77.6166, 21.6434], [77.6188, 21.6447], [77.6193, 21.6449], [77.6196, 21.6473], [77.6197, 21.6485], [77.6192, 21.6487], [77.6186, 21.649], [77.6175, 21.6492], [77.6167, 21.6496], [77.616, 21.6501], [77.6161, 21.651], [77.6169, 21.6508], [77.6167, 21.6498], [77.6174, 21.6495], [77.6176, 21.6493], [77.6187, 21.6492], [77.6192, 21.6488], [77.6198, 21.6486], [77.6193, 21.645], [77.6216, 21.6474], [77.6228, 21.6457], [77.6223, 21.6458], [77.6222, 21.6448], [77.622, 21.6447], [77.6218, 21.6442], [77.624, 21.6436], [77.6233, 21.6437], [77.6226, 21.6439], [77.6217, 21.6441], [77.6208, 21.6442], [77.6206, 21.6442], [77.62, 21.6442], [77.6197, 21.6441], [77.6176, 21.6435], [77.6174, 21.6434], [77.6163, 21.6431], [77.6159, 21.6429]], [[77.6176, 21.6435], [77.6197, 21.6441], [77.6177, 21.6436], [77.6176, 21.6435]]], [[[77.6228, 21.6457], [77.6242, 21.6436], [77.6228, 21.6456], [77.6228, 21.6457]]], [[[77.624, 21.6436], [77.6242, 21.6436], [77.624, 21.6436]]]]}, "properties": {"objectid": 297679, "statename": "Madhya Pradesh", "statecode": "23", "districtname": "Betul", "districtcode": "447", "ulbname": "Bhainsdehi", "ulbcode": "802333", "wardname": "Bhagat Singh Ward", "wardcode": "1", "id": null, "status": "APPROVED", "misglobalid": null, "approved_by": null, "createdate": 1671457055000, "updateddate": 1672903649000, "globalid": null, "gisglobalid": "slB4oa4a-4Bmc-Pnms-and5-d4KsKsomRoBQ", "remark": "Ok", "st_area(shape)": 3.204395974803232e-05, "st_perimeter(shape)": 0.1003093262343311}}, {"type": "Feature", "geometry": {"type": "Polygon", "coordinates": [[[77.6172, 21.6421], [77.6169, 21.6421], [77.617, 21.6425], [77.6172, 21.643], [77.6177, 21.6435], [77.6181, 21.6436], [77.6196, 21.6441], [77.6205, 21.6442], [77.6217, 21.644], [77.6233, 21.6436], [77.6233, 21.6433], [77.6216, 21.6432], [77.6216, 21.6431], [77.6214, 21.6431], [77.6214, 21.6432], [77.621, 21.6431], [77.621, 21.6429], [77.6202, 21.6428], [77.6202, 21.6427], [77.6199, 21.6427], [77.6193, 21.6425], [77.6188, 21.6423], [77.6183, 21.6422], [77.618, 21.6422], [77.6176, 21.6423], [77.6176, 21.6422], [77.6174, 21.6421], [77.6172, 21.6421]]]}, "properties": {"objectid": 297678, "statename": "Madhya Pradesh", "statecode": "23", "districtname": "Betul", "districtcode": "447", "ulbname": "Bhainsdehi", "ulbcode": "802333", "wardname": "Swami Vivekanand  Ward", "wardcode": "2", "id": null, "status": "APPROVED", "misglobalid": null, "approved_by": null, "createdate": 1672905030000, "updateddate": 1672905461000, "globalid": null, "gisglobalid": "lPPdmmo6-BKBB-Plo4-R4oB-l4n4P6sK6BPd", "remark": "Approve", "st_area(shape)": 6.963778494243669e-06, "st_perimeter(shape)": 0.014847639761996576}}, {"type": "Feature", "geometry": {"type": "Polygon", "coordinates": [[[77.6241, 21.6433], [77.6241, 21.643], [77.6218, 21.6422], [77.6211, 21.6421], [77.6211, 21.6424], [77.6202, 21.6422], [77.6202, 21.642], [77.62, 21.642], [77.6199, 21.6421], [77.619, 21.6418], [77.6185, 21.6415], [77.6172, 21.641], [77.6152, 21.64], [77.615, 21.6398], [77.6145, 21.6398], [77.6145, 21.6403], [77.6137, 21.6409], [77.6126, 21.641], [77.6135, 21.6412], [77.6145, 21.6415], [77.6154, 21.6416], [77.6158, 21.6418], [77.6164, 21.6421], [77.6169, 21.6424], [77.6169, 21.6421], [77.6175, 21.6421], [77.6176, 21.6421], [77.6176, 21.6422], [77.6184, 21.6422], [77.6193, 21.6425], [77.6199, 21.6426], [77.6202, 21.6426], [77.6203, 21.6427], [77.621, 21.6429], [77.621, 21.6431], [77.6214, 21.6432], [77.6215, 21.643], [77.6216, 21.6431], [77.6216, 21.6432], [77.6233, 21.6433], [77.6233, 21.6434], [77.6241, 21.6433]]]}, "properties": {"objectid": 297680, "statename": "Madhya Pradesh", "statecode": "23", "districtname": "Betul", "districtcode": "447", "ulbname": "Bhainsdehi", "ulbcode": "802333", "wardname": "Hanuman Ward", "wardcode": "3", "id": null, "status": "APPROVED", "misglobalid": null, "approved_by": null, "createdate": 1672905530000, "updateddate": 1672911716000, "globalid": null, "gisglobalid": "RlPB6Pm5-KanP-PadB-ascl-omPsPoKmd6s5", "remark": "Approve", "st_area(shape)": 9.90528731740947e-06, "st_perimeter(shape)": 0.026554506924139562}}, {"type": "Feature", "geometry": {"type": "Polygon", "coordinates": [[[77.6225, 21.6412], [77.6222, 21.6405], [77.622, 21.6397], [77.6217, 21.6385], [77.6215, 21.638], [77.6214, 21.6378], [77.6209, 21.6375], [77.6206, 21.6376], [77.6203, 21.6377], [77.62, 21.6377], [77.6193, 21.6379], [77.6174, 21.638], [77.6148, 21.6368], [77.6147, 21.6367], [77.6142, 21.6352], [77.6139, 21.6351], [77.6122, 21.6342], [77.6118, 21.6345], [77.6124, 21.635], [77.613, 21.6353], [77.6127, 21.6358], [77.613, 21.6362], [77.6136, 21.6359], [77.6139, 21.636], [77.6143, 21.6363], [77.6144, 21.6369], [77.6147, 21.6368], [77.6173, 21.6383], [77.6176, 21.6383], [77.6178, 21.6385], [77.6182, 21.6387], [77.6187, 21.6388], [77.6195, 21.639], [77.62, 21.6392], [77.6207, 21.6397], [77.621, 21.6399], [77.6213, 21.6402], [77.6217, 21.6405], [77.6221, 21.6408], [77.6224, 21.6411], [77.6225, 21.6412]]]}, "properties": {"objectid": 296931, "statename": "Madhya Pradesh", "statecode": "23", "districtname": "Betul", "districtcode": "447", "ulbname": "Bhainsdehi", "ulbcode": "802333", "wardname": "Dr. Rajendra Prasad Ward", "wardcode": "4", "id": null, "status": "APPROVED", "misglobalid": null, "approved_by": null, "createdate": 1672909781000, "updateddate": 1672911726000, "globalid": null, "gisglobalid": "oaoQKn6B-nldB-Polo-aQ4R-6RPd6Bcd4Rc5", "remark": "Approve", "st_area(shape)": 9.496470221275795e-06, "st_perimeter(shape)": 0.028967705019603926}}, {"type": "Feature", "geometry": {"type": "MultiPolygon", "coordinates": [[[[77.6225, 21.6413], [77.6228, 21.6415], [77.6231, 21.6419], [77.6238, 21.6422], [77.6241, 21.6424], [77.6243, 21.6426], [77.6252, 21.643], [77.6255, 21.6432], [77.6267, 21.6436], [77.628, 21.6441], [77.6281, 21.6441], [77.6282, 21.6441], [77.6285, 21.6441], [77.6287, 21.644], [77.6289, 21.6435], [77.6289, 21.6434], [77.6288, 21.6434], [77.6288, 21.642], [77.6291, 21.6401], [77.6292, 21.6388], [77.6293, 21.6382], [77.629, 21.6382], [77.6286, 21.6402], [77.6283, 21.6401], [77.6283, 21.6402], [77.6286, 21.6403], [77.6286, 21.6404], [77.6286, 21.6408], [77.6282, 21.6407], [77.6282, 21.6409], [77.6279, 21.641], [77.6278, 21.6413], [77.6276, 21.6417], [77.6258, 21.6413], [77.6259, 21.6402], [77.6252, 21.6402], [77.6251, 21.6379], [77.6227, 21.6379], [77.621, 21.6367], [77.6189, 21.6343], [77.6179, 21.6348], [77.6183, 21.6351], [77.6185, 21.6354], [77.6186, 21.6355], [77.6203, 21.6373], [77.6194, 21.6378], [77.62, 21.6377], [77.6203, 21.6377], [77.6206, 21.6376], [77.6209, 21.6375], [77.6214, 21.6378], [77.6218, 21.6384], [77.6221, 21.6399], [77.6225, 21.6413]]], [[[77.6225, 21.6413], [77.6225, 21.6412], [77.6224, 21.6411], [77.6221, 21.6409], [77.6217, 21.6405], [77.6214, 21.6403], [77.621, 21.64], [77.6207, 21.6398], [77.62, 21.6392], [77.6195, 21.639], [77.619, 21.6389], [77.6186, 21.6388], [77.6183, 21.6387], [77.6182, 21.6387], [77.6178, 21.6385], [77.6176, 21.6384], [77.6173, 21.6383], [77.6164, 21.6378], [77.6147, 21.6369], [77.6144, 21.6369], [77.6147, 21.637], [77.6153, 21.6374], [77.6169, 21.6381], [77.6168, 21.6385], [77.6179, 21.6387], [77.6193, 21.6391], [77.6195, 21.6395], [77.6206, 21.6402], [77.6205, 21.6409], [77.622, 21.6412], [77.6219, 21.642], [77.6225, 21.6424], [77.6241, 21.643], [77.6255, 21.6432], [77.6252, 21.643], [77.6247, 21.6428], [77.6243, 21.6425], [77.6241, 21.6424], [77.6238, 21.6422], [77.6231, 21.6419], [77.6228, 21.6415], [77.6225, 21.6413]]]]}, "properties": {"objectid": 296932, "statename": "Madhya Pradesh", "statecode": "23", "districtname": "Betul", "districtcode": "447", "ulbname": "Bhainsdehi", "ulbcode": "802333", "wardname": "Civil Line Ward", "wardcode": "5", "id": null, "status": "APPROVED", "misglobalid": null, "approved_by": null, "createdate": 1672911484000, "updateddate": 1672911736000, "globalid": null, "gisglobalid": "4RQo44ma-cmlQ-PPP4-RRoR-665lac6R4sd6", "remark": "Approve", "st_area(shape)": 3.3156597522747615e-05, "st_perimeter(shape)": 0.07054519239202946}}, {"type": "Feature", "geometry": {"type": "Polygon", "coordinates": [[[77.6303, 21.6461], [77.6304, 21.6458], [77.63, 21.6457], [77.6298, 21.6457], [77.6295, 21.6456], [77.6291, 21.6452], [77.6287, 21.6448], [77.6283, 21.6444], [77.6282, 21.6442], [77.6281, 21.6442], [77.6281, 21.6441], [77.6278, 21.644], [77.6273, 21.6439], [77.6269, 21.6437], [77.6261, 21.6434], [77.6257, 21.6433], [77.6256, 21.6432], [77.6253, 21.6432], [77.6244, 21.6433], [77.6241, 21.6433], [77.6233, 21.6434], [77.6233, 21.6437], [77.6242, 21.6436], [77.6243, 21.6436], [77.6292, 21.6482], [77.6297, 21.6482], [77.6294, 21.6474], [77.6295, 21.6471], [77.6296, 21.6468], [77.6297, 21.6468], [77.63, 21.6468], [77.6301, 21.6463], [77.6302, 21.6463], [77.6303, 21.6461]]]}, "properties": {"objectid": 297978, "statename": "Madhya Pradesh", "statecode": "23", "districtname": "Betul", "districtcode": "447", "ulbname": "Bhainsdehi", "ulbcode": "802333", "wardname": "Durgah Ward", "wardcode": "6", "id": null, "status": "APPROVED", "misglobalid": null, "approved_by": null, "createdate": 1672911533000, "updateddate": 1672911746000, "globalid": null, "gisglobalid": "s46PRdsP-dKoa-PnKR-ascc-aQ4BRPs6QdPc", "remark": "Approve", "st_area(shape)": 1.2328039253475946e-05, "st_perimeter(shape)": 0.019580448096134465}}, {"type": "Feature", "geometry": {"type": "Polygon", "coordinates": [[[77.63, 21.6457], [77.6304, 21.6457], [77.6303, 21.6454], [77.6302, 21.6453], [77.6301, 21.6452], [77.6299, 21.6448], [77.6297, 21.6447], [77.6296, 21.6446], [77.6295, 21.6446], [77.6293, 21.6446], [77.6292, 21.6445], [77.6291, 21.6445], [77.6283, 21.6442], [77.6281, 21.6441], [77.6281, 21.6442], [77.6283, 21.6444], [77.6285, 21.6446], [77.6288, 21.6449], [77.6291, 21.6452], [77.6295, 21.6456], [77.63, 21.6457]]]}, "properties": {"objectid": 297741, "statename": "Madhya Pradesh", "statecode": "23", "districtname": "Betul", "districtcode": "447", "ulbname": "Bhainsdehi", "ulbcode": "802333", "wardname": "Mahaveer  Ward", "wardcode": "7", "id": null, "status": "APPROVED", "misglobalid": null, "approved_by": null, "createdate": 1672909189000, "updateddate": 1672911755000, "globalid": null, "gisglobalid": "snaQBnQ6-Q4R5-P4cQ-Rm4d-aamaB6mQnsBB", "remark": "Approve", "st_area(shape)": 1.3634316235487674e-06, "st_perimeter(shape)": 0.005945200002809333}}, {"type": "Feature", "geometry": {"type": "Polygon", "coordinates": [[[77.6312, 21.6441], [77.6311, 21.6441], [77.6313, 21.6438], [77.6316, 21.6436], [77.6316, 21.6435], [77.6316, 21.6432], [77.6316, 21.6431], [77.6317, 21.643], [77.6318, 21.6429], [77.6319, 21.6428], [77.6312, 21.6422], [77.6297, 21.6418], [77.63, 21.6382], [77.6293, 21.6382], [77.6292, 21.6388], [77.6292, 21.6394], [77.6291, 21.6401], [77.629, 21.641], [77.6288, 21.642], [77.6289, 21.6434], [77.6289, 21.6435], [77.6288, 21.6438], [77.6287, 21.644], [77.6285, 21.6441], [77.6283, 21.6442], [77.6291, 21.6445], [77.6295, 21.6446], [77.6297, 21.6447], [77.63, 21.6448], [77.6302, 21.6447], [77.6303, 21.6446], [77.6306, 21.6446], [77.6308, 21.6446], [77.6309, 21.6446], [77.631, 21.6445], [77.6311, 21.6445], [77.6312, 21.6441]]]}, "properties": {"objectid": 296933, "statename": "Madhya Pradesh", "statecode": "23", "districtname": "Betul", "districtcode": "447", "ulbname": "Bhainsdehi", "ulbcode": "802333", "wardname": "Subhsh Ward", "wardcode": "8", "id": null, "status": "APPROVED", "misglobalid": null, "approved_by": null, "createdate": 1672911582000, "updateddate": 1672911766000, "globalid": null, "gisglobalid": "omnKQnm4-5K5B-P5om-a4cR-QmK6n5PKo4aP", "remark": "Approve", "st_area(shape)": 9.781898278204031e-06, "st_perimeter(shape)": 0.018273651853665706}}, {"type": "Feature", "geometry": {"type": "Polygon", "coordinates": [[[77.6322, 21.6455], [77.6323, 21.6456], [77.6324, 21.6453], [77.6323, 21.6453], [77.6323, 21.6451], [77.6323, 21.6449], [77.6324, 21.6445], [77.632, 21.6444], [77.6312, 21.6441], [77.6312, 21.6445], [77.631, 21.6445], [77.6309, 21.6446], [77.6308, 21.6446], [77.6306, 21.6446], [77.6303, 21.6446], [77.6302, 21.6447], [77.6301, 21.6447], [77.63, 21.6448], [77.63, 21.6449], [77.6301, 21.645], [77.6302, 21.6453], [77.6303, 21.6453], [77.6304, 21.6457], [77.6313, 21.6455], [77.6316, 21.6454], [77.6316, 21.6455], [77.6317, 21.6455], [77.632, 21.6455], [77.6322, 21.6455]]]}, "properties": {"objectid": 298374, "statename": "Madhya Pradesh", "statecode": "23", "districtname": "Betul", "districtcode": "447", "ulbname": "Bhainsdehi", "ulbcode": "802333", "wardname": "Pt. Jawaharlal Nehru Ward", "wardcode": "9", "id": null, "status": "APPROVED", "misglobalid": null, "approved_by": null, "createdate": 1672911434000, "updateddate": 1672911776000, "globalid": null, "gisglobalid": "dac6Q4sa-6on5-PlQa-saRa-l4lnlmPm4mol", "remark": "Approve", "st_area(shape)": 2.3884246412060583e-06, "st_perimeter(shape)": 0.007013870727925805}}, {"type": "Feature", "geometry": {"type": "Polygon", "coordinates": [[[77.6316, 21.6469], [77.6321, 21.647], [77.632, 21.6466], [77.632, 21.6462], [77.6318, 21.6462], [77.6318, 21.646], [77.6317, 21.6459], [77.6317, 21.6458], [77.6315, 21.6458], [77.6314, 21.6457], [77.6313, 21.6455], [77.6309, 21.6456], [77.6304, 21.6458], [77.6303, 21.6461], [77.6302, 21.6463], [77.6303, 21.6464], [77.6308, 21.6466], [77.631, 21.6468], [77.6312, 21.6469], [77.6316, 21.6469]]]}, "properties": {"objectid": 297979, "statename": "Madhya Pradesh", "statecode": "23", "districtname": "Betul", "districtcode": "447", "ulbname": "Bhainsdehi", "ulbcode": "802333", "wardname": "Moulana Azad Ward", "wardcode": "10", "id": null, "status": "APPROVED", "misglobalid": null, "approved_by": null, "createdate": 1672910007000, "updateddate": 1672911789000, "globalid": null, "gisglobalid": "lPalBPBQ-oKQa-PR6P-RlnQ-s5PnaR4nRmdQ", "remark": "Approve", "st_area(shape)": 1.7289775779672265e-06, "st_perimeter(shape)": 0.00547537401119513}}, {"type": "Feature", "geometry": {"type": "Polygon", "coordinates": [[[77.6306, 21.6466], [77.6302, 21.6464], [77.6301, 21.6463], [77.63, 21.6468], [77.6296, 21.6468], [77.6295, 21.6471], [77.6295, 21.6474], [77.6296, 21.6478], [77.6297, 21.6482], [77.6332, 21.6487], [77.6353, 21.651], [77.6355, 21.6507], [77.6357, 21.6501], [77.6352, 21.6495], [77.6351, 21.6492], [77.6343, 21.6482], [77.6338, 21.6478], [77.6335, 21.6475], [77.6333, 21.6472], [77.6331, 21.647], [77.6328, 21.6466], [77.6327, 21.6464], [77.6327, 21.6463], [77.632, 21.6463], [77.6321, 21.647], [77.6316, 21.647], [77.6313, 21.6469], [77.6306, 21.6466]]]}, "properties": {"objectid": 298375, "statename": "Madhya Pradesh", "statecode": "23", "districtname": "Betul", "districtcode": "447", "ulbname": "Bhainsdehi", "ulbcode": "802333", "wardname": "Maa Purna Ward", "wardcode": "11", "id": null, "status": "APPROVED", "misglobalid": null, "approved_by": null, "createdate": 1672903931000, "updateddate": 1672904949000, "globalid": null, "gisglobalid": "lomB4cQ5-6RKs-PcnR-Rldn-co5R445cs5l6", "remark": "Approve", "st_area(shape)": 9.912764371211828e-06, "st_perimeter(shape)": 0.018396440222875652}}, {"type": "Feature", "geometry": {"type": "Polygon", "coordinates": [[[77.6338, 21.6478], [77.6343, 21.6482], [77.6342, 21.6475], [77.6341, 21.6461], [77.6338, 21.6462], [77.633, 21.6462], [77.6331, 21.6456], [77.633, 21.6455], [77.6326, 21.6456], [77.6324, 21.6456], [77.6323, 21.6456], [77.6322, 21.6455], [77.632, 21.6455], [77.6317, 21.6455], [77.6316, 21.6455], [77.6313, 21.6455], [77.6314, 21.6456], [77.6314, 21.6457], [77.6315, 21.6457], [77.6317, 21.6458], [77.6317, 21.6459], [77.6318, 21.646], [77.6318, 21.6462], [77.6327, 21.6462], [77.6327, 21.6464], [77.6328, 21.6466], [77.6333, 21.6472], [77.6338, 21.6478]]]}, "properties": {"objectid": 296934, "statename": "Madhya Pradesh", "statecode": "23", "districtname": "Betul", "districtcode": "447", "ulbname": "Bhainsdehi", "ulbcode": "802333", "wardname": "Mahatma Gandhi Ward", "wardcode": "12", "id": null, "status": "APPROVED", "misglobalid": null, "approved_by": null, "createdate": 1672911392000, "updateddate": 1672911800000, "globalid": null, "gisglobalid": "PdcndQQl-slmc-Posd-QnKs-nsldoac5ocQR", "remark": "Approve", "st_area(shape)": 2.7206925268219572e-06, "st_perimeter(shape)": 0.010057006451033707}}, {"type": "Feature", "geometry": {"type": "Polygon", "coordinates": [[[77.6464, 21.6425], [77.6456, 21.6427], [77.6449, 21.6428], [77.6434, 21.6432], [77.6422, 21.6435], [77.641, 21.6439], [77.6397, 21.6442], [77.6376, 21.6445], [77.6355, 21.6451], [77.6348, 21.6453], [77.6335, 21.6449], [77.6329, 21.6447], [77.6328, 21.645], [77.6327, 21.6452], [77.6325, 21.6453], [77.6324, 21.6453], [77.6323, 21.6456], [77.6324, 21.6456], [77.6326, 21.6456], [77.6328, 21.6456], [77.633, 21.6455], [77.6331, 21.6455], [77.6331, 21.6456], [77.6331, 21.6457], [77.6331, 21.6458], [77.6331, 21.6459], [77.633, 21.6461], [77.633, 21.6462], [77.6334, 21.6462], [77.6338, 21.6462], [77.6341, 21.6461], [77.6343, 21.6475], [77.6343, 21.6482], [77.6348, 21.6488], [77.6351, 21.6492], [77.6352, 21.6495], [77.6358, 21.6501], [77.6384, 21.6497], [77.6386, 21.6495], [77.6386, 21.6493], [77.6385, 21.6492], [77.6383, 21.6491], [77.6379, 21.6493], [77.6374, 21.6496], [77.6371, 21.6499], [77.6368, 21.6499], [77.6363, 21.6499], [77.6361, 21.6493], [77.6358, 21.6483], [77.6357, 21.6476], [77.6367, 21.6475], [77.6379, 21.6473], [77.6378, 21.6468], [77.6381, 21.6458], [77.64, 21.6458], [77.6399, 21.6453], [77.6397, 21.6447], [77.6456, 21.6438], [77.6467, 21.6435], [77.6464, 21.6425]]]}, "properties": {"objectid": 297981, "statename": "Madhya Pradesh", "statecode": "23", "districtname": "Betul", "districtcode": "447", "ulbname": "Bhainsdehi", "ulbcode": "802333", "wardname": "Triveni Ward", "wardcode": "13", "id": null, "status": "APPROVED", "misglobalid": null, "approved_by": null, "createdate": 1672911416000, "updateddate": 1672911812000, "globalid": null, "gisglobalid": "P4lBcdKK-s6ad-Pmlo-Qa6l-QdRaloQla6ld", "remark": "Approve", "st_area(shape)": 2.3567081636864545e-05, "st_perimeter(shape)": 0.04557011449026801}}, {"type": "Feature", "geometry": {"type": "Polygon", "coordinates": [[[77.6338, 21.6432], [77.6321, 21.643], [77.6319, 21.6428], [77.6318, 21.6429], [77.6317, 21.643], [77.6317, 21.6431], [77.6316, 21.6432], [77.6316, 21.6433], [77.6316, 21.6435], [77.6316, 21.6436], [77.6315, 21.6436], [77.6313, 21.6438], [77.6311, 21.6441], [77.6324, 21.6445], [77.6324, 21.6447], [77.6323, 21.6449], [77.6323, 21.6451], [77.6323, 21.6453], [77.6325, 21.6453], [77.6327, 21.6452], [77.6328, 21.645], [77.6329, 21.6447], [77.6335, 21.6449], [77.6338, 21.6432]]]}, "properties": {"objectid": 297980, "statename": "Madhya Pradesh", "statecode": "23", "districtname": "Betul", "districtcode": "447", "ulbname": "Bhainsdehi", "ulbcode": "802333", "wardname": "Ambedkar Ward", "wardcode": "14", "id": null, "status": "APPROVED", "misglobalid": null, "approved_by": null, "createdate": 1672911272000, "updateddate": 1672911826000, "globalid": null, "gisglobalid": "oaQPK5s6-d5so-PddQ-RB4m-6QcoBoQlPs45", "remark": "Approve", "st_area(shape)": 3.6777518778780496e-06, "st_perimeter(shape)": 0.009070787839739934}}, {"type": "Feature", "geometry": {"type": "Polygon", "coordinates": [[[77.636, 21.643], [77.6351, 21.6436], [77.6339, 21.6432], [77.6338, 21.6435], [77.6335, 21.6448], [77.6348, 21.6452], [77.6355, 21.6451], [77.6363, 21.6449], [77.6376, 21.6445], [77.6386, 21.6443], [77.6397, 21.6442], [77.641, 21.6438], [77.6421, 21.6435], [77.6439, 21.6431], [77.6464, 21.6425], [77.6463, 21.6422], [77.6421, 21.6426], [77.6397, 21.6438], [77.6378, 21.6441], [77.6368, 21.6432], [77.636, 21.643]]]}, "properties": {"objectid": 296935, "statename": "Madhya Pradesh", "statecode": "23", "districtname": "Betul", "districtcode": "447", "ulbname": "Bhainsdehi", "ulbcode": "802333", "wardname": "Indira Gandhi Ward", "wardcode": "15", "id": null, "status": "APPROVED", "misglobalid": null, "approved_by": null, "createdate": 1672909739000, "updateddate": 1672911834000, "globalid": null, "gisglobalid": "dsQs6QQs-4l6K-PB6m-Qo5m-aKnBs5R6mmmR", "remark": "Approve", "st_area(shape)": 1.1285784946977535e-05, "st_perimeter(shape)": 0.028570307583810073}}]}
