{"type":"Topology","arcs":[[[50704,64948],[-14789,2062]],[[35915,67010],[-1408,-1031]],[[34507,65979],[-705,3092],[-704,2062],[-2817,4124],[-25351,17526]],[[4930,92783],[704,6185],[60563,1031]],[[66197,99999],[-7747,-12371],[-7746,-22680]],[[39436,56700],[-7042,5155],[2113,5155]],[[34507,67010],[1408,0]],[[50704,64948],[24647,-4124]],[[75351,60824],[-2817,-1031]],[[72534,59793],[-16197,-10309]],[[56337,49484],[-10563,5155]],[[45774,54639],[-6338,2061]],[[66197,99999],[28872,-2062],[3522,-4124],[0,-28865]],[[98591,64948],[-21831,-4124]],[[76760,60824],[-1409,0]],[[45070,30928],[-16901,-30928]],[[28169,0],[-27465,5155],[-704,52576]],[[0,57731],[23239,-11340]],[[23239,46391],[2113,-2062]],[[25352,44329],[7042,-5154]],[[32394,39175],[8451,-1031]],[[40845,38144],[4225,-7216]],[[45774,54639],[-4929,-16495]],[[32394,39175],[7042,17525]],[[34507,65979],[-705,0],[-704,0],[-704,0],[0,1031],[-704,0],[0,-1031],[-4225,-7217]],[[27465,58762],[-1409,-3092]],[[26056,55670],[-2113,-9279]],[[23943,46391],[-704,0]],[[0,57731],[0,28866],[4930,6186]],[[93661,15464],[-37324,34020]],[[72534,59793],[4226,1031]],[[98591,64948],[1408,-38144],[-6338,-11340]],[[34507,65979],[0,1031]],[[25352,44329],[-1409,2062]],[[26056,55670],[1409,3092]],[[56337,49484],[-11267,-18556]],[[93661,15464],[-8451,-14433],[-57041,-1031]]],"transform":{"scale":[1.4200142001422448e-7,9.700097000972271e-8],"translate":[77.672,27.892300000000002]},"objects":{"wards":{"type":"GeometryCollection","geometries":[{"arcs":[[0,1,2,3,4]],"type":"Polygon","properties":{"objectid":253624,"statename":"Uttar Pradesh","statecode":"9","districtname":"Mathura","districtcode":"145","ulbname":"Bajna Np","ulbcode":"800789","wardname":"Gandhi Nagar","wardcode":"1","id":null,"status":"APPROVED","misglobalid":null,"approved_by":null,"createdate":1648670221000,"updateddate":1729505900000,"globalid":null,"gisglobalid":"ssscRKna-aK6a-P5Ka-QKsQ-c4onQKd666Bs","remark":"","st_area(shape)":0.000017281499524428727,"st_perimeter(shape)":0.020885987815823185}},{"arcs":[[5,6,-1,7,8,9,10,11]],"type":"Polygon","properties":{"objectid":257614,"statename":"Uttar Pradesh","statecode":"9","districtname":"Mathura","districtcode":"145","ulbname":"Bajna Np","ulbcode":"800789","wardname":"Arya Nagar","wardcode":"2","id":null,"status":"APPROVED","misglobalid":null,"approved_by":null,"createdate":1648670221000,"updateddate":1731430656000,"globalid":null,"gisglobalid":"QcaQ45R6-lP5c-P6dc-RcPa-4osmPB66KdRK","remark":"Approved","st_area(shape)":0.000005094581220959002,"st_perimeter(shape)":0.013709940400036917}},{"arcs":[[-5,12,13,14,-8]],"type":"Polygon","properties":{"objectid":248866,"statename":"Uttar Pradesh","statecode":"9","districtname":"Mathura","districtcode":"145","ulbname":"Bajna Np","ulbcode":"800789","wardname":"Dauji Nagar","wardcode":"3","id":null,"status":"APPROVED","misglobalid":null,"approved_by":null,"createdate":1648670221000,"updateddate":1731430673000,"globalid":null,"gisglobalid":"sRaclKad-5mld-PBas-Qlno-c4ad46aosQK5","remark":"Approved","st_area(shape)":0.000020636548118510768,"st_perimeter(shape)":0.018726381317403014}},{"arcs":[[15,16,17,18,19,20,21]],"type":"Polygon","properties":{"objectid":256818,"statename":"Uttar Pradesh","statecode":"9","districtname":"Mathura","districtcode":"145","ulbname":"Bajna Np","ulbcode":"800789","wardname":"Shivaji Nagar","wardcode":"4","id":null,"status":"APPROVED","misglobalid":null,"approved_by":null,"createdate":1648670221000,"updateddate":1731430686000,"globalid":null,"gisglobalid":"KmQ6KaPs-KPo4-Pa4a-snaa-Q6noPPB6QdPK","remark":"Approved","st_area(shape)":0.00002397536668890581,"st_perimeter(shape)":0.020065112856661863}},{"arcs":[[22,-21,23,-12]],"type":"Polygon","properties":{"objectid":254876,"statename":"Uttar Pradesh","statecode":"9","districtname":"Mathura","districtcode":"145","ulbname":"Bajna Np","ulbcode":"800789","wardname":"Uperkot","wardcode":"5","id":null,"status":"APPROVED","misglobalid":null,"approved_by":null,"createdate":1648670221000,"updateddate":1731430698000,"globalid":null,"gisglobalid":"dlQcd5cB-KoBa-PBRP-saBB-Q5m6o4Bn56dQ","remark":"Approved","st_area(shape)":0.0000018593063716173412,"st_perimeter(shape)":0.006975221199645436}},{"arcs":[[24,25,26,27,-18,28,-3]],"type":"Polygon","properties":{"objectid":256018,"statename":"Uttar Pradesh","statecode":"9","districtname":"Mathura","districtcode":"145","ulbname":"Bajna Np","ulbcode":"800789","wardname":"Badabazar","wardcode":"6","id":null,"status":"APPROVED","misglobalid":null,"approved_by":null,"createdate":1648670221000,"updateddate":1731430710000,"globalid":null,"gisglobalid":"nKRQl46c-ad5o-PsaB-sP6l-QBaa5cKPPK5c","remark":"Approved","st_area(shape)":0.000013477303184243851,"st_perimeter(shape)":0.015031863541837213}},{"arcs":[[29,-10,30,-14,31]],"type":"Polygon","properties":{"objectid":256421,"statename":"Uttar Pradesh","statecode":"9","districtname":"Mathura","districtcode":"145","ulbname":"Bajna Np","ulbcode":"800789","wardname":"Braj Nagar","wardcode":"7","id":null,"status":"APPROVED","misglobalid":null,"approved_by":null,"createdate":1648670221000,"updateddate":1731430721000,"globalid":null,"gisglobalid":"aQPmBonc-cn4P-PKQQ-acQc-sB6BoQnoRnP5","remark":"Approved","st_area(shape)":0.000018543493653242384,"st_perimeter(shape)":0.01835261861336466}},{"arcs":[[-25,32,-6,-24,-20,33,-27,34]],"type":"Polygon","properties":{"objectid":256422,"statename":"Uttar Pradesh","statecode":"9","districtname":"Mathura","districtcode":"145","ulbname":"Bajna Np","ulbcode":"800789","wardname":"Mahadev Ganj","wardcode":"8","id":null,"status":"APPROVED","misglobalid":null,"approved_by":null,"createdate":1648670221000,"updateddate":1731430731000,"globalid":null,"gisglobalid":"PnlKQKKm-s5sa-Paa6-snlm-c6nKRao6PBc4","remark":"Approved","st_area(shape)":0.0000031813589887584926,"st_perimeter(shape)":0.008558567457839167}},{"arcs":[[-23,-11,35,-22]],"type":"Polygon","properties":{"objectid":257214,"statename":"Uttar Pradesh","statecode":"9","districtname":"Mathura","districtcode":"145","ulbname":"Bajna Np","ulbcode":"800789","wardname":"Rewadpura","wardcode":"9","id":null,"status":"APPROVED","misglobalid":null,"approved_by":null,"createdate":1648670221000,"updateddate":1731430742000,"globalid":null,"gisglobalid":"BRQmsdno-mlaQ-Pnnn-sasR-KsKm5lQ6mlsK","remark":"Approved","st_area(shape)":0.0000026337635568963896,"st_perimeter(shape)":0.00744367033582093}},{"arcs":[[36,-16,-36,-30]],"type":"Polygon","properties":{"objectid":254875,"statename":"Uttar Pradesh","statecode":"9","districtname":"Mathura","districtcode":"145","ulbname":"Bajna Np","ulbcode":"800789","wardname":"Ram Nagar","wardcode":"10","id":null,"status":"APPROVED","misglobalid":null,"approved_by":null,"createdate":1648670221000,"updateddate":1731430753000,"globalid":null,"gisglobalid":"da5QRcP4-dBcP-P5cK-s6PQ-s5K4cdnPdK6d","remark":"Approved","st_area(shape)":0.000025230015202151648,"st_perimeter(shape)":0.0225221345141105}}]}}}