{"type":"Topology","arcs":[[[82161,4431],[-6621,14970]],[[75540,19401],[6486,-2515]],[[82026,16886],[811,-1198]],[[82837,15688],[-676,-11257]],[[77432,35209],[-15135,-9581]],[[62297,25628],[-1487,4551]],[[60810,30179],[946,12934]],[[61756,43113],[135,2036],[271,2515]],[[62162,47664],[4189,839]],[[66351,48503],[2837,-480]],[[69188,48023],[136,360]],[[69324,48383],[810,-3354],[1082,-3952],[2972,-4790]],[[74188,36287],[3244,-1078]],[[61756,43113],[-28513,-3832]],[[33243,39281],[-21486,22754]],[[11757,62035],[31351,3354]],[[43108,65389],[11621,-8743]],[[54729,56646],[7162,-9102]],[[61891,47544],[271,120]],[[60135,64191],[-5406,-7545]],[[43108,65389],[-811,1796]],[[42297,67185],[7567,4072]],[[49864,71257],[10271,-7066]],[[11757,62035],[-11757,18443],[14865,18802]],[[14865,99280],[7837,-28862],[19595,-3233]],[[90405,17006],[-7703,-1078]],[[82702,15928],[-676,958]],[[75540,19401],[7432,14012]],[[82972,33413],[3378,12335]],[[86350,45748],[13649,-12096],[-9594,-16646]],[[60135,64191],[12702,-3952]],[[72837,60239],[-811,-7305]],[[72026,52934],[-2838,-4911]],[[66351,48503],[-4460,-959]],[[82972,33413],[-4459,1437]],[[78513,34850],[-4325,1437]],[[69324,48383],[2702,4551]],[[72026,52934],[14324,-7186]],[[60810,30179],[-27567,9102]],[[52972,77844],[0,-240]],[[52972,77604],[-3108,-6347]],[[14865,99280],[20945,719],[17162,-22155]],[[99999,5629],[-5676,-5629]],[[94323,0],[-12162,4431]],[[82837,15688],[-135,240]],[[90405,17006],[9594,-11377]],[[52972,77604],[27297,-5389]],[[80269,72215],[-7432,-11976]],[[75540,19401],[-13243,6227]],[[77432,35209],[1081,-359]],[[52972,77844],[27297,-5629]],[[99999,5629],[-5676,-5629]]],"transform":{"scale":[7.400074000739815e-7,8.350083500835087e-7],"translate":[81.7443,25.7627]},"objects":{"wards":{"type":"GeometryCollection","geometries":[{"arcs":[[0,1,2,3]],"type":"Polygon","properties":{"objectid":309802,"statename":"UTTAR PRADESH","statecode":"9","districtname":"PRATAPGARH","districtcode":"173","ulbname":"KATRA GULAB SINGH BAZAR (NP)","ulbcode":"901040","wardname":"PURE TORAI","wardcode":"1","id":null,"status":"APPROVED","misglobalid":null,"approved_by":null,"createdate":1729769719000,"updateddate":1730099564000,"globalid":null,"gisglobalid":"KaBo65nc-mPQQ-P65B-a5Ba-4aaRcc6P64sP","remark":"Approve","st_area(shape)":0.00009516466148892228,"st_perimeter(shape)":0.03922491263687188}},{"arcs":[[4,5,6,7,8,9,10,11,12]],"type":"Polygon","properties":{"objectid":308844,"statename":"UTTAR PRADESH","statecode":"9","districtname":"PRATAPGARH","districtcode":"173","ulbname":"KATRA GULAB SINGH BAZAR (NP)","ulbcode":"901040","wardname":"SARAY DEVRAY","wardcode":"2","id":null,"status":"APPROVED","misglobalid":null,"approved_by":null,"createdate":1729769697000,"updateddate":1730099573000,"globalid":null,"gisglobalid":"n4dQP6R4-cKPo-Pclo-an5s-a4s4aodBK6m4","remark":"Approve","st_area(shape)":0.00013645872234086776,"st_perimeter(shape)":0.053921761404923316}},{"arcs":[[13,14,15,16,17,18,-8]],"type":"Polygon","properties":{"objectid":308842,"statename":"UTTAR PRADESH","statecode":"9","districtname":"PRATAPGARH","districtcode":"173","ulbname":"KATRA GULAB SINGH BAZAR (NP)","ulbcode":"901040","wardname":"SARAY BHUPATI","wardcode":"3","id":null,"status":"APPROVED","misglobalid":null,"approved_by":null,"createdate":1729769410000,"updateddate":1730099583000,"globalid":null,"gisglobalid":"ll6Pnl5s-dsd4-P4ld-sKBn-K5PRKn6Qcona","remark":"Approve","st_area(shape)":0.0005386908052612714,"st_perimeter(shape)":0.09570634579577672}},{"arcs":[[19,-17,20,21,22]],"type":"Polygon","properties":{"objectid":305640,"statename":"UTTAR PRADESH","statecode":"9","districtname":"PRATAPGARH","districtcode":"173","ulbname":"KATRA GULAB SINGH BAZAR (NP)","ulbcode":"901040","wardname":"GAMBHIRA","wardcode":"4","id":null,"status":"APPROVED","misglobalid":null,"approved_by":null,"createdate":1729769144000,"updateddate":1730099593000,"globalid":null,"gisglobalid":"lQQ4ca6P-nK64-PnRa-Qco5-RdnQaoQBBa5R","remark":"Approve","st_area(shape)":0.00007723163085008722,"st_perimeter(shape)":0.03838215029349709}},{"arcs":[[23,24,-21,-16]],"type":"Polygon","properties":{"objectid":309796,"statename":"UTTAR PRADESH","statecode":"9","districtname":"PRATAPGARH","districtcode":"173","ulbname":"KATRA GULAB SINGH BAZAR (NP)","ulbcode":"901040","wardname":"BAGIYAPUR","wardcode":"5","id":null,"status":"APPROVED","misglobalid":null,"approved_by":null,"createdate":1729769125000,"updateddate":1730099602000,"globalid":null,"gisglobalid":"Pcn4scsm-smQB-PlPo-am4R-5oQmPocPmo6c","remark":"Approve","st_area(shape)":0.00040349447535589913,"st_perimeter(shape)":0.10662768606113333}},{"arcs":[[25,26,-2,27,28,29]],"type":"Polygon","properties":{"objectid":309801,"statename":"UTTAR PRADESH","statecode":"9","districtname":"PRATAPGARH","districtcode":"173","ulbname":"KATRA GULAB SINGH BAZAR (NP)","ulbcode":"901040","wardname":"CHATAUNA","wardcode":"6","id":null,"status":"APPROVED","misglobalid":null,"approved_by":null,"createdate":1729769675000,"updateddate":1730099615000,"globalid":null,"gisglobalid":"QaoQmRRc-o44R-PKQP-ans4-6KBc4Qn6Rdnc","remark":"Approve","st_area(shape)":0.00024372691875887347,"st_perimeter(shape)":0.07134176285718292}},{"arcs":[[-20,30,31,32,-10,33,-18]],"type":"Polygon","properties":{"objectid":308843,"statename":"UTTAR PRADESH","statecode":"9","districtname":"PRATAPGARH","districtcode":"173","ulbname":"KATRA GULAB SINGH BAZAR (NP)","ulbcode":"901040","wardname":"JAGDEESHPUR PASCHIMI","wardcode":"7","id":null,"status":"APPROVED","misglobalid":null,"approved_by":null,"createdate":1729769655000,"updateddate":1730099631000,"globalid":null,"gisglobalid":"dn6QQ6as-s64n-Pm5d-QlQo-QaK5P5m6dlBK","remark":"Approve","st_area(shape)":0.000140669401634831,"st_perimeter(shape)":0.048127729804974435}},{"arcs":[[-29,34,35,-12,36,37]],"type":"Polygon","properties":{"objectid":309800,"statename":"UTTAR PRADESH","statecode":"9","districtname":"PRATAPGARH","districtcode":"173","ulbname":"KATRA GULAB SINGH BAZAR (NP)","ulbcode":"901040","wardname":"GOKULA","wardcode":"8","id":null,"status":"APPROVED","misglobalid":null,"approved_by":null,"createdate":1729769637000,"updateddate":1730099646000,"globalid":null,"gisglobalid":"KaodQKPo-455a-PnPc-aP4R-4PQccldcsRs6","remark":"Approve","st_area(shape)":0.00012548706250528158,"st_perimeter(shape)":0.04485113341903289}},{"arcs":[[-14,-7,38]],"type":"Polygon","properties":{"objectid":309799,"statename":"UTTAR PRADESH","statecode":"9","districtname":"PRATAPGARH","districtcode":"173","ulbname":"KATRA GULAB SINGH BAZAR (NP)","ulbcode":"901040","wardname":"KATRA GULAB SINGH BAZAR","wardcode":"9","id":null,"status":"APPROVED","misglobalid":null,"approved_by":null,"createdate":1729769609000,"updateddate":1730099667000,"globalid":null,"gisglobalid":"45RlKKdc-anQs-Pddo-Rocd-nKcP4ndsnldd","remark":"Approve","st_area(shape)":0.00022711255348188087,"st_perimeter(shape)":0.06954673545952715}},{"arcs":[[39,40,-22,-25,41]],"type":"Polygon","properties":{"objectid":310185,"statename":"UTTAR PRADESH","statecode":"9","districtname":"PRATAPGARH","districtcode":"173","ulbname":"KATRA GULAB SINGH BAZAR (NP)","ulbcode":"901040","wardname":"PURE MOTILAL","wardcode":"10","id":null,"status":"APPROVED","misglobalid":null,"approved_by":null,"createdate":1729769485000,"updateddate":1730099676000,"globalid":null,"gisglobalid":"BBlPaKBc-4BBQ-Paml-sQas-l5s4RQKKKdKa","remark":"Approve","st_area(shape)":0.0004803176626714598,"st_perimeter(shape)":0.09713449866422481}},{"arcs":[[42,43,-4,44,-26,45]],"type":"Polygon","properties":{"objectid":309798,"statename":"UTTAR PRADESH","statecode":"9","districtname":"PRATAPGARH","districtcode":"173","ulbname":"KATRA GULAB SINGH BAZAR (NP)","ulbcode":"901040","wardname":"GAURA","wardcode":"11","id":null,"status":"APPROVED","misglobalid":null,"approved_by":null,"createdate":1729769390000,"updateddate":1730099695000,"globalid":null,"gisglobalid":"RPQKlBQB-KmcK-PRaB-QmRs-R4dK6R65QRlR","remark":"Approve","st_area(shape)":0.00011606617559997758,"st_perimeter(shape)":0.04924423471945448}},{"arcs":[[-31,-23,-41,46,47]],"type":"Polygon","properties":{"objectid":305643,"statename":"UTTAR PRADESH","statecode":"9","districtname":"PRATAPGARH","districtcode":"173","ulbname":"KATRA GULAB SINGH BAZAR (NP)","ulbcode":"901040","wardname":"SARAY SEWAK","wardcode":"12","id":null,"status":"APPROVED","misglobalid":null,"approved_by":null,"createdate":1729769585000,"updateddate":1730099707000,"globalid":null,"gisglobalid":"n46clcdm-dBla-P4dd-RKP4-Kdd4dds5lsds","remark":"Approve","st_area(shape)":0.00018392878383226757,"st_perimeter(shape)":0.062147342063537524}},{"arcs":[[-28,48,-5,49,-35]],"type":"Polygon","properties":{"objectid":310186,"statename":"UTTAR PRADESH","statecode":"9","districtname":"PRATAPGARH","districtcode":"173","ulbname":"KATRA GULAB SINGH BAZAR (NP)","ulbcode":"901040","wardname":"JAGDEESHPUR","wardcode":"13","id":null,"status":"APPROVED","misglobalid":null,"approved_by":null,"createdate":1729769561000,"updateddate":1730099721000,"globalid":null,"gisglobalid":"n56QnlaQ-BlPR-PBRl-RBnm-4mKQRB6BKPaR","remark":"Approve","st_area(shape)":0.00012755338891495992,"st_perimeter(shape)":0.04731647435988161}},{"arcs":[[-47,-40,50]],"type":"Polygon","properties":{"objectid":309797,"statename":"UTTAR PRADESH","statecode":"9","districtname":"PRATAPGARH","districtcode":"173","ulbname":"KATRA GULAB SINGH BAZAR (NP)","ulbcode":"901040","wardname":"MISHRAPUR TARAUL","wardcode":"14","id":null,"status":"APPROVED","misglobalid":null,"approved_by":null,"createdate":1729769363000,"updateddate":1730099736000,"globalid":null,"gisglobalid":"P5QQoKnl-6Kas-PRRK-Rcsd-sdKlano4oBQ5","remark":"Approve","st_area(shape)":0.00017672895144958252,"st_perimeter(shape)":0.06313867436078413}},{"arcs":[[-43,51]],"type":"Polygon","properties":{"objectid":305642,"statename":"UTTAR PRADESH","statecode":"9","districtname":"PRATAPGARH","districtcode":"173","ulbname":"KATRA GULAB SINGH BAZAR (NP)","ulbcode":"901040","wardname":"SWAROOPPUR","wardcode":"15","id":null,"status":"APPROVED","misglobalid":null,"approved_by":null,"createdate":1729769513000,"updateddate":1730099747000,"globalid":null,"gisglobalid":"R5cclnPc-cQcn-PolR-Rln6-n4mo6cc5Q4ac","remark":"Approve","st_area(shape)":0.00011827006129937698,"st_perimeter(shape)":0.04217005534859032}}]}}}