{"type":"Topology","arcs":[[[70941,87827],[-601,187]],[[70340,88014],[-4008,1498]],[[66332,89512],[4208,10487],[5010,-2809]],[[75550,97190],[-1603,-1873],[0,-5056],[-3006,-2434]],[[70340,88014],[-4008,-2247]],[[66332,85767],[0,3745]],[[70941,87827],[2205,-3745]],[[73146,84082],[-3006,0]],[[70140,84082],[-3808,0]],[[66332,84082],[0,1685]],[[73146,84082],[-3808,-4682],[-2806,-1124]],[[66532,78276],[-200,0]],[[66532,78276],[3608,5806]],[[66332,78276],[0,188]],[[66332,78464],[0,3183]],[[66332,81647],[0,2435]],[[74749,83520],[-1603,562]],[[75550,97190],[5812,-4494],[3006,-375]],[[84368,92321],[-2004,-2996],[-7615,-5805]],[[92183,73782],[-10019,2434],[-4810,-374],[-1002,-187]],[[76352,75655],[-8417,561]],[[67935,76216],[5611,3558],[1203,3746]],[[84368,92321],[6012,-374],[2805,-1686],[6814,-1685],[-2004,-5244],[-5812,-9550]],[[67935,76216],[-2204,1311]],[[65731,77527],[601,937]],[[65731,77527],[-3407,937]],[[62324,78464],[-401,2809]],[[61923,81273],[4409,374]],[[64128,85767],[2204,-1685]],[[61923,81273],[-801,2621]],[[61122,83894],[3006,1873]],[[64128,85767],[-1804,4494]],[[62324,90261],[4008,-749]],[[62324,78464],[-4609,2247]],[[57715,80711],[-1804,1123]],[[55911,81834],[4609,1873]],[[60520,83707],[602,187]],[[62324,90449],[0,-188]],[[60520,83707],[-2404,4494],[1402,2435]],[[59518,90636],[2606,-187]],[[62124,90449],[200,0]],[[59518,90636],[201,936]],[[59719,91572],[200,3558]],[[59919,95130],[2004,-1123],[201,-3558]],[[59719,91572],[-4609,1498],[801,5431]],[[55911,98501],[4008,-3371]],[[55911,81834],[-2805,1873]],[[53106,83707],[-4008,1873]],[[49098,85580],[-2605,3932],[-3407,9551]],[[43086,99063],[12825,-562]],[[49098,85580],[-5812,-6742],[-5811,-3558]],[[37475,75280],[-17836,375],[-10421,-1124]],[[9218,74531],[2205,7303],[2605,-1123],[6012,1123],[-401,-5430],[6814,374],[200,8053],[4810,374],[4208,5244],[4008,374],[-1202,3558],[1402,4494],[3207,188]],[[53106,83707],[-3808,-2060],[-1403,-6180]],[[47895,75467],[-4609,-3745]],[[43286,71722],[-5811,3558]],[[57715,80711],[-2605,-7491]],[[55110,73220],[-7215,2247]],[[55110,73220],[-1604,-6367]],[[53506,66853],[-4208,562],[-6012,4307]],[[76352,75655],[-9619,-2060]],[[66733,73595],[-13227,-6742]],[[62925,16105],[201,21535],[3807,12547],[401,8427],[-8617,187]],[[58717,58801],[1603,3932],[4810,5993],[1603,4869]],[[92183,73782],[401,-17603],[-3206,-2996],[-6814,-4307],[-9018,-2809],[-4609,-7116],[401,-11049],[2004,-3745],[-4008,-2060],[-1202,-5992],[-3207,0]],[[62925,16105],[-18637,-4120],[-2204,-3184],[-5211,-936]],[[36873,7865],[7415,10674],[4409,5244],[7615,22658],[2405,12360]],[[36873,7865],[-6813,-7678],[-3207,-187]],[[26853,0],[-400,3183],[1202,11424],[4810,936],[200,9550],[2004,6742],[2204,2622],[3006,561],[0,6555],[6413,-562],[2806,9925],[1803,4307],[-1803,4494],[2605,3746]],[[51703,63483],[1803,3370]],[[21643,64606],[5210,-1873],[2405,562],[9018,-1498],[-200,2060],[6613,-562],[200,1498],[6814,-1310]],[[26853,0],[-10621,0],[-7214,2247],[-2004,4495],[-2605,187],[3006,6367],[-1804,3558],[-3206,1872],[4409,6180],[-401,3184],[2204,11985],[2605,7490],[8217,9738],[2204,7303]],[[21643,64606],[-6613,-936],[-8818,936],[-1803,2622],[-4409,2996],[3006,3745],[6212,562]]],"transform":{"scale":[4.990049900498389e-7,5.340053400533995e-7],"translate":[77.0976,17.7287]},"objects":{"wards":{"type":"GeometryCollection","geometries":[{"arcs":[[0,1,2,3]],"type":"Polygon","properties":{"objectid":297631,"statename":"Karnataka","statecode":"29","districtname":"Bidar","districtcode":"558","ulbname":"Homnabad (Tmc)","ulbcode":"803061","wardname":"Ward 1","wardcode":"1","id":null,"status":"APPROVED","misglobalid":null,"approved_by":null,"createdate":1671003190000,"updateddate":1671076908000,"globalid":null,"gisglobalid":"mRaslnRK-sddc-PR46-sBss-mRRBQsPs6B4R","remark":"Approved","st_area(shape)":0.000016676845582906498,"st_perimeter(shape)":0.018871577866957714}},{"arcs":[[4,5,-2]],"type":"Polygon","properties":{"objectid":297617,"statename":"Karnataka","statecode":"29","districtname":"Bidar","districtcode":"558","ulbname":"Homnabad (Tmc)","ulbcode":"803061","wardname":"Ward 2","wardcode":"2","id":null,"status":"APPROVED","misglobalid":null,"approved_by":null,"createdate":1671003190000,"updateddate":1671076935000,"globalid":null,"gisglobalid":"BlRRa6nd-5BK4-PKQc-sc55-QB6PnBmPQlaR","remark":"Approved","st_area(shape)":0.000003490989395121584,"st_perimeter(shape)":0.007414810106764532}},{"arcs":[[6,7,8,9,-5,-1]],"type":"Polygon","properties":{"objectid":297622,"statename":"Karnataka","statecode":"29","districtname":"Bidar","districtcode":"558","ulbname":"Homnabad (Tmc)","ulbcode":"803061","wardname":"Ward 3","wardcode":"3","id":null,"status":"APPROVED","misglobalid":null,"approved_by":null,"createdate":1671003190000,"updateddate":1671076950000,"globalid":null,"gisglobalid":"Pa4cRKB4-nQs6-PQ6R-a4ml-mslsRaRaaQ64","remark":"Approved","st_area(shape)":0.00000379115177336135,"st_perimeter(shape)":0.010158204864492891}},{"arcs":[[10,11,-12,12,-8]],"type":"Polygon","properties":{"objectid":297615,"statename":"Karnataka","statecode":"29","districtname":"Bidar","districtcode":"558","ulbname":"Homnabad (Tmc)","ulbcode":"803061","wardname":"Ward 4","wardcode":"4","id":null,"status":"APPROVED","misglobalid":null,"approved_by":null,"createdate":1671003190000,"updateddate":1671076963000,"globalid":null,"gisglobalid":"ssR4Ksc4-QBso-PnsR-alP6-QssRmonso5l4","remark":"Approved","st_area(shape)":0.0000030722294201999218,"st_perimeter(shape)":0.011069689531476062}},{"arcs":[[-13,11,13,14,15,-9]],"type":"Polygon","properties":{"objectid":296834,"statename":"Karnataka","statecode":"29","districtname":"Bidar","districtcode":"558","ulbname":"Homnabad (Tmc)","ulbcode":"803061","wardname":"Ward 5","wardcode":"5","id":null,"status":"APPROVED","misglobalid":null,"approved_by":null,"createdate":1671003190000,"updateddate":1671076977000,"globalid":null,"gisglobalid":"Kslm46d5-BoPm-P5lQ-aQcm-ooBmPmsP46Rs","remark":"Approved","st_area(shape)":0.000003745250902475827,"st_perimeter(shape)":0.008730432513341341}},{"arcs":[[16,-7,-4,17,18]],"type":"Polygon","properties":{"objectid":296833,"statename":"Karnataka","statecode":"29","districtname":"Bidar","districtcode":"558","ulbname":"Homnabad (Tmc)","ulbcode":"803061","wardname":"Ward 6","wardcode":"6","id":null,"status":"APPROVED","misglobalid":null,"approved_by":null,"createdate":1671003190000,"updateddate":1671076994000,"globalid":null,"gisglobalid":"Rcn5lRmc-5K4R-P5so-RRQQ-oBsQ5c5lBcal","remark":"Approved","st_area(shape)":0.000023776031109769465,"st_perimeter(shape)":0.0226344142592987}},{"arcs":[[19,20,21,-19,22]],"type":"Polygon","properties":{"objectid":297619,"statename":"Karnataka","statecode":"29","districtname":"Bidar","districtcode":"558","ulbname":"Homnabad (Tmc)","ulbcode":"803061","wardname":"Ward 7","wardcode":"7","id":null,"status":"APPROVED","misglobalid":null,"approved_by":null,"createdate":1671003190000,"updateddate":1671077013000,"globalid":null,"gisglobalid":"RBd4l6nl-ma5c-PasR-s6cR-md54RdlBlKlQ","remark":"Approved","st_area(shape)":0.00008980942695892085,"st_perimeter(shape)":0.04257465781385119}},{"arcs":[[-22,23,24,-14,-12,-11,-17]],"type":"Polygon","properties":{"objectid":297621,"statename":"Karnataka","statecode":"29","districtname":"Bidar","districtcode":"558","ulbname":"Homnabad (Tmc)","ulbcode":"803061","wardname":"Ward 8","wardcode":"8","id":null,"status":"APPROVED","misglobalid":null,"approved_by":null,"createdate":1671003190000,"updateddate":1671077031000,"globalid":null,"gisglobalid":"55PcBos4-sc6o-Pns6-Qs4m-4m6dRcm6P5Kl","remark":"Approved","st_area(shape)":0.000005632718598789317,"st_perimeter(shape)":0.014229595917313199}},{"arcs":[[-15,-25,25,26,27]],"type":"Polygon","properties":{"objectid":297614,"statename":"Karnataka","statecode":"29","districtname":"Bidar","districtcode":"558","ulbname":"Homnabad (Tmc)","ulbcode":"803061","wardname":"Ward 9","wardcode":"9","id":null,"status":"APPROVED","misglobalid":null,"approved_by":null,"createdate":1671003190000,"updateddate":1671077045000,"globalid":null,"gisglobalid":"caKPKaQn-a4lm-Pd5d-adBP-RoPcoRP4mcKa","remark":"Approved","st_area(shape)":0.0000039735187601527315,"st_perimeter(shape)":0.007959416062803561}},{"arcs":[[28,-16,-28,29,30]],"type":"Polygon","properties":{"objectid":297616,"statename":"Karnataka","statecode":"29","districtname":"Bidar","districtcode":"558","ulbname":"Homnabad (Tmc)","ulbcode":"803061","wardname":"Ward 10","wardcode":"10","id":null,"status":"APPROVED","misglobalid":null,"approved_by":null,"createdate":1671003190000,"updateddate":1671077060000,"globalid":null,"gisglobalid":"RnK5nlo4-nmnn-PP5o-Qmm5-66P5mdKBmanK","remark":"Approved","st_area(shape)":0.000004187425077297456,"st_perimeter(shape)":0.009528115980235185}},{"arcs":[[-6,-10,-29,31,32]],"type":"Polygon","properties":{"objectid":297633,"statename":"Karnataka","statecode":"29","districtname":"Bidar","districtcode":"558","ulbname":"Homnabad (Tmc)","ulbcode":"803061","wardname":"Ward 11","wardcode":"11","id":null,"status":"APPROVED","misglobalid":null,"approved_by":null,"createdate":1671003190000,"updateddate":1671077080000,"globalid":null,"gisglobalid":"PK54lnn6-Bcmn-PmRn-a6BQ-aoP5KacK5mPR","remark":"Approved","st_area(shape)":0.0000040661154284606466,"st_perimeter(shape)":0.009644665754401061}},{"arcs":[[-27,33,34,35,36,-30]],"type":"Polygon","properties":{"objectid":297632,"statename":"Karnataka","statecode":"29","districtname":"Bidar","districtcode":"558","ulbname":"Humnabad","ulbcode":"803061","wardname":"Ward 12","wardcode":"12","id":null,"status":"APPROVED","misglobalid":null,"approved_by":null,"createdate":1670962775000,"updateddate":1670965586000,"globalid":null,"gisglobalid":"PBcKQKlm-Qsmd-PRlP-ad4s-snnKdsBPBBR6","remark":"Approved.............................","st_area(shape)":0.000005197250914323529,"st_perimeter(shape)":0.009858550507114363}},{"arcs":[[37,-32,-31,-37,38,39,40]],"type":"Polygon","properties":{"objectid":297623,"statename":"Karnataka","statecode":"29","districtname":"Bidar","districtcode":"558","ulbname":"Humnabad","ulbcode":"803061","wardname":"Ward 13","wardcode":"13","id":null,"status":"APPROVED","misglobalid":null,"approved_by":null,"createdate":1670962775000,"updateddate":1670965604000,"globalid":null,"gisglobalid":"QKlcPBoa-aRnR-P4R4-ssos-mmoada4o6lR5","remark":"Approved.............................","st_area(shape)":0.000006784649601469211,"st_perimeter(shape)":0.011799014139016293}},{"arcs":[[-41,-40,41,42,43,40]],"type":"Polygon","properties":{"objectid":297628,"statename":"Karnataka","statecode":"29","districtname":"Bidar","districtcode":"558","ulbname":"Homnabad (Tmc)","ulbcode":"803061","wardname":"Ward 14","wardcode":"14","id":null,"status":"APPROVED","misglobalid":null,"approved_by":null,"createdate":1671003190000,"updateddate":1671077098000,"globalid":null,"gisglobalid":"maQc4c5l-m66c-Pldm-sPoR-lRRRRdmPcBo4","remark":"Approved","st_area(shape)":0.0000030936137731640654,"st_perimeter(shape)":0.007781451622136456}},{"arcs":[[-43,44,45]],"type":"Polygon","properties":{"objectid":297626,"statename":"Karnataka","statecode":"29","districtname":"Bidar","districtcode":"558","ulbname":"Homnabad (Tmc)","ulbcode":"803061","wardname":"Ward 15","wardcode":"15","id":null,"status":"APPROVED","misglobalid":null,"approved_by":null,"createdate":1671003190000,"updateddate":1671077114000,"globalid":null,"gisglobalid":"lRa6sd66-B4Ps-P44o-sna6-mladKQ4Roaa5","remark":"Approved","st_area(shape)":0.000004920864473137015,"st_perimeter(shape)":0.010799217444837911}},{"arcs":[[-27,33,34,35,36,-30]],"type":"Polygon","properties":{"objectid":296835,"statename":"Karnataka","statecode":"29","districtname":"Bidar","districtcode":"558","ulbname":"Homnabad (Tmc)","ulbcode":"803061","wardname":"Ward 16","wardcode":"16","id":null,"status":"APPROVED","misglobalid":null,"approved_by":null,"createdate":1671003190000,"updateddate":1671077131000,"globalid":null,"gisglobalid":"4PanKcsK-KcRB-PBan-andc-QmsdRcdQn5KP","remark":"Approved","st_area(shape)":0.000005197250914323529,"st_perimeter(shape)":0.009858550507114363}},{"arcs":[[-45,-42,-39,-36,46,47,48,49]],"type":"Polygon","properties":{"objectid":297625,"statename":"Karnataka","statecode":"29","districtname":"Bidar","districtcode":"558","ulbname":"Homnabad (Tmc)","ulbcode":"803061","wardname":"Ward 17","wardcode":"17","id":null,"status":"APPROVED","misglobalid":null,"approved_by":null,"createdate":1671003190000,"updateddate":1671077147000,"globalid":null,"gisglobalid":"dlQB55l6-ollc-P6sa-slsB-aR44m54ancsn","remark":"Approved","st_area(shape)":0.00004631974557400298,"st_perimeter(shape)":0.03182762441329019}},{"arcs":[[-49,50,51,52]],"type":"Polygon","properties":{"objectid":297620,"statename":"Karnataka","statecode":"29","districtname":"Bidar","districtcode":"558","ulbname":"Homnabad (Tmc)","ulbcode":"803061","wardname":"Ward 18","wardcode":"18","id":null,"status":"APPROVED","misglobalid":null,"approved_by":null,"createdate":1671003190000,"updateddate":1671077164000,"globalid":null,"gisglobalid":"ns6sRl65-KQoQ-PPRo-RRaR-BB5oBcc5dmdo","remark":"Approved","st_area(shape)":0.00009472116113376229,"st_perimeter(shape)":0.06447428466619458}},{"arcs":[[53,54,55,-51,-48]],"type":"Polygon","properties":{"objectid":297635,"statename":"Karnataka","statecode":"29","districtname":"Bidar","districtcode":"558","ulbname":"Homnabad (Tmc)","ulbcode":"803061","wardname":"Ward 19","wardcode":"19","id":null,"status":"APPROVED","misglobalid":null,"approved_by":null,"createdate":1671003190000,"updateddate":1671077182000,"globalid":null,"gisglobalid":"BBaas5a5-mBPa-Pc5B-aasK-QlQnK5QKlaam","remark":"Approved","st_area(shape)":0.000019446142155109224,"st_perimeter(shape)":0.024310574632952518}},{"arcs":[[-35,56,57,-54,-47]],"type":"Polygon","properties":{"objectid":297636,"statename":"Karnataka","statecode":"29","districtname":"Bidar","districtcode":"558","ulbname":"Homnabad (Tmc)","ulbcode":"803061","wardname":"Ward 20","wardcode":"20","id":null,"status":"APPROVED","misglobalid":null,"approved_by":null,"createdate":1671003190000,"updateddate":1671077195000,"globalid":null,"gisglobalid":"cKQ4dn5n-oPoo-PKBd-adRR-nlRBnsKBns5P","remark":"Approved","st_area(shape)":0.00001659082993501346,"st_perimeter(shape)":0.017238555876530795}},{"arcs":[[-58,58,59,-55]],"type":"Polygon","properties":{"objectid":297613,"statename":"Karnataka","statecode":"29","districtname":"Bidar","districtcode":"558","ulbname":"Homnabad (Tmc)","ulbcode":"803061","wardname":"Ward 21","wardcode":"21","id":null,"status":"APPROVED","misglobalid":null,"approved_by":null,"createdate":1671003190000,"updateddate":1671077210000,"globalid":null,"gisglobalid":"Pao5c54d-m4cQ-P6Km-sR5c-sKBllQP5caPs","remark":"Approved","st_area(shape)":0.00001715391543813792,"st_perimeter(shape)":0.01714066701927622}},{"arcs":[[-26,-24,-21,60,61,-59,-57,-34]],"type":"Polygon","properties":{"objectid":297618,"statename":"Karnataka","statecode":"29","districtname":"Bidar","districtcode":"558","ulbname":"Homnabad (Tmc)","ulbcode":"803061","wardname":"Ward 22","wardcode":"22","id":null,"status":"APPROVED","misglobalid":null,"approved_by":null,"createdate":1671003190000,"updateddate":1671077228000,"globalid":null,"gisglobalid":"4oKoa46d-RK6l-Pool-accQ-KlcRaP5nsmBn","remark":"Approved","st_area(shape)":0.00002850118371513999,"st_perimeter(shape)":0.03121399530654047}},{"arcs":[[62,63,-61,-20,64]],"type":"Polygon","properties":{"objectid":297627,"statename":"Karnataka","statecode":"29","districtname":"Bidar","districtcode":"558","ulbname":"Homnabad (Tmc)","ulbcode":"803061","wardname":"Ward 23","wardcode":"23","id":null,"status":"APPROVED","misglobalid":null,"approved_by":null,"createdate":1671003190000,"updateddate":1671077251000,"globalid":null,"gisglobalid":"dQdaQ4an-dsQs-P5oa-QlKc-o44QdcnnR4nm","remark":"Approved","st_area(shape)":0.00024196513851883404,"st_perimeter(shape)":0.0898556066680146}},{"arcs":[[65,66,-63]],"type":"Polygon","properties":{"objectid":297634,"statename":"Karnataka","statecode":"29","districtname":"Bidar","districtcode":"558","ulbname":"Homnabad (Tmc)","ulbcode":"803061","wardname":"Ward 24","wardcode":"24","id":null,"status":"APPROVED","misglobalid":null,"approved_by":null,"createdate":1671003190000,"updateddate":1671077269000,"globalid":null,"gisglobalid":"Q5dslQKK-cnsR-PBQR-a5mo-QPcoKRs4Rl4s","remark":"Approved","st_area(shape)":0.00015347156589741104,"st_perimeter(shape)":0.07201331385265344}},{"arcs":[[-67,67,68,69,-62,-64]],"type":"Polygon","properties":{"objectid":297630,"statename":"Karnataka","statecode":"29","districtname":"Bidar","districtcode":"558","ulbname":"Homnabad (Tmc)","ulbcode":"803061","wardname":"Ward 25","wardcode":"25","id":null,"status":"APPROVED","misglobalid":null,"approved_by":null,"createdate":1671003190000,"updateddate":1671077288000,"globalid":null,"gisglobalid":"4lBacP4m-Bal4-PcQn-aBQ5-B6R4RosBa4ld","remark":"Approved","st_area(shape)":0.00020662376796975104,"st_perimeter(shape)":0.09851193112474245}},{"arcs":[[70,-69,71]],"type":"Polygon","properties":{"objectid":297624,"statename":"Karnataka","statecode":"29","districtname":"Bidar","districtcode":"558","ulbname":"Homnabad (Tmc)","ulbcode":"803061","wardname":"Ward 26","wardcode":"26","id":null,"status":"APPROVED","misglobalid":null,"approved_by":null,"createdate":1671003190000,"updateddate":1671077314000,"globalid":null,"gisglobalid":"anl5KmQa-sd6m-P5ln-a5Pa-lQQcamndlK5d","remark":"Approved","st_area(shape)":0.00047745307830753057,"st_perimeter(shape)":0.10996410501496744}},{"arcs":[[-56,-60,-70,-71,72,-52]],"type":"Polygon","properties":{"objectid":297629,"statename":"Karnataka","statecode":"29","districtname":"Bidar","districtcode":"558","ulbname":"Homnabad (Tmc)","ulbcode":"803061","wardname":"Ward 27","wardcode":"27","id":null,"status":"APPROVED","misglobalid":null,"approved_by":null,"createdate":1671003190000,"updateddate":1671077333000,"globalid":null,"gisglobalid":"Bn5sloRK-oaKK-P64P-aPad-KRmQlaoQQ6am","remark":"Approved","st_area(shape)":0.00013471760795152738,"st_perimeter(shape)":0.061464892515434036}}]}}}