{"type":"Topology","arcs":[[[65333,54338],[-3200,620]],[[62133,54958],[-26133,5165],[-1867,1240]],[[34133,61363],[13867,14463]],[[48000,75826],[3199,0],[5067,-9298],[6933,-1239],[5334,-4339],[-3200,-6612]],[[82933,42355],[-16800,0]],[[66133,42355],[2133,11157]],[[68266,53512],[-2933,826]],[[48000,75826],[4533,826],[16000,13636],[2933,4133],[9333,5578],[9600,-2066],[9600,-4752],[-13333,-16322],[-3733,-34504]],[[66133,42355],[-1600,-3512]],[[64533,38843],[-4800,-1447]],[[59733,37396],[-1334,3926]],[[58399,41322],[2934,1859]],[[61333,43181],[6933,10331]],[[82933,42355],[-5600,-4132],[-4800,-6612]],[[72533,31611],[-6934,2273]],[[65599,33884],[-1066,4959]],[[53599,4959],[-533,4338]],[[53066,9297],[-267,4133],[4534,10123]],[[57333,23553],[3200,207],[5066,10124]],[[72533,31611],[3733,-5785],[-1867,-2479],[267,-10331],[2133,-13016],[-14933,4132],[-8267,827]],[[57333,23553],[0,5992]],[[57333,29545],[2400,7851]],[[44266,30991],[1600,0]],[[45866,30991],[6400,2686]],[[52266,33677],[5067,-4132]],[[53066,9297],[533,-4338]],[[53599,4959],[-25066,0],[-9867,1859],[-1333,4752],[8800,4132],[7200,15496]],[[33333,31198],[10933,-207]],[[49066,39256],[0,206]],[[49066,39462],[3200,-5785]],[[45866,30991],[-3733,6612]],[[42133,37603],[4000,4959]],[[46133,42562],[1867,0]],[[48000,42562],[533,-207]],[[48533,42355],[533,-3099]],[[2667,49793],[12266,-3099],[20800,-827],[3733,-1653]],[[39466,44214],[-533,-619]],[[38933,43595],[3200,-5992]],[[44266,30991],[-10933,207]],[[33333,31198],[-3200,3306],[-16800,2066],[-13333,0],[2667,13223]],[[38933,43595],[7200,-1033]],[[48266,42975],[-266,-413]],[[39466,44214],[8800,-1239]],[[48533,42355],[9866,-1033]],[[48266,42975],[8000,413]],[[56266,43388],[5067,-207]],[[56266,43388],[5867,11570]],[[2667,49793],[6133,9297],[9866,8265],[1067,2686],[14400,-8678]]],"transform":{"scale":[3.750037500375856e-7,4.840048400484093e-7],"translate":[76.9253,27.7686]},"objects":{"wards":{"type":"GeometryCollection","geometries":[{"arcs":[[0,1,2,3]],"type":"Polygon","properties":{"objectid":174361,"statename":"Haryana","statecode":"6","districtname":"","districtcode":"87","ulbname":"Ferozepur Jhirka","ulbcode":"800434","wardname":"Ward 1","wardcode":"1","id":null,"status":"APPROVED","misglobalid":null,"approved_by":null,"createdate":1645522945000,"updateddate":1733302169000,"globalid":null,"gisglobalid":"QB5QKsKc-momB-Poca-amcc-n664R6nclnao","remark":"Approve By BI branch","st_area(shape)":0.0000685790785006676,"st_perimeter(shape)":0.04313858260834322}},{"arcs":[[4,5,6,-4,7]],"type":"Polygon","properties":{"objectid":172761,"statename":"Haryana","statecode":"6","districtname":"","districtcode":"87","ulbname":"Ferozepur Jhirka","ulbcode":"800434","wardname":"Ward 2","wardcode":"2","id":null,"status":"APPROVED","misglobalid":null,"approved_by":null,"createdate":1645522945000,"updateddate":1733302207000,"globalid":null,"gisglobalid":"4nB54doQ-ncn5-PdnQ-sKnl-Rd5sodRnQRQd","remark":"Approve by BI branch","st_area(shape)":0.00025317121941925404,"st_perimeter(shape)":0.0908287920100122}},{"arcs":[[8,9,10,11,12,-6]],"type":"Polygon","properties":{"objectid":162441,"statename":"Haryana","statecode":"6","districtname":"","districtcode":"87","ulbname":"Ferozepur Jhirka","ulbcode":"800434","wardname":"Ward 3","wardcode":"3","id":null,"status":"APPROVED","misglobalid":null,"approved_by":null,"createdate":1645522945000,"updateddate":1733302248000,"globalid":null,"gisglobalid":"ommPmPod-s4o4-PPBm-Ql44-cBKsldKloPBP","remark":"Approve by BI Branch","st_area(shape)":0.000014049984063024522,"st_perimeter(shape)":0.02136617943146772}},{"arcs":[[13,14,15,-9,-5]],"type":"Polygon","properties":{"objectid":165231,"statename":"Haryana","statecode":"6","districtname":"","districtcode":"87","ulbname":"Ferozepur Jhirka","ulbcode":"800434","wardname":"Ward 4","wardcode":"4","id":null,"status":"APPROVED","misglobalid":null,"approved_by":null,"createdate":1645522945000,"updateddate":1733302277000,"globalid":null,"gisglobalid":"R6Roal5a-555m-PoQs-QP6c-4mdK6mlPsK5a","remark":"Approve by BI branch","st_area(shape)":0.000023240313574203663,"st_perimeter(shape)":0.021243365166002733}},{"arcs":[[16,17,18,-15,19]],"type":"Polygon","properties":{"objectid":174362,"statename":"Haryana","statecode":"6","districtname":"","districtcode":"87","ulbname":"Ferozepur Jhirka","ulbcode":"800434","wardname":"Ward 5","wardcode":"5","id":null,"status":"APPROVED","misglobalid":null,"approved_by":null,"createdate":1645522945000,"updateddate":1733302295000,"globalid":null,"gisglobalid":"sK4cl6ds-osao-Pdc4-aBl4-Rnla6dRQoBBs","remark":"Approve by BI branch","st_area(shape)":0.00009753231451244395,"st_perimeter(shape)":0.045194981624267196}},{"arcs":[[-19,20,21,-10,-16]],"type":"Polygon","properties":{"objectid":172760,"statename":"Haryana","statecode":"6","districtname":"","districtcode":"87","ulbname":"Ferozepur Jhirka","ulbcode":"800434","wardname":"Ward 6","wardcode":"6","id":null,"status":"APPROVED","misglobalid":null,"approved_by":null,"createdate":1645522945000,"updateddate":1733302322000,"globalid":null,"gisglobalid":"cn4RKmmd-mPac-PcaQ-sm4o-Bdaa46Kd4cBK","remark":"Approve by BI branch","st_area(shape)":0.000012812170165839312,"st_perimeter(shape)":0.02168121425252076}},{"arcs":[[22,23,24,-21,-18,25,26,27]],"type":"Polygon","properties":{"objectid":172376,"statename":"Haryana","statecode":"6","districtname":"","districtcode":"87","ulbname":"Ferozepur Jhirka","ulbcode":"800434","wardname":"Ward 7","wardcode":"7","id":null,"status":"APPROVED","misglobalid":null,"approved_by":null,"createdate":1645522945000,"updateddate":1733302358000,"globalid":null,"gisglobalid":"s4Ql5cRl-sB65-PKmK-sQmB-6Q4sa6BKKaPP","remark":"Approve by BI branch","st_area(shape)":0.00013620946552220687,"st_perimeter(shape)":0.058498509975606336}},{"arcs":[[28,-29,28,29,-24,30,31,32,33,34]],"type":"Polygon","properties":{"objectid":162442,"statename":"Haryana","statecode":"6","districtname":"","districtcode":"87","ulbname":"Ferozepur Jhirka","ulbcode":"800434","wardname":"Ward 8","wardcode":"8","id":null,"status":"APPROVED","misglobalid":null,"approved_by":null,"createdate":1645522945000,"updateddate":1733302372000,"globalid":null,"gisglobalid":"cB5cc654-6Bdd-Pns5-ao5B-QnK4QdcKcnd5","remark":"Approve by BI branch","st_area(shape)":0.00001635428854782147,"st_perimeter(shape)":0.02376263966963831}},{"arcs":[[35,36,37,-31,-23,38,39]],"type":"Polygon","properties":{"objectid":165230,"statename":"Haryana","statecode":"6","districtname":"","districtcode":"87","ulbname":"Ferozepur Jhirka","ulbcode":"800434","wardname":"Ward 9","wardcode":"9","id":null,"status":"APPROVED","misglobalid":null,"approved_by":null,"createdate":1645522945000,"updateddate":1733302395000,"globalid":null,"gisglobalid":"snPas6o6-o4QB-PB5d-QnK5-45KKn6Rsol4d","remark":"Approve by BI branch","st_area(shape)":0.00008823117816708366,"st_perimeter(shape)":0.04857612186045276}},{"arcs":[[40,-32,-38]],"type":"Polygon","properties":{"objectid":165229,"statename":"Haryana","statecode":"6","districtname":"","districtcode":"87","ulbname":"Ferozepur Jhirka","ulbcode":"800434","wardname":"Ward 10","wardcode":"10","id":null,"status":"APPROVED","misglobalid":null,"approved_by":null,"createdate":1645522945000,"updateddate":1733302420000,"globalid":null,"gisglobalid":"nn5sRsaR-cQlc-PoQP-sc5R-QQ6Qcm6m6ass","remark":"Approve by BI branch","st_area(shape)":0.000006160223078297591,"st_perimeter(shape)":0.012597184318608168}},{"arcs":[[41,-33,-41,-37,42]],"type":"Polygon","properties":{"objectid":173967,"statename":"Haryana","statecode":"6","districtname":"","districtcode":"87","ulbname":"Ferozepur Jhirka","ulbcode":"800434","wardname":"Ward 11","wardcode":"11","id":null,"status":"APPROVED","misglobalid":null,"approved_by":null,"createdate":1645522945000,"updateddate":1733302446000,"globalid":null,"gisglobalid":"o6654Rll-naas-Pmdd-QlPn-n5QKRP4Rco6Q","remark":"Approve by BI branch","st_area(shape)":0.000005602804857815212,"st_perimeter(shape)":0.01038553543678347}},{"arcs":[[-11,-22,-25,-30,-29,28,-29,-35,43]],"type":"Polygon","properties":{"objectid":173968,"statename":"Haryana","statecode":"6","districtname":"","districtcode":"87","ulbname":"Ferozepur Jhirka","ulbcode":"800434","wardname":"Ward 12","wardcode":"12","id":null,"status":"APPROVED","misglobalid":null,"approved_by":null,"createdate":1645522945000,"updateddate":1733302475000,"globalid":null,"gisglobalid":"daQ6d45P-54am-PB6P-QsKB-Pms4sPd44oBK","remark":"Approve by BI branch","st_area(shape)":0.000014600093582115245,"st_perimeter(shape)":0.02247967628384149}},{"arcs":[[-12,-44,-34,-42,44,45]],"type":"Polygon","properties":{"objectid":172375,"statename":"Haryana","statecode":"6","districtname":"","districtcode":"87","ulbname":"Ferozepur Jhirka","ulbcode":"800434","wardname":"Ward 13","wardcode":"13","id":null,"status":"APPROVED","misglobalid":null,"approved_by":null,"createdate":1645522945000,"updateddate":1733302509000,"globalid":null,"gisglobalid":"Rn54mo6B-66PP-P6Qc-sBmQ-odRanoPsn6P4","remark":"Approve by BI branch","st_area(shape)":0.000003360457437831142,"st_perimeter(shape)":0.011788775027629607}},{"arcs":[[-46,46,-1,-7,-13]],"type":"Polygon","properties":{"objectid":162443,"statename":"Haryana","statecode":"6","districtname":"","districtcode":"87","ulbname":"Ferozepur Jhirka","ulbcode":"800434","wardname":"Ward 14","wardcode":"14","id":null,"status":"APPROVED","misglobalid":null,"approved_by":null,"createdate":1645522945000,"updateddate":1733302547000,"globalid":null,"gisglobalid":"oPQcm4mn-omsn-P5om-RQdB-RQ6Rn4PsPlda","remark":"Approve by BI branch","st_area(shape)":0.000011304248206912237,"st_perimeter(shape)":0.016260579052534026}},{"arcs":[[-45,-43,-36,47,-2,-47]],"type":"Polygon","properties":{"objectid":173969,"statename":"Haryana","statecode":"6","districtname":"","districtcode":"87","ulbname":"Ferozepur Jhirka","ulbcode":"800434","wardname":"Ward 15","wardcode":"15","id":null,"status":"APPROVED","misglobalid":null,"approved_by":null,"createdate":1645522945000,"updateddate":1733302571000,"globalid":null,"gisglobalid":"5ldlBc56-RPsQ-PRco-RoK4-a46mRR55cn6c","remark":"Approve by BI branch","st_area(shape)":0.00014875861558369795,"st_perimeter(shape)":0.05984136927935288}}]}}}