{"type":"Topology","arcs":[[[31979,33678],[12183,-18134],[-27919,-15544],[-8121,41450]],[[8122,41450],[15736,-3108]],[[23858,38342],[6091,-2073]],[[29949,36269],[2030,-2591]],[[0,80828],[23858,19171],[29949,-8290],[-4061,-15026]],[[49746,76683],[-4061,-4663]],[[45685,72020],[-35533,1554]],[[10152,73574],[-10152,7254]],[[69542,62694],[-6091,-28497]],[[63451,34197],[-1015,-519]],[[62436,33678],[-15736,4664]],[[46700,38342],[1523,3108]],[[48223,41450],[2538,5700],[-508,6735]],[[50253,53885],[19289,8809]],[[7614,56476],[5076,-518]],[[12690,55958],[3553,-1036]],[[16243,54922],[5077,-2073]],[[21320,52849],[4060,-9326]],[[25380,43523],[-1522,-5181]],[[8122,41450],[-508,15026]],[[16243,54922],[-3553,1036]],[[12690,55958],[-5076,518]],[[7614,56476],[1015,3627]],[[8629,60103],[12183,-4145]],[[20812,55958],[3046,4145]],[[23858,60103],[-1016,4145]],[[22842,64248],[5077,-1036]],[[27919,63212],[2030,0]],[[29949,63212],[4568,-7772]],[[34517,55440],[-3045,-2591]],[[31472,52849],[-10152,0]],[[8629,60103],[-8629,20725]],[[10152,73574],[19797,-10362]],[[27919,63212],[-5077,1036]],[[23858,60103],[-3046,-4145]],[[20812,55958],[-12183,4145]],[[45685,35233],[16751,-1555]],[[63451,34197],[18274,54921],[16244,-20207],[2030,-54403],[-55329,1036],[1015,19689]],[[25380,43523],[6092,9326]],[[34517,55440],[5077,3627]],[[39594,59067],[-3046,-7254]],[[36548,51813],[-1015,-4145]],[[35533,47668],[507,-6736]],[[36040,40932],[-2030,-2590]],[[34010,38342],[-4061,-2073]],[[45685,72020],[4061,4663]],[[49746,76683],[4568,15026],[26903,-2591],[-11675,-26424]],[[69542,62694],[-23857,9326]],[[39594,59067],[10659,-5182]],[[50253,53885],[0,-6735]],[[50253,47150],[-3553,-3109]],[[46700,44041],[-11167,3627]],[[36548,51813],[3046,7254]],[[31979,33678],[2031,4664]],[[34010,38342],[2030,2590]],[[36040,40932],[10660,3109]],[[46700,44041],[3553,3109]],[[50253,47150],[-2030,-5700]],[[46700,38342],[-1015,-3109]],[[45685,35233],[-13706,-1555]]],"transform":{"scale":[1.9700197001970292e-7,1.930019300192767e-7],"translate":[80.6118,25.3927]},"objects":{"wards":{"type":"GeometryCollection","geometries":[{"arcs":[[0,1,2,3]],"type":"Polygon","properties":{"objectid":296936,"statename":"Uttar Pradesh","statecode":"9","districtname":"Banda","districtcode":"170","ulbname":"Np Bisanda Buzurg","ulbcode":"801055","wardname":"One","wardcode":"1","id":null,"status":"APPROVED","misglobalid":null,"approved_by":null,"createdate":1671902474000,"updateddate":1672252616000,"globalid":null,"gisglobalid":"o45n6Pm4-6nan-PRna-R4Bd-5msQcsPosdRP","remark":"Ok","st_area(shape)":0.00004916404722237383,"st_perimeter(shape)":0.030002275943043156}},{"arcs":[[4,5,6,7]],"type":"Polygon","properties":{"objectid":298376,"statename":"Uttar Pradesh","statecode":"9","districtname":"Banda","districtcode":"170","ulbname":"Np Bisanda Buzurg","ulbcode":"801055","wardname":"Two","wardcode":"2","id":null,"status":"APPROVED","misglobalid":null,"approved_by":null,"createdate":1671902505000,"updateddate":1672252630000,"globalid":null,"gisglobalid":"R5cK6dP5-sKsK-Pdn5-aRQn-o6a5ascQPonl","remark":"Ok","st_area(shape)":0.00004489553681652389,"st_perimeter(shape)":0.028019742163924225}},{"arcs":[[8,9,10,11,12,13]],"type":"Polygon","properties":{"objectid":297742,"statename":"Uttar Pradesh","statecode":"9","districtname":"Banda","districtcode":"170","ulbname":"Np Bisanda Buzurg","ulbcode":"801055","wardname":"Three","wardcode":"3","id":null,"status":"APPROVED","misglobalid":null,"approved_by":null,"createdate":1671902546000,"updateddate":1672252643000,"globalid":null,"gisglobalid":"Rs45o5sc-6BRc-PQKR-addn-mdPBsKmPPQKs","remark":"Ok","st_area(shape)":0.000018748804381623556,"st_perimeter(shape)":0.01898426588396017}},{"arcs":[[14,15,16,17,18,-2,19]],"type":"Polygon","properties":{"objectid":297982,"statename":"Uttar Pradesh","statecode":"9","districtname":"Banda","districtcode":"170","ulbname":"Np Bisanda Buzurg","ulbcode":"801055","wardname":"Four","wardcode":"4","id":null,"status":"APPROVED","misglobalid":null,"approved_by":null,"createdate":1671902582000,"updateddate":1672252653000,"globalid":null,"gisglobalid":"sa4l55dP-B5o4-PP5Q-Q5Bn-Q6oBlB5sa6Pd","remark":"Ok","st_area(shape)":0.000026204084613615185,"st_perimeter(shape)":0.024219537625876187}},{"arcs":[[-17,20,21,22,23,24,25,26,27,28,29,30]],"type":"Polygon","properties":{"objectid":296937,"statename":"Uttar Pradesh","statecode":"9","districtname":"Banda","districtcode":"170","ulbname":"Np Bisanda Buzurg","ulbcode":"801055","wardname":"Five","wardcode":"5","id":null,"status":"APPROVED","misglobalid":null,"approved_by":null,"createdate":1671902628000,"updateddate":1672252664000,"globalid":null,"gisglobalid":"Pad5a4Ra-dasQ-PnRa-Ro5n-PKQ4clsRs5o6","remark":"Ok","st_area(shape)":0.000007178209988716952,"st_perimeter(shape)":0.01613924395977241}},{"arcs":[[31,-8,32,-28,33,-26,34,35]],"type":"Polygon","properties":{"objectid":297983,"statename":"Uttar Pradesh","statecode":"9","districtname":"Banda","districtcode":"170","ulbname":"Np Bisanda Buzurg","ulbcode":"801055","wardname":"Six","wardcode":"6","id":null,"status":"APPROVED","misglobalid":null,"approved_by":null,"createdate":1671902665000,"updateddate":1672252675000,"globalid":null,"gisglobalid":"4645s6cB-l45c-PPlK-QlBP-ccQ6cRd4aRod","remark":"Ok","st_area(shape)":0.000016315427370591274,"st_perimeter(shape)":0.02216736497598535}},{"arcs":[[36,-10,37]],"type":"Polygon","properties":{"objectid":297984,"statename":"Uttar Pradesh","statecode":"9","districtname":"Banda","districtcode":"170","ulbname":"Np Bisanda Buzurg","ulbcode":"801055","wardname":"Seven","wardcode":"7","id":null,"status":"APPROVED","misglobalid":null,"approved_by":null,"createdate":1671902703000,"updateddate":1672252686000,"globalid":null,"gisglobalid":"BQK46Pmd-csBP-Pd65-aoPK-ddnBm4n6odcR","remark":"Ok","st_area(shape)":0.00009502379846384845,"st_perimeter(shape)":0.04769857898020071}},{"arcs":[[-19,38,-30,39,40,41,42,43,44,-3]],"type":"Polygon","properties":{"objectid":296938,"statename":"Uttar Pradesh","statecode":"9","districtname":"Banda","districtcode":"170","ulbname":"Np Bisanda Buzurg","ulbcode":"801055","wardname":"Eight","wardcode":"8","id":null,"status":"APPROVED","misglobalid":null,"approved_by":null,"createdate":1671902749000,"updateddate":1672252696000,"globalid":null,"gisglobalid":"lmQRn6am-Kmmn-PcP5-R4Kd-oa6mK4on4lBa","remark":"Ok","st_area(shape)":0.000005850720415275721,"st_perimeter(shape)":0.013858289369607089}},{"arcs":[[45,46,47]],"type":"Polygon","properties":{"objectid":297985,"statename":"Uttar Pradesh","statecode":"9","districtname":"Banda","districtcode":"170","ulbname":"Np Bisanda Buzurg","ulbcode":"801055","wardname":"Nine","wardcode":"9","id":null,"status":"APPROVED","misglobalid":null,"approved_by":null,"createdate":1671902827000,"updateddate":1672252709000,"globalid":null,"gisglobalid":"dKmnPaRB-lRoR-PPRP-RlBs-s56PP46lRo4l","remark":"Ok","st_area(shape)":0.00003367239958119987,"st_perimeter(shape)":0.02801174297991726}},{"arcs":[[48,49,50,51,-42,52]],"type":"Polygon","properties":{"objectid":297986,"statename":"Uttar Pradesh","statecode":"9","districtname":"Banda","districtcode":"170","ulbname":"Np Bisanda Buzurg","ulbcode":"801055","wardname":"Ten","wardcode":"10","id":null,"status":"APPROVED","misglobalid":null,"approved_by":null,"createdate":1671902873000,"updateddate":1672252719000,"globalid":null,"gisglobalid":"cnRa5R6a-lKKK-Plcm-RcRm-clQ45d5lQRRl","remark":"Ok","st_area(shape)":0.000006030634288870299,"st_perimeter(shape)":0.009921093259406074}},{"arcs":[[53,54,55,56,57,-12,58,59]],"type":"Polygon","properties":{"objectid":297987,"statename":"Uttar Pradesh","statecode":"9","districtname":"Banda","districtcode":"170","ulbname":"Np Bisanda Buzurg","ulbcode":"801055","wardname":"Eleven","wardcode":"11","id":null,"status":"APPROVED","misglobalid":null,"approved_by":null,"createdate":1671902947000,"updateddate":1672252730000,"globalid":null,"gisglobalid":"6sn6daQ6-KlQQ-PRnl-Qmds-KQRlsdsls4Rn","remark":"Ok","st_area(shape)":0.0000072420281363915,"st_perimeter(shape)":0.0126229018793149}}]}}}