{"type": "FeatureCollection", "features": [{"type": "Feature", "geometry": {"type": "Polygon", "coordinates": [[[82.4313, 25.284], [82.4314, 25.2843], [82.4318, 25.2841], [82.4319, 25.284], [82.432, 25.284], [82.432, 25.2841], [82.4321, 25.2841], [82.432, 25.2842], [82.432, 25.2843], [82.4321, 25.2844], [82.4324, 25.2843], [82.4326, 25.2842], [82.4329, 25.2841], [82.433, 25.2841], [82.433, 25.284], [82.433, 25.2839], [82.4331, 25.2838], [82.4332, 25.2838], [82.4333, 25.2838], [82.4333, 25.2836], [82.4334, 25.2836], [82.4335, 25.2835], [82.4336, 25.2835], [82.4337, 25.2834], [82.4336, 25.2833], [82.4334, 25.2833], [82.4334, 25.2832], [82.4334, 25.2831], [82.4333, 25.283], [82.4333, 25.2829], [82.4332, 25.2829], [82.4331, 25.2828], [82.4329, 25.2829], [82.4324, 25.2831], [82.4319, 25.2833], [82.4317, 25.2834], [82.4315, 25.2835], [82.4312, 25.2836], [82.4311, 25.2836], [82.4313, 25.284]]]}, "properties": {"objectid": 244992, "statename": "Uttar Pradesh", "statecode": "9", "districtname": "Bhadohi", "districtcode": "198", "ulbname": "Bhadohi", "ulbcode": "801241", "wardname": "Pasiyan Mohal", "wardcode": "1", "id": null, "status": "APPROVED", "misglobalid": null, "approved_by": null, "createdate": 1648037825000, "updateddate": 1648186407000, "globalid": null, "gisglobalid": "Pm456sm4-dRsm-PKcB-saoR-l6KcQa4P66ds", "remark": "", "st_area(shape)": 2.1392802724174102e-06, "st_perimeter(shape)": 0.007097429136785768}}, {"type": "Feature", "geometry": {"type": "Polygon", "coordinates": [[[82.4311, 25.2839], [82.4305, 25.2828], [82.4304, 25.2824], [82.4301, 25.2827], [82.43, 25.2829], [82.4299, 25.2831], [82.4299, 25.2832], [82.4299, 25.2834], [82.43, 25.2836], [82.4301, 25.2837], [82.4301, 25.2838], [82.4302, 25.2838], [82.4302, 25.2839], [82.4303, 25.2839], [82.4304, 25.2839], [82.4305, 25.2839], [82.4306, 25.284], [82.4307, 25.284], [82.4308, 25.284], [82.4309, 25.2839], [82.4311, 25.2839]]]}, "properties": {"objectid": 246974, "statename": "Uttar Pradesh", "statecode": "9", "districtname": "Bhadohi", "districtcode": "198", "ulbname": "Bhadohi", "ulbcode": "801241", "wardname": "Kervariya West", "wardcode": "2", "id": null, "status": "APPROVED", "misglobalid": null, "approved_by": null, "createdate": 1648037994000, "updateddate": 1648186417000, "globalid": null, "gisglobalid": "Qc6Kdsn6-sRam-PcBa-sadB-64d44m4m4KBB", "remark": "Ok", "st_area(shape)": 1.0491966586383069e-06, "st_perimeter(shape)": 0.004471471920410221}}, {"type": "Feature", "geometry": {"type": "Polygon", "coordinates": [[[82.4346, 25.2845], [82.435, 25.2844], [82.4351, 25.2844], [82.4354, 25.2843], [82.4356, 25.2843], [82.4356, 25.2842], [82.4359, 25.2841], [82.4356, 25.2834], [82.4354, 25.2829], [82.4353, 25.2827], [82.4348, 25.2817], [82.4344, 25.2825], [82.4341, 25.2835], [82.4346, 25.2845]]]}, "properties": {"objectid": 245000, "statename": "Uttar Pradesh", "statecode": "9", "districtname": "Bhadohi", "districtcode": "198", "ulbname": "Bhadohi", "ulbcode": "801241", "wardname": "Bare Shiv", "wardcode": "3", "id": null, "status": "APPROVED", "misglobalid": null, "approved_by": null, "createdate": 1648039122000, "updateddate": 1648186427000, "globalid": null, "gisglobalid": "BcmRRcBs-a4lo-PRQQ-sPnB-B5lQQQcKBPPo", "remark": "Ok", "st_area(shape)": 2.756280162380156e-06, "st_perimeter(shape)": 0.007221440683141223}}, {"type": "Feature", "geometry": {"type": "Polygon", "coordinates": [[[82.4327, 25.2886], [82.4328, 25.2886], [82.433, 25.2885], [82.4331, 25.2885], [82.4332, 25.2884], [82.4332, 25.2883], [82.4327, 25.2871], [82.4325, 25.2872], [82.4323, 25.2873], [82.4321, 25.2874], [82.4323, 25.2878], [82.4326, 25.2884], [82.4327, 25.2886]]]}, "properties": {"objectid": 241407, "statename": "Uttar Pradesh", "statecode": "9", "districtname": "Bhadohi", "districtcode": "198", "ulbname": "Bhadohi", "ulbcode": "801241", "wardname": "Sohkhari", "wardcode": "4", "id": null, "status": "APPROVED", "misglobalid": null, "approved_by": null, "createdate": 1648039610000, "updateddate": 1648186436000, "globalid": null, "gisglobalid": "545d6cKQ-mQnK-Ps55-acms-nsoR5KmnBPKR", "remark": "Okk", "st_area(shape)": 8.436668767402648e-07, "st_perimeter(shape)": 0.003967954343784348}}, {"type": "Feature", "geometry": {"type": "Polygon", "coordinates": [[[82.4307, 25.2847], [82.431, 25.2851], [82.4317, 25.2849], [82.4314, 25.2843], [82.4314, 25.2842], [82.4311, 25.2843], [82.4311, 25.2842], [82.4306, 25.2844], [82.4306, 25.2843], [82.4304, 25.2844], [82.4303, 25.2843], [82.4296, 25.2846], [82.4297, 25.2847], [82.4304, 25.2848], [82.4307, 25.2848], [82.4307, 25.2847]]]}, "properties": {"objectid": 245777, "statename": "Uttar Pradesh", "statecode": "9", "districtname": "Bhadohi", "districtcode": "198", "ulbname": "Bhadohi", "ulbcode": "801241", "wardname": "Dhaikarn Mohal", "wardcode": "5", "id": null, "status": "APPROVED", "misglobalid": null, "approved_by": null, "createdate": 1648041079000, "updateddate": 1648186447000, "globalid": null, "gisglobalid": "oQKKc5Kc-sn64-PQaB-RKaP-4amdKlsddn6B", "remark": "Ok", "st_area(shape)": 1.0371298213003194e-06, "st_perimeter(shape)": 0.005277660056941919}}, {"type": "Feature", "geometry": {"type": "Polygon", "coordinates": [[[82.4346, 25.2862], [82.4347, 25.2863], [82.4348, 25.2863], [82.4348, 25.2862], [82.4349, 25.286], [82.435, 25.2858], [82.4351, 25.2857], [82.4351, 25.2856], [82.4352, 25.2855], [82.4353, 25.2855], [82.4354, 25.2854], [82.4355, 25.2854], [82.4356, 25.2853], [82.4357, 25.2853], [82.4359, 25.2852], [82.436, 25.2851], [82.4362, 25.2851], [82.4362, 25.285], [82.4361, 25.2851], [82.436, 25.2851], [82.4359, 25.2851], [82.4359, 25.285], [82.4358, 25.2849], [82.4357, 25.2846], [82.4357, 25.2844], [82.4356, 25.2843], [82.4346, 25.2846], [82.4348, 25.285], [82.4346, 25.285], [82.4349, 25.2856], [82.4345, 25.2858], [82.4347, 25.2861], [82.4346, 25.2862]]]}, "properties": {"objectid": 247391, "statename": "Uttar Pradesh", "statecode": "9", "districtname": "Bhadohi", "districtcode": "198", "ulbname": "Bhadohi", "ulbcode": "801241", "wardname": "Kanji House", "wardcode": "6", "id": null, "status": "APPROVED", "misglobalid": null, "approved_by": null, "createdate": 1648041252000, "updateddate": 1648186461000, "globalid": null, "gisglobalid": "oloddcl4-P4P6-PoKc-RmPR-cs4PnR5Pmsal", "remark": "Ok", "st_area(shape)": 1.386615963184287e-06, "st_perimeter(shape)": 0.0067356542378640425}}, {"type": "Feature", "geometry": {"type": "Polygon", "coordinates": [[[82.4328, 25.2864], [82.433, 25.2864], [82.4331, 25.2864], [82.4332, 25.2866], [82.4333, 25.2868], [82.4338, 25.2866], [82.4338, 25.2865], [82.4338, 25.2864], [82.4337, 25.2863], [82.4338, 25.2863], [82.434, 25.2862], [82.434, 25.2861], [82.434, 25.286], [82.4339, 25.286], [82.4338, 25.2859], [82.4337, 25.2859], [82.4336, 25.2859], [82.4335, 25.2859], [82.4334, 25.2859], [82.4333, 25.286], [82.4333, 25.2861], [82.4332, 25.2861], [82.4332, 25.2862], [82.4331, 25.2862], [82.433, 25.2862], [82.4329, 25.2861], [82.4328, 25.2861], [82.4328, 25.2862], [82.4327, 25.2862], [82.4327, 25.2863], [82.4328, 25.2864]]]}, "properties": {"objectid": 247392, "statename": "Uttar Pradesh", "statecode": "9", "districtname": "Bhadohi", "districtcode": "198", "ulbname": "Bhadohi", "ulbcode": "801241", "wardname": "Soniya Talab", "wardcode": "7", "id": null, "status": "APPROVED", "misglobalid": null, "approved_by": null, "createdate": 1648041357000, "updateddate": 1648186476000, "globalid": null, "gisglobalid": "BQBmQKR4-s4R4-PQn4-aQRl-lmdsn65QsaB6", "remark": "Ok", "st_area(shape)": 6.390071362497523e-07, "st_perimeter(shape)": 0.0038359831939684917}}, {"type": "Feature", "geometry": {"type": "Polygon", "coordinates": [[[82.431, 25.2836], [82.4311, 25.2836], [82.4317, 25.2834], [82.4316, 25.2832], [82.4314, 25.2828], [82.4313, 25.2825], [82.4311, 25.2824], [82.431, 25.2821], [82.4304, 25.2823], [82.4304, 25.2824], [82.4305, 25.2828], [82.431, 25.2836]]]}, "properties": {"objectid": 247396, "statename": "Uttar Pradesh", "statecode": "9", "districtname": "Bhadohi", "districtcode": "198", "ulbname": "Bhadohi", "ulbcode": "801241", "wardname": "Kervariya East", "wardcode": "8", "id": null, "status": "APPROVED", "misglobalid": null, "approved_by": null, "createdate": 1648041443000, "updateddate": 1648186486000, "globalid": null, "gisglobalid": "dm6nRdRl-dmsR-PssP-RRQP-PQRlmB66nBKc", "remark": "Ok", "st_area(shape)": 1.0504435773355616e-06, "st_perimeter(shape)": 0.004272669306115237}}, {"type": "Feature", "geometry": {"type": "Polygon", "coordinates": [[[82.4287, 25.2858], [82.4295, 25.2855], [82.4296, 25.2857], [82.4309, 25.2852], [82.4307, 25.2848], [82.4304, 25.2848], [82.4297, 25.2848], [82.4293, 25.2847], [82.4291, 25.2846], [82.429, 25.2846], [82.4288, 25.2846], [82.4284, 25.2848], [82.4288, 25.2855], [82.4286, 25.2855], [82.4287, 25.2858]]]}, "properties": {"objectid": 247397, "statename": "Uttar Pradesh", "statecode": "9", "districtname": "Bhadohi", "districtcode": "198", "ulbname": "Bhadohi", "ulbcode": "801241", "wardname": "Pacchim Mohal", "wardcode": "9", "id": null, "status": "APPROVED", "misglobalid": null, "approved_by": null, "createdate": 1648041565000, "updateddate": 1648186494000, "globalid": null, "gisglobalid": "6n6aB6Po-aPmd-Pcod-QBln-RnlBKnR6dcPl", "remark": "Ok", "st_area(shape)": 1.7796472746138368e-06, "st_perimeter(shape)": 0.006681010248820812}}, {"type": "Feature", "geometry": {"type": "Polygon", "coordinates": [[[82.4292, 25.2871], [82.4295, 25.2871], [82.4305, 25.2867], [82.4311, 25.2863], [82.4309, 25.286], [82.4307, 25.286], [82.4306, 25.2859], [82.4305, 25.2858], [82.4305, 25.2857], [82.4304, 25.2856], [82.4303, 25.2855], [82.4296, 25.2857], [82.4294, 25.2855], [82.4287, 25.2858], [82.4291, 25.2864], [82.429, 25.2866], [82.4292, 25.2871]]]}, "properties": {"objectid": 246566, "statename": "Uttar Pradesh", "statecode": "9", "districtname": "Bhadohi", "districtcode": "198", "ulbname": "Bhadohi", "ulbcode": "801241", "wardname": "Jogibir", "wardcode": "10", "id": null, "status": "APPROVED", "misglobalid": null, "approved_by": null, "createdate": 1648041652000, "updateddate": 1648186554000, "globalid": null, "gisglobalid": "dRdBaaK6-P46n-PaRR-R5Pn-Po4KaB4cB4aa", "remark": "Ok", "st_area(shape)": 2.3137606080282685e-06, "st_perimeter(shape)": 0.006692321521444461}}, {"type": "Feature", "geometry": {"type": "Polygon", "coordinates": [[[82.4315, 25.2871], [82.4317, 25.2871], [82.4318, 25.2871], [82.4319, 25.2871], [82.4321, 25.287], [82.4322, 25.287], [82.4324, 25.2871], [82.4325, 25.2871], [82.4326, 25.2871], [82.4323, 25.2863], [82.4322, 25.286], [82.4319, 25.286], [82.432, 25.2861], [82.432, 25.2862], [82.4321, 25.2863], [82.432, 25.2864], [82.4318, 25.2865], [82.4317, 25.2865], [82.4316, 25.2865], [82.4315, 25.2866], [82.4314, 25.2866], [82.4314, 25.2867], [82.4315, 25.2869], [82.4315, 25.287], [82.4315, 25.2871]]]}, "properties": {"objectid": 247398, "statename": "Uttar Pradesh", "statecode": "9", "districtname": "Bhadohi", "districtcode": "198", "ulbname": "Bhadohi", "ulbcode": "801241", "wardname": "Koiran Mohal", "wardcode": "11", "id": null, "status": "APPROVED", "misglobalid": null, "approved_by": null, "createdate": 1648041804000, "updateddate": 1648186569000, "globalid": null, "gisglobalid": "nn4Bclm5-54Pl-PdQP-a4lK-P4aBndB6dsnP", "remark": "Ok", "st_area(shape)": 7.455502878558278e-07, "st_perimeter(shape)": 0.004273080051173382}}, {"type": "Feature", "geometry": {"type": "Polygon", "coordinates": [[[82.4333, 25.2877], [82.4334, 25.2876], [82.4336, 25.2874], [82.4337, 25.2874], [82.4338, 25.2873], [82.434, 25.2872], [82.4342, 25.2871], [82.4343, 25.287], [82.4345, 25.2869], [82.4345, 25.2868], [82.4346, 25.2867], [82.4347, 25.2866], [82.4347, 25.2865], [82.4347, 25.2864], [82.4346, 25.2863], [82.4346, 25.2862], [82.4345, 25.2862], [82.4344, 25.2861], [82.4343, 25.2861], [82.4342, 25.2861], [82.4341, 25.2861], [82.434, 25.2862], [82.4339, 25.2863], [82.4338, 25.2863], [82.4337, 25.2863], [82.4339, 25.2866], [82.4333, 25.2868], [82.4332, 25.2867], [82.4329, 25.2869], [82.4333, 25.2877]]]}, "properties": {"objectid": 247408, "statename": "Uttar Pradesh", "statecode": "9", "districtname": "Bhadohi", "districtcode": "198", "ulbname": "Bhadohi", "ulbcode": "801241", "wardname": "Pure Gulab", "wardcode": "12", "id": null, "status": "APPROVED", "misglobalid": null, "approved_by": null, "createdate": 1648043171000, "updateddate": 1648186585000, "globalid": null, "gisglobalid": "44sB4ocm-PnKK-PcP5-ac5K-4Q4nQcdaQdnc", "remark": "Ok", "st_area(shape)": 1.3381371866373594e-06, "st_perimeter(shape)": 0.005576928246443886}}, {"type": "Feature", "geometry": {"type": "Polygon", "coordinates": [[[82.4291, 25.2846], [82.4293, 25.2847], [82.4297, 25.2847], [82.4296, 25.2846], [82.4303, 25.2843], [82.4304, 25.2844], [82.4306, 25.2843], [82.4306, 25.2844], [82.4311, 25.2842], [82.4311, 25.2843], [82.4313, 25.2842], [82.4311, 25.2836], [82.431, 25.2836], [82.4311, 25.2839], [82.4307, 25.2841], [82.4306, 25.2841], [82.4305, 25.2839], [82.4305, 25.284], [82.4303, 25.2841], [82.4301, 25.2842], [82.4292, 25.2845], [82.4291, 25.2846]]]}, "properties": {"objectid": 245015, "statename": "Uttar Pradesh", "statecode": "9", "districtname": "Bhadohi", "districtcode": "198", "ulbname": "Bhadohi", "ulbcode": "801241", "wardname": "Pure Bhagawat", "wardcode": "13", "id": null, "status": "APPROVED", "misglobalid": null, "approved_by": null, "createdate": 1648043318000, "updateddate": 1648186597000, "globalid": null, "gisglobalid": "sQdQsPBQ-6446-PKmc-QRaB-Q6lscadBR5P6", "remark": "Ok", "st_area(shape)": 5.837393511251474e-07, "st_perimeter(shape)": 0.006170819934226292}}, {"type": "Feature", "geometry": {"type": "Polygon", "coordinates": [[[82.4315, 25.2871], [82.4315, 25.287], [82.4315, 25.2869], [82.4314, 25.2867], [82.4314, 25.2866], [82.4315, 25.2866], [82.4316, 25.2865], [82.4317, 25.2865], [82.4319, 25.2864], [82.4321, 25.2863], [82.432, 25.2862], [82.4319, 25.286], [82.4311, 25.2864], [82.4306, 25.2866], [82.4305, 25.2867], [82.4295, 25.2871], [82.4296, 25.2872], [82.4297, 25.2872], [82.4298, 25.2872], [82.43, 25.2871], [82.4301, 25.287], [82.4304, 25.2869], [82.4306, 25.287], [82.4307, 25.287], [82.4308, 25.287], [82.4313, 25.2871], [82.4314, 25.2871], [82.4315, 25.2871]]]}, "properties": {"objectid": 245016, "statename": "Uttar Pradesh", "statecode": "9", "districtname": "Bhadohi", "districtcode": "198", "ulbname": "Bhadohi", "ulbcode": "801241", "wardname": "Thana Ward", "wardcode": "14", "id": null, "status": "APPROVED", "misglobalid": null, "approved_by": null, "createdate": 1648043467000, "updateddate": 1648186626000, "globalid": null, "gisglobalid": "4slsmso4-4onR-PoR5-Rs55-s4RandKc4cPc", "remark": "Ok", "st_area(shape)": 9.683668560517238e-07, "st_perimeter(shape)": 0.006417207476459469}}, {"type": "Feature", "geometry": {"type": "Polygon", "coordinates": [[[82.4332, 25.2883], [82.4333, 25.2883], [82.4333, 25.2884], [82.4334, 25.2883], [82.4335, 25.2883], [82.4335, 25.2882], [82.4334, 25.288], [82.4333, 25.2877], [82.4328, 25.2869], [82.4326, 25.287], [82.4329, 25.2875], [82.4332, 25.2883]]]}, "properties": {"objectid": 245789, "statename": "Uttar Pradesh", "statecode": "9", "districtname": "Bhadohi", "districtcode": "198", "ulbname": "Bhadohi", "ulbcode": "801241", "wardname": "Gyanpur Road Phubag", "wardcode": "15", "id": null, "status": "APPROVED", "misglobalid": null, "approved_by": null, "createdate": 1648043645000, "updateddate": 1648186636000, "globalid": null, "gisglobalid": "P4BBsQ4a-R6lm-PmBR-aK4l-Q5cB5nsm54Q4", "remark": "Ok", "st_area(shape)": 4.275344309674333e-07, "st_perimeter(shape)": 0.00352169286532819}}, {"type": "Feature", "geometry": {"type": "Polygon", "coordinates": [[[82.4326, 25.287], [82.4332, 25.2867], [82.4331, 25.2864], [82.433, 25.2864], [82.4328, 25.2864], [82.4327, 25.2863], [82.4327, 25.2862], [82.4329, 25.2861], [82.433, 25.2862], [82.4328, 25.2857], [82.4322, 25.286], [82.4323, 25.2864], [82.4326, 25.287]]]}, "properties": {"objectid": 247420, "statename": "Uttar Pradesh", "statecode": "9", "districtname": "Bhadohi", "districtcode": "198", "ulbname": "Bhadohi", "ulbcode": "801241", "wardname": "Gyanpur Road Noniyan Gali", "wardcode": "16", "id": null, "status": "APPROVED", "misglobalid": null, "approved_by": null, "createdate": 1648043817000, "updateddate": 1648186655000, "globalid": null, "gisglobalid": "scllRoRK-QoRl-PRKB-Q6sa-oa6BP6R6o5dR", "remark": "Ok", "st_area(shape)": 6.469476675243122e-07, "st_perimeter(shape)": 0.004145677673770521}}, {"type": "Feature", "geometry": {"type": "Polygon", "coordinates": [[[82.4328, 25.2857], [82.433, 25.2861], [82.433, 25.2862], [82.4331, 25.2862], [82.4332, 25.2861], [82.4333, 25.286], [82.4334, 25.2859], [82.4335, 25.2858], [82.4336, 25.2858], [82.4338, 25.2859], [82.4339, 25.286], [82.434, 25.2861], [82.4341, 25.2861], [82.4342, 25.2861], [82.4343, 25.2861], [82.4346, 25.2862], [82.4347, 25.2861], [82.4345, 25.2857], [82.4349, 25.2856], [82.4346, 25.285], [82.4328, 25.2857]]]}, "properties": {"objectid": 246990, "statename": "Uttar Pradesh", "statecode": "9", "districtname": "Bhadohi", "districtcode": "198", "ulbname": "Bhadohi", "ulbcode": "801241", "wardname": "Aspatal Ke Piche", "wardcode": "17", "id": null, "status": "APPROVED", "misglobalid": null, "approved_by": null, "createdate": 1648043929000, "updateddate": 1648186679000, "globalid": null, "gisglobalid": "QP4RR6cR-dmBn-PBBl-RRno-K5PnlQ4s5omm", "remark": "Ok", "st_area(shape)": 1.2364590614529223e-06, "st_perimeter(shape)": 0.0058023187409988065}}, {"type": "Feature", "geometry": {"type": "Polygon", "coordinates": [[[82.4335, 25.2854], [82.4346, 25.285], [82.4347, 25.285], [82.4341, 25.2835], [82.4338, 25.284], [82.4331, 25.2843], [82.4335, 25.2854]]]}, "properties": {"objectid": 245018, "statename": "Uttar Pradesh", "statecode": "9", "districtname": "Bhadohi", "districtcode": "198", "ulbname": "Bhadohi", "ulbcode": "801241", "wardname": "Kali Devi", "wardcode": "18", "id": null, "status": "APPROVED", "misglobalid": null, "approved_by": null, "createdate": 1648043996000, "updateddate": 1648186696000, "globalid": null, "gisglobalid": "sKQPd4os-mdQR-PQQo-R4Rd-cdQ5Qc5aKQl5", "remark": "Ok", "st_area(shape)": 1.5477659176719406e-06, "st_perimeter(shape)": 0.00532051752199199}}, {"type": "Feature", "geometry": {"type": "Polygon", "coordinates": [[[82.4331, 25.2854], [82.4332, 25.2855], [82.4335, 25.2854], [82.4331, 25.2843], [82.4324, 25.2846], [82.4325, 25.2849], [82.4329, 25.2848], [82.4331, 25.2854]]]}, "properties": {"objectid": 237391, "statename": "Uttar Pradesh", "statecode": "9", "districtname": "Bhadohi", "districtcode": "198", "ulbname": "Bhadohi", "ulbcode": "801241", "wardname": "Churihari Mohal", "wardcode": "19", "id": null, "status": "APPROVED", "misglobalid": null, "approved_by": null, "createdate": 1648044070000, "updateddate": 1648186705000, "globalid": null, "gisglobalid": "lo4momcK-a5cQ-PdBR-Rmsa-maRoR4PQlacB", "remark": "Ok", "st_area(shape)": 5.258903712549403e-07, "st_perimeter(shape)": 0.0037512784084909284}}, {"type": "Feature", "geometry": {"type": "Polygon", "coordinates": [[[82.4322, 25.2859], [82.4332, 25.2855], [82.433, 25.2852], [82.4321, 25.2855], [82.4322, 25.2859]]]}, "properties": {"objectid": 245019, "statename": "Uttar Pradesh", "statecode": "9", "districtname": "Bhadohi", "districtcode": "198", "ulbname": "Bhadohi", "ulbcode": "801241", "wardname": "Churihari Mohal 2", "wardcode": "20", "id": null, "status": "APPROVED", "misglobalid": null, "approved_by": null, "createdate": 1648044138000, "updateddate": 1648186728000, "globalid": null, "gisglobalid": "d4KolKdc-aRBm-Pnmd-s6cR-4KdPdmRsdKad", "remark": "Ok", "st_area(shape)": 4.174470994816967e-07, "st_perimeter(shape)": 0.0028727429256075725}}, {"type": "Feature", "geometry": {"type": "Polygon", "coordinates": [[[82.4317, 25.2842], [82.4315, 25.2843], [82.4321, 25.2855], [82.4324, 25.2854], [82.4323, 25.2851], [82.4326, 25.285], [82.4323, 25.2844], [82.4321, 25.2845], [82.432, 25.2842], [82.432, 25.2841], [82.4319, 25.284], [82.4317, 25.2842]]]}, "properties": {"objectid": 245020, "statename": "Uttar Pradesh", "statecode": "9", "districtname": "Bhadohi", "districtcode": "198", "ulbname": "Bhadohi", "ulbcode": "801241", "wardname": "Kharhati Mohal", "wardcode": "21", "id": null, "status": "APPROVED", "misglobalid": null, "approved_by": null, "createdate": 1648044433000, "updateddate": 1648186795000, "globalid": null, "gisglobalid": "5l5doPa6-QPlc-P6KK-ssmB-PdKc5mnsKonR", "remark": "Ok", "st_area(shape)": 7.786314638077143e-07, "st_perimeter(shape)": 0.00415797145801739}}, {"type": "Feature", "geometry": {"type": "Polygon", "coordinates": [[[82.4323, 25.2844], [82.4324, 25.2846], [82.4331, 25.2843], [82.4338, 25.284], [82.4341, 25.2835], [82.4344, 25.2825], [82.4343, 25.2825], [82.4342, 25.2825], [82.4331, 25.2828], [82.4332, 25.2829], [82.4333, 25.2829], [82.4334, 25.283], [82.4334, 25.2831], [82.4334, 25.2832], [82.4334, 25.2833], [82.4335, 25.2833], [82.4336, 25.2833], [82.4337, 25.2833], [82.4337, 25.2835], [82.4336, 25.2835], [82.4335, 25.2836], [82.4334, 25.2836], [82.4333, 25.2836], [82.4333, 25.2837], [82.4333, 25.2838], [82.4332, 25.2838], [82.433, 25.2839], [82.433, 25.284], [82.433, 25.2841], [82.4323, 25.2844]]]}, "properties": {"objectid": 246991, "statename": "Uttar Pradesh", "statecode": "9", "districtname": "Bhadohi", "districtcode": "198", "ulbname": "Bhadohi", "ulbcode": "801241", "wardname": "Kervariya West", "wardcode": "22", "id": null, "status": "APPROVED", "misglobalid": null, "approved_by": null, "createdate": 1648186045000, "updateddate": 1648186780000, "globalid": null, "gisglobalid": "c6dPn6oK-5Bdm-PndK-RomQ-Pmnm4clK6RcQ", "remark": "Ok", "st_area(shape)": 1.3081367782289242e-06, "st_perimeter(shape)": 0.007520325898055557}}, {"type": "Feature", "geometry": {"type": "Polygon", "coordinates": [[[82.4324, 25.2854], [82.433, 25.2852], [82.4328, 25.2848], [82.4326, 25.2849], [82.4326, 25.285], [82.4323, 25.2851], [82.4324, 25.2854]]]}, "properties": {"objectid": 250708, "statename": "Uttar Pradesh", "statecode": "9", "districtname": "Bhadohi", "districtcode": "198", "ulbname": "Bhadohi", "ulbcode": "801241", "wardname": "Kharhatti Mohla", "wardcode": "23", "id": null, "status": "APPROVED", "misglobalid": null, "approved_by": null, "createdate": 1648186187000, "updateddate": 1648186768000, "globalid": null, "gisglobalid": "mPn4oKBm-alnm-PRmB-QP6c-4nmBsB4m6Ba5", "remark": "Ok", "st_area(shape)": 2.0695901994587148e-07, "st_perimeter(shape)": 0.0020039392937468963}}, {"type": "Feature", "geometry": {"type": "Polygon", "coordinates": [[[82.4319, 25.286], [82.4322, 25.2859], [82.4317, 25.2849], [82.431, 25.2852], [82.4311, 25.2854], [82.4316, 25.2853], [82.4319, 25.286]]]}, "properties": {"objectid": 250709, "statename": "Uttar Pradesh", "statecode": "9", "districtname": "Bhadohi", "districtcode": "198", "ulbname": "Bhadohi", "ulbcode": "801241", "wardname": "Durga Gali", "wardcode": "24", "id": null, "status": "APPROVED", "misglobalid": null, "approved_by": null, "createdate": 1648186310000, "updateddate": 1648186742000, "globalid": null, "gisglobalid": "smaQ6Pso-B6PR-Pll4-sBR4-PRRPoBmcQmsB", "remark": "Ok", "st_area(shape)": 4.376788608173593e-07, "st_perimeter(shape)": 0.00377181637116177}}, {"type": "Feature", "geometry": {"type": "Polygon", "coordinates": [[[82.4311, 25.2863], [82.4319, 25.286], [82.4316, 25.2853], [82.4311, 25.2854], [82.4309, 25.2852], [82.4303, 25.2854], [82.4307, 25.286], [82.431, 25.286], [82.4311, 25.2863]]]}, "properties": {"objectid": 247924, "statename": "Uttar Pradesh", "statecode": "9", "districtname": "Bhadohi", "districtcode": "198", "ulbname": "Bhadohi", "ulbcode": "801241", "wardname": "Jama Masjid", "wardcode": "25", "id": null, "status": "APPROVED", "misglobalid": null, "approved_by": null, "createdate": 1648186377000, "updateddate": 1648186756000, "globalid": null, "gisglobalid": "sllcaP6m-KcKs-PcQP-aKmR-nada6R4Pa5Rd", "remark": "Ok", "st_area(shape)": 1.0043550520690403e-06, "st_perimeter(shape)": 0.0044506358671003166}}]}
