{"type":"Topology","arcs":[[[90436,4420],[629,-3350],[-873,-909]],[[90192,161],[-4609,788]],[[85583,949],[244,1372],[1685,20],[1482,1150],[223,1070]],[[89217,4561],[1219,-141]],[[85583,949],[-1320,161]],[[84263,1110],[812,2119],[-934,646],[-264,1937]],[[83877,5812],[2092,-827],[1462,181],[1786,-605]],[[93948,3612],[-1157,-2038],[-366,-1574],[-2233,161]],[[90436,4420],[-21,1655]],[[90415,6075],[1076,-162],[853,-1675],[1604,-626]],[[66009,6620],[2193,-485],[-345,-1917]],[[67857,4218],[-4954,1312]],[[62903,5530],[893,1110],[2213,-20]],[[68020,9788],[751,-2059],[1766,-222]],[[70537,7507],[224,-1897],[-386,-2139]],[[70375,3471],[-2518,747]],[[66009,6620],[1320,1856],[-670,606]],[[66659,9082],[1361,706]],[[81299,9727],[731,-2179]],[[82030,7548],[-2518,-1150],[-61,2603],[-2091,-40]],[[77360,8961],[1299,1554],[2640,-788]],[[95431,9465],[-1361,-948],[-467,-1655],[345,-3250]],[[90415,6075],[-954,847],[203,1373],[1320,948],[1096,1574]],[[92080,10817],[1909,-242],[1442,-1110]],[[76608,9243],[0,-40]],[[76608,9203],[-1157,-2624],[2497,-2341],[346,-2018]],[[78294,2220],[-7919,1251]],[[70537,7507],[264,1736],[1016,81],[507,1917]],[[72324,11241],[1503,-182],[690,-1210],[2091,-606]],[[46010,10898],[2335,-1231]],[[48345,9667],[-2153,101],[-1685,-807],[-2233,1998],[-41,787]],[[42233,11746],[3777,-848]],[[59289,12391],[3858,-585]],[[63147,11806],[-1137,-1614],[-2396,-1090],[-447,-2281]],[[59167,6821],[-4650,1373]],[[54517,8194],[731,2987],[-243,1977]],[[55005,13158],[4284,-767]],[[72040,12896],[264,-262]],[[72304,12634],[20,-1393]],[[66659,9082],[-1807,888],[1056,3370]],[[65908,13340],[4406,-626],[1726,182]],[[77583,12573],[-975,-3330]],[[72304,12634],[731,706],[4548,-767]],[[97400,11503],[-1969,-2038]],[[92080,10817],[142,1373]],[[92222,12190],[1198,1170],[3980,-1857]],[[81441,10575],[-142,-848]],[[77360,8961],[-752,242]],[[77583,12573],[1381,626],[2477,-2624]],[[83877,5812],[-223,908],[-1624,828]],[[81441,10575],[1766,404],[914,2119],[2619,1170]],[[86740,14268],[1340,-262],[995,-1615],[3147,-201]],[[72040,13945],[0,-1049]],[[65908,13340],[-203,1473]],[[65705,14813],[6335,-868]],[[62903,5530],[-3736,1291]],[[63147,11806],[1543,3027]],[[64690,14833],[1015,-20]],[[54801,14531],[204,-1373]],[[54517,8194],[-6172,1473]],[[46010,10898],[81,1110],[2436,1594],[2376,808],[833,1311]],[[51736,15721],[2091,-403],[974,-787]],[[59471,13723],[-182,-1332]],[[54801,14531],[1320,1412],[995,-1675],[2355,-545]],[[90090,16771],[1300,-606],[3188,-302],[1462,-868],[2578,-343],[1381,-1716],[-2599,-1433]],[[86740,14268],[-873,2281]],[[85867,16549],[4223,222]],[[74923,16488],[1584,-1130]],[[76507,15358],[1076,-2785]],[[72040,13945],[244,1110],[-589,2200]],[[71695,17255],[812,61]],[[72507,17316],[2416,-828]],[[85542,17316],[325,-767]],[[76507,15358],[2132,-1049],[1726,363],[1746,1191]],[[82111,15863],[304,1231]],[[82415,17094],[3127,222]],[[82111,15863],[-1888,767],[-528,1473],[1827,302],[162,929]],[[81684,19334],[731,-2240]],[[59553,19536],[507,-787],[-751,-1655],[2782,-808],[-224,-726],[-2091,-767]],[[59776,14793],[-1462,545],[447,2583],[-1259,121],[0,1534]],[[57502,19576],[2051,-40]],[[74923,16488],[751,1716],[-812,1816],[2152,-363],[1462,484]],[[78476,20141],[1990,464],[1218,-1271]],[[47370,20363],[3635,-323],[893,-1534]],[[51898,18506],[-162,-2785]],[[42233,11746],[-61,282]],[[42172,12028],[589,1756],[1259,585],[365,1130],[-528,2119],[1097,2685]],[[44954,20303],[528,363]],[[45482,20666],[1888,-303]],[[59776,14793],[-305,-1070]],[[51898,18506],[1401,1090],[365,1171]],[[53664,20767],[1625,-323],[2051,1130],[162,-1998]],[[71654,21029],[853,-3713]],[[71695,17255],[-1787,2402],[203,2078]],[[70111,21735],[-41,303]],[[70070,22038],[1584,-1009]],[[61543,22240],[629,-61]],[[62172,22179],[-223,-2724],[1177,-727]],[[63126,18728],[467,-3229],[1097,-666]],[[59553,19536],[812,2664],[1178,40]],[[44954,20303],[-1624,-323],[-1158,1110],[954,1110],[2396,343],[-40,-1877]],[[63126,18728],[2071,2341],[2457,2079],[2457,-1413]],[[34619,23330],[-61,-4743],[1706,-1413]],[[36264,17174],[-2538,1332],[-2132,707]],[[31594,19213],[-772,746],[2599,2765],[1198,606]],[[88121,24319],[1218,-2806],[-304,-1089],[-1340,-707],[-325,-1049],[-1828,-1352]],[[78476,20141],[1868,2220]],[[80344,22361],[1198,1473],[1929,-1675],[2092,848],[771,1655]],[[86334,24662],[1787,-343]],[[48974,25429],[1929,-1272],[203,-1796],[2437,-848]],[[53543,21513],[121,-746]],[[47370,20363],[61,949],[1401,4137]],[[48832,25449],[142,-20]],[[42172,12028],[-1177,2018],[-3858,2604]],[[37137,16650],[609,1130],[426,3007],[1158,-242],[974,928],[41,2260],[2091,1009]],[[42436,24742],[3330,586]],[[45766,25328],[3066,121]],[[69299,25267],[751,-605]],[[70050,24662],[20,-2624]],[[62172,22179],[548,1514],[2355,242],[1665,606],[264,1069],[2295,-343]],[[53664,24319],[-121,-2806]],[[48974,25429],[2173,-283],[1786,626]],[[52933,25772],[731,-1453]],[[88121,24319],[772,585]],[[88893,24904],[2010,827]],[[90903,25731],[954,-3128],[-812,-706],[487,-1433],[-1705,-1049],[263,-2644]],[[74598,25348],[-2944,-4319]],[[70050,24662],[2802,80],[122,1353],[1624,-747]],[[75857,26478],[1503,-1271],[81,-2099],[2903,-747]],[[74598,25348],[1036,1231]],[[75634,26579],[223,-101]],[[38741,26902],[1035,-1615],[-1441,-1009],[-2741,-363],[-975,-585]],[[31594,19213],[-2295,666],[-2091,2280]],[[27208,22159],[1949,3068],[-41,605],[6011,384]],[[35127,26216],[791,524],[2823,162]],[[80060,26821],[2254,-666],[2294,81],[1726,-1574]],[[75857,26478],[812,1231],[1259,-2018],[1503,-605],[629,1735]],[[35817,28294],[-690,-2078]],[[27208,22159],[-2132,2321]],[[25076,24480],[183,3391],[1644,-303]],[[26903,27568],[934,262]],[[27837,27830],[1807,848],[3736,0],[2437,-384]],[[45766,25328],[81,1755]],[[45847,27083],[1848,303],[1543,1574]],[[49238,28960],[2579,-262],[1116,-2926]],[[25076,24480],[-4020,2381]],[[21056,26861],[548,1353],[2010,1372]],[[23614,29586],[1685,-686],[853,666],[751,-1998]],[[41137,29909],[1360,-4137]],[[42497,25772],[-61,-1030]],[[37137,16650],[-873,524]],[[38741,26902],[0,1493],[1218,1776],[1178,-262]],[[75634,26579],[-1279,504]],[[74355,27083],[2132,1070],[731,1171],[1969,706]],[[79187,30030],[41,262]],[[79228,30292],[1441,-423],[-609,-3048]],[[69299,25267],[670,1433],[-366,2906]],[[69603,29606],[2112,-1150],[2437,1917]],[[74152,30373],[203,-3290]],[[46436,28375],[-589,-1292]],[[42497,25772],[1360,2785],[21,1978]],[[43878,30535],[2558,-2160]],[[19452,27729],[-1442,808],[-1137,1554]],[[16873,30091],[528,504]],[[17401,30595],[1137,-827],[914,-2039]],[[61543,22240],[20,1049],[-2457,3492],[1036,2845]],[[60142,29626],[6274,-968],[2233,-41],[934,2583]],[[69583,31200],[20,-1594]],[[35939,30373],[-122,-2079]],[[27837,27830],[2254,2987],[1381,464]],[[31472,31281],[1726,-686],[1076,363],[1665,-585]],[[74152,30373],[324,1312]],[[74476,31685],[4711,-1655]],[[41137,29909],[852,2240]],[[41989,32149],[1889,-1614]],[[49238,28960],[1259,1050],[5401,2361]],[[55898,32371],[2436,-989],[-1238,-726],[426,-4239],[1665,-1876],[-2010,-343],[-1787,666],[-1726,-545]],[[29380,32674],[2092,-1393]],[[23614,29586],[365,1110]],[[23979,30696],[4285,1958],[1116,20]],[[41989,32331],[0,-182]],[[35939,30373],[609,1715],[1604,909]],[[38152,32997],[3837,-666]],[[90476,31039],[1158,-2704],[-731,-2604]],[[88893,24904],[-2234,1594],[995,2422],[1502,1937],[-1279,2220]],[[87877,33077],[1056,-1493],[1543,-545]],[[44000,34046],[264,-948],[1583,-606],[1239,242]],[[47086,32734],[264,-1816],[-914,-2543]],[[41989,32331],[-101,1190]],[[41888,33521],[467,767],[1645,-242]],[[61339,34288],[-223,-3330],[-974,-1332]],[[55898,32371],[2112,1493]],[[58010,33864],[1908,888]],[[59918,34752],[1421,-464]],[[57847,34288],[163,-424]],[[47086,32734],[1888,-1130],[1584,1332],[1482,-40]],[[52040,32896],[1198,948],[3614,1292],[995,-848]],[[23979,30696],[-1401,1756]],[[22578,32452],[1726,524],[630,949],[-386,1393]],[[24548,35318],[1259,-222],[3573,-2422]],[[69745,32654],[-162,-1454]],[[61339,34288],[2356,20],[792,747],[2335,343],[609,-1574],[2314,-1170]],[[44000,34046],[-305,2159],[2315,-544]],[[46010,35661],[2213,20],[-325,-1958],[3655,444],[487,-1271]],[[21056,26861],[-1604,868]],[[17401,30595],[1908,2684],[-954,1029],[20,2099]],[[18375,36407],[1747,263],[467,-1857],[1989,-2361]],[[36934,34894],[1502,-969],[-284,-928]],[[29380,32674],[41,1170],[1482,1433],[-182,868]],[[30721,36145],[2091,-585],[792,746]],[[33604,36306],[1157,808],[954,-1655],[1219,-565]],[[72872,36993],[1401,-2705]],[[74273,34288],[203,-2603]],[[69745,32654],[407,2926]],[[70152,35580],[1482,1695]],[[71634,37275],[1238,-282]],[[41015,37215],[873,-3694]],[[36934,34894],[2071,807],[304,2402]],[[39309,38103],[1706,-888]],[[74273,34288],[630,1009],[1990,908],[4893,707],[751,1776]],[[82537,38688],[548,-2644],[610,-585],[-2234,-2967],[-1990,-161],[-243,-2039]],[[46010,35661],[873,1432],[-21,1252]],[[46862,38345],[447,262]],[[47309,38607],[1401,-60],[1421,-1554],[1848,-263],[873,1110],[1645,-686],[1117,-1473],[1786,-626],[447,-767]],[[27878,38506],[345,-20]],[[28223,38486],[1320,-747]],[[29543,37739],[1178,-1594]],[[24548,35318],[629,1473],[-1949,908],[-101,1150],[1644,-60],[1686,-1312],[1421,1029]],[[85847,38345],[-630,-2281],[366,-1332],[-1645,-484],[-934,-1695],[853,-767],[2964,262],[1056,1029]],[[82537,38688],[853,1049],[2457,-1392]],[[17644,39939],[427,-908],[-467,-2301],[771,-323]],[[16873,30091],[-3574,3632]],[[13299,33723],[-81,1352],[894,747],[20,3047]],[[14132,38869],[1807,909]],[[15939,39778],[1705,161]],[[33604,36306],[-711,1110],[2213,1151],[2416,1756]],[[37522,40323],[1787,-2220]],[[17644,39939],[3087,-242],[528,847]],[[21259,40544],[3472,122],[1320,-1776],[1827,-384]],[[69177,38688],[975,-3108]],[[59918,34752],[-1320,727],[-345,1372]],[[58253,36851],[1158,908],[1279,-766],[1401,403],[2558,3370],[2193,-363],[1442,-1917],[893,202]],[[69177,38688],[-447,1392],[1056,1009]],[[69786,41089],[934,-282],[893,-1554],[21,-1978]],[[41015,37215],[-467,2260],[914,1635]],[[41462,41110],[2030,-1655],[1766,-222],[143,-1292],[1461,404]],[[16873,42401],[792,-1029],[-21,-1433]],[[15939,39778],[-163,1432],[1097,1191]],[[14132,38869],[-589,-201]],[[13543,38668],[711,2462]],[[14254,41130],[2071,1735]],[[16325,42865],[548,-464]],[[29543,37739],[1157,283],[995,5166],[-122,444]],[[31573,43632],[1137,182]],[[32710,43814],[1036,-807],[2233,-687],[1543,-1997]],[[65685,43269],[934,-928],[1198,1190],[1969,-2442]],[[58253,36851],[-61,2099],[-792,3310],[427,1473],[1320,222]],[[59147,43955],[2192,-3390],[1544,827],[2335,363],[467,1514]],[[25584,43148],[629,-384],[2010,-4278]],[[21259,40544],[-366,2220],[1097,1554]],[[21990,44318],[2599,-282],[995,-888]],[[13015,43854],[1117,-282],[122,-2442]],[[13543,38668],[-1117,383],[-162,1978],[-1097,0],[-751,1231]],[[10416,42260],[934,383],[203,1675],[1462,-464]],[[13299,33723],[-2477,2119],[-4548,2927]],[[6274,38769],[548,2098]],[[6822,40867],[975,4138]],[[7797,45005],[731,-1675],[1888,-1070]],[[47390,45792],[914,-929],[690,-2583],[-1685,-3673]],[[41462,41110],[-752,2280]],[[40710,43390],[2071,787]],[[42781,44177],[1990,1130],[2619,485]],[[32710,43814],[-954,1150]],[[31756,44964],[2579,-181],[1563,908]],[[35898,45691],[2173,101]],[[38071,45792],[1116,-4420],[2275,-262]],[[16061,44480],[264,-1615]],[[13015,43854],[-304,1978]],[[12711,45832],[2091,-383],[1259,-969]],[[38071,45792],[40,242]],[[38111,46034],[2599,-2644]],[[25584,43148],[446,1211]],[[26030,44359],[163,646]],[[26193,45005],[1807,484],[40,1090],[2985,-2039],[548,-908]],[[21198,45872],[792,-1554]],[[16061,44480],[2477,1917]],[[18538,46397],[2660,-525]],[[21198,45872],[1462,808]],[[22660,46680],[1969,-444],[264,-1655],[1137,-222]],[[5279,46619],[305,-1998],[-1300,-2724],[2538,-1030]],[[6274,38769],[-3147,2623],[-3127,2038],[1157,2685],[2356,-424],[649,1190],[1117,-262]],[[7797,45005],[-244,1170]],[[7553,46175],[2579,606],[2091,0],[1056,746]],[[13279,47527],[-568,-1695]],[[35045,47083],[853,-1392]],[[31756,44964],[-1198,2220]],[[30558,47184],[1259,-363],[1279,726],[1949,-464]],[[80202,47124],[609,-949],[-345,-1433],[-2233,-1049],[-3066,-666],[-1482,-1130],[1989,-707],[873,-1311],[1219,665],[2578,-544],[1442,605],[1685,1796],[711,-2563],[2051,-1110]],[[86233,38728],[-386,-383]],[[72872,36993],[650,2341],[-1421,2724],[223,747]],[[72324,42805],[1381,242],[3411,4561]],[[77116,47608],[3086,-484]],[[64263,45893],[1422,-2624]],[[59147,43955],[913,545],[-2253,2301],[527,1029],[1686,1191]],[[60020,49021],[1401,-848],[182,-1211],[2660,-1069]],[[6802,49243],[-122,-1796],[873,-1272]],[[5279,46619],[-589,2442],[2112,182]],[[19817,49263],[690,-2987],[2153,404]],[[18538,46397],[-1340,3229]],[[17198,49626],[-224,182]],[[16974,49808],[2843,-545]],[[89075,39071],[-467,-989],[-2375,646]],[[80202,47124],[1543,1755],[1625,1090]],[[83370,49969],[528,-1937],[873,-242],[4304,-8719]],[[72324,42805],[-142,525]],[[72182,43330],[893,1453],[-61,1816],[1564,3249]],[[74578,49848],[772,-20],[1766,-2220]],[[19817,49263],[1685,1332]],[[21502,50595],[1787,-2704],[2985,60],[-81,-2946]],[[35979,50635],[1422,-2119],[710,-2482]],[[35045,47083],[-710,1231],[0,2483]],[[34335,50797],[1644,-162]],[[9523,50817],[954,-3189],[2802,-101]],[[6802,49243],[-122,666],[2843,908]],[[36812,50756],[2477,-686]],[[39289,50070],[2335,-2724],[1604,80],[-650,-2058],[203,-1191]],[[35979,50635],[833,121]],[[50984,50898],[1828,-404],[325,-1695],[1604,-1252],[2355,-181],[873,2543],[2051,-888]],[[47390,45792],[1056,1695],[975,383]],[[49421,47870],[1259,1494],[304,1534]],[[14416,51200],[-304,-2018],[-833,-1655]],[[9523,50817],[2152,-363],[2741,746]],[[72182,43330],[-1868,-344],[-1888,1010],[-1056,2542],[122,2543]],[[67492,49081],[2193,2240],[4142,-403],[751,-1070]],[[14416,51200],[1036,-2159],[1746,585]],[[65299,49303],[406,-3673],[-1442,263]],[[60020,49021],[1847,2603]],[[61867,51624],[3432,-2321]],[[65299,49303],[-81,2644]],[[65218,51947],[913,-2785],[1361,-81]],[[65157,51907],[61,40]],[[61867,51624],[244,505]],[[62111,52129],[81,141]],[[62192,52270],[2173,-949],[792,586]],[[46599,50797],[487,-707]],[[47086,50090],[2335,-2220]],[[39289,50070],[1096,1393]],[[40385,51463],[1665,201],[3046,-2119],[1503,1252]],[[30558,47184],[731,1837]],[[31289,49021],[-873,2099],[1340,2179]],[[31756,53299],[1076,-222],[1503,-2280]],[[47086,50090],[568,1171],[3087,2321],[-122,746]],[[50619,54328],[792,-625],[-427,-2805]],[[36812,50756],[-325,1151],[1482,2522]],[[37969,54429],[1949,-1533],[467,-1433]],[[19492,53158],[20,-949],[1990,-1614]],[[16974,49808],[-1583,1776],[-975,1957],[1340,1030]],[[15756,54571],[1401,-1756],[2335,343]],[[21502,50595],[1401,-202],[-243,3330]],[[22660,53723],[1786,-303],[792,1877]],[[25238,55297],[2173,-3209],[975,-565],[1807,-2462],[1096,-40]],[[50619,54328],[690,1030]],[[51309,55358],[1787,-908],[4467,-788],[2091,142],[467,-787],[1990,-888]],[[19594,54006],[-102,-848]],[[15756,54571],[183,928]],[[15939,55499],[3655,-1493]],[[40528,56286],[974,0],[1787,-2704],[914,181],[2396,-2966]],[[37969,54429],[2559,1857]],[[19594,54006],[548,2401]],[[20142,56407],[325,20]],[[20467,56427],[2193,-2704]],[[15939,55499],[-81,1130]],[[15858,56629],[832,242],[691,1736]],[[17381,58607],[2761,-2200]],[[25238,55297],[1868,-161],[1868,989],[-1137,2583]],[[27837,58708],[1361,-444],[2132,807]],[[31330,59071],[1868,101]],[[33198,59172],[365,-928],[-1137,-1252],[-1604,-3309],[934,-384]],[[27837,58708],[41,868]],[[27878,59576],[3452,-505]],[[25238,55297],[-487,3673],[508,747]],[[25259,59717],[1096,-525],[1523,384]],[[50619,54328],[-2071,1009],[446,1918],[-1116,444],[-1259,-1231],[-1543,1049],[710,2240]],[[45786,59757],[2579,-545],[3371,-3087],[-427,-767]],[[44121,60423],[1665,-666]],[[40528,56286],[751,1070],[203,2220]],[[41482,59576],[2639,847]],[[79857,62240],[508,-1474]],[[80365,60766],[528,-524],[-224,-3875],[1949,-787],[1198,-2543],[-446,-3068]],[[65157,51907],[-589,3652],[-975,2685],[-1908,40],[2538,3027],[1969,141],[1543,687],[711,-606],[4081,-545],[1015,-545],[2051,303],[691,989],[1563,585],[2010,-80]],[[14680,61836],[1604,-343],[1097,-2886]],[[15858,56629],[-934,989],[-2051,-868],[-1218,424],[1380,1493],[-61,2523],[-1807,666],[2011,1150],[1502,-1170]],[[36142,60988],[954,-989],[-589,-2098],[2498,-444],[1076,1856],[1401,263]],[[33198,59172],[162,4218]],[[33360,63390],[1482,-2341],[1300,-61]],[[92933,40585],[-406,-1816],[-1381,-868],[-2071,1170]],[[80365,60766],[1441,202],[1686,1393],[2538,-969],[2355,2159],[2091,-2845],[-1624,-2281],[345,-2220],[873,-1998],[183,-2623],[-1604,282],[386,-2078],[-650,-1353],[2152,-1473],[1279,-3088],[1584,-1190],[406,-1191],[-873,-908]],[[23979,64016],[1280,-4299]],[[20467,56427],[812,3714],[-812,1009],[954,2018]],[[21421,63168],[1259,-162],[1299,1010]],[[36142,60988],[2051,2584],[1786,887],[752,-544],[1827,1130]],[[42558,65045],[1543,1049],[2193,-1312],[-975,-1291],[-1949,-828],[751,-2240]],[[14680,61836],[2944,2765],[-61,1352],[1320,1150]],[[18883,67103],[2538,-3935]],[[42152,67366],[406,-2321]],[[33360,63390],[2355,1816]],[[35715,65206],[1523,283],[2924,1634],[1300,1171],[690,-928]],[[27878,64924],[4873,-2422],[609,888]],[[23979,64016],[-365,665]],[[23614,64681],[-995,2059],[1462,2059],[1279,-1575],[2112,-605],[406,-1695]],[[18883,67103],[1706,1897],[-82,1151]],[[20507,70151],[1381,323],[305,-2523],[-752,-1090],[0,-1554],[1036,-1150],[1137,524]],[[25462,74247],[-183,-665],[2457,-3936],[243,-1352],[1787,-1150],[-40,-1474],[-1848,-746]],[[20507,70151],[2011,3915],[2944,181]],[[46314,67628],[-832,747],[-2559,-263],[-771,-746]],[[35715,65206],[2295,2301],[-589,969],[2071,928],[122,1090],[2396,1049],[284,2361],[975,1534]],[[43269,75438],[649,-2018],[-507,-1433],[1198,-1836],[1360,-525],[345,-1998]],[[62192,52270],[569,1070],[-1036,1594],[711,1836],[-3066,929],[1096,4500],[2762,2059],[-528,2179],[1807,2301],[1482,1029],[1909,363],[2619,2503],[61,2099],[-629,1150],[-82,2523],[1320,1372]],[[71187,79777],[2315,-1150],[2883,-2482],[-1827,-2967],[-346,-2442],[1523,-2664],[772,202],[-142,-3088],[1929,-1332],[1563,-1614]],[[21847,85670],[3879,-4379],[4731,-1756],[771,-1816],[5056,-1978],[1482,-949],[-122,-1231],[1198,-585],[1584,908],[1198,2341],[1645,-787]],[[25462,74247],[1340,283],[-142,2260],[-2701,2261],[-507,1493],[446,1695],[-386,1332],[-1502,989],[-163,1110]],[[46314,67628],[894,141],[3817,2301],[1563,2240],[-507,706],[-305,3007],[-1868,-403],[-1320,706],[5645,5570],[2294,6055],[122,888]],[[56649,88839],[2762,1170],[1827,-484],[1117,-888],[1807,-20],[3289,-989],[995,-1231],[1117,222],[1685,-1817],[-508,-4480],[447,-545]],[[48487,95862],[3695,-2725],[2051,-464],[690,-2482],[1726,-1352]],[[43269,75438],[812,1373],[-2234,2078],[833,1231],[467,1958],[-1828,908],[549,2139],[-386,1312],[365,1574],[1604,1171],[41,2946],[447,1191],[3350,-101],[853,686],[345,1958]],[[21847,85670],[2153,2079],[1624,-81],[1929,-1029],[1685,-2059],[2274,1675],[2214,222],[2477,6176],[1908,1937],[-1949,2664],[690,2745],[1848,-1332],[873,383],[2152,-504],[2051,-1433],[1625,-182],[3086,-1069]],[[84263,1110],[-5969,1110]],[[92933,40585],[1888,-706],[-243,-2685],[2517,-1311],[224,-2180],[-5706,-242],[-1137,-2422]]],"transform":{"scale":[0.000004925049250492431,0.000004955049550495503],"translate":[77.0961,8.078]},"objects":{"villages":{"type":"GeometryCollection","geometries":[{"arcs":[[0,1,2,3]],"type":"Polygon","properties":{"OBJECTID":393869,"vilnam_soi":"AGASTHEEWARAM","stcode11":"33","dtcode11":"629","sdtcode11":"05884","vilcode11":"643182","stname":"TAMIL NADU","dtname":"Kanniyakumari","sdtname":"Agastheeswaram","vilname11":"Agasteeswaram","vil_lgd":643182,"dist_lgd":575,"state_lgd":33,"gp_code":224530,"gp_name":"Kovalam","subdt_lgd":5884,"block_name":"AGASTISWARAM","block_lgd":6188,"Remark":null,"ac_no":0,"test":null,"shape_Length":10053.195385147867,"shape_Area":4585735.524646055}},{"arcs":[[-3,4,5,6]],"type":"Polygon","properties":{"OBJECTID":393870,"vilnam_soi":"AGASTHEEWARAM","stcode11":"33","dtcode11":"629","sdtcode11":"05884","vilcode11":"803937","stname":"TAMIL NADU","dtname":"Kanniyakumari","sdtname":"Agastheeswaram","vilname11":"Agastheeswaram (TP)","vil_lgd":803937,"dist_lgd":575,"state_lgd":33,"gp_code":0,"gp_name":"","subdt_lgd":5884,"block_name":"AGASTISWARAM","block_lgd":6188,"Remark":null,"ac_no":229,"test":null,"shape_Length":10607.440037998638,"shape_Area":4009115.5101955784}},{"arcs":[[7,-1,8,9]],"type":"Polygon","properties":{"OBJECTID":393871,"vilnam_soi":"KANYAKUMARI","stcode11":"33","dtcode11":"629","sdtcode11":"05884","vilcode11":"803939","stname":"TAMIL NADU","dtname":"Kanniyakumari","sdtname":"Agastheeswaram","vilname11":"Kanniyakumari (TP)","vil_lgd":803939,"dist_lgd":575,"state_lgd":33,"gp_code":0,"gp_name":"","subdt_lgd":5884,"block_name":"AGASTISWARAM","block_lgd":6188,"Remark":null,"ac_no":229,"test":null,"shape_Length":11052.445042054485,"shape_Area":3878899.326932347}},{"arcs":[[10,11,12]],"type":"Polygon","properties":{"OBJECTID":393872,"vilnam_soi":"DHARMAPURAM","stcode11":"33","dtcode11":"629","sdtcode11":"05884","vilcode11":"643189","stname":"TAMIL NADU","dtname":"Kanniyakumari","sdtname":"Agastheeswaram","vilname11":"Dharamapuram","vil_lgd":643189,"dist_lgd":575,"state_lgd":33,"gp_code":224579,"gp_name":"Dharmapuram","subdt_lgd":5884,"block_name":"RAJAKKAMANGALAM","block_lgd":6193,"Remark":null,"ac_no":0,"test":null,"shape_Length":7718.459923471152,"shape_Area":2648979.472703634}},{"arcs":[[13,14,15,-11,16,17]],"type":"Polygon","properties":{"OBJECTID":393873,"vilnam_soi":"ADHUSUDHANAPURAM","stcode11":"33","dtcode11":"629","sdtcode11":"05884","vilcode11":"643190","stname":"TAMIL NADU","dtname":"Kanniyakumari","sdtname":"Agastheeswaram","vilname11":"Pallanthurai","vil_lgd":643190,"dist_lgd":575,"state_lgd":33,"gp_code":224586,"gp_name":"Pallanthurai","subdt_lgd":5884,"block_name":"RAJAKKAMANGALAM","block_lgd":6193,"Remark":null,"ac_no":0,"test":null,"shape_Length":12547.348931222079,"shape_Area":4272309.490359913}},{"arcs":[[18,19,20]],"type":"Polygon","properties":{"OBJECTID":393874,"vilnam_soi":"TAMARAKULAM","stcode11":"33","dtcode11":"629","sdtcode11":"05884","vilcode11":"643181","stname":"TAMIL NADU","dtname":"Kanniyakumari","sdtname":"Agastheeswaram","vilname11":"Thamaraikulam  (Part)","vil_lgd":643181,"dist_lgd":575,"state_lgd":33,"gp_code":224529,"gp_name":"Karumpattoor","subdt_lgd":5884,"block_name":"AGASTISWARAM","block_lgd":6188,"Remark":null,"ac_no":229,"test":null,"shape_Length":11832.463775631873,"shape_Area":3547897.800629266}},{"arcs":[[21,-10,22,23]],"type":"Polygon","properties":{"OBJECTID":393875,"vilnam_soi":"KANYAKUMARI","stcode11":"33","dtcode11":"629","sdtcode11":"05884","vilcode11":"643184","stname":"TAMIL NADU","dtname":"Kanniyakumari","sdtname":"Agastheeswaram","vilname11":"Kanniyakumari","vil_lgd":643184,"dist_lgd":575,"state_lgd":33,"gp_code":224532,"gp_name":"Leepuram","subdt_lgd":5884,"block_name":"AGASTISWARAM","block_lgd":6188,"Remark":null,"ac_no":229,"test":null,"shape_Length":12410.135816695098,"shape_Area":6638747.390324897}},{"arcs":[[24,25,26,-15,27,28]],"type":"Polygon","properties":{"OBJECTID":393876,"vilnam_soi":"THENGAMPUDUR","stcode11":"33","dtcode11":"629","sdtcode11":"05884","vilcode11":"803936","stname":"TAMIL NADU","dtname":"Kanniyakumari","sdtname":"Agastheeswaram","vilname11":"Puthalam (TP)","vil_lgd":803936,"dist_lgd":575,"state_lgd":33,"gp_code":0,"gp_name":"","subdt_lgd":5884,"block_name":"RAJAKKAMANGALAM","block_lgd":6193,"Remark":null,"ac_no":229,"test":null,"shape_Length":17786.39703053286,"shape_Area":13417290.500370217}},{"arcs":[[29,30,31]],"type":"Polygon","properties":{"OBJECTID":393877,"vilnam_soi":"KADIAPATTANAM","stcode11":"33","dtcode11":"629","sdtcode11":"05882","vilcode11":"","stname":"TAMIL NADU","dtname":"Kanniyakumari","sdtname":"Kalkulam","vilname11":"Kadiapattinam","vil_lgd":0,"dist_lgd":575,"state_lgd":33,"gp_code":0,"gp_name":"","subdt_lgd":5882,"block_name":"KURUNTHANCODE","block_lgd":6190,"Remark":null,"ac_no":0,"test":null,"shape_Length":9055.259635046168,"shape_Area":2391460.0377417128}},{"arcs":[[32,33,34,35,36]],"type":"Polygon","properties":{"OBJECTID":393878,"vilnam_soi":"RAJAKKAMANGALAM","stcode11":"33","dtcode11":"629","sdtcode11":"05884","vilcode11":"643176","stname":"TAMIL NADU","dtname":"Kanniyakumari","sdtname":"Agastheeswaram","vilname11":"Neendakara -B","vil_lgd":643176,"dist_lgd":575,"state_lgd":33,"gp_code":224580,"gp_name":"Elluvilai","subdt_lgd":5884,"block_name":"RAJAKKAMANGALAM","block_lgd":6193,"Remark":null,"ac_no":230,"test":null,"shape_Length":14495.739446928013,"shape_Area":9644693.34710793}},{"arcs":[[37,38,-28,-14,-18,39,40]],"type":"Polygon","properties":{"OBJECTID":393879,"vilnam_soi":"ADHUSUDHANAPURAM","stcode11":"33","dtcode11":"629","sdtcode11":"05884","vilcode11":"643178","stname":"TAMIL NADU","dtname":"Kanniyakumari","sdtname":"Agastheeswaram","vilname11":"Madhusoodhanapuram  (Part)","vil_lgd":643178,"dist_lgd":575,"state_lgd":33,"gp_code":224578,"gp_name":"Athikattuvilai","subdt_lgd":5884,"block_name":"RAJAKKAMANGALAM","block_lgd":6193,"Remark":null,"ac_no":229,"test":null,"shape_Length":14643.989525517272,"shape_Area":8459297.691559283}},{"arcs":[[41,-29,-39,42]],"type":"Polygon","properties":{"OBJECTID":393880,"vilnam_soi":"PARAKKAI","stcode11":"33","dtcode11":"629","sdtcode11":"05884","vilcode11":"643180","stname":"TAMIL NADU","dtname":"Kanniyakumari","sdtname":"Agastheeswaram","vilname11":"Parakkai","vil_lgd":643180,"dist_lgd":575,"state_lgd":33,"gp_code":224587,"gp_name":"Parakkai","subdt_lgd":5884,"block_name":"RAJAKKAMANGALAM","block_lgd":6193,"Remark":null,"ac_no":229,"test":null,"shape_Length":9078.667085957435,"shape_Area":4426184.928156892}},{"arcs":[[43,-24,44,45]],"type":"Polygon","properties":{"OBJECTID":393881,"vilnam_soi":"KANYAKUMARI","stcode11":"33","dtcode11":"629","sdtcode11":"05884","vilcode11":"643183","stname":"TAMIL NADU","dtname":"Kanniyakumari","sdtname":"Agastheeswaram","vilname11":"Azhagappapuram","vil_lgd":643183,"dist_lgd":575,"state_lgd":33,"gp_code":224533,"gp_name":"Maharajapuram","subdt_lgd":5884,"block_name":"AGASTISWARAM","block_lgd":6188,"Remark":null,"ac_no":229,"test":null,"shape_Length":7903.93155015936,"shape_Area":3419735.461400778}},{"arcs":[[46,-21,47,-25,-42,48]],"type":"Polygon","properties":{"OBJECTID":393882,"vilnam_soi":"TAMARAKULAM","stcode11":"33","dtcode11":"629","sdtcode11":"05884","vilcode11":"643170","stname":"TAMIL NADU","dtname":"Kanniyakumari","sdtname":"Agastheeswaram","vilname11":"Kulasekarapuram","vil_lgd":643170,"dist_lgd":575,"state_lgd":33,"gp_code":224531,"gp_name":"Kulasekarapuram","subdt_lgd":5884,"block_name":"AGASTISWARAM","block_lgd":6188,"Remark":null,"ac_no":229,"test":null,"shape_Length":10673.067601072833,"shape_Area":2802942.609780496}},{"arcs":[[-45,-23,-9,-4,-7,49,-19,-47,50,51]],"type":"Polygon","properties":{"OBJECTID":393883,"vilnam_soi":"KOTTARAM","stcode11":"33","dtcode11":"629","sdtcode11":"05884","vilcode11":"803934","stname":"TAMIL NADU","dtname":"Kanniyakumari","sdtname":"Agastheeswaram","vilname11":"Kottaram (TP)","vil_lgd":803934,"dist_lgd":575,"state_lgd":33,"gp_code":0,"gp_name":"","subdt_lgd":5884,"block_name":"AGASTISWARAM","block_lgd":6188,"Remark":null,"ac_no":229,"test":null,"shape_Length":23701.54477047435,"shape_Area":20131053.3433259}},{"arcs":[[52,-41,53,54]],"type":"Polygon","properties":{"OBJECTID":393884,"vilnam_soi":"VADIVISWARAM","stcode11":"33","dtcode11":"629","sdtcode11":"05884","vilcode11":"643173","stname":"TAMIL NADU","dtname":"Kanniyakumari","sdtname":"Agastheeswaram","vilname11":"Vadiveeswaram  (Part)","vil_lgd":643173,"dist_lgd":575,"state_lgd":33,"gp_code":0,"gp_name":"","subdt_lgd":5884,"block_name":"RAJAKKAMANGALAM","block_lgd":6193,"Remark":null,"ac_no":229,"test":null,"shape_Length":8733.690421942429,"shape_Area":2490134.398182848}},{"arcs":[[-54,-40,-17,-13,55,-34,56,57]],"type":"Polygon","properties":{"OBJECTID":393885,"vilnam_soi":"DHARMAPURAM","stcode11":"33","dtcode11":"629","sdtcode11":"05884","vilcode11":"643177","stname":"TAMIL NADU","dtname":"Kanniyakumari","sdtname":"Agastheeswaram","vilname11":"Dharmapuram  (Part)","vil_lgd":643177,"dist_lgd":575,"state_lgd":33,"gp_code":224578,"gp_name":"Athikattuvilai","subdt_lgd":5884,"block_name":"RAJAKKAMANGALAM","block_lgd":6193,"Remark":null,"ac_no":230,"test":null,"shape_Length":17143.81447539167,"shape_Area":11163097.879967429}},{"arcs":[[58,-36,59,-30,60,61]],"type":"Polygon","properties":{"OBJECTID":393886,"vilnam_soi":"RAJAKKAMANGALAM","stcode11":"33","dtcode11":"629","sdtcode11":"05884","vilcode11":"803930","stname":"TAMIL NADU","dtname":"Kanniyakumari","sdtname":"Agastheeswaram","vilname11":"Ganapathipuram (TP)","vil_lgd":803930,"dist_lgd":575,"state_lgd":33,"gp_code":0,"gp_name":"","subdt_lgd":5884,"block_name":"RAJAKKAMANGALAM","block_lgd":6193,"Remark":null,"ac_no":230,"test":null,"shape_Length":16656.6952134847,"shape_Area":12989416.028305195}},{"arcs":[[62,-37,-59,63]],"type":"Polygon","properties":{"OBJECTID":393887,"vilnam_soi":"NINDAKARA","stcode11":"33","dtcode11":"629","sdtcode11":"05884","vilcode11":"643174","stname":"TAMIL NADU","dtname":"Kanniyakumari","sdtname":"Agastheeswaram","vilname11":"Neendakara-A (Part)","vil_lgd":643174,"dist_lgd":575,"state_lgd":33,"gp_code":224585,"gp_name":"Melasankarankuzhi","subdt_lgd":5884,"block_name":"RAJAKKAMANGALAM","block_lgd":6193,"Remark":null,"ac_no":230,"test":null,"shape_Length":8073.775189160843,"shape_Area":2752931.6541904467}},{"arcs":[[64,-46,-52,65,66]],"type":"Polygon","properties":{"OBJECTID":393888,"vilnam_soi":"AZHAKAPPAPURAM","stcode11":"33","dtcode11":"629","sdtcode11":"05884","vilcode11":"803933","stname":"TAMIL NADU","dtname":"Kanniyakumari","sdtname":"Agastheeswaram","vilname11":"Anjugrammam (TP)","vil_lgd":803933,"dist_lgd":575,"state_lgd":33,"gp_code":0,"gp_name":"","subdt_lgd":5884,"block_name":"AGASTISWARAM","block_lgd":6188,"Remark":null,"ac_no":229,"test":null,"shape_Length":22549.550375766943,"shape_Area":13236229.705807677}},{"arcs":[[67,68,-43,-38,-53,69,70,71]],"type":"Polygon","properties":{"OBJECTID":393889,"vilnam_soi":"SUCHINDRAM","stcode11":"33","dtcode11":"629","sdtcode11":"05884","vilcode11":"803929","stname":"TAMIL NADU","dtname":"Kanniyakumari","sdtname":"Agastheeswaram","vilname11":"Suchindrum (TP)","vil_lgd":803929,"dist_lgd":575,"state_lgd":33,"gp_code":0,"gp_name":"","subdt_lgd":5884,"block_name":"RAJAKKAMANGALAM","block_lgd":6193,"Remark":null,"ac_no":229,"test":null,"shape_Length":10825.534253684518,"shape_Area":5106855.085123512}},{"arcs":[[72,-66,-51,-49,-69,73,74,75]],"type":"Polygon","properties":{"OBJECTID":393890,"vilnam_soi":"KULASEKHERAPURAM","stcode11":"33","dtcode11":"629","sdtcode11":"05884","vilcode11":"803898","stname":"TAMIL NADU","dtname":"Kanniyakumari","sdtname":"Agastheeswaram","vilname11":"Kulasekaram (TP)","vil_lgd":803898,"dist_lgd":575,"state_lgd":33,"gp_code":0,"gp_name":"","subdt_lgd":5884,"block_name":"AGASTISWARAM","block_lgd":6188,"Remark":null,"ac_no":229,"test":null,"shape_Length":19326.920839978386,"shape_Area":10232101.862479743}},{"arcs":[[-75,76,77]],"type":"Polygon","properties":{"OBJECTID":393891,"vilnam_soi":"IRAVIPUDUR","stcode11":"33","dtcode11":"629","sdtcode11":"05884","vilcode11":"643171","stname":"TAMIL NADU","dtname":"Kanniyakumari","sdtname":"Agastheeswaram","vilname11":"Eraviputhoor","vil_lgd":643171,"dist_lgd":575,"state_lgd":33,"gp_code":224528,"gp_name":"Eraviputhoor","subdt_lgd":5884,"block_name":"AGASTISWARAM","block_lgd":6188,"Remark":null,"ac_no":229,"test":null,"shape_Length":6033.926603021638,"shape_Area":1795350.549243065}},{"arcs":[[78,79,80]],"type":"Polygon","properties":{"OBJECTID":393892,"vilnam_soi":"VEMBANUR","stcode11":"33","dtcode11":"629","sdtcode11":"05884","vilcode11":"803928","stname":"TAMIL NADU","dtname":"Kanniyakumari","sdtname":"Agastheeswaram","vilname11":"Asaripallam (TP)","vil_lgd":803928,"dist_lgd":575,"state_lgd":33,"gp_code":0,"gp_name":"","subdt_lgd":5884,"block_name":"RAJAKKAMANGALAM","block_lgd":6193,"Remark":null,"ac_no":230,"test":null,"shape_Length":11673.509153682211,"shape_Area":2913284.619492822}},{"arcs":[[-77,-74,-68,81,82]],"type":"Polygon","properties":{"OBJECTID":393894,"vilnam_soi":"IRAVIPUDUR","stcode11":"33","dtcode11":"629","sdtcode11":"05884","vilcode11":"643169","stname":"TAMIL NADU","dtname":"Kanniyakumari","sdtname":"Agastheeswaram","vilname11":"Marangoor","vil_lgd":643169,"dist_lgd":575,"state_lgd":33,"gp_code":224534,"gp_name":"Nalloor","subdt_lgd":5884,"block_name":"AGASTISWARAM","block_lgd":6188,"Remark":null,"ac_no":229,"test":null,"shape_Length":15891.759593239109,"shape_Area":8836865.649517758}},{"arcs":[[83,84,-61,-32,85,86,87,88]],"type":"Polygon","properties":{"OBJECTID":393896,"vilnam_soi":"KADIAPATTANAM","stcode11":"33","dtcode11":"629","sdtcode11":"05882","vilcode11":"643135","stname":"TAMIL NADU","dtname":"Kanniyakumari","sdtname":"Kalkulam","vilname11":"Kadiapattinam","vil_lgd":643135,"dist_lgd":575,"state_lgd":33,"gp_code":224551,"gp_name":"Muttom","subdt_lgd":5882,"block_name":"KURUNTHANCODE","block_lgd":6190,"Remark":null,"ac_no":232,"test":null,"shape_Length":20139.834230887987,"shape_Area":17980642.516513526}},{"arcs":[[-80,89,-64,-62,-85,90,91]],"type":"Polygon","properties":{"OBJECTID":393897,"vilnam_soi":"VEMBANUR","stcode11":"33","dtcode11":"629","sdtcode11":"05884","vilcode11":"643175","stname":"TAMIL NADU","dtname":"Kanniyakumari","sdtname":"Agastheeswaram","vilname11":"Vempanoor","vil_lgd":643175,"dist_lgd":575,"state_lgd":33,"gp_code":224585,"gp_name":"Melasankarankuzhi","subdt_lgd":5884,"block_name":"RAJAKKAMANGALAM","block_lgd":6193,"Remark":null,"ac_no":230,"test":null,"shape_Length":18359.714430501295,"shape_Area":10500431.970961133}},{"arcs":[[92,-71,93,94,95]],"type":"Polygon","properties":{"OBJECTID":393898,"vilnam_soi":"VADIVISWARAM","stcode11":"33","dtcode11":"629","sdtcode11":"05884","vilcode11":"643187","stname":"TAMIL NADU","dtname":"Kanniyakumari","sdtname":"Agastheeswaram","vilname11":"Gandipuram","vil_lgd":643187,"dist_lgd":575,"state_lgd":33,"gp_code":0,"gp_name":"","subdt_lgd":5884,"block_name":"RAJAKKAMANGALAM","block_lgd":6193,"Remark":null,"ac_no":230,"test":null,"shape_Length":6843.577407976365,"shape_Area":2033195.1412803065}},{"arcs":[[96,97,98,-57,-33,-63,-90,-79,99]],"type":"Polygon","properties":{"OBJECTID":393899,"vilnam_soi":"NINDAKARA","stcode11":"33","dtcode11":"629","sdtcode11":"05884","vilcode11":"643188","stname":"TAMIL NADU","dtname":"Kanniyakumari","sdtname":"Agastheeswaram","vilname11":"Peruvilai","vil_lgd":643188,"dist_lgd":575,"state_lgd":33,"gp_code":0,"gp_name":"","subdt_lgd":5884,"block_name":"RAJAKKAMANGALAM","block_lgd":6193,"Remark":null,"ac_no":230,"test":null,"shape_Length":18699.442714923956,"shape_Area":9787318.718631882}},{"arcs":[[-88,100]],"type":"Polygon","properties":{"OBJECTID":393900,"vilnam_soi":"MANAVALAKURICHCHI","stcode11":"33","dtcode11":"629","sdtcode11":"05882","vilcode11":"643133","stname":"TAMIL NADU","dtname":"Kanniyakumari","sdtname":"Kalkulam","vilname11":"Thalakkulam","vil_lgd":643133,"dist_lgd":575,"state_lgd":33,"gp_code":224548,"gp_name":"Kakkottuthalai","subdt_lgd":5882,"block_name":"KURUNTHANCODE","block_lgd":6190,"Remark":null,"ac_no":231,"test":null,"shape_Length":5810.075518616578,"shape_Area":1881668.2949911628}},{"arcs":[[-94,-70,-55,-58,-99,101]],"type":"Polygon","properties":{"OBJECTID":393901,"vilnam_soi":"NAGERCOIL MUNICIPALITY","stcode11":"33","dtcode11":"629","sdtcode11":"05884","vilcode11":"803927","stname":"TAMIL NADU","dtname":"Kanniyakumari","sdtname":"Agastheeswaram","vilname11":"Nagercoil (M)","vil_lgd":803927,"dist_lgd":575,"state_lgd":33,"gp_code":0,"gp_name":"","subdt_lgd":5884,"block_name":"RAJAKKAMANGALAM","block_lgd":6193,"Remark":null,"ac_no":230,"test":null,"shape_Length":18129.71113340788,"shape_Area":16973450.548489675}},{"arcs":[[102,103,104]],"type":"Polygon","properties":{"OBJECTID":393902,"vilnam_soi":"KOLACHEL MUNICIPALITY","stcode11":"33","dtcode11":"629","sdtcode11":"05882","vilcode11":"803917","stname":"TAMIL NADU","dtname":"Kanniyakumari","sdtname":"Kalkulam","vilname11":"Colachel (M)","vil_lgd":803917,"dist_lgd":575,"state_lgd":33,"gp_code":0,"gp_name":"","subdt_lgd":5882,"block_name":"KURUNTHANCODE","block_lgd":6190,"Remark":null,"ac_no":0,"test":null,"shape_Length":11001.781879302926,"shape_Area":3959584.1385171977}},{"arcs":[[105,-76,-78,-83,106,107,108]],"type":"Polygon","properties":{"OBJECTID":393903,"vilnam_soi":"MARUGUR","stcode11":"33","dtcode11":"629","sdtcode11":"05884","vilcode11":"803925","stname":"TAMIL NADU","dtname":"Kanniyakumari","sdtname":"Agastheeswaram","vilname11":"Marungur (TP)","vil_lgd":803925,"dist_lgd":575,"state_lgd":33,"gp_code":0,"gp_name":"","subdt_lgd":5884,"block_name":"AGASTISWARAM","block_lgd":6188,"Remark":null,"ac_no":229,"test":null,"shape_Length":21216.015741628864,"shape_Area":13743067.633695865}},{"arcs":[[109,110,-91,-84,111,112]],"type":"Polygon","properties":{"OBJECTID":393904,"vilnam_soi":"KURUNDANKOD","stcode11":"33","dtcode11":"629","sdtcode11":"05882","vilcode11":"643134","stname":"TAMIL NADU","dtname":"Kanniyakumari","sdtname":"Kalkulam","vilname11":"Kurunthencode (Part)","vil_lgd":643134,"dist_lgd":575,"state_lgd":33,"gp_code":224550,"gp_name":"Kurunthencode","subdt_lgd":5882,"block_name":"KURUNTHANCODE","block_lgd":6190,"Remark":null,"ac_no":231,"test":null,"shape_Length":12972.249346863298,"shape_Area":6495651.846199111}},{"arcs":[[-112,-89,-101,-87,113,114,115,116]],"type":"Polygon","properties":{"OBJECTID":393905,"vilnam_soi":"KADIAPATTANAM","stcode11":"33","dtcode11":"629","sdtcode11":"05882","vilcode11":"","stname":"TAMIL NADU","dtname":"Kanniyakumari","sdtname":"Kalkulam","vilname11":"Kadiapattinam","vil_lgd":0,"dist_lgd":575,"state_lgd":33,"gp_code":0,"gp_name":"","subdt_lgd":5882,"block_name":"KURUNTHANCODE","block_lgd":6190,"Remark":null,"ac_no":0,"test":null,"shape_Length":30188.541112130864,"shape_Area":20926499.802204028}},{"arcs":[[117,118,-95,-102,-98,119]],"type":"Polygon","properties":{"OBJECTID":393906,"vilnam_soi":"NAGERCOIL MUNICIPALITY","stcode11":"33","dtcode11":"629","sdtcode11":"05884","vilcode11":"643166","stname":"TAMIL NADU","dtname":"Kanniyakumari","sdtname":"Agastheeswaram","vilname11":"Vadasery  (Part)","vil_lgd":643166,"dist_lgd":575,"state_lgd":33,"gp_code":224581,"gp_name":"Kaniyakulam","subdt_lgd":5884,"block_name":"RAJAKKAMANGALAM","block_lgd":6193,"Remark":null,"ac_no":230,"test":null,"shape_Length":16400.88136545484,"shape_Area":7862838.707279456}},{"arcs":[[120,-110,121,122]],"type":"Polygon","properties":{"OBJECTID":393908,"vilnam_soi":"KURUNDANKOD","stcode11":"33","dtcode11":"629","sdtcode11":"05882","vilcode11":"643145","stname":"TAMIL NADU","dtname":"Kanniyakumari","sdtname":"Kalkulam","vilname11":"Kattimancode","vil_lgd":643145,"dist_lgd":575,"state_lgd":33,"gp_code":224549,"gp_name":"Kattimancode","subdt_lgd":5882,"block_name":"KURUNTHANCODE","block_lgd":6190,"Remark":null,"ac_no":231,"test":null,"shape_Length":8909.929547925898,"shape_Area":3143682.84660232}},{"arcs":[[-67,-73,-106,123,124,125]],"type":"Polygon","properties":{"OBJECTID":393909,"vilnam_soi":"MARUGUR","stcode11":"33","dtcode11":"629","sdtcode11":"05884","vilcode11":"643185","stname":"TAMIL NADU","dtname":"Kanniyakumari","sdtname":"Agastheeswaram","vilname11":"Thekkumalai RF.(West and East)","vil_lgd":643185,"dist_lgd":575,"state_lgd":33,"gp_code":224535,"gp_name":"North Thamaraikulam","subdt_lgd":5884,"block_name":"AGASTISWARAM","block_lgd":6188,"Remark":null,"ac_no":229,"test":null,"shape_Length":20490.04359177221,"shape_Area":7964470.893480619}},{"arcs":[[126,-96,-119,127]],"type":"Polygon","properties":{"OBJECTID":393910,"vilnam_soi":"NAGERCOIL","stcode11":"33","dtcode11":"629","sdtcode11":"05884","vilcode11":"643167","stname":"TAMIL NADU","dtname":"Kanniyakumari","sdtname":"Agastheeswaram","vilname11":"Nagercoil","vil_lgd":643167,"dist_lgd":575,"state_lgd":33,"gp_code":224539,"gp_name":"Therekalputhoor","subdt_lgd":5884,"block_name":"AGASTISWARAM","block_lgd":6188,"Remark":null,"ac_no":230,"test":null,"shape_Length":12248.016501048929,"shape_Area":3450306.1384642236}},{"arcs":[[128,-107,-82,-72,-93,-127,129,130]],"type":"Polygon","properties":{"OBJECTID":393911,"vilnam_soi":"TERUR","stcode11":"33","dtcode11":"629","sdtcode11":"05884","vilcode11":"803926","stname":"TAMIL NADU","dtname":"Kanniyakumari","sdtname":"Agastheeswaram","vilname11":"Theroor","vil_lgd":803926,"dist_lgd":575,"state_lgd":33,"gp_code":0,"gp_name":"","subdt_lgd":5884,"block_name":"AGASTISWARAM","block_lgd":6188,"Remark":null,"ac_no":229,"test":null,"shape_Length":21118.88271634697,"shape_Area":12739982.959804468}},{"arcs":[[131,-105,132,133,134]],"type":"Polygon","properties":{"OBJECTID":393912,"vilnam_soi":"KOLACHEL","stcode11":"33","dtcode11":"629","sdtcode11":"05882","vilcode11":"803913","stname":"TAMIL NADU","dtname":"Kanniyakumari","sdtname":"Kalkulam","vilname11":"Reethapuram (TP)","vil_lgd":803913,"dist_lgd":575,"state_lgd":33,"gp_code":0,"gp_name":"","subdt_lgd":5882,"block_name":"KURUNTHANCODE","block_lgd":6190,"Remark":null,"ac_no":0,"test":null,"shape_Length":19870.978703241803,"shape_Area":13385293.755487282}},{"arcs":[[135,-108,-129,136]],"type":"Polygon","properties":{"OBJECTID":393913,"vilnam_soi":"TERUR","stcode11":"33","dtcode11":"629","sdtcode11":"05884","vilcode11":"643168","stname":"TAMIL NADU","dtname":"Kanniyakumari","sdtname":"Agastheeswaram","vilname11":"Theroor","vil_lgd":643168,"dist_lgd":575,"state_lgd":33,"gp_code":224537,"gp_name":"Ramapuram","subdt_lgd":5884,"block_name":"AGASTISWARAM","block_lgd":6188,"Remark":null,"ac_no":229,"test":null,"shape_Length":20330.054832114165,"shape_Area":8891000.803911675}},{"arcs":[[137,-134,138,139,140,141]],"type":"Polygon","properties":{"OBJECTID":393915,"vilnam_soi":"KIZH MIDALAM","stcode11":"33","dtcode11":"629","sdtcode11":"05881","vilcode11":"803895","stname":"TAMIL NADU","dtname":"Kanniyakumari","sdtname":"Vilavancode","vilname11":"Palappallam (TP)","vil_lgd":803895,"dist_lgd":575,"state_lgd":33,"gp_code":0,"gp_name":"","subdt_lgd":5881,"block_name":"KILLIYOOR","block_lgd":6189,"Remark":null,"ac_no":231,"test":null,"shape_Length":18650.951252878815,"shape_Area":9513247.676746508}},{"arcs":[[-122,-113,-117,142,143,144]],"type":"Polygon","properties":{"OBJECTID":393916,"vilnam_soi":"ERANIEL","stcode11":"33","dtcode11":"629","sdtcode11":"05882","vilcode11":"643143","stname":"TAMIL NADU","dtname":"Kanniyakumari","sdtname":"Kalkulam","vilname11":"Nullivilai","vil_lgd":643143,"dist_lgd":575,"state_lgd":33,"gp_code":224595,"gp_name":"Nullivilai","subdt_lgd":5882,"block_name":"KURUNTHANCODE","block_lgd":6190,"Remark":null,"ac_no":231,"test":null,"shape_Length":11517.809610428545,"shape_Area":5854546.004919224}},{"arcs":[[-140,145,146,147]],"type":"Polygon","properties":{"OBJECTID":393917,"vilnam_soi":"MELMIDALAM","stcode11":"33","dtcode11":"629","sdtcode11":"05881","vilcode11":"643120","stname":"TAMIL NADU","dtname":"Kanniyakumari","sdtname":"Vilavancode","vilname11":"Midalam (CT)","vil_lgd":643120,"dist_lgd":575,"state_lgd":33,"gp_code":224543,"gp_name":"Midalam","subdt_lgd":5881,"block_name":"KILLIYOOR","block_lgd":6189,"Remark":null,"ac_no":0,"test":null,"shape_Length":12488.510969787474,"shape_Area":4880359.940507628}},{"arcs":[[148,149,-115,150,-103,-132,151]],"type":"Polygon","properties":{"OBJECTID":393918,"vilnam_soi":"LAKSHMIPURAM","stcode11":"33","dtcode11":"629","sdtcode11":"05882","vilcode11":"803918","stname":"TAMIL NADU","dtname":"Kanniyakumari","sdtname":"Kalkulam","vilname11":"Mandaikadu (TP)","vil_lgd":803918,"dist_lgd":575,"state_lgd":33,"gp_code":0,"gp_name":"","subdt_lgd":5882,"block_name":"KURUNTHANCODE","block_lgd":6190,"Remark":null,"ac_no":231,"test":null,"shape_Length":22193.22249448455,"shape_Area":14031866.299483081}},{"arcs":[[-137,-131,152,153,154,155]],"type":"Polygon","properties":{"OBJECTID":393919,"vilnam_soi":"TOVALA","stcode11":"33","dtcode11":"629","sdtcode11":"05883","vilcode11":"643155","stname":"TAMIL NADU","dtname":"Kanniyakumari","sdtname":"Thovala","vilname11":"Thovala","vil_lgd":643155,"dist_lgd":575,"state_lgd":33,"gp_code":224616,"gp_name":"Sahayanagar","subdt_lgd":5883,"block_name":"THOVALA","block_lgd":6196,"Remark":null,"ac_no":229,"test":null,"shape_Length":13203.89911441342,"shape_Area":4883178.995104687}},{"arcs":[[-153,-130,-128,-118,156,157,158]],"type":"Polygon","properties":{"OBJECTID":393920,"vilnam_soi":"TIRUPPATISARAM","stcode11":"33","dtcode11":"629","sdtcode11":"05883","vilcode11":"643153","stname":"TAMIL NADU","dtname":"Kanniyakumari","sdtname":"Thovala","vilname11":"Thirupathisaram","vil_lgd":643153,"dist_lgd":575,"state_lgd":33,"gp_code":224608,"gp_name":"Beemanagari","subdt_lgd":5883,"block_name":"THOVALA","block_lgd":6196,"Remark":null,"ac_no":229,"test":null,"shape_Length":16271.759977499274,"shape_Area":6462193.115289379}},{"arcs":[[159,-143,-116,-150,160,161]],"type":"Polygon","properties":{"OBJECTID":393923,"vilnam_soi":"ERANIEL","stcode11":"33","dtcode11":"629","sdtcode11":"05882","vilcode11":"803912","stname":"TAMIL NADU","dtname":"Kanniyakumari","sdtname":"Kalkulam","vilname11":"Neyyoor (TP)","vil_lgd":803912,"dist_lgd":575,"state_lgd":33,"gp_code":0,"gp_name":"","subdt_lgd":5882,"block_name":"KURUNTHANCODE","block_lgd":6190,"Remark":null,"ac_no":231,"test":null,"shape_Length":9961.143067045612,"shape_Area":3649131.482750355}},{"arcs":[[162,163,164]],"type":"Polygon","properties":{"OBJECTID":393924,"vilnam_soi":"KIZHKULAM","stcode11":"33","dtcode11":"629","sdtcode11":"05881","vilcode11":"643098","stname":"TAMIL NADU","dtname":"Kanniyakumari","sdtname":"Vilavancode","vilname11":"Keezhkulam","vil_lgd":643098,"dist_lgd":575,"state_lgd":33,"gp_code":224540,"gp_name":"Enayam Puthenthurai","subdt_lgd":5881,"block_name":"KILLIYOOR","block_lgd":6189,"Remark":null,"ac_no":0,"test":null,"shape_Length":4612.173102289455,"shape_Area":941503.5751264566}},{"arcs":[[-157,-120,-97,165,166,167]],"type":"Polygon","properties":{"OBJECTID":393926,"vilnam_soi":"NINDAKARA","stcode11":"33","dtcode11":"629","sdtcode11":"05884","vilcode11":"","stname":"TAMIL NADU","dtname":"Kanniyakumari","sdtname":"Agastheeswaram","vilname11":" ","vil_lgd":0,"dist_lgd":575,"state_lgd":33,"gp_code":0,"gp_name":"","subdt_lgd":5884,"block_name":"RAJAKKAMANGALAM","block_lgd":6193,"Remark":null,"ac_no":230,"test":null,"shape_Length":22392.904963024237,"shape_Area":14801752.426115906}},{"arcs":[[168,-142,169,170]],"type":"Polygon","properties":{"OBJECTID":393927,"vilnam_soi":"MELMIDALAM","stcode11":"33","dtcode11":"629","sdtcode11":"05881","vilcode11":"643121","stname":"TAMIL NADU","dtname":"Kanniyakumari","sdtname":"Vilavancode","vilname11":"Mathicode","vil_lgd":643121,"dist_lgd":575,"state_lgd":33,"gp_code":224542,"gp_name":"Mathicode","subdt_lgd":5881,"block_name":"KILLIYOOR","block_lgd":6189,"Remark":null,"ac_no":234,"test":null,"shape_Length":15490.996742859345,"shape_Area":4793175.963228562}},{"arcs":[[-154,-159,171,172]],"type":"Polygon","properties":{"OBJECTID":393928,"vilnam_soi":"CHEMBAGARAMANPUDUR","stcode11":"33","dtcode11":"629","sdtcode11":"05883","vilcode11":"643154","stname":"TAMIL NADU","dtname":"Kanniyakumari","sdtname":"Thovala","vilname11":"Chenbagaramanputhur  (Part)","vil_lgd":643154,"dist_lgd":575,"state_lgd":33,"gp_code":224615,"gp_name":"Madhavalayam","subdt_lgd":5883,"block_name":"THOVALA","block_lgd":6196,"Remark":null,"ac_no":229,"test":null,"shape_Length":9018.14141732273,"shape_Area":2987048.000852583}},{"arcs":[[-161,-149,173,174]],"type":"Polygon","properties":{"OBJECTID":393929,"vilnam_soi":"ERANIEL","stcode11":"33","dtcode11":"629","sdtcode11":"05882","vilcode11":"643144","stname":"TAMIL NADU","dtname":"Kanniyakumari","sdtname":"Kalkulam","vilname11":"Athivilai","vil_lgd":643144,"dist_lgd":575,"state_lgd":33,"gp_code":224590,"gp_name":"Athivilai","subdt_lgd":5882,"block_name":"KURUNTHANCODE","block_lgd":6190,"Remark":null,"ac_no":231,"test":null,"shape_Length":8555.963423053114,"shape_Area":3050391.479097372}},{"arcs":[[-123,-145,175,176]],"type":"Polygon","properties":{"OBJECTID":393930,"vilnam_soi":"VILLUKKIRI","stcode11":"33","dtcode11":"629","sdtcode11":"05882","vilcode11":"803911","stname":"TAMIL NADU","dtname":"Kanniyakumari","sdtname":"Kalkulam","vilname11":"Villukuri (TP)","vil_lgd":803911,"dist_lgd":575,"state_lgd":33,"gp_code":0,"gp_name":"","subdt_lgd":5882,"block_name":"KURUNTHANCODE","block_lgd":6190,"Remark":null,"ac_no":231,"test":null,"shape_Length":23036.946403014557,"shape_Area":12638175.958651863}},{"arcs":[[177,-170,-141,-148,178,179]],"type":"Polygon","properties":{"OBJECTID":393931,"vilnam_soi":"MELMIDALAM","stcode11":"33","dtcode11":"629","sdtcode11":"05881","vilcode11":"","stname":"TAMIL NADU","dtname":"Kanniyakumari","sdtname":"Vilavancode","vilname11":" ","vil_lgd":0,"dist_lgd":575,"state_lgd":33,"gp_code":0,"gp_name":"","subdt_lgd":5881,"block_name":"KILLIYOOR","block_lgd":6189,"Remark":null,"ac_no":234,"test":null,"shape_Length":13592.02480214112,"shape_Area":5673847.79951552}},{"arcs":[[180,-174,-152,-135,-138,-169,181,182]],"type":"Polygon","properties":{"OBJECTID":393933,"vilnam_soi":"TIRUVANKOD","stcode11":"33","dtcode11":"629","sdtcode11":"05882","vilcode11":"643142","stname":"TAMIL NADU","dtname":"Kanniyakumari","sdtname":"Kalkulam","vilname11":"Thikkanamcode","vil_lgd":643142,"dist_lgd":575,"state_lgd":33,"gp_code":224596,"gp_name":"Thickanamcode","subdt_lgd":5882,"block_name":"THACKALAI","block_lgd":6194,"Remark":null,"ac_no":232,"test":null,"shape_Length":13933.089865968595,"shape_Area":7917418.142202859}},{"arcs":[[183,-125,184,185]],"type":"Polygon","properties":{"OBJECTID":393934,"vilnam_soi":"TOVALA","stcode11":"33","dtcode11":"629","sdtcode11":"05883","vilcode11":"643163","stname":"TAMIL NADU","dtname":"Kanniyakumari","sdtname":"Thovala","vilname11":"Thekkumalai East","vil_lgd":643163,"dist_lgd":575,"state_lgd":33,"gp_code":224622,"gp_name":"Thovalai","subdt_lgd":5883,"block_name":"THOVALA","block_lgd":6196,"Remark":null,"ac_no":229,"test":null,"shape_Length":14795.694074418225,"shape_Area":6082366.692175196}},{"arcs":[[186,187,-162,-175,-181,188,189]],"type":"Polygon","properties":{"OBJECTID":393936,"vilnam_soi":"TAKKALAI","stcode11":"33","dtcode11":"629","sdtcode11":"05882","vilcode11":"643130","stname":"TAMIL NADU","dtname":"Kanniyakumari","sdtname":"Kalkulam","vilname11":"Thackalai","vil_lgd":643130,"dist_lgd":575,"state_lgd":33,"gp_code":224592,"gp_name":"Kalkurichi","subdt_lgd":5882,"block_name":"THACKALAI","block_lgd":6194,"Remark":null,"ac_no":231,"test":null,"shape_Length":10849.825797119913,"shape_Area":5132480.722619521}},{"arcs":[[190,-166,-100,-81,-92,-111,-121,-177,191,192,193]],"type":"Polygon","properties":{"OBJECTID":393937,"vilnam_soi":"ALUR","stcode11":"33","dtcode11":"629","sdtcode11":"05882","vilcode11":"803916","stname":"TAMIL NADU","dtname":"Kanniyakumari","sdtname":"Kalkulam","vilname11":"Alur (TP)","vil_lgd":803916,"dist_lgd":575,"state_lgd":33,"gp_code":0,"gp_name":"","subdt_lgd":5882,"block_name":"KURUNTHANCODE","block_lgd":6190,"Remark":null,"ac_no":231,"test":null,"shape_Length":33852.48536273769,"shape_Area":17792455.219980776}},{"arcs":[[194,-192,-176,-144,-160,-188,195,196]],"type":"Polygon","properties":{"OBJECTID":393938,"vilnam_soi":"KALKULAM","stcode11":"33","dtcode11":"629","sdtcode11":"05882","vilcode11":"","stname":"TAMIL NADU","dtname":"Kanniyakumari","sdtname":"Kalkulam","vilname11":"Kalkulam","vil_lgd":0,"dist_lgd":575,"state_lgd":33,"gp_code":0,"gp_name":"","subdt_lgd":5882,"block_name":"THACKALAI","block_lgd":6194,"Remark":null,"ac_no":231,"test":null,"shape_Length":23577.921501774657,"shape_Area":9109720.181173302}},{"arcs":[[-180,197,198,199]],"type":"Polygon","properties":{"OBJECTID":393939,"vilnam_soi":"PALUR","stcode11":"33","dtcode11":"629","sdtcode11":"05881","vilcode11":"643119","stname":"TAMIL NADU","dtname":"Kanniyakumari","sdtname":"Vilavancode","vilname11":"Paloor","vil_lgd":643119,"dist_lgd":575,"state_lgd":33,"gp_code":224546,"gp_name":"Paloor","subdt_lgd":5881,"block_name":"KILLIYOOR","block_lgd":6189,"Remark":null,"ac_no":234,"test":null,"shape_Length":11233.662773151726,"shape_Area":3951750.317986481}},{"arcs":[[200,-167,-191,201]],"type":"Polygon","properties":{"OBJECTID":393940,"vilnam_soi":"ERACHAKULAM","stcode11":"33","dtcode11":"629","sdtcode11":"05883","vilcode11":"643152","stname":"TAMIL NADU","dtname":"Kanniyakumari","sdtname":"Thovala","vilname11":"Erachakulam","vil_lgd":643152,"dist_lgd":575,"state_lgd":33,"gp_code":224610,"gp_name":"Erachakulam","subdt_lgd":5883,"block_name":"THOVALA","block_lgd":6196,"Remark":null,"ac_no":229,"test":null,"shape_Length":17303.592475720427,"shape_Area":13716454.874047564}},{"arcs":[[-196,-187,202,203]],"type":"Polygon","properties":{"OBJECTID":393942,"vilnam_soi":"PADMANABHAPURAM","stcode11":"33","dtcode11":"629","sdtcode11":"05882","vilcode11":"803920","stname":"TAMIL NADU","dtname":"Kanniyakumari","sdtname":"Kalkulam","vilname11":"Vellimalai (TP)","vil_lgd":803920,"dist_lgd":575,"state_lgd":33,"gp_code":0,"gp_name":"","subdt_lgd":5882,"block_name":"THACKALAI","block_lgd":6194,"Remark":null,"ac_no":232,"test":null,"shape_Length":18311.42322036201,"shape_Area":5748269.22838297}},{"arcs":[[-198,-179,-147,204,-165,205,206]],"type":"Polygon","properties":{"OBJECTID":393944,"vilnam_soi":"KIZHKULAM","stcode11":"33","dtcode11":"629","sdtcode11":"05881","vilcode11":"803893","stname":"TAMIL NADU","dtname":"Kanniyakumari","sdtname":"Vilavancode","vilname11":"Keezhkulam (TP)","vil_lgd":803893,"dist_lgd":575,"state_lgd":33,"gp_code":0,"gp_name":"","subdt_lgd":5881,"block_name":"KILLIYOOR","block_lgd":6189,"Remark":null,"ac_no":0,"test":null,"shape_Length":16238.986470591593,"shape_Area":10228019.551709356}},{"arcs":[[207,-182,-171,-178,208,209,210]],"type":"Polygon","properties":{"OBJECTID":393946,"vilnam_soi":"KAPPIYARA","stcode11":"33","dtcode11":"629","sdtcode11":"05882","vilcode11":"803909","stname":"TAMIL NADU","dtname":"Kanniyakumari","sdtname":"Kalkulam","vilname11":"Kappiyarai (TP)","vil_lgd":803909,"dist_lgd":575,"state_lgd":33,"gp_code":0,"gp_name":"","subdt_lgd":5882,"block_name":"THACKALAI","block_lgd":6194,"Remark":null,"ac_no":231,"test":null,"shape_Length":18843.8754862559,"shape_Area":11191497.888605606}},{"arcs":[[211,212,-172,-158,-168,-201,213,214,215]],"type":"Polygon","properties":{"OBJECTID":393947,"vilnam_soi":"TAZHAKUDI","stcode11":"33","dtcode11":"629","sdtcode11":"05883","vilcode11":"803924","stname":"TAMIL NADU","dtname":"Kanniyakumari","sdtname":"Thovala","vilname11":"Thazhakudy (TP)","vil_lgd":803924,"dist_lgd":575,"state_lgd":33,"gp_code":0,"gp_name":"","subdt_lgd":5883,"block_name":"THOVALA","block_lgd":6196,"Remark":null,"ac_no":229,"test":null,"shape_Length":13613.303652136348,"shape_Area":9618279.046175541}},{"arcs":[[216,-189,-183,-208,217,218]],"type":"Polygon","properties":{"OBJECTID":393948,"vilnam_soi":"TIRUVANKOD","stcode11":"33","dtcode11":"629","sdtcode11":"05882","vilcode11":"803908","stname":"TAMIL NADU","dtname":"Kanniyakumari","sdtname":"Kalkulam","vilname11":"Thiruvithancode (TP)","vil_lgd":803908,"dist_lgd":575,"state_lgd":33,"gp_code":0,"gp_name":"","subdt_lgd":5882,"block_name":"THACKALAI","block_lgd":6194,"Remark":null,"ac_no":231,"test":null,"shape_Length":11009.651973268526,"shape_Area":4853303.296439304}},{"arcs":[[-155,-173,-213,219,220]],"type":"Polygon","properties":{"OBJECTID":393950,"vilnam_soi":"CHEMBAGARAMANPUDUR","stcode11":"33","dtcode11":"629","sdtcode11":"05883","vilcode11":"643165","stname":"TAMIL NADU","dtname":"Kanniyakumari","sdtname":"Thovala","vilname11":"Chenbagaramanputhur","vil_lgd":643165,"dist_lgd":575,"state_lgd":33,"gp_code":224609,"gp_name":"Chenbagaramanputhoor","subdt_lgd":5883,"block_name":"THOVALA","block_lgd":6196,"Remark":null,"ac_no":229,"test":null,"shape_Length":18888.669819311624,"shape_Area":12528025.970011134}},{"arcs":[[-197,-204,221,222,223]],"type":"Polygon","properties":{"OBJECTID":393951,"vilnam_soi":"KALKULAM","stcode11":"33","dtcode11":"629","sdtcode11":"05882","vilcode11":"643131","stname":"TAMIL NADU","dtname":"Kanniyakumari","sdtname":"Kalkulam","vilname11":"Kalkulam","vil_lgd":643131,"dist_lgd":575,"state_lgd":33,"gp_code":224591,"gp_name":"Chadayamangalam","subdt_lgd":5882,"block_name":"THACKALAI","block_lgd":6194,"Remark":null,"ac_no":232,"test":null,"shape_Length":22108.782491640995,"shape_Area":9729357.08109236}},{"arcs":[[224,225,226,-209,-200,227]],"type":"Polygon","properties":{"OBJECTID":393952,"vilnam_soi":"PALUR","stcode11":"33","dtcode11":"629","sdtcode11":"05881","vilcode11":"643099","stname":"TAMIL NADU","dtname":"Kanniyakumari","sdtname":"Vilavancode","vilname11":"Paloor  (Part)","vil_lgd":643099,"dist_lgd":575,"state_lgd":33,"gp_code":224544,"gp_name":"Mullanginavilai","subdt_lgd":5881,"block_name":"KILLIYOOR","block_lgd":6189,"Remark":null,"ac_no":234,"test":null,"shape_Length":15680.884961903756,"shape_Area":7170407.884400702}},{"arcs":[[228,-185,-124,-109,-136,-156,-221,229]],"type":"Polygon","properties":{"OBJECTID":393955,"vilnam_soi":"TOVALA","stcode11":"33","dtcode11":"629","sdtcode11":"05883","vilcode11":"643162","stname":"TAMIL NADU","dtname":"Kanniyakumari","sdtname":"Thovala","vilname11":"Thekkumalai West","vil_lgd":643162,"dist_lgd":575,"state_lgd":33,"gp_code":224622,"gp_name":"Thovalai","subdt_lgd":5883,"block_name":"THOVALA","block_lgd":6196,"Remark":null,"ac_no":229,"test":null,"shape_Length":32822.44683121031,"shape_Area":20572166.4711074}},{"arcs":[[230,-206,-164,231,232,233,234]],"type":"Polygon","properties":{"OBJECTID":393957,"vilnam_soi":"PAINKULAM","stcode11":"33","dtcode11":"629","sdtcode11":"05881","vilcode11":"643118","stname":"TAMIL NADU","dtname":"Kanniyakumari","sdtname":"Vilavancode","vilname11":"Painkulam","vil_lgd":643118,"dist_lgd":575,"state_lgd":33,"gp_code":224574,"gp_name":"Painkulam","subdt_lgd":5881,"block_name":"MUNCHIRA","block_lgd":6192,"Remark":null,"ac_no":0,"test":null,"shape_Length":16827.128812255716,"shape_Area":10687926.019590395}},{"arcs":[[-218,-211,235,236]],"type":"Polygon","properties":{"OBJECTID":393958,"vilnam_soi":"VALAVACHAGOSHTAM","stcode11":"33","dtcode11":"629","sdtcode11":"05882","vilcode11":"643129","stname":"TAMIL NADU","dtname":"Kanniyakumari","sdtname":"Kalkulam","vilname11":"Valvachagostam","vil_lgd":643129,"dist_lgd":575,"state_lgd":33,"gp_code":224593,"gp_name":"Maruthoorkurichy","subdt_lgd":5882,"block_name":"THACKALAI","block_lgd":6194,"Remark":null,"ac_no":231,"test":null,"shape_Length":11165.085765807191,"shape_Area":5499085.620101047}},{"arcs":[[-228,-199,-207,-231,237,238]],"type":"Polygon","properties":{"OBJECTID":393959,"vilnam_soi":"KILLIYUR","stcode11":"33","dtcode11":"629","sdtcode11":"05881","vilcode11":"803892","stname":"TAMIL NADU","dtname":"Kanniyakumari","sdtname":"Vilavancode","vilname11":"Killiyoor (TP)","vil_lgd":803892,"dist_lgd":575,"state_lgd":33,"gp_code":0,"gp_name":"","subdt_lgd":5881,"block_name":"KILLIYOOR","block_lgd":6189,"Remark":null,"ac_no":234,"test":null,"shape_Length":24633.166706355005,"shape_Area":12198597.457197784}},{"arcs":[[239,-214,-202,-194,240,241]],"type":"Polygon","properties":{"OBJECTID":393960,"vilnam_soi":"ISANTIMANGALAM","stcode11":"33","dtcode11":"629","sdtcode11":"05883","vilcode11":"643151","stname":"TAMIL NADU","dtname":"Kanniyakumari","sdtname":"Thovala","vilname11":"Esanthimangalam","vil_lgd":643151,"dist_lgd":575,"state_lgd":33,"gp_code":224611,"gp_name":"Esanthimangalam","subdt_lgd":5883,"block_name":"THOVALA","block_lgd":6196,"Remark":null,"ac_no":229,"test":null,"shape_Length":23186.679261388013,"shape_Area":14426259.819563868}},{"arcs":[[-215,-240,242,243]],"type":"Polygon","properties":{"OBJECTID":393961,"vilnam_soi":"CHIRAMADAM","stcode11":"33","dtcode11":"629","sdtcode11":"05883","vilcode11":"803922","stname":"TAMIL NADU","dtname":"Kanniyakumari","sdtname":"Thovala","vilname11":"Boothapandi (TP)","vil_lgd":803922,"dist_lgd":575,"state_lgd":33,"gp_code":0,"gp_name":"","subdt_lgd":5883,"block_name":"THOVALA","block_lgd":6196,"Remark":null,"ac_no":229,"test":null,"shape_Length":9373.410528677246,"shape_Area":2773330.4023361607}},{"arcs":[[-222,-203,-190,-217,244,245]],"type":"Polygon","properties":{"OBJECTID":393962,"vilnam_soi":"TAKKALAI","stcode11":"33","dtcode11":"629","sdtcode11":"05882","vilcode11":"","stname":"TAMIL NADU","dtname":"Kanniyakumari","sdtname":"Kalkulam","vilname11":"Thackalai","vil_lgd":0,"dist_lgd":575,"state_lgd":33,"gp_code":0,"gp_name":"","subdt_lgd":5882,"block_name":"THACKALAI","block_lgd":6194,"Remark":null,"ac_no":232,"test":null,"shape_Length":15704.170931285777,"shape_Area":7361387.994302222}},{"arcs":[[246,-235,247]],"type":"Polygon","properties":{"OBJECTID":393963,"vilnam_soi":"ARUDESOM","stcode11":"33","dtcode11":"629","sdtcode11":"05881","vilcode11":"","stname":"TAMIL NADU","dtname":"Kanniyakumari","sdtname":"Vilavancode","vilname11":" ","vil_lgd":0,"dist_lgd":575,"state_lgd":33,"gp_code":0,"gp_name":"","subdt_lgd":5881,"block_name":"MUNCHIRA","block_lgd":6192,"Remark":null,"ac_no":234,"test":null,"shape_Length":4379.966998775568,"shape_Area":1184233.3106629583}},{"arcs":[[-248,-234,248,249,250,251]],"type":"Polygon","properties":{"OBJECTID":393964,"vilnam_soi":"ARUDESOM","stcode11":"33","dtcode11":"629","sdtcode11":"05881","vilcode11":"643097","stname":"TAMIL NADU","dtname":"Kanniyakumari","sdtname":"Vilavancode","vilname11":"Arudesam  (Part)","vil_lgd":643097,"dist_lgd":575,"state_lgd":33,"gp_code":224572,"gp_name":"MUNCHIRAI","subdt_lgd":5881,"block_name":"MUNCHIRA","block_lgd":6192,"Remark":null,"ac_no":234,"test":null,"shape_Length":6955.956897966815,"shape_Area":2131575.1521962355}},{"arcs":[[-236,-210,-227,252,253,254]],"type":"Polygon","properties":{"OBJECTID":393967,"vilnam_soi":"VALAVACHAGOSHTAM","stcode11":"33","dtcode11":"629","sdtcode11":"05882","vilcode11":"803905","stname":"TAMIL NADU","dtname":"Kanniyakumari","sdtname":"Kalkulam","vilname11":"Mulagumudu (TP)","vil_lgd":803905,"dist_lgd":575,"state_lgd":33,"gp_code":0,"gp_name":"","subdt_lgd":5882,"block_name":"THACKALAI","block_lgd":6194,"Remark":null,"ac_no":231,"test":null,"shape_Length":15927.316370396118,"shape_Area":10235607.72673497}},{"arcs":[[255,-243,-242,256,257]],"type":"Polygon","properties":{"OBJECTID":393968,"vilnam_soi":"CHIRAMADAM","stcode11":"33","dtcode11":"629","sdtcode11":"05883","vilcode11":"643150","stname":"TAMIL NADU","dtname":"Kanniyakumari","sdtname":"Thovala","vilname11":"Chiramadam","vil_lgd":643150,"dist_lgd":575,"state_lgd":33,"gp_code":224612,"gp_name":"Gnalam","subdt_lgd":5883,"block_name":"THOVALA","block_lgd":6196,"Remark":null,"ac_no":229,"test":null,"shape_Length":29674.30553445523,"shape_Area":12622076.93396547}},{"arcs":[[258,-225,-239,259,260]],"type":"Polygon","properties":{"OBJECTID":393971,"vilnam_soi":"NATTALAM","stcode11":"33","dtcode11":"629","sdtcode11":"05881","vilcode11":"643117","stname":"TAMIL NADU","dtname":"Kanniyakumari","sdtname":"Vilavancode","vilname11":"Nattalam","vil_lgd":643117,"dist_lgd":575,"state_lgd":33,"gp_code":224545,"gp_name":"Nattalam","subdt_lgd":5881,"block_name":"KILLIYOOR","block_lgd":6189,"Remark":null,"ac_no":233,"test":null,"shape_Length":12948.944459434259,"shape_Area":6912201.323287983}},{"arcs":[[261,-250,262,263]],"type":"Polygon","properties":{"OBJECTID":393972,"vilnam_soi":"ARUDESOM","stcode11":"33","dtcode11":"629","sdtcode11":"05881","vilcode11":"643114","stname":"TAMIL NADU","dtname":"Kanniyakumari","sdtname":"Vilavancode","vilname11":"Vavarai","vil_lgd":643114,"dist_lgd":575,"state_lgd":33,"gp_code":224576,"gp_name":"Vavarai","subdt_lgd":5881,"block_name":"MUNCHIRA","block_lgd":6192,"Remark":null,"ac_no":234,"test":null,"shape_Length":9838.448663311709,"shape_Area":3705124.1652250076}},{"arcs":[[-263,-249,-233,264,265,266,267]],"type":"Polygon","properties":{"OBJECTID":393973,"vilnam_soi":"EZHUDESOM","stcode11":"33","dtcode11":"629","sdtcode11":"05881","vilcode11":"803894","stname":"TAMIL NADU","dtname":"Kanniyakumari","sdtname":"Vilavancode","vilname11":"Karungal (TP)","vil_lgd":803894,"dist_lgd":575,"state_lgd":33,"gp_code":0,"gp_name":"","subdt_lgd":5881,"block_name":"MUNCHIRA","block_lgd":6192,"Remark":null,"ac_no":0,"test":null,"shape_Length":19304.44167868901,"shape_Area":12173278.142709408}},{"arcs":[[268,-223,-246,269,270,271]],"type":"Polygon","properties":{"OBJECTID":393974,"vilnam_soi":"KOTHANALLUR","stcode11":"33","dtcode11":"629","sdtcode11":"05882","vilcode11":"803903","stname":"TAMIL NADU","dtname":"Kanniyakumari","sdtname":"Kalkulam","vilname11":"Kothanallur (TP)","vil_lgd":803903,"dist_lgd":575,"state_lgd":33,"gp_code":0,"gp_name":"","subdt_lgd":5882,"block_name":"THACKALAI","block_lgd":6194,"Remark":null,"ac_no":232,"test":null,"shape_Length":15652.77021445959,"shape_Area":12079242.767596316}},{"arcs":[[-245,-219,-237,-255,272,273,274,275]],"type":"Polygon","properties":{"OBJECTID":393975,"vilnam_soi":"VIYANNUR","stcode11":"33","dtcode11":"629","sdtcode11":"05882","vilcode11":"643141","stname":"TAMIL NADU","dtname":"Kanniyakumari","sdtname":"Kalkulam","vilname11":"Kannanoor","vil_lgd":643141,"dist_lgd":575,"state_lgd":33,"gp_code":224601,"gp_name":"Kannanoor","subdt_lgd":5882,"block_name":"THACKALAI","block_lgd":6194,"Remark":null,"ac_no":231,"test":null,"shape_Length":17188.095702917857,"shape_Area":8582471.880385218}},{"arcs":[[276,-251,-262,277,278]],"type":"Polygon","properties":{"OBJECTID":393976,"vilnam_soi":"ARUDESOM","stcode11":"33","dtcode11":"629","sdtcode11":"05881","vilcode11":"643115","stname":"TAMIL NADU","dtname":"Kanniyakumari","sdtname":"Vilavancode","vilname11":"Mancad (CT)","vil_lgd":643115,"dist_lgd":575,"state_lgd":33,"gp_code":224570,"gp_name":"Mankadu","subdt_lgd":5881,"block_name":"MUNCHIRA","block_lgd":6192,"Remark":null,"ac_no":234,"test":null,"shape_Length":8845.094629777697,"shape_Area":2503660.347578138}},{"arcs":[[-270,-276,279,280]],"type":"Polygon","properties":{"OBJECTID":393978,"vilnam_soi":"VIYANNUR","stcode11":"33","dtcode11":"629","sdtcode11":"05882","vilcode11":"803906","stname":"TAMIL NADU","dtname":"Kanniyakumari","sdtname":"Kalkulam","vilname11":"Vilavur (TP)","vil_lgd":803906,"dist_lgd":575,"state_lgd":33,"gp_code":0,"gp_name":"","subdt_lgd":5882,"block_name":"THACKALAI","block_lgd":6194,"Remark":null,"ac_no":232,"test":null,"shape_Length":7595.6889698968125,"shape_Area":2439742.749603901}},{"arcs":[[-253,-226,-259,281,282,283]],"type":"Polygon","properties":{"OBJECTID":393980,"vilnam_soi":"NATTALAM","stcode11":"33","dtcode11":"629","sdtcode11":"05881","vilcode11":"643095","stname":"TAMIL NADU","dtname":"Kanniyakumari","sdtname":"Vilavancode","vilname11":"Nattalam  (Part)","vil_lgd":643095,"dist_lgd":575,"state_lgd":33,"gp_code":224541,"gp_name":"Kollenchy","subdt_lgd":5881,"block_name":"KILLIYOOR","block_lgd":6189,"Remark":null,"ac_no":233,"test":null,"shape_Length":14271.136732036844,"shape_Area":10132896.856264265}},{"arcs":[[284,-260,-238,-247,-252,-277,285,286]],"type":"Polygon","properties":{"OBJECTID":393981,"vilnam_soi":"KUNNATHUR","stcode11":"33","dtcode11":"629","sdtcode11":"05881","vilcode11":"643116","stname":"TAMIL NADU","dtname":"Kanniyakumari","sdtname":"Vilavancode","vilname11":"Vilathurai (CT)","vil_lgd":643116,"dist_lgd":575,"state_lgd":33,"gp_code":224577,"gp_name":"Vilathurai","subdt_lgd":5881,"block_name":"MUNCHIRA","block_lgd":6192,"Remark":null,"ac_no":234,"test":null,"shape_Length":12629.15426120765,"shape_Area":8295663.780657198}},{"arcs":[[-282,-261,-285,287,288]],"type":"Polygon","properties":{"OBJECTID":393982,"vilnam_soi":"NALLUR","stcode11":"33","dtcode11":"629","sdtcode11":"05881","vilcode11":"803888","stname":"TAMIL NADU","dtname":"Kanniyakumari","sdtname":"Vilavancode","vilname11":"Nalloor (TP)","vil_lgd":803888,"dist_lgd":575,"state_lgd":33,"gp_code":0,"gp_name":"","subdt_lgd":5881,"block_name":"KILLIYOOR","block_lgd":6189,"Remark":null,"ac_no":233,"test":null,"shape_Length":9233.520523631263,"shape_Area":2278898.634132458}},{"arcs":[[289,-266,290]],"type":"Polygon","properties":{"OBJECTID":393983,"vilnam_soi":"KOLLENCODE","stcode11":"33","dtcode11":"629","sdtcode11":"05881","vilcode11":"803889","stname":"TAMIL NADU","dtname":"Kanniyakumari","sdtname":"Vilavancode","vilname11":"Kollancode (TP)","vil_lgd":803889,"dist_lgd":575,"state_lgd":33,"gp_code":0,"gp_name":"","subdt_lgd":5881,"block_name":"MUNCHIRA","block_lgd":6192,"Remark":null,"ac_no":0,"test":null,"shape_Length":15510.971356313456,"shape_Area":7345428.731891304}},{"arcs":[[-278,-264,-268,291,292,293]],"type":"Polygon","properties":{"OBJECTID":393985,"vilnam_soi":"MEL THUKUMMEL","stcode11":"33","dtcode11":"629","sdtcode11":"05881","vilcode11":"643113","stname":"TAMIL NADU","dtname":"Kanniyakumari","sdtname":"Vilavancode","vilname11":"Nadaikavu","vil_lgd":643113,"dist_lgd":575,"state_lgd":33,"gp_code":224573,"gp_name":"Nadaikavu","subdt_lgd":5881,"block_name":"MUNCHIRA","block_lgd":6192,"Remark":null,"ac_no":234,"test":null,"shape_Length":12655.871543650725,"shape_Area":4606839.839663533}},{"arcs":[[294,-274,295,296]],"type":"Polygon","properties":{"OBJECTID":393986,"vilnam_soi":"ATTUR","stcode11":"33","dtcode11":"629","sdtcode11":"05882","vilcode11":"643140","stname":"TAMIL NADU","dtname":"Kanniyakumari","sdtname":"Kalkulam","vilname11":"Kattathurai","vil_lgd":643140,"dist_lgd":575,"state_lgd":33,"gp_code":224602,"gp_name":"Kattathurai","subdt_lgd":5882,"block_name":"THIRUVATTAR","block_lgd":6195,"Remark":null,"ac_no":232,"test":null,"shape_Length":7988.331603767993,"shape_Area":3252631.859696546}},{"arcs":[[297,298,-230,-220,-212,299,300,301]],"type":"Polygon","properties":{"OBJECTID":393987,"vilnam_soi":"ANANTHAPURAM","stcode11":"33","dtcode11":"629","sdtcode11":"05883","vilcode11":"643146","stname":"TAMIL NADU","dtname":"Kanniyakumari","sdtname":"Thovala","vilname11":"Ananthapuram","vil_lgd":643146,"dist_lgd":575,"state_lgd":33,"gp_code":224613,"gp_name":"Kadukkarai","subdt_lgd":5883,"block_name":"THOVALA","block_lgd":6196,"Remark":null,"ac_no":229,"test":null,"shape_Length":38548.15007244386,"shape_Area":21401324.707879942}},{"arcs":[[302,-258,303,304]],"type":"Polygon","properties":{"OBJECTID":393990,"vilnam_soi":"RF","stcode11":"33","dtcode11":"629","sdtcode11":"05883","vilcode11":"643161","stname":"TAMIL NADU","dtname":"Kanniyakumari","sdtname":"Thovala","vilname11":" ","vil_lgd":643161,"dist_lgd":575,"state_lgd":33,"gp_code":224612,"gp_name":"Gnalam","subdt_lgd":5883,"block_name":"THOVALA","block_lgd":6196,"Remark":null,"ac_no":229,"test":null,"shape_Length":18714.771752545785,"shape_Area":10948621.884509634}},{"arcs":[[305,-292,-267,-290,306]],"type":"Polygon","properties":{"OBJECTID":393991,"vilnam_soi":"KOLLENCODE","stcode11":"33","dtcode11":"629","sdtcode11":"05881","vilcode11":"643112","stname":"TAMIL NADU","dtname":"Kanniyakumari","sdtname":"Vilavancode","vilname11":"Choozhal","vil_lgd":643112,"dist_lgd":575,"state_lgd":33,"gp_code":224568,"gp_name":"Choozal","subdt_lgd":5881,"block_name":"MUNCHIRA","block_lgd":6192,"Remark":null,"ac_no":234,"test":null,"shape_Length":14159.266372539278,"shape_Area":5513848.395854373}},{"arcs":[[307,-288,-287,308,309,310]],"type":"Polygon","properties":{"OBJECTID":393992,"vilnam_soi":"VILAVANCODE","stcode11":"33","dtcode11":"629","sdtcode11":"05881","vilcode11":"643111","stname":"TAMIL NADU","dtname":"Kanniyakumari","sdtname":"Vilavancode","vilname11":"Vilavancode","vil_lgd":643111,"dist_lgd":575,"state_lgd":33,"gp_code":224566,"gp_name":"Vilavancode","subdt_lgd":5881,"block_name":"MUNCHIRA","block_lgd":6192,"Remark":null,"ac_no":233,"test":null,"shape_Length":11524.662537199221,"shape_Area":2473188.8879668806}},{"arcs":[[311,-298,312,313]],"type":"Polygon","properties":{"OBJECTID":393993,"vilnam_soi":"MAHENDRAGIRI RESERVED FOREST","stcode11":"33","dtcode11":"629","sdtcode11":"05883","vilcode11":"643159","stname":"TAMIL NADU","dtname":"Kanniyakumari","sdtname":"Thovala","vilname11":"Poigaimalai  R.F.","vil_lgd":643159,"dist_lgd":575,"state_lgd":33,"gp_code":224609,"gp_name":"Chenbagaramanputhoor","subdt_lgd":5883,"block_name":"THOVALA","block_lgd":6196,"Remark":null,"ac_no":229,"test":null,"shape_Length":30114.4250565598,"shape_Area":22473711.276347023}},{"arcs":[[-301,314,315,316]],"type":"Polygon","properties":{"OBJECTID":393994,"vilnam_soi":"ANANTHAPURAM","stcode11":"33","dtcode11":"629","sdtcode11":"05883","vilcode11":"643147","stname":"TAMIL NADU","dtname":"Kanniyakumari","sdtname":"Thovala","vilname11":"Azhagiapandipuram","vil_lgd":643147,"dist_lgd":575,"state_lgd":33,"gp_code":224614,"gp_name":"Kattuputhoor","subdt_lgd":5883,"block_name":"THOVALA","block_lgd":6196,"Remark":null,"ac_no":229,"test":null,"shape_Length":10598.808515576868,"shape_Area":4850887.741320639}},{"arcs":[[-283,-289,-308,317,318]],"type":"Polygon","properties":{"OBJECTID":393996,"vilnam_soi":"KUZHITHURAI MUNICIPALITY","stcode11":"33","dtcode11":"629","sdtcode11":"05881","vilcode11":"803888","stname":"TAMIL NADU","dtname":"Kanniyakumari","sdtname":"Vilavancode","vilname11":"Nalloor (TP)","vil_lgd":803888,"dist_lgd":575,"state_lgd":33,"gp_code":0,"gp_name":"","subdt_lgd":5881,"block_name":"KILLIYOOR","block_lgd":6189,"Remark":null,"ac_no":233,"test":null,"shape_Length":15000.98695436169,"shape_Area":5757877.039931276}},{"arcs":[[319,-280,-275,-295,320,321]],"type":"Polygon","properties":{"OBJECTID":393998,"vilnam_soi":"ATTUR","stcode11":"33","dtcode11":"629","sdtcode11":"05882","vilcode11":"643127","stname":"TAMIL NADU","dtname":"Kanniyakumari","sdtname":"Kalkulam","vilname11":"Attoor  (Part)","vil_lgd":643127,"dist_lgd":575,"state_lgd":33,"gp_code":224600,"gp_name":"Cherukole","subdt_lgd":5882,"block_name":"THIRUVATTAR","block_lgd":6195,"Remark":null,"ac_no":232,"test":null,"shape_Length":8964.150527454058,"shape_Area":3657902.5028797467}},{"arcs":[[322,-293,-306,323]],"type":"Polygon","properties":{"OBJECTID":393999,"vilnam_soi":"MEL THUKUMMEL","stcode11":"33","dtcode11":"629","sdtcode11":"05881","vilcode11":"643109","stname":"TAMIL NADU","dtname":"Kanniyakumari","sdtname":"Vilavancode","vilname11":"Adaikkakuzhi (CT)","vil_lgd":643109,"dist_lgd":575,"state_lgd":33,"gp_code":224567,"gp_name":"Adaikkakuzhi","subdt_lgd":5881,"block_name":"MUNCHIRA","block_lgd":6192,"Remark":null,"ac_no":234,"test":null,"shape_Length":12511.323642822988,"shape_Area":4559936.222755212}},{"arcs":[[324,325,-271,-281,-320,326]],"type":"Polygon","properties":{"OBJECTID":394000,"vilnam_soi":"MECODE","stcode11":"33","dtcode11":"629","sdtcode11":"05882","vilcode11":"643126","stname":"TAMIL NADU","dtname":"Kanniyakumari","sdtname":"Kalkulam","vilname11":"Mecode","vil_lgd":643126,"dist_lgd":575,"state_lgd":33,"gp_code":224603,"gp_name":"Kumarankudi","subdt_lgd":5882,"block_name":"THIRUVATTAR","block_lgd":6195,"Remark":null,"ac_no":232,"test":null,"shape_Length":14418.851671891252,"shape_Area":7733433.909318519}},{"arcs":[[327,-304,-257,-241,-193,-195,-224,-269,328,329]],"type":"Polygon","properties":{"OBJECTID":394001,"vilnam_soi":"VELIMALAI","stcode11":"33","dtcode11":"629","sdtcode11":"05882","vilcode11":"803920","stname":"TAMIL NADU","dtname":"Kanniyakumari","sdtname":"Kalkulam","vilname11":"Vellimalai (TP)","vil_lgd":803920,"dist_lgd":575,"state_lgd":33,"gp_code":0,"gp_name":"","subdt_lgd":5882,"block_name":"THACKALAI","block_lgd":6194,"Remark":null,"ac_no":232,"test":null,"shape_Length":38161.977710679814,"shape_Area":38247483.68463859}},{"arcs":[[330,-323,331]],"type":"Polygon","properties":{"OBJECTID":394002,"vilnam_soi":"KULAPPURAM","stcode11":"33","dtcode11":"629","sdtcode11":"05881","vilcode11":"643108","stname":"TAMIL NADU","dtname":"Kanniyakumari","sdtname":"Vilavancode","vilname11":"Kulappuram  (CT)","vil_lgd":643108,"dist_lgd":575,"state_lgd":33,"gp_code":224569,"gp_name":"Kulappuram","subdt_lgd":5881,"block_name":"MUNCHIRA","block_lgd":6192,"Remark":null,"ac_no":234,"test":null,"shape_Length":9601.78086187625,"shape_Area":3912811.889822075}},{"arcs":[[-316,332,333]],"type":"Polygon","properties":{"OBJECTID":394003,"vilnam_soi":"AZHAKIAPANDIPURAM","stcode11":"33","dtcode11":"629","sdtcode11":"05883","vilcode11":"803921","stname":"TAMIL NADU","dtname":"Kanniyakumari","sdtname":"Thovala","vilname11":"Azhagiapandipuram (TP)","vil_lgd":803921,"dist_lgd":575,"state_lgd":33,"gp_code":0,"gp_name":"","subdt_lgd":5883,"block_name":"THOVALA","block_lgd":6196,"Remark":null,"ac_no":229,"test":null,"shape_Length":16388.731859701424,"shape_Area":13230552.971267369}},{"arcs":[[-309,-286,-279,-294,-331,334]],"type":"Polygon","properties":{"OBJECTID":394005,"vilnam_soi":"KULAPPURAM","stcode11":"33","dtcode11":"629","sdtcode11":"05881","vilcode11":"643110","stname":"TAMIL NADU","dtname":"Kanniyakumari","sdtname":"Vilavancode","vilname11":"Methukummal","vil_lgd":643110,"dist_lgd":575,"state_lgd":33,"gp_code":224571,"gp_name":"Methukummal","subdt_lgd":5881,"block_name":"MUNCHIRA","block_lgd":6192,"Remark":null,"ac_no":234,"test":null,"shape_Length":13482.348263893571,"shape_Area":6712978.084811527}},{"arcs":[[335,-305,336,337]],"type":"Polygon","properties":{"OBJECTID":394006,"vilnam_soi":"MAHENDRAGIRI RESERVED FOREST","stcode11":"33","dtcode11":"629","sdtcode11":"05883","vilcode11":"643164","stname":"TAMIL NADU","dtname":"Kanniyakumari","sdtname":"Thovala","vilname11":"Thadikarankonam","vil_lgd":643164,"dist_lgd":575,"state_lgd":33,"gp_code":224617,"gp_name":"Thadikarankonam","subdt_lgd":5883,"block_name":"THOVALA","block_lgd":6196,"Remark":null,"ac_no":229,"test":null,"shape_Length":11874.84988711763,"shape_Area":6268184.417609573}},{"arcs":[[-333,-315,-300,-216,-244,-256,-303,-336,338,339]],"type":"Polygon","properties":{"OBJECTID":394008,"vilnam_soi":"DERSANAMCOPE","stcode11":"33","dtcode11":"629","sdtcode11":"05883","vilcode11":"643148","stname":"TAMIL NADU","dtname":"Kanniyakumari","sdtname":"Thovala","vilname11":"Derisanamcope","vil_lgd":643148,"dist_lgd":575,"state_lgd":33,"gp_code":224612,"gp_name":"Gnalam","subdt_lgd":5883,"block_name":"THOVALA","block_lgd":6196,"Remark":null,"ac_no":229,"test":null,"shape_Length":27186.691879065427,"shape_Area":9086404.34491306}},{"arcs":[[340,-339,-338,341,342,343]],"type":"Polygon","properties":{"OBJECTID":394009,"vilnam_soi":"MAHENDRAGIRI RESERVED FOREST","stcode11":"33","dtcode11":"629","sdtcode11":"05883","vilcode11":"643149","stname":"TAMIL NADU","dtname":"Kanniyakumari","sdtname":"Thovala","vilname11":"Arumanalloor  (Part)","vil_lgd":643149,"dist_lgd":575,"state_lgd":33,"gp_code":224607,"gp_name":"Arumanallur","subdt_lgd":5883,"block_name":"THOVALA","block_lgd":6196,"Remark":null,"ac_no":229,"test":null,"shape_Length":6275.835514481994,"shape_Area":1099453.5339313517}},{"arcs":[[344,345,-329,-272,-326,346,347]],"type":"Polygon","properties":{"OBJECTID":394012,"vilnam_soi":"MECODE","stcode11":"33","dtcode11":"629","sdtcode11":"05882","vilcode11":"643128","stname":"TAMIL NADU","dtname":"Kanniyakumari","sdtname":"Kalkulam","vilname11":"Veeyanoor  (Part)","vil_lgd":643128,"dist_lgd":575,"state_lgd":33,"gp_code":224600,"gp_name":"Cherukole","subdt_lgd":5882,"block_name":"THIRUVATTAR","block_lgd":6195,"Remark":null,"ac_no":232,"test":null,"shape_Length":19853.276697437188,"shape_Area":11739492.787952304}},{"arcs":[[-321,-297,348,349,350]],"type":"Polygon","properties":{"OBJECTID":394015,"vilnam_soi":"ATTUR","stcode11":"33","dtcode11":"629","sdtcode11":"05882","vilcode11":"803900","stname":"TAMIL NADU","dtname":"Kanniyakumari","sdtname":"Kalkulam","vilname11":"Athur (TP)","vil_lgd":803900,"dist_lgd":575,"state_lgd":33,"gp_code":0,"gp_name":"","subdt_lgd":5882,"block_name":"THIRUVATTAR","block_lgd":6195,"Remark":null,"ac_no":232,"test":null,"shape_Length":11934.824739945883,"shape_Area":5639328.075888179}},{"arcs":[[-330,-346,351,352]],"type":"Polygon","properties":{"OBJECTID":394016,"vilnam_soi":"PONMANA","stcode11":"33","dtcode11":"629","sdtcode11":"05882","vilcode11":"643125","stname":"TAMIL NADU","dtname":"Kanniyakumari","sdtname":"Kalkulam","vilname11":"Ponmanai","vil_lgd":643125,"dist_lgd":575,"state_lgd":33,"gp_code":224605,"gp_name":"Surulacode","subdt_lgd":5882,"block_name":"THIRUVATTAR","block_lgd":6195,"Remark":null,"ac_no":232,"test":null,"shape_Length":10579.162538497954,"shape_Area":4013095.084639482}},{"arcs":[[-347,-325,353,354]],"type":"Polygon","properties":{"OBJECTID":394017,"vilnam_soi":"ARUVIKKARA","stcode11":"33","dtcode11":"629","sdtcode11":"05882","vilcode11":"643123","stname":"TAMIL NADU","dtname":"Kanniyakumari","sdtname":"Kalkulam","vilname11":"Aruvikkarai  (Part)","vil_lgd":643123,"dist_lgd":575,"state_lgd":33,"gp_code":224597,"gp_name":"Aruvikkarai","subdt_lgd":5882,"block_name":"THIRUVATTAR","block_lgd":6195,"Remark":null,"ac_no":232,"test":null,"shape_Length":7320.7885655052705,"shape_Area":3349128.1009196555}},{"arcs":[[355,-318,-311,356,357]],"type":"Polygon","properties":{"OBJECTID":394018,"vilnam_soi":"VILAVANCODE","stcode11":"33","dtcode11":"629","sdtcode11":"05881","vilcode11":"803884","stname":"TAMIL NADU","dtname":"Kanniyakumari","sdtname":"Vilavancode","vilname11":"Kaliyakkavilai (TP)","vil_lgd":803884,"dist_lgd":575,"state_lgd":33,"gp_code":0,"gp_name":"","subdt_lgd":5881,"block_name":"MUNCHIRA","block_lgd":6192,"Remark":null,"ac_no":233,"test":null,"shape_Length":12431.434297804506,"shape_Area":5750352.7326663835}},{"arcs":[[-349,-296,-273,-254,-284,-319,358,359,360]],"type":"Polygon","properties":{"OBJECTID":394020,"vilnam_soi":"PACODE","stcode11":"33","dtcode11":"629","sdtcode11":"05881","vilcode11":"803887","stname":"TAMIL NADU","dtname":"Kanniyakumari","sdtname":"Vilavancode","vilname11":"Unnamalaikadai (TP)","vil_lgd":803887,"dist_lgd":575,"state_lgd":33,"gp_code":0,"gp_name":"","subdt_lgd":5881,"block_name":"KILLIYOOR","block_lgd":6189,"Remark":null,"ac_no":233,"test":null,"shape_Length":26123.096814763187,"shape_Area":15186528.408313254}},{"arcs":[[-342,-337,-328,-353,361,362]],"type":"Polygon","properties":{"OBJECTID":394021,"vilnam_soi":"CHURULAKODE","stcode11":"33","dtcode11":"629","sdtcode11":"05882","vilcode11":"643124","stname":"TAMIL NADU","dtname":"Kanniyakumari","sdtname":"Kalkulam","vilname11":"Surulacode","vil_lgd":643124,"dist_lgd":575,"state_lgd":33,"gp_code":224599,"gp_name":"Balamore","subdt_lgd":5882,"block_name":"THIRUVATTAR","block_lgd":6195,"Remark":null,"ac_no":232,"test":null,"shape_Length":19663.041777214585,"shape_Area":16008899.999577245}},{"arcs":[[363,-358,364,365]],"type":"Polygon","properties":{"OBJECTID":394023,"vilnam_soi":"VILAVANCODE","stcode11":"33","dtcode11":"629","sdtcode11":"05881","vilcode11":"643105","stname":"TAMIL NADU","dtname":"Kanniyakumari","sdtname":"Vilavancode","vilname11":"Vanniyoor (CT)","vil_lgd":643105,"dist_lgd":575,"state_lgd":33,"gp_code":224564,"gp_name":"Vanniyoor","subdt_lgd":5881,"block_name":"MUNCHIRA","block_lgd":6192,"Remark":null,"ac_no":233,"test":null,"shape_Length":6733.7633286755035,"shape_Area":1842522.2334776302}},{"arcs":[[366,-348,-355,367]],"type":"Polygon","properties":{"OBJECTID":394028,"vilnam_soi":"ARUVIKKARA","stcode11":"33","dtcode11":"629","sdtcode11":"05882","vilcode11":"643139","stname":"TAMIL NADU","dtname":"Kanniyakumari","sdtname":"Kalkulam","vilname11":"Ayacode (CT)","vil_lgd":643139,"dist_lgd":575,"state_lgd":33,"gp_code":224598,"gp_name":"Ayacode","subdt_lgd":5882,"block_name":"THIRUVATTAR","block_lgd":6195,"Remark":null,"ac_no":232,"test":null,"shape_Length":14946.440210653665,"shape_Area":7107224.863162653}},{"arcs":[[-359,-356,-364,368,369,370]],"type":"Polygon","properties":{"OBJECTID":394029,"vilnam_soi":"PACODE","stcode11":"33","dtcode11":"629","sdtcode11":"05881","vilcode11":"643106","stname":"TAMIL NADU","dtname":"Kanniyakumari","sdtname":"Vilavancode","vilname11":"Maruthancode","vil_lgd":643106,"dist_lgd":575,"state_lgd":33,"gp_code":224561,"gp_name":"Maruthencode","subdt_lgd":5881,"block_name":"KILLIYOOR","block_lgd":6189,"Remark":null,"ac_no":233,"test":null,"shape_Length":9662.260390043277,"shape_Area":3620538.4992705258}},{"arcs":[[-369,-366,371,372,373]],"type":"Polygon","properties":{"OBJECTID":394031,"vilnam_soi":"PALUKAL","stcode11":"33","dtcode11":"629","sdtcode11":"05881","vilcode11":"643104","stname":"TAMIL NADU","dtname":"Kanniyakumari","sdtname":"Vilavancode","vilname11":"Malayadi","vil_lgd":643104,"dist_lgd":575,"state_lgd":33,"gp_code":224558,"gp_name":"Malayadi","subdt_lgd":5881,"block_name":"MUNCHIRA","block_lgd":6192,"Remark":null,"ac_no":233,"test":null,"shape_Length":8961.25386646021,"shape_Area":3608950.5659663067}},{"arcs":[[-350,-361,374,375,376,377]],"type":"Polygon","properties":{"OBJECTID":394034,"vilnam_soi":"VELLAMCODE","stcode11":"33","dtcode11":"629","sdtcode11":"05881","vilcode11":"643107","stname":"TAMIL NADU","dtname":"Kanniyakumari","sdtname":"Vilavancode","vilname11":"Vellamcode","vil_lgd":643107,"dist_lgd":575,"state_lgd":33,"gp_code":224565,"gp_name":"Vellamcode","subdt_lgd":5881,"block_name":"MELPURAM","block_lgd":6191,"Remark":null,"ac_no":233,"test":null,"shape_Length":19861.55022916104,"shape_Area":11023414.414037347}},{"arcs":[[-376,378,379]],"type":"Polygon","properties":{"OBJECTID":394035,"vilnam_soi":"VELLAMCODE","stcode11":"33","dtcode11":"629","sdtcode11":"05881","vilcode11":"803881","stname":"TAMIL NADU","dtname":"Kanniyakumari","sdtname":"Vilavancode","vilname11":"Arumanai (TP)","vil_lgd":803881,"dist_lgd":575,"state_lgd":33,"gp_code":0,"gp_name":"","subdt_lgd":5881,"block_name":"MELPURAM","block_lgd":6191,"Remark":null,"ac_no":233,"test":null,"shape_Length":4653.795499432832,"shape_Area":1015787.6713829407}},{"arcs":[[-379,-375,380,381]],"type":"Polygon","properties":{"OBJECTID":394036,"vilnam_soi":"VELLAMCODE","stcode11":"33","dtcode11":"629","sdtcode11":"05881","vilcode11":"643103","stname":"TAMIL NADU","dtname":"Kanniyakumari","sdtname":"Vilavancode","vilname11":"Muzhucode","vil_lgd":643103,"dist_lgd":575,"state_lgd":33,"gp_code":224562,"gp_name":"Muzhucode","subdt_lgd":5881,"block_name":"MELPURAM","block_lgd":6191,"Remark":null,"ac_no":233,"test":null,"shape_Length":8775.081614809938,"shape_Area":4244926.159072196}},{"arcs":[[-362,382,383]],"type":"Polygon","properties":{"OBJECTID":394037,"vilnam_soi":"CHURULAKODE","stcode11":"33","dtcode11":"629","sdtcode11":"05882","vilcode11":"","stname":"TAMIL NADU","dtname":"Kanniyakumari","sdtname":"Kalkulam","vilname11":" ","vil_lgd":0,"dist_lgd":575,"state_lgd":33,"gp_code":0,"gp_name":"","subdt_lgd":5882,"block_name":"THIRUVATTAR","block_lgd":6195,"Remark":null,"ac_no":232,"test":null,"shape_Length":12596.174596451114,"shape_Area":4300502.37401301}},{"arcs":[[384,-383,-352,-345,-367,385,386]],"type":"Polygon","properties":{"OBJECTID":394039,"vilnam_soi":"PONMANA","stcode11":"33","dtcode11":"629","sdtcode11":"05882","vilcode11":"803897","stname":"TAMIL NADU","dtname":"Kanniyakumari","sdtname":"Kalkulam","vilname11":"Ponmanai (TP)","vil_lgd":803897,"dist_lgd":575,"state_lgd":33,"gp_code":0,"gp_name":"","subdt_lgd":5882,"block_name":"THIRUVATTAR","block_lgd":6195,"Remark":null,"ac_no":232,"test":null,"shape_Length":21605.574597923733,"shape_Area":14873570.330616187}},{"arcs":[[387,388,-313,-302,-317,-334,-340,-341,389]],"type":"Polygon","properties":{"OBJECTID":394045,"vilnam_soi":"MAHENDRAGIRI RESERVED FOREST","stcode11":"33","dtcode11":"629","sdtcode11":"05883","vilcode11":"643157","stname":"TAMIL NADU","dtname":"Kanniyakumari","sdtname":"Thovala","vilname11":"Asambu R.F.","vil_lgd":643157,"dist_lgd":575,"state_lgd":33,"gp_code":224614,"gp_name":"Kattuputhoor","subdt_lgd":5883,"block_name":"THOVALA","block_lgd":6196,"Remark":null,"ac_no":229,"test":null,"shape_Length":43721.365641589044,"shape_Area":65343345.36823704}},{"arcs":[[390,-373,391]],"type":"Polygon","properties":{"OBJECTID":394047,"vilnam_soi":"PALUKAL","stcode11":"33","dtcode11":"629","sdtcode11":"05881","vilcode11":"803883","stname":"TAMIL NADU","dtname":"Kanniyakumari","sdtname":"Vilavancode","vilname11":"Palugal (TP)","vil_lgd":803883,"dist_lgd":575,"state_lgd":33,"gp_code":0,"gp_name":"","subdt_lgd":5881,"block_name":"MUNCHIRA","block_lgd":6192,"Remark":null,"ac_no":233,"test":null,"shape_Length":15397.645130774645,"shape_Area":7231895.568443777}},{"arcs":[[392,-386,-368,-354,-327,-322,-351,-378,393,394]],"type":"Polygon","properties":{"OBJECTID":394049,"vilnam_soi":"THIRUVATTAR","stcode11":"33","dtcode11":"629","sdtcode11":"05882","vilcode11":"803899","stname":"TAMIL NADU","dtname":"Kanniyakumari","sdtname":"Kalkulam","vilname11":"Thiruvattar (TP)","vil_lgd":803899,"dist_lgd":575,"state_lgd":33,"gp_code":0,"gp_name":"","subdt_lgd":5882,"block_name":"THIRUVATTAR","block_lgd":6195,"Remark":null,"ac_no":232,"test":null,"shape_Length":26574.37615873254,"shape_Area":17380942.527083043}},{"arcs":[[395,-314,-389,396]],"type":"Polygon","properties":{"OBJECTID":394050,"vilnam_soi":"MAHENDRAGIRI RESERVED FOREST","stcode11":"33","dtcode11":"629","sdtcode11":"05883","vilcode11":"643158","stname":"TAMIL NADU","dtname":"Kanniyakumari","sdtname":"Thovala","vilname11":"Mahendragiri R.F.","vil_lgd":643158,"dist_lgd":575,"state_lgd":33,"gp_code":224609,"gp_name":"Chenbagaramanputhoor","subdt_lgd":5883,"block_name":"THOVALA","block_lgd":6196,"Remark":null,"ac_no":229,"test":null,"shape_Length":44378.63939494866,"shape_Area":45711093.964322865}},{"arcs":[[397,-381,-360,-371,398,399]],"type":"Polygon","properties":{"OBJECTID":394051,"vilnam_soi":"ANDUCODE","stcode11":"33","dtcode11":"629","sdtcode11":"05881","vilcode11":"643094","stname":"TAMIL NADU","dtname":"Kanniyakumari","sdtname":"Vilavancode","vilname11":"Edaicode","vil_lgd":643094,"dist_lgd":575,"state_lgd":33,"gp_code":224557,"gp_name":"Devicode","subdt_lgd":5881,"block_name":"MELPURAM","block_lgd":6191,"Remark":null,"ac_no":233,"test":null,"shape_Length":17196.407231644393,"shape_Area":11527012.032050889}},{"arcs":[[-387,-393,400,401]],"type":"Polygon","properties":{"OBJECTID":394056,"vilnam_soi":"THUMPODU","stcode11":"33","dtcode11":"629","sdtcode11":"05882","vilcode11":"","stname":"TAMIL NADU","dtname":"Kanniyakumari","sdtname":"Kalkulam","vilname11":" ","vil_lgd":0,"dist_lgd":575,"state_lgd":33,"gp_code":0,"gp_name":"","subdt_lgd":5882,"block_name":"THIRUVATTAR","block_lgd":6195,"Remark":null,"ac_no":232,"test":null,"shape_Length":24813.34598771225,"shape_Area":11933006.090880781}},{"arcs":[[-399,-370,-374,-391,402,403]],"type":"Polygon","properties":{"OBJECTID":394058,"vilnam_soi":"EDAICODE","stcode11":"33","dtcode11":"629","sdtcode11":"05881","vilcode11":"803882","stname":"TAMIL NADU","dtname":"Kanniyakumari","sdtname":"Vilavancode","vilname11":"Edaicode (TP)","vil_lgd":803882,"dist_lgd":575,"state_lgd":33,"gp_code":0,"gp_name":"","subdt_lgd":5881,"block_name":"MELPURAM","block_lgd":6191,"Remark":null,"ac_no":233,"test":null,"shape_Length":17393.678084927335,"shape_Area":10677745.127457432}},{"arcs":[[404,-401,-395,405,406]],"type":"Polygon","properties":{"OBJECTID":394060,"vilnam_soi":"THRIPPARAPPU","stcode11":"33","dtcode11":"629","sdtcode11":"05882","vilcode11":"803896","stname":"TAMIL NADU","dtname":"Kanniyakumari","sdtname":"Kalkulam","vilname11":"Thirparappu (TP)","vil_lgd":803896,"dist_lgd":575,"state_lgd":33,"gp_code":0,"gp_name":"","subdt_lgd":5882,"block_name":"THIRUVATTAR","block_lgd":6195,"Remark":null,"ac_no":232,"test":null,"shape_Length":18119.578763650105,"shape_Area":8665660.853928385}},{"arcs":[[407,-394,-377,-380,-382,-398,408,409]],"type":"Polygon","properties":{"OBJECTID":394062,"vilnam_soi":"ARUMANA","stcode11":"33","dtcode11":"629","sdtcode11":"05881","vilcode11":"643102","stname":"TAMIL NADU","dtname":"Kanniyakumari","sdtname":"Vilavancode","vilname11":"Manjalumoodu (CT)","vil_lgd":643102,"dist_lgd":575,"state_lgd":33,"gp_code":224559,"gp_name":"Manchalumoodu","subdt_lgd":5881,"block_name":"MELPURAM","block_lgd":6191,"Remark":null,"ac_no":233,"test":null,"shape_Length":20997.280058861736,"shape_Area":16622264.37579372}},{"arcs":[[-409,-400,-404,410,411]],"type":"Polygon","properties":{"OBJECTID":394066,"vilnam_soi":"MANGOD","stcode11":"33","dtcode11":"629","sdtcode11":"05881","vilcode11":"643101","stname":"TAMIL NADU","dtname":"Kanniyakumari","sdtname":"Vilavancode","vilname11":"Puliyoorsalai","vil_lgd":643101,"dist_lgd":575,"state_lgd":33,"gp_code":224563,"gp_name":"Puliyoor Salai","subdt_lgd":5881,"block_name":"MELPURAM","block_lgd":6191,"Remark":null,"ac_no":233,"test":null,"shape_Length":12962.602695057514,"shape_Area":4516372.022952533}},{"arcs":[[412,-410,-412,413]],"type":"Polygon","properties":{"OBJECTID":394079,"vilnam_soi":"MANGOD","stcode11":"33","dtcode11":"629","sdtcode11":"05881","vilcode11":"643093","stname":"TAMIL NADU","dtname":"Kanniyakumari","sdtname":"Vilavancode","vilname11":"Mancode (Part)","vil_lgd":643093,"dist_lgd":575,"state_lgd":33,"gp_code":224560,"gp_name":"Mancode","subdt_lgd":5881,"block_name":"MELPURAM","block_lgd":6191,"Remark":null,"ac_no":233,"test":null,"shape_Length":24601.345292750706,"shape_Area":12748260.207795324}},{"arcs":[[414,-407,415,416]],"type":"Polygon","properties":{"OBJECTID":394086,"vilnam_soi":"THRIPPARAPPU","stcode11":"33","dtcode11":"629","sdtcode11":"05882","vilcode11":"643122","stname":"TAMIL NADU","dtname":"Kanniyakumari","sdtname":"Kalkulam","vilname11":"Thirpparappu","vil_lgd":643122,"dist_lgd":575,"state_lgd":33,"gp_code":224604,"gp_name":"Pechiparai","subdt_lgd":5882,"block_name":"THIRUVATTAR","block_lgd":6195,"Remark":null,"ac_no":232,"test":null,"shape_Length":25428.639077354685,"shape_Area":10188689.10916957}},{"arcs":[[-390,-344,417,418]],"type":"Polygon","properties":{"OBJECTID":394098,"vilnam_soi":"MAHENDRAGIRI RESERVED FOREST","stcode11":"33","dtcode11":"629","sdtcode11":"05883","vilcode11":"643156","stname":"TAMIL NADU","dtname":"Kanniyakumari","sdtname":"Thovala","vilname11":"Veerapuli R.F.","vil_lgd":643156,"dist_lgd":575,"state_lgd":33,"gp_code":224617,"gp_name":"Thadikarankonam","subdt_lgd":5883,"block_name":"THOVALA","block_lgd":6196,"Remark":null,"ac_no":229,"test":null,"shape_Length":59193.935118664514,"shape_Area":59779252.28031141}},{"arcs":[[419,-416,-406,-408,-413,420]],"type":"Polygon","properties":{"OBJECTID":394117,"vilnam_soi":"CHITTAR","stcode11":"33","dtcode11":"629","sdtcode11":"05881","vilcode11":"803880","stname":"TAMIL NADU","dtname":"Kanniyakumari","sdtname":"Vilavancode","vilname11":"Kadayal (TP)","vil_lgd":803880,"dist_lgd":575,"state_lgd":33,"gp_code":0,"gp_name":"","subdt_lgd":5881,"block_name":"MELPURAM","block_lgd":6191,"Remark":null,"ac_no":233,"test":null,"shape_Length":50572.484573424794,"shape_Area":52188489.83415872}},{"arcs":[[-418,-343,-363,-384,-385,-402,-405,-415,421,422]],"type":"Polygon","properties":{"OBJECTID":394134,"vilnam_soi":"VIRAPULI RESERVED FOREST","stcode11":"33","dtcode11":"629","sdtcode11":"05882","vilcode11":"643137","stname":"TAMIL NADU","dtname":"Kanniyakumari","sdtname":"Kalkulam","vilname11":"Veerapuli Extn. (Old Kulasekarapuram)","vil_lgd":643137,"dist_lgd":575,"state_lgd":33,"gp_code":224604,"gp_name":"Pechiparai","subdt_lgd":5882,"block_name":"THIRUVATTAR","block_lgd":6195,"Remark":null,"ac_no":232,"test":null,"shape_Length":83965.80576130554,"shape_Area":173414822.5663581}},{"arcs":[[423,-422,-417,424]],"type":"Polygon","properties":{"OBJECTID":394155,"vilnam_soi":"VIRAPULI RESERVED FOREST","stcode11":"33","dtcode11":"629","sdtcode11":"05882","vilcode11":"643136","stname":"TAMIL NADU","dtname":"Kanniyakumari","sdtname":"Kalkulam","vilname11":"Veerapuli R.F.","vil_lgd":643136,"dist_lgd":575,"state_lgd":33,"gp_code":224604,"gp_name":"Pechiparai","subdt_lgd":5882,"block_name":"THIRUVATTAR","block_lgd":6195,"Remark":null,"ac_no":232,"test":null,"shape_Length":50721.23584832509,"shape_Area":78074638.74673784}},{"arcs":[[-425,-420,425]],"type":"Polygon","properties":{"OBJECTID":394176,"vilnam_soi":"KALAMALAI R.F","stcode11":"33","dtcode11":"629","sdtcode11":"05881","vilcode11":"643100","stname":"TAMIL NADU","dtname":"Kanniyakumari","sdtname":"Vilavancode","vilname11":"Kilamalai R.F.","vil_lgd":643100,"dist_lgd":575,"state_lgd":33,"gp_code":224604,"gp_name":"Pechiparai","subdt_lgd":5881,"block_name":"MELPURAM","block_lgd":6191,"Remark":null,"ac_no":233,"test":null,"shape_Length":60859.88691863592,"shape_Area":84221551.46839264}},{"arcs":[[-20,-50,-6,426,-26,-48]],"type":"Polygon","properties":{"OBJECTID":411835,"vilnam_soi":"TAMARAKULAM","stcode11":"33","dtcode11":"629","sdtcode11":"05884","vilcode11":"803938","stname":"TAMIL NADU","dtname":"Kanniyakumari","sdtname":"Agastheeswaram","vilname11":"Thenthamaraikulam (TP)","vil_lgd":803938,"dist_lgd":575,"state_lgd":33,"gp_code":0,"gp_name":"","subdt_lgd":5884,"block_name":"AGASTISWARAM","block_lgd":6188,"Remark":null,"ac_no":229,"test":null,"shape_Length":21233.701513647702,"shape_Area":12676711.232046383}},{"arcs":[[-186,-229,-299,-312,-396,427]],"type":"Polygon","properties":{"OBJECTID":411836,"vilnam_soi":"ARALVAYMOLI","stcode11":"33","dtcode11":"629","sdtcode11":"05883","vilcode11":"803923","stname":"TAMIL NADU","dtname":"Kanniyakumari","sdtname":"Thovala","vilname11":"Aralvaimozhi (TP)","vil_lgd":803923,"dist_lgd":575,"state_lgd":33,"gp_code":0,"gp_name":"","subdt_lgd":5883,"block_name":"THOVALA","block_lgd":6196,"Remark":null,"ac_no":229,"test":null,"shape_Length":29595.06412445524,"shape_Area":21203299.30739278}}]}}}