{"type":"Topology","arcs":[[[75791,58418],[-126,12373]],[[75665,70791],[1521,-406]],[[77186,70385],[1520,-202]],[[78706,70183],[-2915,-11765]],[[78706,70183],[-1520,202]],[[77186,70385],[-1521,406]],[[75665,70791],[-2155,1826]],[[73510,72617],[-1267,1420]],[[72243,74037],[4182,1622]],[[76425,75659],[2281,-5476]],[[75284,75456],[2155,4666]],[[77439,80122],[1648,9330]],[[79087,89452],[1394,1217]],[[80481,90669],[5196,7911]],[[85677,98580],[-8238,-19878]],[[77439,78702],[-2155,-3246]],[[75284,75456],[-2915,5477]],[[72369,80933],[3676,19067]],[[76045,100000],[4436,-9331]],[[79087,89452],[-1648,-9330]],[[77439,80122],[-2155,-4666]],[[75284,65112],[-2788,-1217]],[[72496,63895],[-253,405]],[[72243,64300],[-888,2434]],[[71355,66734],[-1267,5477]],[[70088,72211],[2155,1826]],[[73510,72617],[2155,-1826]],[[75665,70791],[-381,-5679]],[[75284,65112],[507,-6694]],[[75791,58418],[-887,-406]],[[74904,58012],[-507,2231]],[[74397,60243],[-1901,3652]],[[72369,80933],[-2281,-8519]],[[70088,72414],[-4309,9330]],[[65779,81744],[-6971,13185]],[[58808,94929],[17237,5071]],[[76045,100000],[-3676,-19067]],[[70088,72414],[-2662,-6085]],[[67426,66329],[-3422,811]],[[64004,67140],[888,8114]],[[64892,75254],[5196,-2840]],[[62864,58215],[-1014,1217]],[[61850,59432],[127,1217]],[[61977,60649],[2027,6491]],[[64004,67140],[3422,-811]],[[67426,66329],[-887,-2232]],[[66539,64097],[-3675,-5882]],[[60202,51724],[-17617,32252]],[[42585,83976],[16223,10953]],[[58808,94929],[6971,-13185]],[[65779,81744],[-887,-6490]],[[64892,75254],[-888,-8114]],[[64004,67140],[-2027,-6491]],[[61850,59432],[1014,-1217]],[[62864,58215],[-2662,-6491]],[[36502,56389],[15842,7708],[7351,-12576],[-19645,-8316],[-3548,13184]],[[93662,64706],[6337,-23732],[-1267,-26370],[-12548,-12373]],[[86184,2231],[-10519,52536],[17997,9939]],[[76425,75659],[1014,3043]],[[77439,78702],[8238,19878]],[[85677,98580],[11153,-4057],[-3168,-29817]],[[93662,64706],[-12294,-3651],[634,9330],[-5577,5274]],[[69074,55578],[1014,16633]],[[71355,66734],[888,-2434]],[[72243,64300],[2154,-4057]],[[74904,58012],[-5830,-2434]],[[69074,55578],[-8872,-3854]],[[60202,51724],[6337,12373]],[[66539,64097],[2535,-8519]],[[42585,83976],[-6083,-27587]],[[36502,56389],[-18124,-4462]],[[18378,51927],[3041,18864]],[[21419,70791],[3169,9128]],[[24588,79919],[1014,1014]],[[25602,80933],[16983,3043]],[[38403,27789],[13181,-6897],[5830,-6490],[4309,-812],[-15209,-13590],[-8111,27789]],[[51711,21095],[23700,14808],[-507,-13793],[-8745,-5680],[-4563,-2840],[-4309,1014],[-5576,6491]],[[38403,27789],[36881,26572],[0,-18256],[-23827,-15010],[-13054,6694]],[[15843,95740],[-5704,-49695],[-10139,4462],[4309,40162],[11534,5071]],[[19265,42394],[-8999,3651],[5577,49695]],[[15843,95740],[9759,-14807]],[[24588,79919],[-3169,-9128]],[[21419,70791],[-3041,-18864]],[[18378,51927],[887,-9533]]],"transform":{"scale":[7.890078900789449e-7,4.930000000000235e-7],"translate":[81.4674,21.2217]},"objects":{"wards":{"type":"GeometryCollection","geometries":[{"arcs":[[0,1,2,3]],"type":"Polygon","properties":{"objectid":42994,"statename":"Chhattisgarh","statecode":"22","districtname":null,"districtcode":"409","ulbname":"Kumhari","ulbcode":"802005","wardname":"Bajrang Chowk Ward","wardcode":"1","id":null,"status":"APPROVED","misglobalid":null,"approved_by":null,"createdate":1638523978000,"updateddate":1643102341000,"globalid":null,"gisglobalid":"56bdeec3-cdfc-40f0-bd53-e59b026424a7","remark":"Approve","st_area(shape)":0.000024981162991761262,"st_perimeter(shape)":0.020331307016039624}},{"arcs":[[4,5,6,7,8,9]],"type":"Polygon","properties":{"objectid":42996,"statename":"Chhattisgarh","statecode":"22","districtname":null,"districtcode":"409","ulbname":"Kumhari","ulbcode":"802005","wardname":"Durga Chowk Ward","wardcode":"2","id":null,"status":"APPROVED","misglobalid":null,"approved_by":null,"createdate":1638524181000,"updateddate":1643102361000,"globalid":null,"gisglobalid":"4b6aca09-c504-4414-9abf-1474b1873784","remark":"Approve","st_area(shape)":0.000009718715903349103,"st_perimeter(shape)":0.01599303097100091}},{"arcs":[[10,11,12,13,14,15]],"type":"Polygon","properties":{"objectid":38202,"statename":"Chhattisgarh","statecode":"22","districtname":null,"districtcode":"409","ulbname":"Kumhari","ulbcode":"802005","wardname":"Ganesh Chowk Ward","wardcode":"3","id":null,"status":"APPROVED","misglobalid":null,"approved_by":null,"createdate":1638524376000,"updateddate":1643102374000,"globalid":null,"gisglobalid":"fa7d59c2-e1fd-4fbe-aa01-c3e4810f62be","remark":"Approve","st_area(shape)":0.00003132285426339113,"st_perimeter(shape)":0.0310237172431435}},{"arcs":[[16,17,18,-13,19,20]],"type":"Polygon","properties":{"objectid":42999,"statename":"Chhattisgarh","statecode":"22","districtname":null,"districtcode":"409","ulbname":"Kumhari","ulbcode":"802005","wardname":"Mahamaya Para Ward","wardcode":"4","id":null,"status":"APPROVED","misglobalid":null,"approved_by":null,"createdate":1638524582000,"updateddate":1643102387000,"globalid":null,"gisglobalid":"4f4e06ee-a1cf-463a-87f5-992635d9ce47","remark":"Approve","st_area(shape)":0.00004405193709393027,"st_perimeter(shape)":0.03514632369161768}},{"arcs":[[21,22,23,24,25,-8,26,27]],"type":"Polygon","properties":{"objectid":43512,"statename":"Chhattisgarh","statecode":"22","districtname":null,"districtcode":"409","ulbname":"Kumhari","ulbcode":"802005","wardname":"Bazar Chowk Ward","wardcode":"5","id":null,"status":"APPROVED","misglobalid":null,"approved_by":null,"createdate":1638525101000,"updateddate":1643102399000,"globalid":null,"gisglobalid":"f7df91eb-1171-44cd-8412-d60f7b2c2a78","remark":"Approve","st_area(shape)":0.000014070840217105258,"st_perimeter(shape)":0.015929844311475025}},{"arcs":[[-22,28,29,30,31]],"type":"Polygon","properties":{"objectid":40729,"statename":"Chhattisgarh","statecode":"22","districtname":null,"districtcode":"409","ulbname":"Kumhari","ulbcode":"802005","wardname":"Gurughashi Das Ward","wardcode":"6","id":null,"status":"APPROVED","misglobalid":null,"approved_by":null,"createdate":1638525344000,"updateddate":1643102427000,"globalid":null,"gisglobalid":"b312acd0-f16e-425f-9376-d2f1d3e65fcb","remark":"Approve","st_area(shape)":0.000004511806118462489,"st_perimeter(shape)":0.00986876939243233}},{"arcs":[[32,33,34,35,36]],"type":"Polygon","properties":{"objectid":38636,"statename":"Chhattisgarh","statecode":"22","districtname":null,"districtcode":"409","ulbname":"Kumhari","ulbcode":"802005","wardname":"Ramnagar Ward","wardcode":"7","id":null,"status":"APPROVED","misglobalid":null,"approved_by":null,"createdate":1638525518000,"updateddate":1643102437000,"globalid":null,"gisglobalid":"ff38ea6e-2efe-4bb2-b514-4f39f85de293","remark":"Approve","st_area(shape)":0.0001036042643906216,"st_perimeter(shape)":0.045012996102410385}},{"arcs":[[37,38,39,40]],"type":"Polygon","properties":{"objectid":43005,"statename":"Chhattisgarh","statecode":"22","districtname":null,"districtcode":"409","ulbname":"Kumhari","ulbcode":"802005","wardname":"Shanti Nagar Ward","wardcode":"8","id":null,"status":"APPROVED","misglobalid":null,"approved_by":null,"createdate":1638525721000,"updateddate":1643102447000,"globalid":null,"gisglobalid":"d3f1c85f-a13c-495c-948d-c225989a7201","remark":"Approve","st_area(shape)":0.00001297783048951521,"st_perimeter(shape)":0.015013222071502805}},{"arcs":[[41,42,43,44,45,46]],"type":"Polygon","properties":{"objectid":38205,"statename":"Chhattisgarh","statecode":"22","districtname":null,"districtcode":"409","ulbname":"Kumhari","ulbcode":"802005","wardname":"Shiv Nagar Ward","wardcode":"9","id":null,"status":"APPROVED","misglobalid":null,"approved_by":null,"createdate":1638525974000,"updateddate":1643102458000,"globalid":null,"gisglobalid":"ab2d0bbf-5e99-4beb-84bf-c7ec74060436","remark":"Approve","st_area(shape)":0.000007620441249061899,"st_perimeter(shape)":0.014137027923541752}},{"arcs":[[47,48,49,50,51,52,-43,53,54]],"type":"Polygon","properties":{"objectid":38207,"statename":"Chhattisgarh","statecode":"22","districtname":null,"districtcode":"409","ulbname":"Kumhari","ulbcode":"802005","wardname":"Shankar Nagar Ward","wardcode":"10","id":null,"status":"APPROVED","misglobalid":null,"approved_by":null,"createdate":1638526146000,"updateddate":1643102475000,"globalid":null,"gisglobalid":"ae4582a3-eb27-41d9-9761-121b6cc4418d","remark":"Approve","st_area(shape)":0.00021923736295199667,"st_perimeter(shape)":0.06234670548882003}},{"arcs":[[55]],"type":"Polygon","properties":{"objectid":40732,"statename":"Chhattisgarh","statecode":"22","districtname":null,"districtcode":"409","ulbname":"Kumhari","ulbcode":"802005","wardname":"Kailash Nagar Ward","wardcode":"11","id":null,"status":"APPROVED","misglobalid":null,"approved_by":null,"createdate":1638526322000,"updateddate":1643102485000,"globalid":null,"gisglobalid":"b0a86e63-d770-4cb2-b1c8-49c6329d0efe","remark":"Approve","st_area(shape)":0.00011725428940045317,"st_perimeter(shape)":0.04831467262762909}},{"arcs":[[56,57]],"type":"Polygon","properties":{"objectid":43023,"statename":"Chhattisgarh","statecode":"22","districtname":null,"districtcode":"409","ulbname":"Kumhari","ulbcode":"802005","wardname":"Danganiya Talab Ward","wardcode":"12","id":null,"status":"APPROVED","misglobalid":null,"approved_by":null,"createdate":1638526612000,"updateddate":1643102496000,"globalid":null,"gisglobalid":"58c9d8a9-54d4-428c-b169-9e4dc663b4e8","remark":"Approve","st_area(shape)":0.0004307300324721478,"st_perimeter(shape)":0.13099903645313576}},{"arcs":[[58,59,60,61]],"type":"Polygon","properties":{"objectid":43031,"statename":"Chhattisgarh","statecode":"22","districtname":null,"districtcode":"409","ulbname":"Kumhari","ulbcode":"802005","wardname":"Sanjay Nagar Ward","wardcode":"13","id":null,"status":"APPROVED","misglobalid":null,"approved_by":null,"createdate":1638527269000,"updateddate":1643102506000,"globalid":null,"gisglobalid":"e97ed1f9-284c-474a-a5d3-52022823ef1d","remark":"Approve","st_area(shape)":0.00021900987912480414,"st_perimeter(shape)":0.07157907949555964}},{"arcs":[[62,-25,63,64,-31,65]],"type":"Polygon","properties":{"objectid":38208,"statename":"Chhattisgarh","statecode":"22","districtname":null,"districtcode":"409","ulbname":"Kumhari","ulbcode":"802005","wardname":"Kanji House Ward","wardcode":"14","id":null,"status":"APPROVED","misglobalid":null,"approved_by":null,"createdate":1638527445000,"updateddate":1643102541000,"globalid":null,"gisglobalid":"a5a58877-1009-4f5a-83dd-4a3d73ac92f8","remark":"Approve","st_area(shape)":0.000027122395053445007,"st_perimeter(shape)":0.022433135137330043}},{"arcs":[[66,67,68]],"type":"Polygon","properties":{"objectid":38639,"statename":"Chhattisgarh","statecode":"22","districtname":null,"districtcode":"409","ulbname":"Kumhari","ulbcode":"802005","wardname":"Houshing Ward","wardcode":"15","id":null,"status":"APPROVED","misglobalid":null,"approved_by":null,"createdate":1638528291000,"updateddate":1643102551000,"globalid":null,"gisglobalid":"4457b757-21f2-4285-ba4c-76edf333d6d2","remark":"Approve","st_area(shape)":0.0000185657526630653,"st_perimeter(shape)":0.01993407111929834}},{"type":null,"properties":{"objectid":43034,"statename":"Chhattisgarh","statecode":"22","districtname":null,"districtcode":"409","ulbname":"Kumhari","ulbcode":"802005","wardname":"Parsada Ward","wardcode":"16","id":null,"status":"APPROVED","misglobalid":null,"approved_by":null,"createdate":1638528494000,"updateddate":1643102560000,"globalid":null,"gisglobalid":"b6f6bdce-f2ee-427d-a3e0-76c434550b64","remark":"Approve","st_area(shape)":0.00011567035080671119,"st_perimeter(shape)":0.05400013782816701}},{"arcs":[[69,70,71,72,73,74]],"type":"Polygon","properties":{"objectid":43035,"statename":"Chhattisgarh","statecode":"22","districtname":null,"districtcode":"409","ulbname":"Kumhari","ulbcode":"802005","wardname":"Rampur (Chorha) Ward","wardcode":"17","id":null,"status":"APPROVED","misglobalid":null,"approved_by":null,"createdate":1638528835000,"updateddate":1643102569000,"globalid":null,"gisglobalid":"e56b16dc-af5e-4d74-9567-5537582e4211","remark":"Approve","st_area(shape)":0.000271032210084228,"st_perimeter(shape)":0.07592018229731107}},{"type":null,"properties":{"objectid":43036,"statename":"Chhattisgarh","statecode":"22","districtname":null,"districtcode":"409","ulbname":"Kumhari","ulbcode":"802005","wardname":"Talab Par Ward","wardcode":"18","id":null,"status":"APPROVED","misglobalid":null,"approved_by":null,"createdate":1638529021000,"updateddate":1643102580000,"globalid":null,"gisglobalid":"ac09257e-729e-4050-a271-4affd574e2e1","remark":"Approve","st_area(shape)":0.00007070171747238016,"st_perimeter(shape)":0.039712633481554}},{"type":null,"properties":{"objectid":43038,"statename":"Chhattisgarh","statecode":"22","districtname":null,"districtcode":"409","ulbname":"Kumhari","ulbcode":"802005","wardname":"Aadarsh Nagar Ward","wardcode":"19","id":null,"status":"APPROVED","misglobalid":null,"approved_by":null,"createdate":1638529186000,"updateddate":1643102594000,"globalid":null,"gisglobalid":"7422ff49-2a66-4d3b-8eb4-fa47ca4af5af","remark":"Approve","st_area(shape)":0.00017127178657209058,"st_perimeter(shape)":0.08156616580200649}},{"arcs":[[75]],"type":"Polygon","properties":{"objectid":43047,"statename":"Chhattisgarh","statecode":"22","districtname":null,"districtcode":"409","ulbname":"Kumhari","ulbcode":"802005","wardname":"Bharat Nagar Ward","wardcode":"20","id":null,"status":"APPROVED","misglobalid":null,"approved_by":null,"createdate":1638529523000,"updateddate":1643102605000,"globalid":null,"gisglobalid":"d5b69a4f-bbe1-4bfa-a32c-5eab8082dd73","remark":"Approve","st_area(shape)":0.0002960664563883932,"st_perimeter(shape)":0.09373360436486922}},{"arcs":[[76]],"type":"Polygon","properties":{"objectid":43544,"statename":"Chhattisgarh","statecode":"22","districtname":null,"districtcode":"409","ulbname":"Kumhari","ulbcode":"802005","wardname":"Kabir Nagar Ward","wardcode":"21","id":null,"status":"APPROVED","misglobalid":null,"approved_by":null,"createdate":1638529704000,"updateddate":1643102619000,"globalid":null,"gisglobalid":"1a8b9ab6-03d1-4f73-8add-0b9ac0d45950","remark":"Approve","st_area(shape)":0.00010234080060763458,"st_perimeter(shape)":0.047088391944926554}},{"arcs":[[77]],"type":"Polygon","properties":{"objectid":43050,"statename":"Chhattisgarh","statecode":"22","districtname":null,"districtcode":"409","ulbname":"Kumhari","ulbcode":"802005","wardname":"Satya Nagar Ward","wardcode":"22","id":null,"status":"APPROVED","misglobalid":null,"approved_by":null,"createdate":1638529906000,"updateddate":1643102633000,"globalid":null,"gisglobalid":"16ccf872-4345-4455-828c-275d15e42e9e","remark":"Approve","st_area(shape)":0.0002034448554377504,"st_perimeter(shape)":0.07215621991951056}},{"arcs":[[78]],"type":"Polygon","properties":{"objectid":38641,"statename":"Chhattisgarh","statecode":"22","districtname":null,"districtcode":"409","ulbname":"Kumhari","ulbcode":"802005","wardname":"Indira Nagar Ward","wardcode":"23","id":null,"status":"APPROVED","misglobalid":null,"approved_by":null,"createdate":1638530174000,"updateddate":1643102646000,"globalid":null,"gisglobalid":"4c7f60d2-7405-4d3c-8d37-eaec3766dde5","remark":"Approve","st_area(shape)":0.00024097661983733942,"st_perimeter(shape)":0.07879956979875594}},{"arcs":[[79,80,-74,81,82,83]],"type":"Polygon","properties":{"objectid":43558,"statename":"Chhattisgarh","statecode":"22","districtname":null,"districtcode":"409","ulbname":"Kumhari","ulbcode":"802005","wardname":"Mahatma Gandhi Ward","wardcode":"24","id":null,"status":"APPROVED","misglobalid":null,"approved_by":null,"createdate":1638530407000,"updateddate":1643102663000,"globalid":null,"gisglobalid":"05bae0de-e008-4fdb-bb12-b1aef96bc36c","remark":"Approve","st_area(shape)":0.00018802655802100903,"st_perimeter(shape)":0.07219543924966973}}]}}}