{"type":"Topology","arcs":[[[23272,73129],[-727,680]],[[22545,73809],[364,1700],[-2546,3402],[728,3061],[9454,4762],[4000,2721],[4000,7483],[1091,3061],[6182,-340],[2545,-5102],[4364,-6123],[727,-2040],[-4364,-1701],[3273,-1360],[2546,1020],[3636,0]],[[58545,84353],[-364,-2041]],[[58181,82312],[0,-1701]],[[58181,80611],[-727,-340]],[[57454,80271],[0,-680]],[[57454,79591],[-364,-1360]],[[57090,78231],[-1091,-1701]],[[55999,76530],[-363,-680]],[[55636,75850],[-727,-341]],[[54909,75509],[-364,0]],[[54545,75509],[-1091,-340]],[[53454,75169],[-1818,-680]],[[51636,74489],[-727,0]],[[50909,74489],[-2182,0]],[[48727,74489],[-1818,0]],[[46909,74489],[-3273,0]],[[43636,74489],[-2182,0]],[[41454,74489],[-1818,340]],[[39636,74829],[-2545,-340]],[[37091,74489],[-1091,-340]],[[36000,74149],[-1455,-680]],[[34545,73469],[-5454,-1361]],[[29091,72108],[-2182,340]],[[26909,72448],[-1818,340]],[[25091,72788],[-1819,341]],[[58545,84353],[10909,4081],[7273,-3741],[0,-340],[-1819,-3061],[-727,-3061]],[[74181,78231],[364,-2381]],[[74545,75850],[0,-2721],[-364,-1361],[-364,-4082],[-363,-1700],[-2182,-681],[-2182,-340]],[[69090,64965],[-2182,0]],[[66908,64965],[-2909,1021]],[[63999,65986],[-363,2041]],[[63636,68027],[0,1360]],[[63636,69387],[0,1361]],[[63636,70748],[0,1360]],[[63636,72108],[0,1021]],[[63636,73129],[-364,680]],[[63272,73809],[-727,680]],[[62545,74489],[-364,340]],[[62181,74829],[-727,680]],[[61454,75509],[-1818,2381]],[[59636,77890],[-727,1021]],[[58909,78911],[-728,680]],[[58181,79591],[0,680]],[[58181,80271],[0,2041]],[[54909,75509],[727,341]],[[55636,75850],[363,680]],[[55999,76530],[1091,1701]],[[57090,78231],[364,1360]],[[57454,80271],[727,340]],[[58181,80611],[0,-340]],[[58181,80271],[0,-680]],[[58181,79591],[728,-680]],[[58909,78911],[727,-1021]],[[59636,77890],[1818,-2381]],[[61454,75509],[727,-680]],[[62545,74489],[727,-680]],[[63272,73809],[364,-680]],[[63636,73129],[0,-1021]],[[63636,72108],[0,-1360]],[[63636,70748],[0,-1361]],[[63636,69387],[0,-1360]],[[63636,68027],[363,-2041]],[[63999,65986],[1455,-3061]],[[65454,62925],[364,0]],[[65454,62925],[-1091,0]],[[64363,62925],[-1091,0]],[[63272,62925],[-1091,0]],[[62181,62925],[-1091,340]],[[61090,63265],[-1091,-340]],[[59999,62925],[-1090,0]],[[58909,62925],[-728,0]],[[58181,62925],[0,340]],[[58181,63265],[-363,680]],[[57818,63945],[-728,1360]],[[57090,65305],[-1091,1701]],[[55999,67006],[0,340]],[[55999,67346],[728,340]],[[56727,67686],[-364,1021]],[[56363,68707],[-364,680]],[[55999,69387],[0,680]],[[55999,70067],[-363,1361]],[[55636,71428],[-364,1020]],[[55272,72448],[0,1021]],[[55272,73469],[-363,1020]],[[54909,74489],[0,1020]],[[44363,74489],[2546,0]],[[46909,74489],[1818,0]],[[48727,74489],[2182,0]],[[51636,74489],[1818,680]],[[53454,75169],[1091,340]],[[54909,74489],[363,-1020]],[[55272,72448],[364,-1020]],[[55999,70067],[0,-680]],[[55999,69387],[364,-680]],[[56363,68707],[364,-1021]],[[55999,67346],[-3636,-340]],[[52363,67006],[-2182,-340]],[[50181,66666],[-2909,0]],[[47272,66666],[-2545,340]],[[44727,67006],[-364,340]],[[44363,67346],[0,681]],[[44363,68027],[0,340]],[[44363,68367],[0,1020]],[[44363,69387],[0,680]],[[44363,70067],[0,681]],[[44363,70748],[0,1020]],[[44363,71768],[0,2721]],[[37091,74149],[0,340]],[[37091,74489],[2545,340]],[[39636,74829],[1818,-340]],[[41454,74489],[2182,0]],[[43636,74489],[727,0]],[[44363,74489],[0,-2721]],[[44363,71768],[0,-1020]],[[44363,70067],[0,-680]],[[44363,69387],[0,-1020]],[[44363,68027],[0,-681]],[[44363,67346],[364,-340]],[[47272,66666],[2909,0]],[[50181,66666],[2182,340]],[[52363,67006],[0,-1020]],[[52363,65986],[364,-1361]],[[52727,64625],[0,-1020]],[[52727,63605],[363,-1021]],[[53090,62584],[-4727,-1020]],[[48363,61564],[727,-1361]],[[49090,60203],[-2181,-1020]],[[46909,59183],[-728,680]],[[46181,59863],[-727,681]],[[45454,60544],[-1454,2040]],[[44000,62584],[-2910,3402]],[[41090,65986],[-1454,1360]],[[39636,67346],[-727,1361]],[[38909,68707],[-728,1700]],[[38181,70407],[-727,2381]],[[37454,72788],[-363,681]],[[37091,73469],[0,680]],[[18182,69047],[-728,680]],[[17454,69727],[5091,4082]],[[23272,73129],[1819,-341]],[[25091,72788],[1818,-340]],[[26909,72448],[2182,-340]],[[29091,72108],[5454,1361]],[[34545,73469],[1455,680]],[[37091,74149],[0,-680]],[[37091,73469],[363,-681]],[[37454,72788],[727,-2381]],[[38181,70407],[728,-1700]],[[38909,68707],[727,-1361]],[[39636,67346],[1454,-1360]],[[41090,65986],[2910,-3402]],[[44000,62584],[1454,-2040]],[[45454,60544],[727,-681]],[[46909,59183],[0,-340]],[[46909,58843],[-2182,0]],[[44727,58843],[-1091,0]],[[43636,58843],[-1818,0]],[[41818,58843],[-728,-340]],[[41090,58503],[-727,-340]],[[40363,58163],[-1091,-340]],[[39272,57823],[-727,-341]],[[38545,57482],[-1818,-340]],[[36727,57142],[-727,340]],[[36000,57482],[-2182,341]],[[33818,57823],[-1091,0]],[[32727,57823],[-364,0]],[[32363,57823],[-1091,-341]],[[31272,57482],[-1090,0]],[[30182,57482],[-1455,0]],[[28727,57482],[-364,-340]],[[28363,57142],[-363,0]],[[28000,57142],[-1091,-340]],[[26909,56802],[-727,0]],[[26182,56802],[-364,1361]],[[25818,58163],[-364,1360]],[[25454,59523],[-363,2381]],[[25091,61904],[-364,680]],[[24727,62584],[-727,1361]],[[24000,63945],[-1091,1701]],[[22909,65646],[-1091,340]],[[21818,65986],[-1091,680]],[[20727,66666],[-727,680]],[[20000,67346],[-1091,1021]],[[18909,68367],[-727,680]],[[8364,66666],[9090,3061]],[[18182,69047],[727,-680]],[[18909,68367],[1091,-1021]],[[20000,67346],[727,-680]],[[20727,66666],[1091,-680]],[[22909,65646],[1091,-1701]],[[24000,63945],[727,-1361]],[[24727,62584],[364,-680]],[[25454,59523],[364,-1360]],[[25818,58163],[364,-1361]],[[26182,56802],[0,-340]],[[26182,56462],[-364,-1020]],[[25818,55442],[-364,-681]],[[25454,54761],[-727,-340]],[[24727,54421],[-2909,0]],[[21818,54421],[-727,0]],[[21091,54421],[-1091,-680]],[[20000,53741],[-727,-340]],[[19273,53401],[-2182,-680]],[[17091,52721],[-364,0]],[[16727,52721],[-1818,3401]],[[14909,56122],[-364,1020]],[[14545,57142],[-6181,9524]],[[9454,42176],[-727,-340]],[[8727,41836],[-5454,3742],[-3273,4762],[1091,5442],[7273,10884]],[[8364,66666],[6181,-9524]],[[14909,56122],[1818,-3401]],[[17091,52721],[2182,680]],[[20000,53741],[1091,680]],[[21091,54421],[727,0]],[[21818,54421],[2909,0]],[[25454,54761],[364,-340]],[[25818,54421],[364,-4421]],[[26182,50000],[363,-1021]],[[26545,48979],[1455,-1701]],[[28000,47278],[1091,-1360]],[[29091,45918],[-1091,-340]],[[28000,45578],[-1455,-340]],[[26545,45238],[-1091,-340]],[[25454,44898],[-4363,-681]],[[21091,44217],[-1455,0]],[[19636,44217],[-727,-340]],[[18909,43877],[-2546,0]],[[16363,43877],[-2545,0]],[[13818,43877],[-4364,-1701]],[[28000,47278],[-1455,1701]],[[26545,48979],[-363,1021]],[[26182,50000],[-364,4421]],[[25818,55442],[364,1020]],[[26909,56802],[1091,340]],[[28363,57142],[364,340]],[[28727,57482],[1455,0]],[[30182,57482],[727,0]],[[30909,57482],[1091,-7142]],[[32000,50340],[1091,-3062]],[[33091,47278],[363,-340]],[[33454,46938],[364,-680]],[[33818,46258],[2182,-2381]],[[36000,43877],[727,-340]],[[36727,43537],[-2909,-1361]],[[33818,42176],[-1091,-340]],[[32727,41836],[-1091,0],[-1091,2041],[-1454,2381],[-1091,1020]],[[32727,50340],[-727,0]],[[32000,50340],[-1091,7142]],[[30909,57482],[363,0]],[[31272,57482],[1091,341]],[[32727,57823],[1091,0]],[[33818,57823],[2182,-341]],[[36000,57482],[727,-340]],[[38545,57482],[727,341]],[[39272,57823],[1091,340]],[[40363,58163],[727,340]],[[41090,58503],[728,340]],[[43636,58843],[1091,0]],[[44727,58843],[2182,0]],[[46909,59183],[727,-1020]],[[47636,58163],[364,-1021]],[[48000,57142],[0,-1020]],[[48000,56122],[-364,-680]],[[47636,55442],[-1455,-3742]],[[46181,51700],[-3636,-1360]],[[42545,50340],[-1455,340]],[[41090,50680],[-1090,340]],[[40000,51020],[-1819,0]],[[38181,51020],[-3272,-680]],[[34909,50340],[-2182,0]],[[48363,58843],[-1091,0]],[[47272,58843],[-363,340]],[[46909,59183],[2181,1020]],[[49090,60203],[-727,1361]],[[48363,61564],[4727,1020]],[[52727,63605],[0,1020]],[[52727,64625],[-364,1361]],[[52363,67006],[3636,340]],[[55999,67006],[1091,-1701]],[[57090,65305],[728,-1360]],[[57818,63945],[363,-680]],[[58181,62925],[364,-1021]],[[58545,61904],[0,-1020]],[[58545,60884],[-1455,0]],[[57090,60884],[-3636,0]],[[53454,60884],[-1818,-681]],[[51636,60203],[-2182,-680]],[[49454,59523],[-1091,-680]],[[58545,61904],[-364,1021]],[[58181,62925],[728,0]],[[58909,62925],[1090,0]],[[59999,62925],[1091,340]],[[62181,62925],[1091,0]],[[63272,62925],[1091,0]],[[64363,62925],[1455,0]],[[65818,62925],[1090,-6803]],[[66908,56122],[-1090,-680]],[[65818,55442],[363,-1361]],[[66181,54081],[364,-2041]],[[66545,52040],[-727,-340]],[[65818,51700],[-1819,0]],[[63999,51700],[-1091,340]],[[62908,52040],[-1090,340],[-1091,341]],[[60727,52721],[-1455,5442]],[[59272,58163],[-363,1360]],[[58909,59523],[-364,2381]],[[95635,56462],[-1090,-340]],[[94545,56122],[-3637,-680]],[[90908,55442],[-3273,0]],[[87635,55442],[-3636,1360]],[[83999,56802],[-2545,1021]],[[81454,57823],[-4727,1360]],[[76727,59183],[-728,680]],[[75999,59863],[-2545,-340]],[[73454,59523],[-364,4422]],[[73090,63945],[0,2041]],[[73090,65986],[727,2381],[728,7483]],[[74545,75850],[-364,2381]],[[74181,78231],[727,2721],[1455,3401],[4363,-1701],[1819,-1020],[1454,-340],[9818,-5442],[-1091,-6123],[2546,-3061],[0,-5442],[1091,-2041],[-728,-2721]],[[87635,55442],[3273,0]],[[90908,55442],[3637,680]],[[94545,56122],[1090,340]],[[95635,56462],[-1090,-2041],[-4000,-3741],[363,-6463]],[[90908,44217],[-6182,-680]],[[84726,43537],[-2181,0]],[[82545,43537],[-2546,680]],[[79999,44217],[-6909,-2721]],[[73090,41496],[-727,340]],[[72363,41836],[-364,1021]],[[71999,42857],[364,3401]],[[72363,46258],[0,340]],[[72363,46598],[-364,340]],[[71999,46938],[0,681]],[[71999,47619],[1455,2721]],[[73454,50340],[-727,2721]],[[72727,53061],[-1819,1020]],[[70908,54081],[-4000,2041]],[[66908,56122],[-1090,6803]],[[65818,62925],[-1819,3061]],[[66908,64965],[2182,0]],[[69090,64965],[4000,1021]],[[73090,63945],[364,-4422]],[[73454,59523],[2545,340]],[[76727,59183],[4727,-1360]],[[81454,57823],[2545,-1021]],[[83999,56802],[3636,-1360]],[[62908,45238],[-727,340]],[[62181,45578],[-363,2381]],[[61818,47959],[-364,1700],[-364,3062]],[[61090,52721],[1818,-681]],[[62908,52040],[1091,-340]],[[63999,51700],[1819,0]],[[66545,52040],[-364,2041]],[[66181,54081],[-363,1361]],[[66908,56122],[4000,-2041]],[[70908,54081],[1819,-1020]],[[73454,50340],[-1455,-2721]],[[71999,47619],[0,-681]],[[71999,46938],[364,-340]],[[72363,46258],[-364,-3401]],[[72363,41836],[-364,-340]],[[71999,41496],[-727,-1700]],[[71272,39796],[-1455,1360]],[[69817,41156],[-1090,680]],[[68727,41836],[-1091,681]],[[67636,42517],[-728,680],[-1090,340]],[[65818,43537],[-2910,1701]],[[47636,58163],[-364,680]],[[47272,58843],[1091,0]],[[49454,59523],[2182,680]],[[51636,60203],[1818,681]],[[53454,60884],[3636,0]],[[57090,60884],[1455,0]],[[58545,60884],[364,-1361]],[[59272,58163],[1455,-5442]],[[60727,52721],[363,0]],[[61090,52721],[0,-681],[0,-680],[728,-3401]],[[61818,47959],[363,-2041]],[[62181,45918],[-1454,680],[-1091,680],[-1091,681],[-2182,1700]],[[56363,49659],[-1454,1361]],[[54909,51020],[-7273,7143]],[[43636,43537],[-1091,680]],[[42545,44217],[-364,1361]],[[42181,45578],[-363,1700]],[[41818,47278],[-364,1021]],[[41454,48299],[-364,2381]],[[41090,50680],[1455,-340]],[[46181,51700],[1455,3742]],[[48000,56122],[0,1020]],[[47636,58163],[7273,-7143]],[[54909,51020],[1454,-1361]],[[56363,49659],[364,-680]],[[56727,48979],[-1091,-340]],[[55636,48639],[-4000,-1361]],[[51636,47278],[-727,-1020]],[[50909,46258],[-5091,-2381]],[[45818,43877],[-2182,-340]],[[36000,43877],[-2182,2381]],[[33818,46258],[-364,680]],[[33454,46938],[-363,340]],[[33091,47278],[-364,3062]],[[32727,50340],[2182,0]],[[34909,50340],[3272,680]],[[40000,51020],[1090,-340]],[[41090,50680],[364,-2381]],[[41454,48299],[364,-1021]],[[41818,47278],[363,-1700]],[[42181,45578],[364,-1361]],[[43636,43537],[2545,340]],[[46181,43877],[728,0]],[[46909,43877],[363,-1020]],[[47272,42857],[728,-2721]],[[48000,40136],[-1091,-340]],[[46909,39796],[-2182,-1021]],[[44727,38775],[-1818,1021]],[[42909,39796],[-1091,680]],[[41818,40476],[-5091,3061]],[[32727,37755],[0,340]],[[32727,38095],[0,3741]],[[32727,41836],[1091,340]],[[36727,43537],[5091,-3061]],[[41818,40476],[-364,-680]],[[41454,39796],[0,-1021]],[[41454,38775],[-727,-680]],[[40727,38095],[-1455,-340]],[[39272,37755],[-363,0]],[[38909,37755],[-2546,0]],[[36363,37755],[-2545,0]],[[33818,37755],[-364,0]],[[33454,37755],[-727,0]],[[16727,36394],[-8000,5442]],[[9454,42176],[4364,1701]],[[13818,43877],[2545,0]],[[16363,43877],[2546,0]],[[18909,43877],[727,340]],[[19636,44217],[1455,0]],[[21091,44217],[4363,681]],[[25454,44898],[1091,340]],[[26545,45238],[1455,340]],[[28000,45578],[1091,340]],[[29091,45918],[363,0],[728,-1361],[727,-680],[1454,-2041],[364,-3741]],[[32727,37755],[1091,0]],[[33818,37755],[-364,-681]],[[33454,37074],[-363,0]],[[33091,37074],[-4364,-340]],[[28727,36734],[-727,0]],[[28000,36734],[-1091,0]],[[26909,36734],[-1818,0]],[[25091,36734],[-1455,1021]],[[23636,37755],[-364,680]],[[23272,38435],[-1090,-340]],[[22182,38095],[-2182,0]],[[20000,38095],[-727,-340]],[[19273,37755],[-728,-681]],[[18545,37074],[-363,-340]],[[18182,36734],[-728,-340]],[[17454,36394],[-727,0]],[[19636,25510],[-363,7143],[-2546,3741]],[[17454,36394],[728,340]],[[18545,37074],[728,681]],[[20000,38095],[2182,0]],[[22182,38095],[1090,340]],[[23272,38435],[364,-680]],[[25091,36734],[1818,0]],[[26909,36734],[1091,0]],[[28727,36734],[4364,340]],[[33454,37074],[0,681]],[[33818,37755],[2545,0]],[[36363,37755],[2546,0]],[[39272,37755],[1455,340]],[[40727,38095],[727,340]],[[41454,38435],[1091,0]],[[42545,38435],[364,-340]],[[42909,38095],[0,-680]],[[42909,37415],[363,-341]],[[43272,37074],[-2545,-680]],[[40727,36394],[-1818,0]],[[38909,36394],[-3273,-340]],[[35636,36054],[-1818,-680]],[[33818,35374],[0,-680]],[[33818,34694],[-727,-341]],[[33091,34353],[-2182,0]],[[30909,34353],[-727,-680]],[[30182,33673],[-364,-2721]],[[29818,30952],[0,-3061]],[[29818,27891],[-3273,-2381]],[[26545,25510],[-6909,0]],[[35636,28231],[-1091,-340]],[[34545,27891],[0,1701]],[[34545,29592],[-727,4421]],[[33818,34013],[0,681]],[[33818,35374],[1818,680]],[[35636,36054],[3273,340]],[[38909,36394],[1818,0]],[[40727,36394],[2545,680]],[[43272,37074],[364,-1020]],[[43636,36054],[364,-1360]],[[44000,34694],[363,-681]],[[44363,34013],[1091,-3061]],[[45454,30952],[727,-1360]],[[46181,29592],[-727,0]],[[45454,29592],[-2182,-341]],[[43272,29251],[-1454,-340]],[[41818,28911],[-2182,-340]],[[39636,28571],[-727,340]],[[38909,28911],[-1091,-340]],[[37818,28571],[-727,0]],[[37091,28571],[-1455,-340]],[[46909,26190],[0,680]],[[46909,26870],[-364,1361]],[[46545,28231],[-727,1361]],[[45818,29592],[-364,1360]],[[45454,30952],[-1091,3061]],[[44363,34013],[-363,681]],[[44000,34694],[-364,1360]],[[43636,36054],[-364,1020]],[[43272,37074],[-363,341]],[[42909,37415],[0,680]],[[42545,38435],[-1091,0]],[[41454,38435],[0,340]],[[41454,38775],[0,1021]],[[41818,40476],[1091,-680]],[[42909,39796],[1818,-1021]],[[44727,38775],[2182,1021]],[[46909,39796],[727,340]],[[47636,40136],[364,-1021],[363,-340],[364,-680],[363,-340],[728,-1021]],[[49818,36734],[363,-680]],[[50181,36054],[364,-1360]],[[50545,34694],[1454,-4422],[0,-1021],[364,-1360],[727,-1701]],[[53090,26190],[-3636,0]],[[49454,26190],[-1818,0]],[[47636,26190],[-727,0]],[[51999,29592],[-1454,5102]],[[50181,36054],[-363,680]],[[49818,36734],[-728,681],[-363,1020],[-364,680],[-727,1021]],[[47636,40136],[364,0]],[[47272,42857],[-363,1020]],[[46181,43877],[-363,0]],[[46181,43877],[4728,2381]],[[50909,46258],[727,1020]],[[51636,47278],[4000,1361]],[[56727,48979],[2182,-1360],[1090,-341],[728,-340],[727,-680],[364,-340],[363,0]],[[62181,45918],[0,-340]],[[62181,45578],[727,-340]],[[62908,45238],[2910,-1701]],[[65818,43537],[727,-340]],[[66545,43197],[-364,-1021]],[[66181,42176],[-727,-1700]],[[65454,40476],[-1455,-4422]],[[63999,36054],[-9454,-5782],[-1091,-340],[-727,-340],[-728,0]],[[65454,30612],[-1455,5102]],[[63999,35714],[0,340]],[[63999,36054],[1455,4422]],[[65454,40476],[727,1700]],[[66181,42176],[364,1021]],[[66545,43197],[1091,-680]],[[67636,42517],[1091,-681]],[[68727,41836],[1090,-680]],[[69817,41156],[1455,-1360]],[[71272,39796],[3273,-3062]],[[74545,36734],[1454,-1020]],[[75999,35714],[-2182,-2381]],[[73817,33333],[-4363,-1701]],[[69454,31632],[-3273,-680],[-727,-340]],[[67999,21088],[-727,0]],[[67272,21088],[-364,1361]],[[66908,22449],[-1454,8163]],[[65454,30612],[4000,1020]],[[69454,31632],[4363,1701]],[[73817,33333],[2182,2381]],[[75999,35714],[4000,-1361]],[[79999,34353],[0,-340]],[[79999,34013],[-727,-1020]],[[79272,32993],[0,-2381]],[[79272,30612],[-364,-4082]],[[78908,26530],[728,-1700]],[[79636,24830],[363,-2721]],[[79999,22109],[-5091,-681]],[[74908,21428],[-5454,-340]],[[69454,21088],[-1455,0]],[[59999,2041],[-4000,12925]],[[55999,14966],[-727,3061]],[[55272,18027],[-727,2381]],[[54545,20408],[-364,1701]],[[54181,22109],[-363,1360]],[[53818,23469],[-364,2041]],[[53454,25510],[-1455,4082]],[[51999,29592],[364,0],[727,0],[728,340],[1091,680],[3272,2041],[5818,3401]],[[63999,35714],[1091,-3401],[728,-3402],[727,-2721],[363,-3741]],[[66908,22449],[364,-1361]],[[67272,21088],[0,-680]],[[67272,20408],[727,-4082]],[[67999,16326],[364,-1360]],[[68363,14966],[2182,-6123],[1091,-2040]],[[71636,6803],[-8364,-2381]],[[63272,4422],[-1091,-1021]],[[62181,3401],[-727,-340]],[[61454,3061],[-727,-1020]],[[60727,2041],[-728,0]],[[19636,25510],[6909,0]],[[29818,27891],[0,3061]],[[29818,30952],[364,2721]],[[30909,34353],[2182,0]],[[33818,34694],[0,-681]],[[33818,34013],[727,-4421]],[[34545,29592],[0,-1701]],[[34545,27891],[1091,340]],[[35636,28231],[1455,340]],[[37091,28571],[727,0]],[[37818,28571],[1091,340]],[[38909,28911],[727,-340]],[[39636,28571],[2182,340]],[[41818,28911],[1454,340]],[[45454,29592],[364,0]],[[45818,29592],[363,0]],[[46181,29592],[364,-1361]],[[46545,28231],[364,-1361]],[[46909,26870],[0,-340]],[[46909,26530],[-2909,-1360]],[[44000,25170],[-3637,-2041]],[[40363,23129],[-10545,-5442]],[[29818,17687],[-3636,-1701]],[[26182,15986],[-5091,-340],[-1455,4762],[0,5102]],[[34181,10884],[-1818,-680]],[[32363,10204],[-6545,3061],[364,2721]],[[29818,17687],[10545,5442]],[[40363,23129],[3637,2041]],[[44000,25170],[2909,1700]],[[46909,26530],[0,-340]],[[47636,26190],[1818,0]],[[49454,26190],[3636,0]],[[53090,26190],[364,-680]],[[53454,25510],[364,-2041]],[[54181,22109],[364,-1701]],[[55272,18027],[727,-3061]],[[55999,14966],[-727,-680]],[[55272,14286],[-2545,-681],[-12000,-1360]],[[40727,12245],[-4000,-340]],[[36727,11905],[-727,-340]],[[36000,11565],[-1819,-681]],[[32363,10204],[1818,680]],[[34181,10884],[1819,681]],[[36727,11905],[4000,340]],[[40727,12245],[12000,1020],[2545,1021]],[[55272,14286],[727,680]],[[55999,14966],[4000,-12925]],[[59999,2041],[0,-1021]],[[59999,1020],[-4363,-680],[-8000,-340],[-9455,5782],[-5818,4422]],[[59999,1020],[0,1021]],[[59999,2041],[728,0]],[[61454,3061],[727,340]],[[63272,4422],[8364,2381]],[[71636,6803],[1818,-4762],[-5818,-1021],[-7637,0]],[[68363,14966],[-364,1360]],[[67999,16326],[-727,4082]],[[67272,20408],[0,680]],[[67999,21088],[1455,0]],[[69454,21088],[5454,340]],[[74908,21428],[5091,681]],[[79999,22109],[1091,680]],[[81090,22789],[1091,-680]],[[82181,22109],[1091,-3742]],[[83272,18367],[0,-2041]],[[83272,16326],[-3636,-1700],[-5091,-1361],[1818,-4422],[-5455,-340],[-2545,6463]],[[83272,18367],[-1091,3742]],[[81090,22789],[-1454,2041]],[[78908,26530],[364,4082]],[[79272,30612],[0,2381]],[[79272,32993],[727,1020]],[[79999,34353],[-4000,1361]],[[74545,36734],[-3273,3062]],[[71999,41496],[364,340]],[[73090,41496],[6909,2721]],[[79999,44217],[2546,-680]],[[82545,43537],[2181,0]],[[90908,44217],[1455,-7483],[2182,-3741],[5454,-7143],[-2545,-1701],[-1091,-3061],[-9091,-1020],[-2182,-3401],[-1818,-341]]],"transform":{"scale":[2.750027500275344e-7,2.9400294002940786e-7],"translate":[76.9213,11.2892]},"objects":{"wards":{"type":"GeometryCollection","geometries":[{"arcs":[[0,1,2,3,4,5,6,7,8,9,10,11,12,13,14,15,16,17,18,19,20,21,22,23,24,25]],"type":"Polygon","properties":{"objectid":205993,"statename":"Tamil Nadu","statecode":"33","districtname":"Coimbatore","districtcode":"632","ulbname":"Mettupalayam","ulbcode":"803961","wardname":"Ward 1","wardcode":"1","id":null,"status":"APPROVED","misglobalid":null,"approved_by":null,"createdate":1646817821000,"updateddate":1646886905000,"globalid":null,"gisglobalid":"l5Qs45cB-o6ln-Pod6-QsdQ-65nsc6BB6oQQ","remark":"","st_area(shape)":0.000047860737875936444,"st_perimeter(shape)":0.034237993537480936}},{"arcs":[[26,27,28,29,30,31,32,33,34,35,36,37,38,39,40,41,42,43,44,-3]],"type":"Polygon","properties":{"objectid":203563,"statename":"Tamil Nadu","statecode":"33","districtname":"Coimbatore","districtcode":"632","ulbname":"Mettupalayam","ulbcode":"803961","wardname":"Ward 2","wardcode":"2","id":null,"status":"APPROVED","misglobalid":null,"approved_by":null,"createdate":1646803930000,"updateddate":1646886988000,"globalid":null,"gisglobalid":"4nKK6Psa-QQ6P-P655-a5nm-BQlPQsK6ndmn","remark":"","st_area(shape)":0.000023279109079092908,"st_perimeter(shape)":0.019899842033078607}},{"arcs":[[45,46,47,48,-6,49,50,51,52,53,54,55,-39,56,57,58,59,60,61,62,63,64,-65,65,66,67,68,69,70,71,72,73,74,75,76,77,78,79,80,81,82,83,84,85]],"type":"Polygon","properties":{"objectid":212351,"statename":"Tamil Nadu","statecode":"33","districtname":"Coimbatore","districtcode":"632","ulbname":"Mettupalayam","ulbcode":"803961","wardname":"Ward 3","wardcode":"3","id":null,"status":"APPROVED","misglobalid":null,"approved_by":null,"createdate":1646817668000,"updateddate":1646887006000,"globalid":null,"gisglobalid":"Q4Pl5sdo-54dd-P5Bs-R66l-4QQ44cQKmm64","remark":"","st_area(shape)":0.000008914687763466404,"st_perimeter(shape)":0.013912246296661823}},{"arcs":[[86,87,88,-14,89,90,-11,-86,91,-84,92,-82,93,94,95,-78,96,97,98,99,100,101,102,103,104,105,106,107]],"type":"Polygon","properties":{"objectid":212352,"statename":"Tamil Nadu","statecode":"33","districtname":"Coimbatore","districtcode":"632","ulbname":"Mettupalayam","ulbcode":"803961","wardname":"Ward 4","wardcode":"4","id":null,"status":"APPROVED","misglobalid":null,"approved_by":null,"createdate":1646817729000,"updateddate":1646887030000,"globalid":null,"gisglobalid":"Pd5R5som-6aPn-Plc5-s6ml-4s6ascRBcna4","remark":"","st_area(shape)":0.000007212565762981271,"st_perimeter(shape)":0.011007948408787088}},{"arcs":[[108,109,110,111,112,113,114,-106,115,116,-103,117,118,-100,119,120,121,122,123,124,125,126,127,128,129,130,131,132,133,134,135,136,137]],"type":"Polygon","properties":{"objectid":212353,"statename":"Tamil Nadu","statecode":"33","districtname":"Coimbatore","districtcode":"632","ulbname":"Mettupalayam","ulbcode":"803961","wardname":"Ward 5","wardcode":"5","id":null,"status":"APPROVED","misglobalid":null,"approved_by":null,"createdate":1646817775000,"updateddate":1646887040000,"globalid":null,"gisglobalid":"BPdl456m-55B4-PPnl-adBR-nnmQQKsdcaKR","remark":"","st_area(shape)":0.000008418533564805373,"st_perimeter(shape)":0.01539613977516883}},{"arcs":[[138,139,-1,140,141,142,143,144,-21,-109,145,146,147,148,149,150,151,152,153,-129,154,155,156,157,158,159,160,161,162,163,164,165,166,167,168,169,170,171,172,173,174,175,176,177,178,179,180,181,182,183,184]],"type":"Polygon","properties":{"objectid":212747,"statename":"Tamil Nadu","statecode":"33","districtname":"Coimbatore","districtcode":"632","ulbname":"Mettupalayam","ulbcode":"803961","wardname":"Ward 6","wardcode":"6","id":null,"status":"APPROVED","misglobalid":null,"approved_by":null,"createdate":1646819078000,"updateddate":1730986531000,"globalid":null,"gisglobalid":"cR5RK6dK-adKa-PaK6-QPa4-R54P6o6ndsBs","remark":"Storm Water","st_area(shape)":0.000023534787010369508,"st_perimeter(shape)":0.02203331587822179}},{"arcs":[[185,-139,186,187,188,189,-181,190,191,192,-177,193,194,195,196,197,198,199,200,201,202,203,204,205,206,207]],"type":"Polygon","properties":{"objectid":210758,"statename":"Tamil Nadu","statecode":"33","districtname":"Coimbatore","districtcode":"632","ulbname":"Mettupalayam","ulbcode":"803961","wardname":"Ward 7","wardcode":"7","id":null,"status":"APPROVED","misglobalid":null,"approved_by":null,"createdate":1646820764000,"updateddate":1730986318000,"globalid":null,"gisglobalid":"66dcacmQ-KKd4-Pdo5-QnmP-PlaR66oa5nQQ","remark":"","st_area(shape)":0.000014307866824963562,"st_perimeter(shape)":0.015411046628289203}},{"arcs":[[208,209,210,-207,211,-205,212,-203,213,214,215,-199,216,217,218,219,220,221,222,223,224,225,226,227,228,229]],"type":"Polygon","properties":{"objectid":212366,"statename":"Tamil Nadu","statecode":"33","districtname":"Coimbatore","districtcode":"632","ulbname":"Mettupalayam","ulbcode":"803961","wardname":"Ward 8","wardcode":"8","id":null,"status":"APPROVED","misglobalid":null,"approved_by":null,"createdate":1646820805000,"updateddate":1646887073000,"globalid":null,"gisglobalid":"5n4a5sPQ-54Rl-PmKc-sd5P-KcmQaandR44B","remark":"","st_area(shape)":0.0000291431573980381,"st_perimeter(shape)":0.024897052558427855}},{"arcs":[[230,231,232,-217,-198,233,-196,-174,234,-172,235,236,237,238,239,240,241,242,243,244,245,246]],"type":"Polygon","properties":{"objectid":210759,"statename":"Tamil Nadu","statecode":"33","districtname":"Coimbatore","districtcode":"632","ulbname":"Mettupalayam","ulbcode":"803961","wardname":"Ward 9","wardcode":"9","id":null,"status":"APPROVED","misglobalid":null,"approved_by":null,"createdate":1646820841000,"updateddate":1646887084000,"globalid":null,"gisglobalid":"s64dRnld-55nd-PRB6-s4Qc-lKdndBKRlB5s","remark":"","st_area(shape)":0.000006661554363453784,"st_perimeter(shape)":0.012421876517018498}},{"arcs":[[247,248,249,250,-167,251,252,253,-163,254,255,256,257,-158,258,259,-155,260,261,262,263,264,265,266,267,268,269,270]],"type":"Polygon","properties":{"objectid":212367,"statename":"Tamil Nadu","statecode":"33","districtname":"Coimbatore","districtcode":"632","ulbname":"Mettupalayam","ulbcode":"803961","wardname":"Ward 10","wardcode":"10","id":null,"status":"APPROVED","misglobalid":null,"approved_by":null,"createdate":1646820872000,"updateddate":1646887094000,"globalid":null,"gisglobalid":"R4B6l46m-6K65-P5KR-so54-6B4B4B6Rl56B","remark":"","st_area(shape)":0.00000943144249511417,"st_perimeter(shape)":0.013144786431104581}},{"arcs":[[271,272,273,274,275,-125,276,277,-122,278,-77,279,280,281,-73,282,283,284,285,286,287,288]],"type":"Polygon","properties":{"objectid":213971,"statename":"Tamil Nadu","statecode":"33","districtname":"Coimbatore","districtcode":"632","ulbname":"Mettupalayam","ulbcode":"803961","wardname":"Ward 11","wardcode":"11","id":null,"status":"APPROVED","misglobalid":null,"approved_by":null,"createdate":1646832937000,"updateddate":1646887104000,"globalid":null,"gisglobalid":"adQPcc5P-loPR-PRdo-QKQm-K6nBda6KnnQ4","remark":"","st_area(shape)":0.000003312810200596488,"st_perimeter(shape)":0.010147077421639136}},{"arcs":[[289,290,291,292,-69,293,294,295,296,297,298,299,300,301,302,303,304,305,306]],"type":"Polygon","properties":{"objectid":208348,"statename":"Tamil Nadu","statecode":"33","districtname":"Coimbatore","districtcode":"632","ulbname":"Mettupalayam","ulbcode":"803961","wardname":"Ward 12","wardcode":"12","id":null,"status":"APPROVED","misglobalid":null,"approved_by":null,"createdate":1646807718000,"updateddate":1646887121000,"globalid":null,"gisglobalid":"dRcsKlKc-oKno-P5PQ-Rdd4-K6dmRncBdQcm","remark":"","st_area(shape)":0.000005827550252721017,"st_perimeter(shape)":0.010275079712246216}},{"arcs":[[307,308,309,310,311,312,313,314,315,316,317,318,319]],"type":"Polygon","properties":{"objectid":206353,"statename":"Tamil Nadu","statecode":"33","districtname":"Coimbatore","districtcode":"632","ulbname":"Mettupalayam","ulbcode":"803961","wardname":"Ward 13","wardcode":"13","id":null,"status":"APPROVED","misglobalid":null,"approved_by":null,"createdate":1646805219000,"updateddate":1646887131000,"globalid":null,"gisglobalid":"lomm4lRR-nKoR-P6oR-adRQ-K4aQddBdmnol","remark":"","st_area(shape)":0.00003911727776288537,"st_perimeter(shape)":0.02539784345840296}},{"arcs":[[320,321,322,323,324,325,326,327,328,329,330,331,332,333,334,335,336,337,338,339,-31,340,341,-317,342,343,-314,344,345,346]],"type":"Polygon","properties":{"objectid":207545,"statename":"Tamil Nadu","statecode":"33","districtname":"Coimbatore","districtcode":"632","ulbname":"Mettupalayam","ulbcode":"803961","wardname":"Ward 14","wardcode":"14","id":null,"status":"APPROVED","misglobalid":null,"approved_by":null,"createdate":1646806981000,"updateddate":1646887141000,"globalid":null,"gisglobalid":"dQnPdoPs-mKRn-PB6Q-alKa-sa5sdlmnncB5","remark":"","st_area(shape)":0.000027725765881419235,"st_perimeter(shape)":0.028832858607344802}},{"arcs":[[347,348,349,350,351,352,-301,353,354,-298,355,356,-336,357,358,359,-332,360,-330,361,362,363,364,365,366,367]],"type":"Polygon","properties":{"objectid":213972,"statename":"Tamil Nadu","statecode":"33","districtname":"Coimbatore","districtcode":"632","ulbname":"Mettupalayam","ulbcode":"803961","wardname":"Ward 15","wardcode":"15","id":null,"status":"APPROVED","misglobalid":null,"approved_by":null,"createdate":1646833842000,"updateddate":1646887150000,"globalid":null,"gisglobalid":"l55dmscl-aRBo-PoBl-RQ5c-nnRBl4QoRlKd","remark":"","st_area(shape)":0.000009494356458869621,"st_perimeter(shape)":0.014017731836674069}},{"arcs":[[368,369,-289,370,371,372,373,374,-306,375,376,377,378,379,380,381]],"type":"Polygon","properties":{"objectid":213973,"statename":"Tamil Nadu","statecode":"33","districtname":"Coimbatore","districtcode":"632","ulbname":"Mettupalayam","ulbcode":"803961","wardname":"Ward 16","wardcode":"16","id":null,"status":"APPROVED","misglobalid":null,"approved_by":null,"createdate":1646833882000,"updateddate":1646887173000,"globalid":null,"gisglobalid":"BQPsddKB-daoK-PPB4-Romn-6ln6a4Rcnlcm","remark":"","st_area(shape)":0.00000871027091893653,"st_perimeter(shape)":0.013412168707787957}},{"arcs":[[382,383,384,385,386,387,-266,388,-264,389,-262,390,391,392,393,394,395,396,397]],"type":"Polygon","properties":{"objectid":213974,"statename":"Tamil Nadu","statecode":"33","districtname":"Coimbatore","districtcode":"632","ulbname":"Mettupalayam","ulbcode":"803961","wardname":"Ward 17","wardcode":"17","id":null,"status":"APPROVED","misglobalid":null,"approved_by":null,"createdate":1646839388000,"updateddate":1646887183000,"globalid":null,"gisglobalid":"slnc5ans-maQB-Pnc4-aKaa-cBK56osmnPn4","remark":"","st_area(shape)":0.000008641700493834105,"st_perimeter(shape)":0.01366510397546648}},{"arcs":[[-244,398,399,400,401,402,403,-269,404,405,406,407,408,-383,409,410,411,412,413,414,415,416,417]],"type":"Polygon","properties":{"objectid":214372,"statename":"Tamil Nadu","statecode":"33","districtname":"Coimbatore","districtcode":"632","ulbname":"Mettupalayam","ulbcode":"803961","wardname":"Ward 18","wardcode":"18","id":null,"status":"APPROVED","misglobalid":null,"approved_by":null,"createdate":1646839451000,"updateddate":1646887192000,"globalid":null,"gisglobalid":"KK6oP656-aPP5-PR5m-aa6o-P46nn6oas4KP","remark":"","st_area(shape)":0.000007336775069207284,"st_perimeter(shape)":0.012987446131328944}},{"arcs":[[418,419,420,-245,421,422,423,424,425,426,427,428,429,430]],"type":"Polygon","properties":{"objectid":210776,"statename":"Tamil Nadu","statecode":"33","districtname":"Coimbatore","districtcode":"632","ulbname":"Mettupalayam","ulbcode":"803961","wardname":"Ward 19","wardcode":"19","id":null,"status":"APPROVED","misglobalid":null,"approved_by":null,"createdate":1646843047000,"updateddate":1646887203000,"globalid":null,"gisglobalid":"RmnBQ4l5-a4ol-P4Pn-QcK5-6KmmsBmQBQ55","remark":"","st_area(shape)":0.000003240203753106987,"st_perimeter(shape)":0.0072281311750305504}},{"arcs":[[431,-209,432,433,434,435,436,437,438,439,440,441,-419,442,443,444,445,446,447,448,449,450,451,452,453,454,455,456,457]],"type":"Polygon","properties":{"objectid":210777,"statename":"Tamil Nadu","statecode":"33","districtname":"Coimbatore","districtcode":"632","ulbname":"Mettupalayam","ulbcode":"803961","wardname":"Ward 20","wardcode":"20","id":null,"status":"APPROVED","misglobalid":null,"approved_by":null,"createdate":1646843104000,"updateddate":1646887214000,"globalid":null,"gisglobalid":"nBoldQdd-dKld-Psoa-Qsdl-mBoRRdKBBmlR","remark":"","st_area(shape)":0.000012000477019556437,"st_perimeter(shape)":0.016886332947518772}},{"arcs":[[458,-458,459,-456,460,-454,461,462,463,-450,464,465,-447,466,-445,467,-430,468,469,-427,470,471,472,473,474,475,476,477,478,479,480,481,482,483,484,485,486,487]],"type":"Polygon","properties":{"objectid":212769,"statename":"Tamil Nadu","statecode":"33","districtname":"Coimbatore","districtcode":"632","ulbname":"Mettupalayam","ulbcode":"803961","wardname":"Ward 21","wardcode":"21","id":null,"status":"APPROVED","misglobalid":null,"approved_by":null,"createdate":1646843140000,"updateddate":1646887222000,"globalid":null,"gisglobalid":"45546mPQ-lPPB-PKl5-aB4Q-Pc66Q4dPddml","remark":"","st_area(shape)":0.000012137459204430126,"st_perimeter(shape)":0.020461786132992522}},{"arcs":[[488,489,490,491,-481,492,493,494,495,496,497,498,499,500,501,502,503,504,505,506,507,508]],"type":"Polygon","properties":{"objectid":210778,"statename":"Tamil Nadu","statecode":"33","districtname":"Coimbatore","districtcode":"632","ulbname":"Mettupalayam","ulbcode":"803961","wardname":"Ward 22","wardcode":"22","id":null,"status":"APPROVED","misglobalid":null,"approved_by":null,"createdate":1646843174000,"updateddate":1646887231000,"globalid":null,"gisglobalid":"KKRcBB5n-nc4d-PKm6-QmKs-BaQlon5aod6n","remark":"","st_area(shape)":0.000006396542971513585,"st_perimeter(shape)":0.010368617337284197}},{"arcs":[[509,510,511,512,513,514,515,516,517,518,-474,519,520,521,-423,522,523,524,525,526,527,528,529,530,531,532]],"type":"Polygon","properties":{"objectid":212770,"statename":"Tamil Nadu","statecode":"33","districtname":"Coimbatore","districtcode":"632","ulbname":"Mettupalayam","ulbcode":"803961","wardname":"Ward 23","wardcode":"23","id":null,"status":"APPROVED","misglobalid":null,"approved_by":null,"createdate":1646843211000,"updateddate":1646887240000,"globalid":null,"gisglobalid":"44nnaQ56-4RBo-PPmK-RBBn-BQdcmd4QalRo","remark":"","st_area(shape)":0.000006757314348709462,"st_perimeter(shape)":0.012690676606274912}},{"arcs":[[533,-529,534,535,536,-413,537,-411,538,-539,539,540,541,-394,542,543,544,545,546,547,548,549,550]],"type":"Polygon","properties":{"objectid":210779,"statename":"Tamil Nadu","statecode":"33","districtname":"Coimbatore","districtcode":"632","ulbname":"Mettupalayam","ulbcode":"803961","wardname":"Ward 24","wardcode":"24","id":null,"status":"APPROVED","misglobalid":null,"approved_by":null,"createdate":1646843241000,"updateddate":1646887251000,"globalid":null,"gisglobalid":"aRQQodQn-4dl5-PPRa-QlaP-lncRK465ns46","remark":"","st_area(shape)":0.00001869690837707096,"st_perimeter(shape)":0.017535731807106394}},{"arcs":[[551,552,553,554,555,556,557,558,559,560,561,562,563,564]],"type":"Polygon","properties":{"objectid":212771,"statename":"Tamil Nadu","statecode":"33","districtname":"Coimbatore","districtcode":"632","ulbname":"Mettupalayam","ulbcode":"803961","wardname":"Ward 25","wardcode":"25","id":null,"status":"APPROVED","misglobalid":null,"approved_by":null,"createdate":1646843271000,"updateddate":1646887265000,"globalid":null,"gisglobalid":"mKocllso-c455-PBaR-QnPd-lKB4RBRsBacm","remark":"","st_area(shape)":0.000007004909742680651,"st_perimeter(shape)":0.010600220601678745}},{"arcs":[[565,566,567,568,569,570,571,572,573,574,575,576,577,578,579,580]],"type":"Polygon","properties":{"objectid":210780,"statename":"Tamil Nadu","statecode":"33","districtname":"Coimbatore","districtcode":"632","ulbname":"Mettupalayam","ulbcode":"803961","wardname":"Ward 26","wardcode":"26","id":null,"status":"APPROVED","misglobalid":null,"approved_by":null,"createdate":1646843303000,"updateddate":1646887273000,"globalid":null,"gisglobalid":"Qn56Q666-Bmon-P5Bd-sc6P-56RK565ls6B4","remark":"","st_area(shape)":0.000012498513050383222,"st_perimeter(shape)":0.014628722376250436}},{"arcs":[[581,582,583,584,585,586,587,588,-553,589,590,591,592,593,594,595,596,597,598,599]],"type":"Polygon","properties":{"objectid":212772,"statename":"Tamil Nadu","statecode":"33","districtname":"Coimbatore","districtcode":"632","ulbname":"Mettupalayam","ulbcode":"803961","wardname":"Ward 27","wardcode":"27","id":null,"status":"APPROVED","misglobalid":null,"approved_by":null,"createdate":1646843332000,"updateddate":1646887280000,"globalid":null,"gisglobalid":"QRc45alB-Qlo6-P4Rc-QBl6-B56cKa66mKnd","remark":"","st_area(shape)":0.000028975642365353156,"st_perimeter(shape)":0.025154402000558948}},{"arcs":[[600,-487,601,602,-484,603,-482,604,605,606,607,608,609,610,611,612,613,-503,614,615,616,617,618,619,620,621,622,623]],"type":"Polygon","properties":{"objectid":212773,"statename":"Tamil Nadu","statecode":"33","districtname":"Coimbatore","districtcode":"632","ulbname":"Mettupalayam","ulbcode":"803961","wardname":"Ward 28","wardcode":"28","id":null,"status":"APPROVED","misglobalid":null,"approved_by":null,"createdate":1646843370000,"updateddate":1646887290000,"globalid":null,"gisglobalid":"KPKaco4d-d4lK-PRm5-acKP-m4olBcodR4cP","remark":"","st_area(shape)":0.000019063288444396322,"st_perimeter(shape)":0.023014501135652246}},{"arcs":[[624,625,-623,626,627,628,618,629,-533,630,631,632,633,-586,634,-584,635,636,637,638,639,640]],"type":"Polygon","properties":{"objectid":210781,"statename":"Tamil Nadu","statecode":"33","districtname":"Coimbatore","districtcode":"632","ulbname":"Mettupalayam","ulbcode":"803961","wardname":"Ward 29","wardcode":"29","id":null,"status":"APPROVED","misglobalid":null,"approved_by":null,"createdate":1646843398000,"updateddate":1646887299000,"globalid":null,"gisglobalid":"6sml5cKa-6o4R-PsBa-RaPR-cscssdP6sc6Q","remark":"","st_area(shape)":0.000024340481071977875,"st_perimeter(shape)":0.02271223991074354}},{"arcs":[[641,642,-640,643,644,645,646,647,648]],"type":"Polygon","properties":{"objectid":212774,"statename":"Tamil Nadu","statecode":"33","districtname":"Coimbatore","districtcode":"632","ulbname":"Mettupalayam","ulbcode":"803961","wardname":"Ward 30","wardcode":"30","id":null,"status":"APPROVED","misglobalid":null,"approved_by":null,"createdate":1646843425000,"updateddate":1646887310000,"globalid":null,"gisglobalid":"n5snPdKl-Bala-PlKs-R6Pn-d4cmc644sBnm","remark":"","st_area(shape)":0.000020389599738699926,"st_perimeter(shape)":0.019575723284319255}},{"arcs":[[649,650,-599,651,-597,652,653]],"type":"Polygon","properties":{"objectid":210782,"statename":"Tamil Nadu","statecode":"33","districtname":"Coimbatore","districtcode":"632","ulbname":"Mettupalayam","ulbcode":"803961","wardname":"Ward 31","wardcode":"31","id":null,"status":"APPROVED","misglobalid":null,"approved_by":null,"createdate":1646843456000,"updateddate":1646887318000,"globalid":null,"gisglobalid":"6sQdldd6-lB6R-P6Rc-Rmoo-ao5mn46l4KQm","remark":"","st_area(shape)":0.00000384808618892992,"st_perimeter(shape)":0.00932920411854787}},{"arcs":[[654,655,656,-566,657,658,659,660,661,662,663,664]],"type":"Polygon","properties":{"objectid":210783,"statename":"Tamil Nadu","statecode":"33","districtname":"Coimbatore","districtcode":"632","ulbname":"Mettupalayam","ulbcode":"803961","wardname":"Ward 32","wardcode":"32","id":null,"status":"APPROVED","misglobalid":null,"approved_by":null,"createdate":1646843496000,"updateddate":1646887327000,"globalid":null,"gisglobalid":"am44ddcs-onR5-PQla-R6n5-lmPKPcl6Pl65","remark":"","st_area(shape)":0.000011250288517897584,"st_perimeter(shape)":0.015577738706126389}},{"arcs":[[-664,665,-662,666,-577,667,668,669,-573,670,-562,671,-363,672,-329,673,674,675,-325,676]],"type":"Polygon","properties":{"objectid":212775,"statename":"Tamil Nadu","statecode":"33","districtname":"Coimbatore","districtcode":"632","ulbname":"Mettupalayam","ulbcode":"803961","wardname":"Ward 33","wardcode":"33","id":null,"status":"APPROVED","misglobalid":null,"approved_by":null,"createdate":1646843537000,"updateddate":1646887336000,"globalid":null,"gisglobalid":"mmaRs55Q-scBR-PQd5-aRR5-PsnBsKa6dnca","remark":"","st_area(shape)":0.00003398879242108927,"st_perimeter(shape)":0.027472977618940533}}]}}}