{"type": "FeatureCollection", "features": [{"type": "Feature", "geometry": {"type": "Polygon", "coordinates": [[[79.3749, 19.7827], [79.3751, 19.7829], [79.3754, 19.7828], [79.3755, 19.7827], [79.3755, 19.7824], [79.3755, 19.7821], [79.3755, 19.7817], [79.3758, 19.7814], [79.3762, 19.7814], [79.3764, 19.7818], [79.3766, 19.7817], [79.3767, 19.7811], [79.3768, 19.7805], [79.3769, 19.7803], [79.377, 19.7801], [79.377, 19.7799], [79.3766, 19.7796], [79.3764, 19.7793], [79.3764, 19.7789], [79.3766, 19.7784], [79.377, 19.7781], [79.3769, 19.7778], [79.3768, 19.7776], [79.3764, 19.7774], [79.3763, 19.7773], [79.3763, 19.777], [79.3765, 19.7764], [79.3765, 19.7763], [79.3764, 19.7762], [79.3763, 19.7763], [79.3762, 19.7764], [79.3761, 19.7764], [79.3759, 19.7765], [79.3758, 19.7765], [79.3757, 19.7765], [79.3752, 19.7765], [79.3749, 19.7766], [79.3739, 19.7767], [79.373, 19.7767], [79.3726, 19.7767], [79.3723, 19.7768], [79.3718, 19.7771], [79.3717, 19.7774], [79.3715, 19.7775], [79.3712, 19.7775], [79.3706, 19.7776], [79.3693, 19.7778], [79.3687, 19.7777], [79.3687, 19.7778], [79.3686, 19.7779], [79.3691, 19.7785], [79.3695, 19.7784], [79.3697, 19.7783], [79.3698, 19.7784], [79.3691, 19.7788], [79.3692, 19.7796], [79.3687, 19.7796], [79.3686, 19.7795], [79.3683, 19.7795], [79.3679, 19.7796], [79.3678, 19.7797], [79.3677, 19.7798], [79.3674, 19.7799], [79.3672, 19.7801], [79.3668, 19.78], [79.3668, 19.7798], [79.366, 19.7799], [79.3662, 19.7809], [79.3666, 19.7826], [79.3651, 19.7826], [79.3644, 19.7824], [79.3643, 19.7823], [79.3639, 19.7823], [79.3638, 19.7825], [79.3637, 19.7827], [79.3637, 19.7829], [79.3641, 19.783], [79.3643, 19.783], [79.3644, 19.783], [79.3645, 19.7834], [79.3648, 19.784], [79.365, 19.7842], [79.3651, 19.7846], [79.3652, 19.7851], [79.366, 19.785], [79.3661, 19.7852], [79.367, 19.7851], [79.3672, 19.7852], [79.3674, 19.7853], [79.3676, 19.7853], [79.3678, 19.7853], [79.3679, 19.7854], [79.3694, 19.7855], [79.3696, 19.7855], [79.3698, 19.7855], [79.3703, 19.7854], [79.3706, 19.7854], [79.3707, 19.7856], [79.3708, 19.786], [79.3709, 19.7868], [79.3711, 19.7883], [79.3723, 19.7882], [79.3721, 19.7871], [79.3731, 19.787], [79.3729, 19.7858], [79.3726, 19.7858], [79.3726, 19.7853], [79.3734, 19.7852], [79.3737, 19.7852], [79.3743, 19.785], [79.3744, 19.7846], [79.3744, 19.7842], [79.3741, 19.784], [79.3739, 19.7841], [79.3737, 19.784], [79.3734, 19.7839], [79.3734, 19.7838], [79.3736, 19.7836], [79.3736, 19.7834], [79.3741, 19.783], [79.3743, 19.7829], [79.3744, 19.7828], [79.3746, 19.7828], [79.3747, 19.7828], [79.3749, 19.7827]]]}, "properties": {"objectid": 53009, "statename": "Maharashtra", "statecode": "27", "districtname": "Chandrapur", "districtcode": "509", "ulbname": "Rajura", "ulbcode": "802725", "wardname": "Dr. Ambedkar Ward", "wardcode": "1", "id": null, "status": "APPROVED", "misglobalid": null, "approved_by": "ULB Nodal Officer", "createdate": 1640004557000, "updateddate": 1640004920000, "globalid": "BQPKnPB4-dBoB-PKRK-R4l5-nPdlPRPBnmKl", "gisglobalid": "8bc3be17-9d6c-4572-837b-2c982040ba36", "remark": "", "st_area(shape)": 7.984412325915946e-05, "st_perimeter(shape)": 0.05319049090274853}}, {"type": "Feature", "geometry": {"type": "Polygon", "coordinates": [[[79.3624, 19.7835], [79.3623, 19.7836], [79.3624, 19.7836], [79.3624, 19.7837], [79.3624, 19.7839], [79.3625, 19.784], [79.3627, 19.7842], [79.3628, 19.7845], [79.3629, 19.7851], [79.3629, 19.7855], [79.363, 19.7861], [79.363, 19.7862], [79.3632, 19.7868], [79.3633, 19.7874], [79.3636, 19.7876], [79.3645, 19.7875], [79.3645, 19.7877], [79.3646, 19.7879], [79.3649, 19.788], [79.3653, 19.7882], [79.3653, 19.7887], [79.371, 19.7883], [79.3709, 19.7872], [79.3707, 19.7857], [79.3706, 19.7856], [79.3705, 19.7855], [79.3703, 19.7855], [79.3701, 19.7855], [79.3698, 19.7855], [79.3695, 19.7856], [79.3692, 19.7856], [79.3687, 19.7855], [79.3682, 19.7855], [79.3678, 19.7854], [79.3675, 19.7854], [79.3672, 19.7853], [79.367, 19.7851], [79.3665, 19.7852], [79.3661, 19.7852], [79.366, 19.7851], [79.3656, 19.7851], [79.3653, 19.7851], [79.3652, 19.7851], [79.3651, 19.785], [79.3651, 19.7848], [79.365, 19.7846], [79.365, 19.7844], [79.3649, 19.7841], [79.3647, 19.7838], [79.3646, 19.7837], [79.3645, 19.7834], [79.3644, 19.7833], [79.3644, 19.7831], [79.3641, 19.783], [79.3639, 19.783], [79.3637, 19.7829], [79.3636, 19.783], [79.3634, 19.7831], [79.3632, 19.7831], [79.3631, 19.7833], [79.3629, 19.7834], [79.3628, 19.7834], [79.3626, 19.7835], [79.3624, 19.7835]]]}, "properties": {"objectid": 54042, "statename": "Maharashtra", "statecode": "27", "districtname": "Chandrapur", "districtcode": "509", "ulbname": "Rajura", "ulbcode": "802725", "wardname": "Kisan Ward", "wardcode": "2", "id": null, "status": "APPROVED", "misglobalid": null, "approved_by": "ULB Nodal Officer", "createdate": 1640004976000, "updateddate": 1640089302000, "globalid": "6RadBdKa-oRlQ-PKlQ-RBcP-Kc4nPc6PB5cK", "gisglobalid": "3511d212-43b7-440f-8c89-c2f2e37db48e", "remark": "", "st_area(shape)": 2.7191971752776954e-05, "st_perimeter(shape)": 0.025531344179829038}}, {"type": "Feature", "geometry": {"type": "Polygon", "coordinates": [[[79.3643, 19.7822], [79.3643, 19.7823], [79.3645, 19.7824], [79.3648, 19.7825], [79.3649, 19.7825], [79.3652, 19.7826], [79.3654, 19.7826], [79.3657, 19.7826], [79.3659, 19.7826], [79.3662, 19.7826], [79.3664, 19.7826], [79.3662, 19.7816], [79.366, 19.7809], [79.3658, 19.7802], [79.3657, 19.7796], [79.3657, 19.7793], [79.3649, 19.7794], [79.364, 19.7794], [79.3641, 19.7798], [79.3641, 19.7801], [79.3641, 19.7804], [79.3641, 19.7807], [79.3641, 19.781], [79.3641, 19.7813], [79.3642, 19.7816], [79.3642, 19.7818], [79.3643, 19.782], [79.3643, 19.7822]]]}, "properties": {"objectid": 54452, "statename": "Maharashtra", "statecode": "27", "districtname": "Chandrapur", "districtcode": "509", "ulbname": "Rajura", "ulbcode": "802725", "wardname": "Peth Ward", "wardcode": "3", "id": null, "status": "APPROVED", "misglobalid": null, "approved_by": null, "createdate": 1650086554000, "updateddate": 1650086694000, "globalid": "Qcna54od-PBQo-PPo4-Q6Pm-so5csldRRK5d", "gisglobalid": "466d6BBl-KRRl-P4m4-Rcca-sPnclanQ44lo", "remark": "", "st_area(shape)": 6.00307933415252e-06, "st_perimeter(shape)": 0.010029635400880251}}, {"type": "Feature", "geometry": {"type": "Polygon", "coordinates": [[[79.3632, 19.78], [79.3632, 19.7794], [79.3631, 19.7801], [79.3631, 19.7802], [79.3631, 19.7803], [79.3631, 19.7806], [79.363, 19.7809], [79.363, 19.7811], [79.3631, 19.7813], [79.3632, 19.7815], [79.3632, 19.7816], [79.3631, 19.7817], [79.363, 19.7818], [79.3629, 19.7819], [79.3629, 19.782], [79.3629, 19.7821], [79.3629, 19.7822], [79.3628, 19.7824], [79.3624, 19.7823], [79.3622, 19.7823], [79.3622, 19.7825], [79.3622, 19.7827], [79.3622, 19.7828], [79.3623, 19.783], [79.3625, 19.7829], [79.3627, 19.7828], [79.3628, 19.7828], [79.3629, 19.7829], [79.363, 19.783], [79.3631, 19.7832], [79.3632, 19.7831], [79.3635, 19.783], [79.3636, 19.7829], [79.3637, 19.7827], [79.3638, 19.7825], [79.3639, 19.7823], [79.3642, 19.7823], [79.3641, 19.7818], [79.364, 19.7816], [79.364, 19.7813], [79.364, 19.7811], [79.364, 19.7807], [79.364, 19.7802], [79.3639, 19.7797], [79.3639, 19.7794], [79.3637, 19.7794], [79.3635, 19.7794], [79.3633, 19.7794], [79.3632, 19.7794], [79.3632, 19.7796], [79.3632, 19.7798], [79.3632, 19.78]]]}, "properties": {"objectid": 53375, "statename": "Maharashtra", "statecode": "27", "districtname": "Chandrapur", "districtcode": "509", "ulbname": "Rajura", "ulbcode": "802725", "wardname": "Masjid Ward", "wardcode": "4", "id": null, "status": "APPROVED", "misglobalid": null, "approved_by": null, "createdate": 1650086537000, "updateddate": 1650086688000, "globalid": "RsddlPcm-d4od-PoPm-aaca-mR5snlms4BmB", "gisglobalid": "mKcsB4cs-mRQl-PPKa-QPPs-oQRn646Kmdo5", "remark": "", "st_area(shape)": 3.654414981460446e-06, "st_perimeter(shape)": 0.011768773141903662}}, {"type": "Feature", "geometry": {"type": "Polygon", "coordinates": [[[79.3585, 19.7838], [79.3584, 19.784], [79.3584, 19.7843], [79.3588, 19.7842], [79.3599, 19.7841], [79.3611, 19.7844], [79.3614, 19.7844], [79.3615, 19.7849], [79.3616, 19.7852], [79.3617, 19.7853], [79.3623, 19.7853], [79.3618, 19.7865], [79.3621, 19.7868], [79.3621, 19.787], [79.3622, 19.7872], [79.3623, 19.7874], [79.3625, 19.7876], [79.3629, 19.7873], [79.3632, 19.7873], [79.3631, 19.7868], [79.363, 19.7865], [79.3629, 19.7862], [79.3628, 19.7853], [79.3627, 19.7844], [79.3626, 19.7841], [79.3623, 19.7838], [79.3623, 19.7836], [79.3622, 19.7834], [79.3622, 19.783], [79.3621, 19.7826], [79.3621, 19.7822], [79.3621, 19.7821], [79.3617, 19.7821], [79.3615, 19.782], [79.3614, 19.782], [79.3611, 19.7819], [79.3609, 19.7818], [79.3608, 19.7821], [79.3609, 19.7823], [79.361, 19.7827], [79.3599, 19.7828], [79.3599, 19.7825], [79.3598, 19.7822], [79.359, 19.7823], [79.359, 19.7827], [79.3589, 19.783], [79.3588, 19.7833], [79.3586, 19.7836], [79.3585, 19.7838]]]}, "properties": {"objectid": 55289, "statename": "Maharashtra", "statecode": "27", "districtname": "Chandrapur", "districtcode": "509", "ulbname": "Rajura", "ulbcode": "802725", "wardname": "Masjid Ward", "wardcode": "5", "id": null, "status": "APPROVED", "misglobalid": null, "approved_by": null, "createdate": 1650086496000, "updateddate": 1650086640000, "globalid": "RloRlaoQ-n6BK-Pd6c-RnR6-6BlasPa5mdPc", "gisglobalid": "KRmRcKa5-sons-PQo5-a64c-sBcsc5nRKcl6", "remark": "", "st_area(shape)": 1.009325627402853e-05, "st_perimeter(shape)": 0.02017877283118573}}, {"type": "Feature", "geometry": {"type": "Polygon", "coordinates": [[[79.3597, 19.7802], [79.3596, 19.7801], [79.3584, 19.7807], [79.3587, 19.7812], [79.3589, 19.7815], [79.359, 19.7819], [79.3591, 19.7822], [79.3598, 19.7821], [79.3599, 19.7822], [79.36, 19.7827], [79.361, 19.7826], [79.3608, 19.7824], [79.3609, 19.782], [79.3609, 19.7818], [79.361, 19.7817], [79.3612, 19.7818], [79.3615, 19.7819], [79.3616, 19.782], [79.3618, 19.782], [79.362, 19.7821], [79.3622, 19.7821], [79.3622, 19.782], [79.3621, 19.7817], [79.3622, 19.7814], [79.3621, 19.781], [79.3621, 19.7809], [79.3614, 19.7808], [79.3605, 19.7806], [79.3602, 19.7804], [79.3601, 19.7803], [79.3599, 19.7803], [79.3598, 19.7802], [79.3597, 19.7802]]]}, "properties": {"objectid": 53146, "statename": "Maharashtra", "statecode": "27", "districtname": "Chandrapur", "districtcode": "509", "ulbname": "Rajura", "ulbcode": "802725", "wardname": "Masjid Ward", "wardcode": "6", "id": null, "status": "APPROVED", "misglobalid": null, "approved_by": null, "createdate": 1650086477000, "updateddate": 1650086630000, "globalid": "R4cKR6dd-K45c-Ps4Q-sRm5-Pm6Q665sRc4d", "gisglobalid": "Bol6KoBd-n6l5-Pmll-saPK-do6s5a6aQs4d", "remark": "", "st_area(shape)": 5.601289003980177e-06, "st_perimeter(shape)": 0.011407676338233799}}, {"type": "Feature", "geometry": {"type": "Polygon", "coordinates": [[[79.3603, 19.7797], [79.3597, 19.7801], [79.3597, 19.7802], [79.36, 19.7802], [79.3605, 19.7805], [79.3609, 19.7806], [79.3613, 19.7807], [79.3615, 19.7807], [79.3618, 19.7808], [79.3622, 19.7809], [79.3623, 19.7814], [79.3622, 19.7816], [79.3622, 19.7818], [79.3623, 19.782], [79.3623, 19.7822], [79.3627, 19.7823], [79.3629, 19.7821], [79.3628, 19.782], [79.3629, 19.7818], [79.3629, 19.7817], [79.363, 19.7816], [79.3631, 19.7816], [79.3631, 19.7814], [79.3629, 19.7812], [79.3629, 19.7809], [79.363, 19.7802], [79.3631, 19.7801], [79.3631, 19.7797], [79.3632, 19.7794], [79.362, 19.7794], [79.3616, 19.7794], [79.3611, 19.7795], [79.3607, 19.7796], [79.3603, 19.7797]]]}, "properties": {"objectid": 54546, "statename": "Maharashtra", "statecode": "27", "districtname": "Chandrapur", "districtcode": "509", "ulbname": "Rajura", "ulbcode": "802725", "wardname": "Maulana Azad Ward", "wardcode": "7", "id": null, "status": "APPROVED", "misglobalid": null, "approved_by": null, "createdate": 1650086444000, "updateddate": 1650086624000, "globalid": "lBBdQs66-osa6-Pnod-QPRR-Qm6oosRQ4odm", "gisglobalid": "doonadsm-sncP-PoQK-Qml4-nlPRR6lRQKom", "remark": "", "st_area(shape)": 4.689053306732299e-06, "st_perimeter(shape)": 0.01133017323360374}}, {"type": "Feature", "geometry": {"type": "Polygon", "coordinates": [[[79.369, 19.7796], [79.3691, 19.7796], [79.3691, 19.7793], [79.369, 19.779], [79.369, 19.7788], [79.3694, 19.7786], [79.3695, 19.7785], [79.3697, 19.7784], [79.3695, 19.7784], [79.3691, 19.7785], [79.3686, 19.7779], [79.3687, 19.7778], [79.3684, 19.7777], [79.3679, 19.7778], [79.3671, 19.7779], [79.3666, 19.778], [79.3655, 19.7781], [79.366, 19.7799], [79.3668, 19.7798], [79.3669, 19.78], [79.3672, 19.78], [79.3674, 19.7799], [79.3676, 19.7797], [79.3679, 19.7796], [79.3683, 19.7795], [79.3686, 19.7795], [79.3687, 19.7795], [79.3688, 19.7796], [79.369, 19.7796]]]}, "properties": {"objectid": 54928, "statename": "Maharashtra", "statecode": "27", "districtname": "Chandrapur", "districtcode": "509", "ulbname": "Rajura", "ulbcode": "802725", "wardname": "Chuna Bhatti Ward", "wardcode": "8", "id": null, "status": "APPROVED", "misglobalid": null, "approved_by": null, "createdate": 1650086420000, "updateddate": 1650086617000, "globalid": "54oQnBcB-KKB6-PlPn-Q5RR-5Qo4mRKc5mB6", "gisglobalid": "doRKlRBm-d5Qd-Pn6a-RdQs-RKnPl4PlK66s", "remark": "", "st_area(shape)": 6.182700874714974e-06, "st_perimeter(shape)": 0.011706561784133832}}, {"type": "Feature", "geometry": {"type": "Polygon", "coordinates": [[[79.3656, 19.7749], [79.3648, 19.7749], [79.365, 19.7758], [79.3653, 19.7772], [79.3654, 19.7773], [79.3656, 19.778], [79.3663, 19.7779], [79.3667, 19.7779], [79.3679, 19.7777], [79.3684, 19.7776], [79.3687, 19.7777], [79.3692, 19.7778], [79.3697, 19.7777], [79.3712, 19.7775], [79.3714, 19.7774], [79.3716, 19.7773], [79.3717, 19.7771], [79.3724, 19.7767], [79.3748, 19.7765], [79.3758, 19.7765], [79.3757, 19.7762], [79.3759, 19.7747], [79.3757, 19.7732], [79.3759, 19.7725], [79.3759, 19.7723], [79.3749, 19.7723], [79.3738, 19.7724], [79.3729, 19.7724], [79.3727, 19.7738], [79.3724, 19.774], [79.3717, 19.7739], [79.3709, 19.7743], [79.3704, 19.7745], [79.3701, 19.7751], [79.3694, 19.7752], [79.3684, 19.7753], [79.3675, 19.7752], [79.3674, 19.7748], [79.3665, 19.7748], [79.3656, 19.7749]]]}, "properties": {"objectid": 53904, "statename": "Maharashtra", "statecode": "27", "districtname": "Chandrapur", "districtcode": "509", "ulbname": "Rajura", "ulbcode": "802725", "wardname": "Shivaji Nagar Ward", "wardcode": "9", "id": null, "status": "APPROVED", "misglobalid": null, "approved_by": null, "createdate": 1650086374000, "updateddate": 1650086611000, "globalid": "s4oKnBlm-alns-P4om-Rn6n-s6KKs44dnKs4", "gisglobalid": "4saBnPQQ-dsol-PQ5c-Qaon-5a6RoQ6smdnK", "remark": "", "st_area(shape)": 3.443603396100576e-05, "st_perimeter(shape)": 0.03130450969930474}}, {"type": "Feature", "geometry": {"type": "Polygon", "coordinates": [[[79.3633, 19.7769], [79.3628, 19.7771], [79.363, 19.7774], [79.363, 19.7777], [79.3631, 19.778], [79.3632, 19.7782], [79.3632, 19.7783], [79.3631, 19.7784], [79.3631, 19.7786], [79.3632, 19.7793], [79.3637, 19.7792], [79.3641, 19.7792], [79.3648, 19.7792], [79.3651, 19.7792], [79.3656, 19.7792], [79.3652, 19.7773], [79.3652, 19.7772], [79.3649, 19.7761], [79.3646, 19.7762], [79.3644, 19.7763], [79.3642, 19.7764], [79.3638, 19.7767], [79.3633, 19.7769]]]}, "properties": {"objectid": 55295, "statename": "Maharashtra", "statecode": "27", "districtname": "Chandrapur", "districtcode": "509", "ulbname": "Rajura", "ulbcode": "802725", "wardname": "Ramnagar Ward", "wardcode": "10", "id": null, "status": "APPROVED", "misglobalid": null, "approved_by": null, "createdate": 1650086354000, "updateddate": 1650086603000, "globalid": "ml6locRQ-cnma-PQdl-RsQn-Qoso455l4ccm", "gisglobalid": "BP5nnmaQ-BP66-PRdB-QQBK-md45KlKR5BKR", "remark": "", "st_area(shape)": 6.071720197545191e-06, "st_perimeter(shape)": 0.010303521387643686}}, {"type": "Feature", "geometry": {"type": "Polygon", "coordinates": [[[79.3628, 19.7774], [79.3628, 19.7772], [79.3616, 19.7775], [79.3613, 19.7776], [79.3602, 19.7777], [79.359, 19.7779], [79.359, 19.7785], [79.3585, 19.7786], [79.3584, 19.7786], [79.3583, 19.7782], [79.3579, 19.7783], [79.3575, 19.7784], [79.3573, 19.7784], [79.3578, 19.7792], [79.3582, 19.7802], [79.3584, 19.7806], [79.3595, 19.78], [79.3603, 19.7797], [79.3604, 19.7795], [79.3612, 19.7794], [79.3618, 19.7793], [79.3625, 19.7793], [79.3631, 19.7793], [79.363, 19.7786], [79.363, 19.7784], [79.3632, 19.7783], [79.363, 19.7779], [79.363, 19.7777], [79.3628, 19.7774]]]}, "properties": {"objectid": 55305, "statename": "Maharashtra", "statecode": "27", "districtname": "Chandrapur", "districtcode": "509", "ulbname": "Rajura", "ulbcode": "802725", "wardname": "Athawadi Bajar Ward", "wardcode": "11", "id": null, "status": "APPROVED", "misglobalid": null, "approved_by": null, "createdate": 1650086274000, "updateddate": 1650086315000, "globalid": "QcddllRa-laas-Psds-Qa4o-ncKa6KRcmlcm", "gisglobalid": "onPKKa4a-ooQd-PolP-QcRn-nPdoRdl6QmBm", "remark": "", "st_area(shape)": 1.0358477114134211e-05, "st_perimeter(shape)": 0.016222492141693357}}, {"type": "Feature", "geometry": {"type": "Polygon", "coordinates": [[[79.3557, 19.7764], [79.3569, 19.7779], [79.3573, 19.7784], [79.358, 19.7782], [79.3584, 19.7781], [79.3584, 19.7785], [79.3585, 19.7786], [79.3589, 19.7785], [79.3589, 19.7777], [79.3589, 19.7772], [79.3588, 19.7769], [79.3586, 19.7769], [79.3583, 19.7768], [79.3584, 19.7765], [79.3587, 19.7765], [79.3589, 19.7766], [79.3589, 19.7764], [79.3584, 19.7763], [79.3583, 19.7758], [79.3587, 19.7757], [79.3592, 19.7757], [79.3596, 19.7757], [79.3595, 19.7754], [79.3582, 19.7756], [79.3582, 19.7752], [79.3581, 19.7746], [79.358, 19.7742], [79.3578, 19.7741], [79.3575, 19.7739], [79.357, 19.7744], [79.3567, 19.7745], [79.3561, 19.7752], [79.3557, 19.7758], [79.3555, 19.776], [79.3557, 19.7764]]]}, "properties": {"objectid": 55306, "statename": "Maharashtra", "statecode": "27", "districtname": "Chandrapur", "districtcode": "509", "ulbname": "Rajura", "ulbcode": "802725", "wardname": "Somnathpur Ward", "wardcode": "12", "id": null, "status": "APPROVED", "misglobalid": null, "approved_by": null, "createdate": 1650086226000, "updateddate": 1650086309000, "globalid": "46mQKaRl-BPao-Pa4n-aKsd-asdQlK6cs6oQ", "gisglobalid": "BQd6aRcR-RaQc-PmsB-scBl-ln5s6ooocQ6R", "remark": "", "st_area(shape)": 9.5920650221684e-06, "st_perimeter(shape)": 0.016977610669399668}}, {"type": "Feature", "geometry": {"type": "Polygon", "coordinates": [[[79.359, 19.7778], [79.3602, 19.7777], [79.3602, 19.7769], [79.3602, 19.7764], [79.3599, 19.7763], [79.3599, 19.7759], [79.36, 19.7753], [79.3596, 19.7754], [79.3596, 19.7757], [79.3592, 19.7758], [79.3587, 19.7758], [79.3584, 19.7758], [79.3584, 19.776], [79.3584, 19.7763], [79.359, 19.7763], [79.359, 19.7767], [79.3587, 19.7766], [79.3584, 19.7766], [79.3584, 19.7767], [79.3589, 19.7768], [79.3589, 19.7769], [79.359, 19.7778]]]}, "properties": {"objectid": 55307, "statename": "Maharashtra", "statecode": "27", "districtname": "Chandrapur", "districtcode": "509", "ulbname": "Rajura", "ulbcode": "802725", "wardname": "Ambadas Ward", "wardcode": "13", "id": null, "status": "APPROVED", "misglobalid": null, "approved_by": null, "createdate": 1650086189000, "updateddate": 1650086302000, "globalid": "RBKd4ss5-an4Q-PPlB-s5oQ-ocldm5sQc5dm", "gisglobalid": "QRnQQ6lB-s4dP-PKdl-RRQs-QRa4lK5K456R", "remark": "", "st_area(shape)": 2.7505818159866076e-06, "st_perimeter(shape)": 0.00943722854905743}}, {"type": "Feature", "geometry": {"type": "Polygon", "coordinates": [[[79.3602, 19.7774], [79.3602, 19.7777], [79.3612, 19.7776], [79.3615, 19.7774], [79.3614, 19.7767], [79.3613, 19.7764], [79.3612, 19.7764], [79.361, 19.7759], [79.3609, 19.7754], [79.3608, 19.7755], [79.3606, 19.7755], [79.3606, 19.7752], [79.36, 19.7753], [79.36, 19.7757], [79.36, 19.776], [79.36, 19.7763], [79.3603, 19.7763], [79.3603, 19.7769], [79.3602, 19.7774]]]}, "properties": {"objectid": 55308, "statename": "Maharashtra", "statecode": "27", "districtname": "Chandrapur", "districtcode": "509", "ulbname": "Rajura", "ulbcode": "802725", "wardname": "Mata Mandir Ward", "wardcode": "14", "id": null, "status": "APPROVED", "misglobalid": null, "approved_by": null, "createdate": 1650086081000, "updateddate": 1650086128000, "globalid": "5mRBaPas-al6K-P5a4-QRmc-BoQKnKldnacm", "gisglobalid": "QaRRPoKn-mmaK-Pao4-s54a-cPdcQKlsP464", "remark": "", "st_area(shape)": 2.4479890044031754e-06, "st_perimeter(shape)": 0.007354918864777885}}, {"type": "Feature", "geometry": {"type": "Polygon", "coordinates": [[[79.3616, 19.7774], [79.3619, 19.7773], [79.3623, 19.7772], [79.3628, 19.777], [79.3633, 19.7768], [79.3638, 19.7766], [79.3641, 19.7764], [79.3643, 19.7762], [79.3646, 19.7761], [79.3649, 19.776], [79.3648, 19.7754], [79.3646, 19.7749], [79.3645, 19.7743], [79.3639, 19.7744], [79.3633, 19.7746], [79.3629, 19.7747], [79.3626, 19.7748], [79.3621, 19.7749], [79.3617, 19.775], [79.3607, 19.7752], [79.3607, 19.7754], [79.3609, 19.7754], [79.3612, 19.7763], [79.3613, 19.7763], [79.3616, 19.7774]]]}, "properties": {"objectid": 54934, "statename": "Maharashtra", "statecode": "27", "districtname": "Chandrapur", "districtcode": "509", "ulbname": "Rajura", "ulbcode": "802725", "wardname": "Jawahar Nagar Ward", "wardcode": "15", "id": null, "status": "APPROVED", "misglobalid": null, "approved_by": null, "createdate": 1650085975000, "updateddate": 1650086136000, "globalid": "Bmn4dsB5-dcda-PsQl-QclB-s44RR6BKma4c", "gisglobalid": "RlQB5lcn-sPda-Pnad-snR5-c4clnmsoQo4s", "remark": "", "st_area(shape)": 7.788587534327089e-06, "st_perimeter(shape)": 0.011911322315438668}}, {"type": "Feature", "geometry": {"type": "Polygon", "coordinates": [[[79.3577, 19.7738], [79.3582, 19.7741], [79.3583, 19.7754], [79.3598, 19.7752], [79.361, 19.775], [79.3617, 19.7749], [79.3626, 19.7746], [79.3636, 19.7744], [79.3646, 19.7742], [79.3648, 19.7748], [79.3665, 19.7747], [79.3675, 19.7748], [79.3675, 19.7751], [79.3684, 19.7752], [79.37, 19.775], [79.3703, 19.7744], [79.3708, 19.7742], [79.371, 19.7741], [79.3711, 19.7741], [79.3712, 19.774], [79.3713, 19.7739], [79.3714, 19.7739], [79.3714, 19.7738], [79.3715, 19.7738], [79.3717, 19.7736], [79.3721, 19.7738], [79.3725, 19.7739], [79.3725, 19.7737], [79.3726, 19.7735], [79.3727, 19.7732], [79.3728, 19.7729], [79.3729, 19.7723], [79.3733, 19.7723], [79.3735, 19.7722], [79.3738, 19.7722], [79.3745, 19.7722], [79.3749, 19.7722], [79.375, 19.7722], [79.3758, 19.7723], [79.376, 19.7719], [79.3763, 19.7715], [79.3763, 19.7714], [79.3759, 19.7711], [79.3759, 19.7707], [79.376, 19.7703], [79.3751, 19.7701], [79.3739, 19.7702], [79.3727, 19.7705], [79.3704, 19.7709], [79.369, 19.7712], [79.3681, 19.7713], [79.3665, 19.7717], [79.3641, 19.7722], [79.3603, 19.7729], [79.3599, 19.7731], [79.3595, 19.7732], [79.3589, 19.7733], [79.3584, 19.7734], [79.3577, 19.7738]]]}, "properties": {"objectid": 55310, "statename": "Maharashtra", "statecode": "27", "districtname": "Chandrapur", "districtcode": "509", "ulbname": "Rajura", "ulbcode": "802725", "wardname": "Beghar Wasti Ward", "wardcode": "16", "id": null, "status": "APPROVED", "misglobalid": null, "approved_by": null, "createdate": 1650085817000, "updateddate": 1650086143000, "globalid": "lQRa445s-Rc6s-PKcm-s564-mKBKmRdnanKs", "gisglobalid": "lQoRdosd-csmQ-Pdan-QslR-lsm6c665Qcc6", "remark": "", "st_area(shape)": 4.789220530683423e-05, "st_perimeter(shape)": 0.04338746762744878}}, {"type": "Feature", "geometry": {"type": "Polygon", "coordinates": [[[79.3611, 19.7662], [79.3604, 19.7728], [79.3639, 19.7721], [79.3647, 19.7719], [79.3659, 19.7717], [79.3669, 19.7715], [79.3686, 19.7712], [79.3704, 19.7708], [79.3716, 19.7705], [79.3735, 19.7702], [79.3741, 19.7701], [79.3733, 19.7678], [79.3678, 19.7672], [79.365, 19.766], [79.3626, 19.7658], [79.3611, 19.7662]]]}, "properties": {"objectid": 308155, "statename": "MAHARASHTRA", "statecode": "27", "districtname": "CHANDRAPUR", "districtcode": "509", "ulbname": "Rajura", "ulbcode": "802725", "wardname": "Indira Nagar Ward", "wardcode": "17", "id": null, "status": "OPEN", "misglobalid": null, "approved_by": null, "createdate": 1697006982000, "updateddate": null, "globalid": null, "gisglobalid": "BRBnmaQo-daBK-PmQs-RnnQ-6RldldccQRRc", "remark": "--", "st_area(shape)": 5.98267055632239e-05, "st_perimeter(shape)": 0.03562313786365846}}]}
