{"type":"Topology","arcs":[[[69528,92605],[-5540,-15845]],[[63988,76760],[-554,-704]],[[63434,76056],[-1385,-4226]],[[62049,71830],[-11634,-4577],[-6925,-8099]],[[43490,59154],[-5540,-352]],[[37950,58802],[-4432,3169]],[[33518,61971],[-3047,5282]],[[30471,67253],[-1662,3169]],[[28809,70422],[13019,3521],[4986,12324],[9141,5986],[4986,7394],[8587,-7042]],[[30471,42957],[0,705]],[[30471,43662],[-277,1056]],[[30194,44718],[277,352]],[[30471,45070],[277,352]],[[30748,45422],[554,704]],[[31302,46126],[2493,3874]],[[33795,50000],[554,2816]],[[34349,52816],[-277,1761]],[[34072,54577],[-1108,2465]],[[32964,57042],[554,4929]],[[33518,61971],[4432,-3169]],[[37950,58802],[5540,352]],[[43490,59154],[6925,7747],[11634,4929]],[[62049,71830],[1385,4226]],[[63988,76760],[5540,15845]],[[69528,92605],[2493,4929],[10250,2465],[7756,-11972],[9972,-10915],[-1662,-14437],[-3878,-14436],[277,-22183],[-6094,-13028],[-18837,4930],[-1108,9507],[-9695,352],[-6925,3169],[-831,3169],[3047,10211],[-2216,1056]],[[52077,45422],[-3878,704]],[[48199,46126],[-2493,0]],[[45706,46126],[-9418,-5986],[-5817,2817]],[[45706,46126],[2493,0]],[[48199,46126],[5540,-1760],[-3047,-9507],[1385,-4226],[7756,-3521],[8864,-352],[-277,-8450],[-6925,1408],[-2216,5634],[-9418,4929],[-5540,7043]],[[44321,37324],[-1939,1408]],[[42382,38732],[-1108,0]],[[41274,38732],[-554,352]],[[40720,39084],[-2216,704]],[[38504,39788],[-4986,-704]],[[33518,39084],[-2493,1409]],[[31025,40493],[-831,352]],[[30194,40845],[6371,-1057],[9141,6338]],[[44598,28521],[-3324,5986]],[[41274,34507],[-831,0]],[[40443,34507],[-1939,-705]],[[38504,33802],[-1108,-704]],[[37396,33098],[-1662,352]],[[35734,33450],[-831,0]],[[34903,33450],[-277,705]],[[34626,34155],[-277,2464]],[[34349,36619],[4155,3169]],[[38504,39788],[2216,-704]],[[41274,38732],[1108,0]],[[42382,38732],[1939,-1408]],[[44321,37324],[277,-8803]],[[29363,40845],[554,352]],[[29917,41197],[0,-704]],[[29917,40493],[-2216,-3522]],[[27701,36971],[-554,-1760]],[[27147,35211],[-277,-1761]],[[26870,33450],[-1940,-1056]],[[24930,32394],[-831,-704]],[[24099,31690],[-3047,-13380],[-4432,4929],[277,14085],[12466,3521]],[[11080,39788],[19391,3169]],[[30471,42957],[-554,-1760]],[[29917,41197],[-554,-352]],[[29363,40845],[-13020,-3169]],[[16343,37676],[-6925,-705]],[[9418,36971],[-277,705]],[[9141,37676],[1939,2112]],[[9418,42605],[1939,-704]],[[11357,41901],[1385,0]],[[12742,41901],[1662,352]],[[14404,42253],[1108,0]],[[15512,42253],[831,1409]],[[16343,43662],[13851,1056]],[[30194,44718],[277,-1056]],[[30471,43662],[-19391,-3874]],[[11080,39788],[-1662,2817]],[[32964,57042],[1108,-2465]],[[34072,54577],[277,-1761]],[[34349,52816],[-554,-2816]],[[33795,50000],[-2493,-3874]],[[31302,46126],[-554,-704]],[[30471,45070],[-8588,4577]],[[21883,49647],[-1939,12324]],[[19944,61971],[8865,8451]],[[28809,70422],[1662,-3169]],[[30471,67253],[2493,-10211]],[[9418,42605],[-2493,19014],[13019,352]],[[19944,61971],[1939,-12324]],[[21883,49647],[-5540,-5985]],[[16343,43662],[-831,-1409]],[[14404,42253],[-1662,-352]],[[11357,41901],[-1939,704]],[[8864,39788],[-1662,352]],[[7202,40140],[-4432,353],[-2216,12323],[6648,6690],[1662,-19718]],[[11357,9155],[-9972,13380],[-1385,6690],[7202,10915]],[[8864,39788],[277,-2112]],[[9418,36971],[6371,-15140],[-2770,-5282]],[[13019,16549],[-1662,-7394]],[[11357,9155],[1662,7394]],[[13019,16549],[3047,5282],[8033,-8099],[1109,-5633]],[[25208,8099],[277,-5634],[-9973,0],[-4155,6690]],[[24653,30281],[277,-704]],[[24930,29577],[5541,-3873]],[[30471,25704],[-554,-1056]],[[29917,24648],[-277,-3874]],[[29640,20774],[277,-2112]],[[29917,18662],[-4987,-3169]],[[24930,15493],[-3601,2817],[3324,11971]],[[25208,8099],[-278,7394]],[[24930,15493],[20222,9859],[-10526,-25352],[-9418,8099]],[[29917,18662],[-277,2112]],[[29640,20774],[277,3874]],[[29917,24648],[554,1056]],[[30471,25704],[-5541,3873]],[[24653,30281],[-554,1409]],[[24099,31690],[831,704]],[[24930,32394],[1940,1056]],[[27147,35211],[554,1760]],[[27701,36971],[2216,3522]],[[29917,40493],[277,352]],[[31025,40493],[2493,-1409]],[[33518,39084],[831,-2465]],[[34626,34155],[277,-705]],[[35734,33450],[1662,-352]],[[37396,33098],[1108,704]],[[38504,33802],[1939,705]],[[41274,34507],[3324,-5986]],[[44598,28521],[554,-2817],[-15235,-7042]],[[60110,19718],[-11634,-5634],[-5540,-13028],[-7756,-1056],[12742,31690],[1385,-1409],[9141,-4577],[1662,-5986]]],"transform":{"scale":[3.610036100361472e-7,2.840028400283779e-7],"translate":[73.705,16.2542]},"objects":{"wards":{"type":"GeometryCollection","geometries":[{"arcs":[[0,1,2,3,4,5,6,7,8]],"type":"Polygon","properties":{"objectid":73395,"statename":"Maharshtra","statecode":"27","districtname":"Sindhudurg","districtcode":"529","ulbname":"Kankavali Nagarpanchayat","ulbcode":"802877","wardname":"Nimmewadi","wardcode":"1","id":null,"status":"APPROVED","misglobalid":null,"approved_by":null,"createdate":1641986242000,"updateddate":1643443711000,"globalid":null,"gisglobalid":"K5d4lBoc-m5B6-PPsB-RPda-46adn4KnKRQ5","remark":"Ok","st_area(shape)":0.00007398594984660463,"st_perimeter(shape)":0.042206288917674306}},{"arcs":[[9,10,11,12,13,14,15,16,17,18,19,20,21,22,-2,23,24,25,26,27]],"type":"Polygon","properties":{"objectid":71608,"statename":"Maharashtra","statecode":"27","districtname":"","districtcode":"529","ulbname":"Kankavali Nagarpanchayat","ulbcode":"802877","wardname":"Warchiwadi","wardcode":"2","id":null,"status":"APPROVED","misglobalid":null,"approved_by":null,"createdate":1646658436000,"updateddate":1646658457000,"globalid":null,"gisglobalid":"4P656dKB-4nnl-PKPd-RoPa-od64QBRaQKRn","remark":"K","st_area(shape)":0.0003298906560223837,"st_perimeter(shape)":0.09152182196233596}},{"arcs":[[28,29,30,31,32,33,34,35,36,37]],"type":"Polygon","properties":{"objectid":73397,"statename":"Maharashtra","statecode":"27","districtname":"","districtcode":"529","ulbname":"Kankavali Nagarpanchayat","ulbcode":"802877","wardname":"Bandkarwadi","wardcode":"3","id":null,"status":"APPROVED","misglobalid":null,"approved_by":null,"createdate":1646658497000,"updateddate":1646658523000,"globalid":null,"gisglobalid":"5BR56Q4Q-adnm-Pcs5-RodK-RnQmn45PcsKs","remark":"Ok","st_area(shape)":0.00002351851850602765,"st_perimeter(shape)":0.041780152731032666}},{"arcs":[[38,39,40,41,42,43,44,45,46,47,-33,48,49,50]],"type":"Polygon","properties":{"objectid":72748,"statename":"Maharashtra","statecode":"27","districtname":"","districtcode":"529","ulbname":"Kankavali","ulbcode":"802877","wardname":"Parabwadi","wardcode":"4","id":null,"status":"APPROVED","misglobalid":null,"approved_by":null,"createdate":1646658176000,"updateddate":1646658197000,"globalid":null,"gisglobalid":"mdloasKa-K5Kc-P6Ks-QP4l-PmlKQlR6asoQ","remark":"Ok","st_area(shape)":0.000007550321954279069,"st_perimeter(shape)":0.013818553001180837}},{"arcs":[[51,52,53,54,55,56,57,58]],"type":"Polygon","properties":{"objectid":72345,"statename":"Maharshtra","statecode":"27","districtname":"Sindhudurg","districtcode":"529","ulbname":"Kankavali","ulbcode":"802877","wardname":"Vidya Nagar","wardcode":"5","id":null,"status":"APPROVED","misglobalid":null,"approved_by":null,"createdate":1642068636000,"updateddate":1643443772000,"globalid":null,"gisglobalid":"om54s4Pc-KcQn-PRnP-s56Q-c6dBoo6msdlo","remark":"Ok","st_area(shape)":0.000014826761650197923,"st_perimeter(shape)":0.019942905697877416}},{"arcs":[[59,60,61,62,63,64,65]],"type":"Polygon","properties":{"objectid":73499,"statename":"Maharshtra","statecode":"27","districtname":"Sindhudurg","districtcode":"529","ulbname":"Kankavali","ulbcode":"802877","wardname":"Bajarpeth South","wardcode":"6","id":null,"status":"APPROVED","misglobalid":null,"approved_by":null,"createdate":1642067748000,"updateddate":1643443793000,"globalid":null,"gisglobalid":"clcPP55P-ccBn-PdlP-Qdlo-nm4cKccKPmsP","remark":"Ok","st_area(shape)":0.0000058933208076903485,"st_perimeter(shape)":0.017084201215051064}},{"arcs":[[66,67,68,69,70,71,72,73,74]],"type":"Polygon","properties":{"objectid":71487,"statename":"Maharshtra","statecode":"27","districtname":"Sindhudurg","districtcode":"529","ulbname":"Kankavali","ulbcode":"802877","wardname":"Bajarpeth North","wardcode":"7","id":null,"status":"APPROVED","misglobalid":null,"approved_by":null,"createdate":1642067524000,"updateddate":1643443812000,"globalid":null,"gisglobalid":"sBBddmd5-aoms-P55Q-a6Q4-smB4dKclmmld","remark":"Ok","st_area(shape)":0.000003877337253693898,"st_perimeter(shape)":0.016688946006285798}},{"arcs":[[75,76,77,78,79,-13,80,81,82,83,84]],"type":"Polygon","properties":{"objectid":72675,"statename":"Maharashtra","statecode":"27","districtname":"Sindhudurg","districtcode":"529","ulbname":"Kankavali","ulbcode":"802877","wardname":"Siddharthnagar","wardcode":"8","id":null,"status":"APPROVED","misglobalid":null,"approved_by":null,"createdate":1641992004000,"updateddate":1643443821000,"globalid":null,"gisglobalid":"4mmmRacn-sdml-Pl6R-sasR-5dsd66osPQ64","remark":"Ok","st_area(shape)":0.00002567471902651849,"st_perimeter(shape)":0.021962992022159653}},{"arcs":[[85,86,87,88,-70,89,-68,90]],"type":"Polygon","properties":{"objectid":72674,"statename":"Maharashtra","statecode":"27","districtname":"Sindhudurg","districtcode":"529","ulbname":"Kankavali","ulbcode":"802877","wardname":"Tembwadi","wardcode":"9","id":null,"status":"APPROVED","misglobalid":null,"approved_by":null,"createdate":1641990943000,"updateddate":1643443832000,"globalid":null,"gisglobalid":"PslosK55-B6cn-PRPl-sQca-olQmRd5dBcPl","remark":"Ok","st_area(shape)":0.000024078299647379848,"st_perimeter(shape)":0.019876319843172327}},{"arcs":[[91,92]],"type":"Polygon","properties":{"objectid":73422,"statename":"Maharshtra","statecode":"27","districtname":"Sindhudurg","districtcode":"529","ulbname":"Kankavali","ulbcode":"802877","wardname":"Gangowadi","wardcode":"10","id":null,"status":"APPROVED","misglobalid":null,"approved_by":null,"createdate":1641990517000,"updateddate":1643443844000,"globalid":null,"gisglobalid":"5oQB5d4K-s4s5-PoRa-QK45-sa4Pmo4lKKo5","remark":"Ok","st_area(shape)":0.000011658809600400066,"st_perimeter(shape)":0.014878441904271079}},{"arcs":[[93,-92,94,-65,95,96]],"type":"Polygon","properties":{"objectid":71863,"statename":"Maharshtra","statecode":"27","districtname":"Sindhudurg","districtcode":"529","ulbname":"Kankavali","ulbcode":"802877","wardname":"Songewadi","wardcode":"11","id":null,"status":"APPROVED","misglobalid":null,"approved_by":null,"createdate":1641989681000,"updateddate":1643443867000,"globalid":null,"gisglobalid":"K5dmsBRo-n5Bn-P5aQ-sPs6-l66Rsa5dBmmm","remark":"Ok","st_area(shape)":0.00002599550529811103,"st_perimeter(shape)":0.022972921602992705}},{"type":null,"properties":{"objectid":72726,"statename":"Maharshtra","statecode":"27","districtname":"Sindhudurg","districtcode":"529","ulbname":"Kankavali","ulbcode":"802877","wardname":"Teli Aali","wardcode":"12","id":null,"status":"APPROVED","misglobalid":null,"approved_by":null,"createdate":1642068071000,"updateddate":1643443883000,"globalid":null,"gisglobalid":"45K5nQa4-4dBQ-PnQc-sKl6-sadP55slaK46","remark":"Ok","st_area(shape)":0.000007162071602519009,"st_perimeter(shape)":0.011019461993671575}},{"arcs":[[97,98,99]],"type":"Polygon","properties":{"objectid":74911,"statename":"Maharshtra","statecode":"27","districtname":"Sindhudurg","districtcode":"529","ulbname":"Kankavali","ulbcode":"802877","wardname":"Bijali Nagar","wardcode":"13","id":null,"status":"APPROVED","misglobalid":null,"approved_by":null,"createdate":1641989116000,"updateddate":1643443910000,"globalid":null,"gisglobalid":"BKc66QBn-nRRa-P4Qa-s4ln-PRdlB6Q4oQRR","remark":"","st_area(shape)":0.00002028755233305218,"st_perimeter(shape)":0.017189009513741072}},{"arcs":[[100,101,102,103,104,105,106]],"type":"Polygon","properties":{"objectid":73500,"statename":"Maharshtra","statecode":"27","districtname":"Sindhudurg","districtcode":"529","ulbname":"Kankavali","ulbcode":"802877","wardname":"Jalkewadi","wardcode":"14","id":null,"status":"APPROVED","misglobalid":null,"approved_by":null,"createdate":1642069020000,"updateddate":1643443920000,"globalid":null,"gisglobalid":"aamBn44B-Ba6l-Pclo-aBco-PPQlBolsPPdK","remark":"Ok","st_area(shape)":0.00000908623038935822,"st_perimeter(shape)":0.012648307817857743}},{"arcs":[[107,108]],"type":"Polygon","properties":{"objectid":73403,"statename":"Maharshtra","statecode":"27","districtname":"Sindhudurg","districtcode":"529","ulbname":"Kankavali","ulbcode":"802877","wardname":"Nath Pai Nagar","wardcode":"15","id":null,"status":"APPROVED","misglobalid":null,"approved_by":null,"createdate":1641988705000,"updateddate":1643443928000,"globalid":null,"gisglobalid":"QcR4aQaQ-QQan-PnmQ-R4mK-6oo6cR466BRl","remark":"","st_area(shape)":0.000026701934563960475,"st_perimeter(shape)":0.023333672890867532}},{"arcs":[[109,110,111,112,-101,113,114,115,-56,116,117,118,-37,119,120,-46,121,-44,122,123,124,-40,125,126]],"type":"Polygon","properties":{"objectid":72372,"statename":"Maharashtra","statecode":"27","districtname":"Sindhudurg","districtcode":"529","ulbname":"Kankavali","ulbcode":"802877","wardname":"Shivajinagari","wardcode":"16","id":null,"status":"APPROVED","misglobalid":null,"approved_by":null,"createdate":1642089620000,"updateddate":1643443937000,"globalid":null,"gisglobalid":"6lQalndm-Kaml-Pddl-aB4s-odPl5ncRo64R","remark":"","st_area(shape)":0.000024321082269697317,"st_perimeter(shape)":0.02450925560011024}},{"arcs":[[127]],"type":"Polygon","properties":{"objectid":74500,"statename":"Maharashtra","statecode":"27","districtname":"Sindhudurg","districtcode":"529","ulbname":"Kankavali","ulbcode":"802877","wardname":"Kanaknagar","wardcode":"17","id":null,"status":"APPROVED","misglobalid":null,"approved_by":null,"createdate":1641988307000,"updateddate":1643443949000,"globalid":null,"gisglobalid":"locdlnld-KdlQ-P4RR-QKRn-6cc4QmRRloo5","remark":"","st_area(shape)":0.000030483660687159217,"st_perimeter(shape)":0.02790404042857933}}]}}}