{"type": "FeatureCollection", "features": [{"type": "Feature", "geometry": {"type": "Polygon", "coordinates": [[[78.5306, 17.3118], [78.5307, 17.3115], [78.531, 17.3109], [78.5313, 17.3106], [78.5315, 17.3107], [78.5315, 17.3099], [78.5316, 17.3085], [78.5315, 17.3077], [78.5315, 17.3063], [78.5315, 17.306], [78.5303, 17.3059], [78.5301, 17.306], [78.5299, 17.3062], [78.5295, 17.3065], [78.5294, 17.3067], [78.5291, 17.3067], [78.5288, 17.3069], [78.5285, 17.307], [78.5285, 17.3082], [78.5283, 17.3085], [78.5281, 17.3085], [78.5281, 17.3082], [78.5277, 17.3082], [78.5277, 17.3089], [78.5273, 17.3095], [78.5272, 17.3097], [78.5276, 17.3106], [78.5276, 17.3108], [78.5267, 17.3108], [78.5265, 17.3111], [78.5258, 17.3113], [78.5258, 17.3114], [78.5253, 17.3123], [78.526, 17.3135], [78.5261, 17.3135], [78.5273, 17.3133], [78.5277, 17.3134], [78.5282, 17.3135], [78.5284, 17.3136], [78.53, 17.3137], [78.5301, 17.3133], [78.5302, 17.3133], [78.5303, 17.3127], [78.5305, 17.3127], [78.5306, 17.3118]]]}, "properties": {"objectid": 64339, "statename": "Telanagana", "statecode": "36", "districtname": "Rangareddy", "districtcode": "537", "ulbname": "Badangpet", "ulbcode": "900070", "wardname": "Badangpet", "wardcode": "1", "id": null, "status": "APPROVED", "misglobalid": null, "approved_by": null, "createdate": 1640688893000, "updateddate": 1641289793000, "globalid": null, "gisglobalid": "KcBndlPm-ndBK-PPc4-RcQa-54QdncBQ5nod", "remark": "", "st_area(shape)": 2.9111450958406657e-05, "st_perimeter(shape)": 0.02550493554526605}}, {"type": "Feature", "geometry": {"type": "Polygon", "coordinates": [[[78.534, 17.3082], [78.5346, 17.308], [78.5349, 17.3078], [78.5353, 17.3074], [78.5355, 17.3071], [78.5357, 17.3069], [78.5359, 17.3066], [78.5361, 17.3062], [78.5361, 17.306], [78.5355, 17.305], [78.5343, 17.3054], [78.5338, 17.3056], [78.5328, 17.3058], [78.5315, 17.306], [78.5315, 17.3063], [78.5315, 17.3077], [78.5316, 17.3085], [78.5315, 17.3099], [78.5315, 17.3107], [78.5318, 17.3108], [78.532, 17.3114], [78.5337, 17.3106], [78.5336, 17.3101], [78.5339, 17.31], [78.5338, 17.3097], [78.5338, 17.3093], [78.5341, 17.3092], [78.5339, 17.3087], [78.5338, 17.3083], [78.534, 17.3082]]]}, "properties": {"objectid": 66691, "statename": "Telanagana", "statecode": "36", "districtname": "Rangareddy", "districtcode": "537", "ulbname": "Badangpet", "ulbcode": "900070", "wardname": "Almasgua", "wardcode": "2", "id": null, "status": "APPROVED", "misglobalid": null, "approved_by": null, "createdate": 1640688893000, "updateddate": 1641289800000, "globalid": null, "gisglobalid": "5oods44s-Rlo4-PK4d-Q6lo-lPKmldaoBRQs", "remark": "", "st_area(shape)": 1.684717896582947e-05, "st_perimeter(shape)": 0.019195416034254537}}, {"type": "Feature", "geometry": {"type": "Polygon", "coordinates": [[[78.5351, 17.3128], [78.5345, 17.3118], [78.5345, 17.3116], [78.5348, 17.3115], [78.5354, 17.3111], [78.5356, 17.311], [78.5355, 17.3109], [78.5358, 17.3107], [78.5357, 17.3105], [78.5371, 17.3097], [78.5368, 17.3091], [78.5382, 17.3091], [78.5386, 17.3089], [78.5393, 17.3089], [78.5394, 17.3085], [78.5398, 17.3084], [78.5399, 17.3087], [78.5408, 17.3089], [78.5411, 17.308], [78.5412, 17.3072], [78.5411, 17.307], [78.5407, 17.3069], [78.5393, 17.3065], [78.5385, 17.3063], [78.5381, 17.3063], [78.5375, 17.3064], [78.5367, 17.3062], [78.5361, 17.3062], [78.5359, 17.3066], [78.5357, 17.3069], [78.5355, 17.3071], [78.5353, 17.3074], [78.5349, 17.3078], [78.5346, 17.308], [78.534, 17.3082], [78.5338, 17.3083], [78.5339, 17.3087], [78.5341, 17.3092], [78.5338, 17.3093], [78.5338, 17.3097], [78.5339, 17.31], [78.5336, 17.3101], [78.5337, 17.3106], [78.532, 17.3114], [78.5318, 17.3108], [78.5315, 17.3107], [78.5313, 17.3106], [78.531, 17.3109], [78.5307, 17.3115], [78.5306, 17.3118], [78.5305, 17.3127], [78.5303, 17.3127], [78.5302, 17.3133], [78.5301, 17.3133], [78.53, 17.3137], [78.5312, 17.3138], [78.5325, 17.3138], [78.5331, 17.3137], [78.534, 17.3134], [78.5341, 17.3133], [78.5344, 17.3132], [78.5345, 17.3131], [78.5351, 17.3128]]]}, "properties": {"objectid": 65529, "statename": "Telanagana", "statecode": "36", "districtname": "Rangareddy", "districtcode": "537", "ulbname": "Badangpet", "ulbcode": "900070", "wardname": "Almasguda", "wardcode": "3", "id": null, "status": "APPROVED", "misglobalid": null, "approved_by": null, "createdate": 1640688893000, "updateddate": 1641289805000, "globalid": null, "gisglobalid": "oo5aca46-5R4s-Pn6l-Rm6R-4aB4BRK6KncP", "remark": "", "st_area(shape)": 3.230121710283612e-05, "st_perimeter(shape)": 0.035247062130141796}}, {"type": "Feature", "geometry": {"type": "Polygon", "coordinates": [[[78.5471, 17.3129], [78.5464, 17.3119], [78.5454, 17.3119], [78.5454, 17.3117], [78.5449, 17.3116], [78.5452, 17.3101], [78.545, 17.3099], [78.5456, 17.3093], [78.5455, 17.3093], [78.5449, 17.3089], [78.5445, 17.3086], [78.5438, 17.3083], [78.5433, 17.3082], [78.5429, 17.3082], [78.5428, 17.3081], [78.5434, 17.3075], [78.5437, 17.3072], [78.5444, 17.3071], [78.5444, 17.3069], [78.5455, 17.3067], [78.5455, 17.3063], [78.5443, 17.3044], [78.5431, 17.3052], [78.5391, 17.3041], [78.5384, 17.3046], [78.5373, 17.3032], [78.5369, 17.3038], [78.5363, 17.3054], [78.5361, 17.306], [78.5361, 17.3062], [78.5367, 17.3062], [78.5375, 17.3064], [78.5381, 17.3063], [78.5385, 17.3063], [78.5393, 17.3065], [78.5407, 17.3069], [78.5411, 17.307], [78.5412, 17.3072], [78.5411, 17.308], [78.5408, 17.3089], [78.5399, 17.3087], [78.5398, 17.3084], [78.5394, 17.3085], [78.5393, 17.3089], [78.5386, 17.3089], [78.5382, 17.3091], [78.5368, 17.3091], [78.5371, 17.3097], [78.5357, 17.3105], [78.5358, 17.3107], [78.5355, 17.3109], [78.5356, 17.311], [78.5354, 17.3111], [78.5348, 17.3115], [78.5345, 17.3116], [78.5345, 17.3118], [78.5351, 17.3128], [78.5352, 17.3128], [78.5377, 17.3121], [78.5396, 17.3121], [78.5402, 17.3122], [78.5402, 17.3124], [78.5404, 17.3125], [78.5409, 17.3125], [78.5428, 17.3124], [78.5433, 17.3128], [78.5452, 17.3128], [78.5455, 17.3128], [78.5461, 17.3128], [78.5471, 17.3129]]]}, "properties": {"objectid": 66690, "statename": "Telanagana", "statecode": "36", "districtname": "Rangareddy", "districtcode": "537", "ulbname": "Badangpet", "ulbcode": "900070", "wardname": "Almasguda", "wardcode": "4", "id": null, "status": "APPROVED", "misglobalid": null, "approved_by": null, "createdate": 1640688893000, "updateddate": 1641289811000, "globalid": null, "gisglobalid": "lcn4csdl-BsaB-PQdP-Qmda-PRKoo4mPadmQ", "remark": "", "st_area(shape)": 5.9207527127055605e-05, "st_perimeter(shape)": 0.05596878882733088}}, {"type": "Feature", "geometry": {"type": "Polygon", "coordinates": [[[78.5577, 17.3106], [78.5565, 17.3089], [78.5537, 17.3108], [78.5525, 17.3092], [78.5508, 17.3067], [78.5507, 17.3058], [78.5491, 17.3059], [78.5487, 17.3062], [78.5484, 17.3058], [78.5455, 17.3063], [78.5455, 17.3067], [78.5444, 17.3069], [78.5444, 17.3071], [78.5437, 17.3072], [78.5434, 17.3075], [78.5428, 17.3081], [78.5429, 17.3082], [78.5433, 17.3082], [78.5438, 17.3083], [78.5445, 17.3086], [78.5449, 17.3089], [78.5455, 17.3093], [78.5456, 17.3093], [78.545, 17.3099], [78.5452, 17.3101], [78.5449, 17.3116], [78.5454, 17.3117], [78.5454, 17.3119], [78.5464, 17.3119], [78.5471, 17.3129], [78.5473, 17.3129], [78.5487, 17.313], [78.5488, 17.313], [78.5502, 17.3131], [78.5507, 17.313], [78.5514, 17.3129], [78.5523, 17.3128], [78.5534, 17.3124], [78.5538, 17.3121], [78.5544, 17.3118], [78.5545, 17.3117], [78.5552, 17.3113], [78.5557, 17.3111], [78.5565, 17.3108], [78.5577, 17.3106]]]}, "properties": {"objectid": 60836, "statename": "Telanagana", "statecode": "36", "districtname": "Rangareddy", "districtcode": "537", "ulbname": "Badangpet", "ulbcode": "900070", "wardname": "Almasguda", "wardcode": "5", "id": null, "status": "APPROVED", "misglobalid": null, "approved_by": null, "createdate": 1640688893000, "updateddate": 1641289818000, "globalid": null, "gisglobalid": "smnom6m4-4Ps6-PmoB-aQPa-5nPKnR44sc5B", "remark": "", "st_area(shape)": 5.720049262739368e-05, "st_perimeter(shape)": 0.040419575825829945}}, {"type": "Feature", "geometry": {"type": "Polygon", "coordinates": [[[78.5657, 17.3098], [78.5667, 17.3087], [78.5676, 17.3077], [78.5686, 17.3066], [78.5698, 17.3055], [78.5706, 17.3047], [78.5697, 17.3034], [78.5689, 17.3013], [78.5682, 17.2994], [78.5676, 17.2973], [78.5671, 17.2959], [78.5668, 17.2953], [78.5667, 17.2949], [78.5665, 17.2945], [78.5659, 17.2948], [78.5657, 17.2948], [78.5655, 17.2947], [78.5652, 17.2947], [78.5648, 17.294], [78.5649, 17.2937], [78.5642, 17.2933], [78.5641, 17.2932], [78.564, 17.2927], [78.5639, 17.2924], [78.5637, 17.2921], [78.5633, 17.2916], [78.5631, 17.2912], [78.5626, 17.2906], [78.5614, 17.289], [78.5613, 17.289], [78.5612, 17.289], [78.5609, 17.2891], [78.5607, 17.2891], [78.5606, 17.289], [78.5604, 17.2886], [78.5572, 17.2897], [78.5578, 17.2908], [78.5605, 17.2953], [78.559, 17.296], [78.5579, 17.2966], [78.5559, 17.2976], [78.5564, 17.2981], [78.5568, 17.2985], [78.5569, 17.2987], [78.5571, 17.2991], [78.5574, 17.2998], [78.5572, 17.2998], [78.5563, 17.2998], [78.5556, 17.2997], [78.5551, 17.2997], [78.5537, 17.2997], [78.551, 17.3003], [78.5523, 17.3019], [78.5527, 17.3029], [78.5534, 17.3041], [78.5536, 17.3048], [78.5553, 17.3074], [78.5565, 17.3089], [78.5577, 17.3106], [78.5586, 17.3106], [78.5606, 17.3106], [78.5613, 17.3105], [78.5618, 17.3105], [78.5651, 17.31], [78.5657, 17.3098]]]}, "properties": {"objectid": 61093, "statename": "Telanagana", "statecode": "36", "districtname": "Rangareddy", "districtcode": "537", "ulbname": "Badangpet", "ulbcode": "900070", "wardname": "Gurramguda", "wardcode": "6", "id": null, "status": "APPROVED", "misglobalid": null, "approved_by": null, "createdate": 1640688893000, "updateddate": 1641289824000, "globalid": null, "gisglobalid": "RoKKBscK-K6nd-P6c4-RlRa-mK6manKdomaR", "remark": "", "st_area(shape)": 0.00023067996951170377, "st_perimeter(shape)": 0.07258395898567332}}, {"type": "Feature", "geometry": {"type": "Polygon", "coordinates": [[[78.5712, 17.292], [78.571, 17.2917], [78.5705, 17.2909], [78.5697, 17.2893], [78.5694, 17.2893], [78.5692, 17.2881], [78.5691, 17.2868], [78.5689, 17.2855], [78.5687, 17.2845], [78.5685, 17.2838], [78.5682, 17.2832], [78.5678, 17.2831], [78.5643, 17.2846], [78.5644, 17.285], [78.5631, 17.2854], [78.5636, 17.2872], [78.5612, 17.2887], [78.5613, 17.289], [78.5614, 17.289], [78.5626, 17.2906], [78.5631, 17.2912], [78.5633, 17.2916], [78.5637, 17.2921], [78.5639, 17.2924], [78.564, 17.2927], [78.5641, 17.2932], [78.5642, 17.2933], [78.5649, 17.2937], [78.5648, 17.294], [78.5652, 17.2947], [78.5655, 17.2947], [78.5657, 17.2948], [78.5659, 17.2948], [78.5665, 17.2945], [78.5667, 17.2949], [78.5668, 17.2953], [78.5671, 17.2959], [78.5676, 17.2973], [78.5682, 17.2994], [78.5689, 17.3013], [78.5697, 17.3034], [78.5706, 17.3047], [78.5698, 17.3055], [78.5686, 17.3066], [78.5676, 17.3077], [78.5667, 17.3087], [78.5657, 17.3098], [78.5666, 17.3095], [78.5677, 17.3093], [78.5706, 17.3087], [78.5724, 17.3083], [78.5719, 17.3065], [78.5717, 17.3056], [78.5711, 17.3037], [78.5712, 17.3028], [78.5713, 17.3016], [78.5715, 17.3008], [78.5717, 17.2986], [78.5718, 17.2966], [78.5718, 17.2949], [78.5716, 17.2939], [78.5715, 17.2932], [78.5714, 17.2926], [78.5712, 17.292]]]}, "properties": {"objectid": 60838, "statename": "Telanagana", "statecode": "36", "districtname": "Rangareddy", "districtcode": "537", "ulbname": "Badangpet", "ulbcode": "900070", "wardname": "Gurramguda", "wardcode": "7", "id": null, "status": "APPROVED", "misglobalid": null, "approved_by": null, "createdate": 1640688893000, "updateddate": 1641289831000, "globalid": null, "gisglobalid": "5oomQmBo-6d56-PPB5-aRc4-RQ6Poo54ma4n", "remark": "", "st_area(shape)": 0.00011852598986054762, "st_perimeter(shape)": 0.070697704982099}}, {"type": "Feature", "geometry": {"type": "Polygon", "coordinates": [[[78.5613, 17.289], [78.5612, 17.2887], [78.5636, 17.2872], [78.5631, 17.2854], [78.5644, 17.285], [78.5643, 17.2846], [78.5678, 17.2831], [78.5677, 17.2831], [78.5673, 17.2828], [78.5668, 17.2825], [78.5667, 17.2823], [78.566, 17.2815], [78.5653, 17.2802], [78.5646, 17.2777], [78.5647, 17.2751], [78.5646, 17.274], [78.5647, 17.2729], [78.5647, 17.272], [78.5648, 17.2711], [78.5649, 17.2699], [78.5648, 17.2696], [78.5646, 17.269], [78.5644, 17.2681], [78.5641, 17.2665], [78.5638, 17.2651], [78.5635, 17.2638], [78.5628, 17.2622], [78.5626, 17.2615], [78.5624, 17.26], [78.5618, 17.2568], [78.5617, 17.2558], [78.561, 17.255], [78.5603, 17.2542], [78.56, 17.2535], [78.5595, 17.2526], [78.5581, 17.2501], [78.5599, 17.2481], [78.5543, 17.2468], [78.5511, 17.2461], [78.5492, 17.2471], [78.5488, 17.2472], [78.5455, 17.2479], [78.545, 17.2479], [78.5439, 17.248], [78.541, 17.2475], [78.5399, 17.2468], [78.5391, 17.2468], [78.539, 17.2467], [78.5379, 17.2501], [78.5371, 17.2528], [78.5371, 17.2536], [78.5369, 17.2556], [78.5369, 17.2572], [78.5369, 17.2578], [78.5371, 17.2602], [78.5372, 17.2606], [78.5377, 17.2623], [78.538, 17.2634], [78.5384, 17.2641], [78.5385, 17.2645], [78.5388, 17.2654], [78.5433, 17.2646], [78.5435, 17.2647], [78.5437, 17.2648], [78.5435, 17.2656], [78.5441, 17.2657], [78.5445, 17.2671], [78.5447, 17.2677], [78.5455, 17.2686], [78.5454, 17.2687], [78.5451, 17.2689], [78.5448, 17.2691], [78.5446, 17.2697], [78.5447, 17.2699], [78.5451, 17.2702], [78.5456, 17.2701], [78.546, 17.2721], [78.546, 17.2722], [78.5461, 17.2724], [78.5469, 17.2723], [78.5469, 17.2725], [78.547, 17.2732], [78.547, 17.2742], [78.5471, 17.2743], [78.5472, 17.275], [78.5475, 17.2749], [78.5476, 17.2756], [78.5484, 17.2755], [78.5489, 17.2756], [78.5496, 17.2756], [78.5509, 17.2755], [78.551, 17.2762], [78.551, 17.2763], [78.551, 17.2764], [78.5509, 17.2765], [78.5507, 17.2767], [78.5506, 17.2768], [78.5506, 17.2769], [78.5507, 17.2772], [78.5508, 17.2775], [78.5508, 17.2776], [78.5507, 17.2776], [78.5503, 17.2779], [78.55, 17.2782], [78.5497, 17.2785], [78.5495, 17.2787], [78.5494, 17.279], [78.5494, 17.2792], [78.5495, 17.2793], [78.5498, 17.2795], [78.5499, 17.2796], [78.5494, 17.2801], [78.5491, 17.2802], [78.549, 17.2809], [78.5488, 17.281], [78.5489, 17.2837], [78.5488, 17.285], [78.5489, 17.2876], [78.5491, 17.2875], [78.5518, 17.2866], [78.5519, 17.2853], [78.552, 17.2839], [78.5542, 17.2842], [78.5543, 17.2836], [78.5543, 17.2804], [78.5549, 17.2803], [78.5553, 17.2803], [78.5556, 17.2803], [78.5559, 17.2804], [78.556, 17.2803], [78.556, 17.2801], [78.5564, 17.28], [78.5566, 17.28], [78.5568, 17.2799], [78.5578, 17.2796], [78.5586, 17.282], [78.5587, 17.2826], [78.5587, 17.2832], [78.5587, 17.2849], [78.5588, 17.2851], [78.5589, 17.2853], [78.559, 17.2856], [78.5593, 17.2862], [78.5598, 17.2873], [78.5604, 17.2886], [78.5606, 17.289], [78.5607, 17.2891], [78.5609, 17.2891], [78.5612, 17.289], [78.5613, 17.289]]]}, "properties": {"objectid": 65533, "statename": "Telanagana", "statecode": "36", "districtname": "Rangareddy", "districtcode": "537", "ulbname": "Badangpet", "ulbcode": "900070", "wardname": "Nadergul", "wardcode": "8", "id": null, "status": "APPROVED", "misglobalid": null, "approved_by": null, "createdate": 1640688893000, "updateddate": 1641289837000, "globalid": null, "gisglobalid": "BcRdB655-55d5-PKP6-sssd-nnQdKlc5664s", "remark": "", "st_area(shape)": 0.0007641674415516048, "st_perimeter(shape)": 0.1530810007825614}}, {"type": "Feature", "geometry": {"type": "Polygon", "coordinates": [[[78.5369, 17.286], [78.537, 17.2854], [78.5372, 17.2844], [78.5374, 17.2832], [78.5374, 17.2828], [78.5374, 17.2821], [78.5373, 17.2815], [78.5373, 17.2807], [78.5372, 17.2795], [78.5372, 17.2786], [78.5372, 17.2783], [78.5376, 17.2772], [78.5377, 17.2768], [78.5379, 17.2764], [78.5382, 17.2759], [78.5392, 17.2741], [78.5393, 17.2739], [78.5393, 17.2737], [78.5404, 17.2736], [78.5409, 17.2736], [78.5412, 17.2737], [78.5414, 17.2738], [78.5416, 17.274], [78.5417, 17.2741], [78.5417, 17.274], [78.5416, 17.2737], [78.5419, 17.2737], [78.5417, 17.2726], [78.5414, 17.2719], [78.5413, 17.272], [78.541, 17.2721], [78.5406, 17.2722], [78.5402, 17.2723], [78.5392, 17.2725], [78.5391, 17.2717], [78.5391, 17.271], [78.5391, 17.2701], [78.5392, 17.269], [78.5393, 17.2682], [78.5394, 17.2676], [78.5392, 17.267], [78.5389, 17.2657], [78.5388, 17.2654], [78.5385, 17.2645], [78.5384, 17.2641], [78.538, 17.2634], [78.5377, 17.2623], [78.5372, 17.2606], [78.5371, 17.2602], [78.5369, 17.2578], [78.5369, 17.2572], [78.5369, 17.2556], [78.5371, 17.2536], [78.5371, 17.2528], [78.5379, 17.2501], [78.539, 17.2467], [78.5376, 17.246], [78.536, 17.2434], [78.534, 17.2432], [78.5317, 17.2421], [78.5315, 17.2414], [78.5298, 17.2407], [78.5289, 17.2402], [78.5286, 17.2402], [78.5276, 17.2403], [78.5263, 17.2404], [78.525, 17.2409], [78.523, 17.2402], [78.5214, 17.2404], [78.5202, 17.2407], [78.5195, 17.241], [78.5185, 17.2414], [78.5141, 17.2422], [78.5131, 17.2423], [78.5129, 17.2423], [78.5122, 17.2424], [78.5113, 17.2424], [78.5107, 17.2424], [78.5109, 17.244], [78.511, 17.2451], [78.5116, 17.2474], [78.512, 17.2487], [78.5119, 17.2492], [78.512, 17.2495], [78.5124, 17.2495], [78.513, 17.2515], [78.513, 17.2528], [78.5131, 17.254], [78.5133, 17.2548], [78.5133, 17.2553], [78.5134, 17.2556], [78.5136, 17.2567], [78.5138, 17.2576], [78.5142, 17.259], [78.5144, 17.2593], [78.515, 17.2601], [78.5158, 17.2607], [78.516, 17.2611], [78.5162, 17.2615], [78.5164, 17.2615], [78.5167, 17.2614], [78.5168, 17.2617], [78.5169, 17.2621], [78.517, 17.2625], [78.5172, 17.2626], [78.5179, 17.2626], [78.5181, 17.2624], [78.5192, 17.2629], [78.5199, 17.2633], [78.5209, 17.2637], [78.5207, 17.2671], [78.5211, 17.2672], [78.522, 17.2677], [78.5226, 17.268], [78.523, 17.268], [78.5234, 17.2681], [78.524, 17.2681], [78.5245, 17.2681], [78.5247, 17.2682], [78.525, 17.2683], [78.526, 17.2689], [78.5265, 17.2691], [78.527, 17.269], [78.5271, 17.2691], [78.5272, 17.2692], [78.5275, 17.27], [78.5278, 17.2708], [78.5279, 17.272], [78.528, 17.2721], [78.5281, 17.2721], [78.5285, 17.272], [78.5286, 17.2721], [78.5287, 17.2722], [78.5288, 17.2732], [78.5288, 17.2734], [78.5287, 17.2734], [78.5264, 17.2733], [78.5239, 17.2721], [78.5237, 17.2721], [78.5227, 17.2724], [78.5228, 17.2729], [78.5228, 17.273], [78.5228, 17.2731], [78.5225, 17.2733], [78.522, 17.2736], [78.5214, 17.2739], [78.5205, 17.2743], [78.5196, 17.2745], [78.5195, 17.2746], [78.5197, 17.2752], [78.52, 17.276], [78.5205, 17.276], [78.5206, 17.2763], [78.521, 17.2777], [78.521, 17.2782], [78.521, 17.2795], [78.521, 17.283], [78.5238, 17.2836], [78.5247, 17.2838], [78.5256, 17.2842], [78.5264, 17.2842], [78.5273, 17.2842], [78.528, 17.2842], [78.5285, 17.2842], [78.5288, 17.2842], [78.5288, 17.2843], [78.5291, 17.2846], [78.5288, 17.2854], [78.5287, 17.2859], [78.5285, 17.2863], [78.5279, 17.2873], [78.5285, 17.2882], [78.5289, 17.2887], [78.5292, 17.289], [78.5317, 17.287], [78.5335, 17.2847], [78.5341, 17.2852], [78.5352, 17.2857], [78.536, 17.2858], [78.5369, 17.286]]]}, "properties": {"objectid": 64783, "statename": "Telanagana", "statecode": "36", "districtname": "Rangareddy", "districtcode": "537", "ulbname": "Badangpet", "ulbcode": "900070", "wardname": "Nadergul", "wardcode": "9", "id": null, "status": "APPROVED", "misglobalid": null, "approved_by": null, "createdate": 1640688893000, "updateddate": 1641289850000, "globalid": null, "gisglobalid": "mo6ccPcP-l6ll-PRol-QnoP-Rn446mscsmBB", "remark": "", "st_area(shape)": 0.0008821777980955215, "st_perimeter(shape)": 0.16296310638643463}}, {"type": "Feature", "geometry": {"type": "Polygon", "coordinates": [[[78.521, 17.2777], [78.5206, 17.2763], [78.5205, 17.276], [78.52, 17.276], [78.5197, 17.2752], [78.5195, 17.2746], [78.5196, 17.2745], [78.5205, 17.2743], [78.5214, 17.2739], [78.522, 17.2736], [78.5225, 17.2733], [78.5228, 17.2731], [78.5228, 17.273], [78.5228, 17.2729], [78.5227, 17.2724], [78.5237, 17.2721], [78.5239, 17.2721], [78.5264, 17.2733], [78.5287, 17.2734], [78.5288, 17.2734], [78.5288, 17.2732], [78.5287, 17.2722], [78.5286, 17.2721], [78.5285, 17.272], [78.5281, 17.2721], [78.528, 17.2721], [78.5279, 17.2721], [78.5279, 17.272], [78.5278, 17.2708], [78.5275, 17.27], [78.5272, 17.2692], [78.5271, 17.2691], [78.527, 17.269], [78.5265, 17.2691], [78.526, 17.2689], [78.525, 17.2683], [78.5247, 17.2682], [78.5245, 17.2681], [78.524, 17.2681], [78.5234, 17.2681], [78.523, 17.268], [78.5226, 17.268], [78.522, 17.2677], [78.5211, 17.2672], [78.5207, 17.2671], [78.5209, 17.2637], [78.5199, 17.2633], [78.5192, 17.2629], [78.5181, 17.2624], [78.5179, 17.2626], [78.5172, 17.2626], [78.517, 17.2625], [78.5169, 17.2621], [78.5168, 17.2617], [78.5167, 17.2614], [78.5164, 17.2615], [78.5162, 17.2615], [78.516, 17.2611], [78.5158, 17.2607], [78.515, 17.2601], [78.5144, 17.2607], [78.5118, 17.2614], [78.5095, 17.2621], [78.5091, 17.262], [78.5085, 17.2625], [78.5065, 17.2615], [78.5052, 17.2608], [78.504, 17.2602], [78.504, 17.2605], [78.5037, 17.2611], [78.5035, 17.2614], [78.5027, 17.262], [78.5012, 17.2644], [78.5006, 17.2653], [78.5006, 17.2654], [78.4988, 17.2678], [78.4984, 17.2682], [78.4978, 17.269], [78.4976, 17.2693], [78.4956, 17.2708], [78.4985, 17.2729], [78.4986, 17.2738], [78.4986, 17.2758], [78.4986, 17.2771], [78.4986, 17.2772], [78.4986, 17.2775], [78.4985, 17.2777], [78.4982, 17.2782], [78.499, 17.2777], [78.5007, 17.2767], [78.501, 17.2767], [78.5012, 17.2767], [78.5014, 17.2767], [78.5025, 17.2766], [78.5036, 17.2766], [78.5038, 17.2766], [78.504, 17.2765], [78.5044, 17.2771], [78.505, 17.2777], [78.5061, 17.2784], [78.5062, 17.2786], [78.5068, 17.2794], [78.507, 17.2798], [78.5071, 17.2802], [78.5081, 17.2822], [78.5091, 17.2826], [78.5104, 17.2832], [78.5108, 17.2844], [78.511, 17.2856], [78.5139, 17.2856], [78.5169, 17.2853], [78.5177, 17.2852], [78.5181, 17.2848], [78.5184, 17.2844], [78.5192, 17.2843], [78.5237, 17.2837], [78.5238, 17.2836], [78.521, 17.283], [78.521, 17.2795], [78.521, 17.2782], [78.521, 17.2777]]]}, "properties": {"objectid": 65211, "statename": "Telanagana", "statecode": "36", "districtname": "Rangareddy", "districtcode": "537", "ulbname": "Badangpet", "ulbcode": "900070", "wardname": "Kurmalguda", "wardcode": "10", "id": null, "status": "APPROVED", "misglobalid": null, "approved_by": null, "createdate": 1640688893000, "updateddate": 1641289856000, "globalid": null, "gisglobalid": "6canPnoK-PRm4-PRQc-Qaln-4dPP5Ks4anRQ", "remark": "", "st_area(shape)": 0.00047243980713597444, "st_perimeter(shape)": 0.11225683189376857}}, {"type": "Feature", "geometry": {"type": "Polygon", "coordinates": [[[78.4728, 17.2563], [78.4731, 17.255], [78.4733, 17.2541], [78.4731, 17.2534], [78.4728, 17.2525], [78.4724, 17.2504], [78.4723, 17.2495], [78.4714, 17.2486], [78.4708, 17.2447], [78.471, 17.2429], [78.4714, 17.2407], [78.4714, 17.2397], [78.4709, 17.2378], [78.4701, 17.2348], [78.4688, 17.2356], [78.4679, 17.2356], [78.4668, 17.2354], [78.4628, 17.2348], [78.463, 17.234], [78.4614, 17.2328], [78.4597, 17.2322], [78.4587, 17.2318], [78.4565, 17.2309], [78.4535, 17.2296], [78.4527, 17.2292], [78.4521, 17.229], [78.4518, 17.2289], [78.4515, 17.2289], [78.4509, 17.2288], [78.4494, 17.2286], [78.4481, 17.2284], [78.4475, 17.2284], [78.4467, 17.2284], [78.4465, 17.2284], [78.4461, 17.2285], [78.4433, 17.2293], [78.4415, 17.2299], [78.4376, 17.2308], [78.4361, 17.2312], [78.4351, 17.2332], [78.4337, 17.2364], [78.433, 17.238], [78.4329, 17.2384], [78.4326, 17.2388], [78.4323, 17.2401], [78.4321, 17.241], [78.4317, 17.2421], [78.4304, 17.2444], [78.4301, 17.2453], [78.4294, 17.247], [78.4291, 17.2484], [78.4284, 17.2513], [78.4271, 17.2517], [78.4277, 17.2533], [78.4245, 17.2536], [78.4263, 17.2556], [78.427, 17.2564], [78.4279, 17.2565], [78.4287, 17.2566], [78.4294, 17.2566], [78.4298, 17.2567], [78.4311, 17.2567], [78.4313, 17.2567], [78.4315, 17.2567], [78.4316, 17.2567], [78.4317, 17.2567], [78.433, 17.2572], [78.434, 17.2575], [78.4341, 17.2575], [78.4342, 17.2575], [78.4355, 17.2574], [78.4372, 17.2572], [78.4381, 17.2571], [78.4389, 17.2571], [78.4393, 17.2571], [78.4398, 17.2595], [78.4402, 17.2594], [78.4416, 17.2592], [78.4436, 17.259], [78.4461, 17.2588], [78.4467, 17.2587], [78.4471, 17.2585], [78.4493, 17.2576], [78.45, 17.2572], [78.45, 17.257], [78.45, 17.2567], [78.45, 17.2564], [78.4499, 17.2561], [78.4499, 17.2559], [78.4502, 17.2558], [78.4504, 17.2556], [78.4505, 17.2553], [78.4505, 17.2545], [78.4506, 17.254], [78.4506, 17.2539], [78.4506, 17.2537], [78.4509, 17.2534], [78.4511, 17.2532], [78.4512, 17.2528], [78.4513, 17.2524], [78.4511, 17.2522], [78.451, 17.2519], [78.451, 17.2516], [78.4513, 17.2516], [78.4514, 17.2519], [78.4515, 17.2519], [78.4518, 17.2519], [78.4524, 17.2519], [78.4526, 17.252], [78.453, 17.252], [78.4532, 17.2522], [78.4535, 17.2523], [78.4537, 17.2524], [78.4542, 17.2525], [78.4545, 17.2526], [78.4547, 17.2527], [78.4551, 17.2528], [78.4555, 17.253], [78.4557, 17.2531], [78.4558, 17.2531], [78.456, 17.2531], [78.4565, 17.2531], [78.4569, 17.253], [78.4573, 17.2529], [78.4577, 17.2529], [78.4581, 17.2529], [78.4584, 17.2529], [78.4588, 17.253], [78.4589, 17.253], [78.4591, 17.2531], [78.4593, 17.2531], [78.4595, 17.2531], [78.4597, 17.2531], [78.46, 17.2532], [78.4602, 17.2533], [78.4605, 17.2533], [78.4608, 17.2533], [78.4616, 17.2535], [78.4621, 17.2535], [78.463, 17.2535], [78.4635, 17.2535], [78.4637, 17.2536], [78.4639, 17.2537], [78.4642, 17.2538], [78.4645, 17.2538], [78.4649, 17.2538], [78.4653, 17.2538], [78.4657, 17.2539], [78.4662, 17.254], [78.4665, 17.2541], [78.4667, 17.2541], [78.4667, 17.2543], [78.4663, 17.2547], [78.4663, 17.2548], [78.4663, 17.255], [78.4664, 17.255], [78.4664, 17.2551], [78.4664, 17.2552], [78.4665, 17.2554], [78.4666, 17.2554], [78.4667, 17.2555], [78.4668, 17.2555], [78.4671, 17.2556], [78.4675, 17.2556], [78.4677, 17.2556], [78.4679, 17.2556], [78.4683, 17.2557], [78.4686, 17.2557], [78.4689, 17.2558], [78.469, 17.2556], [78.4694, 17.2557], [78.4695, 17.2557], [78.4696, 17.2556], [78.4698, 17.2555], [78.4699, 17.2554], [78.4703, 17.2554], [78.4704, 17.2554], [78.4706, 17.2555], [78.471, 17.2555], [78.4713, 17.2555], [78.4717, 17.2555], [78.472, 17.2556], [78.4719, 17.2559], [78.472, 17.256], [78.4723, 17.256], [78.4728, 17.2563]]]}, "properties": {"objectid": 64337, "statename": "Telanagana", "statecode": "36", "districtname": "Rangareddy", "districtcode": "537", "ulbname": "Badangpet", "ulbcode": "900070", "wardname": "Mamidipally", "wardcode": "11", "id": null, "status": "APPROVED", "misglobalid": null, "approved_by": null, "createdate": 1640688893000, "updateddate": 1641289862000, "globalid": null, "gisglobalid": "lPsQcR4l-Kmn6-PomK-QRQc-dad6RdosPdl6", "remark": "", "st_area(shape)": 0.0009949773568875707, "st_perimeter(shape)": 0.14756263918331283}}, {"type": "Feature", "geometry": {"type": "Polygon", "coordinates": [[[78.4647, 17.2679], [78.4628, 17.2668], [78.4606, 17.2657], [78.4604, 17.2656], [78.4602, 17.2654], [78.4601, 17.2651], [78.4599, 17.2649], [78.4597, 17.2648], [78.4594, 17.2648], [78.4591, 17.2647], [78.459, 17.2645], [78.4587, 17.2642], [78.4583, 17.2634], [78.4575, 17.2619], [78.4552, 17.2635], [78.455, 17.2632], [78.455, 17.2617], [78.4547, 17.2616], [78.4544, 17.2615], [78.4542, 17.2613], [78.455, 17.2595], [78.4552, 17.2592], [78.4553, 17.2591], [78.4543, 17.2588], [78.4543, 17.2579], [78.4538, 17.2578], [78.4538, 17.2572], [78.4542, 17.2571], [78.4547, 17.2572], [78.4552, 17.2577], [78.4557, 17.2583], [78.4558, 17.2588], [78.4559, 17.259], [78.4563, 17.2589], [78.4569, 17.2588], [78.4569, 17.2592], [78.4572, 17.2607], [78.4594, 17.2609], [78.4669, 17.2616], [78.4694, 17.2618], [78.4719, 17.2622], [78.4726, 17.2604], [78.4728, 17.2586], [78.4728, 17.2563], [78.4723, 17.256], [78.472, 17.256], [78.4719, 17.2559], [78.472, 17.2556], [78.4717, 17.2555], [78.4713, 17.2555], [78.471, 17.2555], [78.4706, 17.2555], [78.4704, 17.2554], [78.4703, 17.2554], [78.4699, 17.2554], [78.4698, 17.2555], [78.4696, 17.2556], [78.4695, 17.2557], [78.4694, 17.2557], [78.469, 17.2556], [78.4689, 17.2558], [78.4686, 17.2557], [78.4683, 17.2557], [78.4679, 17.2556], [78.4677, 17.2556], [78.4675, 17.2556], [78.4671, 17.2556], [78.4668, 17.2555], [78.4667, 17.2555], [78.4666, 17.2554], [78.4665, 17.2554], [78.4664, 17.2552], [78.4664, 17.2551], [78.4664, 17.255], [78.4663, 17.255], [78.4663, 17.2548], [78.4663, 17.2547], [78.4667, 17.2543], [78.4667, 17.2541], [78.4665, 17.2541], [78.4662, 17.254], [78.4657, 17.2539], [78.4653, 17.2538], [78.4649, 17.2538], [78.4645, 17.2538], [78.4642, 17.2538], [78.4639, 17.2537], [78.4637, 17.2536], [78.4635, 17.2535], [78.463, 17.2535], [78.4621, 17.2535], [78.4616, 17.2535], [78.4608, 17.2533], [78.4605, 17.2533], [78.4602, 17.2533], [78.46, 17.2532], [78.4597, 17.2531], [78.4595, 17.2531], [78.4593, 17.2531], [78.4591, 17.2531], [78.4589, 17.253], [78.4588, 17.253], [78.4584, 17.2529], [78.4581, 17.2529], [78.4577, 17.2529], [78.4573, 17.2529], [78.4569, 17.253], [78.4565, 17.2531], [78.456, 17.2531], [78.4558, 17.2531], [78.4557, 17.2531], [78.4555, 17.253], [78.4551, 17.2528], [78.4547, 17.2527], [78.4545, 17.2526], [78.4542, 17.2525], [78.4537, 17.2524], [78.4535, 17.2523], [78.4532, 17.2522], [78.453, 17.252], [78.4526, 17.252], [78.4524, 17.2519], [78.4518, 17.2519], [78.4515, 17.2519], [78.4514, 17.2519], [78.4513, 17.2516], [78.451, 17.2516], [78.451, 17.2519], [78.4511, 17.2522], [78.4513, 17.2524], [78.4512, 17.2528], [78.4511, 17.2532], [78.4509, 17.2534], [78.4506, 17.2537], [78.4506, 17.2539], [78.4506, 17.254], [78.4505, 17.2545], [78.4505, 17.2553], [78.4504, 17.2556], [78.4502, 17.2558], [78.4499, 17.2559], [78.4499, 17.2561], [78.45, 17.2564], [78.45, 17.2567], [78.45, 17.257], [78.45, 17.2572], [78.4493, 17.2576], [78.4471, 17.2585], [78.4467, 17.2587], [78.4461, 17.2588], [78.4436, 17.259], [78.4416, 17.2592], [78.4402, 17.2594], [78.4398, 17.2595], [78.4393, 17.2571], [78.4389, 17.2571], [78.4381, 17.2571], [78.4372, 17.2572], [78.4355, 17.2574], [78.4342, 17.2575], [78.4341, 17.2575], [78.434, 17.2575], [78.433, 17.2572], [78.4317, 17.2567], [78.4316, 17.2567], [78.4315, 17.2567], [78.4313, 17.2567], [78.4311, 17.2567], [78.4298, 17.2567], [78.4294, 17.2566], [78.4287, 17.2566], [78.4279, 17.2565], [78.427, 17.2564], [78.4291, 17.2588], [78.4297, 17.2601], [78.4301, 17.26], [78.4307, 17.2611], [78.4311, 17.2616], [78.4312, 17.262], [78.4319, 17.2626], [78.432, 17.2629], [78.4321, 17.2635], [78.4322, 17.2652], [78.4326, 17.2679], [78.4344, 17.269], [78.4368, 17.2706], [78.4384, 17.2717], [78.4387, 17.2717], [78.4392, 17.2719], [78.4397, 17.2721], [78.4399, 17.2721], [78.4401, 17.272], [78.4404, 17.272], [78.4412, 17.2721], [78.4429, 17.2721], [78.445, 17.2721], [78.4465, 17.272], [78.4485, 17.272], [78.4494, 17.2721], [78.45, 17.2722], [78.4504, 17.2722], [78.4508, 17.2722], [78.4514, 17.2723], [78.452, 17.2722], [78.4526, 17.2723], [78.4533, 17.2724], [78.4539, 17.2724], [78.4543, 17.2724], [78.4548, 17.2723], [78.4551, 17.2723], [78.4556, 17.2723], [78.4564, 17.2723], [78.4577, 17.2723], [78.4585, 17.2722], [78.4591, 17.2722], [78.4593, 17.2723], [78.4597, 17.2728], [78.4602, 17.273], [78.4611, 17.2731], [78.4614, 17.2732], [78.4623, 17.2732], [78.4629, 17.2733], [78.4626, 17.2726], [78.4628, 17.2719], [78.463, 17.2712], [78.4632, 17.2704], [78.4631, 17.2698], [78.4633, 17.2695], [78.4633, 17.2693], [78.4635, 17.2688], [78.4637, 17.2687], [78.4643, 17.2685], [78.4647, 17.2679]]]}, "properties": {"objectid": 66693, "statename": "Telanagana", "statecode": "36", "districtname": "Rangareddy", "districtcode": "537", "ulbname": "Badangpet", "ulbcode": "900070", "wardname": "Mamidipally", "wardcode": "12", "id": null, "status": "APPROVED", "misglobalid": null, "approved_by": null, "createdate": 1640688893000, "updateddate": 1641289869000, "globalid": null, "gisglobalid": "asP6lnll-os44-PB5n-anoP-dKBQsKc4dlcK", "remark": "", "st_area(shape)": 0.0005346465605806948, "st_perimeter(shape)": 0.1563195690273522}}, {"type": "Feature", "geometry": {"type": "MultiPolygon", "coordinates": [[[[78.4974, 17.2721], [78.4956, 17.2708], [78.4939, 17.2709], [78.4908, 17.2711], [78.4906, 17.2703], [78.4904, 17.2698], [78.4884, 17.2691], [78.4862, 17.2686], [78.4853, 17.2686], [78.4843, 17.2688], [78.4847, 17.2696], [78.4852, 17.2701], [78.4854, 17.2706], [78.4857, 17.2709], [78.486, 17.2714], [78.4863, 17.2718], [78.4865, 17.2724], [78.4868, 17.2731], [78.4872, 17.2742], [78.4877, 17.2753], [78.4887, 17.2773], [78.4889, 17.2782], [78.4899, 17.2797], [78.4901, 17.2804], [78.4902, 17.2806], [78.4903, 17.2808], [78.4908, 17.2813], [78.4917, 17.2819], [78.4927, 17.2832], [78.4935, 17.2821], [78.4942, 17.2815], [78.4949, 17.2807], [78.4953, 17.2805], [78.4961, 17.2803], [78.4971, 17.28], [78.4972, 17.2799], [78.4975, 17.2797], [78.4977, 17.2792], [78.498, 17.2787], [78.4982, 17.2782], [78.4985, 17.2777], [78.4986, 17.2775], [78.4986, 17.2772], [78.4986, 17.2771], [78.4986, 17.2758], [78.4986, 17.2738], [78.4985, 17.2729], [78.4974, 17.2721]]], [[[78.4659, 17.264], [78.4669, 17.2616], [78.4594, 17.2609], [78.4572, 17.2607], [78.4569, 17.2592], [78.4569, 17.2588], [78.4563, 17.2589], [78.4559, 17.259], [78.4558, 17.2588], [78.4557, 17.2583], [78.4552, 17.2577], [78.4547, 17.2572], [78.4542, 17.2571], [78.4538, 17.2572], [78.4538, 17.2578], [78.4543, 17.2579], [78.4543, 17.2588], [78.4553, 17.2591], [78.4552, 17.2592], [78.455, 17.2595], [78.4542, 17.2613], [78.4544, 17.2615], [78.4547, 17.2616], [78.455, 17.2617], [78.455, 17.2632], [78.4552, 17.2635], [78.4575, 17.2619], [78.4583, 17.2634], [78.4587, 17.2642], [78.459, 17.2645], [78.4591, 17.2647], [78.4594, 17.2648], [78.4597, 17.2648], [78.4599, 17.2649], [78.4601, 17.2651], [78.4602, 17.2654], [78.4604, 17.2656], [78.4606, 17.2657], [78.4628, 17.2668], [78.4647, 17.2679], [78.4653, 17.2683], [78.4656, 17.2671], [78.4659, 17.2647], [78.4659, 17.264]]]]}, "properties": {"objectid": 72908, "statename": "Telangana", "statecode": "36", "districtname": "Rangareddy", "districtcode": "537", "ulbname": "Badangpet", "ulbcode": "900070", "wardname": " Venkatapur", "wardcode": "13", "id": null, "status": "APPROVED", "misglobalid": null, "approved_by": null, "createdate": 1641817144000, "updateddate": 1644565630000, "globalid": null, "gisglobalid": "saKRBKoR-Qsa6-Pssm-QR4a-B5BadBKKQBPa", "remark": "", "st_area(shape)": 0.00016638700411342988, "st_perimeter(shape)": 0.09061724409205849}}, {"type": "Feature", "geometry": {"type": "Polygon", "coordinates": [[[78.5005, 17.2948], [78.5, 17.2936], [78.4998, 17.2932], [78.4995, 17.2926], [78.4987, 17.2917], [78.4985, 17.2914], [78.4979, 17.2907], [78.4975, 17.2902], [78.4973, 17.2899], [78.4972, 17.2897], [78.4972, 17.2894], [78.4972, 17.2888], [78.4973, 17.2881], [78.4972, 17.2877], [78.497, 17.2866], [78.4969, 17.2859], [78.4968, 17.2851], [78.4968, 17.2847], [78.497, 17.2837], [78.4971, 17.2832], [78.4971, 17.2826], [78.4972, 17.2816], [78.4972, 17.281], [78.4973, 17.2804], [78.4975, 17.2797], [78.4972, 17.2799], [78.4971, 17.28], [78.4961, 17.2803], [78.4953, 17.2805], [78.4949, 17.2807], [78.4942, 17.2815], [78.4935, 17.2821], [78.4927, 17.2832], [78.4928, 17.2833], [78.4931, 17.2836], [78.4933, 17.2841], [78.4934, 17.2844], [78.4911, 17.2853], [78.4937, 17.2862], [78.495, 17.2873], [78.4953, 17.2895], [78.4952, 17.2896], [78.4952, 17.29], [78.4948, 17.2899], [78.4943, 17.2918], [78.4932, 17.2918], [78.4932, 17.292], [78.4923, 17.2914], [78.4917, 17.2912], [78.492, 17.2904], [78.4921, 17.2901], [78.4923, 17.29], [78.4931, 17.2899], [78.4931, 17.2896], [78.4931, 17.2887], [78.4925, 17.2885], [78.4927, 17.288], [78.4928, 17.2878], [78.4925, 17.2873], [78.4924, 17.287], [78.4921, 17.2869], [78.4922, 17.2864], [78.4898, 17.2858], [78.4892, 17.2857], [78.4875, 17.2854], [78.4869, 17.2854], [78.4847, 17.285], [78.4831, 17.2847], [78.4817, 17.2843], [78.4805, 17.2838], [78.4797, 17.2833], [78.4793, 17.2826], [78.4778, 17.2834], [78.4782, 17.2849], [78.4786, 17.2861], [78.479, 17.2871], [78.4796, 17.2877], [78.4802, 17.2884], [78.481, 17.2891], [78.4816, 17.2897], [78.4824, 17.2902], [78.4832, 17.2905], [78.4837, 17.2907], [78.4842, 17.291], [78.4848, 17.2913], [78.4853, 17.2915], [78.4854, 17.2917], [78.4862, 17.2921], [78.4868, 17.2922], [78.4876, 17.2928], [78.4875, 17.2931], [78.4875, 17.2932], [78.4883, 17.2938], [78.4881, 17.294], [78.4883, 17.2945], [78.4889, 17.2958], [78.4891, 17.2971], [78.4892, 17.2976], [78.4895, 17.2977], [78.4897, 17.2977], [78.4906, 17.2976], [78.4907, 17.2978], [78.491, 17.2977], [78.491, 17.2979], [78.4908, 17.2981], [78.4909, 17.2992], [78.4913, 17.2991], [78.4918, 17.2991], [78.492, 17.299], [78.4922, 17.2991], [78.4923, 17.2992], [78.4924, 17.2993], [78.4925, 17.2995], [78.4925, 17.2998], [78.4925, 17.2999], [78.4926, 17.2999], [78.4928, 17.299], [78.4933, 17.2981], [78.493, 17.2976], [78.4928, 17.2971], [78.4932, 17.2969], [78.4939, 17.2968], [78.4942, 17.2967], [78.4948, 17.2958], [78.4948, 17.2957], [78.4953, 17.2947], [78.4973, 17.2943], [78.4976, 17.2943], [78.4982, 17.2944], [78.4985, 17.2945], [78.4998, 17.2947], [78.5001, 17.2948], [78.5005, 17.2948]]]}, "properties": {"objectid": 61095, "statename": "Telanagana", "statecode": "36", "districtname": "Rangareddy", "districtcode": "537", "ulbname": "Badangpet", "ulbcode": "900070", "wardname": "Venkatapur", "wardcode": "14", "id": null, "status": "APPROVED", "misglobalid": null, "approved_by": null, "createdate": 1640688893000, "updateddate": 1641289876000, "globalid": null, "gisglobalid": "sQcBd5oB-BPB6-PKaP-aaco-aomoBccsRmn5", "remark": "", "st_area(shape)": 0.00017229354394239973, "st_perimeter(shape)": 0.0985612411536219}}, {"type": "Feature", "geometry": {"type": "Polygon", "coordinates": [[[78.4976, 17.3105], [78.4975, 17.3093], [78.4974, 17.3083], [78.4975, 17.3081], [78.4972, 17.3079], [78.497, 17.3076], [78.4968, 17.3075], [78.4967, 17.3074], [78.4967, 17.3073], [78.4969, 17.3071], [78.4969, 17.307], [78.4971, 17.307], [78.4973, 17.3068], [78.4975, 17.3067], [78.4976, 17.3067], [78.4978, 17.3067], [78.4978, 17.3069], [78.4983, 17.3071], [78.4986, 17.307], [78.4988, 17.3068], [78.499, 17.3065], [78.4993, 17.3061], [78.4993, 17.3058], [78.4995, 17.3058], [78.4998, 17.3061], [78.4999, 17.3069], [78.5, 17.308], [78.4996, 17.3081], [78.4993, 17.3082], [78.4991, 17.3082], [78.4992, 17.3087], [78.4992, 17.3088], [78.4992, 17.3089], [78.4992, 17.309], [78.4992, 17.3092], [78.4995, 17.3091], [78.4996, 17.3092], [78.4997, 17.3092], [78.4998, 17.3092], [78.4999, 17.3092], [78.5001, 17.3092], [78.5002, 17.3092], [78.5004, 17.3092], [78.5006, 17.3092], [78.5007, 17.309], [78.5008, 17.3089], [78.5008, 17.3088], [78.5009, 17.3087], [78.5011, 17.3087], [78.5025, 17.3085], [78.5037, 17.3083], [78.5041, 17.3083], [78.5042, 17.3083], [78.5041, 17.3076], [78.5039, 17.3068], [78.5038, 17.3057], [78.5042, 17.3051], [78.5049, 17.3043], [78.5047, 17.3038], [78.5044, 17.3027], [78.504, 17.3016], [78.5035, 17.3006], [78.5033, 17.3001], [78.5025, 17.2982], [78.5021, 17.2974], [78.5017, 17.2968], [78.5012, 17.2962], [78.5009, 17.2957], [78.5005, 17.2948], [78.5001, 17.2948], [78.4998, 17.2947], [78.4985, 17.2945], [78.4982, 17.2944], [78.4976, 17.2943], [78.4973, 17.2943], [78.4953, 17.2947], [78.4948, 17.2957], [78.4948, 17.2958], [78.4942, 17.2967], [78.4939, 17.2968], [78.4932, 17.2969], [78.4928, 17.2971], [78.493, 17.2976], [78.4933, 17.2981], [78.4928, 17.299], [78.4926, 17.2999], [78.4929, 17.2999], [78.4933, 17.2997], [78.4936, 17.2999], [78.4941, 17.3012], [78.4942, 17.3017], [78.4943, 17.3018], [78.4945, 17.3019], [78.4947, 17.302], [78.4948, 17.302], [78.4949, 17.302], [78.495, 17.302], [78.4951, 17.302], [78.4952, 17.3022], [78.4952, 17.3024], [78.4951, 17.3027], [78.4951, 17.3029], [78.4951, 17.303], [78.4951, 17.3031], [78.4951, 17.3032], [78.4952, 17.3033], [78.4953, 17.3032], [78.4954, 17.3031], [78.4955, 17.3031], [78.4957, 17.3031], [78.4958, 17.303], [78.496, 17.3028], [78.4961, 17.3026], [78.4961, 17.3025], [78.4961, 17.3024], [78.4962, 17.3023], [78.4963, 17.3022], [78.4963, 17.302], [78.4964, 17.302], [78.4965, 17.3021], [78.4966, 17.3022], [78.4967, 17.3023], [78.4967, 17.3024], [78.4967, 17.3025], [78.4966, 17.3025], [78.4967, 17.3027], [78.4969, 17.3028], [78.497, 17.3028], [78.4971, 17.3028], [78.4972, 17.3028], [78.4972, 17.303], [78.4973, 17.3032], [78.4973, 17.3033], [78.4974, 17.3035], [78.4973, 17.3036], [78.4973, 17.3038], [78.4971, 17.3038], [78.497, 17.3038], [78.4969, 17.3038], [78.4969, 17.304], [78.4968, 17.304], [78.4965, 17.304], [78.4963, 17.3039], [78.496, 17.304], [78.4959, 17.304], [78.4957, 17.304], [78.4955, 17.304], [78.4954, 17.3041], [78.4954, 17.3042], [78.4952, 17.3045], [78.495, 17.3048], [78.495, 17.3049], [78.4949, 17.305], [78.495, 17.305], [78.4951, 17.3051], [78.4951, 17.3052], [78.4952, 17.3052], [78.4953, 17.3052], [78.4954, 17.3052], [78.4955, 17.3053], [78.4956, 17.3053], [78.4957, 17.3053], [78.4959, 17.3053], [78.496, 17.3053], [78.4961, 17.3053], [78.4962, 17.3053], [78.4963, 17.3054], [78.4963, 17.3055], [78.4962, 17.3055], [78.4961, 17.3056], [78.4958, 17.3056], [78.4957, 17.3056], [78.4956, 17.3056], [78.4955, 17.3057], [78.4954, 17.3058], [78.4954, 17.3059], [78.4954, 17.306], [78.4954, 17.3061], [78.4954, 17.3062], [78.4953, 17.3064], [78.4951, 17.3064], [78.495, 17.3065], [78.4949, 17.3066], [78.4949, 17.3067], [78.4948, 17.3069], [78.4947, 17.3071], [78.4946, 17.3072], [78.4945, 17.3073], [78.4944, 17.3075], [78.4946, 17.3074], [78.4946, 17.3077], [78.4946, 17.308], [78.4945, 17.3081], [78.4944, 17.3085], [78.4946, 17.3086], [78.4944, 17.3091], [78.4942, 17.3098], [78.4943, 17.31], [78.4941, 17.31], [78.4938, 17.3102], [78.4941, 17.3106], [78.4944, 17.3107], [78.4944, 17.3108], [78.4946, 17.3108], [78.4955, 17.3106], [78.4954, 17.3102], [78.4964, 17.3099], [78.4965, 17.3103], [78.4968, 17.3103], [78.497, 17.3116], [78.4972, 17.3123], [78.4978, 17.3122], [78.4978, 17.3118], [78.4976, 17.3105]]]}, "properties": {"objectid": 61091, "statename": "Telanagana", "statecode": "36", "districtname": "Rangareddy", "districtcode": "537", "ulbname": "Badangpet", "ulbcode": "900070", "wardname": "Ballapur", "wardcode": "15", "id": null, "status": "APPROVED", "misglobalid": null, "approved_by": null, "createdate": 1640688893000, "updateddate": 1641289882000, "globalid": null, "gisglobalid": "daQRsQBK-o6na-Po5K-QQom-mP6BPPmPRmBa", "remark": "", "st_area(shape)": 0.00012473563705564842, "st_perimeter(shape)": 0.07351730799996772}}, {"type": "Feature", "geometry": {"type": "Polygon", "coordinates": [[[78.4996, 17.3105], [78.4999, 17.3104], [78.5001, 17.3103], [78.5002, 17.3103], [78.5005, 17.3103], [78.5007, 17.3102], [78.5008, 17.31], [78.5025, 17.3095], [78.5033, 17.3094], [78.5044, 17.3093], [78.5042, 17.3083], [78.5041, 17.3083], [78.5037, 17.3083], [78.5025, 17.3085], [78.5011, 17.3087], [78.5009, 17.3087], [78.5008, 17.3088], [78.5008, 17.3089], [78.5007, 17.309], [78.5006, 17.3092], [78.5004, 17.3092], [78.5002, 17.3092], [78.5001, 17.3092], [78.4999, 17.3092], [78.4998, 17.3092], [78.4997, 17.3092], [78.4996, 17.3092], [78.4995, 17.3091], [78.4992, 17.3092], [78.4992, 17.309], [78.4992, 17.3089], [78.4992, 17.3088], [78.4992, 17.3087], [78.4991, 17.3082], [78.4993, 17.3082], [78.4996, 17.3081], [78.5, 17.308], [78.4999, 17.3069], [78.4998, 17.3061], [78.4995, 17.3058], [78.4993, 17.3058], [78.4993, 17.3061], [78.499, 17.3065], [78.4988, 17.3068], [78.4986, 17.307], [78.4983, 17.3071], [78.4978, 17.3069], [78.4978, 17.3067], [78.4976, 17.3067], [78.4975, 17.3067], [78.4973, 17.3068], [78.4971, 17.307], [78.4969, 17.307], [78.4969, 17.3071], [78.4967, 17.3073], [78.4967, 17.3074], [78.4968, 17.3075], [78.497, 17.3076], [78.4972, 17.3079], [78.4975, 17.3081], [78.4974, 17.3083], [78.4975, 17.3093], [78.4976, 17.3105], [78.4983, 17.3105], [78.4985, 17.3104], [78.4989, 17.3105], [78.4994, 17.3106], [78.4996, 17.3105]]]}, "properties": {"objectid": 66692, "statename": "Telanagana", "statecode": "36", "districtname": "Rangareddy", "districtcode": "537", "ulbname": "Badangpet", "ulbcode": "900070", "wardname": "Balapur", "wardcode": "16", "id": null, "status": "APPROVED", "misglobalid": null, "approved_by": null, "createdate": 1640688893000, "updateddate": 1641289887000, "globalid": null, "gisglobalid": "lPaKnnc5-5n5s-PR4Q-sm4B-BaQmndBRR6KK", "remark": "", "st_area(shape)": 1.3920053317824477e-05, "st_perimeter(shape)": 0.025138641300145075}}, {"type": "Feature", "geometry": {"type": "Polygon", "coordinates": [[[78.4985, 17.3136], [78.4987, 17.3136], [78.4987, 17.3137], [78.4992, 17.3136], [78.4994, 17.3135], [78.4995, 17.3145], [78.4997, 17.3144], [78.501, 17.3144], [78.5041, 17.314], [78.5045, 17.3135], [78.5048, 17.3135], [78.506, 17.3134], [78.5064, 17.3128], [78.5065, 17.3126], [78.5064, 17.3124], [78.5064, 17.3119], [78.5064, 17.3097], [78.5062, 17.3091], [78.5056, 17.3067], [78.5049, 17.3043], [78.5042, 17.3051], [78.5038, 17.3057], [78.5039, 17.3068], [78.5041, 17.3076], [78.5042, 17.3083], [78.5044, 17.3093], [78.5033, 17.3094], [78.5025, 17.3095], [78.5008, 17.31], [78.5007, 17.3102], [78.5005, 17.3103], [78.5002, 17.3103], [78.5001, 17.3103], [78.4999, 17.3104], [78.4996, 17.3105], [78.4994, 17.3106], [78.4989, 17.3105], [78.4985, 17.3104], [78.4983, 17.3105], [78.4976, 17.3105], [78.4978, 17.3118], [78.4978, 17.3122], [78.4972, 17.3123], [78.497, 17.3116], [78.4968, 17.3103], [78.4965, 17.3103], [78.4964, 17.3099], [78.4954, 17.3102], [78.4955, 17.3106], [78.4946, 17.3108], [78.4944, 17.3108], [78.4945, 17.3111], [78.4956, 17.3111], [78.4964, 17.311], [78.4966, 17.3109], [78.4967, 17.3109], [78.4968, 17.3109], [78.4968, 17.3116], [78.4969, 17.3123], [78.4971, 17.3129], [78.4972, 17.3136], [78.4968, 17.3148], [78.4969, 17.3149], [78.4972, 17.3146], [78.4977, 17.314], [78.4978, 17.3139], [78.4979, 17.3138], [78.498, 17.3138], [78.4985, 17.3137], [78.4985, 17.3136]]]}, "properties": {"objectid": 65530, "statename": "Telanagana", "statecode": "36", "districtname": "Rangareddy", "districtcode": "537", "ulbname": "Badangpet", "ulbcode": "900070", "wardname": "Balapur", "wardcode": "17", "id": null, "status": "APPROVED", "misglobalid": null, "approved_by": null, "createdate": 1640688893000, "updateddate": 1641289894000, "globalid": null, "gisglobalid": "RRn465mR-omnK-PBms-QdBR-sRQdsB6scllR", "remark": "", "st_area(shape)": 4.631141183956942e-05, "st_perimeter(shape)": 0.047339964449909226}}, {"type": "Feature", "geometry": {"type": "Polygon", "coordinates": [[[78.5133, 17.3133], [78.513, 17.3111], [78.513, 17.3109], [78.5133, 17.3104], [78.5137, 17.3096], [78.514, 17.3089], [78.5144, 17.3086], [78.5142, 17.3074], [78.5149, 17.306], [78.515, 17.3059], [78.515, 17.3057], [78.5149, 17.3054], [78.5154, 17.3052], [78.5153, 17.3039], [78.5153, 17.303], [78.515, 17.3016], [78.515, 17.301], [78.515, 17.3004], [78.515, 17.2999], [78.5151, 17.2994], [78.5154, 17.299], [78.5156, 17.2974], [78.5155, 17.2973], [78.5152, 17.2952], [78.5138, 17.2943], [78.5144, 17.294], [78.514, 17.2931], [78.5131, 17.2909], [78.5128, 17.2904], [78.5124, 17.2896], [78.5122, 17.2889], [78.5117, 17.2874], [78.5115, 17.2868], [78.5114, 17.2865], [78.511, 17.2856], [78.5108, 17.2844], [78.5104, 17.2832], [78.5091, 17.2826], [78.5081, 17.2822], [78.5071, 17.2802], [78.507, 17.2798], [78.5068, 17.2794], [78.5062, 17.2786], [78.5061, 17.2784], [78.505, 17.2777], [78.5044, 17.2771], [78.504, 17.2765], [78.5038, 17.2766], [78.5036, 17.2766], [78.5025, 17.2766], [78.5014, 17.2767], [78.5012, 17.2767], [78.501, 17.2767], [78.5007, 17.2767], [78.499, 17.2777], [78.4982, 17.2782], [78.498, 17.2787], [78.4977, 17.2792], [78.4975, 17.2797], [78.4973, 17.2804], [78.4972, 17.281], [78.4972, 17.2816], [78.4971, 17.2826], [78.4971, 17.2832], [78.497, 17.2837], [78.4968, 17.2847], [78.4968, 17.2851], [78.4969, 17.2859], [78.497, 17.2866], [78.4972, 17.2877], [78.4973, 17.2881], [78.4972, 17.2888], [78.4972, 17.2894], [78.4972, 17.2897], [78.4973, 17.2899], [78.4975, 17.2902], [78.4979, 17.2907], [78.4985, 17.2914], [78.4987, 17.2917], [78.4995, 17.2926], [78.4998, 17.2932], [78.5, 17.2936], [78.5005, 17.2948], [78.5009, 17.2957], [78.5012, 17.2962], [78.5017, 17.2968], [78.5021, 17.2974], [78.5025, 17.2982], [78.5033, 17.3001], [78.5035, 17.3006], [78.504, 17.3016], [78.5044, 17.3027], [78.5047, 17.3038], [78.5049, 17.3043], [78.5056, 17.3067], [78.5062, 17.3091], [78.5064, 17.3097], [78.5064, 17.3119], [78.5064, 17.3124], [78.5065, 17.3126], [78.5072, 17.3126], [78.5075, 17.3127], [78.5075, 17.313], [78.508, 17.3131], [78.508, 17.3135], [78.5075, 17.3133], [78.5072, 17.3139], [78.5071, 17.3143], [78.5073, 17.3144], [78.5077, 17.3145], [78.5078, 17.3147], [78.5079, 17.3147], [78.5081, 17.3148], [78.5081, 17.3151], [78.5084, 17.3153], [78.5093, 17.3157], [78.5103, 17.3161], [78.5109, 17.3162], [78.5107, 17.3156], [78.5109, 17.3147], [78.511, 17.3143], [78.5121, 17.314], [78.5133, 17.3138], [78.5133, 17.3133]]]}, "properties": {"objectid": 64338, "statename": "Telanagana", "statecode": "36", "districtname": "Rangareddy", "districtcode": "537", "ulbname": "Badangpet", "ulbcode": "900070", "wardname": "Balapur", "wardcode": "18", "id": null, "status": "APPROVED", "misglobalid": null, "approved_by": null, "createdate": 1640688893000, "updateddate": 1641289901000, "globalid": null, "gisglobalid": "6a6ncBKK-Rmdm-P4nQ-Qcld-mcnQPsnc4dP5", "remark": "", "st_area(shape)": 0.0004244625131423978, "st_perimeter(shape)": 0.09906766396118467}}, {"type": "Feature", "geometry": {"type": "Polygon", "coordinates": [[[78.5209, 17.3133], [78.5204, 17.3118], [78.5208, 17.3109], [78.5207, 17.3107], [78.5206, 17.3105], [78.5205, 17.3106], [78.5201, 17.3106], [78.5201, 17.3103], [78.5199, 17.3103], [78.5197, 17.3091], [78.5194, 17.3089], [78.5191, 17.3081], [78.5189, 17.3074], [78.5187, 17.3059], [78.5173, 17.306], [78.515, 17.306], [78.5149, 17.306], [78.5142, 17.3074], [78.5144, 17.3086], [78.514, 17.3089], [78.5137, 17.3096], [78.5133, 17.3104], [78.513, 17.3109], [78.513, 17.3111], [78.5133, 17.3133], [78.5135, 17.3133], [78.5141, 17.3134], [78.5148, 17.3134], [78.5157, 17.3134], [78.5163, 17.3133], [78.5167, 17.3134], [78.5171, 17.3133], [78.518, 17.3133], [78.5193, 17.3133], [78.5208, 17.3133], [78.5209, 17.3133]]]}, "properties": {"objectid": 66694, "statename": "Telanagana", "statecode": "36", "districtname": "Rangareddy", "districtcode": "537", "ulbname": "Badangpet", "ulbcode": "900070", "wardname": "Nadergul", "wardcode": "19", "id": null, "status": "APPROVED", "misglobalid": null, "approved_by": null, "createdate": 1640688893000, "updateddate": 1641289908000, "globalid": null, "gisglobalid": "d44KKQo6-s4KQ-PmQc-QBnQ-s5m55sd4BKnB", "remark": "", "st_area(shape)": 4.414081490750729e-05, "st_perimeter(shape)": 0.027810343039334808}}, {"type": "Feature", "geometry": {"type": "Polygon", "coordinates": [[[78.5241, 17.3099], [78.5245, 17.3097], [78.5248, 17.309], [78.5251, 17.3078], [78.5252, 17.3073], [78.5253, 17.3072], [78.5253, 17.3066], [78.5253, 17.3051], [78.524, 17.3051], [78.524, 17.3061], [78.5231, 17.3061], [78.5231, 17.3063], [78.5223, 17.3061], [78.5219, 17.3063], [78.5222, 17.3068], [78.5224, 17.3076], [78.5223, 17.3076], [78.5224, 17.308], [78.5225, 17.308], [78.5224, 17.3084], [78.5197, 17.3091], [78.5199, 17.3103], [78.5201, 17.3103], [78.5201, 17.3106], [78.5205, 17.3106], [78.5206, 17.3105], [78.5207, 17.3107], [78.5208, 17.3109], [78.5204, 17.3118], [78.5209, 17.3133], [78.521, 17.3133], [78.5226, 17.3134], [78.5229, 17.3134], [78.5233, 17.3103], [78.5234, 17.3102], [78.5236, 17.3101], [78.5241, 17.3099]]]}, "properties": {"objectid": 65532, "statename": "Telanagana", "statecode": "36", "districtname": "Rangareddy", "districtcode": "537", "ulbname": "Badangpet", "ulbcode": "900070", "wardname": "Badangpet", "wardcode": "20", "id": null, "status": "APPROVED", "misglobalid": null, "approved_by": null, "createdate": 1640688893000, "updateddate": 1641289913000, "globalid": null, "gisglobalid": "4Pnl6dln-l6lo-PlRm-a6RP-BPPamnaalasP", "remark": "", "st_area(shape)": 2.3488941350594072e-05, "st_perimeter(shape)": 0.0260404718538117}}, {"type": "Feature", "geometry": {"type": "Polygon", "coordinates": [[[78.526, 17.3135], [78.5253, 17.3123], [78.5258, 17.3114], [78.5258, 17.3113], [78.5265, 17.3111], [78.5267, 17.3108], [78.5276, 17.3108], [78.5276, 17.3106], [78.5272, 17.3097], [78.5273, 17.3095], [78.5277, 17.3089], [78.5277, 17.3082], [78.5281, 17.3082], [78.5281, 17.3085], [78.5283, 17.3085], [78.5285, 17.3082], [78.5285, 17.307], [78.5279, 17.307], [78.5277, 17.3071], [78.5268, 17.3073], [78.5266, 17.3074], [78.5264, 17.3073], [78.5262, 17.3073], [78.5261, 17.3072], [78.5258, 17.3072], [78.5253, 17.3072], [78.5252, 17.3073], [78.5251, 17.3078], [78.5248, 17.309], [78.5245, 17.3097], [78.5241, 17.3099], [78.5236, 17.3101], [78.5234, 17.3102], [78.5233, 17.3103], [78.5229, 17.3134], [78.5236, 17.3134], [78.525, 17.3135], [78.5258, 17.3135], [78.526, 17.3135]]]}, "properties": {"objectid": 61094, "statename": "Telanagana", "statecode": "36", "districtname": "Rangareddy", "districtcode": "537", "ulbname": "Badangpet", "ulbcode": "900070", "wardname": "Badangpet", "wardcode": "21", "id": null, "status": "APPROVED", "misglobalid": null, "approved_by": null, "createdate": 1640688893000, "updateddate": 1641289942000, "globalid": null, "gisglobalid": "cmB5daQR-RB5s-PRsB-QP4P-cadsooQaKod5", "remark": "", "st_area(shape)": 1.9077104639063097e-05, "st_perimeter(shape)": 0.023116238418091333}}, {"type": "Feature", "geometry": {"type": "Polygon", "coordinates": [[[78.5285, 17.307], [78.5288, 17.3069], [78.5291, 17.3067], [78.5294, 17.3067], [78.5295, 17.3065], [78.5299, 17.3062], [78.5301, 17.306], [78.5303, 17.3059], [78.5315, 17.306], [78.5315, 17.3058], [78.5314, 17.3046], [78.5318, 17.3044], [78.5319, 17.304], [78.5319, 17.3037], [78.5315, 17.3037], [78.5309, 17.3038], [78.5301, 17.3039], [78.5301, 17.3035], [78.5304, 17.3035], [78.5303, 17.3027], [78.5297, 17.3029], [78.5294, 17.3029], [78.5294, 17.3028], [78.5282, 17.303], [78.5282, 17.3033], [78.5276, 17.3033], [78.5276, 17.304], [78.5276, 17.3047], [78.5276, 17.3052], [78.5277, 17.3056], [78.5277, 17.3061], [78.5276, 17.3061], [78.5276, 17.3065], [78.5277, 17.3071], [78.5279, 17.307], [78.5285, 17.307]]]}, "properties": {"objectid": 64336, "statename": "Telanagana", "statecode": "36", "districtname": "Rangareddy", "districtcode": "537", "ulbname": "Badangpet", "ulbcode": "900070", "wardname": "Badangpet", "wardcode": "22", "id": null, "status": "APPROVED", "misglobalid": null, "approved_by": null, "createdate": 1640688893000, "updateddate": 1641289948000, "globalid": null, "gisglobalid": "PaR55scR-6RoQ-PK5s-QRQc-6aBPKKmsPsom", "remark": "", "st_area(shape)": 1.2729179275046981e-05, "st_perimeter(shape)": 0.017051072562031568}}, {"type": "Feature", "geometry": {"type": "Polygon", "coordinates": [[[78.5355, 17.305], [78.5363, 17.3032], [78.537, 17.302], [78.5377, 17.3004], [78.5377, 17.3002], [78.5378, 17.3001], [78.5379, 17.2996], [78.5382, 17.2991], [78.536, 17.2984], [78.5341, 17.2978], [78.5325, 17.2978], [78.5323, 17.2977], [78.5323, 17.2976], [78.5313, 17.2989], [78.5311, 17.2992], [78.5308, 17.2993], [78.5305, 17.2994], [78.5292, 17.2994], [78.5288, 17.2994], [78.5284, 17.2995], [78.5281, 17.2997], [78.5279, 17.2999], [78.5267, 17.3015], [78.5257, 17.3027], [78.5256, 17.3028], [78.5254, 17.3032], [78.5253, 17.3034], [78.5253, 17.3036], [78.5265, 17.3035], [78.5266, 17.3038], [78.5266, 17.304], [78.5276, 17.304], [78.5276, 17.3033], [78.5282, 17.3033], [78.5282, 17.303], [78.5294, 17.3028], [78.5294, 17.3029], [78.5297, 17.3029], [78.5303, 17.3027], [78.5304, 17.3035], [78.5301, 17.3035], [78.5301, 17.3039], [78.5309, 17.3038], [78.5315, 17.3037], [78.5319, 17.3037], [78.5319, 17.304], [78.5318, 17.3044], [78.5314, 17.3046], [78.5315, 17.3058], [78.5315, 17.306], [78.5328, 17.3058], [78.5338, 17.3056], [78.5343, 17.3054], [78.5355, 17.305]]]}, "properties": {"objectid": 64782, "statename": "Telanagana", "statecode": "36", "districtname": "Rangareddy", "districtcode": "537", "ulbname": "Badangpet", "ulbcode": "900070", "wardname": "Badangpet", "wardcode": "23", "id": null, "status": "APPROVED", "misglobalid": null, "approved_by": null, "createdate": 1640688893000, "updateddate": 1641289954000, "globalid": null, "gisglobalid": "amoQdR6o-aBcB-Pana-RsR6-K6BmQRBQR6BP", "remark": "", "st_area(shape)": 5.902290354101383e-05, "st_perimeter(shape)": 0.039232121957709185}}, {"type": "Feature", "geometry": {"type": "Polygon", "coordinates": [[[78.5443, 17.3044], [78.5445, 17.3042], [78.5444, 17.3041], [78.5446, 17.303], [78.5454, 17.303], [78.5458, 17.303], [78.5457, 17.3024], [78.5452, 17.3006], [78.5449, 17.2987], [78.5449, 17.2985], [78.5441, 17.2982], [78.544, 17.2987], [78.5441, 17.2992], [78.5435, 17.2994], [78.5433, 17.2991], [78.5401, 17.2986], [78.5399, 17.2999], [78.5395, 17.2998], [78.5388, 17.2996], [78.5387, 17.2999], [78.5385, 17.2998], [78.5384, 17.3003], [78.5377, 17.3002], [78.5377, 17.3004], [78.537, 17.302], [78.5363, 17.3032], [78.5355, 17.305], [78.5361, 17.306], [78.5363, 17.3054], [78.5369, 17.3038], [78.5373, 17.3032], [78.5384, 17.3046], [78.5391, 17.3041], [78.5431, 17.3052], [78.5443, 17.3044]]]}, "properties": {"objectid": 64781, "statename": "Telanagana", "statecode": "36", "districtname": "Rangareddy", "districtcode": "537", "ulbname": "Badangpet", "ulbcode": "900070", "wardname": "Almasguda", "wardcode": "24", "id": null, "status": "APPROVED", "misglobalid": null, "approved_by": null, "createdate": 1640688893000, "updateddate": 1641289962000, "globalid": null, "gisglobalid": "B4aoR4PR-dRsd-PsB5-s4mK-a55Q6Q4ad5sP", "remark": "", "st_area(shape)": 4.435329358812522e-05, "st_perimeter(shape)": 0.03540408677951904}}, {"type": "Feature", "geometry": {"type": "Polygon", "coordinates": [[[78.5441, 17.2982], [78.5402, 17.2972], [78.5404, 17.2965], [78.5406, 17.2966], [78.5407, 17.2962], [78.5411, 17.2963], [78.541, 17.2951], [78.54, 17.2955], [78.5393, 17.2969], [78.5392, 17.297], [78.5386, 17.2985], [78.5384, 17.2989], [78.5382, 17.2991], [78.5379, 17.2996], [78.5378, 17.3001], [78.5377, 17.3002], [78.5384, 17.3003], [78.5385, 17.2998], [78.5387, 17.2999], [78.5388, 17.2996], [78.5395, 17.2998], [78.5399, 17.2999], [78.5401, 17.2986], [78.5433, 17.2991], [78.5435, 17.2994], [78.5441, 17.2992], [78.544, 17.2987], [78.5441, 17.2982]]]}, "properties": {"objectid": 61088, "statename": "Telanagana", "statecode": "36", "districtname": "Rangareddy", "districtcode": "537", "ulbname": "Badangpet", "ulbcode": "900070", "wardname": "Almasguda", "wardcode": "25", "id": null, "status": "APPROVED", "misglobalid": null, "approved_by": null, "createdate": 1640688893000, "updateddate": 1641289969000, "globalid": null, "gisglobalid": "PBRRsKPs-dncs-Psc5-slKc-mnRll45m54RP", "remark": "", "st_area(shape)": 1.13012931905319e-05, "st_perimeter(shape)": 0.02247667434150157}}, {"type": "Feature", "geometry": {"type": "Polygon", "coordinates": [[[78.5565, 17.3089], [78.5553, 17.3074], [78.5536, 17.3048], [78.5534, 17.3041], [78.5527, 17.3029], [78.5523, 17.3019], [78.551, 17.3003], [78.5537, 17.2997], [78.5551, 17.2997], [78.5556, 17.2997], [78.5563, 17.2998], [78.5572, 17.2998], [78.5574, 17.2998], [78.5571, 17.2991], [78.5569, 17.2987], [78.5568, 17.2985], [78.5564, 17.2981], [78.5559, 17.2976], [78.5579, 17.2966], [78.559, 17.296], [78.5605, 17.2953], [78.5578, 17.2908], [78.5572, 17.2897], [78.5604, 17.2886], [78.5598, 17.2873], [78.5593, 17.2862], [78.559, 17.2856], [78.5589, 17.2853], [78.5588, 17.2851], [78.5587, 17.2849], [78.5587, 17.2832], [78.5587, 17.2826], [78.5586, 17.282], [78.5578, 17.2796], [78.5568, 17.2799], [78.5566, 17.28], [78.5564, 17.28], [78.556, 17.2801], [78.556, 17.2803], [78.5559, 17.2804], [78.5556, 17.2803], [78.5553, 17.2803], [78.5549, 17.2803], [78.5543, 17.2804], [78.5543, 17.2836], [78.5542, 17.2842], [78.552, 17.2839], [78.5519, 17.2853], [78.5518, 17.2866], [78.5491, 17.2875], [78.5492, 17.2893], [78.5475, 17.2896], [78.5477, 17.2914], [78.5464, 17.2915], [78.5465, 17.2919], [78.5476, 17.2932], [78.5495, 17.2955], [78.5487, 17.2958], [78.5482, 17.2952], [78.5473, 17.2955], [78.5471, 17.2949], [78.5463, 17.2952], [78.5461, 17.2949], [78.544, 17.2953], [78.544, 17.2958], [78.5417, 17.2949], [78.5414, 17.295], [78.541, 17.2951], [78.5411, 17.2963], [78.5407, 17.2962], [78.5406, 17.2966], [78.5404, 17.2965], [78.5402, 17.2972], [78.5441, 17.2982], [78.5449, 17.2985], [78.5449, 17.2987], [78.5452, 17.3006], [78.5457, 17.3024], [78.5458, 17.303], [78.5454, 17.303], [78.5446, 17.303], [78.5444, 17.3041], [78.5445, 17.3042], [78.5443, 17.3044], [78.5455, 17.3063], [78.5484, 17.3058], [78.5487, 17.3062], [78.5491, 17.3059], [78.5507, 17.3058], [78.5508, 17.3067], [78.5525, 17.3092], [78.5537, 17.3108], [78.5565, 17.3089]]]}, "properties": {"objectid": 60837, "statename": "Telanagana", "statecode": "36", "districtname": "Rangareddy", "districtcode": "537", "ulbname": "Badangpet", "ulbcode": "900070", "wardname": "Almasguda", "wardcode": "26", "id": null, "status": "APPROVED", "misglobalid": null, "approved_by": null, "createdate": 1640688893000, "updateddate": 1641289976000, "globalid": null, "gisglobalid": "54d5PmmQ-dncK-P45l-RKKl-BRn44Rac4add", "remark": "", "st_area(shape)": 0.00025940700028263266, "st_perimeter(shape)": 0.1132549925891876}}, {"type": "Feature", "geometry": {"type": "Polygon", "coordinates": [[[78.5492, 17.2893], [78.5491, 17.2875], [78.5489, 17.2876], [78.5488, 17.285], [78.5489, 17.2837], [78.5488, 17.281], [78.549, 17.2809], [78.5491, 17.2802], [78.5494, 17.2801], [78.5499, 17.2796], [78.5498, 17.2795], [78.5495, 17.2793], [78.5494, 17.2792], [78.5494, 17.279], [78.5495, 17.2787], [78.5497, 17.2785], [78.55, 17.2782], [78.5503, 17.2779], [78.5507, 17.2776], [78.5508, 17.2776], [78.5508, 17.2775], [78.5507, 17.2772], [78.5506, 17.2769], [78.5506, 17.2768], [78.5507, 17.2767], [78.5509, 17.2765], [78.551, 17.2763], [78.551, 17.2762], [78.5509, 17.2755], [78.5496, 17.2756], [78.5489, 17.2756], [78.5484, 17.2755], [78.5476, 17.2756], [78.5475, 17.2749], [78.5472, 17.275], [78.5471, 17.2743], [78.547, 17.2742], [78.547, 17.2732], [78.5469, 17.2725], [78.5469, 17.2723], [78.5461, 17.2724], [78.546, 17.2722], [78.546, 17.2721], [78.5456, 17.2701], [78.5451, 17.2702], [78.5447, 17.2699], [78.5446, 17.2697], [78.5448, 17.2691], [78.5451, 17.2689], [78.5454, 17.2687], [78.5455, 17.2686], [78.5447, 17.2677], [78.5445, 17.2671], [78.5441, 17.2657], [78.5435, 17.2656], [78.5437, 17.2648], [78.5435, 17.2647], [78.5433, 17.2646], [78.5388, 17.2654], [78.5389, 17.2657], [78.5392, 17.267], [78.5394, 17.2676], [78.5393, 17.2682], [78.5392, 17.269], [78.5391, 17.2701], [78.5391, 17.271], [78.5391, 17.2717], [78.5392, 17.2725], [78.5402, 17.2723], [78.5406, 17.2722], [78.541, 17.2721], [78.5413, 17.272], [78.5414, 17.2719], [78.5417, 17.2726], [78.5419, 17.2737], [78.5416, 17.2737], [78.5417, 17.274], [78.5417, 17.2741], [78.5416, 17.274], [78.5414, 17.2738], [78.5412, 17.2737], [78.5409, 17.2736], [78.5404, 17.2736], [78.5393, 17.2737], [78.5393, 17.2739], [78.5392, 17.2741], [78.5382, 17.2759], [78.5379, 17.2764], [78.5377, 17.2768], [78.5376, 17.2772], [78.5372, 17.2783], [78.5372, 17.2786], [78.5372, 17.2795], [78.5373, 17.2807], [78.5373, 17.2815], [78.5374, 17.2821], [78.5374, 17.2828], [78.5374, 17.2832], [78.5372, 17.2844], [78.537, 17.2854], [78.5369, 17.286], [78.5368, 17.2862], [78.5373, 17.287], [78.5378, 17.288], [78.5381, 17.2886], [78.5384, 17.2901], [78.5387, 17.2924], [78.5388, 17.293], [78.5392, 17.2948], [78.5397, 17.2949], [78.5399, 17.2949], [78.54, 17.2953], [78.54, 17.2955], [78.541, 17.2951], [78.5414, 17.295], [78.5417, 17.2949], [78.544, 17.2958], [78.544, 17.2953], [78.5461, 17.2949], [78.5463, 17.2952], [78.5471, 17.2949], [78.5473, 17.2955], [78.5482, 17.2952], [78.5487, 17.2958], [78.5495, 17.2955], [78.5476, 17.2932], [78.5465, 17.2919], [78.5464, 17.2915], [78.5477, 17.2914], [78.5475, 17.2896], [78.5492, 17.2893]]]}, "properties": {"objectid": 65531, "statename": "Telanagana", "statecode": "36", "districtname": "Rangareddy", "districtcode": "537", "ulbname": "Badangpet", "ulbcode": "900070", "wardname": "Nadergul", "wardcode": "27", "id": null, "status": "APPROVED", "misglobalid": null, "approved_by": null, "createdate": 1640688893000, "updateddate": 1641289983000, "globalid": null, "gisglobalid": "cPlPs4od-K6m5-Psam-Qnc5-doBlcB65osRB", "remark": "", "st_area(shape)": 0.00028288286115161283, "st_perimeter(shape)": 0.0973061631645953}}, {"type": "Feature", "geometry": {"type": "Polygon", "coordinates": [[[78.54, 17.2955], [78.54, 17.2953], [78.5399, 17.2949], [78.5397, 17.2949], [78.5392, 17.2948], [78.5388, 17.293], [78.5387, 17.2924], [78.5384, 17.2901], [78.5381, 17.2886], [78.5378, 17.288], [78.5373, 17.287], [78.5368, 17.2862], [78.5369, 17.286], [78.536, 17.2858], [78.5352, 17.2857], [78.5341, 17.2852], [78.5335, 17.2847], [78.5317, 17.287], [78.5292, 17.289], [78.5293, 17.2891], [78.5297, 17.2894], [78.5303, 17.2898], [78.531, 17.2901], [78.5312, 17.2903], [78.5315, 17.2902], [78.5325, 17.2905], [78.5314, 17.292], [78.5319, 17.2924], [78.5321, 17.2925], [78.5326, 17.2926], [78.5332, 17.2928], [78.5335, 17.293], [78.5336, 17.2931], [78.5338, 17.2935], [78.5344, 17.2941], [78.5347, 17.2944], [78.5344, 17.2949], [78.5337, 17.2958], [78.5323, 17.2976], [78.5323, 17.2977], [78.5325, 17.2978], [78.5341, 17.2978], [78.536, 17.2984], [78.5382, 17.2991], [78.5384, 17.2989], [78.5386, 17.2985], [78.5392, 17.297], [78.5393, 17.2969], [78.54, 17.2955]]]}, "properties": {"objectid": 61090, "statename": "Telanagana", "statecode": "36", "districtname": "Rangareddy", "districtcode": "537", "ulbname": "Badangpet", "ulbcode": "900070", "wardname": "Badangpet", "wardcode": "28", "id": null, "status": "APPROVED", "misglobalid": null, "approved_by": null, "createdate": 1640688893000, "updateddate": 1641289990000, "globalid": null, "gisglobalid": "s4QcaRlK-4lQn-PlPn-Qsd4-dPlsddBBBQd6", "remark": "", "st_area(shape)": 8.048231360634068e-05, "st_perimeter(shape)": 0.044424203930758}}, {"type": "Feature", "geometry": {"type": "Polygon", "coordinates": [[[78.5323, 17.2976], [78.5337, 17.2958], [78.5344, 17.2949], [78.5347, 17.2944], [78.5344, 17.2941], [78.5338, 17.2935], [78.5336, 17.2931], [78.5335, 17.293], [78.5332, 17.2928], [78.5326, 17.2926], [78.5321, 17.2925], [78.5319, 17.2924], [78.5314, 17.292], [78.5325, 17.2905], [78.5315, 17.2902], [78.5312, 17.2903], [78.531, 17.2901], [78.5303, 17.2898], [78.5297, 17.2894], [78.5293, 17.2891], [78.529, 17.2899], [78.5287, 17.2899], [78.5286, 17.2918], [78.5281, 17.2923], [78.5269, 17.293], [78.5269, 17.2933], [78.5261, 17.2937], [78.5268, 17.2948], [78.5266, 17.2965], [78.5272, 17.2967], [78.5272, 17.2974], [78.5262, 17.2974], [78.5256, 17.297], [78.5255, 17.2972], [78.5253, 17.2977], [78.5252, 17.2983], [78.525, 17.2988], [78.5249, 17.2991], [78.5248, 17.2993], [78.5261, 17.3001], [78.526, 17.3003], [78.5258, 17.301], [78.5257, 17.3013], [78.5257, 17.3019], [78.5257, 17.3027], [78.5267, 17.3015], [78.5279, 17.2999], [78.5281, 17.2997], [78.5284, 17.2995], [78.5288, 17.2994], [78.5292, 17.2994], [78.5305, 17.2994], [78.5308, 17.2993], [78.5311, 17.2992], [78.5313, 17.2989], [78.5323, 17.2976]]]}, "properties": {"objectid": 66290, "statename": "Telanagana", "statecode": "36", "districtname": "Rangareddy", "districtcode": "537", "ulbname": "Badangpet", "ulbcode": "900070", "wardname": "Badangpet", "wardcode": "29", "id": null, "status": "APPROVED", "misglobalid": null, "approved_by": null, "createdate": 1640688893000, "updateddate": 1641290009000, "globalid": null, "gisglobalid": "KnlsRKd4-4BPc-PQKc-a54n-5RnQlKcBsRs6", "remark": "", "st_area(shape)": 6.0176139681075484e-05, "st_perimeter(shape)": 0.041462634439981716}}, {"type": "Feature", "geometry": {"type": "Polygon", "coordinates": [[[78.524, 17.3036], [78.5253, 17.3036], [78.5253, 17.3034], [78.5254, 17.3032], [78.5256, 17.3028], [78.5257, 17.3027], [78.5257, 17.3019], [78.5257, 17.3013], [78.5258, 17.301], [78.526, 17.3003], [78.5261, 17.3001], [78.5248, 17.2993], [78.5249, 17.2991], [78.525, 17.2988], [78.5252, 17.2983], [78.5253, 17.2977], [78.5255, 17.2972], [78.5256, 17.297], [78.5262, 17.2974], [78.5272, 17.2974], [78.5272, 17.2967], [78.5266, 17.2965], [78.5268, 17.2948], [78.5261, 17.2937], [78.5269, 17.2933], [78.5269, 17.293], [78.5281, 17.2923], [78.5286, 17.2918], [78.5287, 17.2899], [78.529, 17.2899], [78.5293, 17.2891], [78.5292, 17.289], [78.5289, 17.2887], [78.5285, 17.2882], [78.5279, 17.2873], [78.5285, 17.2863], [78.5287, 17.2859], [78.5288, 17.2854], [78.5291, 17.2846], [78.5288, 17.2843], [78.5288, 17.2842], [78.5285, 17.2842], [78.528, 17.2842], [78.5273, 17.2842], [78.5264, 17.2842], [78.5256, 17.2842], [78.5247, 17.2838], [78.5238, 17.2836], [78.5237, 17.2837], [78.5192, 17.2843], [78.5184, 17.2844], [78.5181, 17.2848], [78.5177, 17.2852], [78.5169, 17.2853], [78.5139, 17.2856], [78.511, 17.2856], [78.5114, 17.2865], [78.5115, 17.2868], [78.5117, 17.2874], [78.5122, 17.2889], [78.5124, 17.2896], [78.5128, 17.2904], [78.5131, 17.2909], [78.514, 17.2931], [78.5144, 17.294], [78.5138, 17.2943], [78.5152, 17.2952], [78.5155, 17.2973], [78.5156, 17.2974], [78.5168, 17.2967], [78.5186, 17.2968], [78.5192, 17.2974], [78.5228, 17.2992], [78.5243, 17.3005], [78.5242, 17.301], [78.524, 17.3021], [78.5239, 17.3025], [78.5241, 17.3025], [78.5239, 17.3036], [78.524, 17.3036]]]}, "properties": {"objectid": 66289, "statename": "Telanagana", "statecode": "36", "districtname": "Rangareddy", "districtcode": "537", "ulbname": "Badangpet", "ulbcode": "900070", "wardname": "Badangpet", "wardcode": "30", "id": null, "status": "APPROVED", "misglobalid": null, "approved_by": null, "createdate": 1640688893000, "updateddate": 1641290017000, "globalid": null, "gisglobalid": "Ksc4PRl5-l56Q-PdnP-sK54-RlcccQKB4oRs", "remark": "", "st_area(shape)": 0.00020171646826676491, "st_perimeter(shape)": 0.07229595496041491}}, {"type": "Feature", "geometry": {"type": "Polygon", "coordinates": [[[78.524, 17.3061], [78.524, 17.3051], [78.524, 17.3037], [78.524, 17.3036], [78.5239, 17.3036], [78.5241, 17.3025], [78.5239, 17.3025], [78.524, 17.3021], [78.5242, 17.301], [78.5243, 17.3005], [78.5228, 17.2992], [78.5192, 17.2974], [78.5186, 17.2968], [78.5168, 17.2967], [78.5156, 17.2974], [78.5154, 17.299], [78.5151, 17.2994], [78.515, 17.2999], [78.515, 17.3004], [78.515, 17.301], [78.515, 17.3016], [78.5153, 17.303], [78.5153, 17.3039], [78.5154, 17.3052], [78.5149, 17.3054], [78.515, 17.3057], [78.515, 17.3059], [78.5149, 17.306], [78.515, 17.306], [78.5173, 17.306], [78.5187, 17.3059], [78.5189, 17.3074], [78.5191, 17.3081], [78.5194, 17.3089], [78.5197, 17.3091], [78.5224, 17.3084], [78.5225, 17.308], [78.5224, 17.308], [78.5223, 17.3076], [78.5224, 17.3076], [78.5222, 17.3068], [78.5219, 17.3063], [78.5223, 17.3061], [78.5231, 17.3063], [78.5231, 17.3061], [78.524, 17.3061]]]}, "properties": {"objectid": 61089, "statename": "Telanagana", "statecode": "36", "districtname": "Rangareddy", "districtcode": "537", "ulbname": "Badangpet", "ulbcode": "900070", "wardname": "Nadergul", "wardcode": "31", "id": null, "status": "APPROVED", "misglobalid": null, "approved_by": null, "createdate": 1640688893000, "updateddate": 1641290025000, "globalid": null, "gisglobalid": "sKBn45Ka-BBoo-P4oP-RBdd-54QPBm5Qosd4", "remark": "", "st_area(shape)": 8.141396905733241e-05, "st_perimeter(shape)": 0.03974267290160005}}, {"type": "Feature", "geometry": {"type": "Polygon", "coordinates": [[[78.5277, 17.3071], [78.5276, 17.3065], [78.5276, 17.3061], [78.5277, 17.3061], [78.5277, 17.3056], [78.5276, 17.3052], [78.5276, 17.3047], [78.5276, 17.304], [78.5266, 17.304], [78.5266, 17.3038], [78.5265, 17.3035], [78.5253, 17.3036], [78.524, 17.3036], [78.524, 17.3037], [78.524, 17.3051], [78.5253, 17.3051], [78.5253, 17.3066], [78.5253, 17.3072], [78.5258, 17.3072], [78.5261, 17.3072], [78.5262, 17.3073], [78.5264, 17.3073], [78.5266, 17.3074], [78.5268, 17.3073], [78.5277, 17.3071]]]}, "properties": {"objectid": 61092, "statename": "Telanagana", "statecode": "36", "districtname": "Rangareddy", "districtcode": "537", "ulbname": "Badangpet", "ulbcode": "900070", "wardname": "Badangpet", "wardcode": "32", "id": null, "status": "APPROVED", "misglobalid": null, "approved_by": null, "createdate": 1640688893000, "updateddate": 1641290032000, "globalid": null, "gisglobalid": "PRcslRsP-Po4R-P5Bn-RlRa-dldBnKsPadKK", "remark": "", "st_area(shape)": 1.0067777097577002e-05, "st_perimeter(shape)": 0.014676550522315986}}]}
