{"type":"Topology","arcs":[[[57661,78914],[-2307,4913]],[[55354,83827],[-659,819]],[[54695,84646],[-4448,2047],[-329,1740]],[[49918,88433],[1153,3890],[4118,2251],[8732,-2251],[1812,921],[8732,1228],[6095,1740],[5931,2968],[4778,819],[7743,-3787],[-6590,-7267],[1977,-3787],[3459,819],[2142,-1843],[-4283,-1126],[-5107,-5629],[0,-4197],[-4449,1331]],[[86161,74513],[0,205]],[[86161,74718],[-329,102]],[[85832,74820],[-659,307]],[[85173,75127],[-1318,410]],[[83855,75537],[-165,0]],[[83690,75537],[-494,-205]],[[83196,75332],[-1153,409]],[[82043,75741],[-1977,614]],[[80066,76355],[-165,103]],[[79901,76458],[-988,102]],[[78913,76560],[-495,205]],[[78418,76765],[-329,102]],[[78089,76867],[-494,103]],[[77595,76970],[-330,102]],[[77265,77072],[-659,307]],[[76606,77379],[-1977,614]],[[74629,77993],[-329,102]],[[74300,78095],[-165,103]],[[74135,78198],[-5766,1228]],[[68369,79426],[-2306,-1126]],[[66063,78300],[-2142,-1228]],[[63921,77072],[-494,-102]],[[63427,76970],[-1154,-103]],[[62273,76867],[-164,-205]],[[62109,76662],[-165,-102]],[[61944,76560],[-494,-205]],[[61450,76355],[-330,-409]],[[61120,75946],[-3459,2968]],[[64086,69191],[-165,0]],[[63921,69191],[-989,2968]],[[62932,72159],[-164,819]],[[62768,72978],[-1648,2968]],[[61120,75946],[330,409]],[[61450,76355],[494,205]],[[62109,76662],[164,205]],[[62273,76867],[1154,103]],[[63427,76970],[494,102]],[[63921,77072],[2142,1228]],[[66063,78300],[2306,1126]],[[68369,79426],[5766,-1228]],[[74135,78198],[165,-103]],[[74300,78095],[329,-102]],[[74629,77993],[1977,-614]],[[76606,77379],[659,-307]],[[77265,77072],[330,-102]],[[77595,76970],[494,-103]],[[78418,76765],[495,-205]],[[78913,76560],[988,-102]],[[80066,76355],[-659,-409]],[[79407,75946],[-3295,-512]],[[76112,75434],[659,-1228]],[[76771,74206],[-494,-2149]],[[76277,72057],[-1977,-205]],[[74300,71852],[-6590,-1126]],[[67710,70726],[-1153,0]],[[66557,70726],[-494,0]],[[66063,70726],[-824,-307]],[[65239,70419],[0,-307]],[[65239,70112],[329,-102]],[[65568,70010],[0,-103]],[[65568,69907],[0,-205]],[[65568,69702],[0,-102]],[[65568,69600],[-164,-102]],[[65404,69498],[-824,-307]],[[64580,69191],[-494,0]],[[49918,88433],[329,-1945],[4448,-1842]],[[54695,84646],[659,-819]],[[55354,83827],[2307,-4913]],[[57661,78914],[4942,-5834]],[[62603,73080],[-1318,-512]],[[61285,72568],[-988,-102]],[[60297,72466],[-495,0]],[[59802,72466],[-494,921]],[[59308,73387],[-494,-102]],[[58814,73285],[-494,-205]],[[58320,73080],[-1648,410]],[[56672,73490],[-494,204]],[[56178,73694],[-494,0]],[[55684,73694],[-495,717]],[[55189,74411],[-659,409]],[[54530,74820],[-2306,1126]],[[52224,75946],[-1318,-512]],[[50906,75434],[-659,307]],[[50247,75741],[0,1024]],[[50247,76765],[-2801,1740]],[[47446,78505],[-1647,-205]],[[45799,78300],[-329,1024]],[[45470,79324],[659,921]],[[46129,80245],[-2142,819]],[[43987,81064],[0,307]],[[43987,81371],[-165,409]],[[43822,81780],[-329,410]],[[43493,82190],[-824,409]],[[42669,82599],[-1318,-102]],[[41351,82497],[-2307,2558],[5437,1331],[4283,-1228],[1154,3275]],[[41351,82497],[1318,102]],[[43493,82190],[329,-410]],[[43822,81780],[165,-409]],[[43987,81371],[0,-307]],[[46129,80245],[-659,-921]],[[45799,78300],[1647,205]],[[47446,78505],[2801,-1740]],[[50247,76765],[0,-1024]],[[50247,75741],[659,-307]],[[52224,75946],[2306,-1126]],[[55189,74411],[495,-717]],[[55684,73694],[494,0]],[[56672,73490],[1648,-410]],[[58814,73285],[494,102]],[[59308,73387],[494,-921]],[[60297,72466],[988,102]],[[61285,72568],[1318,512]],[[62603,73080],[165,-102]],[[62768,72978],[164,-819]],[[62932,72159],[495,-1842]],[[63427,70317],[-330,0]],[[63097,70317],[-659,307]],[[62438,70624],[-824,1535]],[[61614,72159],[-329,0]],[[61285,72159],[-988,-102]],[[60297,72057],[-330,-103]],[[59967,71954],[165,-512]],[[60132,71442],[165,-614]],[[60297,70828],[-165,-409]],[[60132,70419],[-1153,-614]],[[58979,69805],[0,-614]],[[58979,69191],[329,-307]],[[59308,68884],[-824,-614]],[[58484,68270],[-988,0]],[[57496,68270],[-3625,-103]],[[53871,68167],[-1482,-409]],[[52389,67758],[-1483,-1024]],[[50906,66734],[-329,-307]],[[50577,66427],[-5272,103],[-1812,1023]],[[43493,67553],[-9391,2457],[-1153,921]],[[32949,70931],[2306,2354]],[[35255,73285],[1154,1535]],[[36409,74820],[-1648,921]],[[34761,75741],[-2142,717]],[[32619,76458],[3625,1740],[0,2866],[5107,1433]],[[32619,76458],[2142,-717]],[[34761,75741],[1648,-921]],[[36409,74820],[-1154,-1535]],[[35255,73285],[-2306,-2354]],[[32949,70931],[988,-1024],[9556,-2354]],[[43493,67553],[1812,-1126],[0,-2252],[-165,-921]],[[45140,63254],[-165,-614]],[[44975,62640],[-164,-512]],[[44811,62128],[-1483,-511]],[[43328,61617],[-494,-103]],[[42834,61514],[-165,-204]],[[42669,61310],[-824,-205]],[[41845,61105],[0,-103]],[[41845,61002],[-1153,0]],[[40692,61002],[-2471,-716]],[[38221,60286],[-824,102]],[[37397,60388],[-659,-307]],[[36738,60081],[-329,-204]],[[36409,59877],[-495,-307]],[[35914,59570],[-494,-308]],[[35420,59262],[-2142,-102]],[[33278,59160],[-4448,2559]],[[28830,61719],[-1977,307]],[[26853,62026],[-11367,-307],[-824,1535],[-8896,4094],[-5766,5118],[988,2456],[6261,2150],[1977,-2559],[6919,4708],[6590,-1433],[5931,0],[3953,-1330]],[[33937,45035],[-494,-102]],[[33443,44933],[-7249,5629],[-1482,2048],[-4778,1535],[-4777,2866],[329,4606],[11367,409]],[[26853,62026],[1977,-307]],[[28830,61719],[4448,-2559]],[[35420,59262],[494,308]],[[35914,59570],[495,307]],[[36738,60081],[659,307]],[[38221,60286],[2471,716]],[[40692,61002],[1153,0]],[[41845,61105],[824,205]],[[42669,61310],[165,204]],[[42834,61514],[494,103]],[[44811,62128],[164,512]],[[45140,63254],[659,-409],[1483,-512],[4448,-716]],[[51730,61617],[2636,102]],[[54366,61719],[329,-102]],[[54695,61617],[330,0]],[[55025,61617],[659,-205]],[[55684,61412],[-165,-205]],[[55519,61207],[-4448,-3889]],[[51071,57318],[-165,-410]],[[50906,56908],[-988,-1433]],[[49918,55475],[0,-307]],[[49918,55168],[-1318,-1330]],[[48600,53838],[-1813,-1126]],[[46787,52712],[-5930,-3275]],[[40857,49437],[-824,-512]],[[40033,48925],[-330,-614]],[[39703,48311],[-5766,-3276]],[[50906,66734],[1483,1024]],[[52389,67758],[1482,409]],[[53871,68167],[3625,103]],[[57496,68270],[988,0]],[[58484,68270],[0,-512]],[[58484,67758],[-164,-205]],[[58320,67553],[-2472,-1638]],[[55848,65915],[0,-1125]],[[55848,64790],[0,-205]],[[55848,64585],[-1482,-1638]],[[54366,62947],[-2636,-1330]],[[51730,61617],[-1977,614],[-1153,-103],[-1813,410],[-658,409],[-659,205],[-330,205],[165,307],[165,716],[0,2047],[5107,0]],[[63262,67041],[-659,205]],[[62603,67246],[-330,102]],[[62273,67348],[-329,103]],[[61944,67451],[-330,0]],[[61614,67451],[-823,-103]],[[60791,67348],[-494,103]],[[60297,67451],[-330,102]],[[59967,67553],[-494,-205]],[[59473,67348],[-989,103]],[[58484,67451],[-164,102]],[[58484,67758],[824,1126]],[[58979,69191],[0,614]],[[60132,70419],[165,409]],[[60297,70828],[-165,614]],[[60132,71442],[-165,512]],[[59967,71954],[330,103]],[[61285,72159],[329,0]],[[62438,70624],[659,-307]],[[63427,70317],[494,-1126]],[[63921,69191],[165,-512]],[[64086,68679],[-824,-1638]],[[64580,69191],[824,307]],[[65404,69498],[1318,0]],[[66722,69498],[988,-307]],[[67710,69191],[2801,-103]],[[70511,69088],[1153,-102]],[[71664,68986],[824,-205]],[[72488,68781],[988,410]],[[73476,69191],[824,-103]],[[74300,69088],[494,103]],[[74794,69191],[494,102]],[[75288,69293],[330,-409]],[[75618,68884],[165,-717]],[[75783,68167],[0,-102]],[[75783,68065],[-165,-307]],[[75618,67758],[-165,-512]],[[75453,67246],[-494,-307]],[[74959,66939],[0,-307]],[[74959,66632],[-494,-205]],[[74465,66427],[-4778,307]],[[69687,66734],[-659,0]],[[69028,66734],[-494,0]],[[68534,66734],[-659,-204]],[[67875,66530],[-165,0]],[[67710,66530],[-494,204]],[[67216,66734],[-494,103]],[[66722,66837],[-1154,716]],[[65568,67553],[-329,0]],[[65239,67553],[-494,307]],[[64745,67860],[-659,102]],[[64086,67962],[0,717]],[[64086,68679],[0,512]],[[87150,64790],[-2636,1228]],[[84514,66018],[-494,-307]],[[84020,65711],[-330,102]],[[83690,65813],[-164,0]],[[83526,65813],[-659,205]],[[82867,66018],[-1483,204]],[[81384,66222],[-494,-102]],[[80890,66120],[-495,0]],[[80395,66120],[-823,102]],[[79572,66222],[-330,0]],[[79242,66222],[-1977,1331]],[[77265,67553],[-988,409]],[[76277,67962],[-330,103]],[[75947,68065],[-164,102]],[[75783,68167],[-165,717]],[[75618,68884],[-330,409]],[[74794,69191],[-494,-103]],[[73476,69191],[-988,-410]],[[72488,68781],[-824,205]],[[70511,69088],[-2801,103]],[[67710,69191],[-988,307]],[[66722,69498],[-1154,102]],[[65568,69702],[0,205]],[[65568,70010],[-329,102]],[[65239,70112],[0,307]],[[65239,70419],[824,307]],[[66063,70726],[494,0]],[[67710,70726],[6590,1126]],[[74300,71852],[1977,205]],[[76277,72057],[494,2149]],[[76771,74206],[-659,1228]],[[76112,75434],[3295,512]],[[79407,75946],[2636,-205]],[[82043,75741],[1153,-409]],[[83196,75332],[494,205]],[[83855,75537],[1318,-410]],[[85173,75127],[659,-307]],[[85832,74820],[329,-102]],[[86161,74513],[2636,-1740],[4943,-1433],[-6590,-6550]],[[68534,66734],[494,0]],[[69028,66734],[659,0]],[[69687,66734],[4778,-307]],[[74959,66632],[0,307]],[[75453,67246],[165,512]],[[75783,68065],[164,0]],[[76277,67962],[988,-409]],[[77265,67553],[1977,-1331]],[[79242,66222],[330,0]],[[80395,66120],[495,0]],[[81384,66222],[1483,-204]],[[82867,66018],[659,-205]],[[83690,65813],[330,-102]],[[84514,66018],[2636,-1228]],[[87150,64790],[5931,-11464],[164,-1740],[-3789,-2457],[-5766,-2047]],[[83690,47082],[-5272,3890],[-164,3173]],[[78254,54145],[-165,409]],[[78089,54554],[165,819]],[[78254,55373],[1977,2047]],[[80231,57420],[-495,819]],[[79736,58239],[-823,819]],[[78913,59058],[-659,0]],[[78254,59058],[-659,102]],[[77595,59160],[-495,410]],[[77100,59570],[-494,511]],[[76606,60081],[-1977,921]],[[74629,61002],[-823,103]],[[73806,61105],[-989,614]],[[72817,61719],[-659,205]],[[72158,61924],[-494,102]],[[71664,62026],[-659,409]],[[71005,62435],[-2471,512]],[[68534,62947],[-659,307]],[[67875,63254],[-330,103]],[[67545,63357],[-1153,409]],[[66392,63766],[-329,0]],[[66063,63766],[-1154,102]],[[64909,63868],[-329,103]],[[64580,63971],[329,511]],[[64909,64482],[989,819]],[[65898,65301],[165,307]],[[66063,65608],[329,205]],[[66392,65813],[494,307]],[[66886,66120],[165,307]],[[67051,66427],[659,103]],[[67875,66530],[659,204]],[[64086,67962],[659,-102]],[[65239,67553],[329,0]],[[65568,67553],[1154,-716]],[[66722,66837],[494,-103]],[[67216,66734],[-165,-307]],[[66886,66120],[-494,-307]],[[66063,65608],[-165,-307]],[[64909,64482],[-329,-511]],[[64909,63868],[1154,-102]],[[66392,63766],[1153,-409]],[[67875,63254],[659,-307]],[[68534,62947],[2471,-512]],[[71005,62435],[659,-409]],[[71664,62026],[494,-102]],[[72158,61924],[659,-205]],[[72817,61719],[989,-614]],[[74629,61002],[1977,-921]],[[76606,60081],[494,-511]],[[77100,59570],[495,-410]],[[77595,59160],[659,-102]],[[78913,59058],[823,-819]],[[79736,58239],[495,-819]],[[78254,55373],[-165,-819]],[[78254,54145],[-1154,2047]],[[77100,56192],[-658,614]],[[76442,56806],[-330,716]],[[76112,57522],[-1812,1024]],[[74300,58546],[-824,0]],[[73476,58546],[-329,102]],[[73147,58648],[-659,0]],[[72488,58648],[-1154,410]],[[71334,59058],[-1318,1023]],[[70016,60081],[-2471,717]],[[67545,60798],[-494,0]],[[67051,60798],[-1647,204]],[[65404,61002],[-330,205]],[[65074,61207],[-2471,0]],[[62603,61207],[-330,-102]],[[62273,61105],[-494,-103]],[[61779,61002],[-659,-102]],[[61120,60900],[-494,-102]],[[60626,60798],[-165,0]],[[60461,60798],[-329,-103]],[[60132,60695],[-165,-409]],[[59967,60286],[0,-205]],[[59967,60081],[-165,1638],[4284,6243]],[[59308,60184],[-3295,818]],[[56013,61002],[-329,410]],[[55025,61617],[-330,0]],[[54695,61617],[-329,102]],[[54366,61719],[0,1228]],[[54366,62947],[1482,1638]],[[55848,64790],[0,1125]],[[55848,65915],[2636,1536]],[[59473,67348],[494,205]],[[59967,67553],[330,-102]],[[60791,67348],[823,103]],[[61944,67451],[329,-103]],[[62273,67348],[330,-102]],[[62603,67246],[659,-205]],[[63262,67041],[-3624,-5220],[-330,-1637]],[[33937,45035],[5766,3276]],[[39703,48311],[330,614]],[[40857,49437],[5930,3275]],[[46787,52712],[1813,1126]],[[48600,53838],[1318,1330]],[[49918,55475],[988,1433]],[[50906,56908],[165,410]],[[51071,57318],[4448,3889]],[[55519,61207],[494,-205]],[[59308,60184],[0,-1638],[165,-614],[659,-1126],[329,-2866],[1483,-4094],[165,-2866],[2636,-3173],[-330,-2456]],[[64415,41351],[-659,204]],[[63756,41555],[-659,0]],[[63097,41555],[-2306,-1433]],[[60791,40122],[329,-307]],[[61120,39815],[494,-409]],[[61614,39406],[989,-409]],[[62603,38997],[-330,-1331]],[[62273,37666],[-329,-1228]],[[61944,36438],[165,-717]],[[62109,35721],[164,-2047]],[[62273,33674],[-164,-1023]],[[62109,32651],[-1812,-922]],[[60297,31729],[-495,205]],[[59802,31934],[-164,205]],[[59638,32139],[-659,-102]],[[58979,32037],[164,-717]],[[59143,31320],[330,-512]],[[59473,30808],[-659,-102]],[[58814,30706],[-1318,-205]],[[57496,30501],[-165,-307]],[[57331,30194],[494,-205]],[[57825,29989],[165,-204]],[[57990,29785],[330,-205]],[[58320,29580],[0,-409]],[[58320,29171],[-495,-307]],[[57825,28864],[-3789,102]],[[54036,28966],[-494,409]],[[53542,29375],[494,512]],[[54036,29887],[165,512]],[[54201,30399],[165,205]],[[54366,30604],[0,307]],[[54366,30911],[0,204]],[[54366,31115],[164,103]],[[54530,31218],[330,0]],[[54860,31218],[165,0]],[[55025,31218],[0,409]],[[55025,31627],[0,102]],[[55025,31729],[-165,205]],[[54860,31934],[0,205]],[[54860,32139],[165,102]],[[55025,32241],[164,0]],[[55189,32241],[-164,205]],[[55025,32446],[494,307]],[[55519,32753],[165,307]],[[55684,33060],[-165,205]],[[55519,33265],[494,204]],[[56013,33469],[0,308]],[[56013,33777],[330,102]],[[56343,33879],[329,102]],[[56672,33981],[165,0]],[[56837,33981],[494,103]],[[57331,34084],[0,204]],[[57331,34288],[165,205]],[[57496,34493],[0,102]],[[57496,34595],[0,103]],[[57496,34698],[494,102]],[[57990,34800],[165,205]],[[58155,35005],[329,-103]],[[58484,34902],[330,512]],[[58814,35414],[-330,103]],[[58484,35517],[-164,204]],[[58320,35721],[-495,103]],[[57825,35824],[-164,102]],[[57661,35926],[-330,205]],[[57331,36131],[-329,102]],[[57002,36233],[-495,205]],[[56507,36438],[-329,-103]],[[56178,36335],[-494,103]],[[55684,36438],[-330,0]],[[55354,36438],[0,-103]],[[55354,36335],[165,-204]],[[55519,36131],[0,-103]],[[55519,36028],[-2965,-102]],[[52554,35926],[-3295,2866],[-330,102],[-824,-102],[-1812,102],[-988,307],[-3460,-204],[-824,-410],[-3130,4401],[-4448,1945]],[[83690,47082],[-10049,-1944],[-2636,-1126],[329,-2866],[-3130,307]],[[68204,41453],[-3295,-102],[-164,307],[164,2251],[-2471,2764],[-329,3173],[-1318,3378],[-494,3377],[-659,1126],[-330,2354],[659,0]],[[59967,60081],[0,205]],[[59967,60286],[165,409]],[[60132,60695],[329,103]],[[60626,60798],[494,102]],[[61779,61002],[494,103]],[[62603,61207],[2471,0]],[[65074,61207],[330,-205]],[[67051,60798],[494,0]],[[67545,60798],[2471,-717]],[[70016,60081],[1318,-1023]],[[72488,58648],[659,0]],[[73476,58546],[824,0]],[[76112,57522],[330,-716]],[[76442,56806],[658,-614]],[[77100,56192],[165,-4504],[3460,-3480],[2965,-1126]],[[47446,19242],[-2306,1945],[-2801,4606],[-329,9109],[-659,3378],[659,614],[6754,0],[495,-205],[659,-1125],[823,-2150],[1813,512]],[[52554,35926],[2965,102]],[[55519,36131],[-165,204]],[[55354,36438],[330,0]],[[55684,36438],[494,-103]],[[56507,36438],[495,-205]],[[57331,36131],[330,-205]],[[57661,35926],[164,-102]],[[57825,35824],[495,-103]],[[58320,35721],[164,-204]],[[58814,35414],[-330,-512]],[[58155,35005],[-165,-205]],[[57496,34698],[0,-103]],[[57496,34493],[-165,-205]],[[57331,34288],[0,-204]],[[57331,34084],[-494,-103]],[[56672,33981],[-329,-102]],[[56343,33879],[-330,-102]],[[56013,33469],[-494,-204]],[[55519,33265],[165,-205]],[[55519,32753],[-494,-307]],[[55025,32446],[164,-205]],[[55025,32241],[-165,-102]],[[54860,32139],[0,-205]],[[54860,31934],[165,-205]],[[55025,31627],[0,-409]],[[54860,31218],[-330,0]],[[54366,31115],[0,-204]],[[54366,30604],[-165,-205]],[[54036,29887],[-494,-512]],[[54036,28966],[3789,-102]],[[58320,29171],[0,409]],[[57990,29785],[-165,204]],[[57331,30194],[165,307]],[[58814,30706],[659,102]],[[59143,31320],[-164,717]],[[58979,32037],[659,102]],[[59802,31934],[495,-205]],[[62109,32651],[164,1023]],[[62109,35721],[-165,717]],[[62273,37666],[330,1331]],[[62603,38997],[-989,409]],[[61120,39815],[-329,307]],[[63097,41555],[659,0]],[[63756,41555],[659,-204]],[[64415,41351],[3789,102]],[[68204,41453],[5272,-3889],[-1977,-1945],[165,-3071],[-1812,-1740]],[[69852,30808],[-2471,-1637],[-1318,-5016],[-1977,-3377],[-8402,-1433]],[[55684,19345],[-3789,1433]],[[51895,20778],[-1483,0]],[[50412,20778],[-2966,-1536]],[[47446,19242],[2966,1536]],[[50412,20778],[1483,0]],[[51895,20778],[3789,-1433]],[[55684,19345],[8566,1330],[1977,3378],[1318,5015],[2307,1740]],[[69852,30808],[2636,205],[4283,-5322],[1812,-3787],[5766,-4913],[4943,-3276],[7907,-3275],[165,-2559],[2142,-2661],[-330,-2047],[-5931,-2149],[-7084,-1024],[-11037,1228],[-5272,1843],[4942,2047],[-1153,3480],[-3625,1023],[-2306,2047],[-14662,4606],[-1977,-102],[-3625,3070]]],"transform":{"scale":[6.06999999999971e-7,9.770097700976978e-7],"translate":[73.5113,16.7939]},"objects":{"wards":{"type":"GeometryCollection","geometries":[{"arcs":[[0,1,2,3,4,5,6,7,8,9,10,11,12,13,14,15,16,17,18,19,20,21,22,23,24,25,26,27,28,29,30,31]],"type":"Polygon","properties":{"objectid":238526,"statename":"Maharashtra","statecode":"27","districtname":"Ratnagiri","districtcode":"528","ulbname":"Lanja Nagarpanchayat","ulbcode":"900152","wardname":"Dhudare","wardcode":"1","id":null,"status":"APPROVED","misglobalid":null,"approved_by":null,"createdate":1647872893000,"updateddate":1647943806000,"globalid":null,"gisglobalid":"mQlKlKlo-mQQm-Pcls-adK6-d45RdccQ6ado","remark":"Ward No 1 Ok","st_area(shape)":0.00046925793436605127,"st_perimeter(shape)":0.12021557643133782}},{"arcs":[[32,33,34,35,36,37,-29,38,39,40,41,42,43,44,45,46,47,48,49,-16,50,51,-13,52,53,54,55,56,57,58,59,60,61,62,63,64,65,66,67,68]],"type":"Polygon","properties":{"objectid":240522,"statename":"Maharashtra","statecode":"27","districtname":"Ratnagiri","districtcode":"528","ulbname":"Lanja Nagarpanchayat","ulbcode":"900152","wardname":"Kumbharwadi","wardcode":"2","id":null,"status":"APPROVED","misglobalid":null,"approved_by":null,"createdate":1647884279000,"updateddate":1647943836000,"globalid":null,"gisglobalid":"dlsnPR4P-KQ4l-PcB4-sQ4s-sQ5RKBlslP6R","remark":"Ward 2 0K","st_area(shape)":0.0000649346622355715,"st_perimeter(shape)":0.03704152441518848}},{"arcs":[[69,70,71,72,73,74,75,76,77,78,79,80,81,82,83,84,85,86,87,88,89,90,91,92,93,94,95,96,97,98]],"type":"Polygon","properties":{"objectid":238527,"statename":"Maharashtra","statecode":"27","districtname":"Ratnagiri","districtcode":"528","ulbname":"Lanja Nagarpanchayat","ulbcode":"900152","wardname":"Borwadi","wardcode":"3","id":null,"status":"APPROVED","misglobalid":null,"approved_by":null,"createdate":1647873988000,"updateddate":1647943859000,"globalid":null,"gisglobalid":"BRs54d6Q-msKR-P6Pc-ssRn-6l4K6s5lBmBc","remark":"Ward 3 0K","st_area(shape)":0.00008721944139586408,"st_perimeter(shape)":0.06415618237010266}},{"arcs":[[99,-97,100,101,102,-93,103,-91,104,105,106,107,-86,108,-84,109,110,-81,111,-79,112,113,-76,114,115,116,117,118,119,120,121,122,123,124,125,126,127,128,129,130,131,132,133,134,135,136,137,138,139,140,141,142,143]],"type":"Polygon","properties":{"objectid":235335,"statename":"Maharashtra","statecode":"27","districtname":"Ratnagiri","districtcode":"528","ulbname":"Lanja Nagarpanchayat","ulbcode":"900152","wardname":"Bhaudhawadi","wardcode":"4","id":null,"status":"APPROVED","misglobalid":null,"approved_by":null,"createdate":1647876388000,"updateddate":1647943891000,"globalid":null,"gisglobalid":"QQ4dnmmP-oooK-PBlo-QnQP-cs6m5QdB5o6Q","remark":"Ward 4 0K","st_area(shape)":0.00015191898277798512,"st_perimeter(shape)":0.0708808092308148}},{"arcs":[[144,145,146,147,148,149,150,151,152,153,154,155,156,157,158,159,160,161,162,163,164,165,166,167]],"type":"Polygon","properties":{"objectid":236929,"statename":"Maharashtra","statecode":"27","districtname":"Ratnagiri","districtcode":"528","ulbname":"Lanja Nagarpanchayat","ulbcode":"900152","wardname":"Devrai Aagarwadi","wardcode":"5","id":null,"status":"APPROVED","misglobalid":null,"approved_by":null,"createdate":1647876071000,"updateddate":1647943926000,"globalid":null,"gisglobalid":"nnloP4oo-sBKn-Pocs-Rm4a-Pmcdl4dRRlsR","remark":"Ward 5 0K","st_area(shape)":0.00032850184062739943,"st_perimeter(shape)":0.10001003036646358}},{"arcs":[[168,169,170,171,-165,172,173,-162,174,-160,175,176,-157,177,178,179,-153,180,-151,181,182,183,184,185,186,187,188,189,190,191,192,193,194,195,196]],"type":"Polygon","properties":{"objectid":235336,"statename":"Maharashtra","statecode":"27","districtname":"Ratnagiri","districtcode":"528","ulbname":"Lanja Nagarpanchayat","ulbcode":"900152","wardname":"Kotrewadi","wardcode":"6","id":null,"status":"APPROVED","misglobalid":null,"approved_by":null,"createdate":1647876742000,"updateddate":1647943951000,"globalid":null,"gisglobalid":"ss64n6om-a4R6-PlRB-RKcB-56PBaBlsnnoP","remark":"Ward 6 0K","st_area(shape)":0.00023045663666783822,"st_perimeter(shape)":0.0722752771468179}},{"arcs":[[-137,197,198,199,200,201,202,203,204,205,206,207,208]],"type":"Polygon","properties":{"objectid":73400,"statename":"Maharashtra","statecode":"27","districtname":"Ratnagiri","districtcode":"528","ulbname":"Lanja Nagarpanchayat","ulbcode":"900152","wardname":"Nhaviwadi","wardcode":"7","id":null,"status":"APPROVED","misglobalid":null,"approved_by":null,"createdate":1642030314000,"updateddate":1647943972000,"globalid":null,"gisglobalid":"PRdl6RQa-snnm-PdsQ-amma-mPBKanK5nnQ5","remark":"Ward 7 0K","st_area(shape)":0.000032588685947385556,"st_perimeter(shape)":0.027409629747628467}},{"arcs":[[209,210,211,212,213,214,215,216,217,218,-203,219,-131,220,-129,221,222,223,224,-124,225,-122,226,-120,227,228,229]],"type":"Polygon","properties":{"objectid":239322,"statename":"Maharashtra","statecode":"27","districtname":"Ratnagiri","districtcode":"528","ulbname":"Lanja Nagarpanchayat","ulbcode":"900152","wardname":"Juni Bajarpeth","wardcode":"8","id":null,"status":"APPROVED","misglobalid":null,"approved_by":null,"createdate":1647883026000,"updateddate":1647943995000,"globalid":null,"gisglobalid":"PcPoKB5c-PmQP-PlQa-Q4sB-5o4onPRdB6co","remark":"Ward 8 0K","st_area(shape)":0.000010905043382798501,"st_perimeter(shape)":0.0157046099088529}},{"arcs":[[-69,230,231,232,233,234,235,236,237,238,239,240,241,242,243,244,245,246,247,248,249,250,251,252,253,254,255,256,257,258,259,260]],"type":"Polygon","properties":{"objectid":242127,"statename":"Maharashtra","statecode":"27","districtname":"Ratnagiri","districtcode":"528","ulbname":"Lanja Nagarpanchayat","ulbcode":"900152","wardname":"Teliwadi","wardcode":"9","id":null,"status":"APPROVED","misglobalid":null,"approved_by":null,"createdate":1647893887000,"updateddate":1647894583000,"globalid":null,"gisglobalid":"ol6cKKBK-54la-PodR-aoml-s4QcB6PdQRKc","remark":"Ward No.09 Ok","st_area(shape)":0.000016029198877239264,"st_perimeter(shape)":0.0190169713173222}},{"arcs":[[261,262,263,264,265,266,267,268,269,270,271,272,273,274,275,276,-240,277,-238,278,279,-235,280,281,282,-66,283,-64,284,285,286,287,-59,288,289,290,291,292,293,294,295,-9,296,297,298,-5,299]],"type":"Polygon","properties":{"objectid":237732,"statename":"Maharashtra","statecode":"27","districtname":"Ratnagiri","districtcode":"528","ulbname":"Canacona","ulbcode":"900152","wardname":"Vaibhav Vasahat Parisar","wardcode":"10","id":null,"status":"APPROVED","misglobalid":null,"approved_by":null,"createdate":1647894436000,"updateddate":1647894549000,"globalid":null,"gisglobalid":"msKsBPBo-PPlo-PPQd-Rl4K-loms5dsKBnan","remark":"Ward No.10 Ok","st_area(shape)":0.00008978756052764666,"st_perimeter(shape)":0.049805253979993504}},{"arcs":[[300,301,302,-248,303,-246,304,-244,305,-274,306,307,308,-270,309,-268,310,311,-265,312,-263,313,314,315,316,317,318,319,320,321,322,323,324,325,326,327,328,329,330,331,332,333,334,335,336,337,338,339,340,341,342,343,344,-253,345]],"type":"Polygon","properties":{"objectid":240922,"statename":"Maharashtra","statecode":"27","districtname":"Ratnagiri","districtcode":"528","ulbname":"Lanja Nagarpanchayat","ulbcode":"900152","wardname":"Gondesakhal","wardcode":"11","id":null,"status":"APPROVED","misglobalid":null,"approved_by":null,"createdate":1647887061000,"updateddate":1647944041000,"globalid":null,"gisglobalid":"Kandam5o-l4d5-PaBn-a6al-QaaRmPdc5css","remark":"Ward 11 0K","st_area(shape)":0.00015947766302427808,"st_perimeter(shape)":0.06339677087976249}},{"arcs":[[346,-258,347,348,349,350,-344,351,-342,352,-340,353,-338,354,-336,355,-334,356,357,358,359,360,361,-327,362,363,364,365,-322,366,367,-319,368,-317,369,370,371,372,373,374,375,376,377,378,379,380,381,382,383,384,385,386,387,388,389,390,391]],"type":"Polygon","properties":{"objectid":240923,"statename":"Maharashtra","statecode":"27","districtname":"Ratnagiri","districtcode":"528","ulbname":"Lanja Nagarpanchayat","ulbcode":"900152","wardname":"Navin Bajarpeth And Dhawanewadi","wardcode":"12","id":null,"status":"APPROVED","misglobalid":null,"approved_by":null,"createdate":1647887394000,"updateddate":1647944067000,"globalid":null,"gisglobalid":"oQPaRl5P-44Pa-PBmd-amRs-smanQosBnnlm","remark":"Ward 12 0K","st_area(shape)":0.00004216170545007346,"st_perimeter(shape)":0.04676067233419797}},{"arcs":[[392,393,-186,394,395,396,397,-206,398,399,-218,400,401,-215,402,-213,403,404,405,406]],"type":"Polygon","properties":{"objectid":237337,"statename":"Maharashtra","statecode":"27","districtname":"Ratnagiri","districtcode":"528","ulbname":"Lanja Nagarpanchayat","ulbcode":"900152","wardname":"Kurupwadi","wardcode":"13","id":null,"status":"APPROVED","misglobalid":null,"approved_by":null,"createdate":1647882309000,"updateddate":1647944102000,"globalid":null,"gisglobalid":"cdc6nPsR-4omc-PmQm-RQlR-c6BaKQaKBPQQ","remark":"Ward 13 0K","st_area(shape)":0.000022658275680943174,"st_perimeter(shape)":0.021456385288261527}},{"arcs":[[-169,407,408,-195,409,410,411,-191,412,413,414,415,-393,416,417,418,419,420,421,422,423,424,425,426,427,428,429,430,431,432,433,434,435,436,437,438,439,440,441,442,443,444,445,446,447,448,449,450,451,452,453,454,455,456,457,458,459,460,461,462,463,464,465,466,467,468,469,470,471,472,473,474,475,476,477,478,479,480,481,482,483,484,485,486,487,488,489,490]],"type":"Polygon","properties":{"objectid":71840,"statename":"Maharashtra","statecode":"27","districtname":"Ratnagiri","districtcode":"528","ulbname":"Lanja Nagarpanchayat","ulbcode":"900152","wardname":"West Rest House","wardcode":"14","id":null,"status":"APPROVED","misglobalid":null,"approved_by":null,"createdate":1642028433000,"updateddate":1647944125000,"globalid":null,"gisglobalid":"mPPnadQm-csm4-Pmc4-R4Bl-mm5cdQ6Qnnds","remark":"Ward 14 0K","st_area(shape)":0.00027075842365389935,"st_perimeter(shape)":0.09702138286078245}},{"arcs":[[491,492,493,494,495,-388,496,-386,497,-384,498,499,-381,500,501,502,-377,503,-375,504,-373,505,506,507]],"type":"Polygon","properties":{"objectid":74908,"statename":"Maharashtra","statecode":"27","districtname":"Ratnagiri","districtcode":"528","ulbname":"Lanja Nagarpanchayat","ulbcode":"900152","wardname":"East Rest House","wardcode":"15","id":null,"status":"APPROVED","misglobalid":null,"approved_by":null,"createdate":1642029917000,"updateddate":1647944154000,"globalid":null,"gisglobalid":"5RcKdslR-ssR6-PmcP-Q46a-dQKaon5lPaol","remark":"Ward 15 0K","st_area(shape)":0.00016472549341899368,"st_perimeter(shape)":0.059995801643801236}},{"arcs":[[508,509,-489,510,-487,511,512,-484,513,-482,514,515,516,517,-477,518,-475,519,-473,520,-471,521,522,523,-467,524,525,-464,526,527,-461,528,529,-458,530,531,532,-454,533,-452,534,-450,535,-448,536,-446,537,-444,538,-442,539,-440,540,-438,541,-436,542,-434,543,544,-431,545,-429,546,-427,547,-425,548,549,-422,550,-420,551,552,553,554,555,556,557,558]],"type":"Polygon","properties":{"objectid":71838,"statename":"Maharashtra","statecode":"27","districtname":"Ratnagiri","districtcode":"528","ulbname":"Lanja Nagarpanchayat","ulbcode":"900152","wardname":"Niwalewadi","wardcode":"16","id":null,"status":"APPROVED","misglobalid":null,"approved_by":null,"createdate":1642028104000,"updateddate":1647944180000,"globalid":null,"gisglobalid":"6mBlKo4m-5nKP-PndR-RdRP-Pnl4aooodlQR","remark":"Ward 16 0K","st_area(shape)":0.0002644726270744605,"st_perimeter(shape)":0.105390236081134}},{"arcs":[[559,560,561,562,563]],"type":"Polygon","properties":{"objectid":71837,"statename":"Maharashtra","statecode":"27","districtname":"Ratnagiri","districtcode":"528","ulbname":"Lanja Nagarpanchayat","ulbcode":"900152","wardname":"Mawalatwadi","wardcode":"17","id":null,"status":"APPROVED","misglobalid":null,"approved_by":null,"createdate":1642027303000,"updateddate":1647944204000,"globalid":null,"gisglobalid":"BKsmaKP6-cQsc-PBan-Rac4-65ncadlnQ6oR","remark":"Ward 17 0K","st_area(shape)":0.00038593879688755036,"st_perimeter(shape)":0.11154271214985838}}]}}}