{"type":"Topology","arcs":[[[31077,68301],[-5012,2276]],[[26065,70577],[-4511,3153]],[[21554,73730],[8772,3852],[2756,9107],[9775,-350]],[[42857,86339],[9022,-13135]],[[51879,73204],[3258,-4728]],[[55137,68476],[-4010,-1401]],[[51127,67075],[-20050,1226]],[[40350,63397],[-2005,-1576]],[[38345,61821],[-3508,-701]],[[34837,61120],[-10526,350]],[[24311,61470],[-4261,-525]],[[20050,60945],[-752,0]],[[19298,60945],[2256,12785]],[[21554,73730],[4511,-3153]],[[26065,70577],[5012,-2276]],[[31077,68301],[20050,-1226]],[[51127,67075],[752,-2978]],[[51879,64097],[-11529,-700]],[[55137,68476],[7519,-2802]],[[62656,65674],[-752,-2627]],[[61904,63047],[-3258,-876]],[[58646,62171],[-2757,-525]],[[55889,61646],[-4010,2451]],[[51879,73204],[13785,8056]],[[65664,81260],[4511,3152]],[[70175,84412],[5012,526]],[[75187,84938],[2757,1401]],[[77944,86339],[7018,-9632]],[[84962,76707],[-10777,-3328],[-5514,-7705]],[[68671,65674],[-13534,2802]],[[51879,73204],[-9022,13135]],[[42857,86339],[-3008,4728],[23810,8932],[14285,-13660]],[[77944,86339],[-2757,-1401]],[[70175,84412],[-4511,-3152]],[[84962,76707],[10025,-9807]],[[94987,66900],[-5514,-3853]],[[89473,63047],[-11780,-1226]],[[77693,61821],[-4010,0]],[[73683,61821],[-1002,-2977]],[[72681,58844],[-6767,-2277]],[[65914,56567],[-2005,525]],[[63909,57092],[-1504,2627]],[[62405,59719],[-501,3328]],[[62656,65674],[6015,0]],[[94987,66900],[5012,-5430],[-4261,-8055],[-751,-15062]],[[94987,38353],[-5765,0]],[[89222,38353],[-13534,-875]],[[75688,37478],[-16541,1226]],[[59147,38704],[-4511,1226]],[[54636,39930],[2757,3677]],[[57393,43607],[0,175]],[[57393,43782],[4010,0]],[[61403,43782],[13784,526]],[[75187,44308],[0,9982]],[[75187,54290],[-250,876]],[[74937,55166],[-2256,3678]],[[73683,61821],[4010,0]],[[77693,61821],[11780,1226]],[[72681,58844],[2256,-3678]],[[75187,54290],[0,-9982]],[[75187,44308],[-13784,-526]],[[57393,43782],[-501,5079]],[[56892,48861],[-1755,2627]],[[55137,51488],[4762,1927]],[[59899,53415],[5263,3327]],[[65162,56742],[752,-175]],[[65914,56567],[6767,2277]],[[58646,62171],[3759,-2452]],[[63909,57092],[1253,-350]],[[65162,56742],[-3258,-1926]],[[61904,54816],[-2005,1576]],[[59899,56392],[-3007,0]],[[56892,56392],[-752,0]],[[56140,56392],[-752,1926]],[[55388,58318],[501,3328]],[[55889,61646],[-501,-3328]],[[56140,56392],[-4511,700]],[[51629,57092],[-3509,351]],[[48120,57443],[-13283,3677]],[[34837,61120],[3508,701]],[[38345,61821],[2005,1576]],[[51629,57092],[-6266,-4553]],[[45363,52539],[-12531,1051]],[[32832,53590],[-6516,-1401]],[[26316,52189],[-4261,-876]],[[22055,51313],[-2506,-1751]],[[19549,49562],[-6266,-701]],[[13283,48861],[-2256,0]],[[11027,48861],[-2005,-350]],[[9022,48511],[-1754,175]],[[7268,48686],[-1504,-525]],[[5764,48161],[-5764,1226],[10025,7355],[9273,4203]],[[20050,60945],[4261,525]],[[24311,61470],[10526,-350]],[[34837,61120],[13283,-3677]],[[56892,56392],[3007,0]],[[61904,54816],[-2005,-1401]],[[55137,51488],[-7268,-2452]],[[47869,49036],[-2506,3503]],[[45363,52539],[6266,4553]],[[47869,49036],[9023,-175]],[[56892,48861],[501,-5254]],[[57393,43607],[-2757,-3677]],[[54636,39930],[-7519,875]],[[47117,40805],[-3508,1226]],[[43609,42031],[-2757,175]],[[40852,42206],[-13033,1226]],[[27819,43432],[-5263,1927]],[[22556,45359],[-1253,2627]],[[21303,47986],[251,875]],[[21554,48861],[501,2452]],[[26316,52189],[6516,1401]],[[7268,48686],[1754,-175]],[[9022,48511],[2005,350]],[[13283,48861],[6266,701]],[[19549,49562],[2005,-701]],[[21303,47986],[1253,-2627]],[[22556,45359],[5263,-1927]],[[40852,42206],[1253,0]],[[42105,42206],[2506,-4378],[7018,-3327]],[[51629,34501],[0,-2452]],[[51629,32049],[1503,-5079]],[[53132,26970],[1755,-12960]],[[54887,14010],[-752,-1926]],[[54135,12084],[-6516,1926],[-9023,9983],[-12782,6655],[-20050,17513]],[[94987,38353],[-1504,-21015],[-7770,-6655],[-12531,-7180],[-10025,-3503],[-9022,12084]],[[54887,14010],[-1755,12960]],[[53132,26970],[-1503,5079]],[[51629,32049],[0,2452]],[[42105,42206],[1504,-175]],[[47117,40805],[7519,-875]],[[59147,38704],[16541,-1226]],[[75688,37478],[13534,875]]],"transform":{"scale":[3.990039900399297e-7,5.710057100570843e-7],"translate":[81.2234,19.6841]},"objects":{"wards":{"type":"GeometryCollection","geometries":[{"arcs":[[0,1,2,3,4,5,6]],"type":"Polygon","properties":{"objectid":44291,"statename":"Chhattisgarh","statecode":"22","districtname":null,"districtcode":"415","ulbname":"Narayanpur","ulbcode":"802066","wardname":"Naya Para Ward","wardcode":"1","id":null,"status":"APPROVED","misglobalid":null,"approved_by":null,"createdate":1638596660000,"updateddate":1643891898000,"globalid":null,"gisglobalid":"d7e40e84-59c0-4e88-ab7c-46ab77577739","remark":"Approve","st_area(shape)":0.00009189306518935872,"st_perimeter(shape)":0.03991696886913112}},{"arcs":[[7,8,9,10,11,12,13,14,15,16,17]],"type":"Polygon","properties":{"objectid":43919,"statename":"Chhattisgarh","statecode":"22","districtname":null,"districtcode":"415","ulbname":"Narayanpur","ulbcode":"802066","wardname":"D.N.K. Ward","wardcode":"2","id":null,"status":"APPROVED","misglobalid":null,"approved_by":null,"createdate":1638596996000,"updateddate":1643891914000,"globalid":null,"gisglobalid":"0931d0ce-6136-458e-a287-4b9677052e47","remark":"Approve","st_area(shape)":0.00005101636780616014,"st_perimeter(shape)":0.038280611767642095}},{"arcs":[[-17,-6,18,19,20,21,22]],"type":"Polygon","properties":{"objectid":44413,"statename":"Chhattisgarh","statecode":"22","districtname":null,"districtcode":"415","ulbname":"Narayanpur","ulbcode":"802066","wardname":"Tahsil Para Ward","wardcode":"3","id":null,"status":"APPROVED","misglobalid":null,"approved_by":null,"createdate":1638617870000,"updateddate":1643891924000,"globalid":null,"gisglobalid":"875ccd71-2817-44ad-a9aa-8920d6c60550","remark":"Approve","st_area(shape)":0.000012056673393953869,"st_perimeter(shape)":0.01320822106725432}},{"arcs":[[23,24,25,26,27,28,29,-5]],"type":"Polygon","properties":{"objectid":44082,"statename":"Chhattisgarh","statecode":"22","districtname":null,"districtcode":"415","ulbname":"Narayanpur","ulbcode":"802066","wardname":"Bangla Para Ward Ward","wardcode":"4","id":null,"status":"APPROVED","misglobalid":null,"approved_by":null,"createdate":1638617891000,"updateddate":1643891942000,"globalid":null,"gisglobalid":"09203ede-9c9e-441c-9a7e-a2a616c8cc9d","remark":"Approve","st_area(shape)":0.00008332711415575172,"st_perimeter(shape)":0.04033263562184035}},{"arcs":[[30,31,32,-26,33,-24]],"type":"Polygon","properties":{"objectid":44083,"statename":"Chhattisgarh","statecode":"22","districtname":null,"districtcode":"415","ulbname":"Narayanpur","ulbcode":"802066","wardname":"Singoditarai Ward","wardcode":"5","id":null,"status":"APPROVED","misglobalid":null,"approved_by":null,"createdate":1638617912000,"updateddate":1643891955000,"globalid":null,"gisglobalid":"c0ea8349-8b75-4140-8bb7-2d8e22946ce9","remark":"Approve","st_area(shape)":0.00011635364139172664,"st_perimeter(shape)":0.04509181687271228}},{"arcs":[[34,35,36,37,38,39,40,41,42,-20,43,-29]],"type":"Polygon","properties":{"objectid":44414,"statename":"Chhattisgarh","statecode":"22","districtname":null,"districtcode":"415","ulbname":"Narayanpur","ulbcode":"802066","wardname":"Bazar Para Ward","wardcode":"6","id":null,"status":"APPROVED","misglobalid":null,"approved_by":null,"createdate":1638617928000,"updateddate":1643891975000,"globalid":null,"gisglobalid":"fc1591ac-cc5b-4e1d-ace2-74dc826cf8ef","remark":"Approve","st_area(shape)":0.00007593297048309832,"st_perimeter(shape)":0.03943331884373312}},{"arcs":[[-36,44,45,46,47,48,49,50,51,52,53,54,55,-39,56,57]],"type":"Polygon","properties":{"objectid":44415,"statename":"Chhattisgarh","statecode":"22","districtname":null,"districtcode":"415","ulbname":"Narayanpur","ulbcode":"802066","wardname":"Bakhru Para Ward","wardcode":"7","id":null,"status":"APPROVED","misglobalid":null,"approved_by":null,"createdate":1638617944000,"updateddate":1643892189000,"globalid":null,"gisglobalid":"5211434a-323a-4dbf-b082-09cf7926fc7f","remark":"Approved","st_area(shape)":0.00015149718043751124,"st_perimeter(shape)":0.06328861049463869}},{"arcs":[[58,-55,59,60,-52,61,62,63,64,65,66]],"type":"Polygon","properties":{"objectid":44416,"statename":"Chhattisgarh","statecode":"22","districtname":null,"districtcode":"415","ulbname":"Narayanpur","ulbcode":"802066","wardname":"Mahavir Mandir Ward","wardcode":"8","id":null,"status":"APPROVED","misglobalid":null,"approved_by":null,"createdate":1638617960000,"updateddate":1643891986000,"globalid":null,"gisglobalid":"151a9d20-bd67-4d4c-8c5b-4a211711759e","remark":"Approve","st_area(shape)":0.00005141343460491261,"st_perimeter(shape)":0.028565167320668838}},{"arcs":[[67,-42,68,69,70,71,72,73,74,-22]],"type":"Polygon","properties":{"objectid":44417,"statename":"Chhattisgarh","statecode":"22","districtname":null,"districtcode":"415","ulbname":"Narayanpur","ulbcode":"802066","wardname":"Jagdish Mandir Ward","wardcode":"9","id":null,"status":"APPROVED","misglobalid":null,"approved_by":null,"createdate":1638617973000,"updateddate":1643892026000,"globalid":null,"gisglobalid":"3c7abbf7-cde7-4a29-bfdb-e48b645b6fcd","remark":"Approved","st_area(shape)":0.000010386352337263962,"st_perimeter(shape)":0.014375081981849499}},{"arcs":[[-18,-23,75,-74,76,77,78,79,80]],"type":"Polygon","properties":{"objectid":42101,"statename":"Chhattisgarh","statecode":"22","districtname":null,"districtcode":"415","ulbname":"Narayanpur","ulbcode":"802066","wardname":"Muria Para Ward","wardcode":"10","id":null,"status":"APPROVED","misglobalid":null,"approved_by":null,"createdate":1638351034000,"updateddate":1643892039000,"globalid":null,"gisglobalid":"83093183-c438-43d9-ab52-80ee326f17b9","remark":"Approved","st_area(shape)":0.000022420676744049297,"st_perimeter(shape)":0.02218886357560709}},{"arcs":[[81,82,83,84,85,86,87,88,89,90,91,-12,92,93,94,-78]],"type":"Polygon","properties":{"objectid":42192,"statename":"Chhattisgarh","statecode":"22","districtname":null,"districtcode":"415","ulbname":"Narayanpur","ulbcode":"802066","wardname":"Ashram  Para Ward ","wardcode":"11","id":null,"status":"APPROVED","misglobalid":null,"approved_by":null,"createdate":1638363577000,"updateddate":1643892051000,"globalid":null,"gisglobalid":"9e70ffc2-c552-4b04-a3c0-3fce8f99f3db","remark":"Approved","st_area(shape)":0.00008095662454308198,"st_perimeter(shape)":0.047163143921876295}},{"arcs":[[-77,-73,95,-71,96,-64,97,98,99]],"type":"Polygon","properties":{"objectid":41899,"statename":"Chhattisgarh","statecode":"22","districtname":null,"districtcode":"415","ulbname":"Narayanpur","ulbcode":"802066","wardname":"Madin Devi Ward","wardcode":"12","id":null,"status":"APPROVED","misglobalid":null,"approved_by":null,"createdate":1638351566000,"updateddate":1643892064000,"globalid":null,"gisglobalid":"ec34a21d-8259-458c-b5da-746ac34ab9a3","remark":"Approved","st_area(shape)":0.000017340452778794706,"st_perimeter(shape)":0.018081755783316972}},{"arcs":[[-99,100,101,102,103,104,105,106,107,108,109,110,-85,111,-83]],"type":"Polygon","properties":{"objectid":42127,"statename":"Chhattisgarh","statecode":"22","districtname":null,"districtcode":"415","ulbname":"Narayanpur","ulbcode":"802066","wardname":"Kumhar Para Ward","wardcode":"13","id":null,"status":"APPROVED","misglobalid":null,"approved_by":null,"createdate":1638353844000,"updateddate":1643892094000,"globalid":null,"gisglobalid":"781c71dc-9cd1-4d4b-9e89-2aace6c9e3bb","remark":"Approved","st_area(shape)":0.00007744514094067236,"st_perimeter(shape)":0.04011641852452514}},{"arcs":[[-91,112,113,-88,114,115,-110,116,117,-107,118,119,120,121,122,123,124]],"type":"Polygon","properties":{"objectid":44678,"statename":"Chhattisgarh","statecode":"22","districtname":null,"districtcode":"415","ulbname":"Narayanpur","ulbcode":"802066","wardname":"Sakdibeda Ward","wardcode":"14","id":null,"status":"APPROVED","misglobalid":null,"approved_by":null,"createdate":1638786868000,"updateddate":1643892111000,"globalid":null,"gisglobalid":"e1054ccd-fa19-4d77-9d2a-a4aab181cdca","remark":"Approved","st_area(shape)":0.0001552826496243986,"st_perimeter(shape)":0.06718945570134906}},{"arcs":[[-46,125,-124,126,127,128,-120,129,-105,130,-49,131,132]],"type":"Polygon","properties":{"objectid":44679,"statename":"Chhattisgarh","statecode":"22","districtname":null,"districtcode":"415","ulbname":"Narayanpur","ulbcode":"802066","wardname":"Dumartarai Ward","wardcode":"15","id":null,"status":"APPROVED","misglobalid":null,"approved_by":null,"createdate":1638786982000,"updateddate":1643892132000,"globalid":null,"gisglobalid":"99331148-24e5-413f-929d-fdd69839573d","remark":"Approved","st_area(shape)":0.00030045530557360693,"st_perimeter(shape)":0.07650939759889248}}]}}}