{"type":"Topology","arcs":[[[0,45108],[22368,19022],[2632,35869],[13158,-1630],[9210,-9239],[18421,3804],[6250,-20652],[13158,20108],[14803,-21739],[-29276,-11956]],[[70724,58695],[-10527,-9782]],[[60197,48913],[-1644,1087]],[[58553,50000],[-987,5978]],[[57566,55978],[-1974,2717]],[[55592,58695],[-6250,5978],[-23355,-2174],[-7566,-12499]],[[18421,50000],[-18421,-4892]],[[49671,45652],[5921,13043]],[[55592,58695],[1974,-2717]],[[57566,55978],[987,-5978]],[[58553,50000],[-8882,-4348]],[[60197,48913],[10527,9782]],[[70724,58695],[12500,-3804],[-11185,-27174],[-4605,4891]],[[67434,32608],[-5263,4348]],[[62171,36956],[658,7609]],[[62829,44565],[-6250,-1087]],[[56579,43478],[1974,6522]],[[67434,32608],[1974,-3260]],[[69408,29348],[-1645,-3805]],[[67763,25543],[-6908,4348]],[[60855,29891],[6579,2717]],[[24013,42934],[13487,-6521]],[[37500,36413],[987,0]],[[38487,36413],[658,-2718]],[[39145,33695],[2631,1631]],[[41776,35326],[3290,2174]],[[45066,37500],[987,1087]],[[46053,38587],[4276,-5979]],[[50329,32608],[329,-2174]],[[50658,30434],[3947,544]],[[54605,30978],[987,-544]],[[55592,30434],[329,-4347]],[[55921,26087],[1316,-2718]],[[57237,23369],[-9211,-15217],[10856,-2717],[1315,4348]],[[60197,9783],[658,20108]],[[60855,29891],[6908,-4348]],[[69408,29348],[-5263,-23913],[-19408,-5435],[-9540,19022],[-7894,-1087],[-3290,24999]],[[54605,30978],[-3947,-544]],[[50658,30434],[-329,2174]],[[50329,32608],[-4276,5979]],[[45066,37500],[-3290,-2174]],[[41776,35326],[-329,2717]],[[41447,38043],[987,3804]],[[42434,41847],[5592,1087]],[[48026,42934],[329,0]],[[48355,42934],[1316,1087]],[[49671,44021],[1316,-1630]],[[50987,42391],[-1316,-1631]],[[49671,40760],[5263,-4891]],[[54934,35869],[-329,-4891]],[[57237,23369],[-1316,2718]],[[55921,26087],[-329,4347]],[[55592,30434],[-658,5435]],[[54934,35869],[1645,544]],[[56579,36413],[6250,8152]],[[62829,44565],[-658,-7609]],[[62171,36956],[-4276,-16848],[2302,-10325]],[[60197,9783],[-11513,-1631],[8553,15217]],[[56579,43478],[0,-7065]],[[56579,36413],[-1645,-544]],[[54934,35869],[-5263,4891]],[[49671,40760],[1316,1631]],[[50987,42391],[-1316,1630]],[[49671,44021],[6908,-543]],[[39145,33695],[-658,3261]],[[38487,36956],[987,9783]],[[39474,46739],[10197,-1087]],[[49671,45652],[-1316,-2718]],[[48355,42934],[-329,0]],[[48026,42934],[-5592,-1087]],[[42434,41847],[-987,-3804]],[[41447,38043],[-2302,-4348]],[[38487,36956],[0,-543]],[[37500,36413],[-3289,10326]],[[34211,46739],[5263,4347]],[[39474,51086],[658,3805]],[[40132,54891],[-658,-8152]],[[39474,46739],[-987,-9783]],[[34211,46739],[5921,8152]],[[39474,51086],[-5263,-4347]],[[18421,50000],[5592,-7066]],[[24013,42934],[-5592,7066]]],"transform":{"scale":[3.0400000000000203e-7,1.840018400183977e-7],"translate":[75.1808,31.2064]},"objects":{"wards":{"type":"GeometryCollection","geometries":[{"arcs":[[0,1,2,3,4,5,6]],"type":"Polygon","properties":{"objectid":32960,"statename":"Punjab","statecode":"3","districtname":"Kapurthala","districtcode":"36","ulbname":"Sultanpur Lodhi","ulbcode":"800157","wardname":"Ward 1","wardcode":"1","id":null,"status":"APPROVED","misglobalid":null,"approved_by":null,"createdate":1648541070000,"updateddate":1648541132000,"globalid":null,"gisglobalid":"l4ooQP4R-KQ6s-Poa5-aRmd-aQP4a6ndRnQP","remark":"Ok","st_area(shape)":0.00012210679566016547,"st_perimeter(shape)":0.0858479364454134}},{"type":null,"properties":{"objectid":32954,"statename":"Punjab","statecode":"3","districtname":null,"districtcode":"36","ulbname":" Sultanpur Lodhi","ulbcode":"800157","wardname":"","wardcode":"2","id":null,"status":"APPROVED","misglobalid":null,"approved_by":"ULB Nodal Officer","createdate":1635930133000,"updateddate":1640245146000,"globalid":"c45Rnaom-lcRB-P4c4-a5no-QQdc5mRRs4sn","gisglobalid":"aa17aad7-4896-45e2-a41f-73a72168ef28","remark":"Approved","st_area(shape)":0.000014280331238811344,"st_perimeter(shape)":0.02776128043231457}},{"arcs":[[7,8,9,10]],"type":"Polygon","properties":{"objectid":34156,"statename":"Punjab","statecode":"3","districtname":null,"districtcode":"36","ulbname":" Sultanpur Lodhi","ulbcode":"800157","wardname":"","wardcode":"3","id":null,"status":"APPROVED","misglobalid":null,"approved_by":"ULB Nodal Officer","createdate":1635930155000,"updateddate":1640245158000,"globalid":"6nQds55P-6aQP-PmKm-a44c-d5msRPlaRoPB","gisglobalid":"6de3d59f-5c96-44e7-b506-fd82dcc1009e","remark":"Approved","st_area(shape)":0.0000038872540812420115,"st_perimeter(shape)":0.009907952089323838}},{"arcs":[[-3,11,12,13,14,15,16]],"type":"Polygon","properties":{"objectid":34157,"statename":"Punjab","statecode":"3","districtname":null,"districtcode":"36","ulbname":" Sultanpur Lodhi","ulbcode":"800157","wardname":"","wardcode":"4","id":null,"status":"APPROVED","misglobalid":null,"approved_by":"ULB Nodal Officer","createdate":1635929367000,"updateddate":1640245168000,"globalid":"aoanKQsm-o4sP-PK6K-RRos-B5Km4nPoQd6s","gisglobalid":"3adbb832-2c20-434d-949e-e693d151e69e","remark":"Approved","st_area(shape)":0.000033701616170175526,"st_perimeter(shape)":0.03709908224725748}},{"arcs":[[17,18,19,20]],"type":"Polygon","properties":{"objectid":32955,"statename":"Punjab","statecode":"3","districtname":null,"districtcode":"36","ulbname":" Sultanpur Lodhi","ulbcode":"800157","wardname":"","wardcode":"5","id":null,"status":"APPROVED","misglobalid":null,"approved_by":"ULB Nodal Officer","createdate":1635927297000,"updateddate":1640245181000,"globalid":"a5R5mdKo-a5oP-PaKc-Rcnn-5dol4Q5lQ6QK","gisglobalid":"0c10c574-a3d7-41d5-a1eb-5f06068c878a","remark":"Approved","st_area(shape)":0.0000027601915255449953,"st_perimeter(shape)":0.0069442646987298825}},{"arcs":[[21,22,23,24,25,26,27,28,29,30,31,32,33,34,35,-19,36]],"type":"Polygon","properties":{"objectid":32961,"statename":"Punjab","statecode":"3","districtname":null,"districtcode":"36","ulbname":" Sultanpur Lodhi","ulbcode":"800157","wardname":"","wardcode":"6","id":null,"status":"APPROVED","misglobalid":null,"approved_by":"ULB Nodal Officer","createdate":1635929545000,"updateddate":1640245191000,"globalid":"sPccP4nd-cd6a-PBs4-RdlP-cKBlncB5omQd","gisglobalid":"f9a8ccbb-1c93-4d76-8aab-b07e00b456f1","remark":"Approved","st_area(shape)":0.000054700235937790465,"st_perimeter(shape)":0.057597463830866995}},{"arcs":[[37,38,39,-27,40,41,42,43,44,45,46,47,48,49]],"type":"Polygon","properties":{"objectid":32153,"statename":"Punjab","statecode":"3","districtname":null,"districtcode":"36","ulbname":" Sultanpur Lodhi","ulbcode":"800157","wardname":"","wardcode":"7","id":null,"status":"APPROVED","misglobalid":null,"approved_by":"ULB Nodal Officer","createdate":1635927332000,"updateddate":1640245214000,"globalid":"oRc5QoP4-Qsao-PBdd-sm45-ld6PcaPK6Pl6","gisglobalid":"a1071904-cb1e-4d16-9eb7-16b1035713e9","remark":"Approved","st_area(shape)":0.000005483808111127939,"st_perimeter(shape)":0.012985570354803452}},{"arcs":[[50,51,52,53,54,55,56,57]],"type":"Polygon","properties":{"objectid":32956,"statename":"Punjab","statecode":"3","districtname":null,"districtcode":"36","ulbname":" Sultanpur Lodhi","ulbcode":"800157","wardname":"","wardcode":"8","id":null,"status":"APPROVED","misglobalid":null,"approved_by":"ULB Nodal Officer","createdate":1635927356000,"updateddate":1640245224000,"globalid":"R5na4amn-o5dm-Ps44-asmn-cscnaR4cBPcl","gisglobalid":"f13e41eb-f2eb-47e6-8f20-af18b5982b08","remark":"Approved","st_area(shape)":0.00001119312772200252,"st_perimeter(shape)":0.02130683239245985}},{"arcs":[[58,59,60,61,62,63]],"type":"Polygon","properties":{"objectid":32957,"statename":"Punjab","statecode":"3","districtname":null,"districtcode":"36","ulbname":" Sultanpur Lodhi","ulbcode":"800157","wardname":"","wardcode":"9","id":null,"status":"APPROVED","misglobalid":null,"approved_by":"ULB Nodal Officer","createdate":1635927381000,"updateddate":1640245233000,"globalid":"Ramsdon4-Rs6n-Paln-QonK-BsKP4KBB5s4R","gisglobalid":"0a817701-b325-4a5d-9840-2575154adc90","remark":"Approved","st_area(shape)":0.0000028254629511501873,"st_perimeter(shape)":0.007817018845546682}},{"arcs":[[64,65,66,67,68,69,70,71]],"type":"Polygon","properties":{"objectid":32958,"statename":"Punjab","statecode":"3","districtname":null,"districtcode":"36","ulbname":" Sultanpur Lodhi","ulbcode":"800157","wardname":"","wardcode":"10","id":null,"status":"APPROVED","misglobalid":null,"approved_by":"ULB Nodal Officer","createdate":1635927407000,"updateddate":1640245241000,"globalid":"mKQcn5Rn-Kocd-PPdB-s54n-llcno5m5cBds","gisglobalid":"f3208a46-caa3-4566-8629-ef37bd05d671","remark":"Approved","st_area(shape)":0.000003044838158629304,"st_perimeter(shape)":0.010263147100666946}},{"arcs":[[72,-23,73,74,75,76,77]],"type":"Polygon","properties":{"objectid":32559,"statename":"Punjab","statecode":"3","districtname":null,"districtcode":"36","ulbname":" Sultanpur Lodhi","ulbcode":"800157","wardname":"","wardcode":"11","id":null,"status":"APPROVED","misglobalid":null,"approved_by":"ULB Nodal Officer","createdate":1635927434000,"updateddate":1640245249000,"globalid":"asQd5odK-dKBa-PmdB-Rcmm-ncKomm4Kolc5","gisglobalid":"5dcc96e4-454a-4b86-9bf3-529ee4e239c4","remark":"Approved","st_area(shape)":0.00000400460648886114,"st_perimeter(shape)":0.010947302737142338}},{"arcs":[[78,-76,79]],"type":"Polygon","properties":{"objectid":32560,"statename":"Punjab","statecode":"3","districtname":null,"districtcode":"36","ulbname":" Sultanpur Lodhi","ulbcode":"800157","wardname":"","wardcode":"12","id":null,"status":"APPROVED","misglobalid":null,"approved_by":"ULB Nodal Officer","createdate":1635927493000,"updateddate":1640245258000,"globalid":"5aRlBlPB-Bn4B-P6nQ-asln-BdaRKaB4dPcP","gisglobalid":"71971c5b-26ff-42b4-ad1e-a6dcda933b1a","remark":"Approved","st_area(shape)":0.0000042014215351059714,"st_perimeter(shape)":0.009295181338738273}},{"arcs":[[80,81]],"type":"Polygon","properties":{"objectid":32962,"statename":"Punjab","statecode":"3","districtname":null,"districtcode":"36","ulbname":" Sultanpur Lodhi","ulbcode":"800157","wardname":"","wardcode":"13","id":null,"status":"APPROVED","misglobalid":null,"approved_by":"ULB Nodal Officer","createdate":1635929590000,"updateddate":1640245270000,"globalid":"oddndR4R-nBoQ-PQPK-aRm6-4K4R6BPmm6cQ","gisglobalid":"8a33acce-5fc1-40e2-87f7-02e7e6dd6b87","remark":"Approved","st_area(shape)":0.0000209905342764661,"st_perimeter(shape)":0.026176800338519237}}]}}}