{"type": "FeatureCollection", "features": [{"type": "Feature", "geometry": {"type": "Polygon", "coordinates": [[[81.5504, 26.2658], [81.5505, 26.266], [81.5508, 26.266], [81.5508, 26.2661], [81.5508, 26.2662], [81.5509, 26.2663], [81.551, 26.2665], [81.5511, 26.2667], [81.5511, 26.267], [81.5512, 26.2673], [81.5513, 26.2675], [81.5514, 26.268], [81.5514, 26.2685], [81.5514, 26.2689], [81.5514, 26.2704], [81.551, 26.2717], [81.5511, 26.2718], [81.5513, 26.2718], [81.5515, 26.2717], [81.5517, 26.2716], [81.5519, 26.2715], [81.5521, 26.2716], [81.5524, 26.2717], [81.5527, 26.2717], [81.553, 26.2716], [81.5535, 26.2718], [81.5538, 26.2715], [81.5539, 26.2714], [81.554, 26.2714], [81.5541, 26.2715], [81.5543, 26.2715], [81.5545, 26.2715], [81.5546, 26.2713], [81.5545, 26.2711], [81.5542, 26.2703], [81.5539, 26.2698], [81.5538, 26.2681], [81.553, 26.2665], [81.5531, 26.2663], [81.5531, 26.266], [81.5531, 26.2658], [81.5531, 26.2656], [81.5531, 26.2653], [81.5529, 26.2653], [81.5526, 26.2653], [81.5525, 26.2652], [81.5522, 26.2652], [81.552, 26.2652], [81.5519, 26.2652], [81.5518, 26.2653], [81.5516, 26.2654], [81.5514, 26.2654], [81.5513, 26.2655], [81.5511, 26.2656], [81.551, 26.2656], [81.5509, 26.2656], [81.5508, 26.2657], [81.5507, 26.2657], [81.5506, 26.2657], [81.5504, 26.2658]]]}, "properties": {"objectid": 312014, "statename": "UTTAR PRADESH", "statecode": "9", "districtname": "AMETHI", "districtcode": "659", "ulbname": "Jais NPP", "ulbcode": "800958", "wardname": "Kanchana Uttari", "wardcode": "1", "id": null, "status": "APPROVED", "misglobalid": null, "approved_by": null, "createdate": 1732883440000, "updateddate": 1733132670000, "globalid": null, "gisglobalid": "PK4QsdRK-5n6R-PdBR-RPa4-5dRoKddRnQod", "remark": "", "st_area(shape)": 1.5996594703687348e-05, "st_perimeter(shape)": 0.01949536822026073}}, {"type": "Feature", "geometry": {"type": "Polygon", "coordinates": [[[81.5482, 26.269], [81.5483, 26.269], [81.5485, 26.2689], [81.5488, 26.2688], [81.5492, 26.2687], [81.5497, 26.2685], [81.5503, 26.2683], [81.5501, 26.268], [81.5498, 26.2675], [81.5495, 26.267], [81.5493, 26.2668], [81.5492, 26.2666], [81.549, 26.2667], [81.5488, 26.2669], [81.5486, 26.2671], [81.5484, 26.2672], [81.5482, 26.2674], [81.5479, 26.2676], [81.5478, 26.2677], [81.5478, 26.2678], [81.5476, 26.2679], [81.5473, 26.268], [81.5471, 26.2681], [81.5468, 26.2681], [81.547, 26.2684], [81.5468, 26.2685], [81.5469, 26.2687], [81.5469, 26.2689], [81.5469, 26.2691], [81.5471, 26.2691], [81.5472, 26.2693], [81.5473, 26.2695], [81.5474, 26.2698], [81.5474, 26.2702], [81.5474, 26.2705], [81.5475, 26.271], [81.5479, 26.2709], [81.5481, 26.2707], [81.5484, 26.2706], [81.5482, 26.2703], [81.5482, 26.2696], [81.5482, 26.269]]]}, "properties": {"objectid": 312015, "statename": "UTTAR PRADESH", "statecode": "9", "districtname": "AMETHI", "districtcode": "659", "ulbname": "Jais NPP", "ulbcode": "800958", "wardname": "Jermasjid Poorvi", "wardcode": "3", "id": null, "status": "APPROVED", "misglobalid": null, "approved_by": null, "createdate": 1732884932000, "updateddate": 1733206286000, "globalid": null, "gisglobalid": "4P4nPm44-6KoK-PPQR-QsQm-sdBocn5R4das", "remark": "", "st_area(shape)": 6.2315689597815475e-06, "st_perimeter(shape)": 0.01284337607611068}}, {"type": "Feature", "geometry": {"type": "Polygon", "coordinates": [[[81.5433, 26.2666], [81.5435, 26.2668], [81.5434, 26.2669], [81.5434, 26.2671], [81.5437, 26.267], [81.5437, 26.2672], [81.5437, 26.2674], [81.5437, 26.2675], [81.5437, 26.2676], [81.5437, 26.2677], [81.5438, 26.2679], [81.5437, 26.2679], [81.5438, 26.268], [81.5437, 26.2681], [81.5437, 26.2682], [81.5438, 26.2682], [81.5438, 26.2683], [81.5438, 26.2684], [81.5439, 26.2685], [81.5439, 26.2686], [81.544, 26.2687], [81.5442, 26.2686], [81.5443, 26.2685], [81.5443, 26.2684], [81.5444, 26.2683], [81.5445, 26.2683], [81.5446, 26.2683], [81.5446, 26.2682], [81.5447, 26.2683], [81.5448, 26.2685], [81.5448, 26.2686], [81.5449, 26.2686], [81.545, 26.2685], [81.5451, 26.2684], [81.5453, 26.2683], [81.5454, 26.2682], [81.5455, 26.2682], [81.5453, 26.268], [81.5452, 26.2677], [81.5451, 26.2673], [81.5449, 26.2671], [81.5448, 26.2669], [81.5447, 26.2667], [81.5446, 26.2664], [81.5445, 26.2663], [81.5445, 26.2661], [81.5446, 26.2661], [81.5446, 26.266], [81.5446, 26.2659], [81.5446, 26.2656], [81.5446, 26.2654], [81.5445, 26.2654], [81.5444, 26.2654], [81.5443, 26.2654], [81.5441, 26.2654], [81.544, 26.2654], [81.5438, 26.2654], [81.5436, 26.2654], [81.5434, 26.2655], [81.5431, 26.2655], [81.543, 26.2655], [81.5431, 26.2658], [81.5433, 26.2663], [81.5433, 26.2665], [81.5433, 26.2666]]]}, "properties": {"objectid": 312489, "statename": "UTTAR PRADESH", "statecode": "9", "districtname": "AMETHI", "districtcode": "659", "ulbname": "Jais NPP", "ulbcode": "800958", "wardname": "Chaudhrana Pashchimi", "wardcode": "4", "id": null, "status": "OPEN", "misglobalid": null, "approved_by": null, "createdate": 1732884981000, "updateddate": null, "globalid": null, "gisglobalid": "4Bc6RPoc-oQcl-P6sm-QQPK-c5loa6s4Kad5", "remark": "--", "st_area(shape)": 4.355618028409717e-06, "st_perimeter(shape)": 0.010910363112907641}}, {"type": "Feature", "geometry": {"type": "Polygon", "coordinates": [[[81.5495, 26.2614], [81.5494, 26.2615], [81.5494, 26.2616], [81.5494, 26.2617], [81.5493, 26.2618], [81.5491, 26.262], [81.5491, 26.2621], [81.5491, 26.2623], [81.549, 26.2624], [81.5488, 26.2625], [81.5487, 26.2626], [81.5485, 26.2627], [81.5484, 26.2627], [81.5483, 26.2628], [81.5481, 26.2629], [81.548, 26.2629], [81.5478, 26.263], [81.5474, 26.2631], [81.5473, 26.2631], [81.5473, 26.2633], [81.5476, 26.2633], [81.5477, 26.2633], [81.5479, 26.2633], [81.548, 26.2633], [81.5481, 26.2633], [81.548, 26.2635], [81.5481, 26.2636], [81.5481, 26.2637], [81.5481, 26.2638], [81.5483, 26.2637], [81.5484, 26.2637], [81.5485, 26.2636], [81.5486, 26.2635], [81.5487, 26.2635], [81.549, 26.2634], [81.5493, 26.2634], [81.5494, 26.2634], [81.5495, 26.2633], [81.5496, 26.2632], [81.5497, 26.2631], [81.5498, 26.2631], [81.5498, 26.263], [81.5498, 26.2629], [81.5499, 26.2628], [81.5499, 26.2627], [81.55, 26.2626], [81.5501, 26.2625], [81.5502, 26.2623], [81.5504, 26.2622], [81.5505, 26.2621], [81.5506, 26.262], [81.5504, 26.2619], [81.5503, 26.2619], [81.5502, 26.2618], [81.55, 26.2617], [81.5498, 26.2617], [81.5497, 26.2616], [81.5496, 26.2615], [81.5495, 26.2614]]]}, "properties": {"objectid": 312016, "statename": "UTTAR PRADESH", "statecode": "9", "districtname": "AMETHI", "districtcode": "659", "ulbname": "Jais NPP", "ulbcode": "800958", "wardname": "Kaziyana Kalan Pashchimi", "wardcode": "6", "id": null, "status": "APPROVED", "misglobalid": null, "approved_by": null, "createdate": 1732885025000, "updateddate": 1733132647000, "globalid": null, "gisglobalid": "a5nmQmo4-m4Ps-PQKa-ssaB-KRd6P5oKcRml", "remark": "", "st_area(shape)": 2.811406408075231e-06, "st_perimeter(shape)": 0.009012760004255112}}, {"type": "Feature", "geometry": {"type": "Polygon", "coordinates": [[[81.5423, 26.2564], [81.542, 26.2565], [81.5413, 26.2567], [81.5402, 26.2571], [81.5381, 26.2578], [81.5366, 26.258], [81.5348, 26.2584], [81.5341, 26.2593], [81.534, 26.2596], [81.5341, 26.2599], [81.5347, 26.2599], [81.5348, 26.2602], [81.5347, 26.2611], [81.5347, 26.2615], [81.535, 26.2618], [81.5341, 26.2632], [81.5345, 26.2631], [81.5348, 26.263], [81.5351, 26.2628], [81.5355, 26.2628], [81.5358, 26.2627], [81.5362, 26.2626], [81.5368, 26.2625], [81.5373, 26.2624], [81.5378, 26.2623], [81.5383, 26.2623], [81.5389, 26.2622], [81.5396, 26.2621], [81.5403, 26.2621], [81.5409, 26.262], [81.5416, 26.262], [81.5421, 26.2619], [81.5426, 26.2618], [81.5431, 26.2618], [81.5433, 26.2618], [81.5436, 26.2617], [81.5438, 26.2616], [81.5437, 26.2615], [81.5435, 26.2613], [81.5431, 26.261], [81.5437, 26.2605], [81.5438, 26.2607], [81.5441, 26.2609], [81.5443, 26.2611], [81.5444, 26.2611], [81.5446, 26.2614], [81.5447, 26.2613], [81.5446, 26.2609], [81.5445, 26.2606], [81.5443, 26.2602], [81.5437, 26.2593], [81.5433, 26.2587], [81.5428, 26.258], [81.5428, 26.2578], [81.5426, 26.2574], [81.5424, 26.2569], [81.5423, 26.2564]]]}, "properties": {"objectid": 312490, "statename": "UTTAR PRADESH", "statecode": "9", "districtname": "AMETHI", "districtcode": "659", "ulbname": "Jais NPP", "ulbcode": "800958", "wardname": "Wahabganj", "wardcode": "9", "id": null, "status": "OPEN", "misglobalid": null, "approved_by": null, "createdate": 1732885063000, "updateddate": null, "globalid": null, "gisglobalid": "6PmcB4Ko-an4B-P6QK-RQsK-anQoR6olQsma", "remark": "--", "st_area(shape)": 4.266497483272981e-05, "st_perimeter(shape)": 0.03239483015172957}}, {"type": "Feature", "geometry": {"type": "Polygon", "coordinates": [[[81.5457, 26.2683], [81.5455, 26.2682], [81.5454, 26.2683], [81.5451, 26.2684], [81.545, 26.2685], [81.545, 26.2686], [81.5448, 26.2686], [81.5448, 26.2685], [81.5447, 26.2683], [81.5446, 26.2682], [81.5446, 26.2683], [81.5445, 26.2683], [81.5444, 26.2683], [81.5443, 26.2684], [81.5443, 26.2685], [81.5442, 26.2686], [81.544, 26.2687], [81.5439, 26.2687], [81.5439, 26.2688], [81.5439, 26.2689], [81.5439, 26.269], [81.5438, 26.2691], [81.5438, 26.2692], [81.5438, 26.2693], [81.5439, 26.2696], [81.5439, 26.2698], [81.5439, 26.2701], [81.544, 26.2703], [81.5442, 26.2704], [81.5444, 26.2704], [81.5445, 26.2703], [81.545, 26.2702], [81.5452, 26.2702], [81.545, 26.2706], [81.5448, 26.271], [81.545, 26.271], [81.5453, 26.2712], [81.5455, 26.2711], [81.5459, 26.271], [81.5463, 26.2709], [81.5467, 26.2709], [81.5469, 26.2709], [81.5471, 26.271], [81.5475, 26.271], [81.5474, 26.2705], [81.5474, 26.2701], [81.5474, 26.2698], [81.5473, 26.2695], [81.5471, 26.2692], [81.5469, 26.2691], [81.5469, 26.2687], [81.5468, 26.2685], [81.547, 26.2684], [81.5469, 26.2683], [81.5468, 26.2681], [81.5465, 26.2682], [81.5462, 26.2682], [81.5457, 26.2683]]]}, "properties": {"objectid": 311189, "statename": "UTTAR PRADESH", "statecode": "9", "districtname": "AMETHI", "districtcode": "659", "ulbname": "Jais NPP", "ulbcode": "800958", "wardname": "Shekhana Uttari", "wardcode": "10", "id": null, "status": "OPEN", "misglobalid": null, "approved_by": null, "createdate": 1732885365000, "updateddate": null, "globalid": null, "gisglobalid": "saBQBl5d-6lPs-P4m5-sdQR-46m45c5msR55", "remark": "--", "st_area(shape)": 8.074773710360299e-06, "st_perimeter(shape)": 0.0135862872115311}}, {"type": "Feature", "geometry": {"type": "Polygon", "coordinates": [[[81.553, 26.2619], [81.5526, 26.2621], [81.5523, 26.2623], [81.5519, 26.2625], [81.5516, 26.2627], [81.5513, 26.2627], [81.5512, 26.2627], [81.5512, 26.263], [81.5511, 26.2632], [81.551, 26.2634], [81.5511, 26.2636], [81.5512, 26.2638], [81.5513, 26.2639], [81.5514, 26.2639], [81.5516, 26.2643], [81.5517, 26.2645], [81.5518, 26.2647], [81.5518, 26.265], [81.5518, 26.2651], [81.552, 26.2652], [81.5522, 26.2652], [81.5524, 26.2652], [81.5527, 26.2653], [81.553, 26.2653], [81.5531, 26.2653], [81.5531, 26.2647], [81.553, 26.2639], [81.5531, 26.2633], [81.553, 26.2628], [81.553, 26.2624], [81.553, 26.2619]]]}, "properties": {"objectid": 312017, "statename": "UTTAR PRADESH", "statecode": "9", "districtname": "AMETHI", "districtcode": "659", "ulbname": "Jais NPP", "ulbcode": "800958", "wardname": "Kaziyana Kalan", "wardcode": "13", "id": null, "status": "OPEN", "misglobalid": null, "approved_by": null, "createdate": 1732888619000, "updateddate": null, "globalid": null, "gisglobalid": "4Bmm5R6P-dldc-PmBs-sBQn-BPKPs6mcsBKB", "remark": "--", "st_area(shape)": 4.743927020805593e-06, "st_perimeter(shape)": 0.009221618835571769}}, {"type": "Feature", "geometry": {"type": "Polygon", "coordinates": [[[81.5446, 26.2654], [81.5446, 26.2653], [81.5446, 26.265], [81.5446, 26.2649], [81.5448, 26.265], [81.545, 26.265], [81.5452, 26.265], [81.5453, 26.265], [81.5455, 26.2648], [81.5457, 26.2648], [81.5458, 26.265], [81.5458, 26.2651], [81.5462, 26.2651], [81.5462, 26.2649], [81.5463, 26.2648], [81.5465, 26.2648], [81.5466, 26.2648], [81.5466, 26.2653], [81.5467, 26.2654], [81.5469, 26.2653], [81.547, 26.2653], [81.5471, 26.2653], [81.5473, 26.2652], [81.5475, 26.2652], [81.5477, 26.2651], [81.5476, 26.265], [81.5478, 26.2649], [81.5478, 26.2648], [81.5477, 26.2648], [81.5476, 26.2648], [81.5475, 26.2648], [81.5474, 26.2647], [81.5473, 26.2646], [81.5471, 26.2646], [81.5469, 26.2645], [81.5467, 26.2646], [81.5466, 26.2644], [81.5465, 26.2643], [81.5462, 26.2645], [81.5459, 26.2646], [81.5458, 26.2644], [81.5458, 26.2643], [81.5458, 26.2642], [81.5457, 26.2641], [81.5457, 26.264], [81.5454, 26.2641], [81.5453, 26.264], [81.5453, 26.2639], [81.5452, 26.2638], [81.5452, 26.2637], [81.5451, 26.2637], [81.545, 26.2638], [81.5449, 26.2638], [81.5448, 26.2638], [81.5447, 26.2639], [81.5446, 26.2639], [81.5445, 26.2639], [81.5443, 26.2639], [81.5441, 26.2639], [81.5438, 26.2639], [81.5436, 26.264], [81.5432, 26.264], [81.5428, 26.264], [81.5429, 26.2643], [81.543, 26.2645], [81.543, 26.2646], [81.5431, 26.2646], [81.5431, 26.2647], [81.5432, 26.2647], [81.5433, 26.2648], [81.5434, 26.2648], [81.5435, 26.2648], [81.5436, 26.2649], [81.5437, 26.2649], [81.5437, 26.2648], [81.5438, 26.2648], [81.5439, 26.2648], [81.544, 26.2648], [81.544, 26.2649], [81.5441, 26.2649], [81.5442, 26.265], [81.5442, 26.2651], [81.5441, 26.2651], [81.5441, 26.2652], [81.544, 26.2652], [81.544, 26.2651], [81.5439, 26.2652], [81.5439, 26.2651], [81.5438, 26.2651], [81.5437, 26.2651], [81.5435, 26.2651], [81.5435, 26.2652], [81.5434, 26.2652], [81.5433, 26.2651], [81.5432, 26.2651], [81.5431, 26.2652], [81.543, 26.2652], [81.543, 26.2651], [81.5429, 26.2652], [81.5428, 26.2652], [81.5428, 26.2651], [81.5427, 26.2651], [81.5427, 26.2654], [81.5428, 26.2655], [81.543, 26.2655], [81.5431, 26.2655], [81.5432, 26.2655], [81.5433, 26.2655], [81.5435, 26.2654], [81.5436, 26.2654], [81.5438, 26.2654], [81.5439, 26.2654], [81.544, 26.2654], [81.5442, 26.2654], [81.5443, 26.2654], [81.5445, 26.2654], [81.5446, 26.2654]]]}, "properties": {"objectid": 312018, "statename": "UTTAR PRADESH", "statecode": "9", "districtname": "AMETHI", "districtcode": "659", "ulbname": "Jais NPP", "ulbcode": "800958", "wardname": "Altafganj", "wardcode": "14", "id": null, "status": "OPEN", "misglobalid": null, "approved_by": null, "createdate": 1732888667000, "updateddate": null, "globalid": null, "gisglobalid": "QllQB5oQ-K64P-Pl5P-QmPs-mloPBPRo5doc", "remark": "--", "st_area(shape)": 4.513038938856979e-06, "st_perimeter(shape)": 0.017350953774439633}}, {"type": "Feature", "geometry": {"type": "Polygon", "coordinates": [[[81.5449, 26.2671], [81.5449, 26.267], [81.545, 26.267], [81.545, 26.2669], [81.5451, 26.2669], [81.5452, 26.2669], [81.5453, 26.2668], [81.5454, 26.2667], [81.5455, 26.2667], [81.5456, 26.2666], [81.5456, 26.2665], [81.5456, 26.2664], [81.5455, 26.2663], [81.5455, 26.2662], [81.5454, 26.2661], [81.5454, 26.2659], [81.5453, 26.2658], [81.5453, 26.2657], [81.5452, 26.2657], [81.5452, 26.2656], [81.5454, 26.2655], [81.5454, 26.2654], [81.5454, 26.2653], [81.5454, 26.2652], [81.5454, 26.2651], [81.5453, 26.265], [81.5452, 26.265], [81.5451, 26.265], [81.5447, 26.265], [81.5446, 26.2649], [81.5446, 26.2655], [81.5446, 26.2656], [81.5446, 26.2659], [81.5446, 26.266], [81.5445, 26.2661], [81.5445, 26.2663], [81.5446, 26.2664], [81.5446, 26.2666], [81.5447, 26.2667], [81.5448, 26.2669], [81.5448, 26.267], [81.5449, 26.2671]]]}, "properties": {"objectid": 312019, "statename": "UTTAR PRADESH", "statecode": "9", "districtname": "AMETHI", "districtcode": "659", "ulbname": "Jais NPP", "ulbcode": "800958", "wardname": "Goriyana Paschimi", "wardcode": "17", "id": null, "status": "OPEN", "misglobalid": null, "approved_by": null, "createdate": 1732888707000, "updateddate": null, "globalid": null, "gisglobalid": "dc5lPQQa-P5QQ-P5Ro-Qaao-5BPllKRmamlB", "remark": "--", "st_area(shape)": 1.5595330111041415e-06, "st_perimeter(shape)": 0.0058585333568198705}}, {"type": "Feature", "geometry": {"type": "Polygon", "coordinates": [[[81.5467, 26.2671], [81.5467, 26.2672], [81.5466, 26.2672], [81.5466, 26.2673], [81.5467, 26.2674], [81.5466, 26.2675], [81.5467, 26.2678], [81.5467, 26.2679], [81.5468, 26.268], [81.5468, 26.2681], [81.5469, 26.2681], [81.547, 26.2681], [81.5471, 26.268], [81.5473, 26.268], [81.5474, 26.268], [81.5475, 26.2679], [81.5476, 26.2679], [81.5478, 26.2678], [81.5479, 26.2676], [81.5482, 26.2674], [81.5484, 26.2672], [81.5486, 26.2671], [81.5488, 26.2669], [81.549, 26.2667], [81.5491, 26.2666], [81.5493, 26.2665], [81.5494, 26.2664], [81.5496, 26.2663], [81.5496, 26.2662], [81.5495, 26.2662], [81.5494, 26.2662], [81.5493, 26.2662], [81.5492, 26.2662], [81.549, 26.2663], [81.5488, 26.2663], [81.5487, 26.2663], [81.5485, 26.2662], [81.5484, 26.2662], [81.5482, 26.2663], [81.5481, 26.2663], [81.5481, 26.2659], [81.5481, 26.2657], [81.5477, 26.2658], [81.5469, 26.2662], [81.5465, 26.2664], [81.5464, 26.2665], [81.5465, 26.2667], [81.5465, 26.2668], [81.5466, 26.2668], [81.5466, 26.267], [81.5467, 26.2671]]]}, "properties": {"objectid": 312020, "statename": "UTTAR PRADESH", "statecode": "9", "districtname": "AMETHI", "districtcode": "659", "ulbname": "Jais NPP", "ulbcode": "800958", "wardname": "Kaziyana Khurd Dakshini", "wardcode": "18", "id": null, "status": "OPEN", "misglobalid": null, "approved_by": null, "createdate": 1732888780000, "updateddate": null, "globalid": null, "gisglobalid": "sBso5oBm-lRPa-P64d-QBPR-6QRBmocnBlmQ", "remark": "--", "st_area(shape)": 3.7728782364639735e-06, "st_perimeter(shape)": 0.00943642763686871}}]}
