{"type":"Topology","arcs":[[[11667,75333],[19583,-15334]],[[31250,59999],[12916,-11999]],[[44166,48000],[-833,-2000]],[[43333,46000],[-833,0]],[[42500,46000],[-834,-667]],[[41666,45333],[-10416,-30000],[-15000,17333],[-2500,18667],[-12083,12666],[-1667,6000],[1667,14667],[10000,-9333]],[[53333,63333],[416,4000]],[[53749,67333],[2917,666]],[[56666,67999],[1667,0]],[[58333,67999],[1250,667]],[[59583,68666],[-1667,-8667]],[[57916,59999],[-417,0]],[[57499,59999],[-416,667]],[[57083,60666],[-834,667]],[[56249,61333],[-416,-667]],[[55833,60666],[-417,667]],[[55416,61333],[-1250,1333]],[[54166,62666],[-833,667]],[[42500,60666],[833,2000]],[[43333,62666],[417,-667]],[[43750,61999],[1250,0]],[[45000,61999],[416,-666]],[[45416,61333],[417,0]],[[45833,61333],[833,-667]],[[46666,60666],[1250,-667]],[[47916,59999],[417,-666]],[[48333,59333],[1250,-1334]],[[49583,57999],[1250,-1333]],[[50833,56666],[833,-667]],[[51666,55999],[-1250,-4000]],[[50416,51999],[833,0]],[[51249,51999],[2917,0]],[[54166,51999],[1667,-1333]],[[55833,50666],[-7083,0]],[[48750,50666],[416,2000]],[[49166,52666],[-416,1333]],[[48750,53999],[-417,667]],[[48333,54666],[-833,667]],[[47500,55333],[-1250,0]],[[46250,55333],[-1667,2000]],[[44583,57333],[-417,1333]],[[44166,58666],[-416,1333]],[[43750,59999],[-417,667]],[[43333,60666],[-833,0]],[[41666,45333],[834,667]],[[43333,46000],[833,2000]],[[44166,48000],[834,1333]],[[45000,49333],[4583,-3333]],[[49583,46000],[-1250,-7334]],[[48333,38666],[-6667,6667]],[[49583,57999],[-833,1334]],[[48750,59333],[416,666]],[[49166,59999],[0,667]],[[49166,60666],[0,667]],[[49166,61333],[833,666]],[[49999,61999],[834,0]],[[50833,61999],[1250,0]],[[52083,61999],[1250,1334]],[[53333,63333],[833,-667]],[[55416,61333],[417,-667]],[[55833,60666],[416,667]],[[56249,61333],[834,-667]],[[57083,60666],[416,-667]],[[57916,59999],[-1667,-8000]],[[56249,51999],[-416,-1333]],[[55833,50666],[-1667,1333]],[[54166,51999],[-2917,0]],[[50416,51999],[1250,4000]],[[50833,56666],[-1250,1333]],[[56249,51999],[3750,15334],[-416,1333]],[[59583,68666],[-1250,-667]],[[58333,67999],[-1667,0]],[[56666,67999],[417,4667]],[[57083,72666],[0,2000]],[[57083,74666],[416,3333]],[[57499,77999],[-1666,2667]],[[55833,80666],[2500,2667],[416,1333],[417,4000],[417,11333],[7083,-1333],[3750,-4667],[6667,-20000],[833,-14666],[2917,-11333]],[[80833,48000],[-6250,-4000]],[[74583,44000],[-5834,4000]],[[68749,48000],[-5000,-9334],[-9583,5334],[2083,7999]],[[48333,38666],[1250,7334]],[[49583,46000],[3750,-8000]],[[53333,38000],[416,-667]],[[53749,37333],[-8749,-28666],[-7917,1333],[-5417,4667],[8750,25999],[7917,-2000]],[[47916,96666],[-833,-4667]],[[47083,91999],[-833,-2667]],[[46250,89332],[-834,-666]],[[45416,88666],[-416,-2000]],[[45000,86666],[1666,-6667]],[[46666,79999],[-833,-2000]],[[45833,77999],[-833,-2666]],[[45000,75333],[-417,-667]],[[44583,74666],[-833,0]],[[43750,74666],[-834,-667]],[[42916,73999],[-2500,-1333]],[[40416,72666],[-1666,0]],[[38750,72666],[-3750,1333]],[[35000,73999],[-834,-6666]],[[34166,67333],[-416,-1334]],[[33750,65999],[-7500,4000]],[[26250,69999],[-1667,-4000],[-12916,9334]],[[11667,75333],[-10000,9999],[20416,10667],[25833,667]],[[34166,67333],[1667,2666]],[[35833,69999],[1250,667]],[[37083,70666],[4167,-3333]],[[41250,67333],[0,-1334]],[[41250,65999],[416,0]],[[41666,65999],[1250,-1333]],[[42916,64666],[-416,-1333]],[[42500,63333],[833,-667]],[[43333,62666],[-833,-2000]],[[43333,60666],[417,-667]],[[44166,58666],[417,-1333]],[[44583,57333],[1667,-2000]],[[46250,55333],[1250,0]],[[47500,55333],[833,-667]],[[48750,53999],[416,-1333]],[[48750,50666],[-3750,-1333]],[[45000,49333],[-4167,4000]],[[40833,53333],[417,1333]],[[41250,54666],[-417,1333]],[[40833,55999],[417,2667]],[[41250,58666],[-1667,1333]],[[39583,59999],[417,3334]],[[40000,63333],[-834,666]],[[39166,63999],[-2916,667]],[[36250,64666],[-2500,1333]],[[35833,69999],[-833,4000]],[[35000,73999],[3750,-1333]],[[38750,72666],[1666,0]],[[40416,72666],[2500,1333]],[[42916,73999],[417,0]],[[43333,73999],[833,-666]],[[44166,73333],[2084,-667]],[[46250,72666],[416,-667]],[[46666,71999],[-416,-1333]],[[46250,70666],[0,-667]],[[46250,69999],[0,-1333]],[[46250,68666],[-417,-1333]],[[45833,67333],[0,-667]],[[45833,66666],[-1667,0]],[[44166,66666],[-833,-2000]],[[43333,64666],[-417,0]],[[42916,64666],[-1250,1333]],[[41250,65999],[0,1334]],[[41250,67333],[-4167,3333]],[[37083,70666],[-1250,-667]],[[43333,73999],[417,667]],[[43750,74666],[833,0]],[[45000,75333],[833,2666]],[[45833,77999],[833,2000]],[[46666,79999],[-1666,6667]],[[45000,86666],[416,2000]],[[46250,89332],[833,0]],[[47083,89332],[5416,-8666]],[[52499,80666],[-416,-1333]],[[52083,79333],[416,-667]],[[52499,78666],[-416,-3333]],[[52083,75333],[-417,-2000]],[[51666,73333],[-417,-2000]],[[51249,71333],[417,-667]],[[51666,70666],[-833,-1333]],[[50833,69333],[-1250,-2667]],[[49583,66666],[-1250,667]],[[48333,67333],[-1667,-667]],[[46666,66666],[-833,0]],[[45833,67333],[417,1333]],[[46250,68666],[0,1333]],[[46250,70666],[416,1333]],[[46250,72666],[-2084,667]],[[44166,73333],[-833,666]],[[42500,63333],[833,1333]],[[43333,64666],[833,2000]],[[44166,66666],[1667,0]],[[46666,66666],[1667,667]],[[48333,67333],[1250,-667]],[[49583,66666],[1250,2667]],[[50833,69333],[833,1333]],[[51666,70666],[2083,-2667]],[[53749,67999],[0,-666]],[[53749,67333],[-1666,-5334]],[[50833,61999],[-834,0]],[[49999,61999],[-833,-666]],[[49166,60666],[0,-667]],[[48750,59333],[-417,0]],[[48333,59333],[-417,666]],[[47916,59999],[-1250,667]],[[46666,60666],[-833,667]],[[45416,61333],[-416,666]],[[45000,61999],[-1250,0]],[[43333,62666],[-833,667]],[[47083,89332],[0,2667]],[[47083,91999],[833,4667]],[[47916,96666],[11250,3333],[0,-7333],[-417,-2667],[0,-4667],[-833,-1999],[-2083,-2667]],[[55833,80666],[1666,-2667]],[[57499,77999],[-416,-3333]],[[57083,72666],[-3334,-4667]],[[53749,67999],[-2083,2667]],[[51249,71333],[417,2000]],[[51666,73333],[417,2000]],[[52083,75333],[416,3333]],[[52083,79333],[416,1333]],[[52499,80666],[-5416,8666]],[[53749,37333],[-416,667]],[[53333,38000],[1666,4666],[10000,-5333],[3750,10667]],[[68749,48000],[5834,-4000]],[[74583,44000],[6250,4000]],[[80833,48000],[14999,-14000],[1667,-4000],[2500,-30000],[-27916,6667],[-27500,666],[7500,22000],[1666,8000]],[[26250,69999],[10000,-5333]],[[36250,64666],[2916,-667]],[[40000,63333],[-417,-3334]],[[39583,59999],[1667,-1333]],[[41250,58666],[-417,-2667]],[[41250,54666],[-417,-1333]],[[40833,53333],[-9583,6666]],[[31250,59999],[-5000,10000]]],"transform":{"scale":[2.400024000238672e-7,1.5000150001500583e-7],"translate":[77.927,28.8569]},"objects":{"wards":{"type":"GeometryCollection","geometries":[{"arcs":[[0,1,2,3,4,5]],"type":"Polygon","properties":{"objectid":241419,"statename":"Uttar Pradesh","statecode":"9","districtname":"Meerut","districtcode":"138","ulbname":"Nagar Panchayat Kithore","ulbcode":"800715","wardname":"Harijanowala","wardcode":"1","id":null,"status":"APPROVED","misglobalid":null,"approved_by":null,"createdate":1648097772000,"updateddate":1648097996000,"globalid":null,"gisglobalid":"scQslmcl-n5ca-P5Bs-QQmd-sdR6RlRdm6sQ","remark":"Valid","st_area(shape)":0.00004565576286668693,"st_perimeter(shape)":0.03192275867333802}},{"arcs":[[6,7,8,9,10,11,12,13,14,15,16,17]],"type":"Polygon","properties":{"objectid":245828,"statename":"Uttar Pradesh","statecode":"9","districtname":"Meerut","districtcode":"138","ulbname":"Nagar Panchayat Kithore","ulbcode":"800715","wardname":"Balmikiyan","wardcode":"2","id":null,"status":"APPROVED","misglobalid":null,"approved_by":null,"createdate":1648097780000,"updateddate":1648098012000,"globalid":null,"gisglobalid":"amRnlmmo-KB4c-Poso-snss-c55PoalncBl6","remark":"Valid","st_area(shape)":0.0000012124882588309103,"st_perimeter(shape)":0.004956811255734643}},{"arcs":[[18,19,20,21,22,23,24,25,26,27,28,29,30,31,32,33,34,35,36,37,38,39,40,41,42,43]],"type":"Polygon","properties":{"objectid":247025,"statename":"Uttar Pradesh","statecode":"9","districtname":"Meerut","districtcode":"138","ulbname":"Nagar Panchayat Kithore","ulbcode":"800715","wardname":"Baniyowala","wardcode":"3","id":null,"status":"APPROVED","misglobalid":null,"approved_by":null,"createdate":1648097795000,"updateddate":1648098022000,"globalid":null,"gisglobalid":"KRdcPPKm-Qa5o-PKR6-Qda4-6laa6lnoPd4R","remark":"Valid","st_area(shape)":0.000002864771768272108,"st_perimeter(shape)":0.010500451980163054}},{"arcs":[[44,-4,45,46,47,48,49]],"type":"Polygon","properties":{"objectid":245112,"statename":"Uttar Pradesh","statecode":"9","districtname":"Meerut","districtcode":"138","ulbname":"Nagar Panchayat Kithore","ulbcode":"800715","wardname":"Padiyowala","wardcode":"4","id":null,"status":"APPROVED","misglobalid":null,"approved_by":null,"createdate":1648097809000,"updateddate":1648098031000,"globalid":null,"gisglobalid":"4ssRaK4P-m4mR-Pd46-adRQ-Kn4sdcmRRRol","remark":"Valid","st_area(shape)":0.000002086228428556004,"st_perimeter(shape)":0.0060072497420133614}},{"arcs":[[50,51,52,53,54,55,56,57,58,-17,59,60,61,62,-12,63,64,65,66,-31,67,-29,68]],"type":"Polygon","properties":{"objectid":241420,"statename":"Uttar Pradesh","statecode":"9","districtname":"Meerut","districtcode":"138","ulbname":"Nagar Panchayat Kithore","ulbcode":"800715","wardname":"Khatikowala","wardcode":"5","id":null,"status":"APPROVED","misglobalid":null,"approved_by":null,"createdate":1648097828000,"updateddate":1648098041000,"globalid":null,"gisglobalid":"d5o4QPdR-4P64-PQmc-smPP-cdas4nsl4Q4a","remark":"Valid","st_area(shape)":0.0000024866566345536164,"st_perimeter(shape)":0.007261845789316669}},{"arcs":[[69,70,71,72,73,74,75,76,77,78,79]],"type":"Polygon","properties":{"objectid":241421,"statename":"Uttar Pradesh","statecode":"9","districtname":"Meerut","districtcode":"138","ulbname":"Nagar Panchayat Kithore","ulbcode":"800715","wardname":"Naibasti","wardcode":"6","id":null,"status":"APPROVED","misglobalid":null,"approved_by":null,"createdate":1648097841000,"updateddate":1648098050000,"globalid":null,"gisglobalid":"lnsol6sl-5RsP-Pdn6-sPo4-RnPdQ65PPm46","remark":"Valid","st_area(shape)":0.000036158822078326916,"st_perimeter(shape)":0.02937548515689681}},{"arcs":[[80,81,82,83]],"type":"Polygon","properties":{"objectid":247484,"statename":"Uttar Pradesh","statecode":"9","districtname":"Meerut","districtcode":"138","ulbname":"Nagar Panchayat Kithore","ulbcode":"800715","wardname":"Islamabad","wardcode":"7","id":null,"status":"APPROVED","misglobalid":null,"approved_by":null,"createdate":1648097862000,"updateddate":1648098061000,"globalid":null,"gisglobalid":"4BnBBdms-nnnP-PnKn-RPRP-4RQPcR4RsRld","remark":"Valid","st_area(shape)":0.000016353594918640624,"st_perimeter(shape)":0.018314803708596433}},{"arcs":[[84,85,86,87,88,89,90,91,92,93,94,95,96,97,98,99,100,101]],"type":"Polygon","properties":{"objectid":247485,"statename":"Uttar Pradesh","statecode":"9","districtname":"Meerut","districtcode":"138","ulbname":"Nagar Panchayat Kithore","ulbcode":"800715","wardname":"Mosamkhani","wardcode":"8","id":null,"status":"APPROVED","misglobalid":null,"approved_by":null,"createdate":1648097885000,"updateddate":1648098080000,"globalid":null,"gisglobalid":"a5dB6RRs-4cPd-PPKd-san6-llomdodlPRms","remark":"Valid","st_area(shape)":0.000033042605153531974,"st_perimeter(shape)":0.02805009067816102}},{"arcs":[[-99,102,103,104,105,106,107,108,109,110,-44,111,-42,112,113,114,115,-37,116,-35,117,118,119,120,121,122,123,124,125,126]],"type":"Polygon","properties":{"objectid":241422,"statename":"Uttar Pradesh","statecode":"9","districtname":"Meerut","districtcode":"138","ulbname":"Nagar Panchayat Kithore","ulbcode":"800715","wardname":"Upadiyan","wardcode":"9","id":null,"status":"APPROVED","misglobalid":null,"approved_by":null,"createdate":1648097895000,"updateddate":1648098093000,"globalid":null,"gisglobalid":"l5om5lsl-dRmc-Pm6Q-Q4PR-KRQnQQon5BdQ","remark":"Valid","st_area(shape)":0.000003806432066000631,"st_perimeter(shape)":0.012390944307822402}},{"arcs":[[127,128,129,130,131,132,133,134,135,136,137,138,139,140,141,142,143,-107,144,145,146]],"type":"Polygon","properties":{"objectid":241423,"statename":"Uttar Pradesh","statecode":"9","districtname":"Meerut","districtcode":"138","ulbname":"Nagar Panchayat Kithore","ulbcode":"800715","wardname":"Vyapariyan","wardcode":"10","id":null,"status":"APPROVED","misglobalid":null,"approved_by":null,"createdate":1648097905000,"updateddate":1648098104000,"globalid":null,"gisglobalid":"6n5P5c66-4nQ5-PomP-RlPm-maoacQKc45m5","remark":"Valid","st_area(shape)":0.000002029338480607609,"st_perimeter(shape)":0.007670597632697033}},{"arcs":[[147,148,-92,149,150,151,152,-87,153,154,155,156,157,158,159,160,161,162,163,164,165,-140,166,167,-137,168,-135,169,170]],"type":"Polygon","properties":{"objectid":241424,"statename":"Uttar Pradesh","statecode":"9","districtname":"Meerut","districtcode":"138","ulbname":"Nagar Panchayat Kithore","ulbcode":"800715","wardname":"Jalaludinpura","wardcode":"11","id":null,"status":"APPROVED","misglobalid":null,"approved_by":null,"createdate":1648097916000,"updateddate":1648098114000,"globalid":null,"gisglobalid":"5Psmn6Bm-scsn-Pad5-R4ol-RPoP4mRKBccl","remark":"Valid","st_area(shape)":0.0000042808546796017,"st_perimeter(shape)":0.010365500110256345}},{"arcs":[[171,172,173,-166,174,175,176,177,178,179,180,-57,181,182,-54,183,-52,184,185,186,187,-23,188,189,-20,190]],"type":"Polygon","properties":{"objectid":247486,"statename":"Uttar Pradesh","statecode":"9","districtname":"Meerut","districtcode":"138","ulbname":"Nagar Panchayat Kithore","ulbcode":"800715","wardname":"Kumharan","wardcode":"12","id":null,"status":"APPROVED","misglobalid":null,"approved_by":null,"createdate":1648097932000,"updateddate":1648098124000,"globalid":null,"gisglobalid":"m4lRmlcB-PKQd-PBln-RRPd-n6snPQ4o5n65","remark":"Valid","st_area(shape)":0.000002158941594114738,"st_perimeter(shape)":0.007119925484454018}},{"arcs":[[191,192,193,194,195,-74,196,197,-161,198,199,200,-157,201,202]],"type":"Polygon","properties":{"objectid":247487,"statename":"Uttar Pradesh","statecode":"9","districtname":"Meerut","districtcode":"138","ulbname":"Nagar Panchayat Kithore","ulbcode":"800715","wardname":"Badwaliyan","wardcode":"13","id":null,"status":"APPROVED","misglobalid":null,"approved_by":null,"createdate":1648097946000,"updateddate":1648098133000,"globalid":null,"gisglobalid":"an55P6n5-sasn-PnKQ-aQ66-sRa6QmQnsK46","remark":"Valid","st_area(shape)":0.000008630553755726095,"st_perimeter(shape)":0.014922563578383782}},{"arcs":[[203,204,205,206,207]],"type":"Polygon","properties":{"objectid":246197,"statename":"Uttar Pradesh","statecode":"9","districtname":"Meerut","districtcode":"138","ulbname":"Nagar Panchayat Kithore","ulbcode":"800715","wardname":"Mansbpura","wardcode":"14","id":null,"status":"APPROVED","misglobalid":null,"approved_by":null,"createdate":1648097956000,"updateddate":1648098145000,"globalid":null,"gisglobalid":"l6RsP44l-PQcQ-PoB6-aQcn-asl6dcaRPlQo","remark":"Valid","st_area(shape)":0.0000645913911803563,"st_perimeter(shape)":0.03684712305251093}},{"arcs":[[208,209,-125,210,211,212,-121,213,214,215]],"type":"Polygon","properties":{"objectid":241425,"statename":"Uttar Pradesh","statecode":"9","districtname":"Meerut","districtcode":"138","ulbname":"Nagar Panchayat Kithore","ulbcode":"800715","wardname":"Salateen","wardcode":"15","id":null,"status":"APPROVED","misglobalid":null,"approved_by":null,"createdate":1648097967000,"updateddate":1648098156000,"globalid":null,"gisglobalid":"aBlKPo4s-5ncB-Paad-saQ5-RoKcl6o4mn5Q","remark":"Valid","st_area(shape)":0.000003911709545476593,"st_perimeter(shape)":0.010273790196901816}}]}}}