{"type":"Topology","arcs":[[[35355,39910],[-8368,-14798],[-26987,897],[12134,36771],[24058,37219],[10460,-39013],[-11297,-21076]],[[55230,71748],[2719,-2690]],[[57949,69058],[-2929,-5830]],[[55020,63228],[-6276,-11659]],[[48744,51569],[-1255,0]],[[47489,51569],[7741,20179]],[[55020,63228],[2092,-3139]],[[57112,60089],[3557,-2242]],[[60669,57847],[209,1345]],[[60878,59192],[2929,0]],[[63807,59192],[-209,-2690]],[[63598,56502],[-1674,-3139]],[[61924,53363],[-7950,448],[1046,9417]],[[65062,45291],[419,-1345]],[[65481,43946],[-7741,-897]],[[57740,43049],[-209,8072]],[[57531,51121],[4393,2242]],[[61924,53363],[1674,3139]],[[63598,56502],[209,2690]],[[60878,59192],[-209,897]],[[60669,60089],[-209,2242]],[[60460,62331],[-419,3139]],[[60041,65470],[0,449]],[[60041,65919],[837,2690]],[[60878,68609],[628,897]],[[61506,69506],[209,-448]],[[61715,69058],[209,-2691]],[[61924,66367],[628,-1345]],[[62552,65022],[2929,-1346]],[[65481,63676],[-1256,-2690]],[[64225,60986],[2720,-2691]],[[66945,58295],[0,-4932]],[[66945,53363],[-1883,-8072]],[[60669,57847],[-3557,2242]],[[57949,69058],[1674,896]],[[59623,69954],[-628,2691]],[[58995,72645],[209,3139]],[[59204,75784],[419,448]],[[59623,76232],[1883,-6726]],[[61506,69506],[-628,-897]],[[60878,68609],[-837,-2690]],[[60041,65470],[419,-3139]],[[60460,62331],[209,-2242]],[[60669,60089],[209,-897]],[[55230,71748],[1673,4933]],[[56903,76681],[1465,-2242]],[[58368,74439],[836,1345]],[[59623,76232],[3556,4485]],[[63179,80717],[4184,-5381]],[[67363,75336],[-1882,-3588]],[[65481,71748],[-1465,-2242]],[[64016,69506],[2092,-3139]],[[66108,66367],[-3556,-1345]],[[61924,66367],[-209,2691]],[[61506,69506],[-1883,6726]],[[59204,75784],[-836,-1345]],[[58368,74439],[627,-1794]],[[59623,69954],[-1674,-896]],[[56903,76681],[6276,4036]],[[63179,80717],[-4184,-4933],[-627,-1345]],[[67363,75336],[-418,-21973]],[[66945,58295],[-2720,2691]],[[65481,63676],[627,2691]],[[64016,69506],[1465,2242]],[[65062,45291],[21966,22421],[12971,-22421],[-22176,-28699],[-12342,26905]],[[65481,43497],[0,449]],[[65481,43497],[-8369,-43497]],[[57112,0],[8369,43497]],[[58158,39910],[-1046,-39910]],[[57112,0],[-10878,22421]],[[46234,22421],[2301,2242]],[[48535,24663],[1883,14350]],[[50418,39013],[2929,3139]],[[53347,42152],[4811,-2242]],[[57740,43049],[418,-3139]],[[58158,39910],[-4811,2242]],[[50418,39013],[-6904,-6278]],[[43514,32735],[419,6726]],[[43933,39461],[5020,9417]],[[48953,48878],[-209,2691]],[[48744,51569],[8787,-448]],[[57531,51121],[209,-8072]],[[35355,39910],[12134,11659]],[[47489,51569],[1464,-2691]],[[43933,39461],[-419,-6726]],[[43514,32735],[5021,-8072]],[[48535,24663],[-2301,-2242]],[[46234,22421],[-10879,17489]]],"transform":{"scale":[4.780047800477522e-7,2.2300223002231343e-7],"translate":[75.0715,30.473300000000002]},"objects":{"wards":{"type":"GeometryCollection","geometries":[{"arcs":[[0]],"type":"Polygon","properties":{"objectid":35417,"statename":"Punjab","statecode":"3","districtname":null,"districtcode":"46","ulbname":"Bhagta Bhai Ka","ulbcode":"800222","wardname":"","wardcode":"1","id":null,"status":"APPROVED","misglobalid":null,"approved_by":"ULB Nodal Officer","createdate":1636714074000,"updateddate":1638253527000,"globalid":"6PPoocn6-Qlal-P6R6-aRPa-oKKdP6K4nn4c","gisglobalid":"e5b1379d-c442-427b-a1d7-3fb99f2b28fa","remark":"Ward No 1 Is Aprove By Ulb","st_area(shape)":0.0002020354579496154,"st_perimeter(shape)":0.06305840918856263}},{"arcs":[[1,2,3,4,5]],"type":"Polygon","properties":{"objectid":35138,"statename":"Punjab","statecode":"3","districtname":null,"districtcode":"46","ulbname":"Bhagta Bhai Ka","ulbcode":"800222","wardname":"","wardcode":"2","id":null,"status":"APPROVED","misglobalid":null,"approved_by":"ULB Nodal Officer","createdate":1636714107000,"updateddate":1638253800000,"globalid":"s6sPP5cl-nP5m-Paa4-QoRa-oK4a5cKaK4on","gisglobalid":"548d56aa-7a17-4dba-b5dd-169545295ead","remark":"Ward No 2  Bhagtga Nbhai Ka","st_area(shape)":0.00003407472336593687,"st_perimeter(shape)":0.03130520062544458}},{"arcs":[[6,7,8,9,10,11,12]],"type":"Polygon","properties":{"objectid":34770,"statename":"Punjab","statecode":"3","districtname":null,"districtcode":"46","ulbname":"Bhagta Bhai Ka","ulbcode":"800222","wardname":"","wardcode":"3","id":null,"status":"APPROVED","misglobalid":null,"approved_by":"ULB Nodal Officer","createdate":1636714143000,"updateddate":1638253993000,"globalid":"BBsmnldm-mQon-PodR-a4nK-6Qd6P56c6Bs5","gisglobalid":"31740b49-f7e7-4970-b309-2bfc5110aae4","remark":"Ward No 3 Bhagta Bhai Ka ","st_area(shape)":0.000005932095905772864,"st_perimeter(shape)":0.012538093280248986}},{"arcs":[[13,14,15,16,17,18,-10,19,20,21,22,23,24,25,26,27,28,29,30,31,32]],"type":"Polygon","properties":{"objectid":35418,"statename":"Punjab","statecode":"3","districtname":null,"districtcode":"46","ulbname":"Bhagta Bhai Ka","ulbcode":"800222","wardname":"","wardcode":"4","id":null,"status":"APPROVED","misglobalid":null,"approved_by":"ULB Nodal Officer","createdate":1636714251000,"updateddate":1638254312000,"globalid":"6aRod4m5-oQBl-Pmds-ssB5-66Rs5l5soln4","gisglobalid":"f1713a5f-0720-4f1d-b97e-53df5b762524","remark":"Ward No 4 Bhagta Bhai Ka ","st_area(shape)":0.000012796047226640805,"st_perimeter(shape)":0.023218159236501137}},{"arcs":[[-9,33,-7,-3,34,35,36,37,38,39,40,-23,41,42,43]],"type":"Polygon","properties":{"objectid":35419,"statename":"Punjab","statecode":"3","districtname":null,"districtcode":"46","ulbname":"Bhagta Bhai Ka","ulbcode":"800222","wardname":"","wardcode":"5","id":null,"status":"APPROVED","misglobalid":null,"approved_by":"ULB Nodal Officer","createdate":1636714282000,"updateddate":1638254373000,"globalid":"dmmdlPdB-lR4c-Pnon-Qs4n-K6c4do6cBmd5","gisglobalid":"b9741070-b3aa-4b2c-854a-8942cee557f5","remark":"Ward No 5 Bhagta Bhai Ka","st_area(shape)":0.000005240863397476608,"st_perimeter(shape)":0.013152621700298937}},{"arcs":[[-2,44,45,46,37,47,48,49,50,51,52,-28,53,-26,54,-38,55,56,-36,57]],"type":"Polygon","properties":{"objectid":36464,"statename":"Punjab","statecode":"3","districtname":null,"districtcode":"46","ulbname":"Bhagta Bhai Ka","ulbcode":"800222","wardname":"","wardcode":"6","id":null,"status":"APPROVED","misglobalid":null,"approved_by":"ULB Nodal Officer","createdate":1637059052000,"updateddate":1638254495000,"globalid":"nQ6PQlPK-5nnd-P5am-Rdos-QlaQaosa6Bml","gisglobalid":"b1535641-e561-490b-940a-31bb52b3acfe","remark":"Ward No 6 Bhagta Bhai Ka ","st_area(shape)":0.00001618897214977948,"st_perimeter(shape)":0.027073469041148015}},{"arcs":[[58,59,-46]],"type":"Polygon","properties":{"objectid":36187,"statename":"Punjab","statecode":"3","districtname":null,"districtcode":"46","ulbname":"Bhagta Bhai Ka","ulbcode":"800222","wardname":"","wardcode":"7","id":null,"status":"APPROVED","misglobalid":null,"approved_by":"ULB Nodal Officer","createdate":1636714434000,"updateddate":1638254642000,"globalid":"QKsmQQPQ-ldQc-P4dP-sc6a-ocsaon6mnBsQ","gisglobalid":"396f816d-6a3d-4d37-843f-e28e1dcefac2","remark":"Ward No 7 Bhagta Bhai Ka","st_area(shape)":0.00002277307662648631,"st_perimeter(shape)":0.02323114051440653}},{"arcs":[[-50,60,-32,61,-30,62,-52,63]],"type":"Polygon","properties":{"objectid":35141,"statename":"Punjab","statecode":"3","districtname":null,"districtcode":"46","ulbname":"Bhagta Bhai Ka","ulbcode":"800222","wardname":"","wardcode":"8","id":null,"status":"APPROVED","misglobalid":null,"approved_by":"ULB Nodal Officer","createdate":1636714506000,"updateddate":1638254713000,"globalid":"5ndonQln-P4KQ-Pcn6-Ql6Q-5oo4PBc4Poac","gisglobalid":"67fafcf1-c202-4cfd-8e31-b5fc02df037d","remark":"Ward No 8 Bhagta Bhai Ka ","st_area(shape)":0.000036537022202713625,"st_perimeter(shape)":0.02701066752493859}},{"arcs":[[64,65,-14]],"type":"Polygon","properties":{"objectid":35142,"statename":"Punjab","statecode":"3","districtname":null,"districtcode":"46","ulbname":"Bhagta Bhai Ka","ulbcode":"800222","wardname":"","wardcode":"9","id":null,"status":"APPROVED","misglobalid":null,"approved_by":"ULB Nodal Officer","createdate":1636714569000,"updateddate":1638254771000,"globalid":"56m4QaPK-K6n5-PRBo-RKao-5sRQ4mQ4PPKQ","gisglobalid":"be59c33f-ed3d-420c-8e43-a233ca9cac0f","remark":"Ward No 9 Bhagta Bhai Ka ","st_area(shape)":0.00010335505776488027,"st_perimeter(shape)":0.04262217627863203}},{"arcs":[[66,67]],"type":"Polygon","properties":{"objectid":36189,"statename":"Punjab","statecode":"3","districtname":null,"districtcode":"46","ulbname":"Bhagta Bhai Ka","ulbcode":"800222","wardname":"","wardcode":"10","id":null,"status":"APPROVED","misglobalid":null,"approved_by":"ULB Nodal Officer","createdate":1636714623000,"updateddate":1638254847000,"globalid":"mo5PmQP4-RBQa-Pnsn-RR64-oaRsa6d4lmB6","gisglobalid":"6ff73ae3-42f6-40d9-b498-bade0744d66e","remark":"Ward No 10 Bhagta Bhai Ka ","st_area(shape)":0.0000611326297907601,"st_perimeter(shape)":0.031882284888992654}},{"arcs":[[68,69,70,71,72,73]],"type":"Polygon","properties":{"objectid":35804,"statename":"Punjab","statecode":"3","districtname":null,"districtcode":"46","ulbname":"Bhagta Bhai Ka","ulbcode":"800222","wardname":"","wardcode":"11","id":null,"status":"APPROVED","misglobalid":null,"approved_by":"ULB Nodal Officer","createdate":1636714654000,"updateddate":1638254976000,"globalid":"lm4cBBQa-dBlB-PRQd-Q4nQ-ddRR4oa6ms56","gisglobalid":"244e4506-e937-4eef-aee4-21852f77a0f9","remark":"Ward No 11 Bhagta Bhai Ka","st_area(shape)":0.000035803350995357015,"st_perimeter(shape)":0.031410687441656066}},{"arcs":[[74,75,-73,76,77,78,79,80,81]],"type":"Polygon","properties":{"objectid":33661,"statename":"Punjab","statecode":"3","districtname":null,"districtcode":"46","ulbname":"Bhagta Bhai Ka","ulbcode":"800222","wardname":"","wardcode":"12","id":null,"status":"APPROVED","misglobalid":null,"approved_by":"ULB Nodal Officer","createdate":1636714700000,"updateddate":1638255088000,"globalid":"QldoB5c6-scQl-P55l-smdB-mKoa6R65coKl","gisglobalid":"ebd0b81e-7609-4dcd-a389-0c4130e77386","remark":"Ward No 12 Bhagta Bhai Ka","st_area(shape)":0.000016916609089145015,"st_perimeter(shape)":0.022157239473521224}},{"arcs":[[82,83,-79,84,85,86,87]],"type":"Polygon","properties":{"objectid":33227,"statename":"Punjab","statecode":"3","districtname":null,"districtcode":"46","ulbname":"Bhagta Bhai Ka","ulbcode":"800222","wardname":"","wardcode":"13","id":null,"status":"APPROVED","misglobalid":null,"approved_by":"ULB Nodal Officer","createdate":1636714770000,"updateddate":1638255148000,"globalid":"6KcPPP5a-aoKn-PKn4-RRQm-d46BmdnQm45R","gisglobalid":"e80e3cda-49d5-4074-a3bd-039024ef40dc","remark":"Ward No 13 Bhagta Bhai Ka ","st_area(shape)":0.00005151559840866767,"st_perimeter(shape)":0.04426001933924935}}]}}}