{"type":"Topology","arcs":[[[8474,0],[-8474,15254],[0,38983],[13559,22033]],[[13559,76270],[15254,-10169]],[[28813,66101],[-10169,-15254]],[[18644,50847],[0,-13559]],[[18644,37288],[-3390,-5085]],[[15254,32203],[-3390,-10169]],[[11864,22034],[-3390,-10170]],[[8474,11864],[0,-11864]],[[64406,55932],[-3390,-3390]],[[61016,52542],[-8474,11864]],[[52542,64406],[0,6780]],[[52542,71186],[3390,3390]],[[55932,74576],[3389,8474]],[[59321,83050],[1695,8475]],[[61016,91525],[1695,6779]],[[62711,98304],[10170,-10169]],[[72881,88135],[-1695,-6780]],[[71186,81355],[-3390,-8474]],[[67796,72881],[-3390,-16949]],[[49152,64406],[-3390,3390]],[[45762,67796],[-6779,5085]],[[38983,72881],[6779,6779]],[[45762,79660],[3390,6780]],[[49152,86440],[1695,6779]],[[50847,93219],[1695,6780]],[[52542,99999],[10169,-1695]],[[61016,91525],[-1695,-8475]],[[59321,83050],[-3389,-8474]],[[52542,71186],[-3390,-6780]],[[72881,88135],[15254,-35593],[11864,-1695],[0,-22034],[-23729,3390]],[[76270,32203],[-5084,3390]],[[71186,35593],[1695,5085]],[[72881,40678],[-8475,15254]],[[67796,72881],[3390,8474]],[[71186,81355],[1695,6780]],[[28813,66101],[-3390,1695]],[[25423,67796],[1695,1695]],[[27118,69491],[5085,-5085],[-5085,-10169]],[[27118,54237],[-1695,-5085]],[[25423,49152],[-6779,1695]],[[13559,76270],[23729,22034],[15254,1695]],[[52542,99999],[-1695,-6780]],[[50847,93219],[-1695,-6779]],[[45762,79660],[-6779,1695]],[[38983,81355],[-5085,-3390]],[[33898,77965],[-6780,-8474]],[[25423,67796],[-11864,8474]],[[55932,11864],[-10170,6780]],[[45762,18644],[-8474,1695]],[[37288,20339],[1695,22033]],[[38983,42372],[3389,3390]],[[42372,45762],[5085,-1695]],[[47457,44067],[8475,3390]],[[55932,47457],[3389,0]],[[59321,47457],[11865,-10169]],[[71186,37288],[0,-1695]],[[76270,32203],[0,-11864],[-20338,-8475]],[[8474,11864],[3390,10170]],[[11864,22034],[3390,10169]],[[15254,32203],[3390,5085]],[[18644,50847],[6779,-1695]],[[25423,49152],[11865,-3390]],[[37288,45762],[1695,-3390]],[[37288,20339],[8474,-1695]],[[55932,11864],[-47458,-11864]],[[33898,77965],[5085,3390]],[[38983,81355],[0,-8474]],[[45762,67796],[-3390,-1695]],[[42372,66101],[-1694,1695]],[[40678,67796],[-5085,1695]],[[35593,69491],[-6780,1695]],[[28813,71186],[5085,6779]],[[47457,44067],[-1695,0]],[[45762,44067],[1695,3390],[-1695,0],[-1695,1695],[1695,5085]],[[45762,54237],[15254,-1695]],[[61016,52542],[3390,3390]],[[72881,40678],[-1695,-3390]],[[59321,47457],[-3389,0]],[[25423,49152],[1695,5085]],[[27118,69491],[1695,1695]],[[35593,69491],[5085,-1695]],[[42372,66101],[-5084,-6780]],[[37288,59321],[8474,-5084]],[[45762,44067],[-3390,1695]],[[38983,42372],[-1695,3390]],[[37288,59321],[5084,6780]],[[45762,67796],[3390,-3390]],[[49152,64406],[3390,0]]],"transform":{"scale":[5.900059000586914e-8,5.900059000590467e-8],"translate":[77.4993,29.6329]},"objects":{"wards":{"type":"GeometryCollection","geometries":[{"arcs":[[0,1,2,3,4,5,6,7]],"type":"Polygon","properties":{"objectid":180514,"statename":"Uttar Pradesh","statecode":"9","districtname":"","districtcode":"132","ulbname":"Ambehta (Np)","ulbcode":"800634","wardname":"Nyabans","wardcode":"1","id":null,"status":"APPROVED","misglobalid":null,"approved_by":null,"createdate":1645858407000,"updateddate":1645858731000,"globalid":null,"gisglobalid":"4cQBKolm-RRnP-Pm66-anm6-aPs4doPRanRl","remark":"","st_area(shape)":0.000003631972824284869,"st_perimeter(shape)":0.011012450026490806}},{"arcs":[[8,9,10,11,12,13,14,15,16,17,18]],"type":"Polygon","properties":{"objectid":180095,"statename":"Uttar Pradesh","statecode":"9","districtname":"","districtcode":"132","ulbname":"Ambehta (Np)","ulbcode":"800634","wardname":"Guha (South)","wardcode":"2","id":null,"status":"APPROVED","misglobalid":null,"approved_by":null,"createdate":1645858420000,"updateddate":1645858740000,"globalid":null,"gisglobalid":"P4loacc4-dlc6-PP65-RaRo-o45K6KBlommB","remark":"","st_area(shape)":0.0000017196209100856673,"st_perimeter(shape)":0.006096197621026743}},{"arcs":[[19,20,21,22,23,24,25,-15,26,27,-12,28]],"type":"Polygon","properties":{"objectid":177466,"statename":"Uttar Pradesh","statecode":"9","districtname":"","districtcode":"132","ulbname":"Ambehta (Np)","ulbcode":"800634","wardname":"Guha (North)","wardcode":"3","id":null,"status":"APPROVED","misglobalid":null,"approved_by":null,"createdate":1645858432000,"updateddate":1645858748000,"globalid":null,"gisglobalid":"Q4dsQ4Pn-oRlR-PsRs-RRKB-cmmdR546dKPl","remark":"","st_area(shape)":0.0000012452862130151346,"st_perimeter(shape)":0.0058122260657509925}},{"arcs":[[29,30,31,32,-19,33,34]],"type":"Polygon","properties":{"objectid":180515,"statename":"Uttar Pradesh","statecode":"9","districtname":"","districtcode":"132","ulbname":"Ambehta (Np)","ulbcode":"800634","wardname":"Kila","wardcode":"4","id":null,"status":"APPROVED","misglobalid":null,"approved_by":null,"createdate":1645858444000,"updateddate":1645858758000,"globalid":null,"gisglobalid":"5sldmcl4-cBs4-PRKR-RKnK-4cmsdsoaQKRo","remark":"","st_area(shape)":0.0000039476028606070625,"st_perimeter(shape)":0.009987896727459087}},{"arcs":[[-3,35,36,37,38,39]],"type":"Polygon","properties":{"objectid":177467,"statename":"Uttar Pradesh","statecode":"9","districtname":"","districtcode":"132","ulbname":"Ambehta (Np)","ulbcode":"800634","wardname":"Gujran","wardcode":"5","id":null,"status":"APPROVED","misglobalid":null,"approved_by":null,"createdate":1645858454000,"updateddate":1645859028000,"globalid":null,"gisglobalid":"KsnPd4Bl-Q46d-P4lK-RBRP-lKKP5QaK4PPm","remark":"","st_area(shape)":6.545361313986466e-7,"st_perimeter(shape)":0.004755767312241454}},{"arcs":[[40,41,42,-23,43,44,45,-37,46]],"type":"Polygon","properties":{"objectid":180516,"statename":"Uttar Pradesh","statecode":"9","districtname":"","districtcode":"132","ulbname":"Ambehta (Np)","ulbcode":"800634","wardname":"Gadan","wardcode":"6","id":null,"status":"APPROVED","misglobalid":null,"approved_by":null,"createdate":1645858467000,"updateddate":1645858838000,"globalid":null,"gisglobalid":"PlBK6cKn-BPsn-Pccc-adms-KsaaQ6B6KodB","remark":"","st_area(shape)":0.0000025174409550946422,"st_perimeter(shape)":0.008199881895398565}},{"arcs":[[47,48,49,50,51,52,53,54,55,-31,56]],"type":"Polygon","properties":{"objectid":180871,"statename":"Uttar Pradesh","statecode":"9","districtname":"","districtcode":"132","ulbname":"Ambehta (Np)","ulbcode":"800634","wardname":"Kotla","wardcode":"7","id":null,"status":"APPROVED","misglobalid":null,"approved_by":null,"createdate":1645858479000,"updateddate":1645858824000,"globalid":null,"gisglobalid":"omRBsomc-44RP-P5co-sBlB-6l4RooaRnm6a","remark":"","st_area(shape)":0.000003780844462463645,"st_perimeter(shape)":0.008358891473021999}},{"arcs":[[-8,57,58,59,-4,60,61,62,-50,63,-48,64]],"type":"Polygon","properties":{"objectid":177468,"statename":"Uttar Pradesh","statecode":"9","districtname":"","districtcode":"132","ulbname":"Ambehta (Np)","ulbcode":"800634","wardname":"Jhabri","wardcode":"8","id":null,"status":"APPROVED","misglobalid":null,"approved_by":null,"createdate":1645858492000,"updateddate":1645858810000,"globalid":null,"gisglobalid":"olmcBl44-Rla4-PamR-s54R-doBmcRon6nPa","remark":"","st_area(shape)":0.000003964602701621468,"st_perimeter(shape)":0.010752259469214967}},{"arcs":[[65,66,-21,67,68,69,70,71]],"type":"Polygon","properties":{"objectid":180872,"statename":"Uttar Pradesh","statecode":"9","districtname":"","districtcode":"132","ulbname":"Ambehta (Np)","ulbcode":"800634","wardname":"Chowk","wardcode":"9","id":null,"status":"APPROVED","misglobalid":null,"approved_by":null,"createdate":1645858507000,"updateddate":1645858800000,"globalid":null,"gisglobalid":"5nKcom64-olnB-Po64-aQ5Q-n5s4an6dcda5","remark":"","st_area(shape)":5.202849046815529e-7,"st_perimeter(shape)":0.0036001321974654206}},{"arcs":[[72,73,74,75,-33,76,-55,77,-53]],"type":"Polygon","properties":{"objectid":180517,"statename":"Uttar Pradesh","statecode":"9","districtname":"","districtcode":"132","ulbname":"Ambehta (Np)","ulbcode":"800634","wardname":"Dodhiyan","wardcode":"10","id":null,"status":"APPROVED","misglobalid":null,"approved_by":null,"createdate":1645858523000,"updateddate":1645858789000,"globalid":null,"gisglobalid":"c5Kcodd4-6lQn-P4mQ-Qca5-sdnPRPRRKcol","remark":"","st_area(shape)":7.391877348502288e-7,"st_perimeter(shape)":0.005601450788144149}},{"arcs":[[78,-38,79,-71,80,-69,81,82,-74,83,-51,84,-62]],"type":"Polygon","properties":{"objectid":180096,"statename":"Uttar Pradesh","statecode":"9","districtname":"","districtcode":"132","ulbname":"Ambehta (Np)","ulbcode":"800634","wardname":"Shahbutray","wardcode":"11","id":null,"status":"APPROVED","misglobalid":null,"approved_by":null,"createdate":1645858537000,"updateddate":1645858781000,"globalid":null,"gisglobalid":"545n6d6c-csQK-P466-QBl6-Kd4QP555R4Bd","remark":"","st_area(shape)":7.450114736067346e-7,"st_perimeter(shape)":0.007264953183121499}},{"arcs":[[-83,85,-68,86,87,-10,-75]],"type":"Polygon","properties":{"objectid":180097,"statename":"Uttar Pradesh","statecode":"9","districtname":"","districtcode":"132","ulbname":"Ambehta (Np)","ulbcode":"800634","wardname":"Nagan","wardcode":"12","id":null,"status":"APPROVED","misglobalid":null,"approved_by":null,"createdate":1645858550000,"updateddate":1645858771000,"globalid":null,"gisglobalid":"mRBPPdQ6-66K5-Pcmn-QPdl-a4a4BcaadRad","remark":"","st_area(shape)":6.735657506010326e-7,"st_perimeter(shape)":0.0043321165848395375}}]}}}