{"type": "FeatureCollection", "features": [{"type": "Feature", "geometry": {"type": "Polygon", "coordinates": [[[78.5922, 11.1526], [78.5895, 11.1549], [78.5876, 11.1552], [78.5876, 11.1582], [78.5834, 11.1585], [78.5806, 11.1701], [78.5844, 11.1716], [78.5879, 11.1651], [78.5883, 11.1629], [78.5911, 11.1628], [78.5915, 11.1645], [78.5916, 11.1666], [78.5921, 11.172], [78.5943, 11.1715], [78.5995, 11.1713], [78.6016, 11.1711], [78.6055, 11.1705], [78.6053, 11.1688], [78.6052, 11.1686], [78.6038, 11.1663], [78.6029, 11.1661], [78.6001, 11.1642], [78.6001, 11.1641], [78.5995, 11.1635], [78.5943, 11.1646], [78.5929, 11.1625], [78.5912, 11.1589], [78.5925, 11.1569], [78.5922, 11.1566], [78.5926, 11.1554], [78.5922, 11.1553], [78.592, 11.1552], [78.5924, 11.1546], [78.5928, 11.1534], [78.5932, 11.1534], [78.5947, 11.1533], [78.5948, 11.1519], [78.5946, 11.1519], [78.5941, 11.1519], [78.594, 11.1526], [78.5922, 11.1526]]]}, "properties": {"objectid": 203867, "statename": "Tamil Nadu", "statecode": "33", "districtname": "", "districtcode": "614", "ulbname": "Thuraiyur", "ulbcode": "803623", "wardname": "Ward 1", "wardcode": "1", "id": null, "status": "APPROVED", "misglobalid": null, "approved_by": null, "createdate": 1646629880000, "updateddate": 1646723974000, "globalid": null, "gisglobalid": "Qm4ccnRn-d5mQ-PQB6-s6QR-sond54K4PmKs", "remark": "Ward No  01 Map Approved", "st_area(shape)": 0.00019682801569657118, "st_perimeter(shape)": 0.09870893615934813}}, {"type": "Feature", "geometry": {"type": "Polygon", "coordinates": [[[78.5948, 11.1519], [78.5947, 11.1534], [78.5929, 11.1535], [78.5924, 11.1546], [78.5921, 11.1551], [78.5926, 11.1554], [78.5923, 11.1565], [78.5926, 11.157], [78.5913, 11.1589], [78.5943, 11.1645], [78.5994, 11.1635], [78.5993, 11.1628], [78.5977, 11.1609], [78.596, 11.159], [78.5955, 11.1574], [78.5954, 11.1555], [78.5957, 11.1543], [78.5972, 11.1539], [78.5974, 11.1537], [78.5976, 11.1533], [78.5975, 11.1533], [78.5969, 11.1528], [78.5969, 11.1527], [78.5971, 11.1527], [78.5989, 11.1527], [78.599, 11.1519], [78.5989, 11.1521], [78.5974, 11.1522], [78.5961, 11.1522], [78.5956, 11.1522], [78.5952, 11.151], [78.5953, 11.1509], [78.5947, 11.1511], [78.5948, 11.1519]]]}, "properties": {"objectid": 203478, "statename": "Tamil Nadu", "statecode": "33", "districtname": "", "districtcode": "614", "ulbname": "Thuraiyur", "ulbcode": "803623", "wardname": "Ward 2", "wardcode": "2", "id": null, "status": "APPROVED", "misglobalid": null, "approved_by": null, "createdate": 1646629880000, "updateddate": 1646724028000, "globalid": null, "gisglobalid": "mnsBdKm5-aQdQ-PP4n-RKls-lm44RKlQnaaP", "remark": "Ward No 2 Map Approved", "st_area(shape)": 5.138326921827666e-05, "st_perimeter(shape)": 0.044336150751418196}}, {"type": "Feature", "geometry": {"type": "Polygon", "coordinates": [[[78.5989, 11.1527], [78.597, 11.1527], [78.5976, 11.1533], [78.5973, 11.1539], [78.5981, 11.1537], [78.5981, 11.1536], [78.5986, 11.1532], [78.5989, 11.153], [78.5991, 11.1534], [78.6, 11.1536], [78.6, 11.1535], [78.6001, 11.1535], [78.6006, 11.1535], [78.6008, 11.1535], [78.6006, 11.1526], [78.6005, 11.1519], [78.5997, 11.1519], [78.5997, 11.1527], [78.5989, 11.1527]]]}, "properties": {"objectid": 203479, "statename": "Tamil Nadu", "statecode": "33", "districtname": "", "districtcode": "614", "ulbname": "Thuraiyur", "ulbcode": "803623", "wardname": "Ward 3", "wardcode": "3", "id": null, "status": "APPROVED", "misglobalid": null, "approved_by": null, "createdate": 1646629880000, "updateddate": 1646724093000, "globalid": null, "gisglobalid": "lBlsdcam-acRP-PPaP-aoRP-QP5scPK4R4nB", "remark": "Ward No 03 Map Approved", "st_area(shape)": 3.3187677459479507e-06, "st_perimeter(shape)": 0.011619670688786894}}, {"type": "Feature", "geometry": {"type": "Polygon", "coordinates": [[[78.6005, 11.1519], [78.6008, 11.1536], [78.6011, 11.154], [78.6018, 11.1539], [78.6022, 11.1537], [78.6026, 11.1537], [78.6031, 11.1529], [78.6032, 11.1526], [78.603, 11.1518], [78.6005, 11.1519]]]}, "properties": {"objectid": 203869, "statename": "Tamil Nadu", "statecode": "33", "districtname": "", "districtcode": "614", "ulbname": "Thuraiyur", "ulbcode": "803623", "wardname": "Ward 4", "wardcode": "4", "id": null, "status": "APPROVED", "misglobalid": null, "approved_by": null, "createdate": 1646629880000, "updateddate": 1646724147000, "globalid": null, "gisglobalid": "6Booscmn-BRna-P6m5-Qd54-dQd6lKaKnRPo", "remark": "Ward No 4 Map Approved", "st_area(shape)": 4.507809780714174e-06, "st_perimeter(shape)": 0.008260362999082494}}, {"type": "Feature", "geometry": {"type": "Polygon", "coordinates": [[[78.6031, 11.1518], [78.6032, 11.1528], [78.6031, 11.153], [78.6027, 11.1537], [78.6023, 11.1538], [78.6018, 11.1539], [78.601, 11.154], [78.6003, 11.1537], [78.5981, 11.1538], [78.5959, 11.1545], [78.5956, 11.1565], [78.596, 11.1589], [78.5978, 11.1608], [78.5995, 11.1629], [78.5999, 11.1638], [78.6028, 11.1653], [78.6043, 11.1662], [78.6054, 11.1686], [78.6065, 11.1699], [78.6095, 11.1686], [78.6091, 11.165], [78.6091, 11.1648], [78.6047, 11.1549], [78.6044, 11.1545], [78.6036, 11.1545], [78.6037, 11.1541], [78.6037, 11.154], [78.6055, 11.1537], [78.6053, 11.1518], [78.6031, 11.1518]]]}, "properties": {"objectid": 200683, "statename": "Tamil Nadu", "statecode": "33", "districtname": "", "districtcode": "614", "ulbname": "Thuraiyur", "ulbcode": "803623", "wardname": "Ward 5", "wardcode": "5", "id": null, "status": "APPROVED", "misglobalid": null, "approved_by": null, "createdate": 1646629880000, "updateddate": 1646724198000, "globalid": null, "gisglobalid": "s5lRacss-mo6a-PBK6-RRms-4PKon4cQlBd4", "remark": "Ward No 05 Map Approved", "st_area(shape)": 0.00012854985101353267, "st_perimeter(shape)": 0.054755681058347515}}, {"type": "Feature", "geometry": {"type": "Polygon", "coordinates": [[[78.6054, 11.1519], [78.6055, 11.1537], [78.6038, 11.154], [78.6036, 11.1544], [78.6044, 11.1545], [78.6048, 11.1548], [78.6093, 11.1649], [78.6099, 11.1687], [78.6134, 11.1667], [78.6149, 11.1659], [78.6131, 11.1632], [78.6111, 11.1586], [78.6102, 11.1548], [78.6098, 11.1522], [78.6098, 11.152], [78.6098, 11.1519], [78.6095, 11.1518], [78.6072, 11.152], [78.6054, 11.1519]]]}, "properties": {"objectid": 202681, "statename": "Tamil Nadu", "statecode": "33", "districtname": "", "districtcode": "614", "ulbname": "Thuraiyur", "ulbcode": "803623", "wardname": "Ward 6", "wardcode": "6", "id": null, "status": "APPROVED", "misglobalid": null, "approved_by": null, "createdate": 1646629880000, "updateddate": 1646724260000, "globalid": null, "gisglobalid": "ad5o4Kdo-dR5n-PmB5-as55-cmPd6sQldP5Q", "remark": "Ward No 6 Map Approved", "st_area(shape)": 7.522833538725821e-05, "st_perimeter(shape)": 0.04535976825547823}}, {"type": "Feature", "geometry": {"type": "Polygon", "coordinates": [[[78.6099, 11.1519], [78.6102, 11.1547], [78.6112, 11.1585], [78.6131, 11.1632], [78.6153, 11.1651], [78.6187, 11.1636], [78.6203, 11.1601], [78.6203, 11.1598], [78.6219, 11.1544], [78.6219, 11.1543], [78.622, 11.1513], [78.6201, 11.151], [78.62, 11.151], [78.6166, 11.1513], [78.6136, 11.1516], [78.6099, 11.1519]]]}, "properties": {"objectid": 200684, "statename": "Tamil Nadu", "statecode": "33", "districtname": "", "districtcode": "614", "ulbname": "Thuraiyur", "ulbcode": "803623", "wardname": "Ward 7", "wardcode": "7", "id": null, "status": "APPROVED", "misglobalid": null, "approved_by": null, "createdate": 1646629880000, "updateddate": 1646724307000, "globalid": null, "gisglobalid": "nldldna4-KP5o-PQm4-aolm-5sdsnos5caPB", "remark": "Ward No 7 Map Approved", "st_area(shape)": 0.00012196449771973854, "st_perimeter(shape)": 0.043540285739702284}}, {"type": "Feature", "geometry": {"type": "Polygon", "coordinates": [[[78.6001, 11.1519], [78.6031, 11.1518], [78.6055, 11.1518], [78.6072, 11.152], [78.6095, 11.1517], [78.6099, 11.1518], [78.6133, 11.1516], [78.6156, 11.1514], [78.62, 11.1509], [78.6219, 11.1512], [78.622, 11.1511], [78.6218, 11.1505], [78.6172, 11.1503], [78.6154, 11.1509], [78.6148, 11.1503], [78.6131, 11.1485], [78.6114, 11.1488], [78.6112, 11.1488], [78.6091, 11.149], [78.6072, 11.149], [78.605, 11.1494], [78.6049, 11.1504], [78.6048, 11.1506], [78.6042, 11.1506], [78.6039, 11.1508], [78.6026, 11.1511], [78.6022, 11.1512], [78.6014, 11.1505], [78.6014, 11.1513], [78.601, 11.1514], [78.6003, 11.1515], [78.6002, 11.1518], [78.6001, 11.1519]]]}, "properties": {"objectid": 201481, "statename": "Tamil Nadu", "statecode": "33", "districtname": "", "districtcode": "614", "ulbname": "Thuraiyur", "ulbcode": "803623", "wardname": "Ward 8", "wardcode": "8", "id": null, "status": "APPROVED", "misglobalid": null, "approved_by": null, "createdate": 1646629880000, "updateddate": 1646724366000, "globalid": null, "gisglobalid": "6nBQs5Kc-mad5-PBnl-R4BQ-mB4ans54n6KQ", "remark": "Ward No 08 Map Approved", "st_area(shape)": 3.560577191620182e-05, "st_perimeter(shape)": 0.048208026565938054}}, {"type": "Feature", "geometry": {"type": "Polygon", "coordinates": [[[78.6049, 11.1491], [78.6016, 11.1496], [78.6003, 11.1496], [78.6002, 11.15], [78.5996, 11.15], [78.5998, 11.1508], [78.6003, 11.1508], [78.6006, 11.1508], [78.6008, 11.151], [78.6012, 11.151], [78.6013, 11.151], [78.6013, 11.1504], [78.6022, 11.1512], [78.6032, 11.1509], [78.604, 11.1507], [78.6042, 11.1506], [78.6048, 11.1505], [78.605, 11.1493], [78.6049, 11.1491]]]}, "properties": {"objectid": 203077, "statename": "Tamil Nadu", "statecode": "33", "districtname": "", "districtcode": "614", "ulbname": "Thuraiyur", "ulbcode": "803623", "wardname": "Ward 9", "wardcode": "9", "id": null, "status": "APPROVED", "misglobalid": null, "approved_by": null, "createdate": 1646629880000, "updateddate": 1646724424000, "globalid": null, "gisglobalid": "6dR55nBn-BQK6-Pdmo-sRdo-dQmlaPRao6cs", "remark": "Ward No 9 Map Approved", "st_area(shape)": 6.936369291143969e-06, "st_perimeter(shape)": 0.014050893508301517}}, {"type": "Feature", "geometry": {"type": "Polygon", "coordinates": [[[78.5998, 11.1509], [78.5997, 11.1506], [78.5993, 11.1506], [78.5983, 11.1506], [78.5984, 11.1514], [78.5991, 11.1514], [78.6001, 11.1514], [78.6003, 11.1514], [78.6014, 11.1513], [78.6014, 11.151], [78.6008, 11.151], [78.6006, 11.1508], [78.6003, 11.1509], [78.5998, 11.1509]]]}, "properties": {"objectid": 202276, "statename": "Tamil Nadu", "statecode": "33", "districtname": "", "districtcode": "614", "ulbname": "Thuraiyur", "ulbcode": "803623", "wardname": "Ward 10", "wardcode": "10", "id": null, "status": "APPROVED", "misglobalid": null, "approved_by": null, "createdate": 1646629880000, "updateddate": 1646724503000, "globalid": null, "gisglobalid": "6RoddBPR-5n5a-Pnc5-Q5na-Qmc4n64aBdmB", "remark": "Ward No 10 Map Approved", "st_area(shape)": 1.8736433785853798e-06, "st_perimeter(shape)": 0.007463548467998124}}, {"type": "Feature", "geometry": {"type": "Polygon", "coordinates": [[[78.5983, 11.1515], [78.5983, 11.1506], [78.5981, 11.1507], [78.5976, 11.1508], [78.5966, 11.1511], [78.5966, 11.1516], [78.5958, 11.1517], [78.5958, 11.1522], [78.5989, 11.1521], [78.599, 11.1518], [78.599, 11.1519], [78.5989, 11.1526], [78.5996, 11.1526], [78.5997, 11.1519], [78.6001, 11.1519], [78.6002, 11.1518], [78.6002, 11.1515], [78.5991, 11.1514], [78.5983, 11.1515]]]}, "properties": {"objectid": 201480, "statename": "Tamil Nadu", "statecode": "33", "districtname": "", "districtcode": "614", "ulbname": "Thuraiyur", "ulbcode": "803623", "wardname": "Ward 11", "wardcode": "11", "id": null, "status": "APPROVED", "misglobalid": null, "approved_by": null, "createdate": 1646629880000, "updateddate": 1646724555000, "globalid": null, "gisglobalid": "K5acQoBl-Rs6a-Pmn4-aPQa-dK6omPRKPQKa", "remark": "Ward No 11 Map Approved", "st_area(shape)": 4.240552012933003e-06, "st_perimeter(shape)": 0.012923665985925592}}, {"type": "Feature", "geometry": {"type": "Polygon", "coordinates": [[[78.5956, 11.152], [78.5958, 11.1522], [78.5958, 11.1516], [78.5965, 11.1516], [78.5965, 11.151], [78.5975, 11.1508], [78.5984, 11.1506], [78.5997, 11.1506], [78.5996, 11.1504], [78.5995, 11.1498], [78.5995, 11.1497], [78.5989, 11.1497], [78.5982, 11.1498], [78.5984, 11.1502], [78.5974, 11.1506], [78.5972, 11.15], [78.597, 11.1497], [78.5966, 11.1497], [78.5957, 11.1498], [78.5956, 11.1495], [78.5956, 11.1494], [78.595, 11.1496], [78.595, 11.15], [78.5955, 11.1513], [78.5956, 11.152]]]}, "properties": {"objectid": 202679, "statename": "Tamil Nadu", "statecode": "33", "districtname": "", "districtcode": "614", "ulbname": "Thuraiyur", "ulbcode": "803623", "wardname": "Ward 12", "wardcode": "12", "id": null, "status": "APPROVED", "misglobalid": null, "approved_by": null, "createdate": 1646629880000, "updateddate": 1646724600000, "globalid": null, "gisglobalid": "omRB6BaQ-Pss5-PPlo-sds6-PPdlRmnRn5al", "remark": "Ward No 12 Map Approved ", "st_area(shape)": 4.871875855758905e-06, "st_perimeter(shape)": 0.014665894891036318}}, {"type": "Feature", "geometry": {"type": "Polygon", "coordinates": [[[78.5946, 11.151], [78.5952, 11.1509], [78.5948, 11.1502], [78.5938, 11.1502], [78.5925, 11.1499], [78.5921, 11.149], [78.5913, 11.149], [78.5902, 11.1497], [78.5812, 11.1503], [78.5808, 11.1503], [78.5815, 11.1523], [78.5834, 11.1584], [78.5874, 11.1581], [78.5876, 11.1551], [78.5894, 11.1548], [78.5922, 11.1526], [78.594, 11.1526], [78.594, 11.1519], [78.5948, 11.1518], [78.5946, 11.151]]]}, "properties": {"objectid": 203080, "statename": "Tamil Nadu", "statecode": "33", "districtname": "", "districtcode": "614", "ulbname": "Thuraiyur", "ulbcode": "803623", "wardname": "Ward 13", "wardcode": "13", "id": null, "status": "APPROVED", "misglobalid": null, "approved_by": null, "createdate": 1646629880000, "updateddate": 1646724664000, "globalid": null, "gisglobalid": "oBccdBBs-dKQB-Pd5d-a5lP-la5do4mPsnml", "remark": "Ward No 13 Map Approved", "st_area(shape)": 7.255322753411933e-05, "st_perimeter(shape)": 0.041443972173939136}}, {"type": "Feature", "geometry": {"type": "Polygon", "coordinates": [[[78.594, 11.1471], [78.5946, 11.1488], [78.5945, 11.1488], [78.5934, 11.1488], [78.5934, 11.1499], [78.5948, 11.1502], [78.5949, 11.1502], [78.5951, 11.1509], [78.5953, 11.151], [78.5955, 11.152], [78.5955, 11.1513], [78.5949, 11.1496], [78.5956, 11.1494], [78.5957, 11.1497], [78.5965, 11.1496], [78.5966, 11.1494], [78.5964, 11.1485], [78.5963, 11.147], [78.594, 11.1471]]]}, "properties": {"objectid": 202680, "statename": "Tamil Nadu", "statecode": "33", "districtname": "", "districtcode": "614", "ulbname": "Thuraiyur", "ulbcode": "803623", "wardname": "Ward 14", "wardcode": "14", "id": null, "status": "APPROVED", "misglobalid": null, "approved_by": null, "createdate": 1646629880000, "updateddate": 1646724716000, "globalid": null, "gisglobalid": "BK6KPQs4-cBBd-PR5o-s4B6-nsQPcK4BdQan", "remark": "Ward No 14 Map Approved", "st_area(shape)": 7.191121544238949e-06, "st_perimeter(shape)": 0.016660396171774432}}, {"type": "Feature", "geometry": {"type": "MultiPolygon", "coordinates": [[[[78.5964, 11.1485], [78.5965, 11.1493], [78.5964, 11.1493], [78.5957, 11.1495], [78.5957, 11.1498], [78.5965, 11.1497], [78.597, 11.1497], [78.5972, 11.15], [78.5974, 11.1506], [78.5983, 11.1502], [78.5982, 11.1498], [78.5989, 11.1497], [78.5995, 11.1497], [78.5995, 11.1492], [78.5994, 11.1488], [78.5991, 11.1489], [78.5991, 11.1488], [78.5989, 11.1485], [78.5988, 11.1485], [78.5987, 11.1484], [78.5982, 11.1484], [78.5981, 11.1484], [78.5971, 11.1485], [78.5964, 11.1485]]], [[[78.5964, 11.1485]]]]}, "properties": {"objectid": 201483, "statename": "Tamil Nadu", "statecode": "33", "districtname": "", "districtcode": "614", "ulbname": "Thuraiyur", "ulbcode": "803623", "wardname": "Ward 15", "wardcode": "15", "id": null, "status": "APPROVED", "misglobalid": null, "approved_by": null, "createdate": 1646629880000, "updateddate": 1646724765000, "globalid": null, "gisglobalid": "cBo5ddQK-ommR-PBPQ-adB4-cP5d4nKRadBl", "remark": "Ward No 15 Map Approved", "st_area(shape)": 4.564456040378496e-06, "st_perimeter(shape)": 0.01118442498418691}}, {"type": "Feature", "geometry": {"type": "Polygon", "coordinates": [[[78.5985, 11.1469], [78.5988, 11.1474], [78.5988, 11.148], [78.5987, 11.1483], [78.5989, 11.1485], [78.5991, 11.1488], [78.5995, 11.1488], [78.5996, 11.1499], [78.6002, 11.1499], [78.6003, 11.1496], [78.6011, 11.1496], [78.6011, 11.149], [78.6009, 11.149], [78.6006, 11.1479], [78.6006, 11.147], [78.6004, 11.1459], [78.6, 11.1458], [78.5991, 11.146], [78.5992, 11.1471], [78.5985, 11.1469]]]}, "properties": {"objectid": 203477, "statename": "Tamil Nadu", "statecode": "33", "districtname": "", "districtcode": "614", "ulbname": "Thuraiyur", "ulbcode": "803623", "wardname": "Ward 16", "wardcode": "16", "id": null, "status": "APPROVED", "misglobalid": null, "approved_by": null, "createdate": 1646629880000, "updateddate": 1646724824000, "globalid": null, "gisglobalid": "PQnaKBsP-6BQd-Pd6B-s66o-4nlPmldQmQ4P", "remark": "Ward No 16 Map Approved", "st_area(shape)": 6.315372941471853e-06, "st_perimeter(shape)": 0.012598916238364746}}, {"type": "Feature", "geometry": {"type": "Polygon", "coordinates": [[[78.6011, 11.1496], [78.6014, 11.1496], [78.6022, 11.1495], [78.6022, 11.1493], [78.6015, 11.1494], [78.6014, 11.1492], [78.6018, 11.1491], [78.6017, 11.1489], [78.602, 11.1488], [78.6022, 11.149], [78.6026, 11.1489], [78.6032, 11.1488], [78.6034, 11.148], [78.6023, 11.1482], [78.6018, 11.147], [78.6014, 11.1457], [78.601, 11.1458], [78.6004, 11.1459], [78.6005, 11.1462], [78.6007, 11.147], [78.6006, 11.1478], [78.6008, 11.1485], [78.6009, 11.1489], [78.6011, 11.149], [78.6012, 11.149], [78.6011, 11.1492], [78.6011, 11.1496]]]}, "properties": {"objectid": 200681, "statename": "Tamil Nadu", "statecode": "33", "districtname": "", "districtcode": "614", "ulbname": "Thuraiyur", "ulbcode": "803623", "wardname": "Ward 17", "wardcode": "17", "id": null, "status": "APPROVED", "misglobalid": null, "approved_by": null, "createdate": 1646629880000, "updateddate": 1646724880000, "globalid": null, "gisglobalid": "asK4Kmmc-6PKs-P4sK-QBcl-KKBcno6QRaBQ", "remark": "Ward No 17 Map Approved", "st_area(shape)": 5.106335667145481e-06, "st_perimeter(shape)": 0.014055053959169079}}, {"type": "Feature", "geometry": {"type": "Polygon", "coordinates": [[[78.6023, 11.1495], [78.6049, 11.149], [78.605, 11.1494], [78.6071, 11.149], [78.6091, 11.1489], [78.6113, 11.1487], [78.6131, 11.1484], [78.6092, 11.145], [78.6087, 11.1444], [78.6057, 11.1451], [78.6014, 11.1457], [78.6018, 11.1471], [78.6023, 11.1482], [78.6034, 11.1479], [78.6032, 11.1488], [78.6022, 11.149], [78.602, 11.1489], [78.6018, 11.1489], [78.6018, 11.1491], [78.6014, 11.1493], [78.6015, 11.1494], [78.6022, 11.1493], [78.6023, 11.1495]]]}, "properties": {"objectid": 203078, "statename": "Tamil Nadu", "statecode": "33", "districtname": "", "districtcode": "614", "ulbname": "Thuraiyur", "ulbcode": "803623", "wardname": "Ward 18", "wardcode": "18", "id": null, "status": "APPROVED", "misglobalid": null, "approved_by": null, "createdate": 1646629880000, "updateddate": 1646723639000, "globalid": null, "gisglobalid": "5lm6Raoa-R55Q-Pos6-s4oa-a446RaKmaa4Q", "remark": "Ward Boundary Map Approved", "st_area(shape)": 3.687696013545817e-05, "st_perimeter(shape)": 0.03235342135006662}}, {"type": "Feature", "geometry": {"type": "Polygon", "coordinates": [[[78.596, 11.1461], [78.5962, 11.147], [78.5963, 11.147], [78.5965, 11.1485], [78.5971, 11.1485], [78.598, 11.1483], [78.5987, 11.1483], [78.5988, 11.148], [78.5988, 11.1474], [78.5985, 11.147], [78.5972, 11.1466], [78.596, 11.1461]]]}, "properties": {"objectid": 202678, "statename": "Tamil Nadu", "statecode": "33", "districtname": "", "districtcode": "614", "ulbname": "Thuraiyur", "ulbcode": "803623", "wardname": "Ward 19", "wardcode": "19", "id": null, "status": "APPROVED", "misglobalid": null, "approved_by": null, "createdate": 1646629880000, "updateddate": 1646724931000, "globalid": null, "gisglobalid": "5n5moc44-Bl4m-P65m-RQR4-a6PKP6Bc6msc", "remark": "Ward No 19 Map Approved", "st_area(shape)": 4.31733896175309e-06, "st_perimeter(shape)": 0.008853224238512584}}, {"type": "Feature", "geometry": {"type": "Polygon", "coordinates": [[[78.5918, 11.1396], [78.5917, 11.1388], [78.5907, 11.1389], [78.5908, 11.1391], [78.5906, 11.1396], [78.5909, 11.1406], [78.5877, 11.141], [78.5858, 11.1409], [78.584, 11.1408], [78.5809, 11.1381], [78.5737, 11.1386], [78.5741, 11.1401], [78.5765, 11.145], [78.5781, 11.1475], [78.5804, 11.1493], [78.5808, 11.1502], [78.5902, 11.1496], [78.5913, 11.1489], [78.592, 11.1489], [78.592, 11.1478], [78.5914, 11.1444], [78.5925, 11.1435], [78.5928, 11.1445], [78.594, 11.147], [78.596, 11.147], [78.596, 11.146], [78.5957, 11.1454], [78.5961, 11.1452], [78.596, 11.1433], [78.5949, 11.1432], [78.5942, 11.1434], [78.5941, 11.1434], [78.594, 11.1425], [78.5941, 11.1417], [78.5941, 11.1416], [78.5931, 11.1416], [78.593, 11.1416], [78.5932, 11.1409], [78.5939, 11.1407], [78.5939, 11.1411], [78.5946, 11.141], [78.5945, 11.1403], [78.5945, 11.1402], [78.5942, 11.1395], [78.5942, 11.1394], [78.5934, 11.1395], [78.5919, 11.1396], [78.5918, 11.1396]]]}, "properties": {"objectid": 201482, "statename": "Tamil Nadu", "statecode": "33", "districtname": "", "districtcode": "614", "ulbname": "Thuraiyur", "ulbcode": "803623", "wardname": "Ward 20", "wardcode": "20", "id": null, "status": "APPROVED", "misglobalid": null, "approved_by": null, "createdate": 1646629880000, "updateddate": 1646724981000, "globalid": null, "gisglobalid": "BcPoldKc-coQo-P4l6-QK6o-4Bma6P64dmQm", "remark": "Ward No 20 Map Approved", "st_area(shape)": 0.00017519745710402025, "st_perimeter(shape)": 0.07479020970686122}}, {"type": "Feature", "geometry": {"type": "Polygon", "coordinates": [[[78.5984, 11.1414], [78.5969, 11.141], [78.5946, 11.1411], [78.5946, 11.141], [78.5939, 11.1411], [78.5939, 11.1408], [78.5932, 11.1409], [78.5931, 11.1415], [78.5941, 11.1416], [78.5941, 11.1433], [78.595, 11.1432], [78.596, 11.1432], [78.5962, 11.1452], [78.5957, 11.1455], [78.5962, 11.1461], [78.5983, 11.1468], [78.5985, 11.1468], [78.5991, 11.1469], [78.5991, 11.146], [78.5991, 11.1435], [78.5984, 11.1414]]]}, "properties": {"objectid": 200682, "statename": "Tamil Nadu", "statecode": "33", "districtname": "", "districtcode": "614", "ulbname": "Thuraiyur", "ulbcode": "803623", "wardname": "Ward 21", "wardcode": "21", "id": null, "status": "APPROVED", "misglobalid": null, "approved_by": null, "createdate": 1646629880000, "updateddate": 1646725038000, "globalid": null, "gisglobalid": "osmnBBos-Kd6l-PPcl-socn-64ldnoQ46KQK", "remark": "Ward No 21 Map Approved", "st_area(shape)": 2.0716446307724776e-05, "st_perimeter(shape)": 0.02289638330025051}}, {"type": "Feature", "geometry": {"type": "Polygon", "coordinates": [[[78.581, 11.138], [78.584, 11.1408], [78.5877, 11.141], [78.5909, 11.1405], [78.5905, 11.1396], [78.5907, 11.1392], [78.5906, 11.1389], [78.5917, 11.1387], [78.5914, 11.1369], [78.5889, 11.1368], [78.5843, 11.1368], [78.5845, 11.1384], [78.5822, 11.1378], [78.581, 11.138]]]}, "properties": {"objectid": 203079, "statename": "Tamil Nadu", "statecode": "33", "districtname": "", "districtcode": "614", "ulbname": "Thuraiyur", "ulbcode": "803623", "wardname": "Ward 22", "wardcode": "22", "id": null, "status": "APPROVED", "misglobalid": null, "approved_by": null, "createdate": 1646629880000, "updateddate": 1646725082000, "globalid": null, "gisglobalid": "l55Pca54-Qdc5-Pccc-aBas-lscnK4mlQ64c", "remark": "Ward No 22 Map Approved", "st_area(shape)": 3.2019269148815214e-05, "st_perimeter(shape)": 0.028043030563040097}}, {"type": "Feature", "geometry": {"type": "Polygon", "coordinates": [[[78.594, 11.1393], [78.5942, 11.1394], [78.5946, 11.1402], [78.5946, 11.1409], [78.5969, 11.1409], [78.5985, 11.1414], [78.5991, 11.1432], [78.5989, 11.1377], [78.5945, 11.1365], [78.594, 11.1393]]]}, "properties": {"objectid": 203868, "statename": "Tamil Nadu", "statecode": "33", "districtname": "", "districtcode": "614", "ulbname": "Thuraiyur", "ulbcode": "803623", "wardname": "Ward 23", "wardcode": "23", "id": null, "status": "APPROVED", "misglobalid": null, "approved_by": null, "createdate": 1646629880000, "updateddate": 1646725137000, "globalid": null, "gisglobalid": "dd4BBQsK-ansQ-PlQ6-Rso4-B4BnK5osdddl", "remark": "Ward No 23 Map Approved ", "st_area(shape)": 1.8541105670578096e-05, "st_perimeter(shape)": 0.020513723483806822}}, {"type": "Feature", "geometry": {"type": "Polygon", "coordinates": [[[78.5919, 11.1395], [78.594, 11.1393], [78.5945, 11.1364], [78.599, 11.1377], [78.5992, 11.1458], [78.6085, 11.1442], [78.6042, 11.1386], [78.6021, 11.1343], [78.5976, 11.1332], [78.5936, 11.1324], [78.5915, 11.1324], [78.5916, 11.1336], [78.5917, 11.1342], [78.5931, 11.1342], [78.593, 11.1353], [78.5917, 11.1356], [78.5917, 11.1377], [78.5919, 11.1395]]]}, "properties": {"objectid": 200685, "statename": "Tamil Nadu", "statecode": "33", "districtname": "", "districtcode": "614", "ulbname": "Thuraiyur", "ulbcode": "803623", "wardname": "Ward 24", "wardcode": "24", "id": null, "status": "APPROVED", "misglobalid": null, "approved_by": null, "createdate": 1646629880000, "updateddate": 1646725185000, "globalid": null, "gisglobalid": "545nP4lc-l6dm-PBKl-Q4aR-doP64m4l54Bo", "remark": "Ward No 24 Map Approved", "st_area(shape)": 0.00010191607100773476, "st_perimeter(shape)": 0.059166860983271855}}]}
