{"type": "FeatureCollection", "features": [{"type": "Feature", "geometry": {"type": "Polygon", "coordinates": [[[80.7593, 26.2245], [80.7593, 26.2244], [80.7595, 26.2244], [80.7597, 26.2244], [80.7599, 26.2244], [80.7605, 26.2244], [80.7613, 26.2244], [80.7612, 26.2242], [80.7612, 26.2241], [80.761, 26.224], [80.7608, 26.2238], [80.7606, 26.2237], [80.7604, 26.2235], [80.7605, 26.2234], [80.7605, 26.2231], [80.7604, 26.2229], [80.7602, 26.2228], [80.7602, 26.2229], [80.7601, 26.223], [80.7599, 26.2231], [80.7597, 26.2232], [80.7596, 26.2233], [80.7594, 26.2234], [80.7594, 26.2233], [80.7593, 26.2233], [80.7592, 26.2232], [80.7592, 26.2231], [80.7589, 26.2233], [80.759, 26.2234], [80.7589, 26.2235], [80.759, 26.2238], [80.7589, 26.2239], [80.7588, 26.2239], [80.7587, 26.2239], [80.7586, 26.2238], [80.7585, 26.2238], [80.7584, 26.2237], [80.7582, 26.2237], [80.7581, 26.2238], [80.7581, 26.2239], [80.7579, 26.2241], [80.7579, 26.2242], [80.758, 26.2242], [80.7581, 26.2243], [80.7582, 26.2246], [80.7585, 26.2245], [80.7587, 26.2244], [80.7591, 26.2246], [80.7592, 26.2245], [80.7593, 26.2245]]]}, "properties": {"objectid": 154255, "statename": "Uttar Pradesh", "statecode": "9", "districtname": "", "districtcode": "156", "ulbname": "Np Bhagwant Nagar", "ulbcode": "800945", "wardname": "Uttari Gadheva Madhya", "wardcode": "1", "id": null, "status": "APPROVED", "misglobalid": null, "approved_by": null, "createdate": 1644518039000, "updateddate": 1670315833000, "globalid": null, "gisglobalid": "o5RoRona-aosQ-P4cP-QcP6-4P4llc4QQKB6", "remark": "Ok", "st_area(shape)": 3.0142180113638804e-06, "st_perimeter(shape)": 0.009969764141915869}}, {"type": "Feature", "geometry": {"type": "Polygon", "coordinates": [[[80.7617, 26.2245], [80.7599, 26.2244], [80.7597, 26.2244], [80.7595, 26.2244], [80.7593, 26.2245], [80.7591, 26.2246], [80.7591, 26.2248], [80.7591, 26.225], [80.7589, 26.2251], [80.7587, 26.2252], [80.7585, 26.2253], [80.7582, 26.2254], [80.7582, 26.2255], [80.7583, 26.2256], [80.7582, 26.2257], [80.7581, 26.2257], [80.758, 26.2258], [80.7581, 26.2258], [80.7581, 26.2259], [80.7579, 26.226], [80.7586, 26.2269], [80.7585, 26.227], [80.7581, 26.2272], [80.758, 26.2269], [80.7579, 26.2268], [80.7578, 26.2266], [80.7577, 26.2263], [80.7576, 26.2261], [80.7574, 26.2259], [80.757, 26.2259], [80.7566, 26.226], [80.7562, 26.226], [80.7558, 26.2262], [80.7555, 26.2264], [80.7552, 26.2269], [80.758, 26.2296], [80.7589, 26.2302], [80.7591, 26.2306], [80.7607, 26.2277], [80.761, 26.2267], [80.7614, 26.2253], [80.7615, 26.225], [80.7616, 26.2247], [80.7617, 26.2245]]]}, "properties": {"objectid": 154256, "statename": "Uttar Pradesh", "statecode": "9", "districtname": "", "districtcode": "156", "ulbname": "Np Bhagwant Nagar", "ulbcode": "800945", "wardname": "Uttari Gadheva Uttar", "wardcode": "2", "id": null, "status": "APPROVED", "misglobalid": null, "approved_by": null, "createdate": 1644518053000, "updateddate": 1670315849000, "globalid": null, "gisglobalid": "o6BBoRdc-R5da-PRdR-sQBd-dQ4Kcl5sKcss", "remark": "Ok", "st_area(shape)": 1.97630098778485e-05, "st_perimeter(shape)": 0.02300772213492588}}, {"type": "Feature", "geometry": {"type": "Polygon", "coordinates": [[[80.7606, 26.2214], [80.7615, 26.2207], [80.7604, 26.2195], [80.7601, 26.2191], [80.7591, 26.218], [80.7577, 26.2188], [80.7575, 26.2186], [80.7572, 26.2187], [80.757, 26.2183], [80.7557, 26.2192], [80.7546, 26.2187], [80.7545, 26.2181], [80.7545, 26.2176], [80.7532, 26.2181], [80.7526, 26.2185], [80.752, 26.2197], [80.7521, 26.2199], [80.7525, 26.22], [80.7529, 26.2202], [80.7531, 26.2204], [80.7535, 26.2206], [80.7538, 26.2208], [80.7539, 26.2209], [80.7542, 26.2211], [80.7543, 26.2212], [80.7544, 26.2213], [80.7545, 26.2211], [80.7546, 26.2209], [80.7548, 26.2211], [80.7551, 26.221], [80.7558, 26.2209], [80.7559, 26.2208], [80.756, 26.2205], [80.756, 26.2202], [80.7561, 26.2198], [80.7562, 26.2199], [80.7565, 26.2199], [80.7566, 26.2199], [80.7568, 26.2198], [80.757, 26.2199], [80.7572, 26.2201], [80.7578, 26.2205], [80.7589, 26.2203], [80.7596, 26.2215], [80.7606, 26.2214]]]}, "properties": {"objectid": 150687, "statename": "Uttar Pradesh", "statecode": "9", "districtname": "", "districtcode": "156", "ulbname": "Np Bhagwant Nagar", "ulbcode": "800945", "wardname": "Shahanganj", "wardcode": "3", "id": null, "status": "APPROVED", "misglobalid": null, "approved_by": null, "createdate": 1644518071000, "updateddate": 1670315912000, "globalid": null, "gisglobalid": "mQaBo5ad-cPKo-Po6m-socP-ddlPKnQanamc", "remark": "Ok", "st_area(shape)": 1.7998750557841345e-05, "st_perimeter(shape)": 0.02595832050167915}}, {"type": "Feature", "geometry": {"type": "Polygon", "coordinates": [[[80.7525, 26.2236], [80.753, 26.2245], [80.7532, 26.2248], [80.7533, 26.2249], [80.7537, 26.2255], [80.754, 26.2258], [80.754, 26.2257], [80.7544, 26.2252], [80.7542, 26.2251], [80.7544, 26.2249], [80.7546, 26.2248], [80.7545, 26.2244], [80.7546, 26.2243], [80.7546, 26.2242], [80.7545, 26.2242], [80.7544, 26.224], [80.7543, 26.2237], [80.7539, 26.2233], [80.7537, 26.2232], [80.7534, 26.2233], [80.7531, 26.2232], [80.7525, 26.2236]]]}, "properties": {"objectid": 150688, "statename": "Uttar Pradesh", "statecode": "9", "districtname": "", "districtcode": "156", "ulbname": "Np Bhagwant Nagar", "ulbcode": "800945", "wardname": "Bajpai Kheda", "wardcode": "4", "id": null, "status": "APPROVED", "misglobalid": null, "approved_by": null, "createdate": 1644518091000, "updateddate": 1670315927000, "globalid": null, "gisglobalid": "nmaloBBo-oP6K-PoQQ-sPR5-Pnda5smlaKRn", "remark": "Ok", "st_area(shape)": 3.111543211828684e-06, "st_perimeter(shape)": 0.00763882012966096}}, {"type": "Feature", "geometry": {"type": "Polygon", "coordinates": [[[80.7578, 26.2258], [80.7579, 26.226], [80.7581, 26.2259], [80.7581, 26.2258], [80.7579, 26.2258], [80.7581, 26.2257], [80.7582, 26.2257], [80.7583, 26.2256], [80.7582, 26.2255], [80.7582, 26.2254], [80.7584, 26.2253], [80.7585, 26.2253], [80.7588, 26.2251], [80.7589, 26.2251], [80.759, 26.225], [80.7591, 26.225], [80.7591, 26.2248], [80.7591, 26.2247], [80.7591, 26.2246], [80.7587, 26.2244], [80.7585, 26.2245], [80.7582, 26.2246], [80.7581, 26.2244], [80.758, 26.2242], [80.7579, 26.2242], [80.7579, 26.2241], [80.7578, 26.224], [80.7575, 26.2241], [80.7568, 26.2235], [80.7567, 26.2233], [80.7564, 26.2234], [80.7566, 26.2237], [80.7565, 26.2238], [80.7566, 26.2239], [80.7566, 26.2241], [80.7567, 26.2243], [80.7568, 26.2244], [80.7569, 26.2245], [80.757, 26.2247], [80.757, 26.2249], [80.7572, 26.225], [80.7573, 26.2251], [80.7574, 26.2252], [80.7575, 26.2253], [80.7576, 26.2255], [80.7578, 26.2258]]]}, "properties": {"objectid": 150689, "statename": "Uttar Pradesh", "statecode": "9", "districtname": "", "districtcode": "156", "ulbname": "Np Bhagwant Nagar", "ulbcode": "800945", "wardname": "Uttari Gadheva Dakshin", "wardcode": "5", "id": null, "status": "APPROVED", "misglobalid": null, "approved_by": null, "createdate": 1644518108000, "updateddate": 1670315955000, "globalid": null, "gisglobalid": "RPBamP5Q-nPQP-Pn4R-QQPn-KQnKcacccoaP", "remark": "Ok", "st_area(shape)": 2.7348705370856003e-06, "st_perimeter(shape)": 0.009380629933313664}}, {"type": "Feature", "geometry": {"type": "Polygon", "coordinates": [[[80.7619, 26.2238], [80.7621, 26.2232], [80.7623, 26.2225], [80.7624, 26.222], [80.7611, 26.2216], [80.7607, 26.2215], [80.7606, 26.2214], [80.76, 26.2215], [80.7596, 26.2215], [80.7588, 26.2203], [80.7582, 26.2205], [80.7584, 26.2207], [80.758, 26.221], [80.7583, 26.2213], [80.7584, 26.2215], [80.7581, 26.2216], [80.7575, 26.2219], [80.7573, 26.2216], [80.757, 26.2217], [80.757, 26.2218], [80.7568, 26.222], [80.7568, 26.2221], [80.7566, 26.2222], [80.7565, 26.222], [80.7563, 26.2221], [80.7564, 26.2223], [80.7565, 26.2223], [80.7565, 26.2226], [80.7564, 26.2226], [80.7567, 26.2233], [80.7568, 26.2235], [80.7569, 26.2236], [80.7573, 26.224], [80.7574, 26.224], [80.7575, 26.2241], [80.7578, 26.2239], [80.7579, 26.2241], [80.7581, 26.2239], [80.758, 26.2238], [80.7582, 26.2237], [80.7584, 26.2237], [80.7584, 26.2236], [80.7585, 26.2238], [80.7586, 26.2238], [80.7587, 26.2239], [80.7588, 26.2239], [80.7589, 26.2238], [80.759, 26.2238], [80.7589, 26.2236], [80.7589, 26.2235], [80.759, 26.2234], [80.7589, 26.2233], [80.759, 26.2232], [80.7591, 26.2232], [80.7592, 26.2231], [80.7592, 26.2232], [80.7593, 26.2232], [80.7594, 26.2233], [80.7594, 26.2234], [80.7595, 26.2233], [80.7596, 26.2233], [80.7597, 26.2232], [80.7599, 26.2231], [80.7601, 26.223], [80.7602, 26.2229], [80.7602, 26.2228], [80.7604, 26.2229], [80.7605, 26.2231], [80.7605, 26.2234], [80.7604, 26.2235], [80.7606, 26.2237], [80.7608, 26.2238], [80.7609, 26.2239], [80.7611, 26.224], [80.7612, 26.2241], [80.7613, 26.2244], [80.7615, 26.2245], [80.7617, 26.2245], [80.7619, 26.2238]]]}, "properties": {"objectid": 150690, "statename": "Uttar Pradesh", "statecode": "9", "districtname": "", "districtcode": "156", "ulbname": "Np Bhagwant Nagar", "ulbcode": "800945", "wardname": "Dakshini Gadheva Uttar", "wardcode": "6", "id": null, "status": "APPROVED", "misglobalid": null, "approved_by": null, "createdate": 1644518124000, "updateddate": 1670315972000, "globalid": null, "gisglobalid": "oldlsQaK-sKKn-Pns5-smaQ-o555P6KBcPRR", "remark": "Ok", "st_area(shape)": 1.2666792925212195e-05, "st_perimeter(shape)": 0.021143499087062635}}, {"type": "Feature", "geometry": {"type": "Polygon", "coordinates": [[[80.754, 26.2258], [80.7544, 26.2263], [80.7551, 26.2269], [80.7555, 26.2264], [80.7558, 26.2262], [80.7562, 26.2261], [80.7563, 26.226], [80.7565, 26.226], [80.757, 26.2259], [80.7574, 26.2259], [80.7576, 26.2261], [80.7578, 26.2264], [80.7578, 26.2266], [80.7579, 26.2268], [80.7581, 26.2272], [80.7585, 26.227], [80.7585, 26.2269], [80.7579, 26.226], [80.7577, 26.2258], [80.7576, 26.2255], [80.7575, 26.2253], [80.7574, 26.2252], [80.7572, 26.2251], [80.757, 26.2249], [80.7569, 26.2245], [80.7567, 26.2244], [80.7566, 26.2242], [80.7566, 26.2241], [80.7565, 26.224], [80.7565, 26.2238], [80.7564, 26.2239], [80.7563, 26.2238], [80.7562, 26.2239], [80.756, 26.224], [80.7559, 26.2238], [80.756, 26.2237], [80.7559, 26.2236], [80.7558, 26.2237], [80.7555, 26.2238], [80.7554, 26.2238], [80.7555, 26.2239], [80.7554, 26.224], [80.7553, 26.2239], [80.7552, 26.224], [80.7553, 26.224], [80.7552, 26.2241], [80.7551, 26.2241], [80.755, 26.224], [80.7546, 26.2243], [80.7545, 26.2245], [80.7546, 26.2246], [80.7546, 26.2248], [80.7543, 26.225], [80.7543, 26.2251], [80.7545, 26.2252], [80.7543, 26.2254], [80.7541, 26.2256], [80.754, 26.2257], [80.754, 26.2258]]]}, "properties": {"objectid": 150691, "statename": "Uttar Pradesh", "statecode": "9", "districtname": "", "districtcode": "156", "ulbname": "Np Bhagwant Nagar", "ulbcode": "800945", "wardname": "Patari Uttar", "wardcode": "7", "id": null, "status": "APPROVED", "misglobalid": null, "approved_by": null, "createdate": 1644518141000, "updateddate": 1670316022000, "globalid": null, "gisglobalid": "45dKaPBl-olRo-Pmd6-Rcad-5lQQQQ4PPBal", "remark": "Ok", "st_area(shape)": 6.946679781423281e-06, "st_perimeter(shape)": 0.015015806976850468}}, {"type": "Feature", "geometry": {"type": "Polygon", "coordinates": [[[80.7578, 26.2206], [80.7573, 26.2201], [80.7569, 26.2199], [80.7565, 26.22], [80.7561, 26.2199], [80.7561, 26.2206], [80.7558, 26.221], [80.7548, 26.2211], [80.7546, 26.221], [80.7545, 26.2212], [80.7544, 26.2213], [80.7542, 26.2213], [80.7542, 26.2211], [80.7539, 26.2211], [80.7538, 26.2209], [80.7534, 26.2206], [80.7527, 26.2202], [80.7522, 26.22], [80.7519, 26.2198], [80.7512, 26.2195], [80.7507, 26.219], [80.7499, 26.2193], [80.75, 26.2195], [80.7502, 26.2198], [80.7505, 26.2202], [80.7507, 26.2204], [80.7511, 26.221], [80.7515, 26.2217], [80.7519, 26.2223], [80.7522, 26.223], [80.7525, 26.2235], [80.7531, 26.2232], [80.7534, 26.2233], [80.7537, 26.2232], [80.7533, 26.2229], [80.7534, 26.2228], [80.7536, 26.2228], [80.7538, 26.2226], [80.7538, 26.2224], [80.754, 26.2225], [80.7541, 26.2224], [80.7544, 26.2224], [80.7545, 26.2222], [80.7544, 26.222], [80.7546, 26.2219], [80.7547, 26.2222], [80.7549, 26.2221], [80.755, 26.222], [80.7551, 26.222], [80.755, 26.2221], [80.7552, 26.2224], [80.7553, 26.2226], [80.7556, 26.2225], [80.7557, 26.2226], [80.756, 26.223], [80.7563, 26.2229], [80.7564, 26.223], [80.7566, 26.223], [80.7565, 26.2228], [80.7564, 26.2226], [80.7565, 26.2226], [80.7565, 26.2223], [80.7564, 26.2223], [80.7563, 26.2221], [80.7565, 26.222], [80.7566, 26.2222], [80.7568, 26.2221], [80.7568, 26.2219], [80.757, 26.2218], [80.757, 26.2217], [80.7573, 26.2216], [80.7575, 26.2219], [80.7581, 26.2216], [80.7583, 26.2215], [80.7582, 26.2213], [80.758, 26.221], [80.7582, 26.2209], [80.7584, 26.2207], [80.7582, 26.2205], [80.7578, 26.2206]]]}, "properties": {"objectid": 150692, "statename": "Uttar Pradesh", "statecode": "9", "districtname": "", "districtcode": "156", "ulbname": "Np Bhagwant Nagar", "ulbcode": "800945", "wardname": "Dakshani Gadhewa Dakshin", "wardcode": "8", "id": null, "status": "APPROVED", "misglobalid": null, "approved_by": null, "createdate": 1644518157000, "updateddate": 1670316062000, "globalid": null, "gisglobalid": "lPBRP4Ra-RcBK-P6oB-QB4m-snPa6da4Rama", "remark": "Ok", "st_area(shape)": 1.5084233357547058e-05, "st_perimeter(shape)": 0.027600444085967898}}, {"type": "Feature", "geometry": {"type": "Polygon", "coordinates": [[[80.7546, 26.2236], [80.7547, 26.2239], [80.7545, 26.224], [80.7546, 26.2242], [80.755, 26.224], [80.7551, 26.2241], [80.7552, 26.224], [80.7553, 26.2239], [80.7554, 26.2239], [80.7554, 26.2238], [80.7556, 26.2237], [80.7558, 26.2236], [80.7559, 26.2236], [80.756, 26.2236], [80.756, 26.2237], [80.7559, 26.2238], [80.756, 26.2239], [80.7563, 26.2237], [80.7564, 26.2238], [80.7565, 26.2237], [80.7564, 26.2234], [80.7567, 26.2232], [80.7566, 26.223], [80.7564, 26.2231], [80.7563, 26.2229], [80.756, 26.223], [80.7558, 26.2228], [80.7557, 26.2228], [80.7556, 26.2228], [80.7554, 26.2228], [80.7553, 26.2228], [80.7552, 26.2229], [80.7551, 26.223], [80.7549, 26.2229], [80.7548, 26.2229], [80.7546, 26.2229], [80.7545, 26.223], [80.7544, 26.2231], [80.7543, 26.2232], [80.7544, 26.2234], [80.7546, 26.2236]]]}, "properties": {"objectid": 155841, "statename": "Uttar Pradesh", "statecode": "9", "districtname": "", "districtcode": "156", "ulbname": "Np Bhagwant Nagar", "ulbcode": "800945", "wardname": "Patari Madhya", "wardcode": "9", "id": null, "status": "APPROVED", "misglobalid": null, "approved_by": null, "createdate": 1644563660000, "updateddate": 1670316082000, "globalid": null, "gisglobalid": "PnoRPQ5K-mKnR-PQaQ-QP6m-nasR4d5a5s6o", "remark": "Ok", "st_area(shape)": 1.964405030563616e-06, "st_perimeter(shape)": 0.007772375089592515}}, {"type": "Feature", "geometry": {"type": "Polygon", "coordinates": [[[80.7534, 26.2229], [80.7533, 26.2229], [80.7539, 26.2233], [80.7541, 26.2231], [80.7543, 26.2232], [80.7545, 26.223], [80.7548, 26.2228], [80.755, 26.2229], [80.7551, 26.2229], [80.7552, 26.2229], [80.7553, 26.2228], [80.7554, 26.2228], [80.7556, 26.2228], [80.7558, 26.2227], [80.7556, 26.2225], [80.7553, 26.2226], [80.7552, 26.2224], [80.755, 26.2221], [80.755, 26.222], [80.7549, 26.2221], [80.7546, 26.2222], [80.7545, 26.2219], [80.7544, 26.222], [80.7545, 26.2222], [80.7544, 26.2224], [80.7542, 26.2224], [80.754, 26.2225], [80.7538, 26.2224], [80.7538, 26.2226], [80.7536, 26.2227], [80.7534, 26.2228], [80.7534, 26.2229]]]}, "properties": {"objectid": 155842, "statename": "Uttar Pradesh", "statecode": "9", "districtname": "", "districtcode": "156", "ulbname": "Np Bhagwant Nagar", "ulbcode": "800945", "wardname": "Patari Dakshin", "wardcode": "10", "id": null, "status": "APPROVED", "misglobalid": null, "approved_by": null, "createdate": 1644563685000, "updateddate": 1670316114000, "globalid": null, "gisglobalid": "Pa66nanK-QRB5-PBB5-alnm-4646doamancB", "remark": "Ok", "st_area(shape)": 1.34231687432063e-06, "st_perimeter(shape)": 0.006933975433956118}}]}
