{"type": "FeatureCollection", "features": [{"type": "Feature", "geometry": {"type": "Polygon", "coordinates": [[[83.1615, 23.1639], [83.1612, 23.1638], [83.1606, 23.1637], [83.1604, 23.1634], [83.1599, 23.1633], [83.16, 23.1626], [83.1601, 23.1619], [83.16, 23.1615], [83.1595, 23.1603], [83.1594, 23.1598], [83.1593, 23.1586], [83.1593, 23.1579], [83.1594, 23.1575], [83.1594, 23.157], [83.1593, 23.1557], [83.1593, 23.1545], [83.1592, 23.1534], [83.1592, 23.1525], [83.1593, 23.1511], [83.1596, 23.1502], [83.1599, 23.1493], [83.1604, 23.1489], [83.1612, 23.1486], [83.1619, 23.1486], [83.1625, 23.1487], [83.1631, 23.1488], [83.1636, 23.1489], [83.1636, 23.1482], [83.1645, 23.1474], [83.1653, 23.1467], [83.1656, 23.1463], [83.1662, 23.146], [83.1663, 23.1458], [83.1659, 23.1457], [83.1662, 23.145], [83.1662, 23.1444], [83.1663, 23.144], [83.1665, 23.1436], [83.1669, 23.1422], [83.1671, 23.1409], [83.1666, 23.1403], [83.1661, 23.1398], [83.1655, 23.1381], [83.1665, 23.1378], [83.1681, 23.137], [83.1694, 23.1365], [83.1688, 23.1356], [83.1686, 23.1345], [83.1678, 23.1345], [83.1675, 23.1347], [83.1671, 23.1347], [83.1658, 23.1351], [83.1644, 23.1353], [83.1632, 23.1355], [83.1626, 23.1356], [83.1613, 23.136], [83.1604, 23.1362], [83.1597, 23.1363], [83.159, 23.1365], [83.1586, 23.1376], [83.1592, 23.1394], [83.1599, 23.1394], [83.1603, 23.1407], [83.1606, 23.1418], [83.1601, 23.1421], [83.1596, 23.1422], [83.159, 23.1424], [83.1591, 23.1434], [83.1593, 23.1444], [83.1592, 23.1445], [83.1589, 23.1446], [83.1592, 23.1451], [83.1593, 23.1455], [83.1592, 23.1458], [83.1592, 23.1462], [83.159, 23.1467], [83.159, 23.1469], [83.1589, 23.1475], [83.1582, 23.1481], [83.1581, 23.1487], [83.1582, 23.1491], [83.1581, 23.1497], [83.1578, 23.1502], [83.1576, 23.1507], [83.1575, 23.1517], [83.1566, 23.153], [83.1559, 23.1539], [83.1558, 23.1543], [83.1556, 23.1548], [83.1552, 23.1559], [83.1552, 23.1568], [83.1548, 23.1567], [83.1546, 23.1581], [83.1554, 23.1597], [83.1565, 23.1616], [83.1576, 23.1622], [83.1579, 23.1625], [83.1582, 23.1629], [83.1584, 23.1637], [83.1598, 23.1636], [83.1604, 23.164], [83.1614, 23.164], [83.1615, 23.1639]]]}, "properties": {"objectid": 124532, "statename": "Chhattisgarh", "statecode": "22", "districtname": "Surguja", "districtcode": "401", "ulbname": "Ambikapur", "ulbcode": "801927", "wardname": "Bhagwanpur Ward", "wardcode": "1", "id": null, "status": "APPROVED", "misglobalid": null, "approved_by": null, "createdate": 1643777862000, "updateddate": 1643777933000, "globalid": null, "gisglobalid": "dKsolcaK-4osQ-Pn5n-a6R4-ddol4nd5BB5K", "remark": "Ok", "st_area(shape)": 0.00014214091634995294, "st_perimeter(shape)": 0.08530479009435048}}, {"type": "Feature", "geometry": {"type": "Polygon", "coordinates": [[[83.1592, 23.1523], [83.1592, 23.1525], [83.1592, 23.1534], [83.1593, 23.1544], [83.1593, 23.1559], [83.1594, 23.1575], [83.1593, 23.1586], [83.1594, 23.1598], [83.1594, 23.16], [83.16, 23.1614], [83.1601, 23.1619], [83.16, 23.1626], [83.1599, 23.1633], [83.1604, 23.1634], [83.1606, 23.1637], [83.1612, 23.1638], [83.1615, 23.1639], [83.1635, 23.1618], [83.164, 23.1614], [83.1655, 23.1602], [83.1669, 23.1592], [83.1675, 23.1587], [83.1681, 23.1581], [83.1686, 23.1574], [83.1693, 23.1567], [83.1705, 23.1552], [83.1708, 23.1544], [83.1712, 23.1524], [83.1713, 23.1519], [83.1716, 23.15], [83.1717, 23.1498], [83.1718, 23.149], [83.1721, 23.1478], [83.1727, 23.1455], [83.1731, 23.1441], [83.1741, 23.1424], [83.1745, 23.142], [83.1754, 23.1414], [83.1753, 23.1408], [83.1752, 23.14], [83.1751, 23.1398], [83.1739, 23.1398], [83.1736, 23.1398], [83.1733, 23.1398], [83.1731, 23.1399], [83.1729, 23.1395], [83.1728, 23.1393], [83.1727, 23.1388], [83.1725, 23.1376], [83.1725, 23.1365], [83.1725, 23.1354], [83.1725, 23.1353], [83.172, 23.1354], [83.1707, 23.136], [83.1694, 23.1365], [83.1665, 23.1378], [83.1655, 23.1381], [83.1661, 23.1398], [83.1666, 23.1403], [83.1671, 23.1409], [83.1669, 23.1417], [83.1669, 23.1422], [83.1665, 23.1436], [83.1663, 23.144], [83.1662, 23.1444], [83.1662, 23.145], [83.1659, 23.1457], [83.1663, 23.1458], [83.1662, 23.146], [83.1656, 23.1463], [83.1653, 23.1467], [83.1645, 23.1474], [83.1636, 23.1482], [83.1636, 23.1489], [83.1629, 23.1488], [83.1625, 23.1487], [83.1619, 23.1486], [83.1612, 23.1486], [83.1604, 23.1489], [83.1599, 23.1493], [83.1596, 23.1502], [83.1593, 23.1511], [83.1593, 23.1517], [83.1592, 23.1523]]]}, "properties": {"objectid": 4093, "statename": "Chhattisgarh", "statecode": "22", "districtname": "Surguja", "districtcode": "401", "ulbname": "Ambikapur (M Corp.)", "ulbcode": "801927", "wardname": "Gurudev Ravindra Nath Tagore", "wardcode": "2", "id": null, "status": "APPROVED", "misglobalid": null, "approved_by": "ULB Nodal Officer", "createdate": null, "updateddate": 1629866223000, "globalid": null, "gisglobalid": "7e0ee8cb-bd7a-41e5-9278-bbf3e1bd52e0", "remark": "Ok", "st_area(shape)": 0.0002219122838454617, "st_perimeter(shape)": 0.07641990029398323}}, {"type": "Feature", "geometry": {"type": "Polygon", "coordinates": [[[83.1827, 23.156], [83.1824, 23.1552], [83.1823, 23.1545], [83.1819, 23.1539], [83.1817, 23.1539], [83.1813, 23.1533], [83.1811, 23.1521], [83.181, 23.1518], [83.1807, 23.1517], [83.1803, 23.1504], [83.1802, 23.1504], [83.1799, 23.1496], [83.1796, 23.1496], [83.1785, 23.1496], [83.1786, 23.1491], [83.1789, 23.1478], [83.179, 23.1469], [83.1777, 23.1467], [83.1769, 23.1467], [83.1761, 23.1466], [83.1757, 23.1465], [83.1746, 23.1466], [83.1748, 23.1471], [83.1747, 23.1472], [83.1748, 23.1474], [83.1742, 23.1475], [83.1743, 23.148], [83.1741, 23.1481], [83.1734, 23.1481], [83.1731, 23.148], [83.1727, 23.1479], [83.1723, 23.148], [83.1721, 23.1478], [83.1718, 23.1491], [83.1716, 23.15], [83.1712, 23.1521], [83.171, 23.1535], [83.1708, 23.1544], [83.1705, 23.1552], [83.1696, 23.1563], [83.1685, 23.1576], [83.1681, 23.158], [83.1675, 23.1587], [83.1669, 23.1591], [83.1661, 23.1598], [83.165, 23.1607], [83.164, 23.1614], [83.1647, 23.1623], [83.1649, 23.1626], [83.1667, 23.1611], [83.1689, 23.1593], [83.1707, 23.1599], [83.1735, 23.16], [83.1743, 23.1599], [83.1748, 23.1598], [83.1754, 23.1596], [83.1767, 23.1592], [83.1789, 23.1582], [83.1805, 23.1577], [83.1814, 23.1579], [83.1814, 23.1577], [83.1815, 23.1574], [83.1821, 23.1568], [83.1827, 23.156]]]}, "properties": {"objectid": 4058, "statename": "Chhattisgarh", "statecode": "22", "districtname": "Surguja", "districtcode": "401", "ulbname": "Ambikapur (M Corp.)", "ulbcode": "801927", "wardname": "Shyama Prasad Mukhrjee", "wardcode": "3", "id": null, "status": "APPROVED", "misglobalid": null, "approved_by": "ULB Nodal Officer", "createdate": null, "updateddate": 1635831061000, "globalid": null, "gisglobalid": "cb93c2f3-facb-424d-aa0c-bd8ee03e1a33", "remark": "Ok", "st_area(shape)": 0.00013128483823170671, "st_perimeter(shape)": 0.058906487907470204}}, {"type": "Feature", "geometry": {"type": "Polygon", "coordinates": [[[83.1825, 23.15], [83.1824, 23.1502], [83.1814, 23.1502], [83.1812, 23.1502], [83.1804, 23.1504], [83.1808, 23.1517], [83.1811, 23.1518], [83.1811, 23.1521], [83.1813, 23.153], [83.1814, 23.1534], [83.1818, 23.1539], [83.182, 23.1539], [83.1822, 23.1542], [83.1824, 23.1545], [83.1824, 23.1552], [83.1828, 23.156], [83.1831, 23.1561], [83.1838, 23.156], [83.1843, 23.1562], [83.1853, 23.1564], [83.1864, 23.1559], [83.1869, 23.1558], [83.1874, 23.156], [83.1882, 23.1561], [83.1886, 23.1561], [83.1893, 23.1567], [83.1896, 23.1568], [83.19, 23.1565], [83.1907, 23.1565], [83.1913, 23.1566], [83.1914, 23.1568], [83.1917, 23.1568], [83.1921, 23.1565], [83.1925, 23.1562], [83.1929, 23.1559], [83.1935, 23.1559], [83.1932, 23.1556], [83.1928, 23.1552], [83.1924, 23.1549], [83.1922, 23.1546], [83.192, 23.1539], [83.1919, 23.1534], [83.1919, 23.1533], [83.1917, 23.1524], [83.1916, 23.1519], [83.1916, 23.1514], [83.1916, 23.1511], [83.1916, 23.1508], [83.1917, 23.1504], [83.1918, 23.15], [83.1918, 23.1496], [83.1919, 23.1493], [83.1916, 23.1493], [83.191, 23.1493], [83.1904, 23.1494], [83.1891, 23.1495], [83.1882, 23.1496], [83.188, 23.1493], [83.1878, 23.1489], [83.1878, 23.1487], [83.1876, 23.1482], [83.1876, 23.1479], [83.1875, 23.1475], [83.187, 23.1474], [83.1869, 23.1474], [83.1863, 23.1475], [83.1856, 23.1476], [83.185, 23.1477], [83.1846, 23.1478], [83.1837, 23.148], [83.1837, 23.1488], [83.1833, 23.1488], [83.183, 23.1489], [83.1825, 23.149], [83.1825, 23.1494], [83.1826, 23.1497], [83.1826, 23.15], [83.1825, 23.15]]]}, "properties": {"objectid": 4059, "statename": "Chhattisgarh", "statecode": "22", "districtname": "Surguja", "districtcode": "401", "ulbname": "Ambikapur", "ulbcode": "801927", "wardname": "Saint Mother Teresa Ward", "wardcode": "4", "id": null, "status": "APPROVED", "misglobalid": null, "approved_by": null, "createdate": 1639566495000, "updateddate": 1643113468000, "globalid": null, "gisglobalid": "19feb970-3329-4e70-8c15-90b23b0b63f4", "remark": "Ok", "st_area(shape)": 7.889379431068967e-05, "st_perimeter(shape)": 0.04057776004225645}}, {"type": "Feature", "geometry": {"type": "Polygon", "coordinates": [[[83.1875, 23.1475], [83.1875, 23.1476], [83.1876, 23.1478], [83.1876, 23.1479], [83.1876, 23.148], [83.1876, 23.1481], [83.1876, 23.1482], [83.1877, 23.1485], [83.1878, 23.1487], [83.1878, 23.1488], [83.1878, 23.1489], [83.188, 23.1492], [83.188, 23.1493], [83.1882, 23.1496], [83.1886, 23.1496], [83.1888, 23.1495], [83.1897, 23.1494], [83.1904, 23.1494], [83.1909, 23.1493], [83.1914, 23.1493], [83.1918, 23.1493], [83.1918, 23.1495], [83.1918, 23.1496], [83.1918, 23.15], [83.1917, 23.1504], [83.1917, 23.1508], [83.1916, 23.1508], [83.1916, 23.1509], [83.1916, 23.1514], [83.1916, 23.1519], [83.1917, 23.1524], [83.1917, 23.1525], [83.1918, 23.1527], [83.1918, 23.1528], [83.1918, 23.1531], [83.1919, 23.1533], [83.1919, 23.1534], [83.1919, 23.1535], [83.192, 23.1537], [83.1921, 23.1544], [83.1922, 23.1546], [83.1924, 23.1549], [83.1925, 23.155], [83.1928, 23.1552], [83.1932, 23.1556], [83.1934, 23.1558], [83.1935, 23.1559], [83.1946, 23.1559], [83.1956, 23.1556], [83.199, 23.1543], [83.2008, 23.1538], [83.2009, 23.1539], [83.2011, 23.154], [83.2016, 23.1541], [83.202, 23.1547], [83.203, 23.155], [83.2041, 23.1552], [83.2052, 23.1552], [83.2061, 23.1552], [83.207, 23.1551], [83.2074, 23.155], [83.2078, 23.1549], [83.2081, 23.1549], [83.2086, 23.1547], [83.2092, 23.1546], [83.2097, 23.1543], [83.2103, 23.154], [83.2105, 23.1535], [83.2104, 23.1532], [83.2101, 23.153], [83.2102, 23.1526], [83.2104, 23.1524], [83.2103, 23.1519], [83.21, 23.1512], [83.2094, 23.1507], [83.2092, 23.1505], [83.2087, 23.15], [83.2093, 23.1491], [83.2084, 23.1483], [83.208, 23.1479], [83.2077, 23.1478], [83.2078, 23.1474], [83.2078, 23.147], [83.208, 23.1465], [83.2083, 23.1457], [83.2076, 23.1457], [83.2067, 23.1443], [83.2067, 23.144], [83.2062, 23.1442], [83.2047, 23.1435], [83.2041, 23.1429], [83.2024, 23.1422], [83.201, 23.1427], [83.1993, 23.1435], [83.1975, 23.1443], [83.1966, 23.1443], [83.196, 23.1438], [83.1943, 23.1424], [83.1918, 23.1423], [83.1916, 23.1425], [83.1914, 23.1428], [83.1907, 23.1434], [83.1908, 23.1441], [83.1894, 23.1445], [83.1892, 23.1441], [83.1885, 23.1447], [83.1881, 23.1451], [83.1876, 23.1455], [83.187, 23.145], [83.187, 23.1451], [83.187, 23.1455], [83.1869, 23.1464], [83.1869, 23.1471], [83.1869, 23.1474], [83.187, 23.1474], [83.1875, 23.1475]]]}, "properties": {"objectid": 4060, "statename": "Chhattisgarh", "statecode": "22", "districtname": "Surguja", "districtcode": "401", "ulbname": "Ambikapur (M Corp.)", "ulbcode": "801927", "wardname": "Godhanpur Ward", "wardcode": "5", "id": null, "status": "APPROVED", "misglobalid": null, "approved_by": "ULB Nodal Officer", "createdate": null, "updateddate": 1629880899000, "globalid": null, "gisglobalid": "dad61187-1842-4670-83d4-e324b336f14b", "remark": "Ok", "st_area(shape)": 0.00022243473784359764, "st_perimeter(shape)": 0.07035474106647895}}, {"type": "Feature", "geometry": {"type": "Polygon", "coordinates": [[[83.1979, 23.1369], [83.1977, 23.1369], [83.1959, 23.137], [83.1947, 23.1371], [83.1909, 23.1378], [83.1906, 23.1382], [83.1908, 23.1388], [83.1913, 23.1393], [83.1915, 23.1397], [83.1919, 23.1407], [83.1919, 23.1409], [83.1919, 23.1413], [83.1917, 23.1423], [83.1918, 23.1423], [83.1923, 23.1423], [83.1926, 23.1423], [83.1932, 23.1424], [83.1943, 23.1424], [83.1946, 23.1426], [83.195, 23.143], [83.1959, 23.1437], [83.1966, 23.1443], [83.1975, 23.1443], [83.198, 23.1441], [83.1991, 23.1437], [83.1994, 23.1435], [83.1995, 23.1435], [83.1998, 23.1433], [83.2, 23.1432], [83.2004, 23.143], [83.201, 23.1427], [83.2013, 23.1426], [83.2018, 23.1424], [83.2024, 23.1422], [83.2041, 23.1429], [83.2042, 23.1429], [83.2044, 23.1427], [83.2044, 23.1426], [83.2038, 23.1416], [83.2035, 23.1414], [83.2035, 23.141], [83.2039, 23.1404], [83.2035, 23.1395], [83.2031, 23.1392], [83.2025, 23.1387], [83.2016, 23.1377], [83.2008, 23.1367], [83.2002, 23.1358], [83.1989, 23.1367], [83.1979, 23.1369]], [[83.1979, 23.1369]]]}, "properties": {"objectid": 4071, "statename": "Chhattisgarh", "statecode": "22", "districtname": "Surguja", "districtcode": "401", "ulbname": "Ambikapur", "ulbcode": "801927", "wardname": "Maharana Pratap Ward", "wardcode": "6", "id": null, "status": "APPROVED", "misglobalid": null, "approved_by": null, "createdate": 1639566230000, "updateddate": 1643113512000, "globalid": null, "gisglobalid": "038d958b-4d4c-45fc-b773-71ccfdd27fd9", "remark": "Ok", "st_area(shape)": 7.11026472822492e-05, "st_perimeter(shape)": 0.03762883639310595}}, {"type": "Feature", "geometry": {"type": "Polygon", "coordinates": [[[83.1813, 23.1436], [83.1814, 23.1434], [83.1809, 23.1433], [83.1805, 23.1436], [83.18, 23.1437], [83.1795, 23.1437], [83.1787, 23.1436], [83.1784, 23.1436], [83.1779, 23.1437], [83.1772, 23.1438], [83.1755, 23.1437], [83.1763, 23.1437], [83.175, 23.1436], [83.1745, 23.142], [83.1741, 23.1424], [83.1739, 23.1427], [83.1735, 23.1434], [83.1731, 23.1441], [83.1729, 23.1445], [83.1726, 23.1455], [83.1721, 23.1478], [83.1723, 23.148], [83.1728, 23.1479], [83.1735, 23.1481], [83.1741, 23.1481], [83.1744, 23.148], [83.1743, 23.1475], [83.1748, 23.1474], [83.1748, 23.1472], [83.1749, 23.1471], [83.1747, 23.1466], [83.1758, 23.1465], [83.1755, 23.1455], [83.1784, 23.1456], [83.1786, 23.1448], [83.1805, 23.1448], [83.1813, 23.1436]]]}, "properties": {"objectid": 4053, "statename": "Chhattisgarh", "statecode": "22", "districtname": "Surguja", "districtcode": "401", "ulbname": "Ambikapur", "ulbcode": "801927", "wardname": "Veer Savarkar Ward", "wardcode": "7", "id": null, "status": "APPROVED", "misglobalid": null, "approved_by": null, "createdate": 1639566688000, "updateddate": 1643113527000, "globalid": null, "gisglobalid": "ff3d8651-1a22-452e-bdb3-cca385f27c54", "remark": "Ok", "st_area(shape)": 2.162607956022652e-05, "st_perimeter(shape)": 0.03002233781811218}}, {"type": "Feature", "geometry": {"type": "Polygon", "coordinates": [[[83.1801, 23.1499], [83.1803, 23.1504], [83.1804, 23.1504], [83.1812, 23.1502], [83.182, 23.1502], [83.1824, 23.1502], [83.1825, 23.15], [83.1826, 23.15], [83.1825, 23.149], [83.1837, 23.1488], [83.1837, 23.148], [83.1847, 23.1478], [83.1857, 23.1476], [83.1863, 23.1475], [83.1869, 23.1474], [83.1869, 23.1471], [83.1869, 23.1464], [83.187, 23.1451], [83.1867, 23.1449], [83.1866, 23.1448], [83.1863, 23.1437], [83.1863, 23.1429], [83.1857, 23.1425], [83.1848, 23.1423], [83.1843, 23.1428], [83.1842, 23.1428], [83.1842, 23.1429], [83.1841, 23.1432], [83.1839, 23.1437], [83.1833, 23.1439], [83.1832, 23.1431], [83.1825, 23.1418], [83.1818, 23.1425], [83.1813, 23.1434], [83.1814, 23.1434], [83.1812, 23.1436], [83.1811, 23.1439], [83.1808, 23.1444], [83.1805, 23.1448], [83.1786, 23.1448], [83.1785, 23.1452], [83.1785, 23.1456], [83.1776, 23.1456], [83.1764, 23.1456], [83.1755, 23.1455], [83.1756, 23.146], [83.1758, 23.1465], [83.1762, 23.1466], [83.1766, 23.1466], [83.1773, 23.1467], [83.1777, 23.1467], [83.1784, 23.1468], [83.1791, 23.1469], [83.1789, 23.1478], [83.1788, 23.1485], [83.1787, 23.149], [83.1786, 23.1496], [83.1794, 23.1496], [83.18, 23.1496], [83.1801, 23.1499]]]}, "properties": {"objectid": 4061, "statename": "Chhattisgarh", "statecode": "22", "districtname": "Surguja", "districtcode": "401", "ulbname": "Ambikapur", "ulbcode": "801927", "wardname": "Fundurdihari Ward", "wardcode": "8", "id": null, "status": "APPROVED", "misglobalid": null, "approved_by": null, "createdate": 1639566840000, "updateddate": 1643113540000, "globalid": null, "gisglobalid": "2e94fb98-8c33-45f9-80f1-0aca73caed30", "remark": "Ok", "st_area(shape)": 4.79432632939364e-05, "st_perimeter(shape)": 0.03871551567783482}}, {"type": "Feature", "geometry": {"type": "Polygon", "coordinates": [[[83.1825, 23.1419], [83.1824, 23.1414], [83.1824, 23.1409], [83.1831, 23.1398], [83.1835, 23.1384], [83.184, 23.1377], [83.1843, 23.1368], [83.185, 23.1356], [83.1839, 23.134], [83.1841, 23.1337], [83.1845, 23.1335], [83.1829, 23.1314], [83.1818, 23.1318], [83.1808, 23.1322], [83.1792, 23.133], [83.1766, 23.1344], [83.1755, 23.1347], [83.1753, 23.1348], [83.1741, 23.135], [83.1726, 23.1354], [83.1725, 23.1354], [83.1725, 23.1363], [83.1725, 23.1367], [83.1725, 23.1376], [83.1727, 23.1386], [83.1727, 23.1388], [83.1727, 23.1393], [83.1731, 23.1399], [83.1733, 23.1398], [83.1738, 23.1398], [83.1742, 23.1398], [83.1751, 23.1398], [83.1751, 23.1399], [83.1752, 23.1403], [83.1753, 23.141], [83.1754, 23.1413], [83.1754, 23.1414], [83.1751, 23.1415], [83.1748, 23.1418], [83.1745, 23.142], [83.175, 23.1436], [83.1763, 23.1437], [83.1772, 23.1438], [83.1774, 23.1437], [83.1782, 23.1437], [83.1784, 23.1436], [83.1791, 23.1437], [83.18, 23.1437], [83.1805, 23.1436], [83.1809, 23.1433], [83.1813, 23.1434], [83.1819, 23.1424], [83.1825, 23.1419]]]}, "properties": {"objectid": 4062, "statename": "Chhattisgarh", "statecode": "22", "districtname": "Surguja", "districtcode": "401", "ulbname": "Ambikapur", "ulbcode": "801927", "wardname": "Maharani Laxmi Bai Ward", "wardcode": "9", "id": null, "status": "APPROVED", "misglobalid": null, "approved_by": null, "createdate": 1639567025000, "updateddate": 1643113553000, "globalid": null, "gisglobalid": "b5222553-59ab-4ad4-8a2f-41520957195e", "remark": "Ok", "st_area(shape)": 0.0001004891536551259, "st_perimeter(shape)": 0.04288864619106925}}, {"type": "Feature", "geometry": {"type": "Polygon", "coordinates": [[[83.1915, 23.1398], [83.1912, 23.1396], [83.1908, 23.1396], [83.1906, 23.1393], [83.1898, 23.1383], [83.1886, 23.1378], [83.186, 23.1372], [83.1849, 23.1356], [83.1849, 23.1358], [83.1847, 23.1361], [83.1845, 23.1365], [83.1843, 23.1368], [83.1842, 23.1372], [83.184, 23.1377], [83.1835, 23.1384], [83.1831, 23.1398], [83.1829, 23.1401], [83.1827, 23.1404], [83.1824, 23.1409], [83.1824, 23.1412], [83.1824, 23.1415], [83.1825, 23.1419], [83.1825, 23.1418], [83.1827, 23.1422], [83.1829, 23.1426], [83.1832, 23.1431], [83.1833, 23.1439], [83.1839, 23.1437], [83.184, 23.1434], [83.1841, 23.1432], [83.1842, 23.1429], [83.1842, 23.1428], [83.1843, 23.1428], [83.1848, 23.1423], [83.1857, 23.1425], [83.1863, 23.1429], [83.1863, 23.1437], [83.1866, 23.1448], [83.187, 23.1451], [83.187, 23.145], [83.1876, 23.1455], [83.1879, 23.1452], [83.1886, 23.1446], [83.1892, 23.1441], [83.1894, 23.1445], [83.1908, 23.1441], [83.1907, 23.1434], [83.1914, 23.1428], [83.1918, 23.1423], [83.1917, 23.1423], [83.1919, 23.1413], [83.1919, 23.1407], [83.1915, 23.1398]]]}, "properties": {"objectid": 4063, "statename": "Chhattisgarh", "statecode": "22", "districtname": "Surguja", "districtcode": "401", "ulbname": "Ambikapur", "ulbcode": "801927", "wardname": "Bal Gangadhar Tilak Ward", "wardcode": "10", "id": null, "status": "APPROVED", "misglobalid": null, "approved_by": null, "createdate": 1639567220000, "updateddate": 1643113568000, "globalid": null, "gisglobalid": "6baa36e7-f27f-41d5-9b00-def11412b1e5", "remark": "Ok", "st_area(shape)": 5.313202209315959e-05, "st_perimeter(shape)": 0.033820384109016305}}, {"type": "Feature", "geometry": {"type": "Polygon", "coordinates": [[[83.172, 23.1354], [83.1725, 23.1353], [83.1725, 23.1354], [83.1738, 23.1351], [83.1741, 23.135], [83.1746, 23.1349], [83.1754, 23.1348], [83.1743, 23.1309], [83.1735, 23.1283], [83.1732, 23.1258], [83.1728, 23.1245], [83.1724, 23.1241], [83.1723, 23.1231], [83.1723, 23.1227], [83.1728, 23.1221], [83.1732, 23.1214], [83.1732, 23.1207], [83.1737, 23.1194], [83.1732, 23.1188], [83.173, 23.1182], [83.173, 23.1171], [83.1729, 23.1168], [83.1737, 23.1164], [83.1743, 23.1166], [83.1746, 23.1167], [83.175, 23.1164], [83.1749, 23.1151], [83.1746, 23.1151], [83.1736, 23.1154], [83.1733, 23.1159], [83.173, 23.1157], [83.1721, 23.1157], [83.1709, 23.116], [83.1708, 23.116], [83.1695, 23.1164], [83.1687, 23.1166], [83.1683, 23.1165], [83.1677, 23.1167], [83.1673, 23.1169], [83.1672, 23.1174], [83.1685, 23.1175], [83.1691, 23.1179], [83.1696, 23.1184], [83.1698, 23.1186], [83.1695, 23.1193], [83.1694, 23.1194], [83.1692, 23.12], [83.1685, 23.1207], [83.1679, 23.1217], [83.1672, 23.1228], [83.168, 23.1239], [83.1685, 23.1252], [83.168, 23.1267], [83.1675, 23.1271], [83.1666, 23.1278], [83.1665, 23.1287], [83.166, 23.1291], [83.1655, 23.1295], [83.1639, 23.1304], [83.1634, 23.1307], [83.1626, 23.1318], [83.1627, 23.1327], [83.1633, 23.1329], [83.1632, 23.1334], [83.1623, 23.1339], [83.1625, 23.1343], [83.1628, 23.1344], [83.1628, 23.1355], [83.1629, 23.1356], [83.163, 23.1356], [83.1642, 23.1354], [83.1655, 23.1351], [83.1668, 23.1348], [83.1671, 23.1347], [83.1675, 23.1347], [83.1678, 23.1345], [83.1686, 23.1345], [83.1688, 23.1354], [83.1688, 23.1356], [83.1694, 23.1365], [83.1709, 23.1359], [83.172, 23.1354]]]}, "properties": {"objectid": 4055, "statename": "Chhattisgarh", "statecode": "22", "districtname": "Surguja", "districtcode": "401", "ulbname": "Ambikapur", "ulbcode": "801927", "wardname": "Patpariya Ward", "wardcode": "11", "id": null, "status": "APPROVED", "misglobalid": null, "approved_by": null, "createdate": 1639567336000, "updateddate": 1643113584000, "globalid": null, "gisglobalid": "cba7bc5d-6fe1-40ce-a700-a6db05ccd1de", "remark": "Ok", "st_area(shape)": 0.00013759762069230484, "st_perimeter(shape)": 0.07112153717118216}}, {"type": "Feature", "geometry": {"type": "Polygon", "coordinates": [[[83.1746, 23.1167], [83.1745, 23.1167], [83.1744, 23.1166], [83.1737, 23.1164], [83.1731, 23.1167], [83.1729, 23.1168], [83.173, 23.1171], [83.173, 23.1178], [83.173, 23.1182], [83.1731, 23.1185], [83.1732, 23.1188], [83.1737, 23.1194], [83.1732, 23.1207], [83.1732, 23.1214], [83.1729, 23.1221], [83.1723, 23.1227], [83.1723, 23.1231], [83.1723, 23.1239], [83.1724, 23.1241], [83.1728, 23.1245], [83.1732, 23.1258], [83.1733, 23.1267], [83.1735, 23.1283], [83.1737, 23.129], [83.174, 23.13], [83.1744, 23.1313], [83.1754, 23.1348], [83.1755, 23.1347], [83.1757, 23.1347], [83.176, 23.1346], [83.1763, 23.1345], [83.1766, 23.1344], [83.1789, 23.1332], [83.1796, 23.1328], [83.1801, 23.1326], [83.1808, 23.1322], [83.1812, 23.132], [83.1818, 23.1318], [83.1829, 23.1314], [83.1838, 23.1308], [83.1847, 23.1303], [83.1856, 23.1297], [83.186, 23.1294], [83.185, 23.1284], [83.1846, 23.1278], [83.1842, 23.1274], [83.184, 23.1268], [83.1836, 23.127], [83.1835, 23.1271], [83.1832, 23.1273], [83.1828, 23.1274], [83.1825, 23.1275], [83.1823, 23.1276], [83.182, 23.1277], [83.1818, 23.1275], [83.1816, 23.1274], [83.1813, 23.1273], [83.1811, 23.1269], [83.1807, 23.1269], [83.1805, 23.1263], [83.1802, 23.1263], [83.1799, 23.1263], [83.1797, 23.1263], [83.1791, 23.1264], [83.179, 23.126], [83.1787, 23.1255], [83.1787, 23.1252], [83.1785, 23.1247], [83.1783, 23.1247], [83.1782, 23.1244], [83.1781, 23.124], [83.178, 23.1238], [83.178, 23.1232], [83.1776, 23.1231], [83.1777, 23.1223], [83.1775, 23.1217], [83.1766, 23.1201], [83.1755, 23.1183], [83.1746, 23.1167]]]}, "properties": {"objectid": 4065, "statename": "Chhattisgarh", "statecode": "22", "districtname": "Surguja", "districtcode": "401", "ulbname": "Ambikapur", "ulbcode": "801927", "wardname": "Mata Rajmohini Devi Ward", "wardcode": "12", "id": null, "status": "APPROVED", "misglobalid": null, "approved_by": null, "createdate": 1639567415000, "updateddate": 1643113610000, "globalid": null, "gisglobalid": "47f449eb-292e-4cc0-b8c3-c8139ce7bac0", "remark": "Ok", "st_area(shape)": 0.00010590055225160272, "st_perimeter(shape)": 0.05342205849829222}}, {"type": "Feature", "geometry": {"type": "Polygon", "coordinates": [[[83.1802, 23.1147], [83.1795, 23.1176], [83.1796, 23.1181], [83.1801, 23.119], [83.1805, 23.12], [83.1816, 23.1222], [83.1821, 23.1228], [83.1822, 23.1229], [83.1823, 23.1231], [83.1825, 23.1233], [83.1828, 23.1236], [83.1831, 23.1239], [83.1834, 23.1244], [83.1838, 23.1241], [83.1841, 23.1239], [83.1844, 23.1238], [83.1848, 23.1237], [83.1851, 23.1236], [83.185, 23.1235], [83.1851, 23.1234], [83.1853, 23.1234], [83.1856, 23.1234], [83.1857, 23.1234], [83.1857, 23.1231], [83.1858, 23.1228], [83.1857, 23.1226], [83.1863, 23.1225], [83.1861, 23.1221], [83.1859, 23.1216], [83.1855, 23.1207], [83.1853, 23.1202], [83.1851, 23.1199], [83.1851, 23.1196], [83.1852, 23.1195], [83.1851, 23.1193], [83.185, 23.1189], [83.185, 23.1187], [83.1847, 23.1182], [83.1844, 23.1175], [83.1843, 23.1175], [83.1841, 23.1175], [83.1839, 23.1169], [83.1836, 23.1167], [83.1834, 23.1161], [83.1832, 23.1154], [83.1832, 23.1153], [83.1831, 23.1148], [83.1823, 23.1149], [83.1819, 23.1149], [83.1811, 23.1148], [83.1806, 23.1147], [83.1802, 23.1147]]]}, "properties": {"objectid": 4066, "statename": "Chhattisgarh", "statecode": "22", "districtname": "Surguja", "districtcode": "401", "ulbname": "Ambikapur (M Corp.)", "ulbcode": "801927", "wardname": "Mangal Pandey Ward", "wardcode": "13", "id": null, "status": "APPROVED", "misglobalid": null, "approved_by": "ULB Nodal Officer", "createdate": null, "updateddate": 1629962980000, "globalid": null, "gisglobalid": "973dd6ed-b2b8-4511-9acc-2a2651c1db39", "remark": "Ok", "st_area(shape)": 3.789125018396043e-05, "st_perimeter(shape)": 0.02654124542943417}}, {"type": "Feature", "geometry": {"type": "Polygon", "coordinates": [[[83.1802, 23.1147], [83.1798, 23.1147], [83.1794, 23.1146], [83.1787, 23.1145], [83.1785, 23.1144], [83.1778, 23.1144], [83.1774, 23.1145], [83.1768, 23.1146], [83.1762, 23.1147], [83.1759, 23.1149], [83.1757, 23.1151], [83.1757, 23.1157], [83.1756, 23.1159], [83.1754, 23.1161], [83.1753, 23.1162], [83.175, 23.1164], [83.1746, 23.1167], [83.1749, 23.1172], [83.1754, 23.1181], [83.1758, 23.1188], [83.1768, 23.1205], [83.1775, 23.1217], [83.1777, 23.1223], [83.1776, 23.1231], [83.178, 23.1232], [83.178, 23.1238], [83.1781, 23.124], [83.1782, 23.1244], [83.1783, 23.1247], [83.1785, 23.1247], [83.1787, 23.1252], [83.1787, 23.1255], [83.179, 23.126], [83.1791, 23.1264], [83.1794, 23.1263], [83.1796, 23.1263], [83.1799, 23.1263], [83.1802, 23.1263], [83.1805, 23.1263], [83.1807, 23.1269], [83.1811, 23.1269], [83.1813, 23.1273], [83.1816, 23.1274], [83.1819, 23.1275], [83.182, 23.1277], [83.1823, 23.1276], [83.1826, 23.1275], [83.1829, 23.1274], [83.1832, 23.1273], [83.1835, 23.1271], [83.1836, 23.127], [83.1838, 23.1269], [83.184, 23.1268], [83.184, 23.1266], [83.1839, 23.126], [83.1838, 23.1252], [83.1837, 23.1248], [83.1835, 23.1244], [83.1834, 23.1244], [83.1822, 23.1229], [83.1816, 23.1221], [83.1815, 23.122], [83.1812, 23.1214], [83.1796, 23.1181], [83.1795, 23.1176], [83.1802, 23.1147]]]}, "properties": {"objectid": 4089, "statename": "Chhattisgarh", "statecode": "22", "districtname": "Surguja", "districtcode": "401", "ulbname": "Ambikapur", "ulbcode": "801927", "wardname": "Namnakala Ward", "wardcode": "14", "id": null, "status": "APPROVED", "misglobalid": null, "approved_by": null, "createdate": 1639568518000, "updateddate": 1643113630000, "globalid": null, "gisglobalid": "0ad5d9ee-2aaa-4600-ad9b-6477f81a6d63", "remark": "Ok", "st_area(shape)": 5.551639074381892e-05, "st_perimeter(shape)": 0.03738044010677914}}, {"type": "Feature", "geometry": {"type": "MultiPolygon", "coordinates": [[[[83.186, 23.1294], [83.1855, 23.1298], [83.1848, 23.1302], [83.1842, 23.1305], [83.1837, 23.1309], [83.1829, 23.1314], [83.1829, 23.1315], [83.1834, 23.132], [83.1835, 23.1323], [83.1839, 23.1328], [83.1845, 23.1335], [83.186, 23.1325], [83.1874, 23.1316], [83.1877, 23.1313], [83.189, 23.1303], [83.19, 23.1291], [83.191, 23.1287], [83.1916, 23.1284], [83.1922, 23.128], [83.193, 23.127], [83.1933, 23.1262], [83.1936, 23.1254], [83.1937, 23.125], [83.1924, 23.1257], [83.1909, 23.1265], [83.1904, 23.1267], [83.1899, 23.127], [83.1894, 23.1273], [83.189, 23.1275], [83.1889, 23.1276], [83.1888, 23.1277], [83.1872, 23.1287], [83.1871, 23.1288], [83.186, 23.1294]]], [[[83.186, 23.1294]]]]}, "properties": {"objectid": 4056, "statename": "Chhattisgarh", "statecode": "22", "districtname": "Surguja", "districtcode": "401", "ulbname": "Ambikapur", "ulbcode": "801927", "wardname": "Deviganj Ward", "wardcode": "15", "id": null, "status": "APPROVED", "misglobalid": null, "approved_by": null, "createdate": 1643777976000, "updateddate": 1643778061000, "globalid": null, "gisglobalid": "cP5s4mBd-KsoB-PBPa-ssnd-Q45RRnRdm5Ka", "remark": "Ok", "st_area(shape)": 2.5760252892458335e-05, "st_perimeter(shape)": 0.02831934278967425}}, {"type": "Feature", "geometry": {"type": "Polygon", "coordinates": [[[83.189, 23.1303], [83.1883, 23.1308], [83.1876, 23.1313], [83.1874, 23.1316], [83.1871, 23.1318], [83.1864, 23.1323], [83.186, 23.1325], [83.1852, 23.133], [83.1845, 23.1335], [83.1841, 23.1338], [83.1839, 23.134], [83.1849, 23.1355], [83.185, 23.1356], [83.1849, 23.1356], [83.185, 23.1357], [83.1851, 23.1359], [83.1852, 23.1361], [83.1853, 23.1362], [83.1854, 23.1364], [83.1856, 23.1365], [83.1857, 23.1367], [83.1858, 23.1369], [83.186, 23.1372], [83.1868, 23.1374], [83.1871, 23.1374], [83.1872, 23.1375], [83.1875, 23.1375], [83.1878, 23.1376], [83.1882, 23.1377], [83.1884, 23.1377], [83.1886, 23.1378], [83.1885, 23.1367], [83.1885, 23.1358], [83.1884, 23.1357], [83.1886, 23.1356], [83.1888, 23.1354], [83.1888, 23.1349], [83.189, 23.1348], [83.1893, 23.1347], [83.1899, 23.1345], [83.1895, 23.1338], [83.1894, 23.133], [83.1894, 23.1325], [83.189, 23.1303]]]}, "properties": {"objectid": 4090, "statename": "Chhattisgarh", "statecode": "22", "districtname": "Surguja", "districtcode": "401", "ulbname": "Ambikapur", "ulbcode": "801927", "wardname": "Shaheed Chandrasekhar Aajad Ward", "wardcode": "16", "id": null, "status": "APPROVED", "misglobalid": null, "approved_by": null, "createdate": 1639567768000, "updateddate": 1643113682000, "globalid": null, "gisglobalid": "3684e047-74c6-4c70-bb0e-39f92f9404d6", "remark": "Ok", "st_area(shape)": 2.3728866269761843e-05, "st_perimeter(shape)": 0.021279372793720747}}, {"type": "Feature", "geometry": {"type": "Polygon", "coordinates": [[[83.1915, 23.1365], [83.1913, 23.1363], [83.1908, 23.1357], [83.1911, 23.1355], [83.1911, 23.1332], [83.192, 23.1302], [83.1922, 23.13], [83.1923, 23.1299], [83.1924, 23.1299], [83.1925, 23.1297], [83.1926, 23.1295], [83.1926, 23.1293], [83.1925, 23.1291], [83.1924, 23.1287], [83.1923, 23.1283], [83.1922, 23.128], [83.1921, 23.128], [83.192, 23.1281], [83.1918, 23.1282], [83.1916, 23.1284], [83.1914, 23.1285], [83.191, 23.1287], [83.1907, 23.1288], [83.1904, 23.129], [83.1902, 23.129], [83.19, 23.1291], [83.189, 23.1303], [83.189, 23.1304], [83.189, 23.1305], [83.189, 23.1307], [83.1891, 23.1311], [83.1892, 23.1313], [83.1892, 23.1315], [83.1893, 23.1319], [83.1894, 23.1323], [83.1894, 23.1325], [83.1894, 23.1328], [83.1894, 23.1329], [83.1894, 23.1332], [83.1895, 23.1334], [83.1895, 23.1337], [83.1895, 23.1338], [83.1896, 23.134], [83.1897, 23.1341], [83.1899, 23.1345], [83.1892, 23.1347], [83.189, 23.1348], [83.1888, 23.1349], [83.1888, 23.1353], [83.1888, 23.1354], [83.1886, 23.1356], [83.1885, 23.1356], [83.1885, 23.1357], [83.1884, 23.1357], [83.1885, 23.1358], [83.1885, 23.1366], [83.1885, 23.1369], [83.1886, 23.1378], [83.1888, 23.1378], [83.189, 23.1379], [83.1892, 23.138], [83.1898, 23.1383], [83.1905, 23.1391], [83.1906, 23.1392], [83.1907, 23.1396], [83.1908, 23.1396], [83.191, 23.1396], [83.1911, 23.1396], [83.1912, 23.1396], [83.1914, 23.1397], [83.1915, 23.1398], [83.1915, 23.1397], [83.1914, 23.1395], [83.1913, 23.1393], [83.1912, 23.1393], [83.1908, 23.1389], [83.1908, 23.1388], [83.1907, 23.1387], [83.1907, 23.1385], [83.1907, 23.1383], [83.1906, 23.1382], [83.1907, 23.1381], [83.1908, 23.138], [83.1908, 23.1379], [83.191, 23.1376], [83.1913, 23.1372], [83.1914, 23.1369], [83.1915, 23.1365]]]}, "properties": {"objectid": 4067, "statename": "Chhattisgarh", "statecode": "22", "districtname": "Surguja", "districtcode": "401", "ulbname": "Ambikapur", "ulbcode": "801927", "wardname": "Raidas Ward", "wardcode": "17", "id": null, "status": "APPROVED", "misglobalid": null, "approved_by": null, "createdate": 1639570032000, "updateddate": 1643113668000, "globalid": null, "gisglobalid": "31bd964a-c1c7-4fe6-bb95-1eb8f5e5cfbf", "remark": "Ok", "st_area(shape)": 2.3045581710038077e-05, "st_perimeter(shape)": 0.029544536507628612}}, {"type": "Feature", "geometry": {"type": "Polygon", "coordinates": [[[83.193, 23.1352], [83.1927, 23.1345], [83.1925, 23.1338], [83.1926, 23.1337], [83.1927, 23.1332], [83.1931, 23.1331], [83.1938, 23.133], [83.194, 23.1329], [83.1946, 23.1328], [83.1946, 23.1326], [83.1947, 23.1322], [83.1949, 23.132], [83.1946, 23.1314], [83.1944, 23.1315], [83.1941, 23.1315], [83.1938, 23.1318], [83.1936, 23.1319], [83.1935, 23.1316], [83.1935, 23.1314], [83.1934, 23.1312], [83.1932, 23.1309], [83.1929, 23.131], [83.1927, 23.131], [83.1925, 23.1303], [83.1924, 23.1299], [83.192, 23.1302], [83.1913, 23.1327], [83.1911, 23.1332], [83.1911, 23.1333], [83.1911, 23.1338], [83.1911, 23.1342], [83.1911, 23.1346], [83.1911, 23.135], [83.1911, 23.1352], [83.1911, 23.1354], [83.1911, 23.1355], [83.1913, 23.1355], [83.1923, 23.1353], [83.193, 23.1352]]]}, "properties": {"objectid": 4057, "statename": "Chhattisgarh", "statecode": "22", "districtname": "Surguja", "districtcode": "401", "ulbname": "Ambikapur", "ulbcode": "801927", "wardname": "Guru Ghasi As Ward", "wardcode": "18", "id": null, "status": "APPROVED", "misglobalid": null, "approved_by": null, "createdate": 1639570989000, "updateddate": 1643113698000, "globalid": null, "gisglobalid": "9c680de0-2a11-4a15-a88c-b57b4a3ef514", "remark": "Ok", "st_area(shape)": 1.0124522293199761e-05, "st_perimeter(shape)": 0.017542234148020943}}, {"type": "Feature", "geometry": {"type": "Polygon", "coordinates": [[[83.1978, 23.1369], [83.1974, 23.1345], [83.1959, 23.1345], [83.195, 23.1322], [83.1949, 23.1321], [83.1949, 23.132], [83.1947, 23.1322], [83.1946, 23.1324], [83.1946, 23.1328], [83.194, 23.1329], [83.1931, 23.1331], [83.1927, 23.1332], [83.1925, 23.1338], [83.1927, 23.1345], [83.193, 23.1352], [83.1923, 23.1353], [83.1916, 23.1354], [83.1911, 23.1355], [83.1908, 23.1357], [83.191, 23.136], [83.1913, 23.1363], [83.1915, 23.1365], [83.1916, 23.1365], [83.193, 23.137], [83.1947, 23.1371], [83.1949, 23.1371], [83.1951, 23.1371], [83.1955, 23.137], [83.1958, 23.137], [83.1963, 23.137], [83.1968, 23.137], [83.1978, 23.1369]]]}, "properties": {"objectid": 4094, "statename": "Chhattisgarh", "statecode": "22", "districtname": "Surguja", "districtcode": "401", "ulbname": "Ambikapur", "ulbcode": "801927", "wardname": "Bhagwan Mahaveer Ward", "wardcode": "19", "id": null, "status": "APPROVED", "misglobalid": null, "approved_by": null, "createdate": 1639571499000, "updateddate": 1659601756000, "globalid": null, "gisglobalid": "dea515fd-3f84-462b-a795-68fec1fea63f", "remark": "Ok", "st_area(shape)": 1.887710034479516e-05, "st_perimeter(shape)": 0.021290912354284357}}, {"type": "Feature", "geometry": {"type": "MultiPolygon", "coordinates": [[[[83.2085, 23.1454], [83.2091, 23.1452], [83.2096, 23.145], [83.2101, 23.1446], [83.2103, 23.1443], [83.21, 23.1438], [83.2097, 23.1434], [83.2094, 23.1429], [83.2093, 23.1429], [83.209, 23.1424], [83.2087, 23.1419], [83.2086, 23.1419], [83.2074, 23.1403], [83.2085, 23.1418], [83.2066, 23.1391], [83.2032, 23.1347], [83.2018, 23.1352], [83.2015, 23.1346], [83.2015, 23.1344], [83.2002, 23.1326], [83.1999, 23.1322], [83.1994, 23.1315], [83.1991, 23.1306], [83.1991, 23.1304], [83.1984, 23.1306], [83.198, 23.1307], [83.1978, 23.1307], [83.1966, 23.1309], [83.1965, 23.1308], [83.1965, 23.1307], [83.196, 23.1308], [83.1954, 23.1309], [83.1946, 23.1312], [83.1946, 23.1314], [83.1947, 23.1315], [83.1949, 23.132], [83.1949, 23.1321], [83.195, 23.1322], [83.1959, 23.1345], [83.1965, 23.1345], [83.1973, 23.1345], [83.1974, 23.1345], [83.1974, 23.1346], [83.1974, 23.1348], [83.1974, 23.135], [83.1975, 23.1352], [83.1975, 23.1356], [83.1976, 23.1358], [83.1976, 23.1362], [83.1977, 23.1367], [83.1978, 23.1369], [83.1979, 23.1369], [83.1983, 23.1369], [83.1986, 23.1368], [83.1989, 23.1367], [83.1993, 23.1365], [83.1996, 23.1363], [83.1999, 23.136], [83.2002, 23.1358], [83.2003, 23.1359], [83.2004, 23.1361], [83.2006, 23.1363], [83.2007, 23.1366], [83.2008, 23.1367], [83.2009, 23.1368], [83.2012, 23.1373], [83.2016, 23.1377], [83.2022, 23.1384], [83.2018, 23.138], [83.2024, 23.1386], [83.2026, 23.1388], [83.2031, 23.1392], [83.2035, 23.1395], [83.2039, 23.1404], [83.2035, 23.141], [83.2035, 23.1414], [83.2038, 23.1416], [83.2041, 23.142], [83.2041, 23.1421], [83.2044, 23.1426], [83.2044, 23.1427], [83.2042, 23.1429], [83.2044, 23.1432], [83.2048, 23.1435], [83.2051, 23.1437], [83.2058, 23.144], [83.2061, 23.1441], [83.2062, 23.1442], [83.2067, 23.144], [83.2067, 23.1443], [83.2071, 23.145], [83.2076, 23.1457], [83.2083, 23.1457], [83.2082, 23.1456], [83.2085, 23.1454]]], [[[83.2091, 23.1452], [83.209, 23.1452], [83.2092, 23.1452], [83.2091, 23.1452]]]]}, "properties": {"objectid": 4068, "statename": "Chhattisgarh", "statecode": "22", "districtname": "Surguja", "districtcode": "401", "ulbname": "Ambikapur", "ulbcode": "801927", "wardname": "Mahatma Gandhi Ward", "wardcode": "20", "id": null, "status": "APPROVED", "misglobalid": null, "approved_by": null, "createdate": 1639571748000, "updateddate": 1643113723000, "globalid": null, "gisglobalid": "8c553f4f-6247-4353-bb0e-48cf883aa72e", "remark": "Ok", "st_area(shape)": 6.656958500641612e-05, "st_perimeter(shape)": 0.05687179618343054}}, {"type": "Feature", "geometry": {"type": "Polygon", "coordinates": [[[83.2032, 23.1347], [83.2037, 23.1354], [83.2045, 23.1364], [83.2047, 23.1367], [83.2052, 23.1373], [83.2058, 23.138], [83.2061, 23.1384], [83.2065, 23.1389], [83.2067, 23.1392], [83.2069, 23.1395], [83.207, 23.1397], [83.2074, 23.1403], [83.2079, 23.1409], [83.2079, 23.141], [83.2083, 23.1414], [83.2092, 23.1427], [83.2103, 23.1443], [83.2101, 23.1446], [83.2096, 23.145], [83.2092, 23.1452], [83.2085, 23.1454], [83.2082, 23.1456], [83.2083, 23.1457], [83.2082, 23.146], [83.2081, 23.1461], [83.2079, 23.1467], [83.2078, 23.147], [83.2078, 23.1471], [83.2077, 23.1478], [83.2079, 23.1479], [83.208, 23.1479], [83.2081, 23.148], [83.2082, 23.1481], [83.2085, 23.1484], [83.2088, 23.1487], [83.2093, 23.1491], [83.2095, 23.149], [83.2101, 23.1486], [83.2109, 23.148], [83.2118, 23.1477], [83.2126, 23.1473], [83.213, 23.1467], [83.2131, 23.1462], [83.2129, 23.1458], [83.2127, 23.1455], [83.2126, 23.1453], [83.2127, 23.1452], [83.2131, 23.1452], [83.2137, 23.1453], [83.214, 23.1452], [83.2143, 23.145], [83.2149, 23.1449], [83.2157, 23.1444], [83.2163, 23.1443], [83.2174, 23.1438], [83.2184, 23.1441], [83.219, 23.1443], [83.22, 23.1446], [83.2208, 23.1446], [83.2219, 23.1447], [83.2224, 23.1445], [83.2227, 23.1444], [83.2223, 23.1438], [83.2218, 23.1433], [83.2212, 23.1426], [83.2208, 23.142], [83.2206, 23.1419], [83.2201, 23.1415], [83.2193, 23.1408], [83.2191, 23.1407], [83.2184, 23.1401], [83.2183, 23.1401], [83.2181, 23.1401], [83.217, 23.1398], [83.2164, 23.1398], [83.2158, 23.1398], [83.2149, 23.1393], [83.2147, 23.1392], [83.2145, 23.1391], [83.2136, 23.1387], [83.2134, 23.1386], [83.2128, 23.1383], [83.2127, 23.1383], [83.2125, 23.1382], [83.212, 23.1381], [83.2114, 23.1381], [83.211, 23.1381], [83.21, 23.1381], [83.2091, 23.1383], [83.2089, 23.1383], [83.2084, 23.1385], [83.2081, 23.1381], [83.2081, 23.1378], [83.2083, 23.1378], [83.2082, 23.1376], [83.2081, 23.1372], [83.2081, 23.1365], [83.208, 23.1358], [83.2079, 23.1352], [83.2079, 23.135], [83.2077, 23.1344], [83.2074, 23.1337], [83.2074, 23.1336], [83.2075, 23.1334], [83.2073, 23.1331], [83.2071, 23.1332], [83.2069, 23.1333], [83.2066, 23.1334], [83.2064, 23.1335], [83.2054, 23.1338], [83.2051, 23.1339], [83.204, 23.1344], [83.2032, 23.1347]]]}, "properties": {"objectid": 4069, "statename": "Chhattisgarh", "statecode": "22", "districtname": "Surguja", "districtcode": "401", "ulbname": "Ambikapur", "ulbcode": "801927", "wardname": "Netaji Subhas Chandra Bose Ward", "wardcode": "21", "id": null, "status": "APPROVED", "misglobalid": null, "approved_by": null, "createdate": 1639572127000, "updateddate": 1643113733000, "globalid": null, "gisglobalid": "a985e5ef-6098-4116-ae6e-5bf176d7296e", "remark": "Ok", "st_area(shape)": 0.00010109882055730318, "st_perimeter(shape)": 0.06259400249856173}}, {"type": "Feature", "geometry": {"type": "Polygon", "coordinates": [[[83.221, 23.1346], [83.2208, 23.1346], [83.2202, 23.1345], [83.2193, 23.1343], [83.2188, 23.1342], [83.2181, 23.1342], [83.2175, 23.1335], [83.2169, 23.1333], [83.2165, 23.1333], [83.2163, 23.1333], [83.2157, 23.1333], [83.2153, 23.1334], [83.2145, 23.133], [83.2139, 23.1316], [83.2133, 23.1301], [83.2128, 23.1291], [83.2121, 23.1286], [83.2117, 23.1286], [83.2112, 23.1286], [83.211, 23.1287], [83.2105, 23.1287], [83.2101, 23.1289], [83.2094, 23.1291], [83.2091, 23.1292], [83.2088, 23.1294], [83.2086, 23.1295], [83.2079, 23.1297], [83.2079, 23.1298], [83.2077, 23.1299], [83.2075, 23.1301], [83.2076, 23.1301], [83.2077, 23.1302], [83.2079, 23.1303], [83.2081, 23.1304], [83.2083, 23.1306], [83.2084, 23.1307], [83.2086, 23.1308], [83.2087, 23.1309], [83.2087, 23.131], [83.2087, 23.1312], [83.2083, 23.1318], [83.2073, 23.1331], [83.2074, 23.1331], [83.2075, 23.1334], [83.2074, 23.1337], [83.2076, 23.1343], [83.2079, 23.135], [83.208, 23.1354], [83.2081, 23.1365], [83.2081, 23.1372], [83.2083, 23.1378], [83.2082, 23.1378], [83.2081, 23.1381], [83.2084, 23.1385], [83.209, 23.1383], [83.21, 23.1381], [83.2114, 23.1381], [83.2124, 23.1382], [83.2132, 23.1385], [83.2145, 23.1391], [83.2158, 23.1398], [83.217, 23.1398], [83.2184, 23.1401], [83.2201, 23.1415], [83.2203, 23.1397], [83.2205, 23.137], [83.221, 23.1346]]]}, "properties": {"objectid": 124533, "statename": "Chhattisgarh", "statecode": "22", "districtname": "Surguja", "districtcode": "401", "ulbname": "Ambikapur", "ulbcode": "801927", "wardname": "Shaheed Veer Narayan Ward\n", "wardcode": "22", "id": null, "status": "APPROVED", "misglobalid": null, "approved_by": null, "createdate": 1643777882000, "updateddate": 1643777944000, "globalid": null, "gisglobalid": "acoc5m5d-4BPP-Ps44-sBQo-a4BP4Bcds5ln", "remark": "Okk", "st_area(shape)": 9.592524387742963e-05, "st_perimeter(shape)": 0.0465937389742776}}, {"type": "Feature", "geometry": {"type": "Polygon", "coordinates": [[[83.2073, 23.133], [83.2073, 23.1331], [83.2074, 23.133], [83.2079, 23.1323], [83.2082, 23.1319], [83.2085, 23.1315], [83.2087, 23.1312], [83.2087, 23.131], [83.2087, 23.1309], [83.2086, 23.1308], [83.2083, 23.1306], [83.2081, 23.1304], [83.2079, 23.1303], [83.2077, 23.1302], [83.2076, 23.1301], [83.2075, 23.1301], [83.2077, 23.1299], [83.2079, 23.1298], [83.2079, 23.1297], [83.2085, 23.1295], [83.2087, 23.1294], [83.209, 23.1293], [83.2094, 23.1291], [83.21, 23.1289], [83.2104, 23.1287], [83.211, 23.1287], [83.2117, 23.1286], [83.2121, 23.1286], [83.2125, 23.1289], [83.2128, 23.1291], [83.2133, 23.1301], [83.2137, 23.131], [83.2139, 23.1316], [83.2141, 23.1321], [83.2145, 23.133], [83.2153, 23.1333], [83.2157, 23.1333], [83.2162, 23.1333], [83.2165, 23.1333], [83.2171, 23.1334], [83.2175, 23.1335], [83.2181, 23.1342], [83.2188, 23.1341], [83.2194, 23.1343], [83.22, 23.1344], [83.2208, 23.1346], [83.221, 23.1346], [83.2219, 23.1346], [83.2227, 23.1346], [83.2238, 23.1346], [83.2233, 23.1338], [83.2231, 23.1333], [83.2229, 23.133], [83.2228, 23.1325], [83.2226, 23.1323], [83.2219, 23.1318], [83.2217, 23.1316], [83.2214, 23.1314], [83.2211, 23.1313], [83.2207, 23.1309], [83.2202, 23.1301], [83.2198, 23.1296], [83.2195, 23.1291], [83.2197, 23.1288], [83.22, 23.1284], [83.22, 23.1279], [83.2198, 23.127], [83.2193, 23.1268], [83.2186, 23.1258], [83.218, 23.125], [83.2174, 23.1241], [83.2165, 23.1243], [83.216, 23.1244], [83.2156, 23.1245], [83.2153, 23.1246], [83.2147, 23.1246], [83.2143, 23.1247], [83.2138, 23.1247], [83.2131, 23.1248], [83.2127, 23.1247], [83.2123, 23.1246], [83.2117, 23.1245], [83.2113, 23.1244], [83.2108, 23.1245], [83.2101, 23.1245], [83.2097, 23.1243], [83.2092, 23.1241], [83.2088, 23.124], [83.2083, 23.124], [83.2081, 23.1239], [83.2075, 23.1238], [83.2071, 23.1237], [83.2067, 23.1236], [83.2063, 23.1235], [83.2058, 23.1233], [83.2058, 23.1235], [83.2058, 23.1236], [83.2057, 23.1237], [83.2057, 23.124], [83.2059, 23.1246], [83.206, 23.1249], [83.2061, 23.125], [83.2064, 23.1256], [83.2066, 23.1261], [83.2069, 23.1267], [83.207, 23.1271], [83.2072, 23.1274], [83.2072, 23.1276], [83.2074, 23.128], [83.2074, 23.1285], [83.2072, 23.129], [83.207, 23.1294], [83.2069, 23.1296], [83.2069, 23.1297], [83.2067, 23.1296], [83.2065, 23.1295], [83.2063, 23.1294], [83.2059, 23.1293], [83.2061, 23.1304], [83.2059, 23.1305], [83.2056, 23.1306], [83.2053, 23.1308], [83.205, 23.1309], [83.2048, 23.1311], [83.2046, 23.1311], [83.2051, 23.1318], [83.2059, 23.1317], [83.206, 23.132], [83.2065, 23.1319], [83.207, 23.1326], [83.2072, 23.133], [83.2073, 23.133]]]}, "properties": {"objectid": 4072, "statename": "Chhattisgarh", "statecode": "22", "districtname": "Surguja", "districtcode": "401", "ulbname": "Ambikapur", "ulbcode": "801927", "wardname": "Larang Sai Ward", "wardcode": "23", "id": null, "status": "APPROVED", "misglobalid": null, "approved_by": null, "createdate": 1639572564000, "updateddate": 1643113745000, "globalid": null, "gisglobalid": "ed211479-6bde-45c1-96ef-19276dbecf6d", "remark": "Ok", "st_area(shape)": 0.00010465984234277182, "st_perimeter(shape)": 0.0635324469010751}}, {"type": "Feature", "geometry": {"type": "Polygon", "coordinates": [[[83.2173, 23.1241], [83.2174, 23.1241], [83.2172, 23.1237], [83.2168, 23.1237], [83.2164, 23.1239], [83.216, 23.124], [83.2157, 23.1236], [83.2157, 23.1232], [83.2161, 23.1228], [83.2164, 23.1224], [83.2165, 23.122], [83.2163, 23.1215], [83.2154, 23.1212], [83.2145, 23.121], [83.2138, 23.1205], [83.2134, 23.1202], [83.2129, 23.1193], [83.2118, 23.1186], [83.211, 23.1178], [83.211, 23.1177], [83.211, 23.1176], [83.2101, 23.1176], [83.2092, 23.1177], [83.2077, 23.1179], [83.2073, 23.1181], [83.207, 23.1182], [83.207, 23.119], [83.207, 23.1192], [83.2068, 23.1197], [83.2066, 23.1206], [83.2063, 23.1217], [83.206, 23.1226], [83.2058, 23.1233], [83.2065, 23.1236], [83.207, 23.1237], [83.2075, 23.1238], [83.2085, 23.124], [83.2092, 23.1241], [83.2097, 23.1243], [83.2101, 23.1245], [83.2108, 23.1245], [83.2113, 23.1244], [83.2117, 23.1245], [83.2124, 23.1246], [83.2131, 23.1248], [83.2131, 23.1247], [83.2135, 23.1247], [83.214, 23.1247], [83.2144, 23.1247], [83.2148, 23.1246], [83.2153, 23.1246], [83.2157, 23.1245], [83.2162, 23.1244], [83.2165, 23.1243], [83.2173, 23.1241]]]}, "properties": {"objectid": 4091, "statename": "Chhattisgarh", "statecode": "22", "districtname": "Surguja", "districtcode": "401", "ulbname": "Ambikapur", "ulbcode": "801927", "wardname": "Pandit Jawaharlal Nehru Ward", "wardcode": "24", "id": null, "status": "APPROVED", "misglobalid": null, "approved_by": null, "createdate": 1639572845000, "updateddate": 1643113756000, "globalid": null, "gisglobalid": "b041a246-0a0e-429b-939a-fd278034fe7b", "remark": "Ok", "st_area(shape)": 5.23639710986896e-05, "st_perimeter(shape)": 0.032673293954949625}}, {"type": "Feature", "geometry": {"type": "Polygon", "coordinates": [[[83.1885, 23.1266], [83.1893, 23.1262], [83.1898, 23.126], [83.1902, 23.1258], [83.1906, 23.1254], [83.1909, 23.1251], [83.1905, 23.1249], [83.1902, 23.1238], [83.1901, 23.1232], [83.19, 23.1227], [83.1899, 23.1224], [83.1899, 23.122], [83.1896, 23.122], [83.1893, 23.1221], [83.1891, 23.1221], [83.189, 23.1222], [83.1888, 23.1222], [83.1887, 23.122], [83.1886, 23.122], [83.1885, 23.1218], [83.188, 23.122], [83.1878, 23.1221], [83.1874, 23.1222], [83.1868, 23.1224], [83.1866, 23.1225], [83.1863, 23.1225], [83.1857, 23.1226], [83.1858, 23.1228], [83.1857, 23.123], [83.1857, 23.1234], [83.1856, 23.1234], [83.1853, 23.1234], [83.1851, 23.1234], [83.185, 23.1235], [83.1851, 23.1236], [83.1844, 23.1238], [83.1841, 23.1239], [83.1838, 23.1241], [83.1834, 23.1244], [83.1835, 23.1244], [83.1837, 23.1248], [83.1838, 23.1252], [83.1839, 23.1259], [83.184, 23.1263], [83.184, 23.1268], [83.1841, 23.1269], [83.1842, 23.1274], [83.1844, 23.1277], [83.1849, 23.1282], [83.1851, 23.1285], [83.1855, 23.1289], [83.186, 23.1294], [83.1872, 23.1287], [83.1883, 23.128], [83.189, 23.1275], [83.1885, 23.1266]]]}, "properties": {"objectid": 4073, "statename": "Chhattisgarh", "statecode": "22", "districtname": "Surguja", "districtcode": "401", "ulbname": "Ambikapur (M Corp.)", "ulbcode": "801927", "wardname": "Pandit Jawaharlal Nehru Ward", "wardcode": "25", "id": null, "status": "APPROVED", "misglobalid": null, "approved_by": "ULB Nodal Officer", "createdate": null, "updateddate": 1630062219000, "globalid": null, "gisglobalid": "68d93321-5eff-4fde-b765-f260b9e3de8b", "remark": "Ok", "st_area(shape)": 3.382915417697606e-05, "st_perimeter(shape)": 0.02486295614383254}}, {"type": "Feature", "geometry": {"type": "Polygon", "coordinates": [[[83.195, 23.1243], [83.1948, 23.124], [83.1946, 23.1233], [83.1943, 23.1222], [83.1939, 23.1207], [83.1932, 23.1209], [83.1928, 23.121], [83.1925, 23.1212], [83.1924, 23.1215], [83.1923, 23.1216], [83.1919, 23.1216], [83.1916, 23.1217], [83.191, 23.1218], [83.1906, 23.1219], [83.1904, 23.1219], [83.1899, 23.122], [83.19, 23.1227], [83.19, 23.123], [83.1902, 23.1237], [83.1903, 23.1243], [83.1905, 23.1249], [83.1909, 23.1251], [83.1905, 23.1255], [83.1902, 23.1258], [83.19, 23.1259], [83.1898, 23.126], [83.1893, 23.1262], [83.1892, 23.1263], [83.1888, 23.1265], [83.1885, 23.1266], [83.1886, 23.1267], [83.1887, 23.127], [83.1889, 23.1273], [83.189, 23.1275], [83.1899, 23.127], [83.1904, 23.1267], [83.1908, 23.1265], [83.1912, 23.1263], [83.1917, 23.126], [83.1924, 23.1257], [83.1927, 23.1255], [83.1937, 23.125], [83.1937, 23.1249], [83.1944, 23.1246], [83.195, 23.1243]]]}, "properties": {"objectid": 4074, "statename": "Chhattisgarh", "statecode": "22", "districtname": "Surguja", "districtcode": "401", "ulbname": "Ambikapur", "ulbcode": "801927", "wardname": "Gurunanak Ward", "wardcode": "26", "id": null, "status": "APPROVED", "misglobalid": null, "approved_by": null, "createdate": 1639573345000, "updateddate": 1643113767000, "globalid": null, "gisglobalid": "579c6fbc-7b28-4722-bfba-6c8bd405fa89", "remark": "Ok", "st_area(shape)": 1.9657898919727386e-05, "st_perimeter(shape)": 0.022386439836565335}}, {"type": "Feature", "geometry": {"type": "Polygon", "coordinates": [[[83.1926, 23.1295], [83.193, 23.1292], [83.1937, 23.1287], [83.1943, 23.1282], [83.1943, 23.1278], [83.196, 23.1268], [83.1969, 23.1263], [83.1973, 23.1262], [83.1977, 23.1263], [83.1978, 23.1263], [83.1992, 23.1255], [83.1989, 23.1251], [83.1985, 23.1245], [83.1983, 23.1242], [83.1979, 23.123], [83.1974, 23.1232], [83.1969, 23.1234], [83.1965, 23.1237], [83.1957, 23.124], [83.195, 23.1243], [83.1945, 23.1246], [83.1941, 23.1247], [83.1937, 23.1249], [83.1936, 23.1254], [83.1935, 23.1258], [83.1933, 23.1263], [83.1932, 23.1265], [83.193, 23.127], [83.1927, 23.1274], [83.1925, 23.1276], [83.1922, 23.128], [83.1926, 23.1295]]]}, "properties": {"objectid": 4075, "statename": "Chhattisgarh", "statecode": "22", "districtname": "Surguja", "districtcode": "401", "ulbname": "Ambikapur (M Corp.)", "ulbcode": "801927", "wardname": "Gurunanak Ward", "wardcode": "27", "id": null, "status": "APPROVED", "misglobalid": null, "approved_by": "ULB Nodal Officer", "createdate": null, "updateddate": 1630062248000, "globalid": null, "gisglobalid": "e04659d7-6ed4-491f-8bb1-91023501e4bb", "remark": "Ok", "st_area(shape)": 1.7865385722736025e-05, "st_perimeter(shape)": 0.02057697277019475}}, {"type": "Feature", "geometry": {"type": "Polygon", "coordinates": [[[83.1926, 23.1295], [83.1924, 23.1299], [83.1925, 23.13], [83.1925, 23.1303], [83.1926, 23.1306], [83.1927, 23.131], [83.1929, 23.131], [83.1932, 23.1309], [83.1934, 23.1312], [83.1934, 23.1313], [83.1935, 23.1314], [83.1935, 23.1315], [83.1935, 23.1316], [83.1935, 23.1317], [83.1936, 23.1319], [83.1938, 23.1318], [83.1939, 23.1317], [83.1941, 23.1315], [83.1944, 23.1315], [83.1946, 23.1314], [83.1946, 23.1312], [83.1948, 23.1311], [83.1952, 23.131], [83.1954, 23.1309], [83.1965, 23.1307], [83.1966, 23.1305], [83.1967, 23.1303], [83.197, 23.1295], [83.1973, 23.1288], [83.1973, 23.1286], [83.1974, 23.1284], [83.1975, 23.1281], [83.1977, 23.1275], [83.1981, 23.1268], [83.1978, 23.1263], [83.1977, 23.1263], [83.1973, 23.1262], [83.1969, 23.1263], [83.1965, 23.1265], [83.1964, 23.1265], [83.1962, 23.1267], [83.196, 23.1268], [83.1959, 23.1269], [83.1956, 23.127], [83.1954, 23.1271], [83.1952, 23.1273], [83.1949, 23.1274], [83.1947, 23.1275], [83.1945, 23.1276], [83.1943, 23.1278], [83.1943, 23.1279], [83.1943, 23.1281], [83.1943, 23.1282], [83.1942, 23.1283], [83.194, 23.1284], [83.1939, 23.1285], [83.1937, 23.1287], [83.1935, 23.1288], [83.1933, 23.129], [83.1931, 23.1291], [83.193, 23.1293], [83.1928, 23.1294], [83.1926, 23.1295]]]}, "properties": {"objectid": 4076, "statename": "Chhattisgarh", "statecode": "22", "districtname": "Surguja", "districtcode": "401", "ulbname": "Ambikapur", "ulbcode": "801927", "wardname": "Gouri Ward", "wardcode": "28", "id": null, "status": "APPROVED", "misglobalid": null, "approved_by": null, "createdate": 1639573510000, "updateddate": 1643113780000, "globalid": null, "gisglobalid": "3c720ae4-04f3-47df-a06d-0dfa8af4762f", "remark": "Ok", "st_area(shape)": 1.6511930998072246e-05, "st_perimeter(shape)": 0.017794115179507738}}, {"type": "Feature", "geometry": {"type": "Polygon", "coordinates": [[[83.2046, 23.1312], [83.204, 23.1313], [83.2035, 23.1314], [83.2035, 23.1312], [83.2021, 23.1316], [83.2016, 23.1303], [83.2012, 23.1291], [83.2011, 23.1287], [83.2006, 23.1276], [83.2004, 23.1274], [83.2, 23.1267], [83.1993, 23.1256], [83.1992, 23.1256], [83.1993, 23.1256], [83.1992, 23.1255], [83.1989, 23.1257], [83.1986, 23.1258], [83.1984, 23.1259], [83.1981, 23.1261], [83.1978, 23.1263], [83.1977, 23.1263], [83.1978, 23.1263], [83.1978, 23.1265], [83.198, 23.1268], [83.1981, 23.1268], [83.198, 23.127], [83.1978, 23.1272], [83.1977, 23.1275], [83.1976, 23.1277], [83.1975, 23.128], [83.1974, 23.1281], [83.1974, 23.1284], [83.1973, 23.1286], [83.1973, 23.1287], [83.1973, 23.1288], [83.1972, 23.1289], [83.1971, 23.1292], [83.197, 23.1295], [83.1969, 23.1298], [83.1967, 23.1303], [83.1967, 23.1305], [83.1965, 23.1307], [83.1965, 23.1308], [83.1966, 23.1309], [83.1968, 23.1308], [83.1975, 23.1307], [83.1977, 23.1307], [83.198, 23.1307], [83.1983, 23.1306], [83.1986, 23.1305], [83.1991, 23.1304], [83.1991, 23.1306], [83.1992, 23.131], [83.1994, 23.1315], [83.1994, 23.1316], [83.1997, 23.1319], [83.2001, 23.1325], [83.2002, 23.1325], [83.2003, 23.1328], [83.2006, 23.1332], [83.2015, 23.1344], [83.2015, 23.1346], [83.2018, 23.1352], [83.2032, 23.1347], [83.2037, 23.1345], [83.2041, 23.1343], [83.2051, 23.1339], [83.2054, 23.1338], [83.2064, 23.1335], [83.2066, 23.1334], [83.2069, 23.1333], [83.2071, 23.1332], [83.2073, 23.1331], [83.2072, 23.133], [83.2071, 23.1328], [83.207, 23.1326], [83.2068, 23.1324], [83.2068, 23.1323], [83.2067, 23.1321], [83.2066, 23.132], [83.2065, 23.1319], [83.2063, 23.1319], [83.206, 23.132], [83.2059, 23.1317], [83.2051, 23.1318], [83.2046, 23.1312]]]}, "properties": {"objectid": 4077, "statename": "Chhattisgarh", "statecode": "22", "districtname": "Surguja", "districtcode": "401", "ulbname": "Ambikapur", "ulbcode": "801927", "wardname": "Lok Nayak Jayprakash Ward", "wardcode": "29", "id": null, "status": "APPROVED", "misglobalid": null, "approved_by": null, "createdate": 1639573621000, "updateddate": 1643113797000, "globalid": null, "gisglobalid": "d1b04a61-be0e-4b63-854a-91f6e16f7133", "remark": "Ok", "st_area(shape)": 3.6212370071634156e-05, "st_perimeter(shape)": 0.034164444617265526}}, {"type": "Feature", "geometry": {"type": "Polygon", "coordinates": [[[83.2072, 23.1275], [83.2072, 23.1274], [83.207, 23.1275], [83.2067, 23.1277], [83.2062, 23.1279], [83.2059, 23.1279], [83.2047, 23.1275], [83.2028, 23.1263], [83.2023, 23.1262], [83.2017, 23.1255], [83.2021, 23.1253], [83.2017, 23.1245], [83.2015, 23.1239], [83.2013, 23.1241], [83.2012, 23.1242], [83.2006, 23.1246], [83.2003, 23.1248], [83.2, 23.125], [83.1993, 23.1256], [83.1992, 23.1256], [83.1993, 23.1256], [83.1993, 23.1257], [83.1995, 23.126], [83.1998, 23.1264], [83.2, 23.1268], [83.2002, 23.127], [83.2003, 23.1272], [83.2006, 23.1276], [83.2007, 23.1279], [83.2009, 23.1282], [83.201, 23.1286], [83.2012, 23.129], [83.2013, 23.1294], [83.2015, 23.1299], [83.2016, 23.1303], [83.2017, 23.1306], [83.2019, 23.131], [83.2021, 23.1316], [83.2035, 23.1312], [83.2035, 23.1314], [83.204, 23.1313], [83.2042, 23.1313], [83.2046, 23.1312], [83.2049, 23.131], [83.2055, 23.1307], [83.2061, 23.1304], [83.2059, 23.1293], [83.2063, 23.1294], [83.2065, 23.1295], [83.2067, 23.1296], [83.2069, 23.1297], [83.2069, 23.1296], [83.207, 23.1294], [83.2072, 23.129], [83.2074, 23.1285], [83.2074, 23.128], [83.2072, 23.1275]]]}, "properties": {"objectid": 4078, "statename": "Chhattisgarh", "statecode": "22", "districtname": "Surguja", "districtcode": "401", "ulbname": "Ambikapur", "ulbcode": "801927", "wardname": "Lal Bahadur Shastri Ward", "wardcode": "30", "id": null, "status": "APPROVED", "misglobalid": null, "approved_by": null, "createdate": 1639574047000, "updateddate": 1643113821000, "globalid": null, "gisglobalid": "5abe0bd8-fad8-4966-938c-31fd8b072a33", "remark": "Ok", "st_area(shape)": 2.7817408538473655e-05, "st_perimeter(shape)": 0.027052334799094198}}, {"type": "Feature", "geometry": {"type": "Polygon", "coordinates": [[[83.2072, 23.1274], [83.207, 23.1271], [83.2069, 23.1267], [83.2066, 23.1261], [83.2065, 23.1259], [83.206, 23.1248], [83.2057, 23.124], [83.2058, 23.1235], [83.2049, 23.1236], [83.2038, 23.1239], [83.2032, 23.1239], [83.2032, 23.1243], [83.2028, 23.1245], [83.2029, 23.1249], [83.2021, 23.1253], [83.2017, 23.1255], [83.2023, 23.1262], [83.2028, 23.1263], [83.2034, 23.1267], [83.204, 23.1271], [83.2047, 23.1275], [83.205, 23.1276], [83.2059, 23.1279], [83.2062, 23.1279], [83.2067, 23.1277], [83.2069, 23.1275], [83.2072, 23.1274]]]}, "properties": {"objectid": 4079, "statename": "Chhattisgarh", "statecode": "22", "districtname": "Surguja", "districtcode": "401", "ulbname": "Ambikapur", "ulbcode": "801927", "wardname": "Shitla Ward", "wardcode": "31", "id": null, "status": "APPROVED", "misglobalid": null, "approved_by": null, "createdate": 1639574214000, "updateddate": 1643113834000, "globalid": null, "gisglobalid": "937b5658-75a2-4cdb-982e-ff7314e55874", "remark": "Ok", "st_area(shape)": 1.3645916006857231e-05, "st_perimeter(shape)": 0.015760473989156053}}, {"type": "Feature", "geometry": {"type": "Polygon", "coordinates": [[[83.1939, 23.1207], [83.1934, 23.1191], [83.1927, 23.1194], [83.1921, 23.1195], [83.1916, 23.1197], [83.1911, 23.1198], [83.1911, 23.1195], [83.191, 23.1194], [83.191, 23.1192], [83.1909, 23.1186], [83.1907, 23.1178], [83.1906, 23.1177], [83.1905, 23.1171], [83.1903, 23.1165], [83.19, 23.1157], [83.1895, 23.1157], [83.1884, 23.1159], [83.1881, 23.116], [83.1879, 23.116], [83.1872, 23.1163], [83.1865, 23.1165], [83.1859, 23.1168], [83.1853, 23.117], [83.1848, 23.1172], [83.1845, 23.1173], [83.1844, 23.1175], [83.1847, 23.1182], [83.185, 23.1189], [83.1851, 23.1193], [83.1852, 23.1195], [83.1851, 23.1196], [83.1851, 23.1199], [83.1853, 23.1203], [83.1855, 23.1207], [83.1856, 23.1208], [83.1858, 23.1214], [83.1861, 23.122], [83.1863, 23.1225], [83.1866, 23.1225], [83.1875, 23.1222], [83.1878, 23.1221], [83.1881, 23.1219], [83.1883, 23.1219], [83.1885, 23.1218], [83.1886, 23.122], [83.1887, 23.122], [83.1888, 23.1222], [83.189, 23.1222], [83.1891, 23.1221], [83.1894, 23.122], [83.1897, 23.122], [83.1899, 23.122], [83.1904, 23.122], [83.1906, 23.1219], [83.1911, 23.1218], [83.1919, 23.1216], [83.1923, 23.1216], [83.1924, 23.1215], [83.1925, 23.1212], [83.1927, 23.1211], [83.1928, 23.121], [83.1932, 23.1209], [83.1939, 23.1207]]]}, "properties": {"objectid": 4080, "statename": "Chhattisgarh", "statecode": "22", "districtname": "Surguja", "districtcode": "401", "ulbname": "Ambikapur (M Corp.)", "ulbcode": "801927", "wardname": "Shitla Ward", "wardcode": "32", "id": null, "status": "APPROVED", "misglobalid": null, "approved_by": "ULB Nodal Officer", "createdate": null, "updateddate": 1630062238000, "globalid": null, "gisglobalid": "7fc324df-1779-4556-bc6d-6557cb48bc73", "remark": "Ok", "st_area(shape)": 3.8065043898057744e-05, "st_perimeter(shape)": 0.02809452898512811}}, {"type": "Feature", "geometry": {"type": "Polygon", "coordinates": [[[83.1934, 23.1191], [83.1933, 23.1181], [83.1953, 23.1172], [83.1951, 23.1169], [83.1961, 23.1164], [83.1952, 23.1144], [83.195, 23.1138], [83.1947, 23.1131], [83.1944, 23.1132], [83.194, 23.1134], [83.1937, 23.1135], [83.1932, 23.1137], [83.1926, 23.1139], [83.1922, 23.1141], [83.1919, 23.1142], [83.191, 23.1145], [83.1907, 23.1136], [83.1907, 23.1135], [83.1904, 23.1136], [83.1901, 23.1135], [83.1896, 23.1137], [83.1892, 23.1128], [83.1881, 23.113], [83.1871, 23.1132], [83.187, 23.1121], [83.1859, 23.1116], [83.1851, 23.1115], [83.1851, 23.1112], [83.1847, 23.1113], [83.1844, 23.1108], [83.1844, 23.1106], [83.1842, 23.1105], [83.1841, 23.1104], [83.1839, 23.1103], [83.1837, 23.1098], [83.1832, 23.1101], [83.1822, 23.1105], [83.1817, 23.1108], [83.1811, 23.1111], [83.1809, 23.1114], [83.1807, 23.1123], [83.1806, 23.1126], [83.1806, 23.1128], [83.1802, 23.1147], [83.181, 23.1148], [83.1819, 23.1149], [83.1831, 23.1148], [83.1832, 23.1153], [83.1832, 23.1154], [83.1834, 23.1161], [83.1836, 23.1167], [83.1839, 23.1169], [83.1841, 23.1175], [83.1843, 23.1175], [83.1844, 23.1175], [83.1845, 23.1173], [83.185, 23.1172], [83.1853, 23.117], [83.1857, 23.1169], [83.1869, 23.1164], [83.1873, 23.1162], [83.1878, 23.116], [83.1881, 23.116], [83.1884, 23.1159], [83.19, 23.1156], [83.1906, 23.1177], [83.1907, 23.1178], [83.1908, 23.1182], [83.1909, 23.1187], [83.191, 23.1191], [83.191, 23.1194], [83.1911, 23.1195], [83.1911, 23.1198], [83.1916, 23.1197], [83.1917, 23.1196], [83.1921, 23.1195], [83.1927, 23.1193], [83.1931, 23.1192], [83.1934, 23.1191]]]}, "properties": {"objectid": 4081, "statename": "Chhattisgarh", "statecode": "22", "districtname": "Surguja", "districtcode": "401", "ulbname": "Ambikapur", "ulbcode": "801927", "wardname": "Bramh Ward", "wardcode": "33", "id": null, "status": "APPROVED", "misglobalid": null, "approved_by": null, "createdate": 1639574405000, "updateddate": 1643113848000, "globalid": null, "gisglobalid": "cbdabdce-87b6-4abb-9565-5f49f4772e3d", "remark": "Ok", "st_area(shape)": 6.614338618769411e-05, "st_perimeter(shape)": 0.04869901742654229}}, {"type": "Feature", "geometry": {"type": "Polygon", "coordinates": [[[83.196, 23.1186], [83.1961, 23.1185], [83.1961, 23.1179], [83.1961, 23.1175], [83.1961, 23.117], [83.1961, 23.1165], [83.1961, 23.1164], [83.196, 23.1165], [83.1958, 23.1166], [83.1954, 23.1167], [83.1951, 23.1169], [83.1953, 23.1172], [83.195, 23.1173], [83.1946, 23.1175], [83.1939, 23.1178], [83.1933, 23.1181], [83.1934, 23.1188], [83.1934, 23.1191], [83.1935, 23.1197], [83.1937, 23.1201], [83.1939, 23.1208], [83.1943, 23.1222], [83.1947, 23.1221], [83.195, 23.122], [83.1951, 23.1217], [83.1952, 23.1214], [83.1952, 23.1213], [83.1954, 23.121], [83.1956, 23.121], [83.1956, 23.1207], [83.1958, 23.1205], [83.196, 23.1205], [83.1958, 23.1199], [83.1957, 23.1199], [83.1956, 23.1197], [83.1958, 23.1195], [83.1957, 23.1194], [83.1958, 23.1193], [83.1956, 23.1186], [83.196, 23.1186]]]}, "properties": {"objectid": 4082, "statename": "Chhattisgarh", "statecode": "22", "districtname": "Surguja", "districtcode": "401", "ulbname": "Ambikapur", "ulbcode": "801927", "wardname": "Swami Vivekanand Wad", "wardcode": "34", "id": null, "status": "APPROVED", "misglobalid": null, "approved_by": null, "createdate": 1639574533000, "updateddate": 1643113863000, "globalid": null, "gisglobalid": "9ddab3e2-d536-4266-8fda-a32c7258337f", "remark": "Ok", "st_area(shape)": 9.938200851866682e-06, "st_perimeter(shape)": 0.0154935941552495}}, {"type": "Feature", "geometry": {"type": "Polygon", "coordinates": [[[83.1981, 23.1229], [83.198, 23.1226], [83.1977, 23.1219], [83.1973, 23.1212], [83.1971, 23.1206], [83.1969, 23.1202], [83.197, 23.1201], [83.1973, 23.1198], [83.1975, 23.1195], [83.1977, 23.1191], [83.1967, 23.1189], [83.1963, 23.1188], [83.1961, 23.1185], [83.196, 23.1186], [83.1956, 23.1186], [83.1958, 23.1193], [83.1957, 23.1194], [83.1958, 23.1195], [83.1956, 23.1197], [83.1957, 23.1199], [83.1958, 23.1199], [83.196, 23.1205], [83.1958, 23.1205], [83.1956, 23.1207], [83.1956, 23.121], [83.1954, 23.121], [83.1952, 23.1213], [83.1952, 23.1214], [83.1951, 23.1218], [83.195, 23.122], [83.1947, 23.1221], [83.1943, 23.1222], [83.1944, 23.1226], [83.1946, 23.1234], [83.1948, 23.124], [83.195, 23.1243], [83.1979, 23.123], [83.1981, 23.1229]]]}, "properties": {"objectid": 4083, "statename": "Chhattisgarh", "statecode": "22", "districtname": "Surguja", "districtcode": "401", "ulbname": "Ambikapur", "ulbcode": "801927", "wardname": "Gurudwara Ward", "wardcode": "35", "id": null, "status": "APPROVED", "misglobalid": null, "approved_by": null, "createdate": 1639574664000, "updateddate": 1643113879000, "globalid": null, "gisglobalid": "2b79f1eb-1fb1-44b3-bb36-fd1b24e9e1ca", "remark": "Ok", "st_area(shape)": 1.1416582867835235e-05, "st_perimeter(shape)": 0.01728221214409082}}, {"type": "Feature", "geometry": {"type": "Polygon", "coordinates": [[[83.1983, 23.1242], [83.1989, 23.1251], [83.1992, 23.1255], [83.1993, 23.1256], [83.2, 23.125], [83.2006, 23.1246], [83.2012, 23.1241], [83.2015, 23.1239], [83.2017, 23.1245], [83.2018, 23.1247], [83.2019, 23.1249], [83.2019, 23.125], [83.2021, 23.1253], [83.2029, 23.1249], [83.2028, 23.1245], [83.2032, 23.1243], [83.2032, 23.1239], [83.2038, 23.1239], [83.2039, 23.1239], [83.2037, 23.1233], [83.2037, 23.1231], [83.2037, 23.1223], [83.2017, 23.1215], [83.2017, 23.1214], [83.2002, 23.1221], [83.1979, 23.123], [83.1983, 23.1242]]]}, "properties": {"objectid": 4084, "statename": "Chhattisgarh", "statecode": "22", "districtname": "Surguja", "districtcode": "401", "ulbname": "Ambikapur", "ulbcode": "801927", "wardname": "Mahamaya Ward", "wardcode": "36", "id": null, "status": "APPROVED", "misglobalid": null, "approved_by": null, "createdate": 1639574774000, "updateddate": 1643113906000, "globalid": null, "gisglobalid": "f6a83dcb-4561-4abf-841d-00125aaa4a62", "remark": "Ok", "st_area(shape)": 1.4640797833984468e-05, "st_perimeter(shape)": 0.017978611939980464}}, {"type": "Feature", "geometry": {"type": "Polygon", "coordinates": [[[83.2058, 23.1235], [83.2058, 23.1233], [83.206, 23.1226], [83.2064, 23.1212], [83.207, 23.119], [83.207, 23.1182], [83.2038, 23.1202], [83.2017, 23.1215], [83.2037, 23.1223], [83.2037, 23.1233], [83.2039, 23.1238], [83.2039, 23.1239], [83.2044, 23.1237], [83.2049, 23.1236], [83.2058, 23.1235]]]}, "properties": {"objectid": 4085, "statename": "Chhattisgarh", "statecode": "22", "districtname": "Surguja", "districtcode": "401", "ulbname": "Ambikapur", "ulbcode": "801927", "wardname": "Agrasen Ward", "wardcode": "37", "id": null, "status": "APPROVED", "misglobalid": null, "approved_by": null, "createdate": 1639631843000, "updateddate": 1643113893000, "globalid": null, "gisglobalid": "5e59fb90-7aba-4eb9-8bfe-f74d39bacbc0", "remark": "Ok", "st_area(shape)": 1.3797634927661937e-05, "st_perimeter(shape)": 0.017370773683369492}}, {"type": "Feature", "geometry": {"type": "Polygon", "coordinates": [[[83.2068, 23.1156], [83.2066, 23.115], [83.2056, 23.1153], [83.2052, 23.115], [83.2061, 23.1146], [83.2054, 23.1133], [83.2054, 23.1131], [83.2051, 23.1126], [83.2048, 23.1121], [83.2046, 23.1116], [83.2043, 23.1111], [83.2042, 23.1109], [83.2041, 23.1106], [83.2013, 23.1125], [83.2006, 23.113], [83.2005, 23.1126], [83.1997, 23.1113], [83.199, 23.1101], [83.1984, 23.1103], [83.1983, 23.1105], [83.1981, 23.1108], [83.1978, 23.1111], [83.1975, 23.1117], [83.197, 23.1124], [83.1965, 23.1126], [83.1963, 23.1128], [83.196, 23.1129], [83.1956, 23.113], [83.1948, 23.1133], [83.1961, 23.1164], [83.1961, 23.1165], [83.1961, 23.1177], [83.1961, 23.1185], [83.1963, 23.1188], [83.1964, 23.1188], [83.1967, 23.1189], [83.1969, 23.1189], [83.1973, 23.119], [83.1977, 23.1191], [83.2005, 23.1185], [83.2018, 23.118], [83.2013, 23.1173], [83.2027, 23.1169], [83.2039, 23.1163], [83.2053, 23.1158], [83.2068, 23.1156]]]}, "properties": {"objectid": 4086, "statename": "Chhattisgarh", "statecode": "22", "districtname": "Surguja", "districtcode": "401", "ulbname": "Ambikapur", "ulbcode": "801927", "wardname": "Dr. Zakir Husain Ward", "wardcode": "38", "id": null, "status": "APPROVED", "misglobalid": null, "approved_by": null, "createdate": 1639631862000, "updateddate": 1643113917000, "globalid": null, "gisglobalid": "5a505bd0-114c-46c4-b37d-5704e0cc3cb3", "remark": "Ok", "st_area(shape)": 6.048387044146708e-05, "st_perimeter(shape)": 0.038660915888894684}}, {"type": "Feature", "geometry": {"type": "Polygon", "coordinates": [[[83.2035, 23.1204], [83.2033, 23.1196], [83.2029, 23.1197], [83.2025, 23.1192], [83.2019, 23.1182], [83.2018, 23.118], [83.2005, 23.1185], [83.1999, 23.1186], [83.1977, 23.1191], [83.1975, 23.1195], [83.1973, 23.1198], [83.197, 23.1201], [83.1969, 23.1202], [83.197, 23.1205], [83.1973, 23.1212], [83.1976, 23.1218], [83.1981, 23.1229], [83.1987, 23.1227], [83.2001, 23.1221], [83.2017, 23.1214], [83.2017, 23.1215], [83.2021, 23.1212], [83.2035, 23.1204]]]}, "properties": {"objectid": 4096, "statename": "Chhattisgarh", "statecode": "22", "districtname": "Surguja", "districtcode": "401", "ulbname": "Ambikapur", "ulbcode": "801927", "wardname": "Rafi Ahmed Kidwai Ward", "wardcode": "39", "id": null, "status": "APPROVED", "misglobalid": null, "approved_by": null, "createdate": 1639631974000, "updateddate": 1643113928000, "globalid": null, "gisglobalid": "b8c9c1e4-2a07-4244-8441-1577f8b1b843", "remark": "Ok", "st_area(shape)": 1.866645455594747e-05, "st_perimeter(shape)": 0.017779739968608103}}, {"type": "Feature", "geometry": {"type": "Polygon", "coordinates": [[[83.2054, 23.1192], [83.207, 23.1183], [83.2073, 23.1181], [83.2071, 23.1172], [83.2069, 23.1161], [83.2068, 23.1156], [83.2067, 23.1156], [83.2053, 23.1158], [83.2049, 23.1159], [83.2039, 23.1163], [83.2027, 23.1169], [83.2019, 23.1171], [83.2013, 23.1173], [83.2018, 23.118], [83.2019, 23.1183], [83.2025, 23.1192], [83.2027, 23.1195], [83.2029, 23.1197], [83.2033, 23.1196], [83.2035, 23.1204], [83.2054, 23.1192]]]}, "properties": {"objectid": 4097, "statename": "Chhattisgarh", "statecode": "22", "districtname": "Surguja", "districtcode": "401", "ulbname": "Ambikapur", "ulbcode": "801927", "wardname": "Nawagarh Ward", "wardcode": "40", "id": null, "status": "APPROVED", "misglobalid": null, "approved_by": null, "createdate": 1639631988000, "updateddate": 1643113946000, "globalid": null, "gisglobalid": "dc1485a2-6621-4534-a903-da27bb7dafb7", "remark": "Ok", "st_area(shape)": 1.639930748440445e-05, "st_perimeter(shape)": 0.016719398574186018}}, {"type": "Feature", "geometry": {"type": "Polygon", "coordinates": [[[83.2169, 23.117], [83.216, 23.1174], [83.214, 23.1177], [83.2136, 23.1176], [83.2131, 23.1176], [83.2128, 23.1176], [83.2126, 23.1178], [83.212, 23.1178], [83.211, 23.1179], [83.2111, 23.1182], [83.2113, 23.1184], [83.2115, 23.1184], [83.2116, 23.1184], [83.212, 23.1187], [83.2125, 23.1189], [83.2128, 23.1194], [83.2131, 23.12], [83.2138, 23.1205], [83.2145, 23.1211], [83.215, 23.1211], [83.216, 23.1214], [83.2165, 23.1218], [83.2166, 23.1223], [83.2158, 23.1233], [83.216, 23.1239], [83.2171, 23.1237], [83.2174, 23.1242], [83.2181, 23.1238], [83.2187, 23.1236], [83.2192, 23.1233], [83.2198, 23.1229], [83.2203, 23.1225], [83.2207, 23.1219], [83.2209, 23.1213], [83.2212, 23.1202], [83.2214, 23.1198], [83.2214, 23.1183], [83.221, 23.117], [83.2207, 23.1165], [83.2204, 23.116], [83.2201, 23.1159], [83.2184, 23.1166], [83.2178, 23.1168], [83.2169, 23.117]]]}, "properties": {"objectid": 4098, "statename": "Chhattisgarh", "statecode": "22", "districtname": "Surguja", "districtcode": "401", "ulbname": "Ambikapur", "ulbcode": "801927", "wardname": "Shaheed Abdul Hamid Ward ", "wardcode": "41", "id": null, "status": "APPROVED", "misglobalid": null, "approved_by": null, "createdate": 1639633063000, "updateddate": 1643113968000, "globalid": null, "gisglobalid": "4ef35c49-a09d-42a4-b0b6-c55761265875", "remark": "Ok", "st_area(shape)": 4.5644060345092034e-05, "st_perimeter(shape)": 0.03136952246971918}}, {"type": "Feature", "geometry": {"type": "Polygon", "coordinates": [[[83.213, 23.1175], [83.2114, 23.1101], [83.2117, 23.1097], [83.2113, 23.1067], [83.2114, 23.105], [83.2103, 23.1059], [83.2082, 23.1047], [83.2045, 23.1089], [83.2046, 23.1095], [83.2042, 23.1104], [83.2041, 23.1106], [83.2061, 23.1146], [83.2052, 23.115], [83.2056, 23.1153], [83.2066, 23.115], [83.2069, 23.1161], [83.2071, 23.1172], [83.2073, 23.1181], [83.2077, 23.1179], [83.2092, 23.1177], [83.211, 23.1176], [83.211, 23.1177], [83.2112, 23.1177], [83.2119, 23.1178], [83.213, 23.1175]]]}, "properties": {"objectid": 4064, "statename": "Chhattisgarh", "statecode": "22", "districtname": "Surguja", "districtcode": "401", "ulbname": "Ambikapur", "ulbcode": "801927", "wardname": "Dr. Rajendra Prasad Ward", "wardcode": "42", "id": null, "status": "APPROVED", "misglobalid": null, "approved_by": null, "createdate": 1639632147000, "updateddate": 1643113979000, "globalid": null, "gisglobalid": "2c6a1ba9-b8bb-4ccd-9242-fd897ee55126", "remark": "Ok", "st_area(shape)": 7.733385249917725e-05, "st_perimeter(shape)": 0.04024094548302349}}, {"type": "Feature", "geometry": {"type": "Polygon", "coordinates": [[[83.1885, 23.1063], [83.1874, 23.1081], [83.1837, 23.1099], [83.1839, 23.1103], [83.1841, 23.1104], [83.1842, 23.1105], [83.1844, 23.1105], [83.1844, 23.1108], [83.1847, 23.1113], [83.1851, 23.1112], [83.1851, 23.1115], [83.1859, 23.1116], [83.187, 23.1121], [83.1871, 23.1132], [83.1882, 23.113], [83.1892, 23.1128], [83.1896, 23.1137], [83.1901, 23.1135], [83.1904, 23.1136], [83.1907, 23.1135], [83.1907, 23.1137], [83.1908, 23.1141], [83.191, 23.1145], [83.1913, 23.1144], [83.1916, 23.1143], [83.1919, 23.1142], [83.1922, 23.1141], [83.1922, 23.114], [83.192, 23.1136], [83.1917, 23.1133], [83.1917, 23.1129], [83.1914, 23.112], [83.1911, 23.1109], [83.1912, 23.1107], [83.1905, 23.1106], [83.1902, 23.1105], [83.1897, 23.1104], [83.1897, 23.1103], [83.1897, 23.1099], [83.1897, 23.1097], [83.1898, 23.1093], [83.1898, 23.109], [83.1898, 23.1088], [83.1895, 23.1087], [83.1894, 23.1085], [83.1892, 23.1084], [83.1891, 23.1082], [83.1891, 23.108], [83.1893, 23.1079], [83.1893, 23.1078], [83.1888, 23.1075], [83.1888, 23.1073], [83.1888, 23.107], [83.1885, 23.1063]]]}, "properties": {"objectid": 4087, "statename": "Chhattisgarh", "statecode": "22", "districtname": "Surguja", "districtcode": "401", "ulbname": "Ambikapur (M Corp.)", "ulbcode": "801927", "wardname": "Dr. Rajendra Prasad Ward", "wardcode": "43", "id": null, "status": "APPROVED", "misglobalid": null, "approved_by": "ULB Nodal Officer", "createdate": null, "updateddate": 1630062258000, "globalid": null, "gisglobalid": "0a42b017-a5ca-4b46-8888-c7d1316b2e54", "remark": "Ok", "st_area(shape)": 2.835748930300564e-05, "st_perimeter(shape)": 0.028704344138845615}}, {"type": "Feature", "geometry": {"type": "Polygon", "coordinates": [[[83.1947, 23.1131], [83.1931, 23.1095], [83.1918, 23.1065], [83.1907, 23.1056], [83.1899, 23.1045], [83.1893, 23.105], [83.1885, 23.1063], [83.1888, 23.107], [83.1888, 23.1073], [83.1888, 23.1075], [83.1889, 23.1076], [83.1893, 23.1078], [83.1893, 23.1079], [83.189, 23.108], [83.1891, 23.1082], [83.1892, 23.1084], [83.1894, 23.1085], [83.1895, 23.1087], [83.1898, 23.1088], [83.1898, 23.109], [83.1898, 23.1093], [83.1897, 23.1095], [83.1897, 23.1099], [83.1897, 23.1101], [83.1897, 23.1103], [83.1897, 23.1104], [83.1905, 23.1106], [83.1912, 23.1107], [83.1911, 23.1109], [83.1914, 23.112], [83.1917, 23.1129], [83.1917, 23.1133], [83.192, 23.1136], [83.1922, 23.1141], [83.193, 23.1138], [83.1939, 23.1135], [83.1947, 23.1131]]]}, "properties": {"objectid": 41976, "statename": "Chhattisgarh", "statecode": "22", "districtname": null, "districtcode": "401", "ulbname": "Ambikapur", "ulbcode": "801927", "wardname": "Indra Ward", "wardcode": "44", "id": null, "status": "APPROVED", "misglobalid": null, "approved_by": null, "createdate": 1638602435000, "updateddate": 1643113990000, "globalid": null, "gisglobalid": "29fc7589-ccf9-4b73-aa15-ee81fafafb3b", "remark": "Ok", "st_area(shape)": 2.565448643504798e-05, "st_perimeter(shape)": 0.02517403291954246}}, {"type": "Feature", "geometry": {"type": "Polygon", "coordinates": [[[83.2041, 23.11], [83.2039, 23.1094], [83.2036, 23.109], [83.203, 23.1075], [83.1946, 23.1015], [83.194, 23.1011], [83.1939, 23.1008], [83.1935, 23.1003], [83.1932, 23.0999], [83.1926, 23.0996], [83.192, 23.0998], [83.1916, 23.1], [83.1912, 23.1009], [83.1913, 23.1019], [83.1906, 23.1021], [83.1905, 23.1019], [83.1899, 23.102], [83.189, 23.1024], [83.1884, 23.1028], [83.1899, 23.1044], [83.1907, 23.1056], [83.1918, 23.1065], [83.1948, 23.1133], [83.1963, 23.1128], [83.197, 23.1124], [83.1974, 23.1117], [83.1981, 23.1109], [83.1984, 23.1103], [83.199, 23.1101], [83.1997, 23.1113], [83.2005, 23.1126], [83.2006, 23.113], [83.2014, 23.1124], [83.2041, 23.1106], [83.2042, 23.1104], [83.2041, 23.11]]]}, "properties": {"objectid": 37809, "statename": "Chhattisgarh", "statecode": "22", "districtname": null, "districtcode": "401", "ulbname": "Ambikapur", "ulbcode": "801927", "wardname": "Dr. Bhimrao Ambedkar Ward", "wardcode": "45", "id": null, "status": "APPROVED", "misglobalid": null, "approved_by": null, "createdate": 1638602573000, "updateddate": 1643114000000, "globalid": null, "gisglobalid": "089b1c8d-9dfe-421d-b467-4d2a6c1bd5d8", "remark": "Ok", "st_area(shape)": 0.00010161767512466494, "st_perimeter(shape)": 0.04854690367384984}}, {"type": "Feature", "geometry": {"type": "Polygon", "coordinates": [[[83.1899, 23.1044], [83.1883, 23.1028], [83.189, 23.1024], [83.1899, 23.102], [83.1905, 23.1019], [83.1906, 23.1021], [83.1913, 23.1019], [83.1912, 23.1009], [83.1916, 23.1], [83.192, 23.0998], [83.1927, 23.0996], [83.1932, 23.0999], [83.1936, 23.1005], [83.1939, 23.1008], [83.194, 23.1011], [83.1946, 23.1015], [83.1958, 23.101], [83.1974, 23.0997], [83.1974, 23.0988], [83.198, 23.0977], [83.198, 23.0962], [83.1985, 23.0958], [83.1998, 23.0951], [83.2006, 23.0952], [83.2014, 23.0954], [83.2021, 23.0956], [83.2031, 23.0953], [83.2032, 23.0946], [83.2029, 23.0935], [83.2026, 23.0932], [83.202, 23.0932], [83.2011, 23.0936], [83.2008, 23.0937], [83.2005, 23.0934], [83.2008, 23.0927], [83.2003, 23.0927], [83.1999, 23.093], [83.1993, 23.0929], [83.1987, 23.0932], [83.1983, 23.0931], [83.1972, 23.0931], [83.1962, 23.0928], [83.1956, 23.093], [83.1948, 23.092], [83.1953, 23.0919], [83.1957, 23.0915], [83.1959, 23.0908], [83.1957, 23.0903], [83.1938, 23.0901], [83.1923, 23.0915], [83.1911, 23.0911], [83.1888, 23.0902], [83.1881, 23.0896], [83.1872, 23.0895], [83.1857, 23.0891], [83.1855, 23.0886], [83.1849, 23.0882], [83.1846, 23.0876], [83.184, 23.0874], [83.1833, 23.0856], [83.1841, 23.0843], [83.1831, 23.0839], [83.183, 23.0832], [83.1826, 23.0825], [83.1823, 23.0823], [83.181, 23.0826], [83.1805, 23.0824], [83.1799, 23.0814], [83.1793, 23.0812], [83.1792, 23.0806], [83.1784, 23.0801], [83.1781, 23.0795], [83.1776, 23.0794], [83.1772, 23.0799], [83.1767, 23.0801], [83.1766, 23.0799], [83.1751, 23.0801], [83.1742, 23.08], [83.1734, 23.0797], [83.1729, 23.0802], [83.1725, 23.0808], [83.173, 23.0817], [83.1712, 23.0824], [83.171, 23.0838], [83.1723, 23.0855], [83.1724, 23.0877], [83.173, 23.0888], [83.1743, 23.0909], [83.176, 23.0916], [83.1768, 23.093], [83.1754, 23.0939], [83.1751, 23.0945], [83.1755, 23.0954], [83.1762, 23.0962], [83.1764, 23.0988], [83.1773, 23.0998], [83.1783, 23.1026], [83.1794, 23.1032], [83.1801, 23.1035], [83.1815, 23.1032], [83.1838, 23.1025], [83.1841, 23.1033], [83.186, 23.1056], [83.1885, 23.1063], [83.1893, 23.105], [83.1899, 23.1044]]]}, "properties": {"objectid": 41977, "statename": "Chhattisgarh", "statecode": "22", "districtname": null, "districtcode": "401", "ulbname": "Ambikapur", "ulbcode": "801927", "wardname": "Saint Gahira Guru Ward", "wardcode": "46", "id": null, "status": "APPROVED", "misglobalid": null, "approved_by": null, "createdate": 1638602676000, "updateddate": 1643114010000, "globalid": null, "gisglobalid": "4219fdc9-ffe7-400d-aa85-736161ed5015", "remark": "Ok", "st_area(shape)": 0.00038250130299765, "st_perimeter(shape)": 0.11283317879453238}}, {"type": "Feature", "geometry": {"type": "Polygon", "coordinates": [[[83.1673, 23.1151], [83.1677, 23.1167], [83.1683, 23.1165], [83.1687, 23.1166], [83.1694, 23.1164], [83.1707, 23.1161], [83.1708, 23.116], [83.172, 23.1157], [83.173, 23.1157], [83.1733, 23.1159], [83.1736, 23.1154], [83.1746, 23.1151], [83.1749, 23.1151], [83.175, 23.1164], [83.1754, 23.1161], [83.1756, 23.1159], [83.1757, 23.1157], [83.1757, 23.1152], [83.1759, 23.1149], [83.1761, 23.1147], [83.1769, 23.1146], [83.1774, 23.1145], [83.1778, 23.1144], [83.1785, 23.1144], [83.1787, 23.1145], [83.1793, 23.1146], [83.1798, 23.1147], [83.1802, 23.1147], [83.1806, 23.1128], [83.1806, 23.1126], [83.1809, 23.1114], [83.1811, 23.1111], [83.1818, 23.1107], [83.1825, 23.1104], [83.1837, 23.1098], [83.1855, 23.109], [83.1856, 23.1089], [83.1857, 23.1089], [83.1874, 23.1081], [83.1876, 23.1078], [83.188, 23.1071], [83.1885, 23.1063], [83.1876, 23.106], [83.186, 23.1056], [83.1852, 23.1047], [83.1841, 23.1033], [83.1838, 23.1025], [83.1828, 23.1028], [83.1815, 23.1032], [83.1801, 23.1035], [83.1794, 23.1032], [83.1788, 23.1029], [83.1783, 23.1027], [83.1777, 23.101], [83.1777, 23.1009], [83.1773, 23.0998], [83.1772, 23.0997], [83.1767, 23.0992], [83.1764, 23.0988], [83.1763, 23.0995], [83.176, 23.0997], [83.1759, 23.1001], [83.1759, 23.1003], [83.176, 23.1007], [83.1764, 23.1009], [83.1763, 23.1011], [83.1762, 23.1016], [83.1754, 23.1023], [83.175, 23.1027], [83.1752, 23.1035], [83.1754, 23.1042], [83.175, 23.1048], [83.1752, 23.1053], [83.1751, 23.1064], [83.1748, 23.1067], [83.1731, 23.1083], [83.1724, 23.1096], [83.1717, 23.1098], [83.1717, 23.1102], [83.1719, 23.1109], [83.1703, 23.1105], [83.1686, 23.1108], [83.1681, 23.1117], [83.1672, 23.112], [83.1668, 23.1127], [83.1663, 23.1149], [83.1673, 23.1151]]]}, "properties": {"objectid": 43252, "statename": "Chhattisgarh", "statecode": "22", "districtname": null, "districtcode": "401", "ulbname": "Ambikapur", "ulbcode": "801927", "wardname": "Gangapur Ward", "wardcode": "47", "id": null, "status": "APPROVED", "misglobalid": null, "approved_by": null, "createdate": 1638602769000, "updateddate": 1643114025000, "globalid": null, "gisglobalid": "be8820a0-5b56-4b81-a1c5-d52df6a989d8", "remark": "Ok", "st_area(shape)": 0.0001613203013364169, "st_perimeter(shape)": 0.07072505306995608}}, {"type": "Feature", "geometry": {"type": "Polygon", "coordinates": [[[83.1629, 23.1356], [83.1628, 23.1344], [83.1625, 23.1343], [83.1623, 23.1339], [83.1632, 23.1334], [83.1633, 23.1329], [83.1627, 23.1327], [83.1626, 23.1318], [83.1634, 23.1307], [83.1639, 23.1304], [83.1654, 23.1295], [83.1665, 23.1287], [83.1666, 23.1278], [83.168, 23.1267], [83.1685, 23.1252], [83.168, 23.1239], [83.1677, 23.1235], [83.1672, 23.1228], [83.1679, 23.1217], [83.1685, 23.1207], [83.1692, 23.12], [83.1698, 23.1186], [83.1691, 23.1179], [83.1685, 23.1175], [83.1672, 23.1174], [83.1673, 23.1169], [83.1677, 23.1167], [83.1676, 23.1161], [83.1673, 23.1151], [83.1663, 23.1149], [83.1658, 23.1151], [83.1651, 23.1157], [83.1647, 23.1164], [83.1624, 23.1161], [83.1613, 23.1161], [83.1606, 23.1155], [83.1599, 23.1147], [83.1588, 23.1148], [83.1576, 23.115], [83.1567, 23.1149], [83.1558, 23.1154], [83.1554, 23.116], [83.1555, 23.1163], [83.1563, 23.1195], [83.1571, 23.1225], [83.1565, 23.1232], [83.1557, 23.1239], [83.1562, 23.1251], [83.1556, 23.1258], [83.1555, 23.1264], [83.1562, 23.1272], [83.1556, 23.129], [83.1556, 23.1303], [83.1564, 23.1332], [83.1567, 23.1351], [83.1563, 23.1352], [83.1565, 23.1358], [83.1572, 23.1362], [83.1574, 23.1377], [83.1573, 23.1386], [83.1574, 23.1395], [83.1591, 23.1395], [83.1586, 23.1376], [83.159, 23.1365], [83.1609, 23.1361], [83.1629, 23.1356]]]}, "properties": {"objectid": 4100, "statename": "Chhattisgarh", "statecode": "22", "districtname": "Surguja", "districtcode": "401", "ulbname": "Ambikapur (M Corp.)", "ulbcode": "801927", "wardname": "Bishunpur Ward", "wardcode": "48", "id": null, "status": "APPROVED", "misglobalid": null, "approved_by": "ULB Nodal Officer", "createdate": null, "updateddate": 1629866148000, "globalid": null, "gisglobalid": "366fdf2c-5496-4438-a116-ff983693e3b0", "remark": "Ok", "st_area(shape)": 0.0002180854684762528, "st_perimeter(shape)": 0.07600866482140753}}]}
