{"type": "FeatureCollection", "features": [{"type": "Feature", "geometry": {"type": "Polygon", "coordinates": [[[74.8759, 12.8101], [74.8757, 12.8104], [74.8757, 12.8105], [74.8756, 12.8106], [74.8757, 12.8107], [74.8757, 12.8109], [74.8757, 12.811], [74.8757, 12.8111], [74.8757, 12.8112], [74.8757, 12.8113], [74.8759, 12.8114], [74.8759, 12.8116], [74.8759, 12.8117], [74.876, 12.8119], [74.876, 12.8121], [74.876, 12.8123], [74.8759, 12.8125], [74.8759, 12.8127], [74.8758, 12.8128], [74.8759, 12.8131], [74.876, 12.8132], [74.8761, 12.8135], [74.8762, 12.8136], [74.8763, 12.8138], [74.8763, 12.8141], [74.8765, 12.8143], [74.8766, 12.8144], [74.8767, 12.8145], [74.8768, 12.8147], [74.8768, 12.8148], [74.8769, 12.8149], [74.8769, 12.815], [74.8771, 12.8151], [74.8773, 12.8152], [74.8774, 12.8152], [74.8775, 12.8153], [74.8776, 12.8154], [74.8777, 12.8155], [74.8776, 12.8156], [74.8775, 12.8158], [74.8774, 12.816], [74.8772, 12.8162], [74.8772, 12.8163], [74.8771, 12.8164], [74.8771, 12.8167], [74.8771, 12.817], [74.8771, 12.8173], [74.877, 12.8174], [74.8769, 12.8176], [74.8769, 12.8177], [74.877, 12.8181], [74.8774, 12.8184], [74.8787, 12.8192], [74.8789, 12.8193], [74.879, 12.8193], [74.8791, 12.8194], [74.8792, 12.8194], [74.8792, 12.8195], [74.88, 12.8199], [74.8796, 12.8191], [74.8795, 12.8189], [74.8793, 12.8185], [74.8792, 12.8183], [74.8784, 12.8166], [74.8781, 12.8161], [74.8782, 12.8157], [74.8784, 12.815], [74.8786, 12.8149], [74.8787, 12.8148], [74.8788, 12.8148], [74.8799, 12.8148], [74.8801, 12.8149], [74.8811, 12.8132], [74.8811, 12.8131], [74.8803, 12.8126], [74.8799, 12.8122], [74.8792, 12.8117], [74.8789, 12.8114], [74.8779, 12.8107], [74.8769, 12.8104], [74.8759, 12.8102], [74.8759, 12.8101]]]}, "properties": {"objectid": 135029, "statename": "Karnataka", "statecode": "29", "districtname": "", "districtcode": "575", "ulbname": "Someshwara", "ulbcode": "900608", "wardname": "Ward 1", "wardcode": "1", "id": null, "status": "APPROVED", "misglobalid": null, "approved_by": null, "createdate": 1644072321000, "updateddate": 1644996435000, "globalid": null, "gisglobalid": "QmdB4Bo4-K5oP-PBBs-Q4cs-mK6BcPnBdd66", "remark": "Approved", "st_area(shape)": 2.291364759578436e-05, "st_perimeter(shape)": 0.02784354642856936}}, {"type": "Feature", "geometry": {"type": "Polygon", "coordinates": [[[74.8767, 12.8145], [74.8763, 12.8149], [74.8762, 12.815], [74.8761, 12.8151], [74.8762, 12.8152], [74.8762, 12.8153], [74.8762, 12.8154], [74.8761, 12.8154], [74.876, 12.8156], [74.8759, 12.8157], [74.8759, 12.8158], [74.8758, 12.816], [74.8758, 12.8164], [74.8757, 12.8163], [74.8756, 12.8163], [74.8754, 12.8162], [74.8751, 12.8162], [74.8748, 12.8162], [74.8746, 12.8161], [74.8745, 12.8161], [74.8745, 12.816], [74.8743, 12.8159], [74.8742, 12.8157], [74.8741, 12.8155], [74.8741, 12.8154], [74.874, 12.8153], [74.8739, 12.8153], [74.8738, 12.8153], [74.8737, 12.8153], [74.8734, 12.8153], [74.8731, 12.8154], [74.8726, 12.8156], [74.8725, 12.8166], [74.8728, 12.8167], [74.8733, 12.8167], [74.8736, 12.8167], [74.8741, 12.8167], [74.8743, 12.8168], [74.8746, 12.817], [74.8757, 12.8175], [74.8766, 12.8179], [74.877, 12.8181], [74.8769, 12.8177], [74.8769, 12.8176], [74.877, 12.8174], [74.8771, 12.8173], [74.8771, 12.817], [74.8771, 12.8167], [74.8771, 12.8164], [74.8772, 12.8163], [74.8772, 12.8162], [74.8774, 12.816], [74.8775, 12.8158], [74.8776, 12.8156], [74.8777, 12.8155], [74.8776, 12.8154], [74.8775, 12.8153], [74.8774, 12.8152], [74.8773, 12.8152], [74.8771, 12.8151], [74.8769, 12.815], [74.8769, 12.8149], [74.8768, 12.8148], [74.8768, 12.8147], [74.8767, 12.8145]]]}, "properties": {"objectid": 135819, "statename": "Karnataka", "statecode": "29", "districtname": "", "districtcode": "575", "ulbname": "Someshwara", "ulbcode": "900608", "wardname": "Ward 2", "wardcode": "2", "id": null, "status": "APPROVED", "misglobalid": null, "approved_by": null, "createdate": 1644072321000, "updateddate": 1644996509000, "globalid": null, "gisglobalid": "aoacmala-6oll-PRRK-sn6a-aRoKd6danRm5", "remark": "Approved", "st_area(shape)": 7.726939963565901e-06, "st_perimeter(shape)": 0.01616569712305022}}, {"type": "Feature", "geometry": {"type": "Polygon", "coordinates": [[[74.8767, 12.8145], [74.8766, 12.8144], [74.8765, 12.8143], [74.8763, 12.8141], [74.8763, 12.8138], [74.8762, 12.8136], [74.8761, 12.8135], [74.876, 12.8132], [74.8743, 12.813], [74.8743, 12.8128], [74.8745, 12.8116], [74.8745, 12.8113], [74.8737, 12.8114], [74.8733, 12.8115], [74.8727, 12.8114], [74.8726, 12.8115], [74.8719, 12.8114], [74.8715, 12.8114], [74.8699, 12.811], [74.8699, 12.8111], [74.8701, 12.8111], [74.8702, 12.8113], [74.8704, 12.8119], [74.8706, 12.8122], [74.8707, 12.8125], [74.8709, 12.8132], [74.8717, 12.8148], [74.8718, 12.8147], [74.8719, 12.8147], [74.8721, 12.8147], [74.8722, 12.8147], [74.8724, 12.8146], [74.8725, 12.8146], [74.8726, 12.8146], [74.8726, 12.8148], [74.8726, 12.8155], [74.8726, 12.8156], [74.8731, 12.8154], [74.8734, 12.8153], [74.8737, 12.8153], [74.8738, 12.8153], [74.8739, 12.8153], [74.874, 12.8153], [74.8741, 12.8154], [74.8741, 12.8155], [74.8742, 12.8157], [74.8743, 12.8159], [74.8745, 12.816], [74.8745, 12.8161], [74.8746, 12.8161], [74.8748, 12.8162], [74.8751, 12.8162], [74.8754, 12.8162], [74.8756, 12.8163], [74.8757, 12.8163], [74.8758, 12.8164], [74.8758, 12.816], [74.8759, 12.8158], [74.8759, 12.8157], [74.876, 12.8156], [74.8761, 12.8154], [74.8762, 12.8154], [74.8762, 12.8153], [74.8762, 12.8152], [74.8761, 12.8151], [74.8762, 12.815], [74.8763, 12.8149], [74.8767, 12.8145]]]}, "properties": {"objectid": 135026, "statename": "Karnataka", "statecode": "29", "districtname": "", "districtcode": "575", "ulbname": "Someshwara", "ulbcode": "900608", "wardname": "Ward 3", "wardcode": "3", "id": null, "status": "APPROVED", "misglobalid": null, "approved_by": null, "createdate": 1644072321000, "updateddate": 1644996523000, "globalid": null, "gisglobalid": "sasnlK6s-KRaB-PnsP-RQP6-KmaBsnoaaKRn", "remark": "Approved", "st_area(shape)": 1.8522742814861074e-05, "st_perimeter(shape)": 0.021727999748334274}}, {"type": "Feature", "geometry": {"type": "Polygon", "coordinates": [[[74.8726, 12.8156], [74.8726, 12.8155], [74.8726, 12.8148], [74.8726, 12.8146], [74.8725, 12.8146], [74.8724, 12.8146], [74.8722, 12.8147], [74.8721, 12.8147], [74.8719, 12.8147], [74.8718, 12.8147], [74.8717, 12.8148], [74.8709, 12.8132], [74.8707, 12.8125], [74.8706, 12.8122], [74.8704, 12.8119], [74.8702, 12.8113], [74.8701, 12.8111], [74.8699, 12.8111], [74.8698, 12.8112], [74.8698, 12.8114], [74.8697, 12.8117], [74.8696, 12.8119], [74.8695, 12.8119], [74.8694, 12.8118], [74.8693, 12.8118], [74.8692, 12.8116], [74.869, 12.8115], [74.8688, 12.8115], [74.8687, 12.8114], [74.8685, 12.8114], [74.8684, 12.8114], [74.8684, 12.8115], [74.8683, 12.8117], [74.8681, 12.8117], [74.868, 12.8118], [74.8679, 12.8119], [74.8678, 12.8119], [74.8677, 12.8121], [74.8676, 12.8123], [74.8673, 12.8126], [74.867, 12.8133], [74.8666, 12.8139], [74.8662, 12.8145], [74.866, 12.8146], [74.8658, 12.815], [74.8665, 12.8154], [74.8669, 12.8157], [74.867, 12.8157], [74.8671, 12.8158], [74.8679, 12.8163], [74.8681, 12.8163], [74.8682, 12.8163], [74.8694, 12.8164], [74.8698, 12.8166], [74.8707, 12.8166], [74.8708, 12.8166], [74.8717, 12.8166], [74.8718, 12.8166], [74.8721, 12.8166], [74.8725, 12.8166], [74.8726, 12.8156]]]}, "properties": {"objectid": 135034, "statename": "Karnataka", "statecode": "29", "districtname": "", "districtcode": "575", "ulbname": "Someshwara", "ulbcode": "900608", "wardname": "Ward 4", "wardcode": "4", "id": null, "status": "APPROVED", "misglobalid": null, "approved_by": null, "createdate": 1644072321000, "updateddate": 1644996535000, "globalid": null, "gisglobalid": "BB4P6mKl-acnQ-PPRa-Qol6-dmd65oladm4n", "remark": "Approved", "st_area(shape)": 2.2822160759121597e-05, "st_perimeter(shape)": 0.021044945570305344}}, {"type": "Feature", "geometry": {"type": "Polygon", "coordinates": [[[74.8759, 12.8101], [74.8759, 12.8097], [74.875, 12.8095], [74.8749, 12.8094], [74.8748, 12.8097], [74.8746, 12.8097], [74.8742, 12.8097], [74.8735, 12.8098], [74.8733, 12.8099], [74.8722, 12.81], [74.8719, 12.8099], [74.8718, 12.8097], [74.8714, 12.8098], [74.8711, 12.8097], [74.8708, 12.8096], [74.8702, 12.8094], [74.8698, 12.81], [74.8695, 12.8106], [74.8692, 12.8113], [74.8692, 12.8116], [74.8693, 12.8118], [74.8694, 12.8118], [74.8695, 12.8119], [74.8696, 12.8119], [74.8697, 12.8117], [74.8698, 12.8114], [74.8698, 12.8112], [74.8699, 12.8111], [74.8699, 12.811], [74.8715, 12.8114], [74.8719, 12.8114], [74.8726, 12.8115], [74.8727, 12.8114], [74.8733, 12.8115], [74.8737, 12.8114], [74.8745, 12.8113], [74.8745, 12.8116], [74.8743, 12.8128], [74.8743, 12.813], [74.876, 12.8132], [74.8759, 12.8131], [74.8758, 12.8128], [74.8759, 12.8127], [74.8759, 12.8125], [74.876, 12.8123], [74.876, 12.8121], [74.876, 12.8119], [74.8759, 12.8117], [74.8759, 12.8116], [74.8759, 12.8114], [74.8757, 12.8113], [74.8757, 12.8112], [74.8757, 12.8111], [74.8757, 12.811], [74.8757, 12.8109], [74.8757, 12.8107], [74.8756, 12.8106], [74.8757, 12.8105], [74.8757, 12.8104], [74.8759, 12.8101]]]}, "properties": {"objectid": 135028, "statename": "Karnataka", "statecode": "29", "districtname": "", "districtcode": "575", "ulbname": "Someshwara", "ulbcode": "900608", "wardname": "Ward 5", "wardcode": "5", "id": null, "status": "APPROVED", "misglobalid": null, "approved_by": null, "createdate": 1644072321000, "updateddate": 1644996549000, "globalid": null, "gisglobalid": "6s5cQPa4-BlPl-Paao-R6cn-cQP6oPnlsKsn", "remark": "Approved", "st_area(shape)": 1.2812214825727906e-05, "st_perimeter(shape)": 0.02211923652599308}}, {"type": "Feature", "geometry": {"type": "Polygon", "coordinates": [[[74.8759, 12.8097], [74.8759, 12.8091], [74.8759, 12.8081], [74.8759, 12.8072], [74.8759, 12.8057], [74.876, 12.8057], [74.8766, 12.8052], [74.8764, 12.8049], [74.8762, 12.8048], [74.8759, 12.8047], [74.8755, 12.8047], [74.8753, 12.8047], [74.8749, 12.8048], [74.8744, 12.8051], [74.874, 12.8052], [74.8736, 12.8052], [74.873, 12.8052], [74.8722, 12.8052], [74.8712, 12.8051], [74.8711, 12.8052], [74.8708, 12.8073], [74.8708, 12.8075], [74.8709, 12.8076], [74.871, 12.8079], [74.871, 12.8082], [74.8711, 12.8084], [74.8711, 12.8086], [74.8711, 12.8089], [74.8714, 12.8097], [74.8714, 12.8098], [74.8718, 12.8097], [74.8719, 12.8099], [74.8722, 12.81], [74.8733, 12.8099], [74.8735, 12.8098], [74.8742, 12.8097], [74.8746, 12.8097], [74.8748, 12.8097], [74.8749, 12.8094], [74.875, 12.8095], [74.8759, 12.8097]]]}, "properties": {"objectid": 135027, "statename": "Karnataka", "statecode": "29", "districtname": "", "districtcode": "575", "ulbname": "Someshwara", "ulbcode": "900608", "wardname": "Ward 6", "wardcode": "6", "id": null, "status": "APPROVED", "misglobalid": null, "approved_by": null, "createdate": 1644072321000, "updateddate": 1644996561000, "globalid": null, "gisglobalid": "dcmnlKnc-P4a4-PsP4-ao44-nQalm4o4c45P", "remark": "Approved", "st_area(shape)": 2.328399324036486e-05, "st_perimeter(shape)": 0.020281532629611423}}, {"type": "Feature", "geometry": {"type": "Polygon", "coordinates": [[[74.8753, 12.8047], [74.8755, 12.8047], [74.8759, 12.8047], [74.8762, 12.8048], [74.8764, 12.8049], [74.8766, 12.8052], [74.8767, 12.8051], [74.8774, 12.8045], [74.8773, 12.8042], [74.8772, 12.8042], [74.8773, 12.804], [74.8773, 12.8039], [74.8774, 12.8038], [74.8781, 12.8042], [74.8785, 12.804], [74.8789, 12.8037], [74.8791, 12.8035], [74.8791, 12.8031], [74.8795, 12.8026], [74.88, 12.8025], [74.8803, 12.8023], [74.8803, 12.8019], [74.8803, 12.8017], [74.8803, 12.8016], [74.8803, 12.8015], [74.8804, 12.801], [74.8798, 12.801], [74.8796, 12.8009], [74.8795, 12.8009], [74.8792, 12.8009], [74.8787, 12.8009], [74.8784, 12.8018], [74.8783, 12.8018], [74.8781, 12.8023], [74.8778, 12.8026], [74.8773, 12.8032], [74.8765, 12.8024], [74.8763, 12.8026], [74.8759, 12.8021], [74.8761, 12.8019], [74.8763, 12.8017], [74.8767, 12.8013], [74.8769, 12.8016], [74.877, 12.8015], [74.8771, 12.8014], [74.8771, 12.8013], [74.8767, 12.8005], [74.8763, 12.8009], [74.8759, 12.8015], [74.8757, 12.8017], [74.8756, 12.8018], [74.8752, 12.8013], [74.8751, 12.8013], [74.8751, 12.801], [74.8751, 12.8005], [74.8751, 12.8004], [74.8751, 12.8003], [74.8745, 12.7999], [74.8741, 12.7997], [74.874, 12.7999], [74.8739, 12.7999], [74.8736, 12.8004], [74.8735, 12.8006], [74.8733, 12.8007], [74.8733, 12.8009], [74.8732, 12.8009], [74.8732, 12.801], [74.8731, 12.801], [74.8729, 12.8011], [74.8728, 12.8011], [74.8721, 12.801], [74.8716, 12.8028], [74.8715, 12.8034], [74.8714, 12.8036], [74.8713, 12.8045], [74.8712, 12.8048], [74.8712, 12.8051], [74.8722, 12.8052], [74.873, 12.8052], [74.8736, 12.8052], [74.874, 12.8052], [74.8744, 12.8051], [74.8749, 12.8048], [74.8753, 12.8047]]]}, "properties": {"objectid": 134240, "statename": "Karnataka", "statecode": "29", "districtname": "", "districtcode": "575", "ulbname": "Someshwara", "ulbcode": "900608", "wardname": "Ward 7", "wardcode": "7", "id": null, "status": "APPROVED", "misglobalid": null, "approved_by": null, "createdate": 1644250833000, "updateddate": 1644996582000, "globalid": null, "gisglobalid": "dc6RQnKa-cPBd-P5Rs-Ro5Q-Ba5KKK5od4sB", "remark": "Approved", "st_area(shape)": 2.806238520901242e-05, "st_perimeter(shape)": 0.033862698207616775}}, {"type": "Feature", "geometry": {"type": "Polygon", "coordinates": [[[74.8753, 12.8047], [74.8755, 12.8047], [74.8759, 12.8047], [74.8762, 12.8048], [74.8764, 12.8049], [74.8766, 12.8052], [74.8767, 12.8051], [74.8774, 12.8045], [74.8773, 12.8042], [74.8772, 12.8042], [74.8773, 12.804], [74.8773, 12.8039], [74.8774, 12.8038], [74.8781, 12.8042], [74.8785, 12.804], [74.8789, 12.8037], [74.8791, 12.8035], [74.8791, 12.8031], [74.8795, 12.8026], [74.88, 12.8025], [74.8803, 12.8023], [74.8803, 12.8019], [74.8803, 12.8017], [74.8803, 12.8016], [74.8803, 12.8015], [74.8804, 12.801], [74.8798, 12.801], [74.8796, 12.8009], [74.8795, 12.8009], [74.8792, 12.8009], [74.8787, 12.8009], [74.8784, 12.8018], [74.8783, 12.8018], [74.8781, 12.8023], [74.8778, 12.8026], [74.8773, 12.8032], [74.8765, 12.8024], [74.8763, 12.8026], [74.8759, 12.8021], [74.8761, 12.8019], [74.8763, 12.8017], [74.8767, 12.8013], [74.8769, 12.8016], [74.877, 12.8015], [74.8771, 12.8014], [74.8771, 12.8013], [74.8767, 12.8005], [74.8763, 12.8009], [74.8759, 12.8015], [74.8757, 12.8017], [74.8756, 12.8018], [74.8752, 12.8013], [74.8751, 12.8013], [74.8751, 12.801], [74.8751, 12.8005], [74.8751, 12.8004], [74.8751, 12.8003], [74.8745, 12.7999], [74.8741, 12.7997], [74.874, 12.7999], [74.8739, 12.7999], [74.8736, 12.8004], [74.8735, 12.8006], [74.8733, 12.8007], [74.8733, 12.8009], [74.8732, 12.8009], [74.8732, 12.801], [74.8731, 12.801], [74.8729, 12.8011], [74.8728, 12.8011], [74.8721, 12.801], [74.8716, 12.8028], [74.8715, 12.8034], [74.8714, 12.8036], [74.8713, 12.8045], [74.8712, 12.8048], [74.8712, 12.8051], [74.8722, 12.8052], [74.873, 12.8052], [74.8736, 12.8052], [74.874, 12.8052], [74.8744, 12.8051], [74.8749, 12.8048], [74.8753, 12.8047]]]}, "properties": {"objectid": 138144, "statename": "Karnataka", "statecode": "29", "districtname": "", "districtcode": "575", "ulbname": "Someshwara", "ulbcode": "900608", "wardname": "Ward 7", "wardcode": "7", "id": null, "status": "APPROVED", "misglobalid": null, "approved_by": null, "createdate": 1644243536000, "updateddate": 1644996573000, "globalid": null, "gisglobalid": "md4R46R5-Pmlm-Pll4-RddK-KlKQPB6ds6Qa", "remark": "Approved", "st_area(shape)": 2.806238520901242e-05, "st_perimeter(shape)": 0.033862698207616775}}, {"type": "Feature", "geometry": {"type": "Polygon", "coordinates": [[[74.8692, 12.8116], [74.8692, 12.8113], [74.8695, 12.8106], [74.8698, 12.81], [74.8702, 12.8094], [74.8708, 12.8096], [74.8711, 12.8097], [74.8714, 12.8098], [74.8714, 12.8097], [74.8711, 12.8089], [74.8711, 12.8086], [74.8711, 12.8084], [74.871, 12.8082], [74.871, 12.8079], [74.8709, 12.8076], [74.8708, 12.8075], [74.8708, 12.8073], [74.8706, 12.8063], [74.8703, 12.8051], [74.8691, 12.8051], [74.8682, 12.8052], [74.8669, 12.8054], [74.8663, 12.8055], [74.8657, 12.8057], [74.8653, 12.8058], [74.8654, 12.8059], [74.8656, 12.8063], [74.8661, 12.8069], [74.8664, 12.8072], [74.8667, 12.8073], [74.8669, 12.8075], [74.8671, 12.8075], [74.8673, 12.8076], [74.8675, 12.8076], [74.8676, 12.8077], [74.8677, 12.8078], [74.8679, 12.8079], [74.8681, 12.808], [74.8682, 12.8081], [74.8683, 12.8082], [74.8682, 12.8082], [74.8681, 12.8084], [74.868, 12.8085], [74.8678, 12.8087], [74.8677, 12.8089], [74.8676, 12.8091], [74.8676, 12.8093], [74.8675, 12.8094], [74.8674, 12.8095], [74.8673, 12.8096], [74.8672, 12.8097], [74.8672, 12.8098], [74.8671, 12.8099], [74.8671, 12.81], [74.8672, 12.8101], [74.8673, 12.8102], [74.8674, 12.8103], [74.8674, 12.8105], [74.8677, 12.8105], [74.8678, 12.8106], [74.8679, 12.8107], [74.868, 12.811], [74.8679, 12.8112], [74.8679, 12.8114], [74.8679, 12.8119], [74.868, 12.8118], [74.8681, 12.8117], [74.8683, 12.8117], [74.8684, 12.8115], [74.8684, 12.8114], [74.8685, 12.8114], [74.8687, 12.8114], [74.8688, 12.8115], [74.869, 12.8115], [74.8692, 12.8116]]]}, "properties": {"objectid": 135821, "statename": "Karnataka", "statecode": "29", "districtname": "", "districtcode": "575", "ulbname": "Someshwara", "ulbcode": "900608", "wardname": "Ward 8", "wardcode": "8", "id": null, "status": "APPROVED", "misglobalid": null, "approved_by": null, "createdate": 1644072321000, "updateddate": 1644996591000, "globalid": null, "gisglobalid": "aRB5msPn-n5al-PK5s-aBKc-oaK4Raaod4B5", "remark": "Approved", "st_area(shape)": 2.1442301733320955e-05, "st_perimeter(shape)": 0.023708641457281573}}, {"type": "Feature", "geometry": {"type": "Polygon", "coordinates": [[[74.8673, 12.8126], [74.867, 12.8125], [74.8667, 12.8124], [74.8663, 12.812], [74.8662, 12.8117], [74.8661, 12.8114], [74.8659, 12.8111], [74.8658, 12.8108], [74.8656, 12.8106], [74.8654, 12.8105], [74.8651, 12.8104], [74.8649, 12.8103], [74.8647, 12.8102], [74.8644, 12.81], [74.8642, 12.8099], [74.8639, 12.8098], [74.8637, 12.8097], [74.8634, 12.8095], [74.8632, 12.8094], [74.863, 12.8093], [74.8627, 12.8091], [74.8622, 12.8086], [74.8614, 12.808], [74.8609, 12.8072], [74.8608, 12.8069], [74.8606, 12.8063], [74.8605, 12.8059], [74.8604, 12.8058], [74.8602, 12.8058], [74.8599, 12.8059], [74.8597, 12.806], [74.8594, 12.806], [74.8593, 12.8061], [74.8592, 12.8061], [74.859, 12.8063], [74.8589, 12.8063], [74.8588, 12.8064], [74.8585, 12.8066], [74.8583, 12.8067], [74.8582, 12.8069], [74.8582, 12.807], [74.8583, 12.8073], [74.8583, 12.8075], [74.8581, 12.8076], [74.858, 12.8076], [74.8578, 12.8076], [74.8578, 12.8077], [74.8576, 12.8078], [74.8573, 12.8079], [74.8574, 12.8086], [74.8575, 12.8087], [74.8577, 12.8087], [74.8588, 12.8088], [74.859, 12.8085], [74.8599, 12.8091], [74.8605, 12.8095], [74.8613, 12.81], [74.8617, 12.8102], [74.8616, 12.8104], [74.8614, 12.8109], [74.8623, 12.8114], [74.8632, 12.8119], [74.8637, 12.8123], [74.8641, 12.8131], [74.8643, 12.8137], [74.8644, 12.8139], [74.8646, 12.8143], [74.8646, 12.8144], [74.8648, 12.8144], [74.8649, 12.8144], [74.8653, 12.8147], [74.8654, 12.8147], [74.8657, 12.815], [74.8658, 12.815], [74.866, 12.8146], [74.8662, 12.8145], [74.8666, 12.8139], [74.867, 12.8133], [74.8673, 12.8126]]]}, "properties": {"objectid": 135820, "statename": "Karnataka", "statecode": "29", "districtname": "", "districtcode": "575", "ulbname": "Someshwara", "ulbcode": "900608", "wardname": "Ward 9", "wardcode": "9", "id": null, "status": "APPROVED", "misglobalid": null, "approved_by": null, "createdate": 1644072321000, "updateddate": 1644996602000, "globalid": null, "gisglobalid": "KnKPsolQ-aa4R-P5ll-QoQK-PmK6ncmcmnmQ", "remark": "Approved", "st_area(shape)": 2.646515413810537e-05, "st_perimeter(shape)": 0.030006587047678918}}, {"type": "Feature", "geometry": {"type": "Polygon", "coordinates": [[[74.8679, 12.8119], [74.8679, 12.8114], [74.8679, 12.8112], [74.868, 12.811], [74.8679, 12.8107], [74.8678, 12.8106], [74.8677, 12.8105], [74.8674, 12.8105], [74.8674, 12.8103], [74.8673, 12.8102], [74.8672, 12.8101], [74.8671, 12.81], [74.8671, 12.8099], [74.8672, 12.8098], [74.8672, 12.8097], [74.8673, 12.8096], [74.8674, 12.8095], [74.8675, 12.8094], [74.8676, 12.8093], [74.8676, 12.8091], [74.8677, 12.8089], [74.8678, 12.8087], [74.868, 12.8085], [74.8681, 12.8084], [74.8682, 12.8082], [74.8683, 12.8082], [74.8682, 12.8081], [74.8681, 12.808], [74.8679, 12.8079], [74.8677, 12.8078], [74.8676, 12.8077], [74.8675, 12.8076], [74.8673, 12.8076], [74.8671, 12.8075], [74.8669, 12.8075], [74.8667, 12.8073], [74.8664, 12.8072], [74.8661, 12.8069], [74.8656, 12.8063], [74.8654, 12.8059], [74.8653, 12.8058], [74.8652, 12.8052], [74.8647, 12.8053], [74.8647, 12.8052], [74.8647, 12.8051], [74.8646, 12.8049], [74.8646, 12.8048], [74.8646, 12.8047], [74.8645, 12.8046], [74.8645, 12.8045], [74.8644, 12.8044], [74.8643, 12.8042], [74.8642, 12.8041], [74.8642, 12.804], [74.8641, 12.8039], [74.864, 12.8039], [74.8639, 12.8039], [74.8638, 12.804], [74.8638, 12.8041], [74.8637, 12.8041], [74.8636, 12.8042], [74.8635, 12.8042], [74.8634, 12.8043], [74.8633, 12.8044], [74.8631, 12.8045], [74.8628, 12.8046], [74.8623, 12.8048], [74.8622, 12.8049], [74.8622, 12.805], [74.862, 12.805], [74.8618, 12.8051], [74.8618, 12.8052], [74.8616, 12.8052], [74.8615, 12.8051], [74.8611, 12.8052], [74.861, 12.8052], [74.861, 12.8051], [74.8609, 12.8051], [74.8608, 12.8051], [74.8603, 12.8051], [74.8605, 12.8059], [74.8606, 12.8063], [74.8608, 12.8069], [74.8609, 12.8072], [74.8614, 12.808], [74.8622, 12.8086], [74.8627, 12.8091], [74.863, 12.8093], [74.8632, 12.8094], [74.8634, 12.8095], [74.8637, 12.8097], [74.8639, 12.8098], [74.8642, 12.8099], [74.8644, 12.81], [74.8647, 12.8102], [74.8649, 12.8103], [74.8651, 12.8104], [74.8654, 12.8105], [74.8656, 12.8106], [74.8658, 12.8108], [74.8659, 12.8111], [74.8661, 12.8114], [74.8662, 12.8117], [74.8663, 12.812], [74.8667, 12.8124], [74.867, 12.8125], [74.8673, 12.8126], [74.8676, 12.8123], [74.8677, 12.8121], [74.8678, 12.8119], [74.8679, 12.8119]]]}, "properties": {"objectid": 135822, "statename": "Karnataka", "statecode": "29", "districtname": "", "districtcode": "575", "ulbname": "Someshwara", "ulbcode": "900608", "wardname": "Ward 10", "wardcode": "10", "id": null, "status": "APPROVED", "misglobalid": null, "approved_by": null, "createdate": 1644072321000, "updateddate": 1644996637000, "globalid": null, "gisglobalid": "5s6aRnQ6-s4RR-PBRQ-RonR-dBd66lKKls4Q", "remark": "Approved", "st_area(shape)": 3.172182703593549e-05, "st_perimeter(shape)": 0.027143608674614392}}, {"type": "Feature", "geometry": {"type": "Polygon", "coordinates": [[[74.8703, 12.8051], [74.8701, 12.8032], [74.87, 12.8031], [74.8699, 12.8028], [74.8699, 12.8027], [74.87, 12.8016], [74.87, 12.8015], [74.8708, 12.8017], [74.8713, 12.8002], [74.8714, 12.7998], [74.8712, 12.7997], [74.8709, 12.7997], [74.8705, 12.7992], [74.8705, 12.7993], [74.8701, 12.7993], [74.8699, 12.7993], [74.8697, 12.7992], [74.8696, 12.799], [74.8695, 12.799], [74.8693, 12.799], [74.869, 12.7991], [74.8686, 12.7993], [74.8682, 12.7994], [74.8679, 12.7994], [74.8676, 12.7995], [74.8675, 12.7994], [74.8674, 12.7994], [74.8672, 12.7995], [74.867, 12.7997], [74.8666, 12.7999], [74.8664, 12.8], [74.8663, 12.8001], [74.8661, 12.8001], [74.866, 12.8001], [74.8659, 12.8002], [74.8659, 12.8003], [74.8659, 12.8004], [74.8659, 12.8005], [74.8658, 12.8006], [74.8657, 12.8007], [74.8656, 12.8007], [74.8656, 12.8008], [74.8656, 12.8009], [74.8656, 12.8011], [74.8656, 12.8013], [74.8656, 12.8015], [74.8656, 12.8016], [74.8656, 12.8017], [74.8657, 12.8018], [74.8657, 12.8019], [74.8657, 12.802], [74.8659, 12.8026], [74.866, 12.803], [74.866, 12.8032], [74.8656, 12.8032], [74.8656, 12.8034], [74.8656, 12.8036], [74.8659, 12.8043], [74.8659, 12.8046], [74.866, 12.805], [74.8661, 12.8054], [74.8656, 12.8054], [74.8655, 12.8051], [74.8652, 12.8052], [74.8653, 12.8058], [74.8657, 12.8057], [74.8663, 12.8055], [74.8669, 12.8054], [74.8682, 12.8052], [74.8691, 12.8051], [74.8703, 12.8051]]]}, "properties": {"objectid": 134171, "statename": "Karnataka", "statecode": "29", "districtname": "", "districtcode": "575", "ulbname": "Someshwara", "ulbcode": "900608", "wardname": "Ward 11", "wardcode": "11", "id": null, "status": "APPROVED", "misglobalid": null, "approved_by": null, "createdate": 1644072321000, "updateddate": 1644996649000, "globalid": null, "gisglobalid": "Km5co6nc-cBcd-PQQs-aBns-5Rs5aKaB54dd", "remark": "Approved", "st_area(shape)": 2.728484930112777e-05, "st_perimeter(shape)": 0.025265443294572636}}, {"type": "Feature", "geometry": {"type": "Polygon", "coordinates": [[[74.8664, 12.8], [74.8662, 12.7993], [74.866, 12.7994], [74.8659, 12.7994], [74.8648, 12.7995], [74.8644, 12.7995], [74.8637, 12.7996], [74.8636, 12.7997], [74.8633, 12.7998], [74.8628, 12.7999], [74.8627, 12.8], [74.8626, 12.8], [74.8626, 12.7999], [74.8625, 12.7997], [74.8624, 12.7993], [74.8623, 12.7993], [74.861, 12.7988], [74.8608, 12.7988], [74.8606, 12.7994], [74.8602, 12.8], [74.8601, 12.8003], [74.8599, 12.8005], [74.8598, 12.8008], [74.8598, 12.801], [74.8598, 12.8012], [74.8598, 12.8013], [74.8599, 12.8015], [74.8598, 12.8018], [74.8598, 12.8019], [74.8597, 12.8022], [74.8596, 12.8024], [74.8596, 12.8027], [74.8591, 12.8026], [74.859, 12.803], [74.859, 12.8035], [74.8603, 12.8035], [74.8603, 12.8032], [74.8604, 12.8025], [74.8616, 12.8026], [74.863, 12.8025], [74.8634, 12.8025], [74.8637, 12.8033], [74.8639, 12.8039], [74.864, 12.8039], [74.8641, 12.8039], [74.8642, 12.804], [74.8642, 12.8041], [74.8643, 12.8042], [74.8644, 12.8044], [74.8645, 12.8045], [74.8645, 12.8046], [74.8646, 12.8047], [74.8646, 12.8048], [74.8646, 12.8049], [74.8647, 12.8051], [74.8647, 12.8052], [74.8647, 12.8053], [74.8652, 12.8052], [74.8655, 12.8051], [74.8656, 12.8054], [74.8661, 12.8054], [74.866, 12.805], [74.8659, 12.8046], [74.8659, 12.8043], [74.8656, 12.8036], [74.8656, 12.8034], [74.8656, 12.8032], [74.866, 12.8032], [74.866, 12.803], [74.8659, 12.8026], [74.8657, 12.802], [74.8657, 12.8019], [74.8657, 12.8018], [74.8656, 12.8017], [74.8656, 12.8016], [74.8656, 12.8015], [74.8656, 12.8013], [74.8656, 12.8011], [74.8656, 12.8009], [74.8656, 12.8008], [74.8656, 12.8007], [74.8657, 12.8007], [74.8658, 12.8006], [74.8659, 12.8005], [74.8659, 12.8004], [74.8659, 12.8003], [74.8659, 12.8002], [74.866, 12.8001], [74.8661, 12.8001], [74.8663, 12.8001], [74.8664, 12.8]]]}, "properties": {"objectid": 133412, "statename": "Karnataka", "statecode": "29", "districtname": "", "districtcode": "575", "ulbname": "Someshwara", "ulbcode": "900608", "wardname": "Ward 12", "wardcode": "12", "id": null, "status": "APPROVED", "misglobalid": null, "approved_by": null, "createdate": 1644072321000, "updateddate": 1644996658000, "globalid": null, "gisglobalid": "oK5noQKc-BKos-P4Qd-snQm-QcmssdlcoKa4", "remark": "Approved", "st_area(shape)": 2.4623668484479117e-05, "st_perimeter(shape)": 0.029109311878912348}}, {"type": "Feature", "geometry": {"type": "Polygon", "coordinates": [[[74.8605, 12.8059], [74.8603, 12.8051], [74.8608, 12.8051], [74.8609, 12.8051], [74.861, 12.8051], [74.861, 12.8052], [74.8611, 12.8052], [74.8615, 12.8051], [74.8616, 12.8052], [74.8618, 12.8052], [74.8618, 12.8051], [74.862, 12.805], [74.8622, 12.805], [74.8622, 12.8049], [74.8623, 12.8048], [74.8628, 12.8046], [74.8631, 12.8045], [74.8633, 12.8044], [74.8634, 12.8043], [74.8635, 12.8042], [74.8636, 12.8042], [74.8637, 12.8041], [74.8638, 12.8041], [74.8638, 12.804], [74.8639, 12.8039], [74.8637, 12.8033], [74.8634, 12.8025], [74.863, 12.8025], [74.8616, 12.8026], [74.8604, 12.8025], [74.8603, 12.8032], [74.8603, 12.8035], [74.859, 12.8035], [74.8589, 12.8035], [74.8586, 12.8035], [74.858, 12.8035], [74.8563, 12.8036], [74.8566, 12.8046], [74.8569, 12.8056], [74.857, 12.8064], [74.8573, 12.8079], [74.8576, 12.8078], [74.8578, 12.8077], [74.8578, 12.8076], [74.858, 12.8076], [74.8581, 12.8076], [74.8583, 12.8075], [74.8583, 12.8073], [74.8582, 12.807], [74.8582, 12.8069], [74.8583, 12.8067], [74.8585, 12.8066], [74.8588, 12.8064], [74.8589, 12.8063], [74.859, 12.8063], [74.8592, 12.8061], [74.8593, 12.8061], [74.8594, 12.806], [74.8597, 12.806], [74.8599, 12.8059], [74.8602, 12.8058], [74.8604, 12.8058], [74.8605, 12.8059]]]}, "properties": {"objectid": 133413, "statename": "Karnataka", "statecode": "29", "districtname": "", "districtcode": "575", "ulbname": "Someshwara", "ulbcode": "900608", "wardname": "Ward 13", "wardcode": "13", "id": null, "status": "APPROVED", "misglobalid": null, "approved_by": null, "createdate": 1644072321000, "updateddate": 1644996671000, "globalid": null, "gisglobalid": "6sal55oa-Bond-P5BR-sKPm-s4RldcBsaomm", "remark": "Approved", "st_area(shape)": 1.9057725701770826e-05, "st_perimeter(shape)": 0.023247871125313575}}, {"type": "Feature", "geometry": {"type": "Polygon", "coordinates": [[[74.8574, 12.8086], [74.8573, 12.8079], [74.857, 12.8064], [74.8569, 12.8056], [74.8566, 12.8046], [74.8563, 12.8036], [74.8561, 12.8028], [74.856, 12.8027], [74.8551, 12.8028], [74.8549, 12.8028], [74.8548, 12.8028], [74.8546, 12.8029], [74.8543, 12.803], [74.8541, 12.803], [74.8534, 12.8032], [74.8527, 12.8035], [74.8521, 12.8037], [74.8522, 12.8039], [74.8524, 12.8043], [74.8524, 12.8044], [74.8532, 12.8058], [74.8534, 12.806], [74.8536, 12.8065], [74.8537, 12.8065], [74.8537, 12.8066], [74.8538, 12.8067], [74.8548, 12.8086], [74.8553, 12.8095], [74.8569, 12.8083], [74.857, 12.8083], [74.857, 12.8084], [74.8571, 12.8084], [74.8574, 12.8086]]]}, "properties": {"objectid": 136143, "statename": "Karnataka", "statecode": "29", "districtname": "", "districtcode": "575", "ulbname": "Someshwara", "ulbcode": "900608", "wardname": "Ward 14", "wardcode": "14", "id": null, "status": "APPROVED", "misglobalid": null, "approved_by": null, "createdate": 1644072321000, "updateddate": 1644996686000, "globalid": null, "gisglobalid": "dPlB4cBs-clQ5-PBKl-Rmno-scRdRRPP6ddK", "remark": "Approved", "st_area(shape)": 2.0360542373250253e-05, "st_perimeter(shape)": 0.019514609870974205}}, {"type": "Feature", "geometry": {"type": "Polygon", "coordinates": [[[74.856, 12.8027], [74.8558, 12.802], [74.8553, 12.8005], [74.8551, 12.7997], [74.8549, 12.7991], [74.8547, 12.7986], [74.8546, 12.7981], [74.8544, 12.7973], [74.8543, 12.7968], [74.8542, 12.7962], [74.8542, 12.7961], [74.8542, 12.7952], [74.8543, 12.7949], [74.8543, 12.7944], [74.8544, 12.7943], [74.8542, 12.7943], [74.8541, 12.7944], [74.854, 12.7944], [74.854, 12.7945], [74.8537, 12.7948], [74.8537, 12.7949], [74.8536, 12.7949], [74.8535, 12.7949], [74.8533, 12.7949], [74.8531, 12.7948], [74.8529, 12.7948], [74.8528, 12.7948], [74.8524, 12.7948], [74.852, 12.7948], [74.8516, 12.7947], [74.8514, 12.7947], [74.8507, 12.7944], [74.8505, 12.7942], [74.8502, 12.7941], [74.8502, 12.7942], [74.8501, 12.7943], [74.8501, 12.7944], [74.8501, 12.7945], [74.8501, 12.7946], [74.8501, 12.7947], [74.85, 12.7947], [74.8499, 12.7948], [74.8497, 12.7948], [74.8496, 12.7949], [74.8494, 12.795], [74.8493, 12.7951], [74.8493, 12.7952], [74.8493, 12.7953], [74.8492, 12.7954], [74.8492, 12.7955], [74.8492, 12.7956], [74.8491, 12.7957], [74.849, 12.7955], [74.8489, 12.7955], [74.8488, 12.7954], [74.8487, 12.7954], [74.8485, 12.7954], [74.8484, 12.7953], [74.8483, 12.7953], [74.8483, 12.7951], [74.8483, 12.7948], [74.8482, 12.7947], [74.8481, 12.7943], [74.8479, 12.7944], [74.8475, 12.7946], [74.8472, 12.7948], [74.847, 12.795], [74.8469, 12.7951], [74.8468, 12.7952], [74.8467, 12.7953], [74.8467, 12.7954], [74.8466, 12.7957], [74.8464, 12.7962], [74.8462, 12.7967], [74.8461, 12.7971], [74.8459, 12.7978], [74.8461, 12.798], [74.8464, 12.7984], [74.8465, 12.7984], [74.8467, 12.7991], [74.8467, 12.7993], [74.8466, 12.7996], [74.8468, 12.7993], [74.8473, 12.799], [74.8475, 12.7989], [74.8475, 12.7988], [74.8475, 12.7987], [74.8477, 12.7987], [74.8481, 12.7988], [74.8482, 12.799], [74.8481, 12.7991], [74.8481, 12.7992], [74.8483, 12.7994], [74.8483, 12.7997], [74.8495, 12.8], [74.8501, 12.8003], [74.8501, 12.8004], [74.8502, 12.8005], [74.8503, 12.8006], [74.8504, 12.8007], [74.8504, 12.8008], [74.8505, 12.8009], [74.8506, 12.801], [74.8509, 12.8017], [74.8518, 12.8031], [74.8519, 12.8033], [74.8521, 12.8037], [74.8527, 12.8035], [74.8534, 12.8032], [74.8541, 12.803], [74.8543, 12.803], [74.8546, 12.8029], [74.8548, 12.8028], [74.8549, 12.8028], [74.8551, 12.8028], [74.856, 12.8027]]]}, "properties": {"objectid": 135824, "statename": "Karnataka", "statecode": "29", "districtname": "", "districtcode": "575", "ulbname": "Someshwara", "ulbcode": "900608", "wardname": "Ward 15", "wardcode": "15", "id": null, "status": "APPROVED", "misglobalid": null, "approved_by": null, "createdate": 1644072321000, "updateddate": 1644996696000, "globalid": null, "gisglobalid": "4lPcKRPc-oKRl-P5cn-Rd4c-dc65BPnaKmRn", "remark": "Approved", "st_area(shape)": 5.536078233040511e-05, "st_perimeter(shape)": 0.036382355095622}}, {"type": "Feature", "geometry": {"type": "Polygon", "coordinates": [[[74.859, 12.8035], [74.859, 12.803], [74.8591, 12.8026], [74.8596, 12.8027], [74.8596, 12.8024], [74.8597, 12.8022], [74.8598, 12.8019], [74.8598, 12.8018], [74.8599, 12.8015], [74.8598, 12.8013], [74.8598, 12.8012], [74.8598, 12.801], [74.8598, 12.8008], [74.8599, 12.8005], [74.8601, 12.8003], [74.8602, 12.8], [74.8606, 12.7994], [74.8602, 12.7994], [74.8593, 12.7992], [74.859, 12.7991], [74.8586, 12.799], [74.8582, 12.799], [74.8574, 12.799], [74.8568, 12.7989], [74.8567, 12.7989], [74.8566, 12.7989], [74.8564, 12.7989], [74.8559, 12.7989], [74.8553, 12.7989], [74.8552, 12.7989], [74.8549, 12.7991], [74.8551, 12.7997], [74.8553, 12.8005], [74.8558, 12.802], [74.856, 12.8027], [74.8561, 12.8028], [74.8563, 12.8036], [74.858, 12.8035], [74.8586, 12.8035], [74.8589, 12.8035], [74.859, 12.8035]]]}, "properties": {"objectid": 135033, "statename": "Karnataka", "statecode": "29", "districtname": "", "districtcode": "575", "ulbname": "Someshwara", "ulbcode": "900608", "wardname": "Ward 16", "wardcode": "16", "id": null, "status": "APPROVED", "misglobalid": null, "approved_by": null, "createdate": 1644072321000, "updateddate": 1644996813000, "globalid": null, "gisglobalid": "mnQccdP4-o4o6-P4Qa-Rs6l-5lBB64oR6nRP", "remark": "Approved", "st_area(shape)": 1.899154576067388e-05, "st_perimeter(shape)": 0.018118129822025486}}, {"type": "Feature", "geometry": {"type": "Polygon", "coordinates": [[[74.8608, 12.7988], [74.8611, 12.7984], [74.8613, 12.7982], [74.8614, 12.7979], [74.8615, 12.7976], [74.8616, 12.7973], [74.8617, 12.7971], [74.8618, 12.797], [74.8616, 12.7967], [74.8617, 12.7966], [74.8616, 12.7965], [74.8616, 12.7962], [74.8609, 12.7964], [74.8602, 12.7967], [74.86, 12.7967], [74.8599, 12.7967], [74.8596, 12.7968], [74.8586, 12.7969], [74.8586, 12.7966], [74.8585, 12.7966], [74.8585, 12.7963], [74.8585, 12.7962], [74.8584, 12.796], [74.8584, 12.7959], [74.8583, 12.7954], [74.8583, 12.795], [74.8582, 12.7948], [74.8577, 12.7949], [74.8575, 12.795], [74.857, 12.7951], [74.8569, 12.7951], [74.8567, 12.7952], [74.8566, 12.7954], [74.8561, 12.7955], [74.8561, 12.7954], [74.856, 12.7953], [74.8558, 12.7953], [74.8557, 12.7951], [74.856, 12.795], [74.8561, 12.7951], [74.8563, 12.7951], [74.8563, 12.795], [74.8563, 12.7949], [74.8562, 12.7944], [74.8562, 12.7943], [74.8562, 12.7941], [74.8572, 12.794], [74.8571, 12.7939], [74.8572, 12.7938], [74.8573, 12.7936], [74.8573, 12.7935], [74.8573, 12.7934], [74.8567, 12.7936], [74.8566, 12.7926], [74.8562, 12.7926], [74.8561, 12.7926], [74.856, 12.7926], [74.8558, 12.7927], [74.8555, 12.793], [74.8553, 12.7932], [74.8546, 12.7936], [74.8545, 12.7938], [74.8544, 12.7943], [74.8543, 12.7944], [74.8543, 12.7949], [74.8542, 12.7952], [74.8542, 12.7961], [74.8542, 12.7962], [74.8543, 12.7968], [74.8544, 12.7973], [74.8546, 12.7981], [74.8547, 12.7986], [74.8549, 12.7991], [74.8552, 12.7989], [74.8553, 12.7989], [74.8559, 12.7989], [74.8564, 12.7989], [74.8566, 12.7989], [74.8567, 12.7989], [74.8568, 12.7989], [74.8574, 12.799], [74.8582, 12.799], [74.8586, 12.799], [74.859, 12.7991], [74.8593, 12.7992], [74.8602, 12.7994], [74.8606, 12.7994], [74.8608, 12.7988]]]}, "properties": {"objectid": 133411, "statename": "Karnataka", "statecode": "29", "districtname": "", "districtcode": "575", "ulbname": "Someshwara", "ulbcode": "900608", "wardname": "Ward 17", "wardcode": "17", "id": null, "status": "APPROVED", "misglobalid": null, "approved_by": null, "createdate": 1644072321000, "updateddate": 1644996706000, "globalid": null, "gisglobalid": "onmaQnQP-l4Qn-PaRB-s6c4-aa4Q6mo5mPno", "remark": "Approved", "st_area(shape)": 2.7279798690227596e-05, "st_perimeter(shape)": 0.03060204961228291}}, {"type": "Feature", "geometry": {"type": "Polygon", "coordinates": [[[74.8544, 12.7943], [74.8545, 12.7938], [74.8546, 12.7936], [74.8546, 12.7933], [74.8547, 12.7932], [74.8551, 12.792], [74.8557, 12.7905], [74.8561, 12.7894], [74.8566, 12.7881], [74.8571, 12.787], [74.8574, 12.7862], [74.8577, 12.7854], [74.858, 12.7843], [74.8584, 12.7835], [74.8585, 12.7831], [74.8588, 12.7823], [74.8591, 12.7815], [74.8594, 12.7807], [74.8599, 12.7794], [74.8595, 12.7794], [74.859, 12.7793], [74.8586, 12.7793], [74.8584, 12.7792], [74.8581, 12.7791], [74.8577, 12.779], [74.8573, 12.7798], [74.8571, 12.7802], [74.8566, 12.7815], [74.8565, 12.7817], [74.8563, 12.7822], [74.8559, 12.783], [74.8558, 12.7832], [74.8557, 12.7835], [74.8555, 12.7838], [74.8554, 12.7841], [74.8551, 12.7846], [74.855, 12.7849], [74.8549, 12.7851], [74.8546, 12.7856], [74.8544, 12.786], [74.8543, 12.7861], [74.8541, 12.7864], [74.8539, 12.7867], [74.8537, 12.787], [74.8535, 12.7873], [74.8533, 12.7875], [74.853, 12.7878], [74.8528, 12.7881], [74.8527, 12.7882], [74.8526, 12.7885], [74.8523, 12.7888], [74.8519, 12.7895], [74.8516, 12.7901], [74.8509, 12.7911], [74.8506, 12.7916], [74.8502, 12.7923], [74.85, 12.7927], [74.8497, 12.793], [74.8495, 12.7932], [74.8492, 12.7935], [74.849, 12.7938], [74.8485, 12.794], [74.8483, 12.7942], [74.8481, 12.7943], [74.8482, 12.7947], [74.8483, 12.7948], [74.8483, 12.7951], [74.8483, 12.7953], [74.8484, 12.7953], [74.8485, 12.7954], [74.8487, 12.7954], [74.8488, 12.7954], [74.8489, 12.7955], [74.849, 12.7955], [74.8491, 12.7957], [74.8492, 12.7956], [74.8492, 12.7955], [74.8492, 12.7954], [74.8493, 12.7953], [74.8493, 12.7952], [74.8493, 12.7951], [74.8494, 12.795], [74.8496, 12.7949], [74.8497, 12.7948], [74.8499, 12.7948], [74.85, 12.7947], [74.8501, 12.7947], [74.8501, 12.7946], [74.8501, 12.7945], [74.8501, 12.7944], [74.8501, 12.7943], [74.8502, 12.7942], [74.8502, 12.7941], [74.8505, 12.7942], [74.8507, 12.7944], [74.8514, 12.7947], [74.8516, 12.7947], [74.852, 12.7948], [74.8524, 12.7948], [74.8528, 12.7948], [74.8529, 12.7948], [74.8531, 12.7948], [74.8533, 12.7949], [74.8535, 12.7949], [74.8536, 12.7949], [74.8537, 12.7949], [74.8537, 12.7948], [74.854, 12.7945], [74.854, 12.7944], [74.8541, 12.7944], [74.8542, 12.7943], [74.8544, 12.7943]]]}, "properties": {"objectid": 135031, "statename": "Karnataka", "statecode": "29", "districtname": "", "districtcode": "575", "ulbname": "Someshwara", "ulbcode": "900608", "wardname": "Ward 18", "wardcode": "18", "id": null, "status": "APPROVED", "misglobalid": null, "approved_by": null, "createdate": 1644072321000, "updateddate": 1644996717000, "globalid": null, "gisglobalid": "cR4cRmBc-4saB-PlBm-asR6-5sllQl65oomc", "remark": "Approved", "st_area(shape)": 5.7143892926277994e-05, "st_perimeter(shape)": 0.04509473107739847}}, {"type": "Feature", "geometry": {"type": "Polygon", "coordinates": [[[74.8561, 12.7926], [74.8569, 12.792], [74.857, 12.7919], [74.8572, 12.7917], [74.8576, 12.7913], [74.858, 12.7909], [74.8581, 12.7908], [74.8582, 12.7906], [74.8583, 12.7906], [74.8582, 12.7906], [74.8583, 12.7905], [74.8584, 12.7901], [74.8586, 12.7898], [74.8588, 12.7899], [74.8589, 12.7898], [74.859, 12.7897], [74.8591, 12.7896], [74.8592, 12.7892], [74.8593, 12.7889], [74.8594, 12.7888], [74.8596, 12.7885], [74.8595, 12.7885], [74.8595, 12.7884], [74.8594, 12.7884], [74.8595, 12.7882], [74.8598, 12.7883], [74.8602, 12.7875], [74.8601, 12.7874], [74.86, 12.7874], [74.86, 12.7873], [74.8601, 12.787], [74.8602, 12.7868], [74.8603, 12.7865], [74.8603, 12.7864], [74.8605, 12.786], [74.8608, 12.7855], [74.8609, 12.7851], [74.8613, 12.7843], [74.8614, 12.7838], [74.8615, 12.7833], [74.8617, 12.7829], [74.8617, 12.7828], [74.8623, 12.7814], [74.863, 12.7803], [74.8619, 12.7801], [74.8612, 12.7801], [74.8608, 12.78], [74.8603, 12.7794], [74.8599, 12.7794], [74.8594, 12.7807], [74.8591, 12.7815], [74.8588, 12.7823], [74.8585, 12.7831], [74.8584, 12.7835], [74.858, 12.7843], [74.8577, 12.7854], [74.8574, 12.7862], [74.8571, 12.787], [74.8566, 12.7881], [74.8561, 12.7894], [74.8557, 12.7905], [74.8551, 12.792], [74.8547, 12.7932], [74.8546, 12.7933], [74.8546, 12.7936], [74.8553, 12.7932], [74.8555, 12.793], [74.8558, 12.7927], [74.856, 12.7926], [74.8561, 12.7926]]]}, "properties": {"objectid": 135032, "statename": "Karnataka", "statecode": "29", "districtname": "", "districtcode": "575", "ulbname": "Someshwara", "ulbcode": "900608", "wardname": "Ward 19", "wardcode": "19", "id": null, "status": "APPROVED", "misglobalid": null, "approved_by": null, "createdate": 1644072321000, "updateddate": 1644996736000, "globalid": null, "gisglobalid": "aQndnPsR-5cQB-PBa4-amm5-RB6dc56KR64Q", "remark": "Approved", "st_area(shape)": 3.7328973049636416e-05, "st_perimeter(shape)": 0.03569131627330277}}, {"type": "Feature", "geometry": {"type": "Polygon", "coordinates": [[[74.8659, 12.7779], [74.8639, 12.7774], [74.8635, 12.7773], [74.8631, 12.7772], [74.8629, 12.7772], [74.8626, 12.7772], [74.8623, 12.7772], [74.8621, 12.7772], [74.8621, 12.7773], [74.8621, 12.7776], [74.8621, 12.7777], [74.862, 12.7779], [74.862, 12.7781], [74.8619, 12.7782], [74.8619, 12.7783], [74.8619, 12.7784], [74.8617, 12.7786], [74.8615, 12.7789], [74.8614, 12.7791], [74.8614, 12.7792], [74.8614, 12.7793], [74.8614, 12.7794], [74.8613, 12.7798], [74.8612, 12.7801], [74.8619, 12.7801], [74.863, 12.7803], [74.8623, 12.7814], [74.8628, 12.7813], [74.8633, 12.7811], [74.8634, 12.7811], [74.8642, 12.7809], [74.8649, 12.7807], [74.8651, 12.7807], [74.8652, 12.7807], [74.8654, 12.7808], [74.8654, 12.781], [74.8655, 12.7809], [74.8657, 12.7808], [74.8658, 12.7807], [74.8658, 12.7801], [74.8658, 12.7796], [74.8657, 12.7796], [74.8657, 12.7794], [74.8655, 12.7787], [74.8657, 12.778], [74.8659, 12.7779]]]}, "properties": {"objectid": 135823, "statename": "Karnataka", "statecode": "29", "districtname": "", "districtcode": "575", "ulbname": "Someshwara", "ulbcode": "900608", "wardname": "Ward 20", "wardcode": "20", "id": null, "status": "APPROVED", "misglobalid": null, "approved_by": null, "createdate": 1644072321000, "updateddate": 1644996754000, "globalid": null, "gisglobalid": "dn4Kasm6-QP6B-PdR4-QdQa-oRBoKmKQQRc5", "remark": "Approved", "st_area(shape)": 1.3318992410567112e-05, "st_perimeter(shape)": 0.01704327397301891}}, {"type": "Feature", "geometry": {"type": "Polygon", "coordinates": [[[74.8659, 12.7779], [74.8659, 12.7778], [74.8661, 12.7778], [74.8673, 12.7768], [74.8676, 12.7759], [74.8676, 12.7758], [74.8677, 12.7756], [74.8676, 12.7753], [74.8677, 12.775], [74.8677, 12.7749], [74.8677, 12.7748], [74.8673, 12.7743], [74.8668, 12.7738], [74.8668, 12.7737], [74.867, 12.7731], [74.8671, 12.773], [74.8667, 12.7729], [74.8665, 12.7729], [74.8663, 12.7729], [74.866, 12.773], [74.8657, 12.7729], [74.8646, 12.7724], [74.8641, 12.7722], [74.863, 12.7737], [74.8621, 12.775], [74.8615, 12.7758], [74.8613, 12.7762], [74.861, 12.7766], [74.8609, 12.777], [74.8605, 12.7779], [74.8599, 12.7794], [74.8603, 12.7794], [74.8608, 12.78], [74.8612, 12.7801], [74.8613, 12.7798], [74.8614, 12.7794], [74.8614, 12.7793], [74.8614, 12.7792], [74.8614, 12.7791], [74.8615, 12.7789], [74.8617, 12.7786], [74.8619, 12.7784], [74.8619, 12.7783], [74.8619, 12.7782], [74.862, 12.7781], [74.862, 12.7779], [74.8621, 12.7777], [74.8621, 12.7776], [74.8621, 12.7773], [74.8621, 12.7772], [74.8623, 12.7772], [74.8626, 12.7772], [74.8629, 12.7772], [74.8631, 12.7772], [74.8635, 12.7773], [74.8639, 12.7774], [74.8659, 12.7779]]]}, "properties": {"objectid": 128017, "statename": "Karnataka", "statecode": "29", "districtname": "", "districtcode": "575", "ulbname": "Someshwara", "ulbcode": "900608", "wardname": "Ward 21", "wardcode": "21", "id": null, "status": "APPROVED", "misglobalid": null, "approved_by": null, "createdate": 1644072321000, "updateddate": 1644996774000, "globalid": null, "gisglobalid": "5oldmmol-6Rln-Pdcm-saPR-m6Q6cnn5R5oa", "remark": "Approved", "st_area(shape)": 2.8291226521057155e-05, "st_perimeter(shape)": 0.02616988644454001}}, {"type": "Feature", "geometry": {"type": "Polygon", "coordinates": [[[74.8667, 12.7729], [74.8667, 12.7724], [74.867, 12.7724], [74.8671, 12.7723], [74.8672, 12.7721], [74.8672, 12.772], [74.8672, 12.7716], [74.8672, 12.7713], [74.867, 12.7711], [74.8671, 12.7707], [74.8671, 12.7705], [74.867, 12.7704], [74.8675, 12.7699], [74.868, 12.7692], [74.8685, 12.7686], [74.8689, 12.768], [74.869, 12.7679], [74.8691, 12.7678], [74.8691, 12.7676], [74.8693, 12.7672], [74.8693, 12.7671], [74.8695, 12.7665], [74.8697, 12.766], [74.8696, 12.766], [74.8697, 12.7658], [74.8699, 12.7655], [74.87, 12.7651], [74.8699, 12.7651], [74.8699, 12.7646], [74.8701, 12.7643], [74.8703, 12.7644], [74.8706, 12.764], [74.8707, 12.7638], [74.8709, 12.7636], [74.8709, 12.7633], [74.8708, 12.7632], [74.8712, 12.7624], [74.8715, 12.762], [74.8715, 12.7619], [74.8716, 12.7619], [74.8718, 12.7617], [74.8719, 12.7618], [74.872, 12.7618], [74.8721, 12.7618], [74.8721, 12.7617], [74.8721, 12.7615], [74.8721, 12.7614], [74.8722, 12.7614], [74.8722, 12.7613], [74.8719, 12.7611], [74.8707, 12.7609], [74.8698, 12.7608], [74.8697, 12.7607], [74.8696, 12.7614], [74.8695, 12.763], [74.8694, 12.7636], [74.8693, 12.7643], [74.8692, 12.7646], [74.869, 12.7651], [74.8689, 12.7654], [74.8686, 12.7658], [74.8684, 12.7661], [74.8682, 12.7665], [74.868, 12.7669], [74.8676, 12.7674], [74.8673, 12.7679], [74.8669, 12.7683], [74.8663, 12.7692], [74.8658, 12.7698], [74.8651, 12.7708], [74.8645, 12.7717], [74.8641, 12.7722], [74.8646, 12.7724], [74.8657, 12.7729], [74.866, 12.773], [74.8663, 12.7729], [74.8665, 12.7729], [74.8667, 12.7729]]]}, "properties": {"objectid": 135030, "statename": "Karnataka", "statecode": "29", "districtname": "", "districtcode": "575", "ulbname": "Someshwara", "ulbcode": "900608", "wardname": "Ward 22", "wardcode": "22", "id": null, "status": "APPROVED", "misglobalid": null, "approved_by": null, "createdate": 1644072321000, "updateddate": 1644996785000, "globalid": null, "gisglobalid": "KPl6BnBB-Klmm-PPRm-RKas-Q5mdRc4d55Bm", "remark": "Approved", "st_area(shape)": 2.0195688169636204e-05, "st_perimeter(shape)": 0.03280445058152477}}, {"type": "Feature", "geometry": {"type": "Polygon", "coordinates": [[[74.8641, 12.7722], [74.8645, 12.7717], [74.8651, 12.7708], [74.8658, 12.7698], [74.8663, 12.7692], [74.8669, 12.7683], [74.8673, 12.7679], [74.8676, 12.7674], [74.868, 12.7669], [74.8682, 12.7665], [74.8684, 12.7661], [74.8686, 12.7658], [74.8689, 12.7654], [74.869, 12.7651], [74.8692, 12.7646], [74.8693, 12.7643], [74.8694, 12.7636], [74.8695, 12.763], [74.8696, 12.7614], [74.8697, 12.7607], [74.8694, 12.7607], [74.8694, 12.7606], [74.8693, 12.7606], [74.8691, 12.7607], [74.8687, 12.7607], [74.8685, 12.7607], [74.8682, 12.7608], [74.868, 12.7608], [74.8679, 12.7609], [74.8677, 12.761], [74.8675, 12.7611], [74.8673, 12.7613], [74.8671, 12.7614], [74.867, 12.7616], [74.8669, 12.7617], [74.8669, 12.7618], [74.8668, 12.7619], [74.8668, 12.762], [74.8669, 12.7621], [74.8669, 12.7622], [74.8669, 12.7623], [74.8669, 12.7624], [74.867, 12.7625], [74.8671, 12.7625], [74.8671, 12.7626], [74.8672, 12.7626], [74.8672, 12.7627], [74.8673, 12.7628], [74.8673, 12.7629], [74.8673, 12.763], [74.8673, 12.7631], [74.8673, 12.7633], [74.8673, 12.7634], [74.8673, 12.7636], [74.8674, 12.7637], [74.8675, 12.7638], [74.8676, 12.7639], [74.8676, 12.764], [74.8676, 12.7641], [74.8675, 12.7642], [74.8675, 12.7643], [74.8674, 12.7643], [74.8672, 12.7643], [74.867, 12.7644], [74.8669, 12.7644], [74.8668, 12.7644], [74.8668, 12.7645], [74.8667, 12.7646], [74.8667, 12.7647], [74.8667, 12.7648], [74.8667, 12.7649], [74.8668, 12.765], [74.8669, 12.765], [74.867, 12.7651], [74.8672, 12.7653], [74.8674, 12.7654], [74.8676, 12.7655], [74.8677, 12.7657], [74.8678, 12.7658], [74.8678, 12.7659], [74.8677, 12.7661], [74.8676, 12.7661], [74.8675, 12.7662], [74.8674, 12.7662], [74.8672, 12.7662], [74.867, 12.7663], [74.8669, 12.7663], [74.8668, 12.7664], [74.8667, 12.7665], [74.8666, 12.7666], [74.8664, 12.7668], [74.8663, 12.767], [74.8663, 12.7672], [74.8663, 12.7674], [74.8662, 12.7676], [74.8661, 12.7679], [74.8661, 12.7684], [74.8661, 12.7685], [74.866, 12.7685], [74.8659, 12.7685], [74.8658, 12.7684], [74.8658, 12.7683], [74.8658, 12.7682], [74.8658, 12.768], [74.8658, 12.7679], [74.8657, 12.7679], [74.8656, 12.7679], [74.8656, 12.768], [74.8655, 12.768], [74.8655, 12.7681], [74.8655, 12.7683], [74.8654, 12.7686], [74.8653, 12.7689], [74.8652, 12.7693], [74.8651, 12.7695], [74.865, 12.7698], [74.8649, 12.77], [74.8648, 12.7702], [74.8647, 12.7704], [74.8646, 12.7705], [74.8645, 12.7706], [74.8645, 12.7707], [74.8644, 12.7708], [74.8643, 12.7709], [74.8642, 12.7709], [74.8642, 12.7708], [74.8643, 12.7706], [74.8644, 12.7704], [74.8645, 12.7702], [74.8647, 12.7699], [74.8649, 12.7694], [74.865, 12.7691], [74.8651, 12.7689], [74.8652, 12.7685], [74.8652, 12.7683], [74.8652, 12.7682], [74.8652, 12.768], [74.8652, 12.7678], [74.865, 12.7677], [74.8649, 12.7676], [74.8647, 12.7675], [74.8646, 12.7674], [74.8644, 12.7673], [74.8643, 12.7673], [74.8643, 12.7672], [74.8643, 12.7671], [74.8644, 12.7671], [74.8644, 12.767], [74.8645, 12.767], [74.8646, 12.7669], [74.8648, 12.7669], [74.8649, 12.7669], [74.8651, 12.7668], [74.8653, 12.7668], [74.8653, 12.7667], [74.8654, 12.7666], [74.8654, 12.7665], [74.8653, 12.7664], [74.8652, 12.7663], [74.8651, 12.7662], [74.8649, 12.7661], [74.8648, 12.766], [74.8648, 12.7659], [74.8648, 12.7658], [74.8649, 12.7658], [74.8649, 12.7657], [74.865, 12.7657], [74.865, 12.7656], [74.8649, 12.7655], [74.8649, 12.7654], [74.8649, 12.7653], [74.8648, 12.7652], [74.8648, 12.7651], [74.8648, 12.765], [74.8649, 12.7648], [74.865, 12.7646], [74.8651, 12.7644], [74.8651, 12.7643], [74.8652, 12.7641], [74.8651, 12.7639], [74.865, 12.7637], [74.8649, 12.7634], [74.8648, 12.7631], [74.8648, 12.7628], [74.8647, 12.7624], [74.8647, 12.762], [74.8646, 12.7617], [74.8646, 12.7616], [74.8645, 12.7615], [74.8644, 12.7614], [74.8643, 12.7614], [74.8642, 12.7613], [74.8642, 12.7614], [74.8641, 12.7614], [74.864, 12.7617], [74.864, 12.7619], [74.864, 12.7621], [74.8639, 12.7625], [74.8638, 12.7628], [74.8637, 12.7634], [74.8635, 12.7642], [74.8634, 12.7645], [74.8633, 12.7648], [74.8633, 12.7651], [74.8631, 12.7655], [74.8629, 12.7662], [74.8626, 12.7669], [74.8623, 12.7676], [74.8622, 12.7681], [74.862, 12.7685], [74.8618, 12.769], [74.8617, 12.7694], [74.8616, 12.7696], [74.8615, 12.7698], [74.8615, 12.77], [74.8614, 12.7702], [74.8613, 12.7704], [74.8611, 12.7706], [74.861, 12.7708], [74.8609, 12.771], [74.8606, 12.7714], [74.8605, 12.7717], [74.8603, 12.772], [74.8602, 12.7724], [74.8598, 12.7736], [74.8596, 12.7743], [74.8595, 12.7745], [74.8594, 12.7748], [74.8593, 12.7752], [74.8591, 12.7757], [74.859, 12.7759], [74.8588, 12.7763], [74.8587, 12.7766], [74.8583, 12.7775], [74.8582, 12.7779], [74.858, 12.7782], [74.8577, 12.779], [74.8581, 12.7791], [74.8584, 12.7792], [74.8586, 12.7793], [74.859, 12.7793], [74.8595, 12.7794], [74.8599, 12.7794], [74.8605, 12.7779], [74.8609, 12.777], [74.861, 12.7766], [74.8613, 12.7762], [74.8615, 12.7758], [74.8621, 12.775], [74.863, 12.7737], [74.8641, 12.7722]]]}, "properties": {"objectid": 135825, "statename": "Karnataka", "statecode": "29", "districtname": "", "districtcode": "575", "ulbname": "Someshwara", "ulbcode": "900608", "wardname": "Ward 23", "wardcode": "23", "id": null, "status": "APPROVED", "misglobalid": null, "approved_by": null, "createdate": 1644072321000, "updateddate": 1644996803000, "globalid": null, "gisglobalid": "4dolKlcd-5loQ-PmKl-aaBa-Bc5msnmdln65", "remark": "Approved", "st_area(shape)": 6.0823601208891594e-05, "st_perimeter(shape)": 0.07092907054936758}}]}
