{"type": "FeatureCollection", "features": [{"type": "Feature", "geometry": {"type": "Polygon", "coordinates": [[[83.1399, 20.7068], [83.1396, 20.7069], [83.1392, 20.707], [83.1391, 20.707], [83.1388, 20.7071], [83.1386, 20.7071], [83.1385, 20.7072], [83.1379, 20.7073], [83.1377, 20.7074], [83.1375, 20.7074], [83.137, 20.7076], [83.1368, 20.7076], [83.1366, 20.7077], [83.1365, 20.7078], [83.1363, 20.7078], [83.1363, 20.7079], [83.1364, 20.7081], [83.1363, 20.7081], [83.1363, 20.7082], [83.1362, 20.7082], [83.136, 20.7083], [83.1359, 20.7083], [83.1358, 20.7084], [83.1357, 20.7085], [83.1355, 20.7086], [83.1354, 20.7086], [83.1351, 20.7088], [83.135, 20.7088], [83.1348, 20.709], [83.1347, 20.709], [83.1346, 20.7092], [83.1345, 20.7093], [83.1344, 20.7093], [83.1344, 20.7094], [83.1346, 20.7096], [83.1347, 20.7097], [83.1348, 20.7099], [83.1349, 20.71], [83.1346, 20.7105], [83.1346, 20.7108], [83.1346, 20.711], [83.1347, 20.7111], [83.1347, 20.7116], [83.1347, 20.7118], [83.1349, 20.7128], [83.1349, 20.7131], [83.1353, 20.7155], [83.1355, 20.7155], [83.1358, 20.7156], [83.1359, 20.7157], [83.1361, 20.7158], [83.1364, 20.716], [83.1368, 20.7163], [83.1372, 20.7165], [83.1374, 20.7166], [83.1378, 20.7167], [83.1387, 20.7166], [83.139, 20.7165], [83.1392, 20.7165], [83.1395, 20.7166], [83.1398, 20.7165], [83.1399, 20.7164], [83.1401, 20.7163], [83.1403, 20.7163], [83.1405, 20.7162], [83.1408, 20.7162], [83.141, 20.7161], [83.1411, 20.7161], [83.1415, 20.7161], [83.1419, 20.7161], [83.1425, 20.716], [83.1428, 20.716], [83.143, 20.716], [83.1434, 20.7162], [83.1428, 20.7138], [83.1427, 20.7129], [83.1427, 20.7124], [83.1426, 20.7117], [83.1422, 20.7115], [83.142, 20.7112], [83.1419, 20.7109], [83.1418, 20.7106], [83.1416, 20.7103], [83.1416, 20.7102], [83.1414, 20.7098], [83.1413, 20.7096], [83.1412, 20.7095], [83.1412, 20.7094], [83.1411, 20.7093], [83.1411, 20.7092], [83.1409, 20.7089], [83.1408, 20.7087], [83.1407, 20.7085], [83.1406, 20.7083], [83.1406, 20.7081], [83.1405, 20.708], [83.1402, 20.7074], [83.1399, 20.7068]]]}, "properties": {"objectid": 65746, "statename": "Odisha", "statecode": "21", "districtname": "Balangir", "districtcode": "393", "ulbname": "Patnagarh Nac", "ulbcode": "801891", "wardname": "Ward 1", "wardcode": "1", "id": null, "status": "APPROVED", "misglobalid": null, "approved_by": null, "createdate": 1641190416000, "updateddate": 1641197156000, "globalid": null, "gisglobalid": "6Rlaacca-QnlB-P6sK-scm5-PlBc5c65m5md", "remark": "", "st_area(shape)": 6.255013074207545e-05, "st_perimeter(shape)": 0.03157799721692908}}, {"type": "Feature", "geometry": {"type": "Polygon", "coordinates": [[[83.1364, 20.7081], [83.1363, 20.7078], [83.1362, 20.7078], [83.136, 20.7078], [83.1357, 20.7078], [83.1354, 20.7077], [83.1352, 20.7077], [83.135, 20.7076], [83.1348, 20.7076], [83.1348, 20.7077], [83.1348, 20.7078], [83.1348, 20.7079], [83.1348, 20.708], [83.1348, 20.7082], [83.1347, 20.7082], [83.1346, 20.7083], [83.1345, 20.7084], [83.1344, 20.7084], [83.1344, 20.7085], [83.1343, 20.7086], [83.1342, 20.7086], [83.1342, 20.7087], [83.1341, 20.7087], [83.1341, 20.7088], [83.134, 20.7088], [83.134, 20.7089], [83.1339, 20.7089], [83.1339, 20.709], [83.1338, 20.709], [83.1337, 20.709], [83.1336, 20.709], [83.1336, 20.7091], [83.1335, 20.7091], [83.1334, 20.7091], [83.1333, 20.7091], [83.1333, 20.7092], [83.1331, 20.7092], [83.133, 20.7093], [83.1329, 20.7093], [83.1328, 20.7093], [83.1327, 20.7092], [83.1326, 20.7092], [83.1325, 20.7092], [83.1324, 20.7092], [83.1322, 20.7092], [83.132, 20.7092], [83.1318, 20.7092], [83.1318, 20.7093], [83.1318, 20.7094], [83.1318, 20.7095], [83.1318, 20.7098], [83.1318, 20.71], [83.1318, 20.7101], [83.1318, 20.7102], [83.1318, 20.7103], [83.1318, 20.7104], [83.1319, 20.7104], [83.132, 20.7104], [83.132, 20.7103], [83.1321, 20.7103], [83.1322, 20.7103], [83.1323, 20.7103], [83.1324, 20.7102], [83.1326, 20.7102], [83.1327, 20.7101], [83.1328, 20.7101], [83.1329, 20.7101], [83.133, 20.7101], [83.1331, 20.71], [83.1333, 20.71], [83.1333, 20.7102], [83.1333, 20.7103], [83.1332, 20.7104], [83.1332, 20.7105], [83.1331, 20.7107], [83.1331, 20.7109], [83.133, 20.711], [83.133, 20.7111], [83.1329, 20.7113], [83.1329, 20.7114], [83.1329, 20.7116], [83.1329, 20.7117], [83.1329, 20.712], [83.1329, 20.7121], [83.133, 20.7122], [83.1331, 20.7122], [83.1332, 20.7122], [83.1333, 20.7122], [83.1335, 20.7123], [83.1337, 20.7123], [83.1339, 20.7122], [83.1341, 20.7122], [83.1342, 20.7122], [83.1344, 20.7122], [83.1345, 20.7122], [83.1346, 20.7121], [83.1347, 20.712], [83.1347, 20.7116], [83.1347, 20.7112], [83.1346, 20.711], [83.1346, 20.7108], [83.1346, 20.7105], [83.1347, 20.7103], [83.1349, 20.71], [83.1348, 20.7099], [83.1347, 20.7097], [83.1346, 20.7096], [83.1345, 20.7095], [83.1344, 20.7094], [83.1344, 20.7093], [83.1345, 20.7093], [83.1346, 20.7092], [83.1347, 20.7091], [83.1348, 20.709], [83.135, 20.7088], [83.1351, 20.7088], [83.1353, 20.7087], [83.1354, 20.7086], [83.1355, 20.7086], [83.1358, 20.7084], [83.1359, 20.7083], [83.1361, 20.7083], [83.1362, 20.7082], [83.1363, 20.7081], [83.1364, 20.7081]]]}, "properties": {"objectid": 67536, "statename": "Odisha", "statecode": "21", "districtname": "Balangir", "districtcode": "393", "ulbname": "Patnagarh Nac", "ulbcode": "801891", "wardname": "Ward 2", "wardcode": "2", "id": null, "status": "APPROVED", "misglobalid": null, "approved_by": null, "createdate": 1641190443000, "updateddate": 1641197162000, "globalid": null, "gisglobalid": "6soQBacP-4n4o-P5aa-Rnll-dBcanoladB5n", "remark": "", "st_area(shape)": 8.12475007808344e-06, "st_perimeter(shape)": 0.018152151536573014}}, {"type": "Feature", "geometry": {"type": "Polygon", "coordinates": [[[83.1348, 20.7076], [83.1347, 20.7075], [83.1345, 20.7075], [83.1343, 20.7074], [83.1341, 20.7074], [83.1339, 20.7074], [83.1338, 20.7074], [83.1336, 20.7074], [83.1332, 20.7075], [83.1331, 20.7075], [83.1329, 20.7075], [83.1326, 20.7076], [83.1325, 20.7076], [83.1322, 20.7077], [83.132, 20.7077], [83.132, 20.7078], [83.132, 20.708], [83.132, 20.7081], [83.132, 20.7082], [83.1319, 20.7083], [83.1319, 20.7084], [83.1319, 20.7085], [83.1319, 20.7087], [83.1318, 20.7089], [83.1318, 20.7091], [83.1318, 20.7092], [83.132, 20.7092], [83.1321, 20.7092], [83.1322, 20.7092], [83.1324, 20.7092], [83.1325, 20.7092], [83.1326, 20.7092], [83.1327, 20.7092], [83.1328, 20.7093], [83.1329, 20.7093], [83.133, 20.7093], [83.1331, 20.7092], [83.1333, 20.7092], [83.1333, 20.7091], [83.1334, 20.7091], [83.1335, 20.7091], [83.1336, 20.7091], [83.1336, 20.709], [83.1337, 20.709], [83.1338, 20.709], [83.1339, 20.7089], [83.134, 20.7089], [83.134, 20.7088], [83.1341, 20.7088], [83.1341, 20.7087], [83.1342, 20.7087], [83.1342, 20.7086], [83.1343, 20.7086], [83.1343, 20.7085], [83.1344, 20.7084], [83.1345, 20.7084], [83.1346, 20.7083], [83.1347, 20.7082], [83.1348, 20.7082], [83.1348, 20.7081], [83.1348, 20.708], [83.1348, 20.7079], [83.1348, 20.7078], [83.1348, 20.7077], [83.1348, 20.7076]]]}, "properties": {"objectid": 67955, "statename": "Odisha", "statecode": "21", "districtname": "Balangir", "districtcode": "393", "ulbname": "Patnagarh Nac", "ulbcode": "801891", "wardname": "Ward 3", "wardcode": "3", "id": null, "status": "APPROVED", "misglobalid": null, "approved_by": null, "createdate": 1641190451000, "updateddate": 1641197168000, "globalid": null, "gisglobalid": "cloQsR5a-4Plo-PQoa-ssQ5-QlQmBa6l6dm5", "remark": "", "st_area(shape)": 4.173462587620745e-06, "st_perimeter(shape)": 0.008471746117627247}}, {"type": "Feature", "geometry": {"type": "Polygon", "coordinates": [[[83.1353, 20.7155], [83.1347, 20.712], [83.1346, 20.7121], [83.1344, 20.7122], [83.1342, 20.7122], [83.1341, 20.7122], [83.1335, 20.7123], [83.1332, 20.7122], [83.133, 20.7122], [83.1329, 20.7121], [83.1329, 20.712], [83.1329, 20.7117], [83.1328, 20.7117], [83.1328, 20.7116], [83.1329, 20.7113], [83.133, 20.7111], [83.1331, 20.7109], [83.1331, 20.7107], [83.1332, 20.7105], [83.1332, 20.7103], [83.1333, 20.7102], [83.1333, 20.71], [83.1332, 20.71], [83.133, 20.7101], [83.1329, 20.7101], [83.1328, 20.7101], [83.1327, 20.7101], [83.1326, 20.7102], [83.1325, 20.7102], [83.1324, 20.7102], [83.1323, 20.7103], [83.1322, 20.7103], [83.1321, 20.7103], [83.132, 20.7104], [83.1319, 20.7104], [83.1318, 20.7104], [83.1318, 20.7101], [83.1318, 20.71], [83.1318, 20.7097], [83.1318, 20.7096], [83.1318, 20.7094], [83.1318, 20.7092], [83.1317, 20.7093], [83.1314, 20.7093], [83.1313, 20.7093], [83.1311, 20.7092], [83.1308, 20.7092], [83.1307, 20.7092], [83.1305, 20.7092], [83.1302, 20.7091], [83.1301, 20.7091], [83.13, 20.709], [83.1299, 20.709], [83.1296, 20.709], [83.1293, 20.709], [83.1291, 20.709], [83.129, 20.709], [83.1287, 20.7091], [83.1284, 20.7091], [83.1282, 20.7091], [83.128, 20.7091], [83.128, 20.7095], [83.128, 20.7098], [83.1281, 20.7105], [83.1282, 20.711], [83.1282, 20.7114], [83.1282, 20.7115], [83.1282, 20.7116], [83.1283, 20.7128], [83.1284, 20.7137], [83.1284, 20.7142], [83.1286, 20.7156], [83.1288, 20.7156], [83.1294, 20.7157], [83.1299, 20.7158], [83.1302, 20.7159], [83.1304, 20.7161], [83.1309, 20.7166], [83.1312, 20.7168], [83.1317, 20.7169], [83.1318, 20.7168], [83.1321, 20.7168], [83.1322, 20.7167], [83.1324, 20.7166], [83.1327, 20.7165], [83.1329, 20.7164], [83.1331, 20.7162], [83.1332, 20.7161], [83.1335, 20.716], [83.1337, 20.7158], [83.1339, 20.7158], [83.134, 20.7157], [83.1343, 20.7157], [83.1347, 20.7156], [83.1353, 20.7155]]]}, "properties": {"objectid": 64432, "statename": "Odisha", "statecode": "21", "districtname": "Balangir", "districtcode": "393", "ulbname": "Patnagarh Nac", "ulbcode": "801891", "wardname": "Ward 4", "wardcode": "4", "id": null, "status": "APPROVED", "misglobalid": null, "approved_by": null, "createdate": 1641190461000, "updateddate": 1641197183000, "globalid": null, "gisglobalid": "dcP56nod-aKBB-P6B6-Qmlo-dK5lmoPa6QdP", "remark": "", "st_area(shape)": 3.950599000691155e-05, "st_perimeter(shape)": 0.028269996681908268}}, {"type": "Feature", "geometry": {"type": "Polygon", "coordinates": [[[83.1318, 20.7092], [83.1318, 20.709], [83.1319, 20.7087], [83.1319, 20.7085], [83.1319, 20.7084], [83.132, 20.7082], [83.132, 20.7081], [83.132, 20.708], [83.132, 20.7078], [83.132, 20.7077], [83.1317, 20.7077], [83.1316, 20.7078], [83.1314, 20.7078], [83.1312, 20.7078], [83.1308, 20.7079], [83.1307, 20.7079], [83.1305, 20.7079], [83.1303, 20.708], [83.1302, 20.708], [83.13, 20.7081], [83.1298, 20.7081], [83.1297, 20.7081], [83.1296, 20.7081], [83.1294, 20.7082], [83.1291, 20.7082], [83.1289, 20.7083], [83.1288, 20.7083], [83.1285, 20.7083], [83.1282, 20.7083], [83.128, 20.7083], [83.1278, 20.7083], [83.1277, 20.7083], [83.1276, 20.7083], [83.1275, 20.7084], [83.1274, 20.7084], [83.1271, 20.7084], [83.127, 20.7084], [83.1269, 20.7084], [83.1265, 20.7085], [83.1264, 20.7085], [83.1263, 20.7085], [83.1262, 20.7086], [83.126, 20.7087], [83.1254, 20.7088], [83.125, 20.7089], [83.1233, 20.7167], [83.1238, 20.7166], [83.1242, 20.7164], [83.1247, 20.7162], [83.125, 20.7161], [83.1252, 20.716], [83.1255, 20.7159], [83.126, 20.7157], [83.1264, 20.7156], [83.1265, 20.7156], [83.127, 20.7155], [83.1275, 20.7156], [83.1282, 20.7156], [83.1286, 20.7156], [83.1284, 20.7133], [83.1283, 20.7128], [83.1283, 20.7124], [83.1283, 20.712], [83.1282, 20.7116], [83.1282, 20.7115], [83.1281, 20.7105], [83.128, 20.7097], [83.128, 20.7095], [83.128, 20.7091], [83.1284, 20.7091], [83.1287, 20.7091], [83.1289, 20.7091], [83.1293, 20.709], [83.1294, 20.709], [83.1296, 20.709], [83.1299, 20.709], [83.13, 20.709], [83.1301, 20.709], [83.1302, 20.7091], [83.1305, 20.7092], [83.1307, 20.7092], [83.1308, 20.7092], [83.1311, 20.7092], [83.1313, 20.7093], [83.1315, 20.7093], [83.1317, 20.7093], [83.1318, 20.7092]]]}, "properties": {"objectid": 64433, "statename": "Odisha", "statecode": "21", "districtname": "Balangir", "districtcode": "393", "ulbname": "Patnagarh Nac", "ulbcode": "801891", "wardname": "Ward 5", "wardcode": "5", "id": null, "status": "APPROVED", "misglobalid": null, "approved_by": null, "createdate": 1641190471000, "updateddate": 1641197198000, "globalid": null, "gisglobalid": "K5mcl4o5-d6os-P5ds-sB5K-R55Rn6sslsB5", "remark": "", "st_area(shape)": 3.335808364534264e-05, "st_perimeter(shape)": 0.03251598288757255}}, {"type": "Feature", "geometry": {"type": "Polygon", "coordinates": [[[83.1228, 20.7167], [83.1233, 20.7167], [83.125, 20.7089], [83.1248, 20.709], [83.1246, 20.709], [83.1243, 20.7091], [83.1242, 20.7092], [83.1239, 20.7092], [83.1237, 20.7093], [83.1235, 20.7093], [83.1232, 20.7094], [83.1231, 20.7095], [83.1229, 20.7095], [83.1228, 20.7095], [83.1225, 20.7095], [83.1223, 20.7094], [83.1222, 20.7093], [83.122, 20.7091], [83.1219, 20.7088], [83.1217, 20.7086], [83.1215, 20.7084], [83.1213, 20.7082], [83.1212, 20.7081], [83.121, 20.7079], [83.1206, 20.7077], [83.1204, 20.7076], [83.1201, 20.7075], [83.1199, 20.7074], [83.1196, 20.7074], [83.1195, 20.7074], [83.1193, 20.7074], [83.1189, 20.7073], [83.1183, 20.7072], [83.1182, 20.7072], [83.118, 20.7072], [83.1181, 20.7071], [83.1181, 20.707], [83.1181, 20.7069], [83.1182, 20.7069], [83.1182, 20.7068], [83.1182, 20.7067], [83.1183, 20.7066], [83.1182, 20.7064], [83.118, 20.7062], [83.1178, 20.706], [83.1178, 20.7059], [83.1177, 20.7057], [83.1177, 20.7055], [83.1177, 20.7053], [83.1177, 20.7052], [83.1178, 20.7052], [83.1178, 20.7051], [83.118, 20.7052], [83.1181, 20.7051], [83.1181, 20.705], [83.1182, 20.7049], [83.1182, 20.7048], [83.1181, 20.7048], [83.1181, 20.7047], [83.1181, 20.7046], [83.1181, 20.7045], [83.118, 20.7044], [83.118, 20.7043], [83.118, 20.7042], [83.118, 20.7041], [83.118, 20.704], [83.118, 20.7038], [83.118, 20.7036], [83.118, 20.7035], [83.118, 20.7033], [83.118, 20.7031], [83.118, 20.7028], [83.1181, 20.7025], [83.1182, 20.7022], [83.1182, 20.7021], [83.1182, 20.702], [83.1101, 20.7047], [83.1106, 20.7053], [83.1106, 20.7058], [83.1144, 20.7124], [83.1167, 20.7143], [83.119, 20.7136], [83.1197, 20.7139], [83.1203, 20.7145], [83.1204, 20.7148], [83.1206, 20.7153], [83.1207, 20.7159], [83.1212, 20.7168], [83.1218, 20.7168], [83.1222, 20.7168], [83.1228, 20.7167]]]}, "properties": {"objectid": 64948, "statename": "Odisha", "statecode": "21", "districtname": "Balangir", "districtcode": "393", "ulbname": "Patnagarh Nac", "ulbcode": "801891", "wardname": "Ward 6", "wardcode": "6", "id": null, "status": "APPROVED", "misglobalid": null, "approved_by": null, "createdate": 1641190479000, "updateddate": 1641197253000, "globalid": null, "gisglobalid": "csmm56KQ-55ao-PBQK-anPl-lKQdRnKncBdP", "remark": "", "st_area(shape)": 0.00010439440132391502, "st_perimeter(shape)": 0.050719625795275905}}, {"type": "Feature", "geometry": {"type": "Polygon", "coordinates": [[[83.1057, 20.6988], [83.1089, 20.703], [83.1091, 20.7033], [83.1093, 20.7036], [83.1095, 20.7038], [83.1101, 20.7047], [83.1182, 20.702], [83.1183, 20.702], [83.1185, 20.702], [83.1187, 20.702], [83.1189, 20.702], [83.119, 20.7019], [83.1193, 20.7018], [83.1194, 20.7018], [83.1195, 20.7018], [83.1196, 20.7018], [83.1198, 20.7017], [83.1199, 20.7017], [83.1201, 20.7017], [83.1202, 20.7016], [83.1205, 20.7015], [83.1207, 20.7015], [83.121, 20.7014], [83.1211, 20.7014], [83.1213, 20.7013], [83.1213, 20.7012], [83.1216, 20.7011], [83.1217, 20.7011], [83.1219, 20.701], [83.122, 20.701], [83.1222, 20.7013], [83.1223, 20.7014], [83.1224, 20.7015], [83.1225, 20.7016], [83.1226, 20.7017], [83.1227, 20.7017], [83.1228, 20.7018], [83.1229, 20.7019], [83.1231, 20.7019], [83.1232, 20.702], [83.1233, 20.7021], [83.1235, 20.7023], [83.1236, 20.7024], [83.1237, 20.7026], [83.1239, 20.7028], [83.1241, 20.703], [83.1242, 20.7032], [83.1243, 20.7033], [83.1244, 20.7034], [83.1244, 20.7035], [83.1245, 20.7035], [83.1245, 20.7036], [83.1245, 20.7037], [83.1245, 20.7038], [83.1246, 20.7039], [83.1246, 20.704], [83.1246, 20.7041], [83.1246, 20.7042], [83.1247, 20.7043], [83.1247, 20.7044], [83.1249, 20.7047], [83.1249, 20.7048], [83.125, 20.7049], [83.1251, 20.705], [83.1252, 20.7051], [83.1253, 20.7053], [83.1254, 20.7055], [83.1256, 20.7056], [83.1257, 20.7058], [83.1259, 20.7059], [83.1261, 20.706], [83.1262, 20.706], [83.1265, 20.7061], [83.1267, 20.7062], [83.1268, 20.7062], [83.1271, 20.7063], [83.1273, 20.7064], [83.1275, 20.7065], [83.1276, 20.7066], [83.1277, 20.7066], [83.1278, 20.7066], [83.1279, 20.7067], [83.1281, 20.7067], [83.1282, 20.7067], [83.1283, 20.7068], [83.1282, 20.7067], [83.1282, 20.7065], [83.1281, 20.7064], [83.128, 20.7061], [83.1279, 20.706], [83.1279, 20.7058], [83.1278, 20.7056], [83.1277, 20.7055], [83.1276, 20.7053], [83.1275, 20.7052], [83.1275, 20.705], [83.1274, 20.7048], [83.1272, 20.7044], [83.1271, 20.7042], [83.1274, 20.7042], [83.1277, 20.7041], [83.1282, 20.704], [83.1285, 20.7039], [83.1286, 20.7039], [83.1287, 20.7039], [83.1293, 20.7038], [83.1295, 20.7037], [83.1298, 20.7037], [83.13, 20.7037], [83.13, 20.7034], [83.1299, 20.7032], [83.1299, 20.7029], [83.1299, 20.7028], [83.1298, 20.7024], [83.1298, 20.702], [83.1297, 20.7017], [83.1296, 20.7015], [83.1296, 20.7014], [83.1296, 20.7012], [83.1296, 20.701], [83.1296, 20.7008], [83.1296, 20.7006], [83.1296, 20.7005], [83.1296, 20.7002], [83.1296, 20.7], [83.1295, 20.6997], [83.1294, 20.6994], [83.1294, 20.699], [83.1292, 20.6985], [83.1292, 20.6983], [83.1292, 20.6981], [83.1291, 20.6978], [83.1291, 20.6976], [83.1291, 20.6974], [83.1291, 20.697], [83.129, 20.6971], [83.1288, 20.6971], [83.126, 20.6978], [83.1253, 20.6979], [83.1246, 20.6978], [83.1243, 20.6978], [83.1238, 20.6979], [83.1237, 20.6975], [83.1223, 20.698], [83.1221, 20.698], [83.1221, 20.6981], [83.1221, 20.6982], [83.1221, 20.6983], [83.122, 20.6983], [83.1218, 20.6984], [83.1217, 20.6985], [83.1215, 20.6985], [83.1213, 20.6986], [83.1212, 20.6986], [83.1211, 20.6987], [83.121, 20.6987], [83.1209, 20.6988], [83.1209, 20.6989], [83.1209, 20.699], [83.1209, 20.6991], [83.1208, 20.6991], [83.1207, 20.699], [83.1205, 20.6988], [83.12, 20.6985], [83.1199, 20.6984], [83.1195, 20.6981], [83.119, 20.6978], [83.1189, 20.6977], [83.1187, 20.6976], [83.1186, 20.6975], [83.1184, 20.6973], [83.1182, 20.6971], [83.118, 20.6968], [83.1177, 20.6967], [83.1175, 20.6965], [83.1169, 20.696], [83.1161, 20.6953], [83.1157, 20.6949], [83.115, 20.6942], [83.1148, 20.6939], [83.1144, 20.6934], [83.1139, 20.6927], [83.1134, 20.6921], [83.113, 20.6917], [83.1125, 20.6913], [83.1122, 20.6911], [83.1116, 20.6909], [83.1114, 20.6909], [83.1112, 20.6908], [83.1107, 20.6903], [83.1106, 20.6904], [83.1105, 20.6906], [83.1105, 20.6907], [83.1104, 20.691], [83.1111, 20.6936], [83.1107, 20.6943], [83.1104, 20.6958], [83.1057, 20.6988]]]}, "properties": {"objectid": 67016, "statename": "Odisha", "statecode": "21", "districtname": "Balangir", "districtcode": "393", "ulbname": "Patnagarh Nac", "ulbcode": "801891", "wardname": "Ward 7", "wardcode": "7", "id": null, "status": "APPROVED", "misglobalid": null, "approved_by": null, "createdate": 1641190488000, "updateddate": 1641197193000, "globalid": null, "gisglobalid": "m56onRmd-lm6c-P65m-QlBa-oQ64a65macKB", "remark": "", "st_area(shape)": 0.00015880656590759522, "st_perimeter(shape)": 0.07562130403796968}}, {"type": "Feature", "geometry": {"type": "Polygon", "coordinates": [[[83.1275, 20.7084], [83.1289, 20.7083], [83.1288, 20.7081], [83.1288, 20.708], [83.1287, 20.7077], [83.1286, 20.7076], [83.1285, 20.7074], [83.1285, 20.7072], [83.1284, 20.7071], [83.1283, 20.7068], [83.1282, 20.7068], [83.1281, 20.7067], [83.128, 20.7067], [83.1279, 20.7067], [83.1278, 20.7066], [83.1277, 20.7066], [83.1276, 20.7066], [83.1273, 20.7064], [83.1271, 20.7063], [83.1268, 20.7062], [83.1267, 20.7062], [83.1265, 20.7061], [83.1262, 20.706], [83.1261, 20.706], [83.1259, 20.7059], [83.1257, 20.7058], [83.1256, 20.7056], [83.1254, 20.7055], [83.1252, 20.7052], [83.1251, 20.705], [83.1249, 20.7047], [83.1247, 20.7044], [83.1246, 20.7042], [83.1246, 20.7041], [83.1245, 20.7039], [83.1245, 20.7037], [83.1245, 20.7035], [83.1244, 20.7034], [83.1243, 20.7033], [83.1239, 20.7028], [83.1236, 20.7025], [83.1233, 20.7021], [83.1231, 20.7019], [83.1229, 20.7019], [83.1227, 20.7018], [83.1225, 20.7016], [83.1224, 20.7015], [83.1223, 20.7014], [83.1222, 20.7013], [83.122, 20.701], [83.1219, 20.701], [83.1217, 20.7011], [83.1216, 20.7011], [83.1215, 20.7012], [83.1213, 20.7012], [83.1213, 20.7013], [83.1211, 20.7014], [83.121, 20.7014], [83.1205, 20.7015], [83.1202, 20.7016], [83.1199, 20.7017], [83.1195, 20.7018], [83.1193, 20.7019], [83.119, 20.7019], [83.1189, 20.702], [83.1187, 20.702], [83.1185, 20.702], [83.1184, 20.702], [83.1183, 20.702], [83.1182, 20.702], [83.1182, 20.7021], [83.1182, 20.7022], [83.1181, 20.7024], [83.1181, 20.7025], [83.1181, 20.7026], [83.1181, 20.7028], [83.118, 20.7029], [83.118, 20.7031], [83.118, 20.7035], [83.118, 20.7038], [83.118, 20.704], [83.118, 20.7041], [83.118, 20.7043], [83.1181, 20.7045], [83.1181, 20.7046], [83.1181, 20.7047], [83.1182, 20.7048], [83.1182, 20.7049], [83.1181, 20.705], [83.1181, 20.7051], [83.118, 20.7052], [83.1178, 20.7051], [83.1178, 20.7052], [83.1177, 20.7052], [83.1177, 20.7053], [83.1177, 20.7055], [83.1177, 20.7056], [83.1177, 20.7057], [83.1178, 20.7059], [83.1178, 20.706], [83.1179, 20.7061], [83.118, 20.7062], [83.1181, 20.7063], [83.1182, 20.7064], [83.1183, 20.7066], [83.1182, 20.7067], [83.1182, 20.7068], [83.1181, 20.707], [83.118, 20.7072], [83.1182, 20.7072], [83.1185, 20.7073], [83.1189, 20.7073], [83.1191, 20.7073], [83.1194, 20.7074], [83.1195, 20.7074], [83.1196, 20.7074], [83.1199, 20.7074], [83.1201, 20.7075], [83.1202, 20.7076], [83.1204, 20.7076], [83.1206, 20.7077], [83.121, 20.7079], [83.1212, 20.7081], [83.1215, 20.7084], [83.1217, 20.7086], [83.1219, 20.7089], [83.122, 20.7091], [83.1221, 20.7092], [83.1222, 20.7093], [83.1223, 20.7094], [83.1225, 20.7095], [83.1227, 20.7095], [83.1228, 20.7095], [83.1231, 20.7094], [83.1232, 20.7094], [83.1235, 20.7093], [83.1237, 20.7093], [83.1239, 20.7092], [83.1244, 20.7091], [83.1247, 20.709], [83.125, 20.7089], [83.1253, 20.7089], [83.1263, 20.7085], [83.1269, 20.7084], [83.1271, 20.7084], [83.1275, 20.7084]]]}, "properties": {"objectid": 67956, "statename": "Odisha", "statecode": "21", "districtname": "Balangir", "districtcode": "393", "ulbname": "Patnagarh Nac", "ulbcode": "801891", "wardname": "Ward 8", "wardcode": "8", "id": null, "status": "APPROVED", "misglobalid": null, "approved_by": null, "createdate": 1641190502000, "updateddate": 1641197204000, "globalid": null, "gisglobalid": "o5cB5moQ-ndRl-Pcc4-RBam-B46PQm55mQPB", "remark": "", "st_area(shape)": 5.244479841705191e-05, "st_perimeter(shape)": 0.03209204529733086}}, {"type": "Feature", "geometry": {"type": "Polygon", "coordinates": [[[83.1317, 20.7077], [83.132, 20.7077], [83.132, 20.7075], [83.132, 20.7074], [83.132, 20.7073], [83.132, 20.707], [83.132, 20.7067], [83.1319, 20.7066], [83.1319, 20.7064], [83.132, 20.7064], [83.1321, 20.7064], [83.1322, 20.7063], [83.1323, 20.7063], [83.1323, 20.7062], [83.1323, 20.7061], [83.1323, 20.7058], [83.1323, 20.7057], [83.1323, 20.7055], [83.1321, 20.7054], [83.132, 20.7053], [83.1318, 20.7052], [83.1317, 20.705], [83.1316, 20.7049], [83.1315, 20.7047], [83.1314, 20.7045], [83.1314, 20.7043], [83.1314, 20.7041], [83.1314, 20.7036], [83.1314, 20.7034], [83.1314, 20.7032], [83.1315, 20.7031], [83.1315, 20.703], [83.1316, 20.703], [83.1323, 20.7027], [83.1324, 20.7026], [83.1325, 20.7026], [83.1325, 20.7025], [83.1324, 20.702], [83.1324, 20.7019], [83.1324, 20.7018], [83.1323, 20.7018], [83.1323, 20.7016], [83.1323, 20.7015], [83.1324, 20.7015], [83.1324, 20.7014], [83.1325, 20.7014], [83.1327, 20.7013], [83.1329, 20.7012], [83.133, 20.7012], [83.1331, 20.7011], [83.1332, 20.7011], [83.1332, 20.701], [83.1331, 20.7009], [83.133, 20.7007], [83.1328, 20.7003], [83.1328, 20.7002], [83.1326, 20.7], [83.1325, 20.6997], [83.1325, 20.6995], [83.1324, 20.6994], [83.1324, 20.6992], [83.1321, 20.6987], [83.1321, 20.6985], [83.132, 20.6982], [83.132, 20.6978], [83.1319, 20.6977], [83.1319, 20.6973], [83.1318, 20.6971], [83.1317, 20.6969], [83.1316, 20.6967], [83.1316, 20.6964], [83.1291, 20.697], [83.1291, 20.6974], [83.1291, 20.6978], [83.1292, 20.6981], [83.1292, 20.6984], [83.1293, 20.6989], [83.1294, 20.6994], [83.1295, 20.6997], [83.1296, 20.7], [83.1296, 20.7002], [83.1296, 20.7004], [83.1296, 20.7006], [83.1296, 20.7008], [83.1296, 20.701], [83.1296, 20.7012], [83.1297, 20.7015], [83.1297, 20.7017], [83.1298, 20.702], [83.1298, 20.7023], [83.1299, 20.7025], [83.1299, 20.7029], [83.1299, 20.7033], [83.13, 20.7037], [83.1293, 20.7038], [83.1286, 20.7039], [83.128, 20.704], [83.1271, 20.7042], [83.1273, 20.7045], [83.1274, 20.7048], [83.1276, 20.7052], [83.1277, 20.7055], [83.1278, 20.7056], [83.1279, 20.706], [83.128, 20.7061], [83.1282, 20.7065], [83.1282, 20.7067], [83.1283, 20.7068], [83.1283, 20.7069], [83.1284, 20.7071], [83.1285, 20.7072], [83.1286, 20.7074], [83.1286, 20.7076], [83.1287, 20.7077], [83.1287, 20.7078], [83.1288, 20.708], [83.1288, 20.7081], [83.1289, 20.7082], [83.1291, 20.7082], [83.1294, 20.7082], [83.1297, 20.7081], [83.1298, 20.7081], [83.13, 20.708], [83.1302, 20.708], [83.1304, 20.708], [83.1305, 20.7079], [83.1307, 20.7079], [83.1308, 20.7079], [83.131, 20.7079], [83.1312, 20.7078], [83.1314, 20.7078], [83.1316, 20.7078], [83.1317, 20.7077]]]}, "properties": {"objectid": 67537, "statename": "Odisha", "statecode": "21", "districtname": "Balangir", "districtcode": "393", "ulbname": "Patnagarh Nac", "ulbcode": "801891", "wardname": " Ward 9", "wardcode": "9", "id": null, "status": "APPROVED", "misglobalid": null, "approved_by": null, "createdate": 1641190508000, "updateddate": 1641197189000, "globalid": null, "gisglobalid": "anmRRn6B-sQlc-PaR6-a6BK-B6QRRonllKRn", "remark": "", "st_area(shape)": 3.5487183171276216e-05, "st_perimeter(shape)": 0.03333721452247335}}, {"type": "Feature", "geometry": {"type": "Polygon", "coordinates": [[[83.1336, 20.7055], [83.1339, 20.7053], [83.1336, 20.7036], [83.1336, 20.7035], [83.1336, 20.7034], [83.1336, 20.7032], [83.1336, 20.7028], [83.1335, 20.7012], [83.1333, 20.7011], [83.1332, 20.701], [83.1332, 20.7011], [83.1331, 20.7011], [83.133, 20.7012], [83.1329, 20.7012], [83.1328, 20.7012], [83.1326, 20.7013], [83.1325, 20.7014], [83.1324, 20.7015], [83.1323, 20.7016], [83.1324, 20.7018], [83.1324, 20.7019], [83.1324, 20.702], [83.1324, 20.7022], [83.1325, 20.7023], [83.1325, 20.7025], [83.1325, 20.7026], [83.1324, 20.7026], [83.1323, 20.7027], [83.1321, 20.7028], [83.132, 20.7028], [83.1319, 20.7029], [83.1317, 20.7029], [83.1316, 20.703], [83.1315, 20.703], [83.1315, 20.7031], [83.1314, 20.7032], [83.1314, 20.7034], [83.1314, 20.7035], [83.1314, 20.7036], [83.1314, 20.7039], [83.1314, 20.704], [83.1314, 20.7043], [83.1314, 20.7045], [83.1315, 20.7045], [83.1315, 20.7046], [83.1315, 20.7047], [83.1316, 20.7048], [83.1316, 20.7049], [83.1317, 20.705], [83.1317, 20.7051], [83.1318, 20.7052], [83.1319, 20.7052], [83.132, 20.7053], [83.1321, 20.7054], [83.1322, 20.7054], [83.1323, 20.7054], [83.1323, 20.7055], [83.1323, 20.7056], [83.1323, 20.7058], [83.1324, 20.7062], [83.1323, 20.7062], [83.1323, 20.7063], [83.1322, 20.7063], [83.1321, 20.7064], [83.132, 20.7064], [83.1319, 20.7064], [83.1319, 20.7065], [83.1319, 20.7066], [83.132, 20.7066], [83.132, 20.7067], [83.132, 20.7069], [83.132, 20.707], [83.132, 20.7072], [83.132, 20.7073], [83.132, 20.7074], [83.132, 20.7075], [83.132, 20.7077], [83.1322, 20.7077], [83.1325, 20.7076], [83.1326, 20.7076], [83.1329, 20.7075], [83.1331, 20.7075], [83.1332, 20.7075], [83.1335, 20.7074], [83.1334, 20.7073], [83.1334, 20.7071], [83.1333, 20.7069], [83.1332, 20.7067], [83.1332, 20.7065], [83.1331, 20.7063], [83.133, 20.7062], [83.133, 20.706], [83.1329, 20.7059], [83.133, 20.7058], [83.1331, 20.7058], [83.1334, 20.7056], [83.1336, 20.7055]]]}, "properties": {"objectid": 67538, "statename": "Odisha", "statecode": "21", "districtname": "Balangir", "districtcode": "393", "ulbname": "Patnagarh Nac", "ulbcode": "801891", "wardname": "Ward 10", "wardcode": "10", "id": null, "status": "APPROVED", "misglobalid": null, "approved_by": null, "createdate": 1641190520000, "updateddate": 1641197177000, "globalid": null, "gisglobalid": "s5sPKamK-slPK-PdKQ-sPnK-nss4Ks4455cc", "remark": "", "st_area(shape)": 9.911073239318782e-06, "st_perimeter(shape)": 0.01735196602545506}}, {"type": "Feature", "geometry": {"type": "Polygon", "coordinates": [[[83.1399, 20.7068], [83.1398, 20.7056], [83.1396, 20.7045], [83.1395, 20.7042], [83.1394, 20.7039], [83.1393, 20.7032], [83.1393, 20.7027], [83.1398, 20.702], [83.1405, 20.7011], [83.1416, 20.7], [83.1422, 20.6993], [83.1425, 20.6987], [83.143, 20.6981], [83.1436, 20.6973], [83.1443, 20.6964], [83.1404, 20.6931], [83.1392, 20.6931], [83.1355, 20.6933], [83.133, 20.696], [83.1316, 20.6964], [83.1316, 20.6967], [83.1319, 20.6973], [83.132, 20.6978], [83.132, 20.6982], [83.1321, 20.6985], [83.1324, 20.6994], [83.1325, 20.6997], [83.1326, 20.7], [83.1329, 20.7004], [83.133, 20.7007], [83.1332, 20.701], [83.1333, 20.7011], [83.1335, 20.7012], [83.1336, 20.7028], [83.1336, 20.703], [83.1336, 20.7033], [83.1336, 20.7034], [83.1336, 20.7035], [83.1337, 20.7036], [83.1337, 20.7037], [83.1339, 20.7053], [83.1336, 20.7055], [83.1334, 20.7056], [83.1331, 20.7058], [83.133, 20.7058], [83.1329, 20.7059], [83.133, 20.706], [83.1331, 20.7063], [83.1332, 20.7065], [83.1333, 20.7067], [83.1333, 20.7069], [83.1334, 20.7071], [83.1334, 20.7073], [83.1335, 20.7074], [83.1336, 20.7074], [83.1338, 20.7074], [83.1339, 20.7074], [83.1341, 20.7074], [83.1343, 20.7074], [83.1346, 20.7075], [83.1348, 20.7076], [83.135, 20.7076], [83.1351, 20.7077], [83.1353, 20.7077], [83.1355, 20.7077], [83.1357, 20.7078], [83.1359, 20.7078], [83.136, 20.7078], [83.1362, 20.7078], [83.1363, 20.7078], [83.1366, 20.7077], [83.1368, 20.7076], [83.137, 20.7076], [83.1377, 20.7074], [83.1388, 20.7071], [83.1399, 20.7068]]]}, "properties": {"objectid": 67539, "statename": "Odisha", "statecode": "21", "districtname": "Balangir", "districtcode": "393", "ulbname": "Patnagarh Nac", "ulbcode": "801891", "wardname": "Ward 11", "wardcode": "11", "id": null, "status": "APPROVED", "misglobalid": null, "approved_by": null, "createdate": 1641190529000, "updateddate": 1641197151000, "globalid": null, "gisglobalid": "lK6P6dR5-Qm5n-P55R-RKdn-sQ6BPdmQl5Qa", "remark": "", "st_area(shape)": 0.00011337824898470702, "st_perimeter(shape)": 0.04616125220930682}}, {"type": "Feature", "geometry": {"type": "Polygon", "coordinates": [[[83.1399, 20.7068], [83.1405, 20.7067], [83.141, 20.7066], [83.1413, 20.7065], [83.1416, 20.7063], [83.1419, 20.7061], [83.1424, 20.7059], [83.143, 20.7057], [83.1433, 20.7056], [83.1437, 20.7055], [83.1441, 20.7054], [83.1444, 20.7054], [83.1445, 20.7054], [83.1447, 20.7054], [83.145, 20.7054], [83.1453, 20.7054], [83.146, 20.7055], [83.1464, 20.7055], [83.1464, 20.7052], [83.1464, 20.705], [83.1464, 20.7048], [83.1465, 20.7046], [83.1465, 20.7043], [83.1465, 20.7042], [83.1465, 20.704], [83.1466, 20.7039], [83.1466, 20.7037], [83.1466, 20.7035], [83.1466, 20.7034], [83.1466, 20.7032], [83.1466, 20.703], [83.1466, 20.7029], [83.1466, 20.7027], [83.1467, 20.7025], [83.1467, 20.7024], [83.1467, 20.7025], [83.147, 20.7025], [83.1472, 20.7025], [83.1473, 20.7025], [83.1474, 20.7025], [83.1475, 20.7025], [83.1476, 20.7025], [83.1476, 20.7024], [83.1477, 20.7024], [83.1477, 20.7023], [83.1478, 20.7023], [83.1479, 20.7023], [83.148, 20.7022], [83.1483, 20.7021], [83.1485, 20.7012], [83.1485, 20.7011], [83.1486, 20.7011], [83.1493, 20.701], [83.1493, 20.7001], [83.1494, 20.7], [83.1496, 20.7], [83.1494, 20.6997], [83.1493, 20.6995], [83.1492, 20.6993], [83.1491, 20.6991], [83.149, 20.6989], [83.1489, 20.6989], [83.1489, 20.6988], [83.1488, 20.6987], [83.1488, 20.6986], [83.1487, 20.6985], [83.1487, 20.6984], [83.1488, 20.6982], [83.1488, 20.698], [83.1478, 20.6979], [83.1476, 20.6979], [83.1474, 20.6979], [83.147, 20.698], [83.1465, 20.6981], [83.1464, 20.6981], [83.1463, 20.6982], [83.1451, 20.6971], [83.1448, 20.6969], [83.1445, 20.6967], [83.1443, 20.6964], [83.1443, 20.6965], [83.143, 20.6981], [83.1425, 20.6988], [83.1416, 20.7], [83.1405, 20.7011], [83.1398, 20.702], [83.1393, 20.7027], [83.1393, 20.7032], [83.1394, 20.7039], [83.1396, 20.7045], [83.1397, 20.7052], [83.1399, 20.7068]]]}, "properties": {"objectid": 67540, "statename": "Odisha", "statecode": "21", "districtname": "Balangir", "districtcode": "393", "ulbname": "Patnagarh Nac", "ulbcode": "801891", "wardname": "Ward 12", "wardcode": "12", "id": null, "status": "APPROVED", "misglobalid": null, "approved_by": null, "createdate": 1641190537000, "updateddate": 1641197146000, "globalid": null, "gisglobalid": "64saBns5-55Bc-PBn4-asQ4-c4mQmaaaPKRo", "remark": "", "st_area(shape)": 6.0357673161248706e-05, "st_perimeter(shape)": 0.0343289217481555}}, {"type": "Feature", "geometry": {"type": "Polygon", "coordinates": [[[83.1401, 20.7068], [83.1399, 20.7068], [83.1405, 20.708], [83.1409, 20.7088], [83.1412, 20.7095], [83.1416, 20.7102], [83.1419, 20.7109], [83.1422, 20.7114], [83.1445, 20.7109], [83.1447, 20.7109], [83.1487, 20.7102], [83.1519, 20.7093], [83.1543, 20.7093], [83.1543, 20.7103], [83.1576, 20.7104], [83.1584, 20.7104], [83.1598, 20.7104], [83.1598, 20.7094], [83.1598, 20.7089], [83.1598, 20.7087], [83.1597, 20.708], [83.1593, 20.708], [83.1587, 20.7081], [83.1584, 20.7081], [83.1578, 20.7081], [83.1575, 20.708], [83.1573, 20.708], [83.1568, 20.7079], [83.1565, 20.7078], [83.1563, 20.7078], [83.1561, 20.7077], [83.156, 20.7077], [83.1555, 20.7075], [83.1547, 20.7073], [83.1542, 20.7072], [83.1537, 20.7071], [83.1535, 20.707], [83.1529, 20.7068], [83.1528, 20.7068], [83.1519, 20.7066], [83.1472, 20.7057], [83.1464, 20.7055], [83.146, 20.7055], [83.1451, 20.7054], [83.1447, 20.7054], [83.1444, 20.7054], [83.1437, 20.7055], [83.143, 20.7057], [83.1424, 20.7059], [83.1419, 20.7061], [83.1417, 20.7063], [83.1415, 20.7064], [83.1413, 20.7065], [83.141, 20.7066], [83.1405, 20.7067], [83.1401, 20.7068]]]}, "properties": {"objectid": 67957, "statename": "Odisha", "statecode": "21", "districtname": "Balangir", "districtcode": "393", "ulbname": "Patnagarh Nac", "ulbcode": "801891", "wardname": "Ward 13", "wardcode": "13", "id": null, "status": "APPROVED", "misglobalid": null, "approved_by": null, "createdate": 1641190545000, "updateddate": 1641197133000, "globalid": null, "gisglobalid": "nod5nada-n66s-PaKP-Qmac-Q64PRRBlsosc", "remark": "", "st_area(shape)": 7.05976142030385e-05, "st_perimeter(shape)": 0.04667738449980471}}, {"type": "Feature", "geometry": {"type": "Polygon", "coordinates": [[[83.1464, 20.7055], [83.1519, 20.7066], [83.1528, 20.7068], [83.1536, 20.707], [83.1541, 20.7072], [83.1548, 20.7074], [83.1558, 20.7076], [83.1564, 20.7078], [83.1573, 20.708], [83.1575, 20.708], [83.1578, 20.7081], [83.1578, 20.7078], [83.1578, 20.7076], [83.1578, 20.7073], [83.1579, 20.7067], [83.1579, 20.7066], [83.1579, 20.7065], [83.158, 20.7063], [83.158, 20.7056], [83.158, 20.7054], [83.1581, 20.7052], [83.1581, 20.705], [83.1582, 20.7046], [83.1583, 20.7043], [83.1584, 20.7039], [83.1585, 20.7036], [83.1585, 20.7035], [83.1587, 20.703], [83.1588, 20.7028], [83.1589, 20.7023], [83.1589, 20.7018], [83.1589, 20.7014], [83.1588, 20.701], [83.1588, 20.7008], [83.1589, 20.7007], [83.1589, 20.7006], [83.1595, 20.7002], [83.1597, 20.7001], [83.1597, 20.7], [83.1602, 20.6997], [83.1601, 20.6995], [83.1601, 20.6993], [83.1601, 20.6991], [83.1599, 20.6987], [83.1598, 20.6984], [83.1597, 20.6982], [83.1596, 20.698], [83.1596, 20.6979], [83.1596, 20.6977], [83.1595, 20.6975], [83.1595, 20.6974], [83.1594, 20.6971], [83.1594, 20.697], [83.1594, 20.6968], [83.1593, 20.6964], [83.1593, 20.6963], [83.1593, 20.6961], [83.1593, 20.6958], [83.1592, 20.6956], [83.1592, 20.6955], [83.159, 20.6952], [83.1588, 20.6949], [83.1587, 20.6949], [83.1586, 20.6947], [83.1584, 20.6946], [83.158, 20.6941], [83.1578, 20.6941], [83.1576, 20.6942], [83.1573, 20.6941], [83.1571, 20.694], [83.1568, 20.6939], [83.1566, 20.6938], [83.1563, 20.6936], [83.1561, 20.6934], [83.1556, 20.6932], [83.1556, 20.6933], [83.1555, 20.6935], [83.1555, 20.6938], [83.1555, 20.694], [83.1554, 20.6943], [83.1555, 20.6945], [83.1555, 20.6947], [83.1553, 20.6948], [83.1551, 20.6956], [83.155, 20.6958], [83.155, 20.6961], [83.155, 20.6962], [83.1548, 20.6966], [83.1547, 20.6971], [83.1545, 20.6975], [83.1543, 20.6981], [83.1542, 20.6985], [83.154, 20.6988], [83.1537, 20.699], [83.1537, 20.6991], [83.1536, 20.6991], [83.1534, 20.6992], [83.1533, 20.6992], [83.1531, 20.6992], [83.153, 20.6993], [83.1528, 20.6993], [83.1527, 20.6993], [83.1526, 20.6993], [83.1524, 20.6994], [83.1523, 20.6994], [83.152, 20.6995], [83.1517, 20.6996], [83.1513, 20.6997], [83.1509, 20.6998], [83.1507, 20.6998], [83.1505, 20.6998], [83.1504, 20.6999], [83.1496, 20.7], [83.1495, 20.7], [83.1494, 20.7], [83.1494, 20.7001], [83.1493, 20.7002], [83.1493, 20.7003], [83.1493, 20.7004], [83.1493, 20.7005], [83.1493, 20.7006], [83.1493, 20.7008], [83.1493, 20.701], [83.149, 20.701], [83.1486, 20.7011], [83.1485, 20.7011], [83.1485, 20.7012], [83.1483, 20.7019], [83.1483, 20.702], [83.1483, 20.7021], [83.1482, 20.7021], [83.1481, 20.7022], [83.148, 20.7022], [83.148, 20.7023], [83.1479, 20.7023], [83.1478, 20.7023], [83.1477, 20.7023], [83.1477, 20.7024], [83.1476, 20.7024], [83.1476, 20.7025], [83.1475, 20.7025], [83.1474, 20.7025], [83.1473, 20.7025], [83.1472, 20.7025], [83.1471, 20.7025], [83.147, 20.7025], [83.1468, 20.7025], [83.1467, 20.7025], [83.1467, 20.7024], [83.1467, 20.7025], [83.1467, 20.7026], [83.1466, 20.7027], [83.1466, 20.7028], [83.1466, 20.703], [83.1466, 20.7032], [83.1467, 20.7034], [83.1466, 20.7035], [83.1466, 20.7037], [83.1466, 20.7039], [83.1465, 20.7041], [83.1465, 20.7043], [83.1465, 20.7046], [83.1464, 20.7048], [83.1464, 20.7051], [83.1464, 20.7052], [83.1464, 20.7055]]]}, "properties": {"objectid": 65345, "statename": "Odisha", "statecode": "21", "districtname": "Balangir", "districtcode": "393", "ulbname": "Patnagarh Nac", "ulbcode": "801891", "wardname": "Ward 14", "wardcode": "14", "id": null, "status": "APPROVED", "misglobalid": null, "approved_by": null, "createdate": 1641190556000, "updateddate": 1641197125000, "globalid": null, "gisglobalid": "cnP6Rcoa-PcaR-PQQd-RBmR-dd4oQsRn45oR", "remark": "", "st_area(shape)": 0.00010628108358088208, "st_perimeter(shape)": 0.04820590478088864}}, {"type": "Feature", "geometry": {"type": "Polygon", "coordinates": [[[83.1506, 20.7226], [83.152, 20.7226], [83.1525, 20.7225], [83.1537, 20.7224], [83.1541, 20.7224], [83.1545, 20.7225], [83.1549, 20.7226], [83.1552, 20.7227], [83.1554, 20.7229], [83.1558, 20.7233], [83.1562, 20.7237], [83.1568, 20.7245], [83.1592, 20.7205], [83.1588, 20.7157], [83.1588, 20.7152], [83.1588, 20.7144], [83.1588, 20.714], [83.1589, 20.7138], [83.159, 20.7133], [83.1592, 20.7125], [83.1593, 20.7124], [83.1594, 20.712], [83.1595, 20.7118], [83.1596, 20.7115], [83.1597, 20.7113], [83.1598, 20.7111], [83.1598, 20.7109], [83.1598, 20.7106], [83.1598, 20.7104], [83.1584, 20.7104], [83.1581, 20.7104], [83.1576, 20.7104], [83.1565, 20.7103], [83.1543, 20.7103], [83.1543, 20.7093], [83.1519, 20.7093], [83.1487, 20.7102], [83.1447, 20.7109], [83.1422, 20.7114], [83.1426, 20.7117], [83.1427, 20.7124], [83.1427, 20.713], [83.1428, 20.7138], [83.1431, 20.715], [83.1434, 20.7162], [83.1443, 20.7166], [83.1449, 20.7174], [83.1454, 20.7181], [83.146, 20.7191], [83.1465, 20.7197], [83.1468, 20.7204], [83.1472, 20.7212], [83.1478, 20.7218], [83.1483, 20.7222], [83.1488, 20.7225], [83.1495, 20.7226], [83.1499, 20.7227], [83.1506, 20.7226]]]}, "properties": {"objectid": 67958, "statename": "Odisha", "statecode": "21", "districtname": "Balangir", "districtcode": "393", "ulbname": "Patnagarh Nac", "ulbcode": "801891", "wardname": "Ward 15", "wardcode": "15", "id": null, "status": "APPROVED", "misglobalid": null, "approved_by": null, "createdate": 1641190562000, "updateddate": 1641197140000, "globalid": null, "gisglobalid": "4KKRnlKa-BoBa-Pons-Ro4B-d6ncaKBBocdd", "remark": "", "st_area(shape)": 0.00018072328498960118, "st_perimeter(shape)": 0.05619622776120667}}]}
