{"type":"Topology","arcs":[[[31788,33333],[-7947,0]],[[23841,33333],[-8609,21930],[-15232,3508]],[[0,58771],[14569,2632],[3312,28947],[24503,-13158],[7947,-23684]],[[50331,53508],[-18543,-20175]],[[50331,53508],[25165,28947],[11258,17544],[13245,-8772],[-3311,-22807],[-18543,-30701],[-17218,-21930]],[[60927,15789],[-3312,12281],[-13907,7017]],[[43708,35087],[-11920,-4386]],[[31788,30701],[0,2632]],[[60927,15789],[-14570,-877]],[[46357,14912],[662,4386]],[[47019,19298],[-662,6140]],[[46357,25438],[-2649,9649]],[[46357,25438],[-5960,0]],[[40397,25438],[-5298,-877]],[[35099,24561],[-3311,6140]],[[36423,24561],[3974,877]],[[47019,19298],[-662,-4386]],[[46357,14912],[-11258,-3509]],[[35099,11403],[-8609,11404]],[[26490,22807],[9933,1754]],[[26490,22807],[-1325,6140]],[[25165,28947],[-1324,3509]],[[23841,32456],[0,877]],[[35099,24561],[1324,0]],[[23841,32456],[662,-2632]],[[24503,29824],[-1987,-8772]],[[22516,21052],[-2649,-1754]],[[19867,19298],[-5960,19298],[-13907,9649]],[[0,48245],[0,10526]],[[35099,11403],[-6622,-11403],[-27153,19298],[-1324,28947]],[[19867,19298],[2649,1754]],[[24503,29824],[662,-877]]],"transform":{"scale":[1.5100151001499694e-7,1.1400114001141865e-7],"translate":[73.9287,16.9166]},"objects":{"wards":{"type":"GeometryCollection","geometries":[{"arcs":[[0,1,2,3]],"type":"Polygon","properties":{"objectid":51341,"statename":"Maharashtra","statecode":"27","districtname":"Kolhapur","districtcode":"530","ulbname":"Malkapur_K","ulbcode":"802881","wardname":"Ward 1","wardcode":"1","id":null,"status":"APPROVED","misglobalid":null,"approved_by":null,"createdate":1639830292000,"updateddate":1642681218000,"globalid":null,"gisglobalid":"82362f00-573b-4282-b16b-4f901bdc87f2","remark":"Ok","st_area(shape)":0.000024201654075550318,"st_perimeter(shape)":0.026455322574717405}},{"arcs":[[4,5,6,7,-4]],"type":"Polygon","properties":{"objectid":51346,"statename":"Maharashtra","statecode":"27","districtname":"Kolhapur","districtcode":"530","ulbname":"Malkapur_K","ulbcode":"802881","wardname":"Ward 2","wardcode":"2","id":null,"status":"APPROVED","misglobalid":null,"approved_by":null,"createdate":1639830707000,"updateddate":1644937838000,"globalid":null,"gisglobalid":"60d67819-d452-497c-94ae-5aee64436e3c","remark":"Ok","st_area(shape)":0.0000394923301572576,"st_perimeter(shape)":0.034029747474437086}},{"arcs":[[-6,8,9,10,11]],"type":"Polygon","properties":{"objectid":52213,"statename":"Maharashtra","statecode":"27","districtname":"Kolhapur","districtcode":"530","ulbname":"Malkapur_K","ulbcode":"802881","wardname":"Ward 3","wardcode":"3","id":null,"status":"APPROVED","misglobalid":null,"approved_by":null,"createdate":1639830403000,"updateddate":1644937864000,"globalid":null,"gisglobalid":"ac8df734-5839-45b5-b26f-706b32f81148","remark":"Ok","st_area(shape)":0.000003857564638660466,"st_perimeter(shape)":0.009595470482104275}},{"arcs":[[-7,-12,12,13,14]],"type":"Polygon","properties":{"objectid":50885,"statename":"Maharashtra","statecode":"27","districtname":"Kolhapur","districtcode":"530","ulbname":"Malkapur_K","ulbcode":"802881","wardname":"Ward 4","wardcode":"4","id":null,"status":"APPROVED","misglobalid":null,"approved_by":null,"createdate":1639830437000,"updateddate":1644937879000,"globalid":null,"gisglobalid":"8af26ebe-f51b-466a-8738-de1f27779ec7","remark":"Ok","st_area(shape)":0.0000019544497261735634,"st_perimeter(shape)":0.007619206044471087}},{"arcs":[[15,-13,-11,16,17,18,19]],"type":"Polygon","properties":{"objectid":52562,"statename":"Maharashtra","statecode":"27","districtname":"Kolhapur","districtcode":"530","ulbname":"Malkapur_K","ulbcode":"802881","wardname":"Ward 5","wardcode":"5","id":null,"status":"APPROVED","misglobalid":null,"approved_by":null,"createdate":1639830476000,"updateddate":1644937897000,"globalid":null,"gisglobalid":"a24c7b4c-850f-4ac0-abea-dc39964d9a9c","remark":"Ok","st_area(shape)":0.000003076191714985479,"st_perimeter(shape)":0.009121032946630957}},{"arcs":[[20,21,22,-1,-8,-15,23,-20]],"type":"Polygon","properties":{"objectid":51309,"statename":"Maharashtra","statecode":"27","districtname":"Kolhapur","districtcode":"530","ulbname":"Malkapur_K","ulbcode":"802881","wardname":"Ward 6","wardcode":"6","id":null,"status":"APPROVED","misglobalid":null,"approved_by":null,"createdate":1639826252000,"updateddate":1644937913000,"globalid":null,"gisglobalid":"9dc1a7ec-a4bf-487f-a95b-6a1aa12dff19","remark":"Ok","st_area(shape)":0.0000016717871068630083,"st_perimeter(shape)":0.006090186646343714}},{"arcs":[[-2,-23,24,25,26,27,28]],"type":"Polygon","properties":{"objectid":50597,"statename":"Maharashtra","statecode":"27","districtname":"Kolhapur","districtcode":"530","ulbname":"Malkapur_K","ulbcode":"802881","wardname":"Ward 7","wardcode":"7","id":null,"status":"APPROVED","misglobalid":null,"approved_by":null,"createdate":1639830532000,"updateddate":1644937929000,"globalid":null,"gisglobalid":"f5420701-03a1-45f3-86de-5ebd4605aa34","remark":"Ok","st_area(shape)":0.000006740504444919491,"st_perimeter(shape)":0.014670492419081284}},{"arcs":[[29,-28,30,-26,31,-21,-19]],"type":"Polygon","properties":{"objectid":52564,"statename":"Maharashtra","statecode":"27","districtname":"Kolhapur","districtcode":"530","ulbname":"Malkapur_K","ulbcode":"802881","wardname":"Ward 8","wardcode":"8","id":null,"status":"APPROVED","misglobalid":null,"approved_by":null,"createdate":1639830573000,"updateddate":1644937946000,"globalid":null,"gisglobalid":"ae317d13-db4b-4b66-97bc-bdbb1cca7a4f","remark":"Ok","st_area(shape)":0.000012681179287881522,"st_perimeter(shape)":0.02152298899319975}}]}}}