{"type":"Topology","arcs":[[[53439,91904],[-265,-1429]],[[53174,90475],[-794,-1428]],[[52380,89047],[-264,-1429]],[[52116,87618],[-265,-476]],[[51851,87142],[-264,-476]],[[51587,86666],[-15344,0]],[[36243,86666],[-5820,-953]],[[30423,85713],[-1323,0]],[[29100,85713],[1323,5715],[9524,-2381],[3703,1904],[6879,8572],[2910,-7619]],[[60317,98094],[-4497,-3809],[-794,-6667]],[[55026,87618],[-529,-476]],[[54497,87142],[-1852,0]],[[52645,87142],[-529,476]],[[52116,87618],[264,1429]],[[52380,89047],[794,1428]],[[53174,90475],[265,1429]],[[53439,91904],[-2910,8095],[9788,-1905]],[[57142,87618],[-529,476]],[[56613,88094],[3704,10000]],[[60317,98094],[6878,-5714],[-794,-4762]],[[66401,87618],[-9259,0]],[[66401,87618],[4762,-4285],[-1058,-6191],[-7143,952],[-2910,4286]],[[60052,82380],[6349,5238]],[[59523,82856],[-3174,-5238]],[[56349,77618],[0,-1904]],[[56349,75714],[-3439,0]],[[52910,75714],[793,5238]],[[53703,80952],[265,952]],[[53968,81904],[5555,952]],[[51587,71904],[1323,3810]],[[52910,75714],[3439,0]],[[56349,75714],[6878,-1905]],[[63227,73809],[-265,3809]],[[62962,77618],[2381,-476],[3704,0],[794,-476],[529,476],[1058,6191],[13756,-11905],[6614,-476],[3175,-5238],[-14021,-1905],[-29365,8095]],[[56349,77618],[3174,5238]],[[59523,82856],[529,-476]],[[60052,82380],[2910,-4762]],[[62962,77618],[265,-3809]],[[63227,73809],[-6878,3809]],[[60846,58571],[-265,476]],[[60581,59047],[0,952]],[[60581,59999],[265,8572],[23016,-5714],[11640,476],[1058,-8095],[-1587,-7143],[2381,-5714],[-20635,0]],[[76719,42381],[-6085,4285],[-5820,2381]],[[64814,49047],[529,9048]],[[65343,58095],[-4497,476]],[[60581,59999],[-9788,0]],[[50793,59999],[-264,-1904]],[[50529,58095],[1058,12857],[8994,-2381],[0,-8572]],[[36243,86666],[15344,0]],[[51851,87142],[794,0]],[[52645,87142],[1852,0]],[[54497,87142],[529,476]],[[55026,87618],[1587,476]],[[57142,87618],[-3174,-5714]],[[53968,81904],[-265,-952]],[[53703,80952],[-2116,-9048]],[[51587,71904],[-9259,-10000],[-7937,10476],[2646,5714],[264,6191],[-1058,2381]],[[50793,59999],[9788,-952]],[[60581,59047],[265,-476]],[[60846,58571],[4497,-476]],[[65343,58095],[-529,-9048]],[[64814,49047],[-7143,-952]],[[57671,48095],[-7671,-1905],[793,13809]],[[50529,58095],[-1059,-12381],[-2910,952],[-2910,-5714],[-5555,3333]],[[38095,44285],[264,1905]],[[38359,46190],[265,1429]],[[38624,47619],[0,476]],[[38624,48095],[-529,476]],[[38095,48571],[-529,2381]],[[37566,50952],[793,3333]],[[38359,54285],[265,3333],[12434,11429],[-529,-10952]],[[38359,54285],[-793,-3333]],[[37566,50952],[529,-2381]],[[38095,48571],[529,-476]],[[38624,47619],[-265,-1429]],[[38359,46190],[-264,-1905]],[[38095,44285],[-10582,-1428],[-2381,2857],[12963,11904],[264,-3333]],[[29100,85713],[1323,0]],[[30423,85713],[6614,-1428],[-265,-5714],[-2910,-6191],[8201,-10476],[-15873,-13809]],[[26190,48095],[-264,952]],[[25926,49047],[-1852,5238]],[[24074,54285],[-2646,1429]],[[21428,55714],[-2645,0]],[[18783,55714],[-4762,2381]],[[14021,58095],[-1852,476]],[[12169,58571],[-1058,476]],[[11111,59047],[-265,11905],[9789,7142],[5291,9524],[3174,-1905]],[[11111,59047],[1058,-476]],[[12169,58571],[1852,-476]],[[14021,58095],[4762,-2381]],[[18783,55714],[2645,0]],[[21428,55714],[2646,-1429]],[[24074,54285],[1852,-5238]],[[25926,49047],[264,-952]],[[26190,48095],[-17195,-14762],[-8995,-6190],[2381,13809],[6614,2857],[2116,15238]],[[49206,33809],[0,-2381]],[[49206,31428],[-265,-6666]],[[48941,24762],[-529,-1905]],[[48412,22857],[-793,-952]],[[47619,21905],[-794,-2858]],[[46825,19047],[0,-952]],[[46825,18095],[0,-1905]],[[46825,16190],[0,-952]],[[46825,15238],[264,-1905]],[[47089,13333],[-264,-952]],[[46825,12381],[264,-1429]],[[47089,10952],[-6349,3810],[-6349,476],[-9524,-3810],[-19841,-11428],[0,20952],[-5026,5238],[20635,16191],[2645,-477],[13757,1905],[5820,-3333],[2116,952],[1587,4286],[2910,-953],[-264,-10952]],[[57671,48095],[9260,0],[9788,-5714]],[[76719,42381],[20370,-477],[1323,-2381],[1587,-21904],[-1852,-10000],[-7407,-952],[-10582,13333],[-6085,10000],[-15873,-1905],[-11111,-17143]],[[47089,10952],[-264,1429]],[[46825,12381],[264,952]],[[47089,13333],[-264,1905]],[[46825,15238],[0,952]],[[46825,16190],[0,1905]],[[46825,19047],[794,2858]],[[47619,21905],[793,952]],[[48412,22857],[529,1905]],[[48941,24762],[265,6666]],[[49206,31428],[0,2381]],[[49206,33809],[1058,11905],[7407,2381]]],"transform":{"scale":[3.780037800378431e-7,2.1000210002100819e-7],"translate":[79.6562,20.052]},"objects":{"wards":{"type":"GeometryCollection","geometries":[{"arcs":[[0,1,2,3,4,5,6,7,8]],"type":"Polygon","properties":{"objectid":51083,"statename":"Maharashtra","statecode":"27","districtname":"Chandrapur","districtcode":"509","ulbname":"Mul","ulbcode":"802723","wardname":"Pandit Jawaharlal Nehru Ward","wardcode":"1","id":null,"status":"APPROVED","misglobalid":null,"approved_by":null,"createdate":1639726672000,"updateddate":1643647775000,"globalid":null,"gisglobalid":"4dd14c5a-c7b5-48ea-86ee-0a830249d32c","remark":"","st_area(shape)":0.00001209264831944306,"st_perimeter(shape)":0.02385366757136821}},{"arcs":[[9,10,11,12,13,14,15,16]],"type":"Polygon","properties":{"objectid":51166,"statename":"Maharashtra","statecode":"27","districtname":"Chandrapur","districtcode":"509","ulbname":"Mul","ulbcode":"802723","wardname":"Dr Babasaheb Ambedkar Ward","wardcode":"2","id":null,"status":"APPROVED","misglobalid":null,"approved_by":null,"createdate":1639742167000,"updateddate":1641487157000,"globalid":null,"gisglobalid":"d3e595e2-be11-44aa-9a14-61ee31811f19","remark":"","st_area(shape)":0.000006001820311533034,"st_perimeter(shape)":0.015043705855050661}},{"arcs":[[17,18,19,20]],"type":"Polygon","properties":{"objectid":51172,"statename":"Maharashtra","statecode":"27","districtname":"Chandrapur","districtcode":"509","ulbname":"Mul","ulbcode":"802723","wardname":"Mahatma Jyotoba Phule Ward","wardcode":"3","id":null,"status":"APPROVED","misglobalid":null,"approved_by":null,"createdate":1639742221000,"updateddate":1643647863000,"globalid":null,"gisglobalid":"f4fd349c-7049-4b91-bf51-617043dedf39","remark":"","st_area(shape)":0.000008323757197371464,"st_perimeter(shape)":0.013465753173348348}},{"arcs":[[21,22]],"type":"Polygon","properties":{"objectid":50439,"statename":"Maharashtra","statecode":"27","districtname":"Chandrapur","districtcode":"509","ulbname":"Mul","ulbcode":"802723","wardname":"Shri Ram Ward","wardcode":"4","id":null,"status":"APPROVED","misglobalid":null,"approved_by":null,"createdate":1639742284000,"updateddate":1643647969000,"globalid":null,"gisglobalid":"d720a4c4-161e-4a26-b4c9-adc687203a1d","remark":"","st_area(shape)":0.00000656935404708375,"st_perimeter(shape)":0.012374405072915939}},{"arcs":[[23,24,25,26,27,28]],"type":"Polygon","properties":{"objectid":52048,"statename":"Maharashtra","statecode":"27","districtname":"Chandrapur","districtcode":"509","ulbname":"Mul","ulbcode":"802723","wardname":"Bhagat Singh Ward","wardcode":"5","id":null,"status":"APPROVED","misglobalid":null,"approved_by":null,"createdate":1639742328000,"updateddate":1643648032000,"globalid":null,"gisglobalid":"3e7f34ef-a877-4fa8-a8a7-8926c64f5244","remark":"","st_area(shape)":0.0000032514300338819276,"st_perimeter(shape)":0.011118585282471938}},{"arcs":[[29,30,31,32,33]],"type":"Polygon","properties":{"objectid":51174,"statename":"Maharashtra","statecode":"27","districtname":"Chandrapur","districtcode":"509","ulbname":"Mul","ulbcode":"802723","wardname":"Valmiki Ward","wardcode":"6","id":null,"status":"APPROVED","misglobalid":null,"approved_by":null,"createdate":1639742366000,"updateddate":1643648115000,"globalid":null,"gisglobalid":"541f70da-4ee2-4aeb-8a72-abfd22e8d7db","remark":"","st_area(shape)":0.00002885534359812243,"st_perimeter(shape)":0.037142860913946314}},{"arcs":[[34,35,36,37,38]],"type":"Polygon","properties":{"objectid":50004,"statename":"Maharashtra","statecode":"27","districtname":"Chandrapur","districtcode":"509","ulbname":"Mul","ulbcode":"802723","wardname":"Panchashil Ward","wardcode":"7","id":null,"status":"APPROVED","misglobalid":null,"approved_by":null,"createdate":1639742418000,"updateddate":1643956913000,"globalid":null,"gisglobalid":"0c97f0e9-2962-4e89-bd18-9a0cf9b3a954","remark":"","st_area(shape)":0.00000385241538021988,"st_perimeter(shape)":0.008612482187603378}},{"arcs":[[39,40,41,42,43,44]],"type":"Polygon","properties":{"objectid":52363,"statename":"Maharashtra","statecode":"27","districtname":"Chandrapur","districtcode":"509","ulbname":"Mul","ulbcode":"802723","wardname":"Shramik Ward","wardcode":"8","id":null,"status":"APPROVED","misglobalid":null,"approved_by":null,"createdate":1640605173000,"updateddate":1648135099000,"globalid":null,"gisglobalid":"PRmPBmnQ-QPsR-PnlK-Rc5s-PRBKPQRoaa56","remark":"","st_area(shape)":0.000053843445682696226,"st_perimeter(shape)":0.03673732274170066}},{"arcs":[[45,46,47]],"type":"Polygon","properties":{"objectid":50450,"statename":"Maharashtra","statecode":"27","districtname":"Chandrapur","districtcode":"509","ulbname":"Mul","ulbcode":"802723","wardname":"Mahatma Gandhi Ward","wardcode":"9","id":null,"status":"APPROVED","misglobalid":null,"approved_by":null,"createdate":1639742596000,"updateddate":1648135134000,"globalid":null,"gisglobalid":"0164da74-cb15-4204-b821-7b29ac62eb79","remark":"","st_area(shape)":0.000007864126289487917,"st_perimeter(shape)":0.012473401620194226}},{"arcs":[[48,-5,49,50,51,52,-18,53,54,55,56]],"type":"Polygon","properties":{"objectid":52061,"statename":"Maharashtra","statecode":"27","districtname":"Chandrapur","districtcode":"509","ulbname":"Mul","ulbcode":"802723","wardname":"Maulana Abdul Kalam Azad Ward","wardcode":"10","id":null,"status":"APPROVED","misglobalid":null,"approved_by":null,"createdate":1639742766000,"updateddate":1648135184000,"globalid":null,"gisglobalid":"e2b2c538-c3d1-4957-a108-3cbc08ce5900","remark":"","st_area(shape)":0.000026118173496046404,"st_perimeter(shape)":0.023634263069301324}},{"arcs":[[57,58,59,60,61,62]],"type":"Polygon","properties":{"objectid":52731,"statename":"Maharashtra","statecode":"27","districtname":"Chandrapur","districtcode":"509","ulbname":"Mul","ulbcode":"802723","wardname":"Indira Ward","wardcode":"11","id":null,"status":"APPROVED","misglobalid":null,"approved_by":null,"createdate":1640605304000,"updateddate":1648135222000,"globalid":null,"gisglobalid":"Q6osRKPm-csKn-PBK5-snn5-dP4Rc4sKR5nB","remark":"","st_area(shape)":0.000012881932928307294,"st_perimeter(shape)":0.01614177672798731}},{"arcs":[[63,64,65,66,67,68,69,70]],"type":"Polygon","properties":{"objectid":52732,"statename":"Maharashtra","statecode":"27","districtname":"Chandrapur","districtcode":"509","ulbname":"Mul","ulbcode":"802723","wardname":"Veer Sawarkar Ward","wardcode":"12","id":null,"status":"APPROVED","misglobalid":null,"approved_by":null,"createdate":1639742933000,"updateddate":1648135247000,"globalid":null,"gisglobalid":"3086997f-12b9-4d2c-889a-cdf90ccfd3cf","remark":"","st_area(shape)":0.00001758474703671397,"st_perimeter(shape)":0.019001998641327962}},{"arcs":[[71,72,73,-67,74,75,76]],"type":"Polygon","properties":{"objectid":51601,"statename":"Maharashtra","statecode":"27","districtname":"Chandrapur","districtcode":"509","ulbname":"Mul","ulbcode":"802723","wardname":"Shahid Ward","wardcode":"13","id":null,"status":"APPROVED","misglobalid":null,"approved_by":null,"createdate":1639742980000,"updateddate":1648135263000,"globalid":null,"gisglobalid":"7498997f-68e4-44ad-b353-37f82ddaf8d6","remark":"","st_area(shape)":0.000008736553312538329,"st_perimeter(shape)":0.016741693360724952}},{"arcs":[[77,78,79,80,81,82,83,84,85,86]],"type":"Polygon","properties":{"objectid":50458,"statename":"Maharashtra","statecode":"27","districtname":"Chandrapur","districtcode":"509","ulbname":"Mul","ulbcode":"802723","wardname":"Dr Rajendra Prasad Ward","wardcode":"14","id":null,"status":"APPROVED","misglobalid":null,"approved_by":null,"createdate":1639743013000,"updateddate":1648135280000,"globalid":null,"gisglobalid":"bc27c6f8-5698-4d85-82f1-4e108133094c","remark":"","st_area(shape)":0.00005760460956663075,"st_perimeter(shape)":0.034825546339894035}},{"arcs":[[87,88,89,90,91,92,93,94]],"type":"Polygon","properties":{"objectid":52735,"statename":"Maharashtra","statecode":"27","districtname":"Chandrapur","districtcode":"509","ulbname":"Mul","ulbcode":"802723","wardname":"Kannamwar Ward","wardcode":"15","id":null,"status":"APPROVED","misglobalid":null,"approved_by":null,"createdate":1639743054000,"updateddate":1648135309000,"globalid":null,"gisglobalid":"4215fd7f-21f5-4d25-be6b-dae1b98c8c65","remark":"","st_area(shape)":0.0000273705071598808,"st_perimeter(shape)":0.027408792855754656}},{"arcs":[[95,96,97,98,99,100,101,102,103,104,105,106]],"type":"Polygon","properties":{"objectid":52069,"statename":"Maharashtra","statecode":"27","districtname":"Chandrapur","districtcode":"509","ulbname":"Mul","ulbcode":"802723","wardname":"Dr Hegdewar Ward","wardcode":"16","id":null,"status":"APPROVED","misglobalid":null,"approved_by":null,"createdate":1639743093000,"updateddate":1648135330000,"globalid":null,"gisglobalid":"588eb2a0-bd65-4923-86ae-b1babd25f5b9","remark":"","st_area(shape)":0.00010712046610096364,"st_perimeter(shape)":0.05165313396389613}},{"arcs":[[107,108,109,110,111,112,113,-101,114,115,116,117,118,119]],"type":"Polygon","properties":{"objectid":50461,"statename":"Maharashtra","statecode":"27","districtname":"Chandrapur","districtcode":"509","ulbname":"Mul","ulbcode":"802723","wardname":"Shivaji Ward","wardcode":"17","id":null,"status":"APPROVED","misglobalid":null,"approved_by":null,"createdate":1640083012000,"updateddate":1648135347000,"globalid":null,"gisglobalid":"e05045d6-2bc3-415a-bc6e-fac37adfe605","remark":"","st_area(shape)":0.0001023307279223394,"st_perimeter(shape)":0.05986882829891151}}]}}}