{"type":"Topology","arcs":[[[38578,79554],[-1015,-4311]],[[37563,75243],[-2639,834],[-6092,6259],[-8629,1947],[-19086,11265],[-1117,4451],[42436,-14882]],[[42436,85117],[406,-4728]],[[42842,80389],[-2639,3198],[-1625,-4033]],[[42842,80389],[-406,-418]],[[42436,79971],[-1929,-2503]],[[40507,77468],[-1929,2086]],[[42436,85117],[7614,-2781]],[[50050,82336],[-203,-696]],[[49847,81640],[-710,-2225]],[[49137,79415],[1827,-3199]],[[50964,76216],[-1523,-834]],[[49441,75382],[-101,0]],[[49340,75382],[-2437,-1391]],[[46903,73991],[-1523,-139]],[[45380,73852],[-304,0]],[[45076,73852],[-7513,1391]],[[40507,77468],[1929,2503]],[[49137,79415],[710,2225]],[[49847,81640],[203,696]],[[50050,82336],[1929,-1113]],[[51979,81223],[5178,-3199]],[[57157,78024],[-406,-1530]],[[56751,76494],[0,-556]],[[56751,75938],[-5787,278]],[[56751,75938],[0,556]],[[57157,78024],[2944,-1391]],[[60101,76633],[3756,279]],[[63857,76912],[2031,-418]],[[65888,76494],[609,-1112]],[[66497,75382],[406,-1113]],[[66903,74269],[1320,-2921]],[[68223,71348],[609,-1808]],[[68832,69540],[304,-1669]],[[69136,67871],[-710,-4033]],[[68426,63838],[-4061,-2782]],[[64365,61056],[-1726,696]],[[62639,61752],[-2640,4311]],[[59999,66063],[-1015,2087]],[[58984,68150],[-507,0]],[[58477,68150],[-2538,1947]],[[55939,70097],[-1523,1390]],[[54416,71487],[-3452,4729]],[[51370,67732],[-508,0]],[[50862,67732],[-1319,835]],[[49543,68567],[-4467,5285]],[[45380,73852],[1523,139]],[[46903,73991],[2437,1391]],[[49441,75382],[1523,834]],[[54416,71487],[-3046,-3755]],[[50862,67732],[-4771,-3059]],[[46091,64673],[-1015,417]],[[45076,65090],[-1625,278]],[[43451,65368],[3757,417],[2335,2782]],[[45076,65090],[1015,-417]],[[46091,64673],[4061,-4729]],[[50152,59944],[-1015,-1669]],[[49137,58275],[-2945,-139]],[[46192,58136],[-203,0],[-710,139]],[[45279,58275],[-5381,-1252]],[[39898,57023],[0,556]],[[39898,57579],[102,8067],[3451,-278]],[[51370,67732],[508,-5424],[2030,-1252]],[[53908,61056],[609,-278]],[[54517,60778],[102,0]],[[54619,60778],[913,-139]],[[55532,60639],[102,0]],[[55634,60639],[711,-139]],[[56345,60500],[-102,-1530]],[[56243,58970],[-812,-139]],[[55431,58831],[-2843,-556]],[[52588,58275],[-710,-139]],[[51878,58136],[-2741,139]],[[49137,58275],[1015,1669]],[[55939,70097],[-407,-5703]],[[55532,64394],[203,-834]],[[55735,63560],[204,-974]],[[55939,62586],[304,-1391]],[[56243,61195],[102,-695]],[[56345,60500],[-711,139]],[[55532,60639],[-913,139]],[[54517,60778],[-609,278]],[[58477,68150],[507,0]],[[59999,66063],[-2944,-1947]],[[57055,64116],[-1523,278]],[[62639,61752],[-609,0]],[[62030,61752],[-3046,834]],[[58984,62586],[-1929,1530]],[[56243,61195],[-304,1391]],[[55735,63560],[-203,834]],[[58984,62586],[-101,-278]],[[58883,62308],[-305,-1113]],[[58578,61195],[0,-278]],[[58578,60917],[-812,-2086]],[[57766,58831],[-102,0]],[[57664,58831],[-1421,139]],[[51878,58136],[710,139]],[[55431,58831],[-102,-3616]],[[55329,55215],[-2233,-1113]],[[53096,54102],[-203,-139]],[[52893,53963],[-711,-278]],[[52182,53685],[0,139],[-101,696],[0,695],[-203,2921]],[[52182,53685],[-406,-139]],[[51776,53546],[-4264,-974]],[[47512,52572],[-1320,5564]],[[47512,52572],[-8629,-973]],[[38883,51599],[-2335,1808],[3350,4172]],[[39898,57579],[0,-556]],[[45279,58275],[913,-139]],[[62131,32267],[0,-3895]],[[62131,28372],[102,-8901]],[[62233,19471],[101,-19471],[-10659,2921],[-7208,3477],[-3148,2642],[-9644,12378]],[[31675,21418],[3553,1948],[3959,4311],[102,4868],[22842,-278]],[[68324,43254],[-710,-1530]],[[67614,41724],[-1320,-1530]],[[66294,40194],[-2437,-2086]],[[63857,38108],[-1726,-834]],[[62131,37274],[0,-5007]],[[31675,21418],[-6701,8623],[4264,5564],[5178,3894]],[[34416,39499],[11878,-417],[1218,-1252]],[[47512,37830],[508,-278]],[[48020,37552],[7919,-696]],[[55939,36856],[1928,418]],[[57867,37274],[1828,5980]],[[59695,43254],[1015,2086]],[[60710,45340],[4365,835]],[[65075,46175],[610,1669]],[[65685,47844],[2436,1391]],[[68121,49235],[1320,-2921]],[[69441,46314],[-609,-974]],[[68832,45340],[-508,-2086]],[[62131,37274],[813,-279]],[[62944,36995],[406,-139]],[[63350,36856],[609,-556]],[[63959,36300],[1015,-1113]],[[64974,35187],[914,-1669]],[[65888,33518],[304,-1669]],[[66192,31849],[508,-2086]],[[66700,29763],[812,-973]],[[67512,28790],[508,-139]],[[68020,28651],[3045,-1391]],[[71065,27260],[812,-7789],[-5482,-834],[-4162,834]],[[62131,28372],[0,3895]],[[68020,28651],[-508,139]],[[66700,29763],[-508,2086]],[[66192,31849],[-304,1669]],[[65888,33518],[-914,1669]],[[63959,36300],[-609,556]],[[63350,36856],[-406,139]],[[63857,38108],[2437,2086]],[[66294,40194],[1320,1530]],[[67614,41724],[710,1530]],[[68832,45340],[609,974]],[[69441,46314],[4162,-417]],[[73603,45897],[5889,-3338]],[[79492,42559],[8426,2781]],[[87918,45340],[2538,835]],[[90456,46175],[-1827,-8345],[-1828,-3894],[-7817,417],[-3249,3060],[-3350,-2504],[-3249,139],[1929,-7788]],[[60710,45340],[-1015,-2086]],[[57867,37274],[-1928,-418]],[[48020,37552],[-508,278]],[[34416,39499],[-3452,11405],[2335,278]],[[33299,51182],[508,-2365],[14619,1669],[2132,-2781]],[[50558,47705],[1015,-835]],[[51573,46870],[3756,-834]],[[55329,46036],[711,1947]],[[56040,47983],[3046,3894]],[[59086,51877],[2335,-1252]],[[61421,50625],[913,-1251]],[[62334,49374],[2741,-3199]],[[33299,51182],[5584,417]],[[51776,53546],[1117,417]],[[52893,53963],[203,139]],[[55329,55215],[813,278]],[[56142,55493],[1218,-417]],[[57360,55076],[1726,-3199]],[[56040,47983],[-711,-1947]],[[51573,46870],[-1015,835]],[[59695,54798],[1726,-4173]],[[57360,55076],[2335,-278]],[[57664,58831],[508,0]],[[58172,58831],[2030,-139]],[[60202,58692],[0,-417]],[[60202,58275],[-507,-3477]],[[56142,55493],[-813,-278]],[[58578,60917],[0,278]],[[58578,61195],[305,1113]],[[62030,61752],[-1828,-3060]],[[58172,58831],[-406,0]],[[64365,61056],[-305,-1808]],[[64060,59248],[-3858,-556]],[[68426,63838],[812,-3477]],[[69238,60361],[-711,-3060]],[[68527,57301],[-3045,417]],[[65482,57718],[-1422,1530]],[[65482,57718],[-1117,-2920]],[[64365,54798],[-1015,-1113]],[[63350,53685],[-3148,4590]],[[65279,54659],[-914,139]],[[68527,57301],[-101,-556]],[[68426,56745],[-3147,-2086]],[[68426,56745],[-203,-1252]],[[68223,55493],[-2843,-3616]],[[65380,51877],[-101,2782]],[[63553,51738],[-203,1947]],[[65380,51877],[-1827,-139]],[[63553,51738],[-1219,-2364]],[[68223,55493],[-2538,-7649]],[[69238,60361],[5177,-5702]],[[74415,54659],[711,-1252]],[[75126,53407],[0,-139]],[[75126,53268],[-914,-556]],[[74212,52712],[-101,0]],[[74111,52712],[-1929,-1113]],[[72182,51599],[-4061,-2364]],[[79796,56050],[-1421,1529],[-3960,-2920]],[[69136,67871],[-304,1669]],[[68832,69540],[-609,1808]],[[68223,71348],[-711,1669]],[[67512,73017],[3350,1947],[6092,-1251]],[[76954,73713],[4060,-1947],[3757,-5425],[-1422,-8205]],[[83349,58136],[-2436,-1391]],[[80913,56745],[-1117,-695]],[[79796,56050],[-4670,-2643]],[[76954,49095],[203,-695]],[[77157,48400],[-3554,-2503]],[[72182,51599],[1929,1113]],[[74212,52712],[2742,-3617]],[[77157,48400],[-203,695]],[[75126,53268],[3553,-3616]],[[78679,49652],[813,-7093]],[[78679,49652],[9239,-4312]],[[80913,56745],[812,-1530]],[[81725,55215],[711,-417]],[[82436,54798],[3147,-3060]],[[85583,51738],[4873,-5563]],[[90456,46175],[-4873,5563]],[[82436,54798],[-711,417]],[[83349,58136],[4366,834],[3553,2365],[6904,-696],[-5686,-14186],[-2030,-278]],[[98375,71487],[1624,-5424],[-3452,278],[-5279,-3477],[-2538,6954],[9645,1669]],[[67512,73017],[-609,1252]],[[66497,75382],[1624,2503],[3959,0]],[[72080,77885],[4874,-4172]],[[69542,93879],[-3045,1391]],[[66497,95270],[4162,696]],[[70659,95966],[-1117,-2087]],[[75431,79554],[-5787,139]],[[69644,79693],[-203,139]],[[69441,79832],[0,557]],[[69441,80389],[0,834]],[[69441,81223],[101,1808]],[[69542,83031],[-3248,974]],[[66294,84005],[0,3199]],[[66294,87204],[3147,-279],[101,6954]],[[70659,95966],[2031,-835],[-1625,-8345],[7513,-556],[-305,-6954],[-2842,278]],[[66294,87204],[203,8066]],[[63959,84005],[2335,0]],[[69542,83031],[-101,-1808]],[[69441,81223],[0,-834]],[[69441,79832],[-102,0]],[[69339,79832],[-5482,-417]],[[63857,79415],[102,4312]],[[63959,83727],[0,278]],[[60812,78998],[1319,-417]],[[62131,78581],[1726,834]],[[69339,79832],[305,-139]],[[75431,79554],[-3351,-1669]],[[65888,76494],[-2031,418]],[[60101,76633],[711,2365]],[[56751,80667],[4061,-1669]],[[51979,81223],[4772,-556]],[[62131,78581],[-1319,417]],[[56751,80667],[1523,5563]],[[58274,86230],[913,0]],[[59187,86230],[3553,-2503]],[[62740,83727],[1219,0]],[[59187,86230],[3553,-2503]],[[58274,86230],[5583,1808],[102,-4033]]],"transform":{"scale":[9.850098500985146e-7,7.190071900718948e-7],"translate":[73.2629,25.7347]},"objects":{"wards":{"type":"GeometryCollection","geometries":[{"arcs":[[0,1,2,3]],"type":"Polygon","properties":{"objectid":95070,"statename":"Rajasthan","statecode":"8","districtname":"Pali","districtcode":"118","ulbname":"Pali (M Cl)","ulbcode":"800561","wardname":"Old Housing Board","wardcode":"1","id":null,"status":"APPROVED","misglobalid":null,"approved_by":null,"createdate":1643138627000,"updateddate":1643140030000,"globalid":null,"gisglobalid":"QPlmPdlm-sKm4-Pm6n-Qmmd-BPnBPllPs5ns","remark":"Ward 1 Boundary Is Ok. ","st_area(shape)":0.00021441386850042134,"st_perimeter(shape)":0.10399498989776947}},{"arcs":[[4,5,6,-4]],"type":"Polygon","properties":{"objectid":99157,"statename":"Rajasthan","statecode":"8","districtname":"Pali","districtcode":"118","ulbname":"Pali (M Cl)","ulbcode":"800561","wardname":"Ward 2","wardcode":"2","id":null,"status":"APPROVED","misglobalid":null,"approved_by":null,"createdate":1643283183000,"updateddate":1725349452000,"globalid":null,"gisglobalid":"RnacRQRn-45oB-P54d-aB5Q-aoKoQoPaoQc6","remark":"","st_area(shape)":0.000014027003528705961,"st_perimeter(shape)":0.016151821692423185}},{"arcs":[[7,8,9,10,11,12,13,14,15,16,-1,-7,17,-5,-3]],"type":"Polygon","properties":{"objectid":101494,"statename":"Rajasthan","statecode":"8","districtname":"Pali","districtcode":"118","ulbname":"Pali (M Cl)","ulbcode":"800561","wardname":"Ward 3","wardcode":"3","id":null,"status":"APPROVED","misglobalid":null,"approved_by":null,"createdate":1643282195000,"updateddate":1725351171000,"globalid":null,"gisglobalid":"dsQoc46s-KlP5-P46B-alKl-n5s4nsRsd5dK","remark":"","st_area(shape)":0.00006407634567372166,"st_perimeter(shape)":0.04020660492424384}},{"arcs":[[18,19,20,21,22,23,24,-11]],"type":"Polygon","properties":{"objectid":101097,"statename":"Rajasthan","statecode":"8","districtname":"Pali","districtcode":"118","ulbname":"Pali (M Cl)","ulbcode":"800561","wardname":"Ward 4","wardcode":"4","id":null,"status":"APPROVED","misglobalid":null,"approved_by":null,"createdate":1643283455000,"updateddate":1725351423000,"globalid":null,"gisglobalid":"dPPnlmaR-lccd-PQnP-a5KK-sma4mocmd5mQ","remark":"","st_area(shape)":0.000020906272241748075,"st_perimeter(shape)":0.02166331634033083}},{"arcs":[[-25,25,-23,26,27,28,29,30,31,32,33,34,35,36,37,38,39,40,41,42]],"type":"Polygon","properties":{"objectid":100304,"statename":"Rajasthan","statecode":"8","districtname":"Pali","districtcode":"118","ulbname":"Pali (M Cl)","ulbcode":"800561","wardname":"Ward 5","wardcode":"5","id":null,"status":"APPROVED","misglobalid":null,"approved_by":null,"createdate":1643282654000,"updateddate":1725352887000,"globalid":null,"gisglobalid":"4lmao6n4-Bllo-P5sd-RKca-R5KclscR4ldB","remark":"","st_area(shape)":0.00010971678346859387,"st_perimeter(shape)":0.05108104698879166}},{"arcs":[[43,44,45,-16,46,47,-13,48,-43,49]],"type":"Polygon","properties":{"objectid":102298,"statename":"Rajasthan","statecode":"8","districtname":"Pali","districtcode":"118","ulbname":"Pali (M Cl)","ulbcode":"800561","wardname":"Ward 6","wardcode":"6","id":null,"status":"APPROVED","misglobalid":null,"approved_by":null,"createdate":1643282654000,"updateddate":1725353616000,"globalid":null,"gisglobalid":"4sQBKQKa-RKKP-Pamo-Qm45-slPQmsQodRss","remark":"","st_area(shape)":0.00003334923117872277,"st_perimeter(shape)":0.02479191789028154}},{"arcs":[[-45,50,51,52,53]],"type":"Polygon","properties":{"objectid":101906,"statename":"Rajasthan","statecode":"8","districtname":"Pali","districtcode":"118","ulbname":"Pali (M Cl)","ulbcode":"800561","wardname":"Ward 7","wardcode":"7","id":null,"status":"APPROVED","misglobalid":null,"approved_by":null,"createdate":1643282654000,"updateddate":1725356496000,"globalid":null,"gisglobalid":"as5nQRQl-s5Kn-P4Kc-a5PR-l5RsK4BBscBP","remark":"","st_area(shape)":0.00001002968593695913,"st_perimeter(shape)":0.019653813349441832}},{"arcs":[[-53,54,55,56,57,58,59,60,61]],"type":"Polygon","properties":{"objectid":99151,"statename":"Rajasthan","statecode":"8","districtname":"Pali","districtcode":"118","ulbname":"Pali (M Cl)","ulbcode":"800561","wardname":"Ward 10","wardcode":"10","id":null,"status":"APPROVED","misglobalid":null,"approved_by":null,"createdate":1643282471000,"updateddate":1725362381000,"globalid":null,"gisglobalid":"aBlKRolo-65ms-PnQm-saml-Q6554ndKdR5l","remark":"","st_area(shape)":0.00004270012381555404,"st_perimeter(shape)":0.03135030394536711}},{"arcs":[[62,63,64,65,66,67,68,69,70,71,72,73,-56,-51,-44]],"type":"Polygon","properties":{"objectid":100702,"statename":"Rajasthan","statecode":"8","districtname":"Pali","districtcode":"118","ulbname":"Pali (M Cl)","ulbcode":"800561","wardname":"Ward 11","wardcode":"11","id":null,"status":"APPROVED","misglobalid":null,"approved_by":null,"createdate":1643282849000,"updateddate":1725364200000,"globalid":null,"gisglobalid":"6KaB6cn6-a4md-PRnl-so6P-oBQlQdddaRRn","remark":"","st_area(shape)":0.00003259810128127252,"st_perimeter(shape)":0.03637404803013476}},{"arcs":[[-42,74,75,76,77,78,79,-67,80,-65,81,-63,-50]],"type":"Polygon","properties":{"objectid":101496,"statename":"Rajasthan","statecode":"8","districtname":"Pali","districtcode":"118","ulbname":"Pali (M Cl)","ulbcode":"800561","wardname":"Ward 12","wardcode":"12","id":null,"status":"APPROVED","misglobalid":null,"approved_by":null,"createdate":1643282654000,"updateddate":1725364462000,"globalid":null,"gisglobalid":"cKld4K5s-B6Pm-PPKK-aB64-4oRn4RPoPPK6","remark":"","st_area(shape)":0.000021863220681767094,"st_perimeter(shape)":0.024512589353779073}},{"arcs":[[82,-39,83,84,-75,-41]],"type":"Polygon","properties":{"objectid":96394,"statename":"Rajasthan","statecode":"8","districtname":"Pali","districtcode":"118","ulbname":"Pali (M Cl)","ulbcode":"800561","wardname":"Ward 13","wardcode":"13","id":null,"status":"APPROVED","misglobalid":null,"approved_by":null,"createdate":1643282654000,"updateddate":1725365782000,"globalid":null,"gisglobalid":"QPcQQ6sB-dnQ5-PPn6-aBPK-dll5n6KB5Bm6","remark":"","st_area(shape)":0.000011877419195696557,"st_perimeter(shape)":0.016370220299104815}},{"arcs":[[-84,-38,85,86,87]],"type":"Polygon","properties":{"objectid":101904,"statename":"Rajasthan","statecode":"8","districtname":"Pali","districtcode":"118","ulbname":"Pali (M Cl)","ulbcode":"800561","wardname":"Ward 14","wardcode":"14","id":null,"status":"APPROVED","misglobalid":null,"approved_by":null,"createdate":1643282654000,"updateddate":1725425919000,"globalid":null,"gisglobalid":"R6ssQnQ5-RcaQ-P6PR-amQc-RcRddRmlsKQP","remark":"","st_area(shape)":0.000007106889739674116,"st_perimeter(shape)":0.01763185397022682}},{"arcs":[[-69,-79,88,-77,89,-85,-88,90,91,92,93,94,95]],"type":"Polygon","properties":{"objectid":100700,"statename":"Rajasthan","statecode":"8","districtname":"Pali","districtcode":"118","ulbname":"Pali (M Cl)","ulbcode":"800561","wardname":"Ward 15","wardcode":"15","id":null,"status":"APPROVED","misglobalid":null,"approved_by":null,"createdate":1643282654000,"updateddate":1725364496000,"globalid":null,"gisglobalid":"R4m4o4s4-mBPo-PR4B-Rl6o-s5aBdRmncR5o","remark":"","st_area(shape)":0.000008675220027396785,"st_perimeter(shape)":0.013061406505141667}},{"arcs":[[96,-71,97,98,99,100,101]],"type":"Polygon","properties":{"objectid":100305,"statename":"Rajasthan","statecode":"8","districtname":"Pali","districtcode":"118","ulbname":"Pali (M Cl)","ulbcode":"800561","wardname":"Ward 16","wardcode":"16","id":null,"status":"APPROVED","misglobalid":null,"approved_by":null,"createdate":1643282849000,"updateddate":1725428218000,"globalid":null,"gisglobalid":"dacQllmQ-d6Ro-PRs5-sm4Q-sd5smRlaQsn4","remark":"","st_area(shape)":0.00000962986597841716,"st_perimeter(shape)":0.012528188089576989}},{"arcs":[[-58,-73,-102,102,103,104,58,-59]],"type":"Polygon","properties":{"objectid":96395,"statename":"Rajasthan","statecode":"8","districtname":"Pali","districtcode":"118","ulbname":"Pali (M Cl)","ulbcode":"800561","wardname":"Ward 17","wardcode":"17","id":null,"status":"APPROVED","misglobalid":null,"approved_by":null,"createdate":1643282849000,"updateddate":1725428752000,"globalid":null,"gisglobalid":"QnaBslmB-K5ms-PdPc-RQdm-Bsa6oPsBQ5na","remark":"","st_area(shape)":0.000018731982973179084,"st_perimeter(shape)":0.018856379702052176}},{"arcs":[[105,106,107,-60,108,-105]],"type":"Polygon","properties":{"objectid":101495,"statename":"Rajasthan","statecode":"8","districtname":"Pali","districtcode":"118","ulbname":"Pali (M Cl)","ulbcode":"800561","wardname":"Ward 18","wardcode":"18","id":null,"status":"APPROVED","misglobalid":null,"approved_by":null,"createdate":1643282471000,"updateddate":1725429307000,"globalid":null,"gisglobalid":"KnssPsdl-a6dd-PBlP-a6Kc-R5ln6cRl5B5R","remark":"","st_area(shape)":0.00003517183742034269,"st_perimeter(shape)":0.03265946411815188}},{"arcs":[[109,110,111,112]],"type":"Polygon","properties":{"objectid":101901,"statename":"Rajasthan","statecode":"8","districtname":"Pali","districtcode":"118","ulbname":"Pali (M Cl)","ulbcode":"800561","wardname":"Ward 21","wardcode":"21","id":null,"status":"APPROVED","misglobalid":null,"approved_by":null,"createdate":1643282254000,"updateddate":1725432555000,"globalid":null,"gisglobalid":"64Qmsnal-QRdm-PKlR-RaP5-n4Bl5s6l45dm","remark":"","st_area(shape)":0.0005018095173452058,"st_perimeter(shape)":0.09299172457036424}},{"arcs":[[113,114,115,116,117,-113,118,119,120,121,122,123,124,125,126,127,128,129,130]],"type":"Polygon","properties":{"objectid":100697,"statename":"Rajasthan","statecode":"8","districtname":"Pali","districtcode":"118","ulbname":"Pali (M Cl)","ulbcode":"800561","wardname":"Ward 22","wardcode":"22","id":null,"status":"APPROVED","misglobalid":null,"approved_by":null,"createdate":1643282254000,"updateddate":1725435279000,"globalid":null,"gisglobalid":"lcPmco6l-6aPl-PQ6R-RloK-PmcmsPa6nR5Q","remark":"","st_area(shape)":0.000254041130456869,"st_perimeter(shape)":0.11180125874929693}},{"arcs":[[131,132,133,134,135,136,137,138,139,140,141,-111,142,-118]],"type":"Polygon","properties":{"objectid":100303,"statename":"Rajasthan","statecode":"8","districtname":"Pali","districtcode":"118","ulbname":"Pali (M Cl)","ulbcode":"800561","wardname":"Ward 23","wardcode":"23","id":null,"status":"APPROVED","misglobalid":null,"approved_by":null,"createdate":1643282471000,"updateddate":1725435864000,"globalid":null,"gisglobalid":"5Bddcss4-B6ac-PB5P-sao6-QB5nB4s4n6d4","remark":"","st_area(shape)":0.00008264065484506799,"st_perimeter(shape)":0.04604156120485582}},{"arcs":[[-141,143,-139,144,145,146,-135,147,148,-132,-117,149,150,151,-131,152,153,154,155,156,157]],"type":"Polygon","properties":{"objectid":100698,"statename":"Rajasthan","statecode":"8","districtname":"Pali","districtcode":"118","ulbname":"Pali (M Cl)","ulbcode":"800561","wardname":"Ward 25","wardcode":"25","id":null,"status":"APPROVED","misglobalid":null,"approved_by":null,"createdate":1643282425000,"updateddate":1725442423000,"globalid":null,"gisglobalid":"mcQ54PQ5-6KKm-PasP-Rccn-mRn4a5lsl4sm","remark":"","st_area(shape)":0.00017376661524020812,"st_perimeter(shape)":0.08107227499752893}},{"arcs":[[-126,158,-124,159,-122,160,-120,161,162,163,164,165,166,167,168,169]],"type":"Polygon","properties":{"objectid":102294,"statename":"Rajasthan","statecode":"8","districtname":"Pali","districtcode":"118","ulbname":"Pali (M Cl)","ulbcode":"800561","wardname":"Ward 26","wardcode":"26","id":null,"status":"APPROVED","misglobalid":null,"approved_by":null,"createdate":1643282471000,"updateddate":1725442663000,"globalid":null,"gisglobalid":"mB6PnK65-5na6-Pnms-R4o6-P5l4alQdKdnm","remark":"","st_area(shape)":0.00022096710116650405,"st_perimeter(shape)":0.0858075878699763}},{"arcs":[[170,-106,-104,171,172,-99,173,174,175,-167,176,-165,177,-163]],"type":"Polygon","properties":{"objectid":102295,"statename":"Rajasthan","statecode":"8","districtname":"Pali","districtcode":"118","ulbname":"Pali (M Cl)","ulbcode":"800561","wardname":"Ward 27","wardcode":"27","id":null,"status":"APPROVED","misglobalid":null,"approved_by":null,"createdate":1643282471000,"updateddate":1725442859000,"globalid":null,"gisglobalid":"alamcsdK-a4aR-PmPn-asPo-dKmRlnRmcmnR","remark":"","st_area(shape)":0.00007068826375051864,"st_perimeter(shape)":0.05793653331254669}},{"arcs":[[178,-168,-176,179]],"type":"Polygon","properties":{"objectid":100703,"statename":"Rajasthan","statecode":"8","districtname":"Pali","districtcode":"118","ulbname":"Pali (M Cl)","ulbcode":"800561","wardname":"Ward 28","wardcode":"28","id":null,"status":"APPROVED","misglobalid":null,"approved_by":null,"createdate":1643282849000,"updateddate":1725443647000,"globalid":null,"gisglobalid":"ansBB5mB-5PPP-P65a-sR6n-BQlsdos6mccB","remark":"","st_area(shape)":0.000007526476793892789,"st_perimeter(shape)":0.01283673413129362}},{"arcs":[[-96,180,181,182,183,-180,-175,184,-98,-70]],"type":"Polygon","properties":{"objectid":102300,"statename":"Rajasthan","statecode":"8","districtname":"Pali","districtcode":"118","ulbname":"Pali (M Cl)","ulbcode":"800561","wardname":"Ward 29","wardcode":"29","id":null,"status":"APPROVED","misglobalid":null,"approved_by":null,"createdate":1643282849000,"updateddate":1725444323000,"globalid":null,"gisglobalid":"aa5a6BQd-6da4-Pcm6-QmKK-5PcQoc6osomB","remark":"","st_area(shape)":0.00001202599915936989,"st_perimeter(shape)":0.014889404194698655}},{"arcs":[[-94,185,186,-91,-87,187,-182,188]],"type":"Polygon","properties":{"objectid":96393,"statename":"Rajasthan","statecode":"8","districtname":"Pali","districtcode":"118","ulbname":"Pali (M Cl)","ulbcode":"800561","wardname":"Ward 30","wardcode":"30","id":null,"status":"APPROVED","misglobalid":null,"approved_by":null,"createdate":1643282654000,"updateddate":1725444645000,"globalid":null,"gisglobalid":"6oBRKasa-ln5l-PdBm-R5sm-5PQacRnK54sc","remark":"","st_area(shape)":0.000008031897203434812,"st_perimeter(shape)":0.015078404819208031}},{"arcs":[[-86,-37,189,190,-188]],"type":"Polygon","properties":{"objectid":101905,"statename":"Rajasthan","statecode":"8","districtname":"Pali","districtcode":"118","ulbname":"Pali (M Cl)","ulbcode":"800561","wardname":"Ward 31","wardcode":"31","id":null,"status":"APPROVED","misglobalid":null,"approved_by":null,"createdate":1643282654000,"updateddate":1725444976000,"globalid":null,"gisglobalid":"aRldB5mc-BaRa-P5RQ-smnd-Ka6s4cBocc5o","remark":"","st_area(shape)":0.000009314876501871674,"st_perimeter(shape)":0.014050967197039417}},{"arcs":[[191,192,193,194,-190,-36]],"type":"Polygon","properties":{"objectid":102299,"statename":"Rajasthan","statecode":"8","districtname":"Pali","districtcode":"118","ulbname":"Pali (M Cl)","ulbcode":"800561","wardname":"Ward 32","wardcode":"32","id":null,"status":"APPROVED","misglobalid":null,"approved_by":null,"createdate":1643282654000,"updateddate":1725445381000,"globalid":null,"gisglobalid":"s5mo4a5Q-K55n-P5Pm-aoc6-adBKPBQQ6lmm","remark":"","st_area(shape)":0.000016435466522504748,"st_perimeter(shape)":0.01907742104215289}},{"arcs":[[195,196,197,-183,-191,-195]],"type":"Polygon","properties":{"objectid":99152,"statename":"Rajasthan","statecode":"8","districtname":"Pali","districtcode":"118","ulbname":"Pali (M Cl)","ulbcode":"800561","wardname":"Ward 33","wardcode":"33","id":null,"status":"APPROVED","misglobalid":null,"approved_by":null,"createdate":1643282654000,"updateddate":1725445594000,"globalid":null,"gisglobalid":"44KRcmos-modK-PcdR-RsKQ-lRancda65osB","remark":"","st_area(shape)":0.000009935490287458543,"st_perimeter(shape)":0.02041248405202514}},{"arcs":[[198,-196,-194,199,200]],"type":"Polygon","properties":{"objectid":99153,"statename":"Rajasthan","statecode":"8","districtname":"Pali","districtcode":"118","ulbname":"Pali (M Cl)","ulbcode":"800561","wardname":"Ward 34","wardcode":"34","id":null,"status":"APPROVED","misglobalid":null,"approved_by":null,"createdate":1643282849000,"updateddate":1725445743000,"globalid":null,"gisglobalid":"KPQcmP4B-sc5c-PP6R-aRno-PR46KPncsRQQ","remark":"","st_area(shape)":0.000005478335919648137,"st_perimeter(shape)":0.011947089542887897}},{"arcs":[[-201,201,202,203]],"type":"Polygon","properties":{"objectid":99154,"statename":"Rajasthan","statecode":"8","districtname":"Pali","districtcode":"118","ulbname":"Pali (M Cl)","ulbcode":"800561","wardname":"Ward 35","wardcode":"35","id":null,"status":"APPROVED","misglobalid":null,"approved_by":null,"createdate":1643282849000,"updateddate":1725446043000,"globalid":null,"gisglobalid":"RBRoKRRP-lKcR-PmRo-QQKP-nmdBBRaQ4Bd4","remark":"","st_area(shape)":0.000005043908613370824,"st_perimeter(shape)":0.01218035089895253}},{"arcs":[[204,-197,-199,-204,205]],"type":"Polygon","properties":{"objectid":101090,"statename":"Rajasthan","statecode":"8","districtname":"Pali","districtcode":"118","ulbname":"Pali (M Cl)","ulbcode":"800561","wardname":"Ward 36","wardcode":"36","id":null,"status":"APPROVED","misglobalid":null,"approved_by":null,"createdate":1643280168000,"updateddate":1725446267000,"globalid":null,"gisglobalid":"RBRlmmca-QPlR-PQlR-Qn4l-QmKKnPKBs46K","remark":"","st_area(shape)":0.000004008353238530286,"st_perimeter(shape)":0.00892175651061837}},{"arcs":[[206,-169,-179,-184,-198,-205]],"type":"Polygon","properties":{"objectid":101893,"statename":"Rajasthan","statecode":"8","districtname":"Pali","districtcode":"118","ulbname":"Pali (M Cl)","ulbcode":"800561","wardname":"Ward 37","wardcode":"37","id":null,"status":"APPROVED","misglobalid":null,"approved_by":null,"createdate":1643280168000,"updateddate":1725446408000,"globalid":null,"gisglobalid":"RPscP5RP-QdR5-PncQ-Rl44-5dRPllddQa5s","remark":"","st_area(shape)":0.000008966547787448252,"st_perimeter(shape)":0.020052654143589213}},{"arcs":[[-203,207,-127,-170,-207,-206]],"type":"Polygon","properties":{"objectid":100693,"statename":"Rajasthan","statecode":"8","districtname":"Pali","districtcode":"118","ulbname":"Pali (M Cl)","ulbcode":"800561","wardname":"Ward 38","wardcode":"38","id":null,"status":"APPROVED","misglobalid":null,"approved_by":null,"createdate":1643280168000,"updateddate":1725446701000,"globalid":null,"gisglobalid":"sm6Qncsd-nd5l-PPB6-a6oR-c6ls444BPnBl","remark":"","st_area(shape)":0.000015034525371587499,"st_perimeter(shape)":0.020876900079349385}},{"arcs":[[-128,-208,-202,-200,-193,208,209,210,211,212,213,214]],"type":"Polygon","properties":{"objectid":101891,"statename":"Rajasthan","statecode":"8","districtname":"Pali","districtcode":"118","ulbname":"Pali (M Cl)","ulbcode":"800561","wardname":"Ward 39","wardcode":"39","id":null,"status":"APPROVED","misglobalid":null,"approved_by":null,"createdate":1643279630000,"updateddate":1725446811000,"globalid":null,"gisglobalid":"aB6Ko4BP-RK6a-Pamn-san6-4P6dmoc5KacK","remark":"","st_area(shape)":0.000034782647555216,"st_perimeter(shape)":0.02760097060927532}},{"arcs":[[215,-209,-192,-35,216,217,218,219,220,221,222]],"type":"Polygon","properties":{"objectid":99134,"statename":"Rajasthan","statecode":"8","districtname":"Pali","districtcode":"118","ulbname":"Pali (M Cl)","ulbcode":"800561","wardname":"Ward 40","wardcode":"40","id":null,"status":"APPROVED","misglobalid":null,"approved_by":null,"createdate":1643280168000,"updateddate":1725447043000,"globalid":null,"gisglobalid":"5nBQKn4s-RQoB-Plod-QdP5-KoKPnc6PPlRB","remark":"","st_area(shape)":0.00017085235580059893,"st_perimeter(shape)":0.053323640638471136}},{"arcs":[[-216,223,-210]],"type":"Polygon","properties":{"objectid":99135,"statename":"Rajasthan","statecode":"8","districtname":"Pali","districtcode":"118","ulbname":"Pali (M Cl)","ulbcode":"800561","wardname":"Ward 41","wardcode":"41","id":null,"status":"APPROVED","misglobalid":null,"approved_by":null,"createdate":1643280168000,"updateddate":1725447138000,"globalid":null,"gisglobalid":"locaoRRR-sslP-PQmm-RRRa-ooQscK6onnPQ","remark":"","st_area(shape)":0.000007284179825079953,"st_perimeter(shape)":0.013362801451063912}},{"arcs":[[-216,223,-210]],"type":"Polygon","properties":{"objectid":101089,"statename":"Rajasthan","statecode":"8","districtname":"Pali","districtcode":"118","ulbname":"Pali (M Cl)","ulbcode":"800561","wardname":"Ward 41","wardcode":"41","id":null,"status":"APPROVED","misglobalid":null,"approved_by":null,"createdate":1643280168000,"updateddate":1725447184000,"globalid":null,"gisglobalid":"KBPcala6-Bom4-PsK5-QKll-aPc4dQadBlda","remark":"","st_area(shape)":0.000007284179825079953,"st_perimeter(shape)":0.013362801451063912}},{"arcs":[[224,225,-154,-129,-215,226,-213,227]],"type":"Polygon","properties":{"objectid":96387,"statename":"Rajasthan","statecode":"8","districtname":"Pali","districtcode":"118","ulbname":"Pali (M Cl)","ulbcode":"800561","wardname":"Ward 42","wardcode":"42","id":null,"status":"APPROVED","misglobalid":null,"approved_by":null,"createdate":1643279630000,"updateddate":1725447371000,"globalid":null,"gisglobalid":"QKPlssKB-PlQn-Ps64-a4s5-o6ccmc4Qd5l4","remark":"","st_area(shape)":0.000025000320283912118,"st_perimeter(shape)":0.023118867318588063}},{"arcs":[[-155,-226,228,-228,-212,229,230]],"type":"Polygon","properties":{"objectid":99133,"statename":"Rajasthan","statecode":"8","districtname":"Pali","districtcode":"118","ulbname":"Pali (M Cl)","ulbcode":"800561","wardname":"Ward 43","wardcode":"43","id":null,"status":"APPROVED","misglobalid":null,"approved_by":null,"createdate":1643280168000,"updateddate":1725447395000,"globalid":null,"gisglobalid":"sd5BldsR-B5Kc-PRcc-Rl4R-4QBcnK44c6a5","remark":"","st_area(shape)":0.000022709121723442424,"st_perimeter(shape)":0.027630377007492067}},{"arcs":[[-231,231,-156]],"type":"Polygon","properties":{"objectid":99132,"statename":"Rajasthan","statecode":"8","districtname":"Pali","districtcode":"118","ulbname":"Pali (M Cl)","ulbcode":"800561","wardname":"Ward 44","wardcode":"44","id":null,"status":"APPROVED","misglobalid":null,"approved_by":null,"createdate":1643280168000,"updateddate":1725447551000,"globalid":null,"gisglobalid":"5oQKQ5cl-c5l4-PaQs-RB4m-aQKn66nPQoK5","remark":"","st_area(shape)":0.000025385078398161954,"st_perimeter(shape)":0.02531986918173224}},{"arcs":[[-157,-232,-230,-211,-224,-223,232,233,234,235]],"type":"Polygon","properties":{"objectid":102289,"statename":"Rajasthan","statecode":"8","districtname":"Pali","districtcode":"118","ulbname":"Pali (M Cl)","ulbcode":"800561","wardname":"Ward 45","wardcode":"45","id":null,"status":"APPROVED","misglobalid":null,"approved_by":null,"createdate":1643280168000,"updateddate":1725447590000,"globalid":null,"gisglobalid":"oQKK6Qn4-sBPQ-P54m-aQ4a-da646dccQoK5","remark":"","st_area(shape)":0.00004437212453858791,"st_perimeter(shape)":0.040128693486702595}},{"arcs":[[236,-235,237,-233,-222,238]],"type":"Polygon","properties":{"objectid":100692,"statename":"Rajasthan","statecode":"8","districtname":"Pali","districtcode":"118","ulbname":"Pali (M Cl)","ulbcode":"800561","wardname":"Ward 46","wardcode":"46","id":null,"status":"APPROVED","misglobalid":null,"approved_by":null,"createdate":1643280168000,"updateddate":1725447656000,"globalid":null,"gisglobalid":"5Paa5KlP-BRac-PodB-addc-Pd5Bl4ao5R6Q","remark":"","st_area(shape)":0.00010296948747390862,"st_perimeter(shape)":0.04720153002564996}},{"arcs":[[239]],"type":"Polygon","properties":{"objectid":101910,"statename":"Rajasthan","statecode":"8","districtname":"Pali","districtcode":"118","ulbname":"Pali (M Cl)","ulbcode":"800561","wardname":"Ward 48","wardcode":"48","id":null,"status":"APPROVED","misglobalid":null,"approved_by":null,"createdate":1643283639000,"updateddate":1725447855000,"globalid":null,"gisglobalid":"l4oscasB-md6s-P564-Q6cn-KondlaomBsQB","remark":"","st_area(shape)":0.00004130431134304969,"st_perimeter(shape)":0.035670198088686676}},{"arcs":[[-220,240,-31,241,242]],"type":"Polygon","properties":{"objectid":99156,"statename":"Rajasthan","statecode":"8","districtname":"Pali","districtcode":"118","ulbname":"Pali (M Cl)","ulbcode":"800561","wardname":"Ward 50","wardcode":"50","id":null,"status":"APPROVED","misglobalid":null,"approved_by":null,"createdate":1643283095000,"updateddate":1725447974000,"globalid":null,"gisglobalid":"mQocPKos-scKP-Pa6n-aa4o-Plm5cKQBPm4P","remark":"","st_area(shape)":0.000019335987089841722,"st_perimeter(shape)":0.026267872116708196}},{"arcs":[[243,244,245]],"type":"Polygon","properties":{"objectid":102303,"statename":"Rajasthan","statecode":"8","districtname":"Pali","districtcode":"118","ulbname":"Pali (M Cl)","ulbcode":"800561","wardname":"Ward 55","wardcode":"55","id":null,"status":"APPROVED","misglobalid":null,"approved_by":null,"createdate":1643283639000,"updateddate":1725448272000,"globalid":null,"gisglobalid":"dKc6dl5a-5alB-PsBR-sBcm-565P4PR4BQno","remark":"","st_area(shape)":0.000010623225197812153,"st_perimeter(shape)":0.014054091862127258}},{"arcs":[[246,247,248,249,250,251,252,253,-246,254]],"type":"Polygon","properties":{"objectid":100307,"statename":"Rajasthan","statecode":"8","districtname":"Pali","districtcode":"118","ulbname":"Pali (M Cl)","ulbcode":"800561","wardname":"Ward 56","wardcode":"56","id":null,"status":"APPROVED","misglobalid":null,"approved_by":null,"createdate":1643283921000,"updateddate":1725448409000,"globalid":null,"gisglobalid":"mQQaRlPQ-aKlB-Pnno-sKB4-PnPQoBlQPmKK","remark":"","st_area(shape)":0.00006698907724220423,"st_perimeter(shape)":0.050073079185521015}},{"arcs":[[255,-244,-254]],"type":"Polygon","properties":{"objectid":102304,"statename":"Rajasthan","statecode":"8","districtname":"Pali","districtcode":"118","ulbname":"Pali (M Cl)","ulbcode":"800561","wardname":"Ward 57","wardcode":"57","id":null,"status":"APPROVED","misglobalid":null,"approved_by":null,"createdate":1643283639000,"updateddate":1725448429000,"globalid":null,"gisglobalid":"RcKPdR45-na5o-Pa4P-Qlao-Bls4sdcssKn4","remark":"","st_area(shape)":0.000017542485343941204,"st_perimeter(shape)":0.017724614811656318}},{"arcs":[[256,-252,257,258,-249,259,260,261,262]],"type":"Polygon","properties":{"objectid":101909,"statename":"Rajasthan","statecode":"8","districtname":"Pali","districtcode":"118","ulbname":"Pali (M Cl)","ulbcode":"800561","wardname":"Ward 59","wardcode":"59","id":null,"status":"APPROVED","misglobalid":null,"approved_by":null,"createdate":1643283306000,"updateddate":1725448540000,"globalid":null,"gisglobalid":"Kd6B6aa5-BnBs-PadR-sBRQ-4RQ666llQRBd","remark":"","st_area(shape)":0.000016636100799606083,"st_perimeter(shape)":0.019569195232215442}},{"arcs":[[263,264,-261,265,-247,266,-242,-30,267,-28,268]],"type":"Polygon","properties":{"objectid":99158,"statename":"Rajasthan","statecode":"8","districtname":"Pali","districtcode":"118","ulbname":"Pali (M Cl)","ulbcode":"800561","wardname":"Ward 60","wardcode":"60","id":null,"status":"APPROVED","misglobalid":null,"approved_by":null,"createdate":1643283306000,"updateddate":1725448601000,"globalid":null,"gisglobalid":"scB6BPRa-acQQ-Po6B-a5nc-RRQoll655dRc","remark":"","st_area(shape)":0.000020156056936847094,"st_perimeter(shape)":0.0351472920177441}},{"arcs":[[269,-269,-27,-22,270]],"type":"Polygon","properties":{"objectid":100306,"statename":"Rajasthan","statecode":"8","districtname":"Pali","districtcode":"118","ulbname":"Pali (M Cl)","ulbcode":"800561","wardname":"Ward 61","wardcode":"61","id":null,"status":"APPROVED","misglobalid":null,"approved_by":null,"createdate":1643283344000,"updateddate":1725448679000,"globalid":null,"gisglobalid":"dmdRd4ao-PQ4B-P4Q4-Q6Pm-PmaBnQn4sdKQ","remark":"","st_area(shape)":0.000013798435668919273,"st_perimeter(shape)":0.022063308210626843}},{"arcs":[[271,-270,272,273,274,275,-262,-265]],"type":"Polygon","properties":{"objectid":99159,"statename":"Rajasthan","statecode":"8","districtname":"Pali","districtcode":"118","ulbname":"Pali (M Cl)","ulbcode":"800561","wardname":"Ward 62","wardcode":"62","id":null,"status":"APPROVED","misglobalid":null,"approved_by":null,"createdate":1643283344000,"updateddate":1725448714000,"globalid":null,"gisglobalid":"Kcd4mnKs-dlnn-Pn5K-Qmnm-6K56P6mlB6na","remark":"","st_area(shape)":0.000019549856754460656,"st_perimeter(shape)":0.024714864610088018}},{"arcs":[[-275,276]],"type":"Polygon","properties":{"objectid":101908,"statename":"Rajasthan","statecode":"8","districtname":"Pali","districtcode":"118","ulbname":"Pali (M Cl)","ulbcode":"800561","wardname":"Ward 63","wardcode":"63","id":null,"status":"APPROVED","misglobalid":null,"approved_by":null,"createdate":1643283244000,"updateddate":1725448774000,"globalid":null,"gisglobalid":"645nalmm-s5nl-PQnR-Rso5-msQodQaK4Q5K","remark":"","st_area(shape)":0.000010579909191116469,"st_perimeter(shape)":0.013070574341618072}},{"arcs":[[277,-263,-276,-277,-274]],"type":"Polygon","properties":{"objectid":101907,"statename":"Rajasthan","statecode":"8","districtname":"Pali","districtcode":"118","ulbname":"Pali (M Cl)","ulbcode":"800561","wardname":"Ward 64","wardcode":"64","id":null,"status":"APPROVED","misglobalid":null,"approved_by":null,"createdate":1643283244000,"updateddate":1725448792000,"globalid":null,"gisglobalid":"lo6m4d4l-54c5-PaPQ-Rann-la5oRQdRKlKP","remark":"","st_area(shape)":0.000008422968445850675,"st_perimeter(shape)":0.016917306009590495}}]}}}