{"type": "FeatureCollection", "features": [{"type": "Feature", "geometry": {"type": "Polygon", "coordinates": [[[80.5541, 16.0803], [80.5542, 16.0797], [80.5542, 16.0795], [80.553, 16.0796], [80.552, 16.0797], [80.5519, 16.0797], [80.5517, 16.0797], [80.5517, 16.0796], [80.5518, 16.0795], [80.5515, 16.0795], [80.551, 16.0795], [80.551, 16.0792], [80.5509, 16.0785], [80.5509, 16.0783], [80.5509, 16.0781], [80.5509, 16.0779], [80.5509, 16.0777], [80.5509, 16.0775], [80.5509, 16.0768], [80.5508, 16.0763], [80.5507, 16.0763], [80.5503, 16.0763], [80.5501, 16.0763], [80.5499, 16.0763], [80.5495, 16.0763], [80.5492, 16.0764], [80.549, 16.0764], [80.5487, 16.0764], [80.5487, 16.0776], [80.5487, 16.0786], [80.5488, 16.0789], [80.5487, 16.0792], [80.5488, 16.0796], [80.5488, 16.0797], [80.5488, 16.0799], [80.5488, 16.08], [80.5488, 16.0801], [80.5488, 16.0802], [80.5488, 16.0804], [80.5489, 16.0806], [80.5489, 16.0808], [80.5489, 16.0811], [80.5489, 16.0814], [80.5489, 16.0815], [80.5489, 16.0816], [80.5489, 16.0817], [80.5488, 16.0818], [80.5488, 16.082], [80.5487, 16.0824], [80.5487, 16.0827], [80.5486, 16.0831], [80.5486, 16.0833], [80.5485, 16.0835], [80.5485, 16.0838], [80.5484, 16.0839], [80.5484, 16.0842], [80.5483, 16.0847], [80.5482, 16.0851], [80.5482, 16.0854], [80.5481, 16.086], [80.548, 16.0863], [80.548, 16.0866], [80.5479, 16.0867], [80.5479, 16.0868], [80.5478, 16.0873], [80.5477, 16.0875], [80.5477, 16.0877], [80.5476, 16.0879], [80.5476, 16.088], [80.5475, 16.0882], [80.5475, 16.0884], [80.5484, 16.0882], [80.5494, 16.0879], [80.5504, 16.0877], [80.5513, 16.0874], [80.5525, 16.087], [80.5537, 16.0866], [80.554, 16.0864], [80.5538, 16.0857], [80.5537, 16.0849], [80.5537, 16.0843], [80.5537, 16.0839], [80.5537, 16.0835], [80.5539, 16.0829], [80.554, 16.0824], [80.5541, 16.0819], [80.5542, 16.0814], [80.5542, 16.0809], [80.5541, 16.0803]]]}, "properties": {"objectid": 54045, "statename": "Andhra Pradhesh", "statecode": "28", "districtname": "Guntur", "districtcode": "548", "ulbname": "Ponnur", "ulbcode": "802983", "wardname": "Ward 1", "wardcode": "1", "id": null, "status": "APPROVED", "misglobalid": null, "approved_by": null, "createdate": 1640004026000, "updateddate": 1655116955000, "globalid": "sooK5lm4-nmmB-Pol4-Ronn-6m64BK5PKdaB", "gisglobalid": "720c6485-f65c-411a-bbdd-2d151517bd51", "remark": "", "st_area(shape)": 5.059758349645673e-05, "st_perimeter(shape)": 0.03483876727019964}}, {"type": "Feature", "geometry": {"type": "Polygon", "coordinates": [[[80.553, 16.0796], [80.5542, 16.0795], [80.5543, 16.0789], [80.5544, 16.0782], [80.5547, 16.0775], [80.5549, 16.0771], [80.555, 16.0769], [80.5551, 16.0769], [80.5549, 16.0767], [80.5548, 16.0765], [80.5547, 16.0764], [80.5545, 16.0761], [80.5544, 16.076], [80.5543, 16.0758], [80.5542, 16.0757], [80.5542, 16.0755], [80.5541, 16.0754], [80.5541, 16.0753], [80.5541, 16.0752], [80.5541, 16.0751], [80.554, 16.0751], [80.554, 16.075], [80.554, 16.0749], [80.5541, 16.0749], [80.554, 16.0749], [80.554, 16.0748], [80.554, 16.0747], [80.5541, 16.0746], [80.554, 16.0746], [80.554, 16.0745], [80.5539, 16.0745], [80.5538, 16.0745], [80.5537, 16.0745], [80.5537, 16.0744], [80.5536, 16.0745], [80.5535, 16.0745], [80.5534, 16.0745], [80.5533, 16.0744], [80.5532, 16.0744], [80.553, 16.0745], [80.5527, 16.0746], [80.5526, 16.0746], [80.5525, 16.0747], [80.5522, 16.0747], [80.5521, 16.0748], [80.552, 16.0748], [80.5519, 16.0748], [80.5518, 16.0749], [80.5517, 16.0749], [80.5516, 16.075], [80.5515, 16.075], [80.5514, 16.075], [80.5513, 16.075], [80.5512, 16.0751], [80.551, 16.0751], [80.5509, 16.0751], [80.5509, 16.075], [80.5509, 16.0749], [80.5508, 16.0747], [80.5507, 16.0745], [80.5506, 16.0742], [80.5505, 16.0736], [80.5504, 16.0735], [80.5504, 16.0733], [80.5503, 16.0731], [80.5503, 16.073], [80.5502, 16.073], [80.5494, 16.0728], [80.5493, 16.0733], [80.5491, 16.0741], [80.5489, 16.0749], [80.5489, 16.075], [80.5489, 16.0752], [80.5488, 16.0753], [80.5488, 16.0755], [80.5488, 16.0758], [80.5488, 16.076], [80.5488, 16.0762], [80.5487, 16.0764], [80.549, 16.0764], [80.5492, 16.0764], [80.5495, 16.0763], [80.5499, 16.0763], [80.5501, 16.0763], [80.5503, 16.0763], [80.5507, 16.0763], [80.5508, 16.0763], [80.5509, 16.0768], [80.5509, 16.0775], [80.5509, 16.0777], [80.5509, 16.0779], [80.5509, 16.0781], [80.5509, 16.0783], [80.5509, 16.0785], [80.551, 16.0792], [80.551, 16.0795], [80.5515, 16.0795], [80.5518, 16.0795], [80.5517, 16.0796], [80.5517, 16.0797], [80.5519, 16.0797], [80.552, 16.0797], [80.553, 16.0796]]]}, "properties": {"objectid": 54835, "statename": "Andhra Pradhesh", "statecode": "28", "districtname": "Guntur", "districtcode": "548", "ulbname": "Ponnur", "ulbcode": "802983", "wardname": "Ward 2", "wardcode": "2", "id": null, "status": "APPROVED", "misglobalid": null, "approved_by": null, "createdate": 1640004026000, "updateddate": 1655116914000, "globalid": "laacc6RQ-Bo6K-Pm6a-Ra5n-45a65QdK4Kal", "gisglobalid": "3bd048b5-d7c7-4052-8372-720dbb30fd25", "remark": "", "st_area(shape)": 2.305655757963249e-05, "st_perimeter(shape)": 0.02455581637331029}}, {"type": "Feature", "geometry": {"type": "Polygon", "coordinates": [[[80.5533, 16.0744], [80.5534, 16.0745], [80.5535, 16.0745], [80.5536, 16.0745], [80.5537, 16.0744], [80.5538, 16.0744], [80.5539, 16.0744], [80.554, 16.0743], [80.5541, 16.0743], [80.5542, 16.0743], [80.5543, 16.0743], [80.5543, 16.0742], [80.5544, 16.0742], [80.5545, 16.0742], [80.5545, 16.0741], [80.5546, 16.0741], [80.5547, 16.0741], [80.5547, 16.074], [80.5548, 16.074], [80.5549, 16.074], [80.555, 16.0739], [80.5551, 16.0738], [80.5554, 16.0735], [80.5557, 16.0733], [80.556, 16.0731], [80.5565, 16.0728], [80.5566, 16.0727], [80.557, 16.0725], [80.5571, 16.0724], [80.5572, 16.0723], [80.5572, 16.0722], [80.5571, 16.0722], [80.5571, 16.0721], [80.557, 16.0721], [80.5569, 16.0721], [80.5568, 16.072], [80.5567, 16.072], [80.5566, 16.0719], [80.5565, 16.0719], [80.5563, 16.0718], [80.5562, 16.0717], [80.5561, 16.0717], [80.556, 16.0716], [80.5559, 16.0716], [80.5558, 16.0715], [80.5557, 16.0715], [80.5555, 16.0714], [80.5553, 16.0713], [80.5551, 16.0712], [80.5548, 16.0711], [80.5547, 16.071], [80.5546, 16.071], [80.5545, 16.071], [80.5544, 16.071], [80.5541, 16.071], [80.5539, 16.071], [80.5533, 16.071], [80.5532, 16.071], [80.5529, 16.071], [80.5527, 16.071], [80.5525, 16.071], [80.5523, 16.071], [80.552, 16.071], [80.5519, 16.071], [80.5517, 16.071], [80.5516, 16.0709], [80.5515, 16.0709], [80.5514, 16.0707], [80.5513, 16.0706], [80.5512, 16.0705], [80.551, 16.0702], [80.5507, 16.0703], [80.5506, 16.0704], [80.5505, 16.0704], [80.5504, 16.0704], [80.5503, 16.0704], [80.5502, 16.0704], [80.5501, 16.0704], [80.55, 16.0703], [80.5499, 16.0703], [80.5497, 16.0703], [80.5497, 16.0706], [80.5497, 16.0709], [80.5497, 16.0712], [80.5497, 16.0715], [80.5497, 16.0717], [80.5497, 16.0718], [80.5496, 16.0719], [80.5495, 16.0725], [80.5494, 16.0728], [80.5502, 16.073], [80.5503, 16.073], [80.5503, 16.0731], [80.5504, 16.0733], [80.5504, 16.0735], [80.5505, 16.0736], [80.5506, 16.0742], [80.5507, 16.0745], [80.5508, 16.0747], [80.5509, 16.0749], [80.5509, 16.075], [80.5509, 16.0751], [80.551, 16.0751], [80.5512, 16.0751], [80.5513, 16.075], [80.5514, 16.075], [80.5515, 16.075], [80.5516, 16.075], [80.5517, 16.0749], [80.5518, 16.0749], [80.5519, 16.0748], [80.552, 16.0748], [80.5521, 16.0748], [80.5522, 16.0747], [80.5525, 16.0747], [80.5526, 16.0746], [80.5527, 16.0746], [80.553, 16.0745], [80.5532, 16.0744], [80.5533, 16.0744]]]}, "properties": {"objectid": 50259, "statename": "Andhra Pradhesh", "statecode": "28", "districtname": "Guntur", "districtcode": "548", "ulbname": "Ponnur", "ulbcode": "802983", "wardname": "Ward 3", "wardcode": "3", "id": null, "status": "APPROVED", "misglobalid": null, "approved_by": null, "createdate": 1640004026000, "updateddate": 1655116928000, "globalid": "c5d5mnPa-4nlo-PBdP-R6d4-oPQnPlamPdQm", "gisglobalid": "588c68b4-a3f0-42da-8514-496a8323892a", "remark": "", "st_area(shape)": 2.1941580736857727e-05, "st_perimeter(shape)": 0.02112857184275637}}, {"type": "Feature", "geometry": {"type": "Polygon", "coordinates": [[[80.5502, 16.0685], [80.5502, 16.0684], [80.5501, 16.0683], [80.5502, 16.0679], [80.5502, 16.0677], [80.5502, 16.0675], [80.5501, 16.0675], [80.5499, 16.0675], [80.5497, 16.0676], [80.5496, 16.0676], [80.5495, 16.0676], [80.5494, 16.0676], [80.5493, 16.0677], [80.5492, 16.0678], [80.5489, 16.0679], [80.5488, 16.068], [80.5488, 16.0681], [80.5487, 16.0682], [80.5486, 16.0682], [80.5485, 16.0683], [80.5484, 16.0684], [80.5483, 16.0683], [80.5482, 16.0681], [80.5481, 16.0681], [80.5481, 16.0679], [80.5479, 16.0676], [80.5476, 16.0678], [80.5477, 16.068], [80.5481, 16.0686], [80.5482, 16.0686], [80.5482, 16.0687], [80.5483, 16.0688], [80.5484, 16.0689], [80.5485, 16.069], [80.5486, 16.0691], [80.5488, 16.0694], [80.549, 16.0695], [80.5492, 16.0697], [80.5494, 16.0699], [80.5494, 16.07], [80.5495, 16.07], [80.5496, 16.0701], [80.5496, 16.0702], [80.5497, 16.0703], [80.5499, 16.0703], [80.55, 16.0703], [80.5501, 16.0704], [80.5502, 16.0704], [80.5503, 16.0704], [80.5504, 16.0704], [80.5505, 16.0704], [80.5506, 16.0704], [80.5507, 16.0703], [80.551, 16.0702], [80.5509, 16.0701], [80.5507, 16.0698], [80.5506, 16.0696], [80.5505, 16.0695], [80.5504, 16.0694], [80.5503, 16.0693], [80.5503, 16.0692], [80.5503, 16.0691], [80.5503, 16.069], [80.5502, 16.0689], [80.5502, 16.0687], [80.5502, 16.0686], [80.5502, 16.0685]]]}, "properties": {"objectid": 50260, "statename": "Andhra Pradhesh", "statecode": "28", "districtname": "Guntur", "districtcode": "548", "ulbname": "Ponnur", "ulbcode": "802983", "wardname": "Ward 4", "wardcode": "4", "id": null, "status": "APPROVED", "misglobalid": null, "approved_by": null, "createdate": 1640004026000, "updateddate": 1655116988000, "globalid": "dK5mdloo-BR6d-PdcP-Qao5-dnP5adQ6Kl6K", "gisglobalid": "0249d191-f80d-48ea-bba4-1f22d30adc1b", "remark": "", "st_area(shape)": 4.4233079094143815e-06, "st_perimeter(shape)": 0.010890695733073965}}, {"type": "Feature", "geometry": {"type": "Polygon", "coordinates": [[[80.5532, 16.0698], [80.5531, 16.0694], [80.5523, 16.0696], [80.5519, 16.0682], [80.5518, 16.0677], [80.5518, 16.0676], [80.5518, 16.0675], [80.5517, 16.0675], [80.5517, 16.0674], [80.5517, 16.0673], [80.5517, 16.0672], [80.5517, 16.0671], [80.5516, 16.067], [80.5516, 16.0669], [80.5516, 16.0668], [80.5516, 16.0667], [80.5516, 16.0665], [80.5515, 16.0664], [80.5515, 16.0663], [80.5514, 16.0663], [80.5513, 16.0663], [80.5512, 16.0664], [80.5512, 16.0666], [80.5511, 16.0666], [80.5511, 16.0667], [80.5509, 16.067], [80.5508, 16.0672], [80.5507, 16.0673], [80.5507, 16.0674], [80.5506, 16.0674], [80.5505, 16.0675], [80.5504, 16.0675], [80.5502, 16.0675], [80.5502, 16.0677], [80.5502, 16.0679], [80.5501, 16.0683], [80.5502, 16.0684], [80.5502, 16.0685], [80.5502, 16.0686], [80.5502, 16.0687], [80.5502, 16.0689], [80.5503, 16.069], [80.5503, 16.0691], [80.5503, 16.0692], [80.5503, 16.0693], [80.5504, 16.0694], [80.5505, 16.0695], [80.5506, 16.0696], [80.5507, 16.0698], [80.5509, 16.0701], [80.551, 16.0702], [80.5512, 16.0705], [80.5513, 16.0706], [80.5514, 16.0707], [80.5515, 16.0709], [80.5516, 16.0709], [80.5517, 16.071], [80.5519, 16.071], [80.552, 16.071], [80.5523, 16.071], [80.5525, 16.071], [80.5527, 16.071], [80.5529, 16.071], [80.5532, 16.071], [80.5533, 16.071], [80.5533, 16.0705], [80.5533, 16.0704], [80.5532, 16.0699], [80.5532, 16.0698]]]}, "properties": {"objectid": 50673, "statename": "Andhra Pradhesh", "statecode": "28", "districtname": "Guntur", "districtcode": "548", "ulbname": "Ponnur", "ulbcode": "802983", "wardname": "Ward 5", "wardcode": "5", "id": null, "status": "APPROVED", "misglobalid": null, "approved_by": null, "createdate": 1640004026000, "updateddate": 1655116935000, "globalid": "o6dm4dBn-smn6-Pcoo-a5oB-PK5Bs4446K6d", "gisglobalid": "d90e72b8-60b4-4207-b96a-24d3eae91c80", "remark": "", "st_area(shape)": 7.690492944025885e-06, "st_perimeter(shape)": 0.013594567410910334}}, {"type": "Feature", "geometry": {"type": "Polygon", "coordinates": [[[80.5571, 16.0711], [80.5568, 16.0705], [80.5568, 16.0703], [80.5566, 16.0699], [80.5565, 16.0696], [80.5563, 16.0691], [80.5563, 16.0689], [80.556, 16.068], [80.5559, 16.068], [80.5559, 16.0678], [80.5558, 16.0678], [80.5557, 16.0678], [80.5555, 16.0675], [80.5555, 16.0673], [80.5553, 16.0669], [80.5553, 16.0668], [80.5552, 16.0666], [80.5551, 16.0662], [80.555, 16.0661], [80.5548, 16.0655], [80.5547, 16.0653], [80.5546, 16.0649], [80.5545, 16.0647], [80.5544, 16.0647], [80.5543, 16.0648], [80.5542, 16.0648], [80.5541, 16.0649], [80.5538, 16.065], [80.5536, 16.0652], [80.5534, 16.0653], [80.5532, 16.0654], [80.553, 16.0655], [80.5525, 16.0657], [80.5524, 16.0658], [80.5523, 16.0658], [80.5519, 16.0661], [80.5515, 16.0663], [80.5515, 16.0664], [80.5516, 16.0665], [80.5516, 16.0667], [80.5516, 16.0668], [80.5516, 16.0669], [80.5516, 16.067], [80.5517, 16.0671], [80.5517, 16.0672], [80.5517, 16.0673], [80.5517, 16.0674], [80.5517, 16.0675], [80.5518, 16.0675], [80.5518, 16.0676], [80.5518, 16.0677], [80.5519, 16.0682], [80.5523, 16.0696], [80.5531, 16.0694], [80.5532, 16.0698], [80.5532, 16.0699], [80.5533, 16.0704], [80.5533, 16.0705], [80.5533, 16.071], [80.5539, 16.071], [80.5541, 16.071], [80.5544, 16.071], [80.5545, 16.071], [80.5546, 16.071], [80.5547, 16.071], [80.5548, 16.0711], [80.5551, 16.0712], [80.5553, 16.0713], [80.5555, 16.0714], [80.5557, 16.0715], [80.5558, 16.0715], [80.5559, 16.0716], [80.556, 16.0716], [80.5561, 16.0717], [80.5562, 16.0717], [80.5563, 16.0718], [80.5565, 16.0719], [80.5566, 16.0719], [80.5567, 16.072], [80.5568, 16.072], [80.5569, 16.0721], [80.557, 16.0721], [80.5571, 16.0721], [80.5571, 16.0722], [80.5572, 16.0722], [80.5572, 16.0723], [80.5573, 16.0723], [80.5573, 16.0722], [80.5574, 16.0721], [80.5574, 16.072], [80.5574, 16.0719], [80.5574, 16.0718], [80.5573, 16.0716], [80.5572, 16.0714], [80.5571, 16.0711]]]}, "properties": {"objectid": 52230, "statename": "Andhra Pradhesh", "statecode": "28", "districtname": "Guntur", "districtcode": "548", "ulbname": "Ponnur", "ulbcode": "802983", "wardname": "Ward 6", "wardcode": "6", "id": null, "status": "APPROVED", "misglobalid": null, "approved_by": null, "createdate": 1640004026000, "updateddate": 1655117006000, "globalid": "colaK6s4-5oPR-PRBP-saRn-KaB4KoonBl4o", "gisglobalid": "5ffd7555-3aba-455f-8189-dccc789942ce", "remark": "", "st_area(shape)": 2.2512661648285034e-05, "st_perimeter(shape)": 0.022086040571514514}}, {"type": "Feature", "geometry": {"type": "Polygon", "coordinates": [[[80.5562, 16.0762], [80.5573, 16.0756], [80.5578, 16.0753], [80.5579, 16.0751], [80.5581, 16.0748], [80.5582, 16.0746], [80.5582, 16.0742], [80.5581, 16.0741], [80.5586, 16.0739], [80.5597, 16.0737], [80.56, 16.0736], [80.56, 16.0735], [80.5595, 16.0725], [80.5592, 16.072], [80.5591, 16.0718], [80.5591, 16.0716], [80.5587, 16.0709], [80.5586, 16.0705], [80.5578, 16.0686], [80.5576, 16.0683], [80.5572, 16.0673], [80.5569, 16.0674], [80.5568, 16.0674], [80.5568, 16.0673], [80.5568, 16.0672], [80.5567, 16.0672], [80.5567, 16.0671], [80.5567, 16.067], [80.5566, 16.0669], [80.5565, 16.0667], [80.5565, 16.0666], [80.5564, 16.0664], [80.5564, 16.0663], [80.5563, 16.0661], [80.5562, 16.0659], [80.5562, 16.0658], [80.5561, 16.0658], [80.5561, 16.0657], [80.5559, 16.0654], [80.5559, 16.0653], [80.5557, 16.0649], [80.5557, 16.0648], [80.5555, 16.0644], [80.5553, 16.0644], [80.555, 16.0645], [80.5548, 16.0646], [80.5547, 16.0646], [80.5545, 16.0647], [80.5546, 16.0649], [80.5547, 16.0653], [80.5548, 16.0655], [80.555, 16.0661], [80.5551, 16.0662], [80.5552, 16.0666], [80.5553, 16.0668], [80.5553, 16.0669], [80.5555, 16.0673], [80.5555, 16.0675], [80.5557, 16.0678], [80.5558, 16.0678], [80.5559, 16.0678], [80.5559, 16.068], [80.556, 16.068], [80.5563, 16.0689], [80.5563, 16.0691], [80.5565, 16.0696], [80.5566, 16.0699], [80.5568, 16.0703], [80.5568, 16.0705], [80.5571, 16.0711], [80.5572, 16.0714], [80.5573, 16.0716], [80.5574, 16.0718], [80.5574, 16.0719], [80.5574, 16.072], [80.5574, 16.0721], [80.5573, 16.0722], [80.5573, 16.0723], [80.5572, 16.0723], [80.5571, 16.0724], [80.557, 16.0725], [80.5566, 16.0727], [80.5565, 16.0728], [80.556, 16.0731], [80.5557, 16.0733], [80.5554, 16.0735], [80.5551, 16.0738], [80.555, 16.0739], [80.5549, 16.074], [80.5548, 16.074], [80.5547, 16.074], [80.5547, 16.0741], [80.5546, 16.0741], [80.5545, 16.0741], [80.5545, 16.0742], [80.5544, 16.0742], [80.5543, 16.0742], [80.5543, 16.0743], [80.5542, 16.0743], [80.5541, 16.0743], [80.554, 16.0743], [80.5539, 16.0744], [80.5538, 16.0744], [80.5537, 16.0744], [80.5537, 16.0745], [80.5538, 16.0745], [80.5539, 16.0745], [80.554, 16.0745], [80.554, 16.0746], [80.5541, 16.0746], [80.554, 16.0747], [80.554, 16.0748], [80.554, 16.0749], [80.5541, 16.0749], [80.554, 16.0749], [80.554, 16.075], [80.554, 16.0751], [80.5541, 16.0751], [80.5541, 16.0752], [80.5541, 16.0753], [80.5541, 16.0754], [80.5542, 16.0755], [80.5542, 16.0757], [80.5543, 16.0758], [80.5544, 16.076], [80.5545, 16.0761], [80.5547, 16.0764], [80.5548, 16.0765], [80.5549, 16.0767], [80.5551, 16.0769], [80.5551, 16.0768], [80.5553, 16.0767], [80.5555, 16.0766], [80.5557, 16.0764], [80.5562, 16.0762]]]}, "properties": {"objectid": 54048, "statename": "Andhra Pradhesh", "statecode": "28", "districtname": "Guntur", "districtcode": "548", "ulbname": "Ponnur", "ulbcode": "802983", "wardname": "Ward 7", "wardcode": "7", "id": null, "status": "APPROVED", "misglobalid": null, "approved_by": null, "createdate": 1640004026000, "updateddate": 1655117025000, "globalid": "Rsolsd6c-om6P-PnPl-som5-54mRccRBdd54", "gisglobalid": "40950ed1-9dc4-4abe-8c0c-f3fa70a1834d", "remark": "", "st_area(shape)": 2.6095930800723044e-05, "st_perimeter(shape)": 0.0338697763231743}}, {"type": "Feature", "geometry": {"type": "Polygon", "coordinates": [[[80.561, 16.0676], [80.561, 16.0672], [80.561, 16.0671], [80.5609, 16.0671], [80.5607, 16.0671], [80.5606, 16.067], [80.5605, 16.067], [80.5604, 16.067], [80.5603, 16.0671], [80.5602, 16.0671], [80.5601, 16.0671], [80.5599, 16.0672], [80.5593, 16.0673], [80.5587, 16.0675], [80.5583, 16.0676], [80.5582, 16.0676], [80.5582, 16.0675], [80.5581, 16.0675], [80.5577, 16.0677], [80.5577, 16.0678], [80.5578, 16.068], [80.558, 16.0684], [80.5581, 16.0685], [80.5581, 16.0687], [80.5582, 16.0688], [80.5583, 16.0689], [80.5583, 16.069], [80.5583, 16.0691], [80.5584, 16.0692], [80.5584, 16.0693], [80.5585, 16.0694], [80.5585, 16.0695], [80.5586, 16.0696], [80.5586, 16.0697], [80.5587, 16.0699], [80.5589, 16.0703], [80.5586, 16.0705], [80.5587, 16.0709], [80.5591, 16.0716], [80.5591, 16.0718], [80.5592, 16.072], [80.5595, 16.0725], [80.56, 16.0735], [80.56, 16.0736], [80.5608, 16.0735], [80.5621, 16.0733], [80.5621, 16.0731], [80.562, 16.073], [80.562, 16.0728], [80.5619, 16.0725], [80.5619, 16.0721], [80.5618, 16.0717], [80.5617, 16.0712], [80.5617, 16.071], [80.5616, 16.0705], [80.5615, 16.0702], [80.5614, 16.0701], [80.5614, 16.07], [80.5614, 16.0697], [80.5613, 16.0694], [80.5613, 16.0693], [80.5612, 16.0688], [80.5612, 16.0687], [80.5611, 16.0685], [80.5611, 16.0683], [80.5611, 16.0682], [80.5611, 16.068], [80.561, 16.0676]]]}, "properties": {"objectid": 51011, "statename": "Andhra Pradhesh", "statecode": "28", "districtname": "Guntur", "districtcode": "548", "ulbname": "Ponnur", "ulbcode": "802983", "wardname": "Ward 8", "wardcode": "8", "id": null, "status": "APPROVED", "misglobalid": null, "approved_by": null, "createdate": 1640004026000, "updateddate": 1655117018000, "globalid": "4ocQP6QP-56mR-PdRR-aPKR-lKP5RQKBlB5B", "gisglobalid": "7e11d148-2652-4adc-a601-b6a3d61673a7", "remark": "", "st_area(shape)": 1.7183615026666234e-05, "st_perimeter(shape)": 0.01874130013628425}}, {"type": "Feature", "geometry": {"type": "Polygon", "coordinates": [[[80.5577, 16.0677], [80.5581, 16.0675], [80.5582, 16.0675], [80.5582, 16.0676], [80.5583, 16.0676], [80.5587, 16.0675], [80.5593, 16.0673], [80.5599, 16.0672], [80.5601, 16.0671], [80.5602, 16.0671], [80.5603, 16.0671], [80.5603, 16.067], [80.5604, 16.0666], [80.5604, 16.0663], [80.5603, 16.0663], [80.5602, 16.0664], [80.5599, 16.0664], [80.5598, 16.0664], [80.5598, 16.0663], [80.5598, 16.0662], [80.5598, 16.0661], [80.5597, 16.0661], [80.5596, 16.0661], [80.5595, 16.0661], [80.5595, 16.0662], [80.5594, 16.0661], [80.5594, 16.0658], [80.5593, 16.0656], [80.5593, 16.0655], [80.5591, 16.0656], [80.5588, 16.0656], [80.5585, 16.0657], [80.5583, 16.0657], [80.5582, 16.0658], [80.558, 16.0659], [80.5575, 16.066], [80.557, 16.065], [80.5566, 16.0642], [80.5566, 16.0641], [80.5566, 16.064], [80.5565, 16.064], [80.556, 16.0642], [80.5559, 16.0642], [80.5558, 16.0643], [80.5556, 16.0643], [80.5555, 16.0644], [80.5557, 16.0648], [80.5557, 16.0649], [80.5559, 16.0653], [80.5559, 16.0654], [80.5561, 16.0657], [80.5561, 16.0658], [80.5562, 16.0658], [80.5562, 16.0659], [80.5563, 16.0661], [80.5564, 16.0663], [80.5564, 16.0664], [80.5565, 16.0666], [80.5565, 16.0667], [80.5566, 16.0669], [80.5567, 16.067], [80.5567, 16.0671], [80.5567, 16.0672], [80.5568, 16.0672], [80.5568, 16.0673], [80.5568, 16.0674], [80.5569, 16.0674], [80.5572, 16.0673], [80.5576, 16.0683], [80.5578, 16.0686], [80.5586, 16.0705], [80.5589, 16.0703], [80.5587, 16.0699], [80.5586, 16.0697], [80.5586, 16.0696], [80.5585, 16.0695], [80.5585, 16.0694], [80.5584, 16.0693], [80.5584, 16.0692], [80.5583, 16.0691], [80.5583, 16.069], [80.5583, 16.0689], [80.5582, 16.0688], [80.5581, 16.0687], [80.5581, 16.0685], [80.558, 16.0684], [80.5578, 16.068], [80.5577, 16.0678], [80.5577, 16.0677]]]}, "properties": {"objectid": 50261, "statename": "Andhra Pradhesh", "statecode": "28", "districtname": "Guntur", "districtcode": "548", "ulbname": "Ponnur", "ulbcode": "802983", "wardname": "Ward 9", "wardcode": "9", "id": null, "status": "APPROVED", "misglobalid": null, "approved_by": null, "createdate": 1640004026000, "updateddate": 1655117032000, "globalid": "mlnlmKnR-lld5-PP6m-sBso-66cn4K5sd4Ql", "gisglobalid": "c6c187de-be2c-4919-89a9-0f8ba295cad3", "remark": "", "st_area(shape)": 8.908430174558347e-06, "st_perimeter(shape)": 0.0211796725321682}}, {"type": "Feature", "geometry": {"type": "Polygon", "coordinates": [[[80.5611, 16.067], [80.5612, 16.067], [80.5612, 16.0669], [80.5613, 16.0668], [80.5613, 16.0667], [80.5615, 16.0665], [80.5617, 16.066], [80.5618, 16.0658], [80.5619, 16.0657], [80.5619, 16.0655], [80.562, 16.0653], [80.5621, 16.0652], [80.5623, 16.0649], [80.5622, 16.0649], [80.5621, 16.0649], [80.5618, 16.065], [80.5615, 16.0651], [80.5615, 16.0649], [80.5615, 16.0643], [80.5614, 16.0638], [80.5614, 16.0634], [80.5615, 16.0632], [80.5617, 16.0631], [80.5618, 16.063], [80.5619, 16.0629], [80.5619, 16.0628], [80.5619, 16.0627], [80.5619, 16.0626], [80.5619, 16.0624], [80.5619, 16.0622], [80.5618, 16.0622], [80.5615, 16.0622], [80.5614, 16.0622], [80.5613, 16.0622], [80.5612, 16.0622], [80.561, 16.0623], [80.5609, 16.0623], [80.5608, 16.0623], [80.5602, 16.0626], [80.56, 16.0626], [80.5597, 16.0627], [80.5595, 16.0628], [80.5592, 16.0629], [80.5591, 16.0629], [80.5589, 16.063], [80.5588, 16.063], [80.5587, 16.0631], [80.5586, 16.0631], [80.5585, 16.0631], [80.5583, 16.0632], [80.5582, 16.0633], [80.558, 16.0634], [80.5578, 16.0635], [80.5576, 16.0636], [80.5573, 16.0637], [80.5572, 16.0638], [80.5571, 16.0638], [80.557, 16.0639], [80.5568, 16.0639], [80.5566, 16.064], [80.5566, 16.0641], [80.5566, 16.0642], [80.557, 16.065], [80.5575, 16.066], [80.558, 16.0659], [80.5582, 16.0658], [80.5583, 16.0657], [80.5585, 16.0657], [80.5588, 16.0656], [80.5591, 16.0656], [80.5593, 16.0655], [80.5593, 16.0656], [80.5594, 16.0658], [80.5594, 16.0661], [80.5595, 16.0662], [80.5595, 16.0661], [80.5596, 16.0661], [80.5597, 16.0661], [80.5598, 16.0661], [80.5598, 16.0662], [80.5598, 16.0663], [80.5598, 16.0664], [80.5599, 16.0664], [80.5602, 16.0664], [80.5603, 16.0663], [80.5604, 16.0663], [80.5604, 16.0666], [80.5603, 16.067], [80.5603, 16.0671], [80.5604, 16.067], [80.5605, 16.067], [80.5606, 16.067], [80.5607, 16.0671], [80.5609, 16.0671], [80.561, 16.0671], [80.5611, 16.067]]]}, "properties": {"objectid": 50674, "statename": "Andhra Pradhesh", "statecode": "28", "districtname": "Guntur", "districtcode": "548", "ulbname": "Ponnur", "ulbcode": "802983", "wardname": "Ward 10", "wardcode": "10", "id": null, "status": "APPROVED", "misglobalid": null, "approved_by": null, "createdate": 1640004026000, "updateddate": 1655117282000, "globalid": "P6lQaosB-lBKR-PRBl-s5al-Ka5Kn6PlaPK5", "gisglobalid": "b19f1f8a-8f70-406e-90a9-2f335b30a0d4", "remark": "", "st_area(shape)": 1.5510418133481085e-05, "st_perimeter(shape)": 0.0196018752963255}}, {"type": "Feature", "geometry": {"type": "Polygon", "coordinates": [[[80.5663, 16.0736], [80.5663, 16.0731], [80.5663, 16.0725], [80.5663, 16.0722], [80.5662, 16.0715], [80.5662, 16.0711], [80.5662, 16.0705], [80.5661, 16.07], [80.5661, 16.0693], [80.5661, 16.0689], [80.566, 16.0681], [80.566, 16.0676], [80.5659, 16.0672], [80.5659, 16.067], [80.5659, 16.0667], [80.5659, 16.0662], [80.5659, 16.066], [80.5659, 16.0659], [80.5657, 16.0655], [80.5656, 16.0652], [80.5656, 16.0651], [80.5655, 16.0649], [80.5654, 16.0648], [80.5653, 16.0647], [80.5652, 16.0644], [80.5651, 16.0641], [80.5648, 16.0635], [80.5646, 16.0631], [80.5646, 16.0629], [80.5646, 16.0628], [80.5645, 16.0627], [80.5645, 16.0626], [80.5645, 16.0625], [80.5645, 16.0622], [80.5645, 16.062], [80.5642, 16.062], [80.564, 16.062], [80.5639, 16.0621], [80.5638, 16.0621], [80.5638, 16.062], [80.5638, 16.0619], [80.5637, 16.0616], [80.5636, 16.0615], [80.5634, 16.0616], [80.5633, 16.0616], [80.563, 16.0618], [80.5629, 16.0618], [80.5627, 16.0619], [80.5626, 16.0619], [80.5624, 16.062], [80.5623, 16.0621], [80.5621, 16.0621], [80.5619, 16.0621], [80.5619, 16.0622], [80.5619, 16.0624], [80.5619, 16.0626], [80.5619, 16.0627], [80.5619, 16.0628], [80.5619, 16.0629], [80.5618, 16.063], [80.5617, 16.0631], [80.5615, 16.0632], [80.5614, 16.0634], [80.5614, 16.0638], [80.5615, 16.0643], [80.5615, 16.0649], [80.5615, 16.0651], [80.5618, 16.065], [80.5621, 16.0649], [80.5622, 16.0649], [80.5623, 16.0649], [80.5621, 16.0652], [80.562, 16.0653], [80.5619, 16.0655], [80.5619, 16.0657], [80.5618, 16.0658], [80.5617, 16.066], [80.5615, 16.0665], [80.5613, 16.0667], [80.5613, 16.0668], [80.5612, 16.0669], [80.5612, 16.067], [80.5611, 16.067], [80.561, 16.0671], [80.561, 16.0672], [80.561, 16.0676], [80.5611, 16.068], [80.5611, 16.0682], [80.5611, 16.0683], [80.5611, 16.0685], [80.5612, 16.0687], [80.5612, 16.0688], [80.5613, 16.0693], [80.5613, 16.0694], [80.5614, 16.0697], [80.5614, 16.07], [80.5614, 16.0701], [80.5615, 16.0702], [80.5616, 16.0705], [80.5617, 16.071], [80.5617, 16.0712], [80.5618, 16.0717], [80.5619, 16.0721], [80.5619, 16.0725], [80.562, 16.0728], [80.562, 16.073], [80.5621, 16.0731], [80.5621, 16.0733], [80.5632, 16.0731], [80.5644, 16.0731], [80.5647, 16.0736], [80.5663, 16.0736]]]}, "properties": {"objectid": 53251, "statename": "Andhra Pradhesh", "statecode": "28", "districtname": "Guntur", "districtcode": "548", "ulbname": "Ponnur", "ulbcode": "802983", "wardname": "Ward 11", "wardcode": "11", "id": null, "status": "APPROVED", "misglobalid": null, "approved_by": null, "createdate": 1640004026000, "updateddate": 1655117337000, "globalid": "44nlco5s-54Qc-P4nc-sP4Q-K6nlldRaKd4s", "gisglobalid": "d7444512-4004-4e70-9e37-78966bcda21f", "remark": "", "st_area(shape)": 4.764945737890349e-05, "st_perimeter(shape)": 0.03245650031033785}}, {"type": "Feature", "geometry": {"type": "Polygon", "coordinates": [[[80.5756, 16.0741], [80.5767, 16.0741], [80.5778, 16.074], [80.5788, 16.074], [80.5798, 16.0739], [80.5807, 16.0738], [80.5817, 16.0737], [80.5831, 16.0735], [80.5845, 16.0733], [80.5854, 16.0731], [80.5863, 16.073], [80.5873, 16.0728], [80.5882, 16.0726], [80.5891, 16.0725], [80.5901, 16.0723], [80.591, 16.0721], [80.5919, 16.0719], [80.5919, 16.0706], [80.5918, 16.0693], [80.5917, 16.0681], [80.5916, 16.067], [80.5916, 16.0661], [80.5915, 16.0651], [80.5913, 16.0641], [80.5911, 16.0631], [80.5911, 16.062], [80.591, 16.0609], [80.5909, 16.0607], [80.591, 16.0595], [80.5912, 16.0583], [80.5914, 16.0571], [80.5916, 16.0558], [80.5918, 16.0546], [80.5926, 16.0541], [80.5934, 16.0537], [80.594, 16.0534], [80.595, 16.0531], [80.596, 16.0528], [80.5964, 16.0517], [80.5968, 16.0506], [80.5972, 16.0495], [80.5979, 16.0484], [80.5985, 16.0474], [80.5975, 16.0469], [80.5964, 16.0464], [80.5953, 16.0464], [80.5942, 16.0464], [80.593, 16.0464], [80.5922, 16.0462], [80.5913, 16.0458], [80.5904, 16.0454], [80.5894, 16.045], [80.5885, 16.0446], [80.5875, 16.0442], [80.5865, 16.0436], [80.5855, 16.0428], [80.5845, 16.0419], [80.5844, 16.0418], [80.5837, 16.0426], [80.5835, 16.0428], [80.5828, 16.0434], [80.5822, 16.044], [80.5809, 16.0452], [80.5802, 16.0459], [80.5795, 16.0467], [80.5787, 16.0474], [80.5782, 16.0479], [80.578, 16.0481], [80.5776, 16.0485], [80.5773, 16.0487], [80.5768, 16.0492], [80.5764, 16.0496], [80.5761, 16.05], [80.5759, 16.0502], [80.5758, 16.0503], [80.5753, 16.0507], [80.5747, 16.0513], [80.5745, 16.0515], [80.5741, 16.0519], [80.5735, 16.0525], [80.573, 16.053], [80.5726, 16.0533], [80.5726, 16.0534], [80.5722, 16.0537], [80.572, 16.054], [80.5718, 16.0542], [80.5715, 16.0544], [80.5711, 16.0549], [80.5707, 16.0552], [80.5704, 16.0556], [80.5698, 16.0561], [80.5697, 16.0562], [80.5694, 16.0565], [80.5692, 16.0567], [80.5687, 16.0572], [80.5685, 16.0574], [80.5682, 16.0577], [80.5677, 16.0581], [80.5674, 16.0584], [80.5672, 16.0586], [80.5671, 16.0588], [80.5668, 16.059], [80.5666, 16.0592], [80.5665, 16.0593], [80.5663, 16.0595], [80.5661, 16.0597], [80.5657, 16.0601], [80.5656, 16.0602], [80.5655, 16.0605], [80.5653, 16.0608], [80.5652, 16.0609], [80.5651, 16.061], [80.5651, 16.0611], [80.565, 16.0611], [80.5649, 16.0612], [80.5648, 16.0612], [80.5647, 16.0613], [80.5646, 16.0613], [80.5645, 16.0613], [80.5644, 16.0613], [80.5643, 16.0613], [80.5642, 16.0613], [80.5641, 16.0614], [80.564, 16.0614], [80.5639, 16.0614], [80.5637, 16.0615], [80.5636, 16.0615], [80.5637, 16.0616], [80.5638, 16.0619], [80.5638, 16.062], [80.5638, 16.0621], [80.5639, 16.0621], [80.564, 16.062], [80.5642, 16.062], [80.5645, 16.062], [80.5645, 16.0622], [80.5645, 16.0625], [80.5645, 16.0626], [80.5645, 16.0627], [80.5646, 16.0628], [80.5646, 16.0629], [80.5646, 16.0631], [80.5648, 16.0635], [80.5651, 16.0641], [80.5652, 16.0644], [80.5653, 16.0647], [80.5654, 16.0648], [80.5655, 16.0649], [80.5656, 16.0651], [80.5656, 16.0652], [80.5657, 16.0655], [80.5659, 16.0659], [80.5659, 16.066], [80.5659, 16.0662], [80.5659, 16.0667], [80.5659, 16.067], [80.5659, 16.0672], [80.566, 16.0676], [80.566, 16.0681], [80.5661, 16.0689], [80.5661, 16.0693], [80.5661, 16.07], [80.5662, 16.0705], [80.5662, 16.0711], [80.5662, 16.0715], [80.5663, 16.0722], [80.5663, 16.0725], [80.5663, 16.0731], [80.5663, 16.0736], [80.5674, 16.0736], [80.5685, 16.0735], [80.5696, 16.0735], [80.5708, 16.0737], [80.572, 16.0739], [80.5732, 16.074], [80.5745, 16.0741], [80.5756, 16.0741]]]}, "properties": {"objectid": 53010, "statename": "Andhra Pradhesh", "statecode": "28", "districtname": "Guntur", "districtcode": "548", "ulbname": "Ponnur", "ulbcode": "802983", "wardname": "Ward 12", "wardcode": "12", "id": null, "status": "APPROVED", "misglobalid": null, "approved_by": null, "createdate": 1640004026000, "updateddate": 1655117361000, "globalid": "llR5anmc-ooao-Pomm-RPQK-5ancsKna6ons", "gisglobalid": "e540cc44-1de8-46c5-80eb-cfcae68acd22", "remark": "", "st_area(shape)": 0.0006689716175527139, "st_perimeter(shape)": 0.11148641076870178}}, {"type": "Feature", "geometry": {"type": "Polygon", "coordinates": [[[80.5634, 16.0616], [80.5636, 16.0615], [80.5637, 16.0615], [80.5639, 16.0614], [80.564, 16.0614], [80.5641, 16.0614], [80.5642, 16.0613], [80.5643, 16.0613], [80.5644, 16.0613], [80.5645, 16.0613], [80.5646, 16.0613], [80.5647, 16.0613], [80.5648, 16.0612], [80.5649, 16.0612], [80.565, 16.0611], [80.5651, 16.0611], [80.5651, 16.061], [80.5652, 16.0609], [80.5653, 16.0608], [80.5655, 16.0605], [80.5656, 16.0602], [80.5657, 16.0601], [80.5661, 16.0597], [80.5663, 16.0595], [80.5665, 16.0593], [80.5666, 16.0592], [80.5668, 16.059], [80.5671, 16.0588], [80.5672, 16.0586], [80.5674, 16.0584], [80.5677, 16.0581], [80.5682, 16.0577], [80.5685, 16.0574], [80.5687, 16.0572], [80.5692, 16.0567], [80.5694, 16.0565], [80.5697, 16.0562], [80.5698, 16.0561], [80.5704, 16.0556], [80.5707, 16.0552], [80.5711, 16.0549], [80.5715, 16.0544], [80.5718, 16.0542], [80.572, 16.054], [80.5722, 16.0537], [80.5726, 16.0534], [80.5726, 16.0533], [80.573, 16.053], [80.5735, 16.0525], [80.5741, 16.0519], [80.5745, 16.0515], [80.5747, 16.0513], [80.5753, 16.0507], [80.5758, 16.0503], [80.5759, 16.0502], [80.5761, 16.05], [80.5764, 16.0496], [80.5768, 16.0492], [80.5773, 16.0487], [80.5776, 16.0485], [80.578, 16.0481], [80.5782, 16.0479], [80.5787, 16.0474], [80.5795, 16.0467], [80.5802, 16.0459], [80.5809, 16.0452], [80.5822, 16.044], [80.5828, 16.0434], [80.5835, 16.0428], [80.5837, 16.0426], [80.5844, 16.0418], [80.5837, 16.0409], [80.5829, 16.0399], [80.5821, 16.0403], [80.5814, 16.0393], [80.5807, 16.0384], [80.58, 16.0375], [80.5791, 16.0378], [80.5781, 16.0382], [80.5771, 16.0385], [80.5771, 16.0394], [80.5772, 16.0403], [80.5761, 16.0405], [80.5751, 16.0407], [80.5741, 16.0408], [80.573, 16.041], [80.572, 16.041], [80.5709, 16.041], [80.5698, 16.0411], [80.5697, 16.0401], [80.5688, 16.0401], [80.5678, 16.0401], [80.5668, 16.0401], [80.5658, 16.0401], [80.5659, 16.0411], [80.5661, 16.0421], [80.5662, 16.0431], [80.5664, 16.0441], [80.5656, 16.0443], [80.5646, 16.0444], [80.5637, 16.0446], [80.5627, 16.0447], [80.5616, 16.0448], [80.5605, 16.0448], [80.5589, 16.0452], [80.5593, 16.0461], [80.5594, 16.0465], [80.5596, 16.0469], [80.5597, 16.0472], [80.5599, 16.0477], [80.56, 16.0479], [80.5601, 16.048], [80.5601, 16.0481], [80.5605, 16.0486], [80.5607, 16.0488], [80.5611, 16.0492], [80.5615, 16.0497], [80.5617, 16.0499], [80.5618, 16.0501], [80.5619, 16.0502], [80.562, 16.0504], [80.5623, 16.0515], [80.5625, 16.0521], [80.5627, 16.0528], [80.5628, 16.0532], [80.5629, 16.0535], [80.5631, 16.0544], [80.5633, 16.055], [80.5634, 16.0554], [80.5635, 16.0559], [80.5636, 16.0563], [80.5636, 16.0564], [80.5637, 16.057], [80.5637, 16.0572], [80.5637, 16.0573], [80.5637, 16.0577], [80.5637, 16.0583], [80.5637, 16.0584], [80.5637, 16.0585], [80.5637, 16.0586], [80.5636, 16.0587], [80.5637, 16.0587], [80.5637, 16.0589], [80.5635, 16.0589], [80.5634, 16.0589], [80.563, 16.059], [80.5627, 16.0591], [80.5628, 16.0594], [80.5629, 16.0596], [80.5629, 16.0597], [80.563, 16.0597], [80.5631, 16.0599], [80.5631, 16.06], [80.5632, 16.0606], [80.5632, 16.061], [80.5633, 16.0614], [80.5634, 16.0616]]]}, "properties": {"objectid": 51785, "statename": "Andhra Pradhesh", "statecode": "28", "districtname": "Guntur", "districtcode": "548", "ulbname": "Ponnur", "ulbcode": "802983", "wardname": "Ward 13", "wardcode": "13", "id": null, "status": "APPROVED", "misglobalid": null, "approved_by": null, "createdate": 1640004026000, "updateddate": 1655117526000, "globalid": "Q5Q6sQl5-mdnd-PR6a-QmnR-Qn4K4KaKla5d", "gisglobalid": "08b1418a-d952-4ebb-9004-2ff913049558", "remark": "", "st_area(shape)": 0.00026396440718804445, "st_perimeter(shape)": 0.08337752984031097}}, {"type": "Feature", "geometry": {"type": "Polygon", "coordinates": [[[80.5631, 16.0599], [80.563, 16.0597], [80.5629, 16.0597], [80.5629, 16.0596], [80.5628, 16.0594], [80.5627, 16.0591], [80.563, 16.059], [80.5634, 16.0589], [80.5635, 16.0589], [80.5637, 16.0589], [80.5637, 16.0587], [80.5636, 16.0587], [80.5637, 16.0586], [80.5637, 16.0585], [80.5637, 16.0584], [80.5637, 16.0583], [80.5637, 16.0577], [80.5637, 16.0573], [80.5637, 16.0572], [80.5637, 16.057], [80.5636, 16.0564], [80.5636, 16.0563], [80.5635, 16.0559], [80.5634, 16.0554], [80.5633, 16.055], [80.5631, 16.0544], [80.5629, 16.0535], [80.5628, 16.0532], [80.5627, 16.0528], [80.5625, 16.0521], [80.5623, 16.0515], [80.562, 16.0504], [80.5619, 16.0502], [80.5618, 16.0501], [80.5617, 16.0499], [80.5615, 16.0497], [80.5611, 16.0492], [80.5607, 16.0488], [80.5605, 16.0486], [80.5601, 16.0481], [80.5601, 16.048], [80.56, 16.0479], [80.5599, 16.0477], [80.5597, 16.0472], [80.5596, 16.0469], [80.5594, 16.0465], [80.5593, 16.0461], [80.5589, 16.0452], [80.5588, 16.0452], [80.5575, 16.0456], [80.5563, 16.0459], [80.5552, 16.0458], [80.554, 16.0456], [80.5533, 16.0454], [80.5525, 16.0461], [80.5516, 16.0467], [80.5508, 16.0474], [80.55, 16.0481], [80.5499, 16.0482], [80.5499, 16.0483], [80.55, 16.0486], [80.5501, 16.0489], [80.5504, 16.0496], [80.5504, 16.0499], [80.5506, 16.0503], [80.5507, 16.0505], [80.5509, 16.0511], [80.551, 16.0513], [80.5512, 16.0519], [80.5512, 16.0521], [80.5513, 16.0522], [80.5513, 16.0523], [80.5514, 16.0525], [80.5514, 16.0526], [80.5515, 16.0526], [80.5516, 16.0526], [80.5527, 16.0529], [80.5536, 16.053], [80.5545, 16.0532], [80.5555, 16.0534], [80.5558, 16.0535], [80.5559, 16.0536], [80.556, 16.0536], [80.5561, 16.0536], [80.5562, 16.0537], [80.5563, 16.0539], [80.5564, 16.0542], [80.5566, 16.0547], [80.5568, 16.0549], [80.5568, 16.0551], [80.5569, 16.0553], [80.557, 16.0556], [80.5571, 16.0558], [80.5572, 16.0559], [80.5573, 16.0561], [80.5573, 16.0562], [80.5574, 16.0562], [80.5575, 16.0562], [80.5577, 16.0563], [80.5578, 16.0563], [80.5579, 16.0564], [80.558, 16.0565], [80.5582, 16.0567], [80.5583, 16.0569], [80.5586, 16.057], [80.5587, 16.0572], [80.5588, 16.0573], [80.5589, 16.0574], [80.559, 16.0578], [80.5592, 16.0585], [80.5594, 16.0589], [80.5595, 16.0594], [80.5597, 16.0598], [80.5597, 16.0601], [80.5598, 16.0602], [80.5599, 16.0605], [80.5599, 16.0607], [80.56, 16.0609], [80.56, 16.061], [80.56, 16.0611], [80.56, 16.0613], [80.5599, 16.0616], [80.5599, 16.0617], [80.5599, 16.0618], [80.5599, 16.0619], [80.5599, 16.062], [80.5599, 16.0621], [80.56, 16.0622], [80.56, 16.0626], [80.5602, 16.0626], [80.5608, 16.0623], [80.5609, 16.0623], [80.561, 16.0623], [80.5612, 16.0622], [80.5613, 16.0622], [80.5614, 16.0622], [80.5615, 16.0622], [80.5618, 16.0622], [80.5619, 16.0622], [80.5619, 16.0621], [80.5621, 16.0621], [80.5623, 16.0621], [80.5624, 16.062], [80.5626, 16.0619], [80.5627, 16.0619], [80.5629, 16.0618], [80.563, 16.0618], [80.5633, 16.0616], [80.5634, 16.0616], [80.5633, 16.0614], [80.5632, 16.061], [80.5632, 16.0606], [80.5631, 16.06], [80.5631, 16.0599]]]}, "properties": {"objectid": 53252, "statename": "Andhra Pradhesh", "statecode": "28", "districtname": "Guntur", "districtcode": "548", "ulbname": "Ponnur", "ulbcode": "802983", "wardname": "Ward 14", "wardcode": "14", "id": null, "status": "APPROVED", "misglobalid": null, "approved_by": null, "createdate": 1640004026000, "updateddate": 1655117451000, "globalid": "RQRoKsll-5Rs4-Pclm-a5aP-P4QKRc5QcnBP", "gisglobalid": "c81c9791-6699-46f4-a7ba-a6a87cd57300", "remark": "", "st_area(shape)": 0.00011992655404185344, "st_perimeter(shape)": 0.05206674018806469}}, {"type": "Feature", "geometry": {"type": "Polygon", "coordinates": [[[80.5515, 16.0526], [80.5514, 16.0526], [80.5514, 16.0527], [80.5515, 16.0529], [80.5516, 16.0531], [80.5516, 16.0532], [80.5519, 16.054], [80.5519, 16.0541], [80.5522, 16.0547], [80.5522, 16.055], [80.5524, 16.0555], [80.5525, 16.0556], [80.5526, 16.056], [80.5527, 16.0564], [80.5528, 16.0565], [80.5529, 16.0569], [80.553, 16.0569], [80.553, 16.057], [80.5531, 16.0573], [80.5531, 16.0574], [80.5532, 16.0576], [80.5532, 16.0577], [80.5534, 16.0581], [80.5535, 16.0584], [80.5535, 16.0586], [80.5537, 16.0591], [80.5538, 16.0593], [80.5539, 16.0596], [80.554, 16.0599], [80.5541, 16.06], [80.5542, 16.0605], [80.5543, 16.0606], [80.5544, 16.0609], [80.5544, 16.0611], [80.5545, 16.0614], [80.5546, 16.0617], [80.5548, 16.0622], [80.5549, 16.0623], [80.5551, 16.0627], [80.5553, 16.0632], [80.5554, 16.0634], [80.5558, 16.0642], [80.5558, 16.0643], [80.5559, 16.0642], [80.556, 16.0642], [80.5565, 16.064], [80.5566, 16.064], [80.5568, 16.0639], [80.557, 16.0639], [80.5571, 16.0638], [80.5572, 16.0638], [80.5573, 16.0637], [80.5576, 16.0636], [80.5578, 16.0635], [80.558, 16.0634], [80.5582, 16.0633], [80.5583, 16.0632], [80.5585, 16.0631], [80.5586, 16.0631], [80.5587, 16.0631], [80.5588, 16.063], [80.5589, 16.063], [80.5591, 16.0629], [80.5592, 16.0629], [80.5595, 16.0628], [80.5597, 16.0627], [80.56, 16.0626], [80.56, 16.0622], [80.5599, 16.0621], [80.5599, 16.062], [80.5599, 16.0619], [80.5599, 16.0618], [80.5599, 16.0617], [80.5599, 16.0616], [80.56, 16.0613], [80.56, 16.0611], [80.56, 16.061], [80.56, 16.0609], [80.5599, 16.0607], [80.5599, 16.0605], [80.5598, 16.0602], [80.5597, 16.0601], [80.5597, 16.0598], [80.5595, 16.0594], [80.5594, 16.0589], [80.5592, 16.0585], [80.559, 16.0578], [80.5589, 16.0574], [80.5588, 16.0573], [80.5587, 16.0572], [80.5586, 16.057], [80.5583, 16.0569], [80.5582, 16.0567], [80.558, 16.0565], [80.5579, 16.0564], [80.5578, 16.0563], [80.5577, 16.0563], [80.5575, 16.0562], [80.5574, 16.0562], [80.5573, 16.0562], [80.5573, 16.0561], [80.5572, 16.0559], [80.5571, 16.0558], [80.557, 16.0556], [80.5569, 16.0553], [80.5568, 16.0551], [80.5568, 16.0549], [80.5566, 16.0547], [80.5564, 16.0542], [80.5563, 16.0539], [80.5562, 16.0537], [80.5561, 16.0536], [80.556, 16.0536], [80.5559, 16.0536], [80.5558, 16.0535], [80.5555, 16.0534], [80.5545, 16.0532], [80.5536, 16.053], [80.5527, 16.0529], [80.5516, 16.0526], [80.5515, 16.0526]]]}, "properties": {"objectid": 51847, "statename": "Andhra Pradhesh", "statecode": "28", "districtname": "Guntur", "districtcode": "548", "ulbname": "Ponnur", "ulbcode": "802983", "wardname": "Ward 15", "wardcode": "15", "id": null, "status": "APPROVED", "misglobalid": null, "approved_by": null, "createdate": 1640004026000, "updateddate": 1655117498000, "globalid": "PRsds5P6-asKa-P4Bd-aQoo-aRsQQKK45PRK", "gisglobalid": "dd0e87d7-3879-481b-8026-c9eea179c467", "remark": "", "st_area(shape)": 5.3606549749493454e-05, "st_perimeter(shape)": 0.03219241012794494}}, {"type": "Feature", "geometry": {"type": "Polygon", "coordinates": [[[80.5499, 16.0482], [80.5485, 16.049], [80.5488, 16.0499], [80.5492, 16.0509], [80.5496, 16.0518], [80.55, 16.0528], [80.5504, 16.0537], [80.5508, 16.0547], [80.551, 16.0552], [80.5511, 16.0554], [80.5513, 16.0558], [80.5514, 16.0561], [80.5516, 16.0566], [80.5517, 16.0569], [80.5518, 16.0572], [80.552, 16.0575], [80.552, 16.0577], [80.5523, 16.0585], [80.5524, 16.0586], [80.5525, 16.0589], [80.5528, 16.0597], [80.5529, 16.06], [80.553, 16.0601], [80.553, 16.0602], [80.5531, 16.0604], [80.5535, 16.0615], [80.5536, 16.0618], [80.5538, 16.0621], [80.5538, 16.0624], [80.5539, 16.0627], [80.554, 16.0628], [80.5541, 16.0631], [80.5536, 16.0633], [80.5532, 16.0635], [80.5528, 16.0636], [80.5529, 16.0638], [80.5531, 16.0641], [80.5536, 16.0652], [80.5538, 16.065], [80.5541, 16.0649], [80.5542, 16.0648], [80.5543, 16.0648], [80.5544, 16.0647], [80.5545, 16.0647], [80.5547, 16.0646], [80.5548, 16.0646], [80.555, 16.0645], [80.5553, 16.0644], [80.5555, 16.0644], [80.5556, 16.0643], [80.5558, 16.0643], [80.5558, 16.0642], [80.5554, 16.0634], [80.5553, 16.0632], [80.5551, 16.0627], [80.5549, 16.0623], [80.5548, 16.0622], [80.5546, 16.0617], [80.5545, 16.0614], [80.5544, 16.0611], [80.5544, 16.0609], [80.5543, 16.0606], [80.5542, 16.0605], [80.5541, 16.06], [80.554, 16.0599], [80.5539, 16.0596], [80.5538, 16.0593], [80.5537, 16.0591], [80.5535, 16.0586], [80.5535, 16.0584], [80.5534, 16.0581], [80.5532, 16.0577], [80.5532, 16.0576], [80.5531, 16.0574], [80.5531, 16.0573], [80.553, 16.057], [80.553, 16.0569], [80.5529, 16.0569], [80.5528, 16.0565], [80.5527, 16.0564], [80.5526, 16.056], [80.5525, 16.0556], [80.5524, 16.0555], [80.5522, 16.055], [80.5522, 16.0547], [80.5519, 16.0541], [80.5519, 16.054], [80.5516, 16.0532], [80.5516, 16.0531], [80.5515, 16.0529], [80.5514, 16.0527], [80.5514, 16.0526], [80.5514, 16.0525], [80.5513, 16.0523], [80.5513, 16.0522], [80.5512, 16.0521], [80.5512, 16.0519], [80.551, 16.0513], [80.5509, 16.0511], [80.5507, 16.0505], [80.5506, 16.0503], [80.5504, 16.0499], [80.5504, 16.0496], [80.5501, 16.0489], [80.55, 16.0486], [80.5499, 16.0483], [80.5499, 16.0482]]]}, "properties": {"objectid": 54451, "statename": "Andhra Pradhesh", "statecode": "28", "districtname": "Guntur", "districtcode": "548", "ulbname": "Ponnur", "ulbcode": "802983", "wardname": "Ward 16", "wardcode": "16", "id": null, "status": "APPROVED", "misglobalid": null, "approved_by": null, "createdate": 1640004026000, "updateddate": 1655117509000, "globalid": "4so6Q5as-Kds6-P4cc-RKBl-cc5Qm5mdBlcP", "gisglobalid": "362213b0-c38b-46f5-9b4a-e328eecb860d", "remark": "", "st_area(shape)": 2.2858797095905496e-05, "st_perimeter(shape)": 0.03948127394314807}}, {"type": "Feature", "geometry": {"type": "Polygon", "coordinates": [[[80.553, 16.0602], [80.553, 16.0601], [80.5529, 16.0601], [80.5528, 16.0601], [80.5527, 16.0602], [80.5525, 16.0603], [80.5524, 16.0603], [80.5521, 16.0605], [80.552, 16.0606], [80.5518, 16.0607], [80.5514, 16.0609], [80.5507, 16.0612], [80.5503, 16.0614], [80.55, 16.0616], [80.5499, 16.0616], [80.55, 16.0618], [80.5501, 16.0619], [80.5502, 16.062], [80.5502, 16.0621], [80.5503, 16.0623], [80.5503, 16.0625], [80.5504, 16.0628], [80.5507, 16.064], [80.551, 16.0653], [80.5512, 16.0661], [80.5513, 16.0663], [80.5514, 16.0663], [80.5515, 16.0663], [80.5519, 16.0661], [80.5523, 16.0658], [80.5524, 16.0658], [80.5525, 16.0657], [80.553, 16.0655], [80.5532, 16.0654], [80.5534, 16.0653], [80.5536, 16.0652], [80.5531, 16.0641], [80.5529, 16.0638], [80.5528, 16.0636], [80.5532, 16.0635], [80.5536, 16.0633], [80.5541, 16.0631], [80.554, 16.0628], [80.5539, 16.0627], [80.5538, 16.0624], [80.5538, 16.0621], [80.5536, 16.0618], [80.5535, 16.0615], [80.5531, 16.0604], [80.553, 16.0602]]]}, "properties": {"objectid": 51429, "statename": "Andhra Pradhesh", "statecode": "28", "districtname": "Guntur", "districtcode": "548", "ulbname": "Ponnur", "ulbcode": "802983", "wardname": "Ward 17", "wardcode": "17", "id": null, "status": "APPROVED", "misglobalid": null, "approved_by": null, "createdate": 1640004026000, "updateddate": 1655117483000, "globalid": "ms4oB5dP-64cc-PRs4-RnsK-dRc6lKdQ5aBn", "gisglobalid": "510efb9f-d59b-4c47-a476-72f88410409e", "remark": "", "st_area(shape)": 1.491547269959749e-05, "st_perimeter(shape)": 0.017314568140280966}}, {"type": "Feature", "geometry": {"type": "Polygon", "coordinates": [[[80.5488, 16.0499], [80.5485, 16.049], [80.5474, 16.0493], [80.5463, 16.0496], [80.5451, 16.0499], [80.544, 16.0502], [80.5437, 16.0504], [80.5436, 16.0504], [80.5434, 16.0504], [80.5433, 16.0505], [80.5432, 16.0505], [80.5428, 16.0507], [80.5426, 16.0507], [80.542, 16.051], [80.5421, 16.0516], [80.5425, 16.0529], [80.5427, 16.0535], [80.5428, 16.0536], [80.5429, 16.0538], [80.543, 16.054], [80.5432, 16.0542], [80.5434, 16.0545], [80.5436, 16.0547], [80.5437, 16.0548], [80.5441, 16.0552], [80.5443, 16.0555], [80.5445, 16.0557], [80.5447, 16.0559], [80.5449, 16.0561], [80.5451, 16.0563], [80.5453, 16.0566], [80.5458, 16.0571], [80.5463, 16.0576], [80.5464, 16.0578], [80.5466, 16.0581], [80.5471, 16.0586], [80.5474, 16.0589], [80.5481, 16.0596], [80.5481, 16.0597], [80.5487, 16.0603], [80.5494, 16.0611], [80.5497, 16.0614], [80.5499, 16.0616], [80.55, 16.0616], [80.5503, 16.0614], [80.5507, 16.0612], [80.5514, 16.0609], [80.5518, 16.0607], [80.552, 16.0606], [80.5521, 16.0605], [80.5524, 16.0603], [80.5525, 16.0603], [80.5527, 16.0602], [80.5528, 16.0601], [80.5529, 16.0601], [80.553, 16.0601], [80.5529, 16.06], [80.5528, 16.0597], [80.5525, 16.0589], [80.5524, 16.0586], [80.5523, 16.0585], [80.552, 16.0577], [80.552, 16.0575], [80.5518, 16.0572], [80.5517, 16.0569], [80.5516, 16.0566], [80.5514, 16.0561], [80.5513, 16.0558], [80.5511, 16.0554], [80.551, 16.0552], [80.5508, 16.0547], [80.5504, 16.0537], [80.55, 16.0528], [80.5496, 16.0518], [80.5492, 16.0509], [80.5488, 16.0499]]]}, "properties": {"objectid": 51784, "statename": "Andhra Pradhesh", "statecode": "28", "districtname": "Guntur", "districtcode": "548", "ulbname": "Ponnur", "ulbcode": "802983", "wardname": "Ward 18", "wardcode": "18", "id": null, "status": "APPROVED", "misglobalid": null, "approved_by": null, "createdate": 1640004026000, "updateddate": 1655117399000, "globalid": "4PsQnc4o-QcQK-P6sm-snmm-nssdPc6K4as4", "gisglobalid": "7d4f17ad-8dbf-4b7d-a83a-a069757f247d", "remark": "", "st_area(shape)": 7.037559976168437e-05, "st_perimeter(shape)": 0.03565799063801585}}, {"type": "Feature", "geometry": {"type": "Polygon", "coordinates": [[[80.5499, 16.0616], [80.5497, 16.0614], [80.5494, 16.0611], [80.5487, 16.0603], [80.5481, 16.0597], [80.5481, 16.0596], [80.5474, 16.0589], [80.5471, 16.0586], [80.5466, 16.0581], [80.5464, 16.0578], [80.5463, 16.0576], [80.5458, 16.0571], [80.5453, 16.0566], [80.5451, 16.0563], [80.5449, 16.0561], [80.5447, 16.0559], [80.5445, 16.0557], [80.5443, 16.0555], [80.5441, 16.0552], [80.5437, 16.0548], [80.5436, 16.0547], [80.5433, 16.0547], [80.5428, 16.0549], [80.5425, 16.055], [80.5424, 16.055], [80.5423, 16.0552], [80.5423, 16.0555], [80.5422, 16.0557], [80.5422, 16.056], [80.5422, 16.0562], [80.5422, 16.0563], [80.5423, 16.0564], [80.5428, 16.058], [80.543, 16.0595], [80.5424, 16.0597], [80.5423, 16.0597], [80.5424, 16.0598], [80.5424, 16.0599], [80.5424, 16.06], [80.5424, 16.0601], [80.5425, 16.0602], [80.5426, 16.0602], [80.5427, 16.0602], [80.5429, 16.0602], [80.5431, 16.0602], [80.5433, 16.0602], [80.5437, 16.0602], [80.5439, 16.0602], [80.544, 16.0602], [80.5441, 16.0602], [80.5442, 16.0602], [80.5443, 16.0602], [80.5444, 16.0602], [80.5445, 16.0602], [80.5446, 16.0602], [80.5449, 16.0604], [80.5451, 16.0605], [80.5454, 16.0606], [80.5456, 16.0607], [80.5456, 16.0608], [80.5457, 16.0608], [80.5458, 16.0609], [80.5459, 16.0609], [80.5461, 16.061], [80.5465, 16.0613], [80.5468, 16.0615], [80.5468, 16.0616], [80.5469, 16.0617], [80.5469, 16.0618], [80.547, 16.0619], [80.5471, 16.062], [80.5471, 16.0621], [80.5472, 16.062], [80.5473, 16.0619], [80.5474, 16.0618], [80.5474, 16.0617], [80.5476, 16.0615], [80.5477, 16.0615], [80.5479, 16.0617], [80.548, 16.0618], [80.5481, 16.0618], [80.5482, 16.0619], [80.5483, 16.0619], [80.5485, 16.062], [80.5487, 16.0621], [80.5488, 16.0621], [80.5489, 16.0622], [80.549, 16.0623], [80.5502, 16.0621], [80.5502, 16.062], [80.5501, 16.0619], [80.55, 16.0618], [80.5499, 16.0616]]]}, "properties": {"objectid": 51786, "statename": "Andhra Pradhesh", "statecode": "28", "districtname": "Guntur", "districtcode": "548", "ulbname": "Ponnur", "ulbcode": "802983", "wardname": "Ward 19", "wardcode": "19", "id": null, "status": "APPROVED", "misglobalid": null, "approved_by": null, "createdate": 1640004026000, "updateddate": 1655117550000, "globalid": "BacnKQom-6acs-Pa6K-scmP-dnadB54m65QR", "gisglobalid": "20b96e49-f763-4d90-b313-30bc1ff83465", "remark": "", "st_area(shape)": 2.5255800231012596e-05, "st_perimeter(shape)": 0.02591171414692446}}, {"type": "Feature", "geometry": {"type": "Polygon", "coordinates": [[[80.5509, 16.067], [80.5511, 16.0667], [80.5511, 16.0666], [80.5512, 16.0666], [80.5512, 16.0664], [80.5513, 16.0663], [80.5512, 16.0661], [80.551, 16.0653], [80.5507, 16.064], [80.5504, 16.0628], [80.5503, 16.0625], [80.5503, 16.0623], [80.5502, 16.0621], [80.549, 16.0623], [80.5491, 16.0624], [80.5492, 16.0626], [80.5491, 16.0627], [80.5492, 16.0629], [80.5493, 16.063], [80.5493, 16.0631], [80.5494, 16.0632], [80.5495, 16.0633], [80.5495, 16.0634], [80.5495, 16.0635], [80.5495, 16.0636], [80.5496, 16.0637], [80.5496, 16.0638], [80.5497, 16.0644], [80.5498, 16.0647], [80.5499, 16.0648], [80.55, 16.0655], [80.55, 16.0656], [80.55, 16.0657], [80.55, 16.0658], [80.55, 16.0659], [80.5499, 16.066], [80.5499, 16.0662], [80.5498, 16.0664], [80.5498, 16.0665], [80.5498, 16.0666], [80.5497, 16.0667], [80.5497, 16.0668], [80.5498, 16.0669], [80.5499, 16.0674], [80.5499, 16.0675], [80.5501, 16.0675], [80.5502, 16.0675], [80.5504, 16.0675], [80.5505, 16.0675], [80.5506, 16.0674], [80.5507, 16.0674], [80.5507, 16.0673], [80.5508, 16.0672], [80.5509, 16.067]]]}, "properties": {"objectid": 51038, "statename": "Andhra Pradhesh", "statecode": "28", "districtname": "Guntur", "districtcode": "548", "ulbname": "Ponnur", "ulbcode": "802983", "wardname": "Ward 20", "wardcode": "20", "id": null, "status": "APPROVED", "misglobalid": null, "approved_by": null, "createdate": 1640004026000, "updateddate": 1655117540000, "globalid": "6Rm4Psmo-4nmc-Posl-RcdQ-KK6sQ4lmo5Po", "gisglobalid": "bdfd55c8-0704-49e8-9466-eea4cd6fccb4", "remark": "", "st_area(shape)": 6.117124729777932e-06, "st_perimeter(shape)": 0.013430557050974526}}, {"type": "Feature", "geometry": {"type": "Polygon", "coordinates": [[[80.5494, 16.0676], [80.5495, 16.0676], [80.5496, 16.0676], [80.5497, 16.0676], [80.5499, 16.0675], [80.5499, 16.0674], [80.5498, 16.0669], [80.5497, 16.0668], [80.5497, 16.0667], [80.5498, 16.0666], [80.5498, 16.0665], [80.5498, 16.0664], [80.5499, 16.0662], [80.5499, 16.066], [80.55, 16.0659], [80.55, 16.0658], [80.55, 16.0657], [80.55, 16.0656], [80.55, 16.0655], [80.5499, 16.0648], [80.5498, 16.0647], [80.5497, 16.0647], [80.5496, 16.0647], [80.5494, 16.0648], [80.5489, 16.0649], [80.5483, 16.065], [80.5482, 16.065], [80.5478, 16.0651], [80.5477, 16.0651], [80.5477, 16.0652], [80.5474, 16.0653], [80.5472, 16.0653], [80.5468, 16.0653], [80.5467, 16.0654], [80.5464, 16.0654], [80.5463, 16.0655], [80.5462, 16.0655], [80.5461, 16.0655], [80.546, 16.0656], [80.5459, 16.0657], [80.546, 16.0658], [80.5461, 16.066], [80.5465, 16.0664], [80.5466, 16.0665], [80.5467, 16.0666], [80.5469, 16.0668], [80.5469, 16.0669], [80.547, 16.067], [80.5472, 16.0672], [80.5473, 16.0673], [80.5474, 16.0675], [80.5475, 16.0676], [80.5475, 16.0677], [80.5476, 16.0678], [80.5479, 16.0676], [80.5481, 16.0679], [80.5481, 16.0681], [80.5482, 16.0681], [80.5483, 16.0683], [80.5484, 16.0684], [80.5485, 16.0683], [80.5486, 16.0682], [80.5487, 16.0682], [80.5488, 16.0681], [80.5488, 16.068], [80.5489, 16.0679], [80.5492, 16.0678], [80.5493, 16.0677], [80.5494, 16.0676]]]}, "properties": {"objectid": 54047, "statename": "Andhra Pradhesh", "statecode": "28", "districtname": "Guntur", "districtcode": "548", "ulbname": "Ponnur", "ulbcode": "802983", "wardname": "Ward 21", "wardcode": "21", "id": null, "status": "APPROVED", "misglobalid": null, "approved_by": null, "createdate": 1640004026000, "updateddate": 1655117577000, "globalid": "clRPo6cR-lQBs-PPQ5-QKPo-RQQQ6cnon6Q5", "gisglobalid": "6af7e4ef-448b-479a-b85f-b21c4b323628", "remark": "", "st_area(shape)": 9.007069842944826e-06, "st_perimeter(shape)": 0.012863968744576843}}, {"type": "Feature", "geometry": {"type": "Polygon", "coordinates": [[[80.5477, 16.0615], [80.5476, 16.0615], [80.5474, 16.0617], [80.5474, 16.0618], [80.5473, 16.0619], [80.5472, 16.062], [80.5471, 16.0621], [80.547, 16.0623], [80.5469, 16.0625], [80.5469, 16.0626], [80.5468, 16.0628], [80.5467, 16.0628], [80.5466, 16.0628], [80.5466, 16.0629], [80.5467, 16.0633], [80.5467, 16.0637], [80.5467, 16.0638], [80.5467, 16.064], [80.5467, 16.0641], [80.5466, 16.0642], [80.5465, 16.0642], [80.5463, 16.0642], [80.5459, 16.0643], [80.5458, 16.0647], [80.5458, 16.0649], [80.5458, 16.065], [80.5458, 16.0651], [80.5459, 16.0656], [80.5459, 16.0657], [80.546, 16.0656], [80.5461, 16.0655], [80.5462, 16.0655], [80.5463, 16.0655], [80.5464, 16.0654], [80.5467, 16.0654], [80.5468, 16.0653], [80.5472, 16.0653], [80.5474, 16.0653], [80.5477, 16.0652], [80.5477, 16.0651], [80.5478, 16.0651], [80.5482, 16.065], [80.5483, 16.065], [80.5489, 16.0649], [80.5494, 16.0648], [80.5496, 16.0647], [80.5497, 16.0647], [80.5498, 16.0647], [80.5497, 16.0644], [80.5496, 16.0638], [80.5496, 16.0637], [80.5495, 16.0636], [80.5495, 16.0635], [80.5495, 16.0634], [80.5495, 16.0633], [80.5494, 16.0632], [80.5493, 16.0631], [80.5493, 16.063], [80.5492, 16.0629], [80.5491, 16.0627], [80.5492, 16.0626], [80.5491, 16.0624], [80.549, 16.0623], [80.5489, 16.0622], [80.5488, 16.0621], [80.5487, 16.0621], [80.5485, 16.062], [80.5483, 16.0619], [80.5482, 16.0619], [80.5481, 16.0618], [80.548, 16.0618], [80.5479, 16.0617], [80.5477, 16.0615]]]}, "properties": {"objectid": 51848, "statename": "Andhra Pradhesh", "statecode": "28", "districtname": "Guntur", "districtcode": "548", "ulbname": "Ponnur", "ulbcode": "802983", "wardname": "Ward 22", "wardcode": "22", "id": null, "status": "APPROVED", "misglobalid": null, "approved_by": null, "createdate": 1640004026000, "updateddate": 1655117463000, "globalid": "cd6B56Qn-6oK4-PRPR-asoR-4BsQslsQ4adl", "gisglobalid": "27c61f71-17fd-4e1a-8ef4-d2f0cea4e0cf", "remark": "", "st_area(shape)": 9.534080347989559e-06, "st_perimeter(shape)": 0.01396841639739054}}, {"type": "Feature", "geometry": {"type": "Polygon", "coordinates": [[[80.5468, 16.0615], [80.5465, 16.0613], [80.5461, 16.061], [80.5459, 16.0609], [80.5458, 16.0609], [80.5457, 16.0608], [80.5456, 16.0608], [80.5456, 16.0607], [80.5454, 16.0606], [80.5451, 16.0605], [80.5449, 16.0604], [80.5446, 16.0602], [80.5445, 16.0602], [80.5444, 16.0602], [80.5443, 16.0602], [80.5442, 16.0602], [80.5441, 16.0602], [80.544, 16.0602], [80.5439, 16.0602], [80.5437, 16.0602], [80.5433, 16.0602], [80.5431, 16.0602], [80.5429, 16.0602], [80.5427, 16.0602], [80.5426, 16.0602], [80.5425, 16.0602], [80.5425, 16.0603], [80.5426, 16.0606], [80.5426, 16.0608], [80.5427, 16.0611], [80.5428, 16.0613], [80.5428, 16.0614], [80.5429, 16.0615], [80.543, 16.0617], [80.543, 16.0621], [80.5431, 16.0624], [80.5431, 16.0626], [80.5432, 16.0627], [80.5432, 16.0628], [80.5433, 16.063], [80.5434, 16.0632], [80.5435, 16.0634], [80.5436, 16.0636], [80.5437, 16.0637], [80.5438, 16.0638], [80.5439, 16.0639], [80.5439, 16.064], [80.5439, 16.0641], [80.544, 16.0641], [80.5439, 16.0642], [80.544, 16.0646], [80.544, 16.065], [80.5441, 16.0651], [80.5442, 16.0651], [80.5445, 16.0651], [80.5447, 16.0652], [80.545, 16.0652], [80.5452, 16.0653], [80.5453, 16.0653], [80.5454, 16.0654], [80.5456, 16.0655], [80.5457, 16.0656], [80.5458, 16.0656], [80.5459, 16.0657], [80.5459, 16.0656], [80.5458, 16.0651], [80.5458, 16.065], [80.5458, 16.0649], [80.5458, 16.0647], [80.5459, 16.0643], [80.5463, 16.0642], [80.5465, 16.0642], [80.5466, 16.0642], [80.5467, 16.0641], [80.5467, 16.064], [80.5467, 16.0638], [80.5467, 16.0637], [80.5467, 16.0633], [80.5466, 16.0629], [80.5466, 16.0628], [80.5467, 16.0628], [80.5468, 16.0628], [80.5469, 16.0626], [80.5469, 16.0625], [80.547, 16.0623], [80.5471, 16.0621], [80.5471, 16.062], [80.547, 16.0619], [80.5469, 16.0618], [80.5469, 16.0617], [80.5468, 16.0616], [80.5468, 16.0615]]]}, "properties": {"objectid": 51431, "statename": "Andhra Pradhesh", "statecode": "28", "districtname": "Guntur", "districtcode": "548", "ulbname": "Ponnur", "ulbcode": "802983", "wardname": "Ward 23", "wardcode": "23", "id": null, "status": "APPROVED", "misglobalid": null, "approved_by": null, "createdate": 1640004026000, "updateddate": 1655117611000, "globalid": "lc6s4asR-cdPQ-PmcR-QsmK-KmKacQQmcnsa", "gisglobalid": "de05c18a-f1cb-4d76-8def-251e69ae899c", "remark": "", "st_area(shape)": 1.5394357839325305e-05, "st_perimeter(shape)": 0.01709689815606674}}, {"type": "Feature", "geometry": {"type": "Polygon", "coordinates": [[[80.5375, 16.0684], [80.5375, 16.0683], [80.5375, 16.0684], [80.5377, 16.0683], [80.5378, 16.0682], [80.5379, 16.0682], [80.5382, 16.0681], [80.5383, 16.068], [80.5384, 16.068], [80.5386, 16.0678], [80.5394, 16.0682], [80.5397, 16.0681], [80.5401, 16.068], [80.541, 16.0677], [80.541, 16.0678], [80.5412, 16.0678], [80.5412, 16.0677], [80.5413, 16.0677], [80.5413, 16.0678], [80.5413, 16.0677], [80.5414, 16.0677], [80.5415, 16.0677], [80.5416, 16.0677], [80.5417, 16.0677], [80.5417, 16.0676], [80.5418, 16.0677], [80.5419, 16.0676], [80.542, 16.0676], [80.5421, 16.0677], [80.5422, 16.0676], [80.5423, 16.0676], [80.5424, 16.0676], [80.5425, 16.0676], [80.5426, 16.0675], [80.5427, 16.0675], [80.5428, 16.0675], [80.5429, 16.0675], [80.543, 16.0675], [80.5431, 16.0675], [80.5432, 16.0674], [80.5435, 16.0674], [80.5437, 16.0673], [80.5438, 16.0673], [80.5441, 16.0672], [80.5444, 16.0672], [80.5447, 16.0671], [80.5446, 16.0671], [80.5446, 16.0669], [80.5445, 16.0667], [80.5444, 16.0665], [80.5443, 16.0663], [80.5443, 16.0662], [80.5441, 16.0658], [80.544, 16.0655], [80.5439, 16.0654], [80.5438, 16.0651], [80.5438, 16.065], [80.544, 16.065], [80.544, 16.0646], [80.5439, 16.0642], [80.544, 16.0641], [80.5439, 16.0641], [80.5439, 16.064], [80.5439, 16.0639], [80.5438, 16.0638], [80.5437, 16.0637], [80.5436, 16.0636], [80.5435, 16.0634], [80.5434, 16.0632], [80.5433, 16.063], [80.5432, 16.0628], [80.5432, 16.0627], [80.5431, 16.0626], [80.5431, 16.0624], [80.543, 16.0621], [80.543, 16.0617], [80.5429, 16.0615], [80.5428, 16.0614], [80.5428, 16.0613], [80.5427, 16.0611], [80.5426, 16.0608], [80.5426, 16.0606], [80.5425, 16.0603], [80.5425, 16.0602], [80.5424, 16.0601], [80.5424, 16.06], [80.5424, 16.0599], [80.5424, 16.0598], [80.5423, 16.0597], [80.5411, 16.0599], [80.5404, 16.06], [80.5389, 16.0606], [80.5378, 16.0612], [80.5367, 16.0618], [80.5358, 16.0632], [80.5358, 16.0634], [80.5355, 16.0646], [80.5352, 16.0657], [80.5348, 16.0669], [80.535, 16.0682], [80.5352, 16.0695], [80.5353, 16.0695], [80.5354, 16.0694], [80.5355, 16.0693], [80.5356, 16.0692], [80.5357, 16.0692], [80.5358, 16.0692], [80.5359, 16.0692], [80.536, 16.0691], [80.5361, 16.0691], [80.5362, 16.0691], [80.5362, 16.069], [80.5364, 16.069], [80.5365, 16.0689], [80.5368, 16.0687], [80.5369, 16.0687], [80.537, 16.0686], [80.5371, 16.0686], [80.5372, 16.0686], [80.5373, 16.0685], [80.5374, 16.0684], [80.5375, 16.0684]]]}, "properties": {"objectid": 53012, "statename": "Andhra Pradhesh", "statecode": "28", "districtname": "Guntur", "districtcode": "548", "ulbname": "Ponnur", "ulbcode": "802983", "wardname": "Ward 24", "wardcode": "24", "id": null, "status": "APPROVED", "misglobalid": null, "approved_by": null, "createdate": 1640004026000, "updateddate": 1655117705000, "globalid": "soaKsRmn-56RQ-PlnQ-sdQn-ol5dBsndQlsd", "gisglobalid": "7441e0dc-9818-447b-a39d-8f852b0e5e40", "remark": "", "st_area(shape)": 6.076752090041393e-05, "st_perimeter(shape)": 0.03294342104639474}}, {"type": "Feature", "geometry": {"type": "Polygon", "coordinates": [[[80.5388, 16.0702], [80.539, 16.0701], [80.5391, 16.0702], [80.5393, 16.0701], [80.5394, 16.0701], [80.54, 16.0698], [80.5404, 16.0697], [80.5406, 16.0696], [80.5407, 16.0696], [80.5409, 16.0695], [80.5416, 16.0692], [80.5418, 16.0692], [80.5424, 16.069], [80.5428, 16.0689], [80.5439, 16.0687], [80.5445, 16.0685], [80.5449, 16.0685], [80.5452, 16.0684], [80.5451, 16.0681], [80.545, 16.0679], [80.5448, 16.0674], [80.5447, 16.0673], [80.5447, 16.0671], [80.5444, 16.0672], [80.5441, 16.0672], [80.5438, 16.0673], [80.5437, 16.0673], [80.5435, 16.0674], [80.5432, 16.0674], [80.5431, 16.0675], [80.543, 16.0675], [80.5429, 16.0675], [80.5428, 16.0675], [80.5427, 16.0675], [80.5426, 16.0675], [80.5425, 16.0676], [80.5424, 16.0676], [80.5423, 16.0676], [80.5422, 16.0676], [80.5421, 16.0677], [80.542, 16.0676], [80.5419, 16.0676], [80.5418, 16.0677], [80.5417, 16.0676], [80.5417, 16.0677], [80.5416, 16.0677], [80.5415, 16.0677], [80.5414, 16.0677], [80.5413, 16.0677], [80.5413, 16.0678], [80.5413, 16.0677], [80.5412, 16.0677], [80.5412, 16.0678], [80.541, 16.0678], [80.541, 16.0677], [80.5401, 16.068], [80.5397, 16.0681], [80.5394, 16.0682], [80.5386, 16.0678], [80.5384, 16.068], [80.5383, 16.068], [80.5382, 16.0681], [80.5379, 16.0682], [80.5378, 16.0682], [80.5377, 16.0683], [80.5375, 16.0684], [80.5375, 16.0683], [80.5375, 16.0684], [80.5374, 16.0684], [80.5373, 16.0685], [80.5372, 16.0686], [80.5371, 16.0686], [80.537, 16.0686], [80.5369, 16.0687], [80.5368, 16.0687], [80.5365, 16.0689], [80.5364, 16.069], [80.5362, 16.069], [80.5362, 16.0691], [80.5361, 16.0691], [80.536, 16.0691], [80.5359, 16.0692], [80.5358, 16.0692], [80.5357, 16.0692], [80.5356, 16.0692], [80.5355, 16.0693], [80.5354, 16.0694], [80.5353, 16.0695], [80.5352, 16.0695], [80.5352, 16.0696], [80.5352, 16.0698], [80.5344, 16.0707], [80.5336, 16.0716], [80.5339, 16.0715], [80.534, 16.0715], [80.5343, 16.0714], [80.5344, 16.0713], [80.5347, 16.0713], [80.535, 16.0712], [80.5353, 16.0711], [80.5356, 16.071], [80.5358, 16.071], [80.5359, 16.0709], [80.536, 16.0709], [80.5361, 16.0709], [80.5362, 16.0708], [80.5363, 16.0708], [80.5365, 16.0707], [80.5368, 16.0707], [80.5369, 16.0706], [80.5372, 16.0706], [80.5374, 16.0705], [80.5376, 16.0705], [80.5379, 16.0704], [80.5381, 16.0704], [80.5384, 16.0703], [80.5385, 16.0702], [80.5386, 16.0702], [80.5388, 16.0702]]]}, "properties": {"objectid": 51012, "statename": "Andhra Pradhesh", "statecode": "28", "districtname": "Guntur", "districtcode": "548", "ulbname": "Ponnur", "ulbcode": "802983", "wardname": "Ward 25", "wardcode": "25", "id": null, "status": "APPROVED", "misglobalid": null, "approved_by": null, "createdate": 1640004026000, "updateddate": 1655117635000, "globalid": "doosoQnc-moBP-PsBB-aQll-omaamddo4QnB", "gisglobalid": "36b2234b-c91e-42a0-b286-b54d2e592437", "remark": "", "st_area(shape)": 1.803844022934766e-05, "st_perimeter(shape)": 0.026561952233355876}}, {"type": "Feature", "geometry": {"type": "Polygon", "coordinates": [[[80.5452, 16.0684], [80.5456, 16.0683], [80.5457, 16.0683], [80.5458, 16.0682], [80.5462, 16.0681], [80.5463, 16.0681], [80.5464, 16.0681], [80.5465, 16.068], [80.5471, 16.0678], [80.5475, 16.0676], [80.5474, 16.0675], [80.5473, 16.0673], [80.5472, 16.0672], [80.547, 16.067], [80.5469, 16.0669], [80.5469, 16.0668], [80.5467, 16.0666], [80.5466, 16.0665], [80.5465, 16.0664], [80.5461, 16.066], [80.546, 16.0658], [80.5459, 16.0657], [80.5458, 16.0656], [80.5457, 16.0656], [80.5456, 16.0655], [80.5454, 16.0654], [80.5453, 16.0653], [80.5452, 16.0653], [80.545, 16.0652], [80.5447, 16.0652], [80.5445, 16.0651], [80.5442, 16.0651], [80.5441, 16.0651], [80.544, 16.065], [80.5438, 16.065], [80.5438, 16.0651], [80.5439, 16.0654], [80.544, 16.0655], [80.5441, 16.0658], [80.5443, 16.0662], [80.5443, 16.0663], [80.5444, 16.0665], [80.5445, 16.0667], [80.5446, 16.0669], [80.5446, 16.0671], [80.5447, 16.0671], [80.5447, 16.0673], [80.5448, 16.0674], [80.545, 16.0679], [80.5451, 16.0681], [80.5452, 16.0684]]]}, "properties": {"objectid": 50262, "statename": "Andhra Pradhesh", "statecode": "28", "districtname": "Guntur", "districtcode": "548", "ulbname": "Ponnur", "ulbcode": "802983", "wardname": "Ward 26", "wardcode": "26", "id": null, "status": "APPROVED", "misglobalid": null, "approved_by": null, "createdate": 1640004026000, "updateddate": 1655117628000, "globalid": "llssdK5l-omdc-PlKn-a4Bd-4B5a44o5oonR", "gisglobalid": "d0a1e486-084b-4d96-ac1a-d7955d38c575", "remark": "", "st_area(shape)": 6.278191147778935e-06, "st_perimeter(shape)": 0.010790113694861301}}, {"type": "Feature", "geometry": {"type": "Polygon", "coordinates": [[[80.5428, 16.0702], [80.543, 16.0701], [80.5433, 16.0701], [80.5437, 16.07], [80.5439, 16.0699], [80.544, 16.0699], [80.5441, 16.0699], [80.5442, 16.0699], [80.5443, 16.0699], [80.5445, 16.0699], [80.5446, 16.0698], [80.5451, 16.0697], [80.5454, 16.0696], [80.5456, 16.0696], [80.5457, 16.0695], [80.5457, 16.0697], [80.5458, 16.0696], [80.546, 16.0696], [80.5461, 16.0695], [80.5462, 16.0695], [80.5462, 16.0693], [80.5461, 16.0692], [80.5461, 16.0691], [80.546, 16.0688], [80.5459, 16.0685], [80.5458, 16.0682], [80.5457, 16.0683], [80.5456, 16.0683], [80.5452, 16.0684], [80.5449, 16.0685], [80.5445, 16.0685], [80.5439, 16.0687], [80.5428, 16.0689], [80.5424, 16.069], [80.5418, 16.0692], [80.5416, 16.0692], [80.5409, 16.0695], [80.5407, 16.0696], [80.5406, 16.0696], [80.5404, 16.0697], [80.54, 16.0698], [80.5394, 16.0701], [80.5393, 16.0701], [80.5391, 16.0702], [80.539, 16.0701], [80.5388, 16.0702], [80.5386, 16.0702], [80.5385, 16.0702], [80.5384, 16.0703], [80.5381, 16.0704], [80.5379, 16.0704], [80.5376, 16.0705], [80.5374, 16.0705], [80.5372, 16.0706], [80.5369, 16.0706], [80.5368, 16.0707], [80.5365, 16.0707], [80.5363, 16.0708], [80.5362, 16.0708], [80.5361, 16.0709], [80.536, 16.0709], [80.5359, 16.0709], [80.5358, 16.071], [80.5356, 16.071], [80.5353, 16.0711], [80.535, 16.0712], [80.5347, 16.0713], [80.5344, 16.0713], [80.5343, 16.0714], [80.534, 16.0715], [80.5339, 16.0715], [80.5336, 16.0716], [80.533, 16.0723], [80.5323, 16.073], [80.5316, 16.0737], [80.5309, 16.0744], [80.5311, 16.076], [80.5317, 16.0777], [80.5316, 16.0777], [80.5318, 16.0778], [80.5324, 16.0777], [80.5329, 16.0776], [80.5332, 16.0776], [80.5335, 16.0775], [80.5337, 16.0775], [80.5339, 16.0775], [80.534, 16.0774], [80.5342, 16.0774], [80.5343, 16.0774], [80.5344, 16.0773], [80.5346, 16.0773], [80.5346, 16.0772], [80.5348, 16.0772], [80.5349, 16.0771], [80.535, 16.077], [80.5351, 16.0769], [80.5352, 16.0769], [80.5353, 16.0768], [80.5353, 16.0767], [80.5354, 16.0767], [80.5354, 16.0766], [80.5355, 16.0766], [80.5356, 16.0765], [80.5358, 16.0763], [80.536, 16.0761], [80.5361, 16.0759], [80.5362, 16.0758], [80.5363, 16.0757], [80.5365, 16.0755], [80.5365, 16.0754], [80.5367, 16.0753], [80.5368, 16.0751], [80.537, 16.0749], [80.5372, 16.0746], [80.5374, 16.0744], [80.5379, 16.0739], [80.5379, 16.0738], [80.5379, 16.0737], [80.538, 16.0736], [80.5381, 16.0734], [80.5382, 16.0734], [80.5383, 16.0732], [80.5384, 16.073], [80.5385, 16.0728], [80.5386, 16.0727], [80.5387, 16.0725], [80.5388, 16.0723], [80.5389, 16.0721], [80.539, 16.072], [80.5392, 16.0717], [80.5393, 16.0715], [80.5402, 16.0711], [80.5411, 16.0708], [80.5414, 16.0707], [80.5416, 16.0705], [80.5418, 16.0705], [80.5419, 16.0704], [80.5421, 16.0704], [80.5422, 16.0704], [80.5424, 16.0703], [80.5426, 16.0702], [80.5428, 16.0702]]]}, "properties": {"objectid": 53011, "statename": "Andhra Pradhesh", "statecode": "28", "districtname": "Guntur", "districtcode": "548", "ulbname": "Ponnur", "ulbcode": "802983", "wardname": "Ward 27", "wardcode": "27", "id": null, "status": "APPROVED", "misglobalid": null, "approved_by": null, "createdate": 1640004026000, "updateddate": 1655117692000, "globalid": "mndRBKo5-RaKa-Pn5m-Ro6P-Qs5dasnQ6sdl", "gisglobalid": "b0ba01a8-32a9-4407-ac19-bb8aa46eedb0", "remark": "", "st_area(shape)": 4.5741437312959196e-05, "st_perimeter(shape)": 0.03949563020673327}}, {"type": "Feature", "geometry": {"type": "Polygon", "coordinates": [[[80.5473, 16.0706], [80.5476, 16.0705], [80.5477, 16.0705], [80.5479, 16.0704], [80.5481, 16.0704], [80.5484, 16.0703], [80.5484, 16.0702], [80.5483, 16.0701], [80.5483, 16.07], [80.5482, 16.0699], [80.5481, 16.0695], [80.5483, 16.0694], [80.5484, 16.0693], [80.5485, 16.0692], [80.5486, 16.0691], [80.5485, 16.069], [80.5484, 16.0689], [80.5483, 16.0688], [80.5482, 16.0687], [80.5482, 16.0686], [80.5481, 16.0686], [80.5477, 16.068], [80.5476, 16.0678], [80.5475, 16.0677], [80.5475, 16.0676], [80.5471, 16.0678], [80.5465, 16.068], [80.5464, 16.0681], [80.5463, 16.0681], [80.5462, 16.0681], [80.5458, 16.0682], [80.5459, 16.0685], [80.546, 16.0688], [80.5461, 16.0691], [80.5461, 16.0692], [80.5462, 16.0693], [80.5462, 16.0695], [80.5464, 16.0694], [80.5466, 16.0694], [80.5468, 16.0693], [80.5468, 16.0696], [80.5469, 16.0702], [80.547, 16.0705], [80.5471, 16.0707], [80.5473, 16.0706]]]}, "properties": {"objectid": 54046, "statename": "Andhra Pradhesh", "statecode": "28", "districtname": "Guntur", "districtcode": "548", "ulbname": "Ponnur", "ulbcode": "802983", "wardname": "Ward 28", "wardcode": "28", "id": null, "status": "APPROVED", "misglobalid": null, "approved_by": null, "createdate": 1640004026000, "updateddate": 1655117591000, "globalid": "nn5KRc5c-ooso-PPPn-Rcmc-PcnncndQlQBP", "gisglobalid": "69215e33-a4fc-4dc5-a5f2-29404014bf63", "remark": "", "st_area(shape)": 4.7252429441672e-06, "st_perimeter(shape)": 0.009783761527374127}}, {"type": "Feature", "geometry": {"type": "Polygon", "coordinates": [[[80.5237, 16.0947], [80.5251, 16.0946], [80.5263, 16.0947], [80.5274, 16.0947], [80.5286, 16.0947], [80.5296, 16.0946], [80.5307, 16.0945], [80.5307, 16.0944], [80.5308, 16.0942], [80.5308, 16.0941], [80.5308, 16.0939], [80.5308, 16.0938], [80.5309, 16.0936], [80.5309, 16.0934], [80.5309, 16.0933], [80.531, 16.0931], [80.531, 16.0928], [80.531, 16.0927], [80.5311, 16.0923], [80.5311, 16.0922], [80.5312, 16.092], [80.5312, 16.0917], [80.5313, 16.0914], [80.5313, 16.0912], [80.5314, 16.0909], [80.5314, 16.0905], [80.5315, 16.0901], [80.5316, 16.0899], [80.5316, 16.0898], [80.5316, 16.0896], [80.5316, 16.0895], [80.5317, 16.0893], [80.5317, 16.0892], [80.5317, 16.0891], [80.5318, 16.089], [80.5318, 16.0888], [80.5319, 16.0884], [80.5319, 16.0882], [80.532, 16.0879], [80.532, 16.0878], [80.532, 16.0876], [80.5321, 16.0874], [80.5321, 16.0873], [80.5321, 16.0872], [80.5321, 16.0871], [80.5322, 16.0869], [80.5322, 16.0867], [80.5322, 16.0866], [80.5323, 16.0862], [80.5323, 16.0861], [80.5323, 16.086], [80.5324, 16.0859], [80.5324, 16.0858], [80.5325, 16.0855], [80.5326, 16.085], [80.5326, 16.0848], [80.5327, 16.0846], [80.5327, 16.0845], [80.5327, 16.0842], [80.5328, 16.0842], [80.5328, 16.0841], [80.5328, 16.084], [80.5328, 16.0838], [80.5329, 16.0836], [80.533, 16.0833], [80.533, 16.0832], [80.533, 16.0831], [80.533, 16.083], [80.5331, 16.0828], [80.5331, 16.0826], [80.5332, 16.0824], [80.5332, 16.082], [80.5333, 16.0818], [80.5333, 16.0816], [80.5334, 16.0814], [80.5334, 16.0812], [80.5334, 16.0811], [80.5343, 16.0807], [80.5352, 16.0803], [80.5363, 16.0798], [80.5362, 16.0796], [80.536, 16.079], [80.5359, 16.0787], [80.5358, 16.0785], [80.5358, 16.0784], [80.5358, 16.0783], [80.5368, 16.0778], [80.5378, 16.0773], [80.5379, 16.0775], [80.5391, 16.0771], [80.5399, 16.0766], [80.5408, 16.0762], [80.5416, 16.0757], [80.5425, 16.0752], [80.5434, 16.0748], [80.5443, 16.0744], [80.5452, 16.074], [80.5463, 16.0737], [80.5468, 16.0736], [80.5472, 16.0734], [80.5473, 16.0735], [80.5473, 16.0734], [80.5474, 16.0733], [80.5474, 16.0734], [80.5475, 16.0735], [80.5478, 16.0734], [80.5481, 16.0733], [80.548, 16.0729], [80.5479, 16.0726], [80.5478, 16.0725], [80.5478, 16.0724], [80.5477, 16.0723], [80.5477, 16.0722], [80.5476, 16.0719], [80.5475, 16.0716], [80.5474, 16.0715], [80.5473, 16.0713], [80.5473, 16.0712], [80.5473, 16.0711], [80.5472, 16.071], [80.5472, 16.0709], [80.5471, 16.0708], [80.5471, 16.0707], [80.547, 16.0705], [80.5469, 16.0702], [80.5468, 16.0696], [80.5468, 16.0693], [80.5466, 16.0694], [80.5464, 16.0694], [80.5462, 16.0695], [80.5461, 16.0695], [80.546, 16.0696], [80.5458, 16.0696], [80.5457, 16.0697], [80.5457, 16.0695], [80.5456, 16.0696], [80.5454, 16.0696], [80.5451, 16.0697], [80.5446, 16.0698], [80.5445, 16.0699], [80.5443, 16.0699], [80.5442, 16.0699], [80.5441, 16.0699], [80.544, 16.0699], [80.5439, 16.0699], [80.5437, 16.07], [80.5433, 16.0701], [80.543, 16.0701], [80.5428, 16.0702], [80.5426, 16.0702], [80.5424, 16.0703], [80.5422, 16.0704], [80.5421, 16.0704], [80.5419, 16.0704], [80.5418, 16.0705], [80.5416, 16.0705], [80.5414, 16.0707], [80.5411, 16.0708], [80.5402, 16.0711], [80.5393, 16.0715], [80.5392, 16.0717], [80.539, 16.072], [80.5389, 16.0721], [80.5388, 16.0723], [80.5387, 16.0725], [80.5386, 16.0727], [80.5385, 16.0728], [80.5384, 16.073], [80.5383, 16.0732], [80.5382, 16.0734], [80.5381, 16.0734], [80.538, 16.0736], [80.5379, 16.0737], [80.5379, 16.0738], [80.5379, 16.0739], [80.5374, 16.0744], [80.5372, 16.0746], [80.537, 16.0749], [80.5368, 16.0751], [80.5367, 16.0753], [80.5365, 16.0754], [80.5365, 16.0755], [80.5363, 16.0757], [80.5362, 16.0758], [80.5361, 16.0759], [80.536, 16.0761], [80.5358, 16.0763], [80.5356, 16.0765], [80.5355, 16.0766], [80.5354, 16.0766], [80.5354, 16.0767], [80.5353, 16.0767], [80.5353, 16.0768], [80.5352, 16.0769], [80.5351, 16.0769], [80.535, 16.077], [80.5349, 16.0771], [80.5348, 16.0772], [80.5346, 16.0772], [80.5346, 16.0773], [80.5344, 16.0773], [80.5343, 16.0774], [80.5342, 16.0774], [80.534, 16.0774], [80.5339, 16.0775], [80.5337, 16.0775], [80.5335, 16.0775], [80.5332, 16.0776], [80.5329, 16.0776], [80.5324, 16.0777], [80.5318, 16.0778], [80.5316, 16.0777], [80.5306, 16.0779], [80.5295, 16.0781], [80.5283, 16.0784], [80.528, 16.0784], [80.5269, 16.0787], [80.5258, 16.079], [80.5247, 16.0793], [80.5238, 16.0796], [80.5229, 16.0799], [80.5221, 16.0804], [80.5212, 16.0809], [80.5204, 16.0813], [80.5197, 16.082], [80.519, 16.0827], [80.5179, 16.0829], [80.5168, 16.0832], [80.5157, 16.0834], [80.5152, 16.0837], [80.5142, 16.084], [80.5144, 16.0849], [80.5146, 16.0858], [80.5149, 16.0867], [80.515, 16.0878], [80.5152, 16.089], [80.5152, 16.0904], [80.5154, 16.0916], [80.5155, 16.0927], [80.5157, 16.0939], [80.5167, 16.094], [80.5177, 16.0942], [80.5187, 16.0943], [80.5197, 16.0944], [80.5207, 16.0946], [80.5217, 16.0947], [80.5227, 16.0947], [80.5237, 16.0947]]]}, "properties": {"objectid": 54836, "statename": "Andhra Pradhesh", "statecode": "28", "districtname": "Guntur", "districtcode": "548", "ulbname": "Ponnur", "ulbcode": "802983", "wardname": "Ward 29", "wardcode": "29", "id": null, "status": "APPROVED", "misglobalid": null, "approved_by": null, "createdate": 1640004026000, "updateddate": 1655117668000, "globalid": "R5co4mQo-sPdR-PcQR-amo6-sca6B455Pmcd", "gisglobalid": "cbd76449-d498-48a0-9524-8d2600d7312d", "remark": "", "st_area(shape)": 0.0003057969799404344, "st_perimeter(shape)": 0.09919417113266922}}, {"type": "Feature", "geometry": {"type": "Polygon", "coordinates": [[[80.5496, 16.0719], [80.5497, 16.0718], [80.5497, 16.0717], [80.5497, 16.0715], [80.5497, 16.0712], [80.5497, 16.0709], [80.5497, 16.0706], [80.5497, 16.0703], [80.5496, 16.0702], [80.5496, 16.0701], [80.5495, 16.07], [80.5494, 16.07], [80.5494, 16.0699], [80.5492, 16.0697], [80.549, 16.0695], [80.5488, 16.0694], [80.5486, 16.0691], [80.5485, 16.0692], [80.5484, 16.0693], [80.5483, 16.0694], [80.5481, 16.0695], [80.5482, 16.0699], [80.5483, 16.07], [80.5483, 16.0701], [80.5484, 16.0702], [80.5484, 16.0703], [80.5481, 16.0704], [80.5479, 16.0704], [80.5477, 16.0705], [80.5476, 16.0705], [80.5473, 16.0706], [80.5471, 16.0707], [80.5471, 16.0708], [80.5472, 16.0709], [80.5472, 16.071], [80.5473, 16.0711], [80.5473, 16.0712], [80.5473, 16.0713], [80.5474, 16.0715], [80.5475, 16.0716], [80.5476, 16.0719], [80.5477, 16.0722], [80.5477, 16.0723], [80.5481, 16.0722], [80.5482, 16.0722], [80.5484, 16.0722], [80.5486, 16.0721], [80.5487, 16.0721], [80.5492, 16.0721], [80.5493, 16.0725], [80.5495, 16.0725], [80.5496, 16.0719]]]}, "properties": {"objectid": 51430, "statename": "Andhra Pradhesh", "statecode": "28", "districtname": "Guntur", "districtcode": "548", "ulbname": "Ponnur", "ulbcode": "802983", "wardname": "Ward 30", "wardcode": "30", "id": null, "status": "APPROVED", "misglobalid": null, "approved_by": null, "createdate": 1640004026000, "updateddate": 1655117678000, "globalid": "RK6BmQ64-lQPo-Pd4d-RRds-Q4dcKPmRBB4l", "gisglobalid": "78cc138d-740b-40cf-ac72-65eb02bc6908", "remark": "", "st_area(shape)": 5.288387376709354e-06, "st_perimeter(shape)": 0.010458561791346388}}, {"type": "Feature", "geometry": {"type": "Polygon", "coordinates": [[[80.5375, 16.0927], [80.538, 16.0926], [80.538, 16.0927], [80.5395, 16.0922], [80.5403, 16.0922], [80.5419, 16.0917], [80.5418, 16.0904], [80.5429, 16.0899], [80.544, 16.0895], [80.5451, 16.0892], [80.5462, 16.0888], [80.5472, 16.0885], [80.5475, 16.0884], [80.5475, 16.0882], [80.5476, 16.088], [80.5476, 16.0879], [80.5477, 16.0877], [80.5477, 16.0875], [80.5478, 16.0873], [80.5479, 16.0868], [80.5479, 16.0867], [80.548, 16.0866], [80.548, 16.0863], [80.5481, 16.086], [80.5482, 16.0854], [80.5482, 16.0851], [80.5483, 16.0847], [80.5484, 16.0842], [80.5484, 16.0839], [80.5485, 16.0838], [80.5485, 16.0835], [80.5486, 16.0833], [80.5486, 16.0831], [80.5487, 16.0827], [80.5487, 16.0824], [80.5488, 16.082], [80.5488, 16.0818], [80.5489, 16.0817], [80.5489, 16.0816], [80.5489, 16.0815], [80.5489, 16.0814], [80.5489, 16.0811], [80.5489, 16.0808], [80.5489, 16.0806], [80.5488, 16.0804], [80.5488, 16.0802], [80.5488, 16.0801], [80.5488, 16.08], [80.5488, 16.0799], [80.5488, 16.0797], [80.5488, 16.0796], [80.5487, 16.0792], [80.5488, 16.0789], [80.5487, 16.0786], [80.5487, 16.0776], [80.5487, 16.0764], [80.5488, 16.0762], [80.5488, 16.076], [80.5488, 16.0758], [80.5488, 16.0755], [80.5488, 16.0753], [80.5489, 16.0752], [80.5489, 16.075], [80.5489, 16.0749], [80.5491, 16.0741], [80.5493, 16.0733], [80.5494, 16.0728], [80.5495, 16.0725], [80.5493, 16.0725], [80.5492, 16.0721], [80.5487, 16.0721], [80.5486, 16.0721], [80.5484, 16.0722], [80.5482, 16.0722], [80.5481, 16.0722], [80.5477, 16.0723], [80.5478, 16.0724], [80.5478, 16.0725], [80.5479, 16.0726], [80.548, 16.0729], [80.5481, 16.0733], [80.5478, 16.0734], [80.5475, 16.0735], [80.5474, 16.0734], [80.5474, 16.0733], [80.5473, 16.0734], [80.5473, 16.0735], [80.5472, 16.0734], [80.5468, 16.0736], [80.5463, 16.0737], [80.5452, 16.074], [80.5443, 16.0744], [80.5434, 16.0748], [80.5425, 16.0752], [80.5416, 16.0757], [80.5408, 16.0762], [80.5399, 16.0766], [80.5391, 16.0771], [80.5379, 16.0775], [80.5378, 16.0773], [80.5368, 16.0778], [80.5358, 16.0783], [80.5358, 16.0784], [80.5358, 16.0785], [80.5359, 16.0787], [80.536, 16.079], [80.5362, 16.0796], [80.5363, 16.0798], [80.5352, 16.0803], [80.5343, 16.0807], [80.5334, 16.0811], [80.5334, 16.0812], [80.5334, 16.0814], [80.5333, 16.0816], [80.5333, 16.0818], [80.5332, 16.082], [80.5332, 16.0824], [80.5331, 16.0826], [80.5331, 16.0828], [80.533, 16.083], [80.533, 16.0831], [80.533, 16.0832], [80.533, 16.0833], [80.5329, 16.0836], [80.5328, 16.0838], [80.5328, 16.084], [80.5328, 16.0841], [80.5328, 16.0842], [80.5327, 16.0842], [80.5327, 16.0845], [80.5327, 16.0846], [80.5326, 16.0848], [80.5326, 16.085], [80.5325, 16.0855], [80.5324, 16.0858], [80.5324, 16.0859], [80.5323, 16.086], [80.5323, 16.0861], [80.5323, 16.0862], [80.5322, 16.0866], [80.5322, 16.0867], [80.5322, 16.0869], [80.5321, 16.0871], [80.5321, 16.0872], [80.5321, 16.0873], [80.5321, 16.0874], [80.532, 16.0876], [80.532, 16.0878], [80.532, 16.0879], [80.5319, 16.0882], [80.5319, 16.0884], [80.5318, 16.0888], [80.5318, 16.089], [80.5317, 16.0891], [80.5317, 16.0892], [80.5317, 16.0893], [80.5316, 16.0895], [80.5316, 16.0896], [80.5316, 16.0898], [80.5316, 16.0899], [80.5315, 16.0901], [80.5314, 16.0905], [80.5314, 16.0909], [80.5313, 16.0912], [80.5313, 16.0914], [80.5312, 16.0917], [80.5312, 16.092], [80.5311, 16.0922], [80.5311, 16.0923], [80.531, 16.0927], [80.531, 16.0928], [80.531, 16.0931], [80.5309, 16.0933], [80.5309, 16.0934], [80.5309, 16.0936], [80.5308, 16.0938], [80.5308, 16.0939], [80.5308, 16.0941], [80.5308, 16.0942], [80.5307, 16.0944], [80.5307, 16.0945], [80.5318, 16.0944], [80.5327, 16.0941], [80.5337, 16.0938], [80.5346, 16.0936], [80.5363, 16.0931], [80.5375, 16.0927]]]}, "properties": {"objectid": 54837, "statename": "Andhra Pradhesh", "statecode": "28", "districtname": "Guntur", "districtcode": "548", "ulbname": "Ponnur", "ulbcode": "802983", "wardname": "Ward 31", "wardcode": "31", "id": null, "status": "APPROVED", "misglobalid": null, "approved_by": null, "createdate": 1640004026000, "updateddate": 1655117654000, "globalid": "RslRKQd5-RoKd-PdoQ-aonc-R6lo4KndaQ6a", "gisglobalid": "d3520bf9-0f5f-4a8c-8b77-eff4fd7ad72d", "remark": "", "st_area(shape)": 0.0002443692160897466, "st_perimeter(shape)": 0.07060233930457968}}]}
